{"type": "FeatureCollection", "features": [{"type": "Feature", "geometry": {"type": "Point", "coordinates": [106.906024, -6.1594082]}, "properties": {"id": "5984702926", "name": "Boulevard Utara Summarecon Mall", "mode_label": "LRT", "operator": "PT LRT Jakarta"}}, {"type": "Feature", "geometry": {"type": "Point", "coordinates": [106.8570718, -6.2434846]}, "properties": {"id": "6720467131", "name": "Cikoko", "mode_label": "LRT", "operator": "PT Kereta Api Indonesia (Persero), Divisi LRT Jabodebek"}}, {"type": "Feature", "geometry": {"type": "Point", "coordinates": [106.9632112, -6.2546502]}, "properties": {"id": "8174072564", "name": "Cikunir 2", "mode_label": "LRT", "operator": "PT Kereta Api Indonesia (Persero), Divisi LRT Jabodebek"}}, {"type": "Feature", "geometry": {"type": "Point", "coordinates": [106.8866433, -6.3237693]}, "properties": {"id": "8174072568", "name": "Ciracas", "mode_label": "LRT", "operator": "PT Kereta Api Indonesia (Persero), Divisi LRT Jabodebek"}}, {"type": "Feature", "geometry": {"type": "Point", "coordinates": [106.8913536, -6.1835534]}, "properties": {"id": "5984702929", "name": "Equestrian", "mode_label": "LRT", "operator": "PT LRT Jakarta"}}, {"type": "Feature", "geometry": {"type": "Point", "coordinates": [106.9279199, -6.2577476]}, "properties": {"id": "8174072566", "name": "Jatibening Baru", "mode_label": "LRT", "operator": "PT Kereta Api Indonesia (Persero), Divisi LRT Jabodebek"}}, {"type": "Feature", "geometry": {"type": "Point", "coordinates": [106.8843804, -6.3095494]}, "properties": {"id": "6720467137", "name": "Kampung Rambutan", "mode_label": "LRT", "operator": "PT Kereta Api Indonesia (Persero), Divisi LRT Jabodebek"}}, {"type": "Feature", "geometry": {"type": "Point", "coordinates": [106.8302343, -6.2093224]}, "properties": {"id": "6720467135", "name": "Setiabudi", "mode_label": "LRT", "operator": "PT Kereta Api Indonesia (Persero), Divisi LRT Jabodebek"}}, {"type": "Feature", "geometry": {"type": "Point", "coordinates": [106.8805584, -6.2929088]}, "properties": {"id": "4907843137", "name": "Taman Mini", "mode_label": "LRT", "operator": "PT Kereta Api Indonesia (Persero), Divisi LRT Jabodebek"}}, {"type": "Feature", "geometry": {"type": "Point", "coordinates": [106.8911771, -6.1921316]}, "properties": {"id": "5984702930", "name": "Velodrome", "mode_label": "LRT", "operator": "PT LRT Jakarta"}}, {"type": "Feature", "geometry": {"type": "Point", "coordinates": [106.8712296, -6.245907]}, "properties": {"id": "12260707174", "name": "Cawang", "mode_label": "LRT", "operator": "PT Kereta Api Indonesia (Persero), Divisi LRT Jabodebek"}}, {"type": "Feature", "geometry": {"type": "Point", "coordinates": [106.9518734, -6.2566001]}, "properties": {"id": "8174072565", "name": "Cikunir 1", "mode_label": "LRT", "operator": "PT Kereta Api Indonesia (Persero), Divisi LRT Jabodebek"}}, {"type": "Feature", "geometry": {"type": "Point", "coordinates": [106.8872875, -6.2458656]}, "properties": {"id": "9761865798", "name": "Halim", "mode_label": "LRT", "operator": "PT Kereta Api Indonesia (Persero), Divisi LRT Jabodebek"}}, {"type": "Feature", "geometry": {"type": "Point", "coordinates": [106.8956698, -6.3738926]}, "properties": {"id": "6720467138", "name": "Harjamukti", "mode_label": "LRT", "operator": "PT Kereta Api Indonesia (Persero), Divisi LRT Jabodebek"}}, {"type": "Feature", "geometry": {"type": "Point", "coordinates": [106.8933929, -6.1773105]}, "properties": {"id": "5984702928", "name": "Pulomas", "mode_label": "LRT", "operator": "PT LRT Jakarta"}}, {"type": "Feature", "geometry": {"type": "Point", "coordinates": [106.6530206, -6.1231346]}, "properties": {"id": "13257085883", "name": "Terminal 2", "mode_label": "LRT", "operator": "Injourney Airports"}}, {"type": "Feature", "geometry": {"type": "Point", "coordinates": [106.6529471, -6.1271283]}, "properties": {"id": "13257085881", "name": "Bandara Soekarno-Hatta", "mode_label": "LRT", "operator": "Injourney Airports"}}, {"type": "Feature", "geometry": {"type": "Point", "coordinates": [106.9142091, -6.1572135]}, "properties": {"id": "5984702931", "name": "Kelapa Gading", "mode_label": "LRT", "operator": "PT LRT Jakarta"}}, {"type": "Feature", "geometry": {"type": "Point", "coordinates": [106.8322373, -6.2216089]}, "properties": {"id": "6720467136", "name": "Rasuna Said", "mode_label": "LRT", "operator": "PT Kereta Api Indonesia (Persero), Divisi LRT Jabodebek"}}, {"type": "Feature", "geometry": {"type": "Point", "coordinates": [106.655816, -6.1302909]}, "properties": {"id": "13257085882", "name": "Terminal 1", "mode_label": "LRT", "operator": "Injourney Airports"}}, {"type": "Feature", "geometry": {"type": "Point", "coordinates": [106.8332031, -6.2287727]}, "properties": {"id": "8174072567", "name": "Kuningan", "mode_label": "LRT", "operator": "PT Kereta Api Indonesia (Persero), Divisi LRT Jabodebek"}}, {"type": "Feature", "geometry": {"type": "Point", "coordinates": [106.8639705, -6.2434461]}, "properties": {"id": "8487603262", "name": "Ciliwung", "mode_label": "LRT", "operator": "PT Kereta Api Indonesia (Persero), Divisi LRT Jabodebek"}}, {"type": "Feature", "geometry": {"type": "Point", "coordinates": [106.8255301, -6.204828]}, "properties": {"id": "8174072570", "name": "Dukuh Atas Bank Syariah Indonesia", "mode_label": "LRT", "operator": "PT Kereta Api Indonesia (Persero), Divisi LRT Jabodebek"}}, {"type": "Feature", "geometry": {"type": "Point", "coordinates": [106.9904237, -6.2529489]}, "properties": {"id": "8174072563", "name": "Bekasi Barat", "mode_label": "LRT", "operator": "PT Kereta Api Indonesia (Persero), Divisi LRT Jabodebek"}}, {"type": "Feature", "geometry": {"type": "Point", "coordinates": [106.6651182, -6.1197896]}, "properties": {"id": "13257085884", "name": "Terminal 3", "mode_label": "LRT", "operator": "Injourney Airports"}}, {"type": "Feature", "geometry": {"type": "Point", "coordinates": [106.8998732, -6.1691934]}, "properties": {"id": "5984702927", "name": "Boulevard Selatan", "mode_label": "LRT", "operator": "PT LRT Jakarta"}}, {"type": "Feature", "geometry": {"type": "Point", "coordinates": [107.0216701, -6.2641077]}, "properties": {"id": "7616402144", "name": "Jatimulya", "mode_label": "LRT", "operator": "PT Kereta Api Indonesia (Persero), Divisi LRT Jabodebek"}}, {"type": "Feature", "geometry": {"type": "Point", "coordinates": [106.8385146, -6.2421415]}, "properties": {"id": "6720467132", "name": "Pancoran", "mode_label": "LRT", "operator": "PT Kereta Api Indonesia (Persero), Divisi LRT Jabodebek"}}]}