{"type": "FeatureCollection", "features": [{"type": "Feature", "geometry": {"type": "Point", "coordinates": [106.7907695, -6.5942887]}, "properties": {"id": "7880147174", "name": "Bogor", "mode_label": "KRL", "operator": "Kereta Commuter Indonesia"}}, {"type": "Feature", "geometry": {"type": "Point", "coordinates": [106.7906486, -6.5978118]}, "properties": {"id": "9794787443", "name": "Bogor Paledang", "mode_label": "KRL", "operator": "PT Kereta Api Indonesia"}}, {"type": "Feature", "geometry": {"type": "Point", "coordinates": [106.7361338, -6.1602142]}, "properties": {"id": "11201927617", "name": "Bojong Indah", "mode_label": "KRL", "operator": "PT Kereta Api Indonesia"}}, {"type": "Feature", "geometry": {"type": "Point", "coordinates": [106.92316, -6.2156064]}, "properties": {"id": "3865048155", "name": "Buaran", "mode_label": "KRL", "operator": "PT Kereta Api Indonesia"}}, {"type": "Feature", "geometry": {"type": "Point", "coordinates": [106.8586903, -6.2425517]}, "properties": {"id": "2334098791", "name": "Cawang", "mode_label": "KRL", "operator": "PT Kereta Api Indonesia"}}, {"type": "Feature", "geometry": {"type": "Point", "coordinates": [107.0837982, -6.2618245]}, "properties": {"id": "316744738", "name": "Cibitung", "mode_label": "KRL", "operator": "KAI Commuter"}}, {"type": "Feature", "geometry": {"type": "Point", "coordinates": [106.4116547, -6.3357385]}, "properties": {"id": "5310716224", "name": "Cikoya", "mode_label": "KRL", "operator": "PT Kereta Api Indonesia"}}, {"type": "Feature", "geometry": {"type": "Point", "coordinates": [106.8006884, -6.5307239]}, "properties": {"id": "1235347475", "name": "Cilebut", "mode_label": "KRL", "operator": "PT Kereta Commuter Indonesia"}}, {"type": "Feature", "geometry": {"type": "Point", "coordinates": [106.5096432, -6.3542652]}, "properties": {"id": "1191930798", "name": "Cilejit", "mode_label": "KRL", "operator": "PT Kereta Api Indonesia"}}, {"type": "Feature", "geometry": {"type": "Point", "coordinates": [106.8023619, -6.4488237]}, "properties": {"id": "318841469", "name": "Citayam", "mode_label": "KRL", "operator": "PT Kereta Commuter Indonesia"}}, {"type": "Feature", "geometry": {"type": "Point", "coordinates": [106.4925632, -6.3379704]}, "properties": {"id": "1191930671", "name": "Daru", "mode_label": "KRL", "operator": "PT Kereta Api Indonesia"}}, {"type": "Feature", "geometry": {"type": "Point", "coordinates": [106.8170842, -6.4048263]}, "properties": {"id": "1642327224", "name": "Depok", "mode_label": "KRL", "operator": "PT Kereta Api Indonesia"}}, {"type": "Feature", "geometry": {"type": "Point", "coordinates": [106.8306473, -6.1766553]}, "properties": {"id": "4891132084", "name": "Gambir", "mode_label": "KRL", "operator": "PT Kereta Api Indonesia"}}, {"type": "Feature", "geometry": {"type": "Point", "coordinates": [106.8508709, -6.1861531]}, "properties": {"id": "4921653106", "name": "Gang Sentiong", "mode_label": "KRL", "operator": "PT Kereta Api Indonesia"}}, {"type": "Feature", "geometry": {"type": "Point", "coordinates": [106.8613596, -6.1228211]}, "properties": {"id": "5726702622", "name": "Jakarta International Stadium", "mode_label": "KRL", "operator": ""}}, {"type": "Feature", "geometry": {"type": "Point", "coordinates": [106.6066128, -6.3349941]}, "properties": {"id": "9335291125", "name": "Jatake", "mode_label": "KRL", "operator": "PT Kereta Api Indonesia"}}, {"type": "Feature", "geometry": {"type": "Point", "coordinates": [106.8304609, -6.1666746]}, "properties": {"id": "4883105492", "name": "Juanda", "mode_label": "KRL", "operator": "PT Kereta Api Indonesia"}}, {"type": "Feature", "geometry": {"type": "Point", "coordinates": [106.7291463, -6.288582]}, "properties": {"id": "318720710", "name": "Jurangmangu", "mode_label": "KRL", "operator": "PT Kereta Api Indonesia"}}, {"type": "Feature", "geometry": {"type": "Point", "coordinates": [106.7825345, -6.23723]}, "properties": {"id": "5070781613", "name": "Kebayoran", "mode_label": "KRL", "operator": "PT Kereta Api Indonesia"}}, {"type": "Feature", "geometry": {"type": "Point", "coordinates": [106.8414012, -6.1617033]}, "properties": {"id": "4899822033", "name": "Kemayoran", "mode_label": "KRL", "operator": "PT Kereta Api Indonesia"}}, {"type": "Feature", "geometry": {"type": "Point", "coordinates": [106.8346791, -6.3303079]}, "properties": {"id": "5019465652", "name": "Lenteng Agung", "mode_label": "KRL", "operator": "PT Kereta Api Indonesia"}}, {"type": "Feature", "geometry": {"type": "Point", "coordinates": [106.8623419, -6.2091242]}, "properties": {"id": "4800675082", "name": "Pondok Jati", "mode_label": "KRL", "operator": "PT Kereta Api Indonesia"}}, {"type": "Feature", "geometry": {"type": "Point", "coordinates": [106.824296, -6.4607829]}, "properties": {"id": "1228345121", "name": "Pondok Rajeg", "mode_label": "KRL", "operator": "PT Kereta Commuter Indonesia"}}, {"type": "Feature", "geometry": {"type": "Point", "coordinates": [106.6807523, -6.1697346]}, "properties": {"id": "4149415299", "name": "Poris", "mode_label": "KRL", "operator": "PT Kereta Api Indonesia"}}, {"type": "Feature", "geometry": {"type": "Point", "coordinates": [106.7227543, -6.1627437]}, "properties": {"id": "5033751697", "name": "Rawa Buaya", "mode_label": "KRL", "operator": "PT Kereta Api Indonesia"}}, {"type": "Feature", "geometry": {"type": "Point", "coordinates": [106.8814984, -6.1106914]}, "properties": {"id": "5023480157", "name": "Tanjung Priuk", "mode_label": "KRL", "operator": "PT Kereta Api Indonesia"}}, {"type": "Feature", "geometry": {"type": "Point", "coordinates": [106.8584389, -6.2263977]}, "properties": {"id": "3056674105", "name": "Tebet", "mode_label": "KRL", "operator": "PT Kereta Api Indonesia"}}, {"type": "Feature", "geometry": {"type": "Point", "coordinates": [106.834263, -6.3393452]}, "properties": {"id": "4910182667", "name": "Universitas Pancasila", "mode_label": "KRL", "operator": "PT Kereta Api Indonesia"}}, {"type": "Feature", "geometry": {"type": "Point", "coordinates": [106.8451374, -6.128115]}, "properties": {"id": "5124126895", "name": "Ancol", "mode_label": "KRL", "operator": "PT Kereta Api Indonesia"}}, {"type": "Feature", "geometry": {"type": "Point", "coordinates": [106.8007792, -6.1447372]}, "properties": {"id": "4961436159", "name": "Angke", "mode_label": "KRL", "operator": "PT Kereta Api Indonesia"}}, {"type": "Feature", "geometry": {"type": "Point", "coordinates": [106.6525156, -6.1272786]}, "properties": {"id": "12035137991", "name": "Bandara Soekarno-Hatta", "mode_label": "KRL", "operator": "KAI Commuter"}}, {"type": "Feature", "geometry": {"type": "Point", "coordinates": [106.6652866, -6.1720268]}, "properties": {"id": "9201422096", "name": "Batu Ceper", "mode_label": "KRL", "operator": "PT KAI"}}, {"type": "Feature", "geometry": {"type": "Point", "coordinates": [106.9987436, -6.2362143]}, "properties": {"id": "3469731328", "name": "Bekasi", "mode_label": "KRL", "operator": "PT Kereta Api Indonesia"}}, {"type": "Feature", "geometry": {"type": "Point", "coordinates": [106.6189713, -6.329683]}, "properties": {"id": "1191930747", "name": "Cicayur", "mode_label": "KRL", "operator": "PT Kereta Api Indonesia"}}, {"type": "Feature", "geometry": {"type": "Point", "coordinates": [107.1450733, -6.2553138]}, "properties": {"id": "11185037567", "name": "Cikarang", "mode_label": "KRL", "operator": "PT Kereta Api Indonesia"}}, {"type": "Feature", "geometry": {"type": "Point", "coordinates": [106.8146203, -6.1375828]}, "properties": {"id": "5036305391", "name": "Jakarta Kota", "mode_label": "KRL", "operator": "PT Kereta Api Indonesia"}}, {"type": "Feature", "geometry": {"type": "Point", "coordinates": [106.8703394, -6.2149252]}, "properties": {"id": "4797813240", "name": "Jatinegara", "mode_label": "KRL", "operator": "PT Kereta Api Indonesia"}}, {"type": "Feature", "geometry": {"type": "Point", "coordinates": [106.8284875, -6.1327023]}, "properties": {"id": "5579655834", "name": "Kampung Bandan", "mode_label": "KRL", "operator": "PT Kereta Api Indonesia"}}, {"type": "Feature", "geometry": {"type": "Point", "coordinates": [106.9401833, -6.2176591]}, "properties": {"id": "4901690569", "name": "Klender Baru", "mode_label": "KRL", "operator": "PT Kereta Api Indonesia"}}, {"type": "Feature", "geometry": {"type": "Point", "coordinates": [106.8565119, -6.1936203]}, "properties": {"id": "4149249345", "name": "Kramat", "mode_label": "KRL", "operator": "PT Kereta Api Indonesia"}}, {"type": "Feature", "geometry": {"type": "Point", "coordinates": [106.7972321, -6.2079197]}, "properties": {"id": "4877432803", "name": "Palmerah", "mode_label": "KRL", "operator": "PT Kereta Api Indonesia"}}, {"type": "Feature", "geometry": {"type": "Point", "coordinates": [106.6655836, -6.3201527]}, "properties": {"id": "4152468605", "name": "Serpong", "mode_label": "KRL", "operator": "PT Kereta Api Indonesia"}}, {"type": "Feature", "geometry": {"type": "Point", "coordinates": [107.0558044, -6.2585496]}, "properties": {"id": "9201422030", "name": "Tambun", "mode_label": "KRL", "operator": "PT Kereta Api Indonesia"}}, {"type": "Feature", "geometry": {"type": "Point", "coordinates": [106.4616586, -6.3273185]}, "properties": {"id": "1191930466", "name": "Tenjo", "mode_label": "KRL", "operator": "PT Kereta Api Indonesia"}}, {"type": "Feature", "geometry": {"type": "Point", "coordinates": [106.4340596, -6.328836]}, "properties": {"id": "1191729437", "name": "Tigaraksa", "mode_label": "KRL", "operator": "PT Kereta Api Indonesia"}}, {"type": "Feature", "geometry": {"type": "Point", "coordinates": [106.795025, -6.4932345]}, "properties": {"id": "5541079384", "name": "Bojonggede", "mode_label": "KRL", "operator": "PT Kereta Commuter Indonesia"}}, {"type": "Feature", "geometry": {"type": "Point", "coordinates": [106.8216412, -6.3911293]}, "properties": {"id": "204537445", "name": "Depok Baru", "mode_label": "KRL", "operator": "PT Kereta Api Indonesia"}}, {"type": "Feature", "geometry": {"type": "Point", "coordinates": [106.9798267, -6.2245133]}, "properties": {"id": "316743611", "name": "Kranji", "mode_label": "KRL", "operator": "PT Kereta Api Indonesia"}}, {"type": "Feature", "geometry": {"type": "Point", "coordinates": [106.8269826, -6.1498037]}, "properties": {"id": "4976561246", "name": "Mangga Besar", "mode_label": "KRL", "operator": "PT Kereta Api Indonesia"}}, {"type": "Feature", "geometry": {"type": "Point", "coordinates": [106.8597528, -6.2125672]}, "properties": {"id": "7764926504", "name": "Matraman", "mode_label": "KRL", "operator": "PT Kereta Api Indonesia"}}, {"type": "Feature", "geometry": {"type": "Point", "coordinates": [106.5698462, -6.3443444]}, "properties": {"id": "1191930561", "name": "Parungpanjang", "mode_label": "KRL", "operator": "PT Kereta Api Indonesia"}}, {"type": "Feature", "geometry": {"type": "Point", "coordinates": [106.8445744, -6.1744233]}, "properties": {"id": "4849162195", "name": "Pasar Senen", "mode_label": "KRL", "operator": "PT Kereta Api Indonesia"}}, {"type": "Feature", "geometry": {"type": "Point", "coordinates": [106.7719077, -6.1612525]}, "properties": {"id": "4149368915", "name": "Pesing", "mode_label": "KRL", "operator": "PT Kereta Api Indonesia"}}, {"type": "Feature", "geometry": {"type": "Point", "coordinates": [106.8197174, -6.2015938]}, "properties": {"id": "4908440160", "name": "BNI City", "mode_label": "KRL", "operator": "PT Kereta Api Indonesia"}}, {"type": "Feature", "geometry": {"type": "Point", "coordinates": [107.0181046, -6.2467953]}, "properties": {"id": "5155429394", "name": "Bekasi Timur", "mode_label": "KRL", "operator": "PT Kereta Api Indonesia"}}, {"type": "Feature", "geometry": {"type": "Point", "coordinates": [106.8525201, -6.4642482]}, "properties": {"id": "1228345128", "name": "Cibinong", "mode_label": "KRL", "operator": "PT Kereta Commuter Indonesia"}}, {"type": "Feature", "geometry": {"type": "Point", "coordinates": [106.8012968, -6.1552764]}, "properties": {"id": "4963295116", "name": "Duri", "mode_label": "KRL", "operator": "PT Kereta Api Indonesia"}}, {"type": "Feature", "geometry": {"type": "Point", "coordinates": [106.849935, -6.2101704]}, "properties": {"id": "4815286700", "name": "Manggarai", "mode_label": "KRL", "operator": "PT Kereta Api Indonesia"}}, {"type": "Feature", "geometry": {"type": "Point", "coordinates": [106.6761518, -6.314884]}, "properties": {"id": "5459945761", "name": "Rawa Buntu", "mode_label": "KRL", "operator": "PT Kereta Api Indonesia"}}, {"type": "Feature", "geometry": {"type": "Point", "coordinates": [106.7126471, -6.2968441]}, "properties": {"id": "316848964", "name": "Sudimara", "mode_label": "KRL", "operator": "PT Kereta Api Indonesia"}}, {"type": "Feature", "geometry": {"type": "Point", "coordinates": [106.831782, -6.3604315]}, "properties": {"id": "2372928209", "name": "Universitas Indonesia", "mode_label": "KRL", "operator": "PT Kereta Api Indonesia"}}, {"type": "Feature", "geometry": {"type": "Point", "coordinates": [106.8412799, -6.1985052]}, "properties": {"id": "4817686767", "name": "Cikini", "mode_label": "KRL", "operator": "PT Kereta Api Indonesia"}}, {"type": "Feature", "geometry": {"type": "Point", "coordinates": [106.6416257, -6.3244445]}, "properties": {"id": "7249140957", "name": "Cisauk", "mode_label": "KRL", "operator": "PT Kereta Api Indonesia"}}, {"type": "Feature", "geometry": {"type": "Point", "coordinates": [106.7896101, -6.162035]}, "properties": {"id": "5047494890", "name": "Grogol", "mode_label": "KRL", "operator": "PT Kereta Api Indonesia"}}, {"type": "Feature", "geometry": {"type": "Point", "coordinates": [106.8448558, -6.2833322]}, "properties": {"id": "4976676188", "name": "Pasar Minggu", "mode_label": "KRL", "operator": "PT Kereta Api Indonesia"}}, {"type": "Feature", "geometry": {"type": "Point", "coordinates": [106.8320844, -6.3690593]}, "properties": {"id": "4149398980", "name": "Pondok Cina", "mode_label": "KRL", "operator": "PT Kereta Api Indonesia"}}, {"type": "Feature", "geometry": {"type": "Point", "coordinates": [106.7446926, -6.2766831]}, "properties": {"id": "318718577", "name": "Pondok Ranji", "mode_label": "KRL", "operator": "PT Kereta Api Indonesia"}}, {"type": "Feature", "geometry": {"type": "Point", "coordinates": [106.8234493, -6.2024081]}, "properties": {"id": "4925555833", "name": "Sudirman", "mode_label": "KRL", "operator": "PT Kereta Api Indonesia"}}, {"type": "Feature", "geometry": {"type": "Point", "coordinates": [106.8108938, -6.1857127]}, "properties": {"id": "4836555990", "name": "Tanah Abang", "mode_label": "KRL", "operator": "PT Kereta Api Indonesia"}}, {"type": "Feature", "geometry": {"type": "Point", "coordinates": [106.9524791, -6.219081]}, "properties": {"id": "3865048788", "name": "Cakung", "mode_label": "KRL", "operator": "PT Kereta Api Indonesia"}}, {"type": "Feature", "geometry": {"type": "Point", "coordinates": [106.8325657, -6.1859109]}, "properties": {"id": "4798377262", "name": "Gondangdia", "mode_label": "KRL", "operator": "PT Kereta Api Indonesia"}}, {"type": "Feature", "geometry": {"type": "Point", "coordinates": [106.8994133, -6.2133188]}, "properties": {"id": "4900932061", "name": "Klender", "mode_label": "KRL", "operator": "PT Kereta Api Indonesia"}}, {"type": "Feature", "geometry": {"type": "Point", "coordinates": [106.3964794, -6.332503]}, "properties": {"id": "12035137736", "name": "Maja", "mode_label": "KRL", "operator": "PT. KAI"}}, {"type": "Feature", "geometry": {"type": "Point", "coordinates": [106.8517957, -6.262798]}, "properties": {"id": "4881688223", "name": "Pasar Minggu Baru", "mode_label": "KRL", "operator": "PT Kereta Api Indonesia"}}, {"type": "Feature", "geometry": {"type": "Point", "coordinates": [106.8368325, -6.1450996]}, "properties": {"id": "4963127710", "name": "Rajawali", "mode_label": "KRL", "operator": "PT Kereta Api Indonesia"}}, {"type": "Feature", "geometry": {"type": "Point", "coordinates": [106.7565728, -6.158627]}, "properties": {"id": "5070875099", "name": "Taman Kota", "mode_label": "KRL", "operator": "PT Kereta Api Indonesia"}}, {"type": "Feature", "geometry": {"type": "Point", "coordinates": [106.8551672, -6.2552012]}, "properties": {"id": "318840303", "name": "Duren Kalibata", "mode_label": "KRL", "operator": "PT Kereta Api Indonesia"}}, {"type": "Feature", "geometry": {"type": "Point", "coordinates": [106.7037283, -6.1659662]}, "properties": {"id": "4905517383", "name": "Kalideres", "mode_label": "KRL", "operator": "PT Kereta Api Indonesia"}}, {"type": "Feature", "geometry": {"type": "Point", "coordinates": [107.111227, -6.2574741]}, "properties": {"id": "5312478122", "name": "Metland Telagamurni", "mode_label": "KRL", "operator": "PT Kereta Api Indonesia"}}, {"type": "Feature", "geometry": {"type": "Point", "coordinates": [106.906269, -6.466282]}, "properties": {"id": "1228345071", "name": "Nambo", "mode_label": "KRL", "operator": "PT Kereta Commuter Indonesia"}}, {"type": "Feature", "geometry": {"type": "Point", "coordinates": [106.6320106, -6.1769753]}, "properties": {"id": "316739175", "name": "Tangerang", "mode_label": "KRL", "operator": ""}}, {"type": "Feature", "geometry": {"type": "Point", "coordinates": [106.8389492, -6.3080407]}, "properties": {"id": "4928014343", "name": "Tanjung Barat", "mode_label": "KRL", "operator": "PT Kereta Api Indonesia"}}, {"type": "Feature", "geometry": {"type": "Point", "coordinates": [106.8231322, -6.1412999]}, "properties": {"id": "4981870932", "name": "Jayakarta", "mode_label": "KRL", "operator": "PT Kereta Api Indonesia"}}, {"type": "Feature", "geometry": {"type": "Point", "coordinates": [106.6467095, -6.1751701]}, "properties": {"id": "316739060", "name": "Tanah Tinggi", "mode_label": "KRL", "operator": ""}}, {"type": "Feature", "geometry": {"type": "Point", "coordinates": [106.8276549, -6.1606672]}, "properties": {"id": "4923408354", "name": "Sawah Besar", "mode_label": "KRL", "operator": "PT Kereta Api Indonesia"}}, {"type": "Feature", "geometry": {"type": "Point", "coordinates": [106.8167704, -6.2009538]}, "properties": {"id": "4849205568", "name": "Karet", "mode_label": "KRL", "operator": "PT Kereta Api Indonesia"}}]}