{"type": "FeatureCollection", "features": [{"type": "Feature", "geometry": {"type": "MultiLineString", "coordinates": [[[106.8912139, -6.1926399], [106.891218, -6.1919263], [106.8912234, -6.1914774]], [[106.8912234, -6.1914774], [106.891225, -6.1913454], [106.8912285, -6.1909767], [106.8912285, -6.1907716], [106.8911984, -6.1893972], [106.8911801, -6.188938], [106.8911599, -6.1883794], [106.8911579, -6.1877057], [106.8911892, -6.1855131], [106.8912203, -6.1850498], [106.8913141, -6.1840543], [106.8913929, -6.1833748], [106.8914281, -6.1830713], [106.8915377, -6.182263], [106.891586, -6.1820006], [106.8916528, -6.181726], [106.8918812, -6.180805], [106.8919379, -6.1806096], [106.8920979, -6.1800856], [106.8922539, -6.1796277], [106.8925061, -6.178998], [106.8927082, -6.1785336], [106.892795, -6.1783426], [106.892903, -6.1781375], [106.8930981, -6.1778053], [106.8932002, -6.1776497], [106.8935721, -6.1770771], [106.8937655, -6.1767849], [106.8938566, -6.1766505], [106.8939361, -6.1765584], [106.8940201, -6.1764678], [106.8941134, -6.1763743], [106.8942033, -6.1762983], [106.8942985, -6.1762263], [106.8944125, -6.176157], [106.8945443, -6.1760854], [106.8947236, -6.1759956], [106.8953003, -6.175693], [106.8954948, -6.1755783], [106.8956181, -6.1754983], [106.8957281, -6.1754143], [106.8958502, -6.1753063], [106.8959628, -6.1751997], [106.8961054, -6.1750483], [106.896257, -6.1748552], [106.8967302, -6.1741674], [106.8972397, -6.1734042], [106.8975775, -6.1728783], [106.8991846, -6.1703186], [106.899517, -6.1697858], [106.8999998, -6.1690222], [106.9001409, -6.1687984], [106.9010847, -6.1672941], [106.9021601, -6.1655811], [106.9051297, -6.16089], [106.9056772, -6.1600129], [106.906134, -6.1592804], [106.9067995, -6.1582084], [106.9068714, -6.1580955], [106.9071543, -6.1576642], [106.9073072, -6.1574245], [106.9075864, -6.1569801], [106.9080245, -6.1562761], [106.9086676, -6.1552367], [106.9089046, -6.1548598], [106.9089651, -6.1547739], [106.9090378, -6.1547022], [106.9091003, -6.154661], [106.9091716, -6.154627], [106.9093073, -6.1545947], [106.9093954, -6.1545829], [106.9096574, -6.1546115], [106.9103517, -6.1547065], [106.9108498, -6.154754], [106.9121835, -6.1548407], [106.9135529, -6.1549039], [106.9136231, -6.1549089], [106.9136941, -6.1549224], [106.9137598, -6.1549403], [106.9138087, -6.1549559]], [[106.9138087, -6.1549559], [106.9138548, -6.1549774], [106.9138953, -6.1550023], [106.9139398, -6.155034], [106.9139792, -6.1550663], [106.9140111, -6.1550972], [106.9140452, -6.1551363], [106.9140762, -6.1551773], [106.9140935, -6.1552089], [106.9141133, -6.155249], [106.9141275, -6.1552929], [106.9141409, -6.1553503], [106.9141498, -6.1554233], [106.914152, -6.1554954], [106.9141503, -6.1559112]], [[106.9141377, -6.1572054], [106.9141503, -6.1559112]]]}, "properties": {"name": "Lin Selatan: Velodrome → Kelapa Gading", "ref": "S", "operator": "", "mode_label": "LRT"}}, {"type": "Feature", "geometry": {"type": "MultiLineString", "coordinates": [[[106.9143009, -6.1559132], [106.9142841, -6.15721]], [[106.9143009, -6.1559132], [106.9143069, -6.1555618], [106.9143047, -6.1554662], [106.9142968, -6.1553785], [106.9142801, -6.1552965], [106.9142548, -6.1552282], [106.9142209, -6.1551623], [106.9141718, -6.1550963], [106.9141194, -6.1550444], [106.9140744, -6.15501], [106.9140251, -6.1549713], [106.9139561, -6.1549328], [106.9138968, -6.1549119], [106.9138336, -6.1548968], [106.913759, -6.1548856], [106.9121885, -6.1548063], [106.9108571, -6.1547167], [106.9103552, -6.1546688], [106.9096935, -6.1545734], [106.9094, -6.1545383], [106.9092879, -6.1545428], [106.9092212, -6.1545585], [106.9091517, -6.1545771], [106.9090734, -6.154603], [106.9089906, -6.1546565], [106.9089133, -6.1547264], [106.9088713, -6.154777], [106.9088071, -6.1548681], [106.9086027, -6.1552007], [106.9079599, -6.1562366], [106.9075176, -6.1569383], [106.9074286, -6.1570797], [106.9069415, -6.1578864], [106.9068351, -6.1580693], [106.9067602, -6.1581894], [106.9062745, -6.1589601], [106.9058583, -6.1596233], [106.9056319, -6.1599872], [106.9050841, -6.1608695], [106.904891, -6.1611871]], [[106.904891, -6.1611871], [106.9021364, -6.165552], [106.9010568, -6.1672758], [106.9001183, -6.1687744], [106.8997119, -6.1694141], [106.899494, -6.1697641], [106.8991587, -6.170298], [106.897548, -6.1728623], [106.8972181, -6.1733797], [106.896703, -6.1741503], [106.896231, -6.174837], [106.8960822, -6.1750237], [106.8959494, -6.1751703], [106.8958367, -6.1752743], [106.895712, -6.175381], [106.8955967, -6.1754676], [106.8954746, -6.1755476], [106.8952829, -6.175661], [106.8947333, -6.175952], [106.8945631, -6.1760384], [106.8943766, -6.1761378], [106.8942654, -6.1762089], [106.8941875, -6.1762653], [106.8940753, -6.1763631], [106.8939889, -6.1764462], [106.8938899, -6.1765533], [106.8938229, -6.1766308], [106.8937283, -6.1767735], [106.8933292, -6.1773887], [106.893178, -6.1776202], [106.8930681, -6.1777894], [106.8928654, -6.1781173], [106.8927552, -6.1783228], [106.8926691, -6.1785068], [106.8924671, -6.1789699], [106.8922086, -6.179622], [106.8920526, -6.1800732], [106.8918953, -6.1805919], [106.8918358, -6.1807946], [106.8916064, -6.181716], [106.8915437, -6.181991], [106.8914933, -6.182269], [106.8913885, -6.1830507], [106.8913085, -6.1837401], [106.8912739, -6.1840388], [106.8911791, -6.1850355], [106.8911435, -6.1855131], [106.8911112, -6.1877074], [106.8911137, -6.188384], [106.8911366, -6.1889428], [106.8911504, -6.1893907], [106.8911837, -6.1907763], [106.8911838, -6.1909752], [106.8911811, -6.1913454], [106.8911802, -6.1914785]], [[106.8911802, -6.1914785], [106.891173, -6.1923177], [106.8911726, -6.1926429]]]}, "properties": {"name": "Lin Selatan: Kelapa Gading → Velodrome", "ref": "S", "operator": "", "mode_label": "LRT"}}, {"type": "Feature", "geometry": {"type": "MultiLineString", "coordinates": [[[106.6654516, -6.1197065], [106.6652801, -6.1197793], [106.6650735, -6.1198746], [106.6648438, -6.1199863], [106.664797, -6.1198991], [106.6650342, -6.1197839], [106.6652379, -6.1196921], [106.6654113, -6.119616], [106.6654516, -6.1197065]], [[106.6526718, -6.1232072], [106.6528926, -6.1231184], [106.6531024, -6.123034], [106.6533215, -6.1229459], [106.6533564, -6.1230317], [106.6531366, -6.1231202], [106.6529279, -6.1232042], [106.6527067, -6.1232932], [106.6526718, -6.1232072]], [[106.6530107, -6.1274835], [106.652924, -6.1272629], [106.6528415, -6.1270534], [106.6527555, -6.1268345], [106.6528421, -6.1268008], [106.6529286, -6.1270204], [106.6530107, -6.1272288], [106.6530976, -6.1274498], [106.6530107, -6.1274835]], [[106.6555087, -6.1303774], [106.6561306, -6.1301297], [106.6561699, -6.1302271], [106.655548, -6.130475], [106.6555087, -6.1303774]], [[106.664612, -6.1201363], [106.665068, -6.1199075], [106.6654696, -6.1197223]], [[106.6635671, -6.1206777], [106.6641268, -6.1203903], [106.664612, -6.1201363]], [[106.6635671, -6.1206777], [106.6622893, -6.1213365], [106.661041, -6.1219767], [106.6608565, -6.1220776], [106.6606306, -6.1222115], [106.6604327, -6.1223388], [106.6596915, -6.1228347], [106.6594684, -6.1229795], [106.6592869, -6.1230894], [106.6590594, -6.1232158], [106.6588702, -6.1233138], [106.6586335, -6.1234236], [106.6583647, -6.1235387], [106.6562689, -6.1243763], [106.6561104, -6.1244375], [106.6559744, -6.1244773], [106.6558402, -6.1244963], [106.655704, -6.1244961], [106.6555896, -6.12448], [106.6554506, -6.1244402], [106.6553459, -6.1243895], [106.6552483, -6.1243288], [106.655146, -6.1242392], [106.6550661, -6.1241523], [106.654984, -6.1240345], [106.6549175, -6.1238975], [106.6547352, -6.1234567], [106.6546706, -6.1233406], [106.6545918, -6.1232324], [106.6544947, -6.1231364], [106.6543666, -6.1230411], [106.6542393, -6.1229801], [106.654105, -6.1229395], [106.6539713, -6.1229189], [106.6538096, -6.1229192], [106.6537132, -6.1229322], [106.6535998, -6.122961], [106.6533928, -6.1230431]], [[106.6533928, -6.1230431], [106.6529358, -6.1232225], [106.6526833, -6.1233251]], [[106.6526833, -6.1233251], [106.652507, -6.1233975], [106.6524004, -6.1234466], [106.6523391, -6.1234772], [106.6522445, -6.1235346], [106.6521736, -6.1235906], [106.6520827, -6.1236855], [106.6520218, -6.1237719], [106.651965, -6.1238647], [106.6519156, -6.1239771], [106.6518821, -6.1240917], [106.6518695, -6.124197], [106.6518708, -6.1243089], [106.651881, -6.1244182], [106.6519057, -6.1245249], [106.6519517, -6.1246576], [106.6522688, -6.1254361], [106.652552, -6.1261448], [106.6525923, -6.1262382], [106.6526238, -6.1263038], [106.6527515, -6.1265421], [106.6527821, -6.1266041], [106.6528083, -6.1266561], [106.6528163, -6.1266736], [106.6528201, -6.1266832]], [[106.6528201, -6.1266832], [106.6530568, -6.1272863], [106.6531603, -6.1275469]], [[106.6531603, -6.1275469], [106.6531701, -6.1275749], [106.6531886, -6.1276363], [106.6532045, -6.1277059], [106.6532757, -6.1279966], [106.6532931, -6.128059], [106.6533229, -6.1281461], [106.6538059, -6.1293323]], [[106.6538059, -6.1293323], [106.6538315, -6.1294004], [106.6539883, -6.1298032], [106.6540433, -6.1299362], [106.6540832, -6.1300269], [106.6541274, -6.130104], [106.6541683, -6.1301624], [106.6542132, -6.1302208], [106.654261, -6.1302712], [106.6543134, -6.1303199], [106.6543707, -6.1303691], [106.6544264, -6.1304066], [106.654481, -6.1304363], [106.6545432, -6.130463], [106.6546253, -6.1304917], [106.6546948, -6.1305095], [106.6547663, -6.130523], [106.6548464, -6.1305289], [106.6549241, -6.130531], [106.6550017, -6.130525], [106.6550748, -6.1305122], [106.6551384, -6.1304963], [106.6552143, -6.1304741], [106.6554564, -6.1303792]], [[106.6554564, -6.1303792], [106.6560793, -6.1301314]]]}, "properties": {"name": "Kalayang Bandar Udara (Terminal 3 → Terminal 1)", "ref": "Kalayang", "operator": "", "mode_label": "LRT"}}, {"type": "Feature", "geometry": {"type": "MultiLineString", "coordinates": [[[106.6555087, -6.1303774], [106.6561306, -6.1301297], [106.6561699, -6.1302271], [106.655548, -6.130475], [106.6555087, -6.1303774]], [[106.6530107, -6.1274835], [106.652924, -6.1272629], [106.6528415, -6.1270534], [106.6527555, -6.1268345], [106.6528421, -6.1268008], [106.6529286, -6.1270204], [106.6530107, -6.1272288], [106.6530976, -6.1274498], [106.6530107, -6.1274835]], [[106.6526718, -6.1232072], [106.6528926, -6.1231184], [106.6531024, -6.123034], [106.6533215, -6.1229459], [106.6533564, -6.1230317], [106.6531366, -6.1231202], [106.6529279, -6.1232042], [106.6527067, -6.1232932], [106.6526718, -6.1232072]], [[106.6654516, -6.1197065], [106.6652801, -6.1197793], [106.6650735, -6.1198746], [106.6648438, -6.1199863], [106.664797, -6.1198991], [106.6650342, -6.1197839], [106.6652379, -6.1196921], [106.6654113, -6.119616], [106.6654516, -6.1197065]], [[106.6556805, -6.1304408], [106.6555087, -6.1305092]], [[106.6555087, -6.1305092], [106.6552487, -6.1306125], [106.6551849, -6.1306356], [106.6551139, -6.1306541], [106.6550244, -6.130672], [106.6549427, -6.1306795], [106.6548587, -6.130681], [106.6547911, -6.1306758], [106.6547168, -6.1306657], [106.6546432, -6.1306511], [106.6545704, -6.1306286], [106.6545055, -6.1306015], [106.6544454, -6.1305728], [106.6543826, -6.1305335], [106.6543114, -6.1304823], [106.6542495, -6.1304304], [106.654204, -6.130376], [106.6541642, -6.130329], [106.654124, -6.1302761], [106.6540941, -6.1302258], [106.6540589, -6.1301604], [106.6540122, -6.1300573], [106.6539712, -6.1299566]], [[106.6539712, -6.1299566], [106.6535458, -6.1288792]], [[106.6535458, -6.1288792], [106.6535196, -6.1288168], [106.6530304, -6.1275976]], [[106.6530304, -6.1275976], [106.6527726, -6.126946], [106.6526883, -6.1267347]], [[106.6526883, -6.1267347], [106.652682, -6.1267191], [106.6526599, -6.1266586], [106.6526392, -6.1265894], [106.6525765, -6.126352], [106.6525511, -6.1262616], [106.6525187, -6.1261718], [106.6522248, -6.1254446], [106.6518907, -6.124603], [106.6518411, -6.1244774], [106.6518145, -6.1243799], [106.6517911, -6.1242675], [106.6517833, -6.1241714], [106.6517847, -6.1240853], [106.6517971, -6.1239842], [106.6518222, -6.1238911], [106.6518503, -6.1238124], [106.6518878, -6.123732], [106.6519393, -6.1236457], [106.6519966, -6.1235692], [106.6520592, -6.1235076], [106.652122, -6.1234493], [106.6521863, -6.1234027], [106.6522796, -6.1233493], [106.6523439, -6.1233185], [106.6524508, -6.1232716], [106.6526319, -6.1231979]], [[106.6526319, -6.1231979], [106.6530946, -6.1230094], [106.6533403, -6.122913]], [[106.6533403, -6.122913], [106.6534138, -6.1228842], [106.6535573, -6.1228381], [106.6536883, -6.1228051], [106.6538063, -6.1227938], [106.6539546, -6.1227988], [106.6540921, -6.1228263], [106.6542139, -6.122872], [106.654326, -6.122924], [106.6544312, -6.1229916], [106.6545319, -6.1230783], [106.6546295, -6.1231892], [106.654707, -6.1233055], [106.6547788, -6.1234404], [106.6549542, -6.1238689], [106.6550102, -6.1239807], [106.6550897, -6.124096], [106.6551727, -6.1241882], [106.6552529, -6.1242572], [106.6553809, -6.1243436], [106.6554944, -6.1243887], [106.6556035, -6.1244239], [106.655713, -6.1244405], [106.6558348, -6.1244487], [106.655965, -6.1244302], [106.6560929, -6.1243954], [106.6562497, -6.1243398], [106.6583476, -6.1234998], [106.6586185, -6.1233838], [106.6588501, -6.1232744], [106.6592667, -6.1230552], [106.6594426, -6.1229476], [106.6596659, -6.1228028], [106.6613406, -6.1216842], [106.6616073, -6.121525], [106.6618603, -6.1213869], [106.6628698, -6.1208677]], [[106.6628698, -6.1208677], [106.6628978, -6.1208533], [106.6645578, -6.1199953]], [[106.6645578, -6.1199953], [106.6647592, -6.1198939], [106.6652196, -6.1196773]]]}, "properties": {"name": "Kalayang Bandar Udara (Terminal 1 → Terminal 3)", "ref": "Kalayang", "operator": "", "mode_label": "LRT"}}, {"type": "Feature", "geometry": {"type": "MultiLineString", "coordinates": [[[106.8255247, -6.2048511], [106.826366, -6.2050271], [106.8268403, -6.2051263], [106.8271736, -6.2051909], [106.8273892, -6.2052263], [106.8277938, -6.205282], [106.8279233, -6.2053061], [106.8280454, -6.2053412], [106.8281601, -6.2053871], [106.8282735, -6.2054525], [106.8283672, -6.2055283], [106.8284462, -6.2056141], [106.8285338, -6.2057505], [106.828604, -6.2058894], [106.8286647, -6.2060228], [106.8287298, -6.2061401], [106.8288455, -6.2063054], [106.8289857, -6.2064723], [106.8291178, -6.2066157], [106.8292152, -6.2067403], [106.8293211, -6.2069201], [106.8295218, -6.207332], [106.8296866, -6.2076933], [106.829825, -6.207994], [106.8299261, -6.208275], [106.8300255, -6.2085707], [106.8300896, -6.2087935], [106.8301568, -6.2090643], [106.830218, -6.2093428], [106.830286, -6.2097002], [106.8303211, -6.2099751], [106.8303739, -6.2104824], [106.8304092, -6.2110213], [106.8304213, -6.2112943], [106.830427, -6.2118348], [106.8304185, -6.2126177], [106.8304264, -6.2129488], [106.8304562, -6.2133429], [106.8306665, -6.2161785], [106.8306948, -6.216442], [106.8307466, -6.2167649], [106.8308244, -6.2171696], [106.8310194, -6.2180456], [106.8312024, -6.2186473], [106.8314742, -6.2194958], [106.8316143, -6.2198349], [106.8318861, -6.2204659], [106.8319561, -6.2206516], [106.8320254, -6.2208715], [106.8320557, -6.2209883], [106.83222, -6.2216446], [106.8325308, -6.2228859], [106.8327213, -6.2236471], [106.832773, -6.2238545], [106.8328112, -6.2240508], [106.832834, -6.2242374], [106.8328527, -6.2244492], [106.8329124, -6.2252172], [106.8329834, -6.2260569], [106.8331817, -6.2287874], [106.8332254, -6.2293488], [106.833227, -6.229665], [106.8332142, -6.229855], [106.8331923, -6.2300416], [106.8331567, -6.2302196], [106.8330997, -6.2304165], [106.8329555, -6.2309151], [106.8328837, -6.2311294], [106.8328284, -6.2312843], [106.8327679, -6.2314389], [106.8326883, -6.2315974], [106.8325262, -6.2319284], [106.8324567, -6.2320546], [106.8323768, -6.2321871], [106.8322841, -6.2323316], [106.8321676, -6.2324932], [106.8319988, -6.2326938], [106.831824, -6.2329033], [106.8316473, -6.2330993], [106.8314811, -6.2332698], [106.8311815, -6.2335322], [106.8308596, -6.2337675], [106.8305917, -6.2339454], [106.8302687, -6.2341245], [106.8292535, -6.234585], [106.8289902, -6.2347189], [106.8288647, -6.2347951], [106.8287577, -6.2348654], [106.828619, -6.2349704], [106.8285054, -6.2350629], [106.8284166, -6.2351426], [106.8281995, -6.2353633], [106.8280426, -6.2355389], [106.8279165, -6.2356999], [106.8278251, -6.2358343]], [[106.8275183, -6.2363239], [106.827583, -6.2362119], [106.8278251, -6.2358343]], [[106.8279479, -6.2377813], [106.8278186, -6.237695], [106.8277142, -6.2376123], [106.8276196, -6.2375109], [106.8275464, -6.2374074], [106.8274862, -6.2373028], [106.8274363, -6.2371792], [106.8274026, -6.2370652], [106.8273803, -6.2369181], [106.8273802, -6.2368092], [106.8273934, -6.2366751], [106.8274258, -6.2365476], [106.8274685, -6.2364294], [106.8275183, -6.2363239]], [[106.8283399, -6.2380214], [106.8279479, -6.2377813]], [[106.8697709, -6.2454609], [106.86963, -6.2453984], [106.8695594, -6.2453671], [106.8673736, -6.2444316], [106.8670568, -6.244301], [106.8667088, -6.2441707], [106.865802, -6.2438584], [106.8655419, -6.2437754], [106.8652922, -6.2437051], [106.8650436, -6.2436436], [106.8645217, -6.2435465], [106.8642295, -6.2434971], [106.8641659, -6.2434873], [106.8641018, -6.2434786], [106.8639697, -6.2434643], [106.8638045, -6.2434523], [106.8636487, -6.2434438], [106.8633979, -6.2434347], [106.863092, -6.2434241], [106.8627757, -6.2434223], [106.8622424, -6.2434405], [106.8616789, -6.2434633], [106.8611041, -6.2434912], [106.8607094, -6.2435083], [106.8600673, -6.2435247], [106.8597395, -6.2435288], [106.8592647, -6.2435346], [106.8588964, -6.2435351], [106.8585572, -6.2435308], [106.8582865, -6.2435287], [106.8579256, -6.2435218], [106.857072, -6.2435043], [106.8556012, -6.2434632], [106.8522804, -6.2434509], [106.8519107, -6.2434577], [106.8500329, -6.2435839], [106.8496508, -6.2436037], [106.8488762, -6.243622], [106.8485075, -6.2436402], [106.84801, -6.2436703], [106.846778, -6.2437889], [106.846314, -6.2438041], [106.8460244, -6.2438049], [106.8434727, -6.2436685], [106.843259, -6.243645], [106.8430233, -6.2436004], [106.8428247, -6.2435402], [106.842634, -6.2434771], [106.8424266, -6.2433936], [106.8416369, -6.2430417], [106.8414358, -6.2429659], [106.8412373, -6.2428992], [106.8404829, -6.2427044], [106.840192, -6.2426239], [106.8399344, -6.2425499], [106.8390817, -6.2423185], [106.8385115, -6.2421686], [106.8378185, -6.2419782], [106.83695, -6.2417425], [106.8361917, -6.2415527], [106.8350273, -6.2412634], [106.8335467, -6.240873], [106.833335, -6.2408117], [106.8331444, -6.2407487], [106.8329275, -6.2406655], [106.8326831, -6.2405576], [106.8324444, -6.2404314], [106.831977, -6.2401697], [106.8317796, -6.2400538], [106.8315271, -6.2398885], [106.8309283, -6.2394736], [106.830702, -6.2393284], [106.8303192, -6.2390903], [106.829723, -6.2387289], [106.829531, -6.2386291], [106.8287949, -6.2382738], [106.8285556, -6.2381454], [106.8283399, -6.2380214]], [[106.872859, -6.2463535], [106.8723757, -6.2462225], [106.8712235, -6.245926], [106.8707509, -6.2457963], [106.8705317, -6.245735], [106.8703778, -6.2456861], [106.8701555, -6.2456107], [106.8700338, -6.2455669], [106.8697709, -6.2454609]], [[106.8753787, -6.2479302], [106.8745395, -6.2472439], [106.8738866, -6.2466837], [106.8738151, -6.2466425], [106.873739, -6.2466068], [106.8736716, -6.2465753], [106.87358, -6.2465401], [106.8733116, -6.2464611], [106.8729611, -6.2463786], [106.872859, -6.2463535]], [[106.8753787, -6.2479302], [106.8756075, -6.2481763], [106.8756923, -6.2482944], [106.8757494, -6.248405], [106.8757853, -6.2485474], [106.8757993, -6.2486511], [106.8757944, -6.2487643], [106.8757754, -6.2488776], [106.8757415, -6.2489837], [106.8756797, -6.2491157], [106.8756205, -6.249209], [106.8754184, -6.2494703], [106.8752415, -6.2496576], [106.875052, -6.2498315], [106.8746329, -6.2502285], [106.8743025, -6.2505561], [106.8737892, -6.2510396], [106.8734274, -6.2513899], [106.8731529, -6.2516714], [106.8730056, -6.2518847], [106.8728515, -6.2521266], [106.8726264, -6.2525391], [106.8725238, -6.252803], [106.8717152, -6.2548851], [106.8716553, -6.2550751], [106.8716305, -6.2552796], [106.871633, -6.2554469], [106.8716626, -6.2555989], [106.8717307, -6.2557789], [106.8718149, -6.2559277], [106.871864, -6.2559952], [106.8719832, -6.2561288], [106.8727702, -6.2567197], [106.8729187, -6.2568919], [106.8730285, -6.2570493], [106.8730837, -6.2571881], [106.8731257, -6.2573379], [106.8733856, -6.2587398], [106.8734434, -6.2591176], [106.8734608, -6.2595883], [106.8734615, -6.259937], [106.8732285, -6.2637481], [106.8731994, -6.2642754], [106.8732343, -6.2646738], [106.8733567, -6.2655787], [106.8734088, -6.2661673], [106.8734137, -6.266723], [106.8733787, -6.2670748], [106.8730544, -6.2689035], [106.8729896, -6.2695442], [106.8729639, -6.2701652], [106.8729673, -6.2707431], [106.87298, -6.271269]], [[106.87298, -6.271269], [106.8730125, -6.2720567], [106.8730675, -6.2729144], [106.8730769, -6.2732497], [106.8731117, -6.2735244], [106.8731612, -6.2737689], [106.8733035, -6.2744162], [106.8736709, -6.2760225], [106.8738594, -6.2766391], [106.8741021, -6.2773465]], [[106.8741021, -6.2773465], [106.8745572, -6.2784354], [106.8751059, -6.2798178], [106.8767614, -6.2837422], [106.8770238, -6.2843507], [106.8774933, -6.2852726], [106.8776461, -6.2855985], [106.8777665, -6.2858099], [106.8780274, -6.2862529], [106.8782515, -6.2866484], [106.8783261, -6.2868119], [106.8784176, -6.2870361], [106.8786355, -6.2876179], [106.8787886, -6.2880533], [106.8789087, -6.2883333], [106.8791006, -6.2888078], [106.8793019, -6.2894184], [106.8795309, -6.2900978], [106.8798469, -6.291019], [106.879979, -6.2914096], [106.8803472, -6.29241], [106.8805429, -6.2929106], [106.8807604, -6.2934875], [106.8816019, -6.2955604], [106.8819145, -6.2963469], [106.8820119, -6.2966077], [106.8827828, -6.2985149], [106.8831106, -6.2992294], [106.8832664, -6.2997164], [106.8833538, -6.3000796], [106.8834277, -6.3004071], [106.8837565, -6.3021549], [106.8837853, -6.3023438], [106.8838285, -6.3025717], [106.8838627, -6.302794], [106.8838928, -6.30298], [106.8839365, -6.3031077], [106.8840254, -6.3032739], [106.8841042, -6.3033859], [106.8844285, -6.3037939], [106.8845392, -6.3039694], [106.8845955, -6.3040857], [106.8846439, -6.3042335], [106.8846671, -6.3044023], [106.8846578, -6.3045985], [106.8846208, -6.3047773], [106.8845282, -6.3049963], [106.8841091, -6.3058724], [106.8839202, -6.3062797], [106.883879, -6.3064727], [106.8838666, -6.3066023], [106.8838744, -6.3068267], [106.8838893, -6.3069621], [106.884079, -6.3079554], [106.8842471, -6.3089009], [106.8843581, -6.3095525], [106.8845249, -6.3104291], [106.8845508, -6.3105256], [106.8845833, -6.3106153], [106.8846206, -6.3107036], [106.8846719, -6.3108119], [106.8847369, -6.3109355], [106.8849357, -6.3112926], [106.8850521, -6.3115068], [106.8851143, -6.3116408], [106.8851713, -6.3117953], [106.8852889, -6.3121679], [106.8853891, -6.3125752], [106.8854873, -6.3129583], [106.8856905, -6.313951], [106.885837, -6.3146197], [106.8859483, -6.3151309], [106.8860374, -6.3156499], [106.8862104, -6.3166305], [106.8862863, -6.3171096], [106.8863921, -6.3177886], [106.886513, -6.3186518], [106.8865703, -6.319277], [106.8866164, -6.3212118], [106.8866082, -6.3231299], [106.8866163, -6.3237685], [106.8866286, -6.324364], [106.8866734, -6.3264316], [106.8866815, -6.3269284], [106.8867634, -6.3282827], [106.8867885, -6.3291214], [106.8868341, -6.3299195], [106.8869399, -6.3309766], [106.8870217, -6.3316245], [106.8879256, -6.3371454], [106.8879846, -6.3374786], [106.8880543, -6.3377772], [106.8881777, -6.3382011], [106.8883064, -6.3386223], [106.8883976, -6.3390115], [106.8886229, -6.3401658], [106.8890038, -6.3421731], [106.8892291, -6.343378], [106.8897656, -6.3462411], [106.8898272, -6.3465343], [106.8899775, -6.3470888], [106.8906641, -6.349544], [106.8908304, -6.3501971], [106.8911871, -6.3514633], [106.8916914, -6.3532227], [106.8918903, -6.3540522], [106.8922251, -6.3550434], [106.892378, -6.3556059], [106.8925926, -6.3565309], [106.8926784, -6.3569547], [106.8931773, -6.3598577], [106.8934751, -6.3615797], [106.8936923, -6.3632591], [106.8940008, -6.3655329], [106.8940464, -6.3658075], [106.8941081, -6.3660501], [106.8941832, -6.3662633], [106.894446, -6.3669537], [106.8945211, -6.3672043], [106.8945721, -6.3674282], [106.8946606, -6.3679533], [106.8949664, -6.369798], [106.8951353, -6.3710321], [106.8952078, -6.371536], [106.8953767, -6.372445], [106.8955377, -6.373274], [106.8956519, -6.3738957]]]}, "properties": {"name": "Cibubur Line (Dukuh Atas → Harjamukti)", "ref": "CB", "operator": "Kereta Api Indonesia Divisi LRT Jabodebek", "mode_label": "LRT"}}, {"type": "Feature", "geometry": {"type": "MultiLineString", "coordinates": [[[106.8956864, -6.3738897], [106.8955752, -6.373282], [106.895417, -6.372453], [106.895256, -6.371536], [106.8951809, -6.3710428], [106.8950039, -6.3697873], [106.8947008, -6.3679587], [106.8946096, -6.3674229], [106.8945613, -6.367199], [106.8944836, -6.3669377], [106.8942234, -6.36625], [106.8941483, -6.3660367], [106.8940866, -6.3658022], [106.894041, -6.3655276], [106.8937352, -6.3632564], [106.8935153, -6.3615824], [106.8932176, -6.359855], [106.892716, -6.3569467], [106.8926355, -6.3565335], [106.8924156, -6.3556005], [106.89226, -6.3550407], [106.8917316, -6.3532227], [106.8912166, -6.3514526], [106.890876, -6.3502024], [106.890699, -6.3495413], [106.8900204, -6.3470861], [106.8898648, -6.3465237], [106.8898058, -6.3462491], [106.889264, -6.3433727], [106.889044, -6.3421758], [106.8886605, -6.3401604], [106.8884405, -6.3390035], [106.8883413, -6.3386063], [106.8882233, -6.3382011], [106.8880972, -6.3377639], [106.8880221, -6.3374813], [106.8879658, -6.3371507], [106.8870612, -6.3316181], [106.8869774, -6.3309726], [106.8868867, -6.3299266], [106.8868226, -6.3291279], [106.8868011, -6.3282789], [106.8867305, -6.326931], [106.8867192, -6.3264524], [106.886671, -6.324364], [106.8866634, -6.3237692], [106.8866567, -6.3231319], [106.8866427, -6.321209], [106.8866025, -6.3192798], [106.8865446, -6.3186499], [106.8864277, -6.3177697], [106.8863291, -6.3170977], [106.8862512, -6.3166209], [106.8859851, -6.3151271], [106.8858213, -6.3143642], [106.8855302, -6.3129861], [106.8854176, -6.3125544], [106.8851914, -6.3117343], [106.885149, -6.3116273], [106.8851065, -6.3115303], [106.8850712, -6.3114803], [106.8849768, -6.3112765], [106.8847322, -6.3108354], [106.8846814, -6.3107312], [106.8846454, -6.31065], [106.8846134, -6.3105707], [106.8845874, -6.3104941], [106.8845659, -6.310417], [106.884524, -6.3102151], [106.8844039, -6.3095464], [106.8842917, -6.3088886], [106.8841319, -6.3079422], [106.8839382, -6.3069053], [106.8839276, -6.3067852], [106.8839226, -6.3066145], [106.8839264, -6.3064724], [106.8839701, -6.3062927], [106.8841533, -6.3058821], [106.8845655, -6.3050202], [106.8846618, -6.3047895], [106.8847069, -6.304627], [106.8847195, -6.3043847], [106.8846973, -6.3042319], [106.8846441, -6.3040728], [106.8845871, -6.3039475], [106.8844688, -6.3037718], [106.8841948, -6.3034489], [106.8840698, -6.3032705], [106.8839815, -6.3031019], [106.8839391, -6.3029729], [106.8838994, -6.3027831], [106.8838613, -6.3025657], [106.8837921, -6.3021518], [106.8834679, -6.3003971], [106.8833944, -6.3000681], [106.8833033, -6.2997031], [106.8831568, -6.2992287], [106.8828208, -6.2985087], [106.8820437, -6.296604], [106.8819453, -6.2963459], [106.8816268, -6.2955516], [106.8807924, -6.2934784], [106.8805779, -6.2929044], [106.8803925, -6.2923962], [106.8800127, -6.2913934], [106.8798878, -6.2910064], [106.8795757, -6.2900927], [106.8793445, -6.2894142], [106.8791318, -6.2887892], [106.8788471, -6.2880517], [106.8786706, -6.2875974], [106.8784597, -6.2870232], [106.8783616, -6.2867915], [106.8782893, -6.2866263], [106.878065, -6.2862388], [106.8778061, -6.2857959], [106.8776803, -6.2855823], [106.8775287, -6.2852556], [106.8770606, -6.2843308], [106.8768115, -6.2837255], [106.8751419, -6.2797989], [106.8745862, -6.278427], [106.8741531, -6.2773504]], [[106.8741531, -6.2773504], [106.8736951, -6.2759626], [106.8733424, -6.2744109], [106.8731975, -6.2737633], [106.8731493, -6.2735244], [106.8731171, -6.2732444], [106.873107, -6.2729125], [106.8730447, -6.2720513], [106.8730216, -6.271269]], [[106.8730216, -6.271269], [106.8730061, -6.2707352], [106.8730048, -6.2701664], [106.8730311, -6.2695478], [106.8730866, -6.2689179], [106.8734218, -6.2670921], [106.8734631, -6.2667235], [106.8734615, -6.2661761], [106.8733881, -6.2655681], [106.8732756, -6.2646721], [106.8732458, -6.2642629], [106.8732721, -6.2637519], [106.8735074, -6.2599309], [106.8735128, -6.2595942], [106.8734991, -6.2591172], [106.8734406, -6.2587391], [106.8731738, -6.2573513], [106.8731318, -6.2571753], [106.8730749, -6.25703], [106.8729535, -6.2568734], [106.8728077, -6.2567091], [106.8720212, -6.2561218], [106.871946, -6.2560329], [106.8718465, -6.2558893], [106.8717716, -6.2557515], [106.8717063, -6.2555883], [106.8716809, -6.2554247], [106.8716784, -6.255281], [106.8716966, -6.2550871], [106.8717562, -6.2548982], [106.8725575, -6.2528437], [106.8726699, -6.2525489], [106.8728888, -6.2521485], [106.8730426, -6.251902], [106.8731686, -6.251725], [106.8734505, -6.2514108], [106.8738158, -6.2510625], [106.8743244, -6.2505793], [106.8746515, -6.2502622], [106.8750043, -6.2499307], [106.8752826, -6.2496741], [106.8754614, -6.2494846], [106.8756651, -6.2492283], [106.8757204, -6.2491267], [106.8757818, -6.2490026], [106.8758185, -6.2488841], [106.8758372, -6.2487678], [106.8758346, -6.2486485], [106.8758239, -6.2485384], [106.8757875, -6.2484064], [106.8757319, -6.2482974], [106.8756518, -6.2481571], [106.8754023, -6.2479146]], [[106.8754023, -6.2479146], [106.8745597, -6.247212], [106.8739294, -6.2466628], [106.8738902, -6.2466305], [106.8738307, -6.246592], [106.8737619, -6.2465602], [106.8736799, -6.2465303], [106.8735983, -6.2465044], [106.8733144, -6.2464281], [106.8729055, -6.2463331]], [[106.8729055, -6.2463331], [106.8719864, -6.2460909], [106.8712341, -6.2458886], [106.8705942, -6.2457114], [106.8704111, -6.2456578], [106.8703003, -6.2456251], [106.8701188, -6.2455629], [106.8699691, -6.2455068], [106.8697843, -6.2454314]], [[106.8697843, -6.2454314], [106.869225, -6.245178], [106.8680299, -6.2446752], [106.8673921, -6.244388], [106.8670743, -6.244257], [106.866725, -6.2441262], [106.8658171, -6.2438135], [106.8655557, -6.2437301], [106.8653085, -6.2436661], [106.8650521, -6.2436096], [106.8647854, -6.2435591], [106.8645356, -6.2435113], [106.8643998, -6.2434865], [106.8642428, -6.2434607], [106.8641323, -6.2434457], [106.8640531, -6.2434371], [106.8639717, -6.2434297], [106.8638854, -6.2434224], [106.8638105, -6.2434167], [106.8637304, -6.243412], [106.8636494, -6.2434085], [106.8633981, -6.2433997], [106.8630402, -6.2433864], [106.8627763, -6.2433833], [106.8622748, -6.2433981], [106.8616536, -6.2434218], [106.8612314, -6.2434448], [106.8606467, -6.243472], [106.8600674, -6.2434889], [106.8592753, -6.2434976], [106.8589245, -6.2434981], [106.8582228, -6.2434923], [106.8579312, -6.2434887], [106.8570718, -6.2434658], [106.8563322, -6.2434397], [106.8555973, -6.243424], [106.85228, -6.2434036], [106.8519132, -6.2434327], [106.8500436, -6.2435553], [106.8496572, -6.243575], [106.8488895, -6.2435933], [106.8485146, -6.2436071], [106.8480111, -6.2436424], [106.8468411, -6.2437549], [106.8463125, -6.2437743], [106.8460173, -6.2437628], [106.8434849, -6.243631], [106.8433292, -6.2436138], [106.8430445, -6.2435614], [106.8428353, -6.2435057], [106.8426377, -6.2434394], [106.8424431, -6.2433642], [106.8416499, -6.2430054], [106.8414541, -6.2429318], [106.8412479, -6.2428679], [106.8405088, -6.2426862], [106.8402087, -6.2426044], [106.8391763, -6.2422919], [106.8385223, -6.2421132], [106.8378177, -6.2419302], [106.8369617, -6.2417074], [106.8365386, -6.2416029], [106.835039, -6.2412176], [106.8335595, -6.2408274], [106.8333492, -6.2407665], [106.8331605, -6.2407042], [106.8329457, -6.2406218], [106.832704, -6.240515], [106.8324673, -6.2403899], [106.8320008, -6.2401287], [106.8318048, -6.2400137], [106.8315538, -6.2398493], [106.8309548, -6.2394343], [106.8307275, -6.2392885], [106.8303442, -6.2390501], [106.8297464, -6.2386877], [106.8295524, -6.2385869], [106.8288166, -6.2382317], [106.8285788, -6.2381041], [106.8283643, -6.2379801]], [[106.8283643, -6.2379801], [106.8280826, -6.23781], [106.8279738, -6.2377422]], [[106.8279738, -6.2377422], [106.8278467, -6.2376568], [106.8277467, -6.2375775], [106.8276567, -6.2374811], [106.8275866, -6.237382], [106.8275291, -6.2372821], [106.8274813, -6.2371637], [106.8274492, -6.237055], [106.8274279, -6.2369145], [106.8274278, -6.2368115], [106.8274404, -6.2366832], [106.8274714, -6.2365614], [106.8275125, -6.2364475], [106.8275617, -6.2363427]], [[106.8275617, -6.2363427], [106.8276237, -6.2362364], [106.8278649, -6.2358603]], [[106.8278649, -6.2358603], [106.827955, -6.2357277], [106.8280792, -6.2355692], [106.8282343, -6.2353956], [106.8284496, -6.2351767], [106.8285364, -6.2350988], [106.8286485, -6.2350075], [106.8287853, -6.234904], [106.8288902, -6.234835], [106.8290135, -6.2347602], [106.8292742, -6.2346276], [106.8302902, -6.2341667], [106.8306165, -6.2339858], [106.8308869, -6.2338062], [106.8312114, -6.2335691], [106.831514, -6.2333041], [106.8316821, -6.2331316], [106.83186, -6.2329342], [106.8320363, -6.2327229], [106.8321925, -6.2325111], [106.8323136, -6.2323469], [106.8324047, -6.2322059], [106.8324897, -6.2320724], [106.8325672, -6.2319399], [106.8327163, -6.2315998], [106.8327909, -6.2314511], [106.8328602, -6.2312938], [106.8329136, -6.2311363], [106.8329858, -6.2309218], [106.8331398, -6.2304245], [106.8331948, -6.2302234], [106.8332275, -6.2300428], [106.8332533, -6.2298558], [106.8332711, -6.2296635], [106.8332601, -6.2293378], [106.8332233, -6.2287823], [106.8330293, -6.226066], [106.8329628, -6.2252116], [106.8328989, -6.2244471], [106.8328797, -6.224218], [106.8328539, -6.2240428], [106.8328116, -6.223829], [106.8327607, -6.2236315], [106.8324916, -6.2225336], [106.8322652, -6.2216294], [106.8321016, -6.2209757], [106.8320722, -6.2208631], [106.8320014, -6.2206456], [106.8319269, -6.2204532], [106.8316357, -6.2198103], [106.8315048, -6.2194837], [106.8312145, -6.2185842], [106.831052, -6.2180213], [106.8308675, -6.217141], [106.830791, -6.2167566], [106.8307394, -6.2164406], [106.8307108, -6.2161745], [106.8305907, -6.2145976], [106.8304999, -6.2133392], [106.8304704, -6.2129532], [106.8304615, -6.2126125], [106.8304725, -6.2118351], [106.8304668, -6.2112968], [106.8304547, -6.2110181], [106.8304213, -6.2104783], [106.8303696, -6.2099693], [106.8303317, -6.209694], [106.8302634, -6.209335], [106.8301985, -6.2090456], [106.8301321, -6.2087814], [106.8300652, -6.2085567], [106.829971, -6.2082594], [106.8298659, -6.2079792], [106.8297268, -6.2076745], [106.8295649, -6.2073119], [106.8293631, -6.2068978], [106.8292547, -6.2067137], [106.8291542, -6.2065852], [106.8290215, -6.2064411], [106.8288834, -6.2062767], [106.8287703, -6.2061151], [106.8287073, -6.2060016], [106.828647, -6.205869], [106.8285752, -6.2057271], [106.8284841, -6.2055852], [106.8283999, -6.2054938], [106.8283006, -6.2054135], [106.828181, -6.2053445], [106.8280609, -6.2052964], [106.8279343, -6.20526], [106.8278014, -6.2052353], [106.8273963, -6.2051795], [106.827182, -6.2051443], [106.8268498, -6.2050799], [106.826757, -6.2050605], [106.8255355, -6.2048049]]]}, "properties": {"name": "Cibubur Line (Harjamukti → Dukuh Atas)", "ref": "CB", "operator": "Kereta Api Indonesia Divisi LRT Jabodebek", "mode_label": "LRT"}}, {"type": "Feature", "geometry": {"type": "MultiLineString", "coordinates": [[[107.0216705, -6.2640876], [107.0209381, -6.2638307], [107.0200631, -6.2635238]], [[107.0200631, -6.2635238], [107.0197705, -6.2634197], [107.0180315, -6.2628055], [107.0179613, -6.2627809]], [[107.0179613, -6.2627809], [107.0100926, -6.2600242], [107.0083651, -6.2594395], [107.0072138, -6.2590037], [107.004521, -6.2580451], [106.9975451, -6.2555484], [106.9973385, -6.2554703], [106.9971874, -6.2554164], [106.9943812, -6.2544556], [106.9904367, -6.2529239], [106.9869033, -6.2512281], [106.9854461, -6.2504369], [106.983089, -6.2493978], [106.9822521, -6.2490909], [106.9813014, -6.2487898], [106.9807302, -6.2486505], [106.9801245, -6.2485526], [106.979808, -6.2485129], [106.979529, -6.248494], [106.9788501, -6.2484699], [106.9775784, -6.2484606], [106.9770655, -6.2484767], [106.9762309, -6.2485599], [106.9755144, -6.2486713], [106.9748669, -6.2488061], [106.9741192, -6.2490039], [106.9732292, -6.2492885], [106.9724531, -6.2495957], [106.9718626, -6.2498631], [106.9713313, -6.2501305], [106.9706756, -6.2504904], [106.9699891, -6.2509116], [106.9679151, -6.2522947], [106.9655587, -6.2536539], [106.965017, -6.253922], [106.96317, -6.2546488], [106.9625033, -6.2549118], [106.9618875, -6.2551356], [106.9616213, -6.2552138], [106.9613456, -6.2552806], [106.9611059, -6.2553187], [106.9607766, -6.2553521], [106.9597983, -6.2554012], [106.9594737, -6.255423], [106.9591894, -6.2554709], [106.9579463, -6.2557561], [106.9560129, -6.2561515], [106.9556543, -6.256204], [106.9553766, -6.2562275], [106.9544953, -6.2562688], [106.9541369, -6.2563001], [106.9527027, -6.2565223], [106.9518783, -6.2565806], [106.9492415, -6.2566946], [106.9485767, -6.2567314], [106.9462966, -6.2568304], [106.945987, -6.256826], [106.945693, -6.2568055], [106.9438637, -6.2566475], [106.9436364, -6.2566427], [106.9433266, -6.256644], [106.9430165, -6.2566722], [106.9406792, -6.2570522], [106.9403456, -6.2570834], [106.9384446, -6.257178], [106.936904, -6.2572557], [106.9279159, -6.257704], [106.9268765, -6.2577725], [106.9248522, -6.2578721], [106.9224334, -6.2580235], [106.9208597, -6.2581035], [106.9203186, -6.2581141], [106.918098, -6.2581795], [106.9159614, -6.2581102], [106.9153061, -6.2580551], [106.9147939, -6.2579745], [106.9137728, -6.2577522], [106.9131722, -6.2576027], [106.9125867, -6.2573995], [106.9114759, -6.2569314], [106.9110462, -6.2567503], [106.9106163, -6.2565692], [106.910426, -6.256489], [106.9101819, -6.2563861], [106.9099196, -6.2562723], [106.9097802, -6.2562118], [106.9094248, -6.2560577], [106.9089252, -6.2558409], [106.9085574, -6.2556814], [106.9084038, -6.2556247], [106.9076583, -6.2553496], [106.9072488, -6.2552025], [106.9063339, -6.2549597], [106.9054387, -6.2546306], [106.9049522, -6.2543951], [106.9044919, -6.2541416], [106.9041516, -6.2539312], [106.9038686, -6.2537459], [106.9036531, -6.2535926], [106.9033561, -6.2533601], [106.9030706, -6.2531206], [106.9026978, -6.2527807], [106.9023733, -6.2524582], [106.9020752, -6.2521294], [106.901851, -6.2518536], [106.9015713, -6.2514809], [106.9012588, -6.2510303], [106.9008283, -6.2502984], [106.8999256, -6.2487209], [106.8995244, -6.2480254], [106.8984465, -6.2465407], [106.8978185, -6.2458691], [106.8974275, -6.2454926], [106.8967072, -6.2449684], [106.8958614, -6.2444547], [106.8952031, -6.2441539], [106.8945236, -6.2439059], [106.8939113, -6.2437282], [106.8934211, -6.2436438], [106.8929115, -6.2435928], [106.8923204, -6.2436016], [106.8914356, -6.2436966], [106.8910271, -6.2437657], [106.8907322, -6.2438342], [106.890496, -6.2439006], [106.8902633, -6.2439727], [106.8900199, -6.2440625], [106.8896996, -6.244205], [106.8894325, -6.2443602], [106.8891947, -6.2445129], [106.8887547, -6.2448136], [106.8880557, -6.245285], [106.8875319, -6.245672], [106.8872795, -6.245852], [106.8870682, -6.2460027], [106.8864841, -6.2463716], [106.8858349, -6.2467378], [106.8854169, -6.2469045], [106.8850087, -6.2470402], [106.8845388, -6.2471449], [106.8840366, -6.2472236], [106.8837443, -6.247242], [106.8833992, -6.2472375], [106.8813687, -6.2471268], [106.8802906, -6.2470749], [106.8800788, -6.2470909], [106.8797706, -6.2471464], [106.879557, -6.2472041], [106.8793255, -6.2472959], [106.8791429, -6.2473895], [106.8789889, -6.2474831], [106.8784775, -6.2478301], [106.8778028, -6.2483084], [106.8775057, -6.2485278], [106.877208, -6.2486615], [106.877057, -6.2487124], [106.8769049, -6.2487442], [106.8767615, -6.2487568], [106.8765969, -6.2487409], [106.8764181, -6.2486788], [106.8762393, -6.2485883], [106.8760977, -6.2484698], [106.8754023, -6.2479146]], [[106.8754023, -6.2479146], [106.8745597, -6.247212], [106.8739294, -6.2466628], [106.8738902, -6.2466305], [106.8738307, -6.246592], [106.8737619, -6.2465602], [106.8736799, -6.2465303], [106.8735983, -6.2465044], [106.8733144, -6.2464281], [106.8729055, -6.2463331]], [[106.8729055, -6.2463331], [106.8719864, -6.2460909], [106.8712341, -6.2458886], [106.8705942, -6.2457114], [106.8704111, -6.2456578], [106.8703003, -6.2456251], [106.8701188, -6.2455629], [106.8699691, -6.2455068], [106.8697843, -6.2454314]], [[106.8697843, -6.2454314], [106.869225, -6.245178], [106.8680299, -6.2446752], [106.8673921, -6.244388], [106.8670743, -6.244257], [106.866725, -6.2441262], [106.8658171, -6.2438135], [106.8655557, -6.2437301], [106.8653085, -6.2436661], [106.8650521, -6.2436096], [106.8647854, -6.2435591], [106.8645356, -6.2435113], [106.8643998, -6.2434865], [106.8642428, -6.2434607], [106.8641323, -6.2434457], [106.8640531, -6.2434371], [106.8639717, -6.2434297], [106.8638854, -6.2434224], [106.8638105, -6.2434167], [106.8637304, -6.243412], [106.8636494, -6.2434085], [106.8633981, -6.2433997], [106.8630402, -6.2433864], [106.8627763, -6.2433833], [106.8622748, -6.2433981], [106.8616536, -6.2434218], [106.8612314, -6.2434448], [106.8606467, -6.243472], [106.8600674, -6.2434889], [106.8592753, -6.2434976], [106.8589245, -6.2434981], [106.8582228, -6.2434923], [106.8579312, -6.2434887], [106.8570718, -6.2434658], [106.8563322, -6.2434397], [106.8555973, -6.243424], [106.85228, -6.2434036], [106.8519132, -6.2434327], [106.8500436, -6.2435553], [106.8496572, -6.243575], [106.8488895, -6.2435933], [106.8485146, -6.2436071], [106.8480111, -6.2436424], [106.8468411, -6.2437549], [106.8463125, -6.2437743], [106.8460173, -6.2437628], [106.8434849, -6.243631], [106.8433292, -6.2436138], [106.8430445, -6.2435614], [106.8428353, -6.2435057], [106.8426377, -6.2434394], [106.8424431, -6.2433642], [106.8416499, -6.2430054], [106.8414541, -6.2429318], [106.8412479, -6.2428679], [106.8405088, -6.2426862], [106.8402087, -6.2426044], [106.8391763, -6.2422919], [106.8385223, -6.2421132], [106.8378177, -6.2419302], [106.8369617, -6.2417074], [106.8365386, -6.2416029], [106.835039, -6.2412176], [106.8335595, -6.2408274], [106.8333492, -6.2407665], [106.8331605, -6.2407042], [106.8329457, -6.2406218], [106.832704, -6.240515], [106.8324673, -6.2403899], [106.8320008, -6.2401287], [106.8318048, -6.2400137], [106.8315538, -6.2398493], [106.8309548, -6.2394343], [106.8307275, -6.2392885], [106.8303442, -6.2390501], [106.8297464, -6.2386877], [106.8295524, -6.2385869], [106.8288166, -6.2382317], [106.8285788, -6.2381041], [106.8283643, -6.2379801]], [[106.8283643, -6.2379801], [106.8280826, -6.23781], [106.8279738, -6.2377422]], [[106.8279738, -6.2377422], [106.8278467, -6.2376568], [106.8277467, -6.2375775], [106.8276567, -6.2374811], [106.8275866, -6.237382], [106.8275291, -6.2372821], [106.8274813, -6.2371637], [106.8274492, -6.237055], [106.8274279, -6.2369145], [106.8274278, -6.2368115], [106.8274404, -6.2366832], [106.8274714, -6.2365614], [106.8275125, -6.2364475], [106.8275617, -6.2363427]], [[106.8275617, -6.2363427], [106.8276237, -6.2362364], [106.8278649, -6.2358603]], [[106.8278649, -6.2358603], [106.827955, -6.2357277], [106.8280792, -6.2355692], [106.8282343, -6.2353956], [106.8284496, -6.2351767], [106.8285364, -6.2350988], [106.8286485, -6.2350075], [106.8287853, -6.234904], [106.8288902, -6.234835], [106.8290135, -6.2347602], [106.8292742, -6.2346276], [106.8302902, -6.2341667], [106.8306165, -6.2339858], [106.8308869, -6.2338062], [106.8312114, -6.2335691], [106.831514, -6.2333041], [106.8316821, -6.2331316], [106.83186, -6.2329342], [106.8320363, -6.2327229], [106.8321925, -6.2325111], [106.8323136, -6.2323469], [106.8324047, -6.2322059], [106.8324897, -6.2320724], [106.8325672, -6.2319399], [106.8327163, -6.2315998], [106.8327909, -6.2314511], [106.8328602, -6.2312938], [106.8329136, -6.2311363], [106.8329858, -6.2309218], [106.8331398, -6.2304245], [106.8331948, -6.2302234], [106.8332275, -6.2300428], [106.8332533, -6.2298558], [106.8332711, -6.2296635], [106.8332601, -6.2293378], [106.8332233, -6.2287823], [106.8330293, -6.226066], [106.8329628, -6.2252116], [106.8328989, -6.2244471], [106.8328797, -6.224218], [106.8328539, -6.2240428], [106.8328116, -6.223829], [106.8327607, -6.2236315], [106.8324916, -6.2225336], [106.8322652, -6.2216294], [106.8321016, -6.2209757], [106.8320722, -6.2208631], [106.8320014, -6.2206456], [106.8319269, -6.2204532], [106.8316357, -6.2198103], [106.8315048, -6.2194837], [106.8312145, -6.2185842], [106.831052, -6.2180213], [106.8308675, -6.217141], [106.830791, -6.2167566], [106.8307394, -6.2164406], [106.8307108, -6.2161745], [106.8305907, -6.2145976], [106.8304999, -6.2133392], [106.8304704, -6.2129532], [106.8304615, -6.2126125], [106.8304725, -6.2118351], [106.8304668, -6.2112968], [106.8304547, -6.2110181], [106.8304213, -6.2104783], [106.8303696, -6.2099693], [106.8303317, -6.209694], [106.8302634, -6.209335], [106.8301985, -6.2090456], [106.8301321, -6.2087814], [106.8300652, -6.2085567], [106.829971, -6.2082594], [106.8298659, -6.2079792], [106.8297268, -6.2076745], [106.8295649, -6.2073119], [106.8293631, -6.2068978], [106.8292547, -6.2067137], [106.8291542, -6.2065852], [106.8290215, -6.2064411], [106.8288834, -6.2062767], [106.8287703, -6.2061151], [106.8287073, -6.2060016], [106.828647, -6.205869], [106.8285752, -6.2057271], [106.8284841, -6.2055852], [106.8283999, -6.2054938], [106.8283006, -6.2054135], [106.828181, -6.2053445], [106.8280609, -6.2052964], [106.8279343, -6.20526], [106.8278014, -6.2052353], [106.8273963, -6.2051795], [106.827182, -6.2051443], [106.8268498, -6.2050799], [106.826757, -6.2050605], [106.8255355, -6.2048049]]]}, "properties": {"name": "Bekasi Line (Jatimulya → Dukuh Atas)", "ref": "BK", "operator": "PT Kereta Api Indonesia Divisi LRT Jabodebek", "mode_label": "LRT"}}, {"type": "Feature", "geometry": {"type": "MultiLineString", "coordinates": [[[106.8255247, -6.2048511], [106.826366, -6.2050271], [106.8268403, -6.2051263], [106.8271736, -6.2051909], [106.8273892, -6.2052263], [106.8277938, -6.205282], [106.8279233, -6.2053061], [106.8280454, -6.2053412], [106.8281601, -6.2053871], [106.8282735, -6.2054525], [106.8283672, -6.2055283], [106.8284462, -6.2056141], [106.8285338, -6.2057505], [106.828604, -6.2058894], [106.8286647, -6.2060228], [106.8287298, -6.2061401], [106.8288455, -6.2063054], [106.8289857, -6.2064723], [106.8291178, -6.2066157], [106.8292152, -6.2067403], [106.8293211, -6.2069201], [106.8295218, -6.207332], [106.8296866, -6.2076933], [106.829825, -6.207994], [106.8299261, -6.208275], [106.8300255, -6.2085707], [106.8300896, -6.2087935], [106.8301568, -6.2090643], [106.830218, -6.2093428], [106.830286, -6.2097002], [106.8303211, -6.2099751], [106.8303739, -6.2104824], [106.8304092, -6.2110213], [106.8304213, -6.2112943], [106.830427, -6.2118348], [106.8304185, -6.2126177], [106.8304264, -6.2129488], [106.8304562, -6.2133429], [106.8306665, -6.2161785], [106.8306948, -6.216442], [106.8307466, -6.2167649], [106.8308244, -6.2171696], [106.8310194, -6.2180456], [106.8312024, -6.2186473], [106.8314742, -6.2194958], [106.8316143, -6.2198349], [106.8318861, -6.2204659], [106.8319561, -6.2206516], [106.8320254, -6.2208715], [106.8320557, -6.2209883], [106.83222, -6.2216446], [106.8325308, -6.2228859], [106.8327213, -6.2236471], [106.832773, -6.2238545], [106.8328112, -6.2240508], [106.832834, -6.2242374], [106.8328527, -6.2244492], [106.8329124, -6.2252172], [106.8329834, -6.2260569], [106.8331817, -6.2287874], [106.8332254, -6.2293488], [106.833227, -6.229665], [106.8332142, -6.229855], [106.8331923, -6.2300416], [106.8331567, -6.2302196], [106.8330997, -6.2304165], [106.8329555, -6.2309151], [106.8328837, -6.2311294], [106.8328284, -6.2312843], [106.8327679, -6.2314389], [106.8326883, -6.2315974], [106.8325262, -6.2319284], [106.8324567, -6.2320546], [106.8323768, -6.2321871], [106.8322841, -6.2323316], [106.8321676, -6.2324932], [106.8319988, -6.2326938], [106.831824, -6.2329033], [106.8316473, -6.2330993], [106.8314811, -6.2332698], [106.8311815, -6.2335322], [106.8308596, -6.2337675], [106.8305917, -6.2339454], [106.8302687, -6.2341245], [106.8292535, -6.234585], [106.8289902, -6.2347189], [106.8288647, -6.2347951], [106.8287577, -6.2348654], [106.828619, -6.2349704], [106.8285054, -6.2350629], [106.8284166, -6.2351426], [106.8281995, -6.2353633], [106.8280426, -6.2355389], [106.8279165, -6.2356999], [106.8278251, -6.2358343]], [[106.8275183, -6.2363239], [106.827583, -6.2362119], [106.8278251, -6.2358343]], [[106.8279479, -6.2377813], [106.8278186, -6.237695], [106.8277142, -6.2376123], [106.8276196, -6.2375109], [106.8275464, -6.2374074], [106.8274862, -6.2373028], [106.8274363, -6.2371792], [106.8274026, -6.2370652], [106.8273803, -6.2369181], [106.8273802, -6.2368092], [106.8273934, -6.2366751], [106.8274258, -6.2365476], [106.8274685, -6.2364294], [106.8275183, -6.2363239]], [[106.8283399, -6.2380214], [106.8279479, -6.2377813]], [[106.8697709, -6.2454609], [106.86963, -6.2453984], [106.8695594, -6.2453671], [106.8673736, -6.2444316], [106.8670568, -6.244301], [106.8667088, -6.2441707], [106.865802, -6.2438584], [106.8655419, -6.2437754], [106.8652922, -6.2437051], [106.8650436, -6.2436436], [106.8645217, -6.2435465], [106.8642295, -6.2434971], [106.8641659, -6.2434873], [106.8641018, -6.2434786], [106.8639697, -6.2434643], [106.8638045, -6.2434523], [106.8636487, -6.2434438], [106.8633979, -6.2434347], [106.863092, -6.2434241], [106.8627757, -6.2434223], [106.8622424, -6.2434405], [106.8616789, -6.2434633], [106.8611041, -6.2434912], [106.8607094, -6.2435083], [106.8600673, -6.2435247], [106.8597395, -6.2435288], [106.8592647, -6.2435346], [106.8588964, -6.2435351], [106.8585572, -6.2435308], [106.8582865, -6.2435287], [106.8579256, -6.2435218], [106.857072, -6.2435043], [106.8556012, -6.2434632], [106.8522804, -6.2434509], [106.8519107, -6.2434577], [106.8500329, -6.2435839], [106.8496508, -6.2436037], [106.8488762, -6.243622], [106.8485075, -6.2436402], [106.84801, -6.2436703], [106.846778, -6.2437889], [106.846314, -6.2438041], [106.8460244, -6.2438049], [106.8434727, -6.2436685], [106.843259, -6.243645], [106.8430233, -6.2436004], [106.8428247, -6.2435402], [106.842634, -6.2434771], [106.8424266, -6.2433936], [106.8416369, -6.2430417], [106.8414358, -6.2429659], [106.8412373, -6.2428992], [106.8404829, -6.2427044], [106.840192, -6.2426239], [106.8399344, -6.2425499], [106.8390817, -6.2423185], [106.8385115, -6.2421686], [106.8378185, -6.2419782], [106.83695, -6.2417425], [106.8361917, -6.2415527], [106.8350273, -6.2412634], [106.8335467, -6.240873], [106.833335, -6.2408117], [106.8331444, -6.2407487], [106.8329275, -6.2406655], [106.8326831, -6.2405576], [106.8324444, -6.2404314], [106.831977, -6.2401697], [106.8317796, -6.2400538], [106.8315271, -6.2398885], [106.8309283, -6.2394736], [106.830702, -6.2393284], [106.8303192, -6.2390903], [106.829723, -6.2387289], [106.829531, -6.2386291], [106.8287949, -6.2382738], [106.8285556, -6.2381454], [106.8283399, -6.2380214]], [[106.872859, -6.2463535], [106.8723757, -6.2462225], [106.8712235, -6.245926], [106.8707509, -6.2457963], [106.8705317, -6.245735], [106.8703778, -6.2456861], [106.8701555, -6.2456107], [106.8700338, -6.2455669], [106.8697709, -6.2454609]], [[106.8753787, -6.2479302], [106.8745395, -6.2472439], [106.8738866, -6.2466837], [106.8738151, -6.2466425], [106.873739, -6.2466068], [106.8736716, -6.2465753], [106.87358, -6.2465401], [106.8733116, -6.2464611], [106.8729611, -6.2463786], [106.872859, -6.2463535]], [[106.8753787, -6.2479302], [106.8756518, -6.2481571], [106.8760693, -6.2485122], [106.8762156, -6.2486341], [106.8764034, -6.2487208], [106.8765982, -6.2487959], [106.8767735, -6.2488088], [106.8769186, -6.2488003], [106.8770846, -6.2487643], [106.8772295, -6.2487156], [106.877552, -6.248553], [106.8785095, -6.2478677], [106.8790161, -6.2475178], [106.8791754, -6.2474254], [106.8793255, -6.2473478], [106.8793519, -6.2473341], [106.8794618, -6.2472904], [106.8795799, -6.2472435], [106.8797831, -6.247189], [106.8800801, -6.2471353], [106.8803122, -6.2471262], [106.8813749, -6.2471734], [106.8833958, -6.2472813], [106.8837585, -6.247286], [106.8840472, -6.2472698], [106.8845567, -6.2471917], [106.8850355, -6.2470782], [106.885446, -6.2469496], [106.885865, -6.2467759], [106.8865087, -6.2463997], [106.8870928, -6.2460235], [106.8872969, -6.2458773], [106.8875569, -6.2456934], [106.8880849, -6.2453082], [106.8887789, -6.2448342], [106.8892187, -6.2445384], [106.8894647, -6.2443766], [106.8897284, -6.2442289], [106.8900392, -6.244085], [106.890272, -6.2439992], [106.8905012, -6.2439309], [106.8907409, -6.2438647], [106.8910252, -6.2437947], [106.891457, -6.2437253], [106.8923341, -6.2436322], [106.8929217, -6.2436237], [106.8934198, -6.2436745], [106.8939137, -6.2437591], [106.8945226, -6.2439369], [106.8951996, -6.2441824], [106.8958553, -6.2444829], [106.8967068, -6.2449992], [106.8974221, -6.2455241], [106.8977968, -6.2458838], [106.8984184, -6.2465526], [106.8994932, -6.2480427], [106.8998957, -6.2487388], [106.9007975, -6.2503204], [106.9012374, -6.2510656], [106.9015432, -6.2515135], [106.9018306, -6.2518817], [106.9020536, -6.2521524], [106.9023543, -6.2524919], [106.9026737, -6.252812], [106.9030519, -6.2531559], [106.9033406, -6.2533994], [106.9038566, -6.2537825], [106.9041449, -6.2539771], [106.9044814, -6.2541775], [106.9049415, -6.2544397], [106.9054383, -6.2546788], [106.9063313, -6.2550061], [106.9072398, -6.2552446], [106.9076544, -6.2553961], [106.9125945, -6.2574481], [106.9131603, -6.257635], [106.9138367, -6.2578123], [106.9146822, -6.2580025], [106.9150356, -6.2580656], [106.9152734, -6.2581045], [106.9158777, -6.2581541], [106.9163649, -6.2581634], [106.918143, -6.2582259], [106.9197118, -6.2581837], [106.921446, -6.2581195], [106.9224115, -6.2580662], [106.9248486, -6.2579075], [106.9268709, -6.2578004], [106.9279154, -6.2577426], [106.936902, -6.2572912], [106.9384425, -6.2572191], [106.9403546, -6.2571265], [106.9406878, -6.2570857], [106.943021, -6.2567086], [106.9433239, -6.2566854], [106.9436232, -6.256685], [106.9437836, -6.2566855], [106.945749, -6.2568516], [106.9459903, -6.2568679], [106.946306, -6.2568683], [106.9481606, -6.2567931], [106.94972, -6.2567197], [106.9518542, -6.2566172], [106.9526804, -6.2565675], [106.9541648, -6.2563389], [106.9545047, -6.2563088], [106.955394, -6.256262], [106.9556656, -6.2562416], [106.9560483, -6.2561868], [106.9579401, -6.2558034], [106.959197, -6.2555093], [106.9594753, -6.2554678], [106.9598096, -6.2554427], [106.9607908, -6.2553937], [106.9611072, -6.2553621], [106.9613524, -6.2553232], [106.9616326, -6.2552558], [106.9618982, -6.2551743], [106.9625137, -6.2549446], [106.9631801, -6.2546804], [106.965022, -6.2539574], [106.9655749, -6.2536932], [106.9679305, -6.2523267], [106.9700139, -6.2509423], [106.9706959, -6.2505244], [106.9713488, -6.2501593], [106.9718754, -6.2498991], [106.9724612, -6.2496341], [106.9732399, -6.2493232], [106.9741212, -6.249038], [106.9748681, -6.2488436], [106.9755171, -6.2487086], [106.9762465, -6.2486033], [106.9770999, -6.2485183], [106.9775771, -6.2485006], [106.9788544, -6.2485093], [106.9795357, -6.2485333], [106.9798075, -6.2485576], [106.9801191, -6.2485906], [106.9807263, -6.2486874], [106.9812954, -6.2488262], [106.9822267, -6.2491188], [106.9830796, -6.2494272], [106.9854239, -6.250479], [106.9868781, -6.2512607], [106.9904133, -6.2529813], [106.9943996, -6.2544716], [107.0072049, -6.2590472], [107.0083716, -6.2594891], [107.0100929, -6.2600677], [107.0183078, -6.2629649], [107.0197679, -6.2634599], [107.0205491, -6.2637343], [107.0216652, -6.2641263]]]}, "properties": {"name": "Bekasi Line (Dukuh Atas → Jatimulya)", "ref": "BK", "operator": "PT Kereta Api Indonesia Divisi LRT Jabodebek", "mode_label": "LRT"}}]}