{"type": "FeatureCollection", "features": [{"type": "Feature", "geometry": {"type": "Point", "coordinates": [106.7984457, -6.2387737]}, "properties": {"id": "4695686975", "name": "ASEAN Headquarters", "mode_label": "MRT", "operator": "MRT Jakarta"}}, {"type": "Feature", "geometry": {"type": "Point", "coordinates": [106.7971403, -6.2557793]}, "properties": {"id": "6196107727", "name": "Blok A VISA", "mode_label": "MRT", "operator": "MRT Jakarta"}}, {"type": "Feature", "geometry": {"type": "Point", "coordinates": [106.7981332, -6.2444643]}, "properties": {"id": "6196107726", "name": "Blok M BCA", "mode_label": "MRT", "operator": "MRT Jakarta"}}, {"type": "Feature", "geometry": {"type": "Point", "coordinates": [106.8230084, -6.1918644]}, "properties": {"id": "6196107719", "name": "Bundaran HI Bank Jakarta", "mode_label": "MRT", "operator": "MRT Jakarta"}}, {"type": "Feature", "geometry": {"type": "Point", "coordinates": [106.822788, -6.2007957]}, "properties": {"id": "6196107720", "name": "Dukuh Atas BNI", "mode_label": "MRT", "operator": "MRT Jakarta"}}, {"type": "Feature", "geometry": {"type": "Point", "coordinates": [106.8024926, -6.2267337]}, "properties": {"id": "6196107724", "name": "Senayan Mastercard", "mode_label": "MRT", "operator": "MRT Jakarta"}}, {"type": "Feature", "geometry": {"type": "Point", "coordinates": [106.7924644, -6.2924511]}, "properties": {"id": "6577753462", "name": "Fatmawati Indomaret", "mode_label": "MRT", "operator": "MRT Jakarta"}}, {"type": "Feature", "geometry": {"type": "Point", "coordinates": [106.7973262, -6.2666947]}, "properties": {"id": "6196107728", "name": "Haji Nawi", "mode_label": "MRT", "operator": "MRT Jakarta"}}, {"type": "Feature", "geometry": {"type": "Point", "coordinates": [106.8216945, -6.2090648]}, "properties": {"id": "6196107721", "name": "Setiabudi Astra", "mode_label": "MRT", "operator": "MRT Jakarta"}}, {"type": "Feature", "geometry": {"type": "Point", "coordinates": [106.8179484, -6.2150263]}, "properties": {"id": "6196107722", "name": "Bendungan Hilir", "mode_label": "MRT", "operator": "MRT Jakarta"}}, {"type": "Feature", "geometry": {"type": "Point", "coordinates": [106.7973159, -6.2783596]}, "properties": {"id": "6196107729", "name": "Cipete Raya TUKU", "mode_label": "MRT", "operator": "MRT Jakarta"}}, {"type": "Feature", "geometry": {"type": "Point", "coordinates": [106.7749355, -6.2892744]}, "properties": {"id": "6577753463", "name": "Lebak Bulus Bank Syariah Indonesia", "mode_label": "MRT", "operator": "MRT Jakarta"}}, {"type": "Feature", "geometry": {"type": "Point", "coordinates": [106.8086229, -6.22239]}, "properties": {"id": "6196107723", "name": "Istora Mandiri", "mode_label": "MRT", "operator": "MRT Jakarta"}}]}