{"type": "FeatureCollection", "features": [{"type": "Feature", "geometry": {"type": "Point", "coordinates": [106.6535468, -6.1227794]}, "properties": {"kind": "car", "name": "Soekarno Hatta Parkir Terminal 2E & F"}}, {"type": "Feature", "geometry": {"type": "Point", "coordinates": [106.6533855, -6.1303514]}, "properties": {"kind": "car", "name": "Soekarno Hatta Parkir Terminal 1C"}}, {"type": "Feature", "geometry": {"type": "Point", "coordinates": [106.6535099, -6.1260873]}, "properties": {"kind": "car", "name": "Parkir Inap 2"}}, {"type": "Feature", "geometry": {"type": "Point", "coordinates": [106.655767, -6.1285419]}, "properties": {"kind": "car", "name": ""}}, {"type": "Feature", "geometry": {"type": "Point", "coordinates": [106.6574117, -6.1261945]}, "properties": {"kind": "car", "name": "Parkir Inap 1"}}, {"type": "Feature", "geometry": {"type": "Point", "coordinates": [106.6547651, -6.1290468]}, "properties": {"kind": "motorcycle", "name": "Terminal 1 Motorcycle Parking Area"}}, {"type": "Feature", "geometry": {"type": "Point", "coordinates": [106.6569224, -6.1286731]}, "properties": {"kind": "car", "name": "Terminal 1A Parking Area"}}, {"type": "Feature", "geometry": {"type": "Point", "coordinates": [106.6560125, -6.1297248]}, "properties": {"kind": "car", "name": "Terminal 1B Parking Area"}}, {"type": "Feature", "geometry": {"type": "Point", "coordinates": [106.653701, -6.1299143]}, "properties": {"kind": "car", "name": "Terminal 1C Parking Area"}}, {"type": "Feature", "geometry": {"type": "Point", "coordinates": [106.6525169, -6.1242752]}, "properties": {"kind": "car", "name": "Terminal 2D Parking Area"}}, {"type": "Feature", "geometry": {"type": "Point", "coordinates": [106.6530824, -6.1236251]}, "properties": {"kind": "car", "name": "Terminal 2E Parking Area"}}, {"type": "Feature", "geometry": {"type": "Point", "coordinates": [106.6540882, -6.1235817]}, "properties": {"kind": "car", "name": "Terminal 2F Parking Area"}}, {"type": "Feature", "geometry": {"type": "Point", "coordinates": [106.6512724, -6.1252604]}, "properties": {"kind": "car", "name": ""}}, {"type": "Feature", "geometry": {"type": "Point", "coordinates": [106.6542341, -6.1242565]}, "properties": {"kind": "motorcycle", "name": "Terminal 2 Motorcycle Parking Area"}}, {"type": "Feature", "geometry": {"type": "Point", "coordinates": [106.6552798, -6.1300506]}, "properties": {"kind": "car", "name": ""}}, {"type": "Feature", "geometry": {"type": "Point", "coordinates": [106.6565367, -6.1295728]}, "properties": {"kind": "car", "name": ""}}, {"type": "Feature", "geometry": {"type": "Point", "coordinates": [106.6523144, -6.1249901]}, "properties": {"kind": "car", "name": ""}}, {"type": "Feature", "geometry": {"type": "Point", "coordinates": [106.6530481, -6.124834]}, "properties": {"kind": "car", "name": ""}}, {"type": "Feature", "geometry": {"type": "Point", "coordinates": [106.655896, -6.128821]}, "properties": {"kind": "motorcycle", "name": ""}}, {"type": "Feature", "geometry": {"type": "Point", "coordinates": [106.6553451, -6.1282184]}, "properties": {"kind": "motorcycle", "name": ""}}, {"type": "Feature", "geometry": {"type": "Point", "coordinates": [106.9951893, -6.2581588]}, "properties": {"kind": "motorcycle", "name": ""}}, {"type": "Feature", "geometry": {"type": "Point", "coordinates": [106.9916317, -6.2483278]}, "properties": {"kind": "car", "name": ""}}, {"type": "Feature", "geometry": {"type": "Point", "coordinates": [106.9925985, -6.2570963]}, "properties": {"kind": "car", "name": ""}}, {"type": "Feature", "geometry": {"type": "Point", "coordinates": [106.9949076, -6.247696]}, "properties": {"kind": "car", "name": ""}}, {"type": "Feature", "geometry": {"type": "Point", "coordinates": [106.9958459, -6.2482236]}, "properties": {"kind": "car", "name": ""}}, {"type": "Feature", "geometry": {"type": "Point", "coordinates": [106.9942142, -6.247305]}, "properties": {"kind": "car", "name": ""}}, {"type": "Feature", "geometry": {"type": "Point", "coordinates": [106.9895388, -6.2522984]}, "properties": {"kind": "motorcycle", "name": "Pekayon Jaya Sarana"}}, {"type": "Feature", "geometry": {"type": "Point", "coordinates": [106.8963833, -6.1725273]}, "properties": {"kind": "car", "name": ""}}, {"type": "Feature", "geometry": {"type": "Point", "coordinates": [106.9075759, -6.1592779]}, "properties": {"kind": "car", "name": "Kelapa Gading 1, 2 & 3 parking car"}}, {"type": "Feature", "geometry": {"type": "Point", "coordinates": [106.909735, -6.1582064]}, "properties": {"kind": "car", "name": ""}}, {"type": "Feature", "geometry": {"type": "Point", "coordinates": [106.9065954, -6.1592423]}, "properties": {"kind": "car", "name": ""}}, {"type": "Feature", "geometry": {"type": "Point", "coordinates": [106.9089083, -6.1555964]}, "properties": {"kind": "car", "name": ""}}, {"type": "Feature", "geometry": {"type": "Point", "coordinates": [106.9079848, -6.1606017]}, "properties": {"kind": "car", "name": "Gedung Parkir 1"}}, {"type": "Feature", "geometry": {"type": "Point", "coordinates": [106.9091358, -6.1592443]}, "properties": {"kind": "car", "name": ""}}, {"type": "Feature", "geometry": {"type": "Point", "coordinates": [106.9097254, -6.1585646]}, "properties": {"kind": "motorcycle", "name": ""}}, {"type": "Feature", "geometry": {"type": "Point", "coordinates": [106.9094435, -6.1549848]}, "properties": {"kind": "motorcycle", "name": ""}}, {"type": "Feature", "geometry": {"type": "Point", "coordinates": [106.9107287, -6.1555387]}, "properties": {"kind": "car", "name": ""}}, {"type": "Feature", "geometry": {"type": "Point", "coordinates": [106.9108679, -6.1549554]}, "properties": {"kind": "motorcycle", "name": ""}}, {"type": "Feature", "geometry": {"type": "Point", "coordinates": [106.8725926, -6.2513368]}, "properties": {"kind": "car", "name": ""}}, {"type": "Feature", "geometry": {"type": "Point", "coordinates": [106.8729053, -6.2505637]}, "properties": {"kind": "car", "name": ""}}, {"type": "Feature", "geometry": {"type": "Point", "coordinates": [106.8721466, -6.2465076]}, "properties": {"kind": "car", "name": ""}}, {"type": "Feature", "geometry": {"type": "Point", "coordinates": [106.866954, -6.2451272]}, "properties": {"kind": "car", "name": ""}}, {"type": "Feature", "geometry": {"type": "Point", "coordinates": [106.8500374, -6.2426055]}, "properties": {"kind": "car", "name": ""}}, {"type": "Feature", "geometry": {"type": "Point", "coordinates": [106.8616114, -6.2438349]}, "properties": {"kind": "car", "name": ""}}, {"type": "Feature", "geometry": {"type": "Point", "coordinates": [106.8570742, -6.2365789]}, "properties": {"kind": "car", "name": "Parkir Khusus Seafood 68 Tebet"}}, {"type": "Feature", "geometry": {"type": "Point", "coordinates": [106.9505296, -6.2582757]}, "properties": {"kind": "car", "name": ""}}, {"type": "Feature", "geometry": {"type": "Point", "coordinates": [106.9628211, -6.254369]}, "properties": {"kind": "car", "name": "Drop-off/Pick-up LRT Cikunir 2"}}, {"type": "Feature", "geometry": {"type": "Point", "coordinates": [106.9625652, -6.2505923]}, "properties": {"kind": "car", "name": ""}}, {"type": "Feature", "geometry": {"type": "Point", "coordinates": [106.9624443, -6.2508083]}, "properties": {"kind": "car", "name": ""}}, {"type": "Feature", "geometry": {"type": "Point", "coordinates": [106.9614741, -6.2576205]}, "properties": {"kind": "car", "name": ""}}, {"type": "Feature", "geometry": {"type": "Point", "coordinates": [106.9624667, -6.2487818]}, "properties": {"kind": "car", "name": ""}}, {"type": "Feature", "geometry": {"type": "Point", "coordinates": [106.962042, -6.2533544]}, "properties": {"kind": "car", "name": ""}}, {"type": "Feature", "geometry": {"type": "Point", "coordinates": [106.886335, -6.3225305]}, "properties": {"kind": "car", "name": ""}}, {"type": "Feature", "geometry": {"type": "Point", "coordinates": [106.8857656, -6.3229994]}, "properties": {"kind": "motorcycle", "name": ""}}, {"type": "Feature", "geometry": {"type": "Point", "coordinates": [106.8858105, -6.3227132]}, "properties": {"kind": "car", "name": ""}}, {"type": "Feature", "geometry": {"type": "Point", "coordinates": [106.8891742, -6.3235845]}, "properties": {"kind": "car", "name": ""}}, {"type": "Feature", "geometry": {"type": "Point", "coordinates": [106.8208817, -6.2032607]}, "properties": {"kind": "car", "name": ""}}, {"type": "Feature", "geometry": {"type": "Point", "coordinates": [106.821219, -6.2039173]}, "properties": {"kind": "motorcycle", "name": ""}}, {"type": "Feature", "geometry": {"type": "Point", "coordinates": [106.8260472, -6.2099014]}, "properties": {"kind": "car", "name": ""}}, {"type": "Feature", "geometry": {"type": "Point", "coordinates": [106.8207534, -6.2059215]}, "properties": {"kind": "car", "name": ""}}, {"type": "Feature", "geometry": {"type": "Point", "coordinates": [106.8286672, -6.2087221]}, "properties": {"kind": "motorcycle", "name": "Parkir Belakang Menara Duta"}}, {"type": "Feature", "geometry": {"type": "Point", "coordinates": [106.8203087, -6.2029264]}, "properties": {"kind": "car", "name": ""}}, {"type": "Feature", "geometry": {"type": "Point", "coordinates": [106.8214635, -6.2039448]}, "properties": {"kind": "car", "name": ""}}, {"type": "Feature", "geometry": {"type": "Point", "coordinates": [106.8217562, -6.2035099]}, "properties": {"kind": "car", "name": ""}}, {"type": "Feature", "geometry": {"type": "Point", "coordinates": [106.8215247, -6.2029394]}, "properties": {"kind": "car", "name": ""}}, {"type": "Feature", "geometry": {"type": "Point", "coordinates": [106.8249291, -6.2038912]}, "properties": {"kind": "car", "name": ""}}, {"type": "Feature", "geometry": {"type": "Point", "coordinates": [106.8248526, -6.2043951]}, "properties": {"kind": "car", "name": ""}}, {"type": "Feature", "geometry": {"type": "Point", "coordinates": [106.8210407, -6.2076848]}, "properties": {"kind": "car", "name": ""}}, {"type": "Feature", "geometry": {"type": "Point", "coordinates": [106.8238429, -6.2076644]}, "properties": {"kind": "car", "name": ""}}, {"type": "Feature", "geometry": {"type": "Point", "coordinates": [106.8290219, -6.2083931]}, "properties": {"kind": "car", "name": ""}}, {"type": "Feature", "geometry": {"type": "Point", "coordinates": [106.8294525, -6.2084545]}, "properties": {"kind": "car", "name": ""}}, {"type": "Feature", "geometry": {"type": "Point", "coordinates": [106.8180737, -6.2041682]}, "properties": {"kind": "car", "name": ""}}, {"type": "Feature", "geometry": {"type": "Point", "coordinates": [106.8221471, -6.2010801]}, "properties": {"kind": "car", "name": ""}}, {"type": "Feature", "geometry": {"type": "Point", "coordinates": [106.8218789, -6.2013636]}, "properties": {"kind": "car", "name": "Parkir All Seasons"}}, {"type": "Feature", "geometry": {"type": "Point", "coordinates": [106.8214404, -6.2078114]}, "properties": {"kind": "car", "name": ""}}, {"type": "Feature", "geometry": {"type": "Point", "coordinates": [106.8231759, -6.2046813]}, "properties": {"kind": "car", "name": ""}}, {"type": "Feature", "geometry": {"type": "Point", "coordinates": [106.8207198, -6.2065297]}, "properties": {"kind": "car", "name": ""}}, {"type": "Feature", "geometry": {"type": "Point", "coordinates": [106.8226173, -6.207568]}, "properties": {"kind": "car", "name": ""}}, {"type": "Feature", "geometry": {"type": "Point", "coordinates": [106.8216376, -6.210791]}, "properties": {"kind": "car", "name": ""}}, {"type": "Feature", "geometry": {"type": "Point", "coordinates": [106.8211121, -6.208302]}, "properties": {"kind": "car", "name": ""}}, {"type": "Feature", "geometry": {"type": "Point", "coordinates": [106.8312865, -6.2082228]}, "properties": {"kind": "car", "name": ""}}, {"type": "Feature", "geometry": {"type": "Point", "coordinates": [106.8236807, -6.2008732]}, "properties": {"kind": "car", "name": ""}}, {"type": "Feature", "geometry": {"type": "Point", "coordinates": [106.8180238, -6.2044852]}, "properties": {"kind": "motorcycle", "name": ""}}, {"type": "Feature", "geometry": {"type": "Point", "coordinates": [106.828808, -6.2092522]}, "properties": {"kind": "car", "name": "Parkir Belakang Menara Duta"}}, {"type": "Feature", "geometry": {"type": "Point", "coordinates": [106.8293572, -6.2099812]}, "properties": {"kind": "car", "name": ""}}, {"type": "Feature", "geometry": {"type": "Point", "coordinates": [106.829613, -6.2096931]}, "properties": {"kind": "car", "name": ""}}, {"type": "Feature", "geometry": {"type": "Point", "coordinates": [106.8230337, -6.2100347]}, "properties": {"kind": "car", "name": ""}}, {"type": "Feature", "geometry": {"type": "Point", "coordinates": [106.823831, -6.2097143]}, "properties": {"kind": "motorcycle", "name": "Sudirman Plaza"}}, {"type": "Feature", "geometry": {"type": "Point", "coordinates": [106.8941557, -6.181989]}, "properties": {"kind": "car", "name": ""}}, {"type": "Feature", "geometry": {"type": "Point", "coordinates": [106.8869546, -6.1783542]}, "properties": {"kind": "car", "name": ""}}, {"type": "Feature", "geometry": {"type": "Point", "coordinates": [106.8941512, -6.1819616]}, "properties": {"kind": "car", "name": ""}}, {"type": "Feature", "geometry": {"type": "Point", "coordinates": [106.8906823, -6.1905076]}, "properties": {"kind": "car", "name": ""}}, {"type": "Feature", "geometry": {"type": "Point", "coordinates": [106.8909005, -6.1844226]}, "properties": {"kind": "car", "name": ""}}, {"type": "Feature", "geometry": {"type": "Point", "coordinates": [106.8928323, -6.1765283]}, "properties": {"kind": "car", "name": ""}}, {"type": "Feature", "geometry": {"type": "Point", "coordinates": [106.8859319, -6.2452687]}, "properties": {"kind": "car", "name": ""}}, {"type": "Feature", "geometry": {"type": "Point", "coordinates": [106.8853656, -6.2462309]}, "properties": {"kind": "car", "name": ""}}, {"type": "Feature", "geometry": {"type": "Point", "coordinates": [106.8806414, -6.2491869]}, "properties": {"kind": "car", "name": "Pool Taksi Sri Medali"}}, {"type": "Feature", "geometry": {"type": "Point", "coordinates": [106.8821011, -6.246133]}, "properties": {"kind": "car", "name": ""}}, {"type": "Feature", "geometry": {"type": "Point", "coordinates": [106.9005914, -6.3720585]}, "properties": {"kind": "car", "name": "Parkir Pameran Jambore ASPAC"}}, {"type": "Feature", "geometry": {"type": "Point", "coordinates": [106.9020052, -6.3762628]}, "properties": {"kind": "car", "name": ""}}, {"type": "Feature", "geometry": {"type": "Point", "coordinates": [106.894393, -6.3704157]}, "properties": {"kind": "car", "name": ""}}, {"type": "Feature", "geometry": {"type": "Point", "coordinates": [106.9352882, -6.2564662]}, "properties": {"kind": "car", "name": ""}}, {"type": "Feature", "geometry": {"type": "Point", "coordinates": [106.9272287, -6.2564423]}, "properties": {"kind": "car", "name": ""}}, {"type": "Feature", "geometry": {"type": "Point", "coordinates": [107.0261758, -6.2651236]}, "properties": {"kind": "car", "name": ""}}, {"type": "Feature", "geometry": {"type": "Point", "coordinates": [107.0218342, -6.2635392]}, "properties": {"kind": "car", "name": ""}}, {"type": "Feature", "geometry": {"type": "Point", "coordinates": [107.0204077, -6.2680339]}, "properties": {"kind": "car", "name": ""}}, {"type": "Feature", "geometry": {"type": "Point", "coordinates": [106.8826081, -6.308435]}, "properties": {"kind": "car", "name": ""}}, {"type": "Feature", "geometry": {"type": "Point", "coordinates": [106.8822996, -6.3085603]}, "properties": {"kind": "motorcycle", "name": "Parkiran Motor Terminal Kampung Rambutan"}}, {"type": "Feature", "geometry": {"type": "Point", "coordinates": [106.8843998, -6.3105625]}, "properties": {"kind": "motorcycle", "name": ""}}, {"type": "Feature", "geometry": {"type": "Point", "coordinates": [106.8842818, -6.309956]}, "properties": {"kind": "motorcycle", "name": ""}}, {"type": "Feature", "geometry": {"type": "Point", "coordinates": [106.883681, -6.3095428]}, "properties": {"kind": "motorcycle", "name": ""}}, {"type": "Feature", "geometry": {"type": "Point", "coordinates": [106.883626, -6.3095001]}, "properties": {"kind": "car", "name": ""}}, {"type": "Feature", "geometry": {"type": "Point", "coordinates": [106.8813937, -6.3092909]}, "properties": {"kind": "motorcycle", "name": ""}}, {"type": "Feature", "geometry": {"type": "Point", "coordinates": [106.8887898, -6.3044142]}, "properties": {"kind": "car", "name": "Parkir Bus"}}, {"type": "Feature", "geometry": {"type": "Point", "coordinates": [106.8813044, -6.3070987]}, "properties": {"kind": "car", "name": ""}}, {"type": "Feature", "geometry": {"type": "Point", "coordinates": [106.8896953, -6.3047072]}, "properties": {"kind": "car", "name": ""}}, {"type": "Feature", "geometry": {"type": "Point", "coordinates": [106.8866424, -6.3026249]}, "properties": {"kind": "car", "name": ""}}, {"type": "Feature", "geometry": {"type": "Point", "coordinates": [106.9163286, -6.1537134]}, "properties": {"kind": "car", "name": ""}}, {"type": "Feature", "geometry": {"type": "Point", "coordinates": [106.9130722, -6.1505177]}, "properties": {"kind": "car", "name": ""}}, {"type": "Feature", "geometry": {"type": "Point", "coordinates": [106.9155767, -6.1579882]}, "properties": {"kind": "motorcycle", "name": ""}}, {"type": "Feature", "geometry": {"type": "Point", "coordinates": [106.8305175, -6.2246242]}, "properties": {"kind": "car", "name": ""}}, {"type": "Feature", "geometry": {"type": "Point", "coordinates": [106.834256, -6.2267494]}, "properties": {"kind": "car", "name": ""}}, {"type": "Feature", "geometry": {"type": "Point", "coordinates": [106.8282336, -6.2325213]}, "properties": {"kind": "car", "name": ""}}, {"type": "Feature", "geometry": {"type": "Point", "coordinates": [106.8305585, -6.2319269]}, "properties": {"kind": "car", "name": ""}}, {"type": "Feature", "geometry": {"type": "Point", "coordinates": [106.8350183, -6.2227911]}, "properties": {"kind": "car", "name": ""}}, {"type": "Feature", "geometry": {"type": "Point", "coordinates": [106.8302915, -6.2323468]}, "properties": {"kind": "car", "name": ""}}, {"type": "Feature", "geometry": {"type": "Point", "coordinates": [106.8271376, -6.2262427]}, "properties": {"kind": "car", "name": ""}}, {"type": "Feature", "geometry": {"type": "Point", "coordinates": [106.8269281, -6.2264924]}, "properties": {"kind": "motorcycle", "name": ""}}, {"type": "Feature", "geometry": {"type": "Point", "coordinates": [106.8274082, -6.2252225]}, "properties": {"kind": "car", "name": ""}}, {"type": "Feature", "geometry": {"type": "Point", "coordinates": [106.8374843, -6.2228404]}, "properties": {"kind": "car", "name": ""}}, {"type": "Feature", "geometry": {"type": "Point", "coordinates": [106.8327274, -6.2221868]}, "properties": {"kind": "car", "name": ""}}, {"type": "Feature", "geometry": {"type": "Point", "coordinates": [106.8402337, -6.241673]}, "properties": {"kind": "motorcycle", "name": ""}}, {"type": "Feature", "geometry": {"type": "Point", "coordinates": [106.8403297, -6.2413624]}, "properties": {"kind": "motorcycle", "name": ""}}, {"type": "Feature", "geometry": {"type": "Point", "coordinates": [106.8421898, -6.2470449]}, "properties": {"kind": "car", "name": ""}}, {"type": "Feature", "geometry": {"type": "Point", "coordinates": [106.8422317, -6.2471627]}, "properties": {"kind": "car", "name": ""}}, {"type": "Feature", "geometry": {"type": "Point", "coordinates": [106.8423835, -6.2473307]}, "properties": {"kind": "car", "name": ""}}, {"type": "Feature", "geometry": {"type": "Point", "coordinates": [106.8354642, -6.2178735]}, "properties": {"kind": "car", "name": "Epicentrum Basement Parking"}}, {"type": "Feature", "geometry": {"type": "Point", "coordinates": [106.8371379, -6.2197507]}, "properties": {"kind": "car", "name": ""}}, {"type": "Feature", "geometry": {"type": "Point", "coordinates": [106.8370789, -6.2189774]}, "properties": {"kind": "car", "name": ""}}, {"type": "Feature", "geometry": {"type": "Point", "coordinates": [106.8373084, -6.2193785]}, "properties": {"kind": "car", "name": "Al-Bakrie Parking Lot"}}, {"type": "Feature", "geometry": {"type": "Point", "coordinates": [106.8315927, -6.2163539]}, "properties": {"kind": "car", "name": "Plaza Kuningan Parking Annex"}}, {"type": "Feature", "geometry": {"type": "Point", "coordinates": [106.8326625, -6.2204469]}, "properties": {"kind": "car", "name": ""}}, {"type": "Feature", "geometry": {"type": "Point", "coordinates": [106.8330584, -6.2203159]}, "properties": {"kind": "car", "name": ""}}, {"type": "Feature", "geometry": {"type": "Point", "coordinates": [106.8324433, -6.221097]}, "properties": {"kind": "car", "name": ""}}, {"type": "Feature", "geometry": {"type": "Point", "coordinates": [106.8313948, -6.2163245]}, "properties": {"kind": "car", "name": ""}}, {"type": "Feature", "geometry": {"type": "Point", "coordinates": [106.8291253, -6.2161519]}, "properties": {"kind": "car", "name": ""}}, {"type": "Feature", "geometry": {"type": "Point", "coordinates": [106.8394748, -6.2211624]}, "properties": {"kind": "car", "name": ""}}, {"type": "Feature", "geometry": {"type": "Point", "coordinates": [106.8289511, -6.2116847]}, "properties": {"kind": "car", "name": ""}}, {"type": "Feature", "geometry": {"type": "Point", "coordinates": [106.8294011, -6.2129181]}, "properties": {"kind": "car", "name": ""}}, {"type": "Feature", "geometry": {"type": "Point", "coordinates": [106.831447, -6.2135112]}, "properties": {"kind": "car", "name": ""}}, {"type": "Feature", "geometry": {"type": "Point", "coordinates": [106.8289314, -6.2120426]}, "properties": {"kind": "car", "name": ""}}, {"type": "Feature", "geometry": {"type": "Point", "coordinates": [106.8289284, -6.2124594]}, "properties": {"kind": "car", "name": ""}}, {"type": "Feature", "geometry": {"type": "Point", "coordinates": [106.828581, -6.2125817]}, "properties": {"kind": "car", "name": ""}}, {"type": "Feature", "geometry": {"type": "Point", "coordinates": [106.8294029, -6.2125581]}, "properties": {"kind": "car", "name": ""}}, {"type": "Feature", "geometry": {"type": "Point", "coordinates": [106.8858365, -6.2919375]}, "properties": {"kind": "car", "name": "Park and Ride Pinang Ranti"}}, {"type": "Feature", "geometry": {"type": "Point", "coordinates": [106.8870959, -6.2909842]}, "properties": {"kind": "motorcycle", "name": "Penitipan Motor Zamrud"}}, {"type": "Feature", "geometry": {"type": "Point", "coordinates": [106.8849178, -6.2973777]}, "properties": {"kind": "car", "name": ""}}, {"type": "Feature", "geometry": {"type": "Point", "coordinates": [106.8838823, -6.2971429]}, "properties": {"kind": "car", "name": ""}}, {"type": "Feature", "geometry": {"type": "Point", "coordinates": [106.8842843, -6.2983299]}, "properties": {"kind": "car", "name": ""}}, {"type": "Feature", "geometry": {"type": "Point", "coordinates": [106.8733289, -6.2948437]}, "properties": {"kind": "car", "name": ""}}, {"type": "Feature", "geometry": {"type": "Point", "coordinates": [106.8854197, -6.2972089]}, "properties": {"kind": "car", "name": ""}}, {"type": "Feature", "geometry": {"type": "Point", "coordinates": [106.6599144, -6.1210601]}, "properties": {"kind": "car", "name": "Parkir Dasar Terminal 3 Internasional Soekarno-Hatta"}}, {"type": "Feature", "geometry": {"type": "Point", "coordinates": [106.6601511, -6.121618]}, "properties": {"kind": "motorcycle", "name": ""}}, {"type": "Feature", "geometry": {"type": "Point", "coordinates": [106.6630101, -6.1200708]}, "properties": {"kind": "car", "name": "Parkir Gedung Terminal 3 Internasional Soekarno-Hatta"}}, {"type": "Feature", "geometry": {"type": "Point", "coordinates": [106.6690401, -6.1176066]}, "properties": {"kind": "car", "name": "Parkir Gedung Terminal 3 Domestik Soekarno-Hatta"}}, {"type": "Feature", "geometry": {"type": "Point", "coordinates": [106.671308, -6.1209585]}, "properties": {"kind": "car", "name": "Parkir Inap"}}, {"type": "Feature", "geometry": {"type": "Point", "coordinates": [106.6645622, -6.1248379]}, "properties": {"kind": "motorcycle", "name": "Parkir Motor Barat"}}, {"type": "Feature", "geometry": {"type": "Point", "coordinates": [106.6652035, -6.1245768]}, "properties": {"kind": "motorcycle", "name": "Parkir Motor Timur"}}, {"type": "Feature", "geometry": {"type": "Point", "coordinates": [106.669268, -6.1244334]}, "properties": {"kind": "motorcycle", "name": ""}}, {"type": "Feature", "geometry": {"type": "Point", "coordinates": [106.6675651, -6.1254067]}, "properties": {"kind": "car", "name": "Blue Bird Group"}}, {"type": "Feature", "geometry": {"type": "Point", "coordinates": [106.6679403, -6.1250939]}, "properties": {"kind": "car", "name": "Inkoppol"}}, {"type": "Feature", "geometry": {"type": "Point", "coordinates": [106.6641889, -6.1261515]}, "properties": {"kind": "car", "name": ""}}, {"type": "Feature", "geometry": {"type": "Point", "coordinates": [106.6643751, -6.126197]}, "properties": {"kind": "car", "name": ""}}, {"type": "Feature", "geometry": {"type": "Point", "coordinates": [106.664407, -6.1263967]}, "properties": {"kind": "car", "name": ""}}, {"type": "Feature", "geometry": {"type": "Point", "coordinates": [106.6633599, -6.1264507]}, "properties": {"kind": "car", "name": ""}}, {"type": "Feature", "geometry": {"type": "Point", "coordinates": [106.664456, -6.1272128]}, "properties": {"kind": "car", "name": ""}}, {"type": "Feature", "geometry": {"type": "Point", "coordinates": [106.6648495, -6.127062]}, "properties": {"kind": "car", "name": ""}}, {"type": "Feature", "geometry": {"type": "Point", "coordinates": [106.6713438, -6.116925]}, "properties": {"kind": "car", "name": ""}}, {"type": "Feature", "geometry": {"type": "Point", "coordinates": [106.6714376, -6.1168988]}, "properties": {"kind": "car", "name": ""}}, {"type": "Feature", "geometry": {"type": "Point", "coordinates": [106.8899193, -6.1923715]}, "properties": {"kind": "car", "name": ""}}, {"type": "Feature", "geometry": {"type": "Point", "coordinates": [106.8898625, -6.1928351]}, "properties": {"kind": "car", "name": ""}}, {"type": "Feature", "geometry": {"type": "Point", "coordinates": [106.8862519, -6.1959624]}, "properties": {"kind": "car", "name": ""}}, {"type": "Feature", "geometry": {"type": "Point", "coordinates": [106.8866254, -6.1928909]}, "properties": {"kind": "car", "name": ""}}]}