{"type": "FeatureCollection", "features": [{"type": "Feature", "geometry": {"type": "Point", "coordinates": [106.8037334, -6.2414286]}, "properties": {"building": "apartments"}}, {"type": "Feature", "geometry": {"type": "Point", "coordinates": [106.799072, -6.2315713]}, "properties": {"building": "house"}}, {"type": "Feature", "geometry": {"type": "Point", "coordinates": [106.7991254, -6.2319672]}, "properties": {"building": "house"}}, {"type": "Feature", "geometry": {"type": "Point", "coordinates": [106.7990999, -6.2317337]}, "properties": {"building": "house"}}, {"type": "Feature", "geometry": {"type": "Point", "coordinates": [106.7990899, -6.2322786]}, "properties": {"building": "house"}}, {"type": "Feature", "geometry": {"type": "Point", "coordinates": [106.798819, -6.231566]}, "properties": {"building": "house"}}, {"type": "Feature", "geometry": {"type": "Point", "coordinates": [106.798856, -6.2318896]}, "properties": {"building": "house"}}, {"type": "Feature", "geometry": {"type": "Point", "coordinates": [106.7943114, -6.2442958]}, "properties": {"building": "house"}}, {"type": "Feature", "geometry": {"type": "Point", "coordinates": [106.7956136, -6.2394301]}, "properties": {"building": "residential"}}, {"type": "Feature", "geometry": {"type": "Point", "coordinates": [106.7933848, -6.2334939]}, "properties": {"building": "house"}}, {"type": "Feature", "geometry": {"type": "Point", "coordinates": [106.8179581, -6.2080452]}, "properties": {"building": "apartments"}}, {"type": "Feature", "geometry": {"type": "Point", "coordinates": [106.818506, -6.2079143]}, "properties": {"building": "apartments"}}, {"type": "Feature", "geometry": {"type": "Point", "coordinates": [106.818384, -6.2091045]}, "properties": {"building": "apartments"}}, {"type": "Feature", "geometry": {"type": "Point", "coordinates": [106.8213949, -6.2163697]}, "properties": {"building": "apartments"}}, {"type": "Feature", "geometry": {"type": "Point", "coordinates": [106.8165301, -6.2219542]}, "properties": {"building": "apartments"}}, {"type": "Feature", "geometry": {"type": "Point", "coordinates": [106.8186912, -6.22099]}, "properties": {"building": "residential"}}, {"type": "Feature", "geometry": {"type": "Point", "coordinates": [106.8172995, -6.2208225]}, "properties": {"building": "apartments"}}, {"type": "Feature", "geometry": {"type": "Point", "coordinates": [106.8215837, -6.2170156]}, "properties": {"building": "residential"}}, {"type": "Feature", "geometry": {"type": "Point", "coordinates": [106.8161723, -6.2156135]}, "properties": {"building": "apartments"}}, {"type": "Feature", "geometry": {"type": "Point", "coordinates": [106.8244872, -6.2160064]}, "properties": {"building": "apartments"}}, {"type": "Feature", "geometry": {"type": "Point", "coordinates": [106.8249129, -6.2165584]}, "properties": {"building": "apartments"}}, {"type": "Feature", "geometry": {"type": "Point", "coordinates": [106.8205631, -6.2215798]}, "properties": {"building": "apartments"}}, {"type": "Feature", "geometry": {"type": "Point", "coordinates": [106.8204625, -6.2101491]}, "properties": {"building": "apartments"}}, {"type": "Feature", "geometry": {"type": "Point", "coordinates": [106.8198014, -6.209967]}, "properties": {"building": "apartments"}}, {"type": "Feature", "geometry": {"type": "Point", "coordinates": [106.814747, -6.2104687]}, "properties": {"building": "house"}}, {"type": "Feature", "geometry": {"type": "Point", "coordinates": [106.8147551, -6.2106464]}, "properties": {"building": "house"}}, {"type": "Feature", "geometry": {"type": "Point", "coordinates": [106.814751, -6.2105576]}, "properties": {"building": "house"}}, {"type": "Feature", "geometry": {"type": "Point", "coordinates": [106.8134816, -6.2110879]}, "properties": {"building": "apartments"}}, {"type": "Feature", "geometry": {"type": "Point", "coordinates": [106.8183489, -6.2101551]}, "properties": {"building": "apartments"}}, {"type": "Feature", "geometry": {"type": "Point", "coordinates": [106.818776, -6.2102054]}, "properties": {"building": "apartments"}}, {"type": "Feature", "geometry": {"type": "Point", "coordinates": [106.818484, -6.2099804]}, "properties": {"building": "apartments"}}, {"type": "Feature", "geometry": {"type": "Point", "coordinates": [106.820137, -6.2078207]}, "properties": {"building": "apartments"}}, {"type": "Feature", "geometry": {"type": "Point", "coordinates": [106.8178473, -6.2076303]}, "properties": {"building": "apartments"}}, {"type": "Feature", "geometry": {"type": "Point", "coordinates": [106.8214165, -6.2166059]}, "properties": {"building": "apartments"}}, {"type": "Feature", "geometry": {"type": "Point", "coordinates": [106.8218074, -6.2135414]}, "properties": {"building": "house"}}, {"type": "Feature", "geometry": {"type": "Point", "coordinates": [106.8131131, -6.2113631]}, "properties": {"building": "apartments"}}, {"type": "Feature", "geometry": {"type": "Point", "coordinates": [106.8143818, -6.2113039]}, "properties": {"building": "apartments"}}, {"type": "Feature", "geometry": {"type": "Point", "coordinates": [106.8025583, -6.2583113]}, "properties": {"building": "house"}}, {"type": "Feature", "geometry": {"type": "Point", "coordinates": [106.8028802, -6.258285]}, "properties": {"building": "house"}}, {"type": "Feature", "geometry": {"type": "Point", "coordinates": [106.8020044, -6.2509493]}, "properties": {"building": "apartments"}}, {"type": "Feature", "geometry": {"type": "Point", "coordinates": [106.7956388, -6.2628859]}, "properties": {"building": "residential"}}, {"type": "Feature", "geometry": {"type": "Point", "coordinates": [106.7954474, -6.2628201]}, "properties": {"building": "residential"}}, {"type": "Feature", "geometry": {"type": "Point", "coordinates": [106.7954689, -6.2626821]}, "properties": {"building": "residential"}}, {"type": "Feature", "geometry": {"type": "Point", "coordinates": [106.795587, -6.2626943]}, "properties": {"building": "residential"}}, {"type": "Feature", "geometry": {"type": "Point", "coordinates": [106.7955386, -6.262831]}, "properties": {"building": "residential"}}, {"type": "Feature", "geometry": {"type": "Point", "coordinates": [106.7955403, -6.26227]}, "properties": {"building": "residential"}}, {"type": "Feature", "geometry": {"type": "Point", "coordinates": [106.7956661, -6.262353]}, "properties": {"building": "residential"}}, {"type": "Feature", "geometry": {"type": "Point", "coordinates": [106.7955463, -6.2621759]}, "properties": {"building": "residential"}}, {"type": "Feature", "geometry": {"type": "Point", "coordinates": [106.7955001, -6.2620568]}, "properties": {"building": "residential"}}, {"type": "Feature", "geometry": {"type": "Point", "coordinates": [106.7955971, -6.2620709]}, "properties": {"building": "residential"}}, {"type": "Feature", "geometry": {"type": "Point", "coordinates": [106.7953589, -6.2626886]}, "properties": {"building": "residential"}}, {"type": "Feature", "geometry": {"type": "Point", "coordinates": [106.7952782, -6.2626756]}, "properties": {"building": "residential"}}, {"type": "Feature", "geometry": {"type": "Point", "coordinates": [106.795382, -6.2625677]}, "properties": {"building": "residential"}}, {"type": "Feature", "geometry": {"type": "Point", "coordinates": [106.7953605, -6.2624809]}, "properties": {"building": "residential"}}, {"type": "Feature", "geometry": {"type": "Point", "coordinates": [106.7953634, -6.2623311]}, "properties": {"building": "residential"}}, {"type": "Feature", "geometry": {"type": "Point", "coordinates": [106.7951974, -6.2622432]}, "properties": {"building": "residential"}}, {"type": "Feature", "geometry": {"type": "Point", "coordinates": [106.7952524, -6.2623276]}, "properties": {"building": "residential"}}, {"type": "Feature", "geometry": {"type": "Point", "coordinates": [106.7952116, -6.2624259]}, "properties": {"building": "residential"}}, {"type": "Feature", "geometry": {"type": "Point", "coordinates": [106.7949929, -6.2625555]}, "properties": {"building": "residential"}}, {"type": "Feature", "geometry": {"type": "Point", "coordinates": [106.7950723, -6.262386]}, "properties": {"building": "residential"}}, {"type": "Feature", "geometry": {"type": "Point", "coordinates": [106.7952584, -6.2621312]}, "properties": {"building": "residential"}}, {"type": "Feature", "geometry": {"type": "Point", "coordinates": [106.7953653, -6.2620607]}, "properties": {"building": "residential"}}, {"type": "Feature", "geometry": {"type": "Point", "coordinates": [106.7953687, -6.2618202]}, "properties": {"building": "residential"}}, {"type": "Feature", "geometry": {"type": "Point", "coordinates": [106.7954132, -6.2617577]}, "properties": {"building": "residential"}}, {"type": "Feature", "geometry": {"type": "Point", "coordinates": [106.793322, -6.2529871]}, "properties": {"building": "house"}}, {"type": "Feature", "geometry": {"type": "Point", "coordinates": [106.802848, -6.252755]}, "properties": {"building": "apartments"}}, {"type": "Feature", "geometry": {"type": "Point", "coordinates": [106.8033759, -6.2523478]}, "properties": {"building": "apartments"}}, {"type": "Feature", "geometry": {"type": "Point", "coordinates": [106.8023285, -6.2525294]}, "properties": {"building": "apartments"}}, {"type": "Feature", "geometry": {"type": "Point", "coordinates": [106.8028638, -6.248648]}, "properties": {"building": "house"}}, {"type": "Feature", "geometry": {"type": "Point", "coordinates": [106.7942918, -6.2465446]}, "properties": {"building": "apartments"}}, {"type": "Feature", "geometry": {"type": "Point", "coordinates": [106.8241994, -6.1916461]}, "properties": {"building": "residential"}}, {"type": "Feature", "geometry": {"type": "Point", "coordinates": [106.8255367, -6.1911077]}, "properties": {"building": "residential"}}, {"type": "Feature", "geometry": {"type": "Point", "coordinates": [106.8245373, -6.1915873]}, "properties": {"building": "residential"}}, {"type": "Feature", "geometry": {"type": "Point", "coordinates": [106.8240469, -6.1916829]}, "properties": {"building": "residential"}}, {"type": "Feature", "geometry": {"type": "Point", "coordinates": [106.822425, -6.1976314]}, "properties": {"building": "apartments"}}, {"type": "Feature", "geometry": {"type": "Point", "coordinates": [106.8276222, -6.1944485]}, "properties": {"building": "residential"}}, {"type": "Feature", "geometry": {"type": "Point", "coordinates": [106.8201148, -6.1922718]}, "properties": {"building": "residential"}}, {"type": "Feature", "geometry": {"type": "Point", "coordinates": [106.822064, -6.1880395]}, "properties": {"building": "apartments"}}, {"type": "Feature", "geometry": {"type": "Point", "coordinates": [106.8261564, -6.1860961]}, "properties": {"building": "residential"}}, {"type": "Feature", "geometry": {"type": "Point", "coordinates": [106.8220647, -6.1881511]}, "properties": {"building": "apartments"}}, {"type": "Feature", "geometry": {"type": "Point", "coordinates": [106.8220505, -6.1882986]}, "properties": {"building": "apartments"}}, {"type": "Feature", "geometry": {"type": "Point", "coordinates": [106.8220484, -6.1884058]}, "properties": {"building": "apartments"}}, {"type": "Feature", "geometry": {"type": "Point", "coordinates": [106.822024, -6.188525]}, "properties": {"building": "apartments"}}, {"type": "Feature", "geometry": {"type": "Point", "coordinates": [106.822018, -6.1886341]}, "properties": {"building": "apartments"}}, {"type": "Feature", "geometry": {"type": "Point", "coordinates": [106.8220302, -6.1887675]}, "properties": {"building": "apartments"}}, {"type": "Feature", "geometry": {"type": "Point", "coordinates": [106.822018, -6.1888847]}, "properties": {"building": "apartments"}}, {"type": "Feature", "geometry": {"type": "Point", "coordinates": [106.8219529, -6.1890241]}, "properties": {"building": "apartments"}}, {"type": "Feature", "geometry": {"type": "Point", "coordinates": [106.8219468, -6.1891373]}, "properties": {"building": "apartments"}}, {"type": "Feature", "geometry": {"type": "Point", "coordinates": [106.8216378, -6.188426]}, "properties": {"building": "apartments"}}, {"type": "Feature", "geometry": {"type": "Point", "coordinates": [106.8217537, -6.18843]}, "properties": {"building": "apartments"}}, {"type": "Feature", "geometry": {"type": "Point", "coordinates": [106.8216622, -6.1888584]}, "properties": {"building": "apartments"}}, {"type": "Feature", "geometry": {"type": "Point", "coordinates": [106.8215565, -6.1888463]}, "properties": {"building": "apartments"}}, {"type": "Feature", "geometry": {"type": "Point", "coordinates": [106.8204118, -6.1979562]}, "properties": {"building": "residential"}}, {"type": "Feature", "geometry": {"type": "Point", "coordinates": [106.8206577, -6.1987026]}, "properties": {"building": "residential"}}, {"type": "Feature", "geometry": {"type": "Point", "coordinates": [106.8209955, -6.1980399]}, "properties": {"building": "residential"}}, {"type": "Feature", "geometry": {"type": "Point", "coordinates": [106.818979, -6.198102]}, "properties": {"building": "apartments"}}, {"type": "Feature", "geometry": {"type": "Point", "coordinates": [106.8212576, -6.1947513]}, "properties": {"building": "apartments"}}, {"type": "Feature", "geometry": {"type": "Point", "coordinates": [106.7949493, -6.2809064]}, "properties": {"building": "apartments"}}, {"type": "Feature", "geometry": {"type": "Point", "coordinates": [106.7951527, -6.2807379]}, "properties": {"building": "apartments"}}, {"type": "Feature", "geometry": {"type": "Point", "coordinates": [106.7950833, -6.2812204]}, "properties": {"building": "apartments"}}, {"type": "Feature", "geometry": {"type": "Point", "coordinates": [106.7911033, -6.2809978]}, "properties": {"building": "apartments"}}, {"type": "Feature", "geometry": {"type": "Point", "coordinates": [106.7959336, -6.275446]}, "properties": {"building": "house"}}, {"type": "Feature", "geometry": {"type": "Point", "coordinates": [106.7960973, -6.2754047]}, "properties": {"building": "house"}}, {"type": "Feature", "geometry": {"type": "Point", "coordinates": [106.7959776, -6.272211]}, "properties": {"building": "house"}}, {"type": "Feature", "geometry": {"type": "Point", "coordinates": [106.7955248, -6.2831954]}, "properties": {"building": "house"}}, {"type": "Feature", "geometry": {"type": "Point", "coordinates": [106.822001, -6.200671]}, "properties": {"building": "house"}}, {"type": "Feature", "geometry": {"type": "Point", "coordinates": [106.8218114, -6.2006665]}, "properties": {"building": "house"}}, {"type": "Feature", "geometry": {"type": "Point", "coordinates": [106.8173945, -6.2021646]}, "properties": {"building": "apartments"}}, {"type": "Feature", "geometry": {"type": "Point", "coordinates": [106.8252827, -6.2006378]}, "properties": {"building": "house"}}, {"type": "Feature", "geometry": {"type": "Point", "coordinates": [106.8271035, -6.2025982]}, "properties": {"building": "house"}}, {"type": "Feature", "geometry": {"type": "Point", "coordinates": [106.8267931, -6.2021425]}, "properties": {"building": "house"}}, {"type": "Feature", "geometry": {"type": "Point", "coordinates": [106.8266199, -6.2020155]}, "properties": {"building": "house"}}, {"type": "Feature", "geometry": {"type": "Point", "coordinates": [106.8258459, -6.2019125]}, "properties": {"building": "house"}}, {"type": "Feature", "geometry": {"type": "Point", "coordinates": [106.8258402, -6.2016932]}, "properties": {"building": "house"}}, {"type": "Feature", "geometry": {"type": "Point", "coordinates": [106.8257202, -6.2016842]}, "properties": {"building": "house"}}, {"type": "Feature", "geometry": {"type": "Point", "coordinates": [106.8259679, -6.2017521]}, "properties": {"building": "house"}}, {"type": "Feature", "geometry": {"type": "Point", "coordinates": [106.8256334, -6.2016587]}, "properties": {"building": "house"}}, {"type": "Feature", "geometry": {"type": "Point", "coordinates": [106.8255413, -6.2016528]}, "properties": {"building": "house"}}, {"type": "Feature", "geometry": {"type": "Point", "coordinates": [106.8254551, -6.2016167]}, "properties": {"building": "house"}}, {"type": "Feature", "geometry": {"type": "Point", "coordinates": [106.8253617, -6.2015896]}, "properties": {"building": "house"}}, {"type": "Feature", "geometry": {"type": "Point", "coordinates": [106.8252746, -6.2015742]}, "properties": {"building": "house"}}, {"type": "Feature", "geometry": {"type": "Point", "coordinates": [106.8257608, -6.201889]}, "properties": {"building": "house"}}, {"type": "Feature", "geometry": {"type": "Point", "coordinates": [106.8256814, -6.2018534]}, "properties": {"building": "house"}}, {"type": "Feature", "geometry": {"type": "Point", "coordinates": [106.8255949, -6.201826]}, "properties": {"building": "house"}}, {"type": "Feature", "geometry": {"type": "Point", "coordinates": [106.8254161, -6.2017909]}, "properties": {"building": "residential"}}, {"type": "Feature", "geometry": {"type": "Point", "coordinates": [106.8253261, -6.201775]}, "properties": {"building": "house"}}, {"type": "Feature", "geometry": {"type": "Point", "coordinates": [106.8254994, -6.2018112]}, "properties": {"building": "house"}}, {"type": "Feature", "geometry": {"type": "Point", "coordinates": [106.8252338, -6.201749]}, "properties": {"building": "house"}}, {"type": "Feature", "geometry": {"type": "Point", "coordinates": [106.8259379, -6.2019223]}, "properties": {"building": "house"}}, {"type": "Feature", "geometry": {"type": "Point", "coordinates": [106.8260213, -6.2019489]}, "properties": {"building": "house"}}, {"type": "Feature", "geometry": {"type": "Point", "coordinates": [106.8287637, -6.1999998]}, "properties": {"building": "residential"}}, {"type": "Feature", "geometry": {"type": "Point", "coordinates": [106.8264833, -6.2023731]}, "properties": {"building": "house"}}, {"type": "Feature", "geometry": {"type": "Point", "coordinates": [106.8250579, -6.2020268]}, "properties": {"building": "house"}}, {"type": "Feature", "geometry": {"type": "Point", "coordinates": [106.8250478, -6.2021388]}, "properties": {"building": "house"}}, {"type": "Feature", "geometry": {"type": "Point", "coordinates": [106.8251273, -6.2017135]}, "properties": {"building": "house"}}, {"type": "Feature", "geometry": {"type": "Point", "coordinates": [106.8250877, -6.2018455]}, "properties": {"building": "house"}}, {"type": "Feature", "geometry": {"type": "Point", "coordinates": [106.8256063, -6.2009426]}, "properties": {"building": "house"}}, {"type": "Feature", "geometry": {"type": "Point", "coordinates": [106.825742, -6.2010831]}, "properties": {"building": "house"}}, {"type": "Feature", "geometry": {"type": "Point", "coordinates": [106.8254838, -6.2008157]}, "properties": {"building": "house"}}, {"type": "Feature", "geometry": {"type": "Point", "coordinates": [106.8219342, -6.2017538]}, "properties": {"building": "apartments"}}, {"type": "Feature", "geometry": {"type": "Point", "coordinates": [106.825313, -6.201108]}, "properties": {"building": "house"}}, {"type": "Feature", "geometry": {"type": "Point", "coordinates": [106.8252014, -6.2012436]}, "properties": {"building": "house"}}, {"type": "Feature", "geometry": {"type": "Point", "coordinates": [106.8250814, -6.2024918]}, "properties": {"building": "house"}}, {"type": "Feature", "geometry": {"type": "Point", "coordinates": [106.8251451, -6.2015255]}, "properties": {"building": "house"}}, {"type": "Feature", "geometry": {"type": "Point", "coordinates": [106.8251756, -6.2013955]}, "properties": {"building": "house"}}, {"type": "Feature", "geometry": {"type": "Point", "coordinates": [106.8244793, -6.2015415]}, "properties": {"building": "house"}}, {"type": "Feature", "geometry": {"type": "Point", "coordinates": [106.8248277, -6.2017736]}, "properties": {"building": "house"}}, {"type": "Feature", "geometry": {"type": "Point", "coordinates": [106.8246805, -6.201597]}, "properties": {"building": "house"}}, {"type": "Feature", "geometry": {"type": "Point", "coordinates": [106.8248303, -6.2016257]}, "properties": {"building": "house"}}, {"type": "Feature", "geometry": {"type": "Point", "coordinates": [106.8242431, -6.2019547]}, "properties": {"building": "house"}}, {"type": "Feature", "geometry": {"type": "Point", "coordinates": [106.8240206, -6.2017611]}, "properties": {"building": "house"}}, {"type": "Feature", "geometry": {"type": "Point", "coordinates": [106.8239904, -6.2018893]}, "properties": {"building": "house"}}, {"type": "Feature", "geometry": {"type": "Point", "coordinates": [106.824255, -6.2021083]}, "properties": {"building": "house"}}, {"type": "Feature", "geometry": {"type": "Point", "coordinates": [106.8241794, -6.2020744]}, "properties": {"building": "house"}}, {"type": "Feature", "geometry": {"type": "Point", "coordinates": [106.8240983, -6.2020564]}, "properties": {"building": "house"}}, {"type": "Feature", "geometry": {"type": "Point", "coordinates": [106.8239986, -6.2020319]}, "properties": {"building": "house"}}, {"type": "Feature", "geometry": {"type": "Point", "coordinates": [106.8241046, -6.2017628]}, "properties": {"building": "house"}}, {"type": "Feature", "geometry": {"type": "Point", "coordinates": [106.8242772, -6.2018194]}, "properties": {"building": "house"}}, {"type": "Feature", "geometry": {"type": "Point", "coordinates": [106.8245808, -6.2020067]}, "properties": {"building": "house"}}, {"type": "Feature", "geometry": {"type": "Point", "coordinates": [106.8241604, -6.2016124]}, "properties": {"building": "house"}}, {"type": "Feature", "geometry": {"type": "Point", "coordinates": [106.8240755, -6.2015795]}, "properties": {"building": "house"}}, {"type": "Feature", "geometry": {"type": "Point", "coordinates": [106.8249665, -6.2010489]}, "properties": {"building": "house"}}, {"type": "Feature", "geometry": {"type": "Point", "coordinates": [106.8249318, -6.2011751]}, "properties": {"building": "house"}}, {"type": "Feature", "geometry": {"type": "Point", "coordinates": [106.8250462, -6.2008048]}, "properties": {"building": "house"}}, {"type": "Feature", "geometry": {"type": "Point", "coordinates": [106.8243734, -6.201511]}, "properties": {"building": "house"}}, {"type": "Feature", "geometry": {"type": "Point", "coordinates": [106.8246668, -6.201745]}, "properties": {"building": "house"}}, {"type": "Feature", "geometry": {"type": "Point", "coordinates": [106.8245506, -6.2017228]}, "properties": {"building": "house"}}, {"type": "Feature", "geometry": {"type": "Point", "coordinates": [106.8247767, -6.2019443]}, "properties": {"building": "house"}}, {"type": "Feature", "geometry": {"type": "Point", "coordinates": [106.8246155, -6.2018747]}, "properties": {"building": "house"}}, {"type": "Feature", "geometry": {"type": "Point", "coordinates": [106.8245192, -6.2018883]}, "properties": {"building": "house"}}, {"type": "Feature", "geometry": {"type": "Point", "coordinates": [106.8244909, -6.2019904]}, "properties": {"building": "house"}}, {"type": "Feature", "geometry": {"type": "Point", "coordinates": [106.8245895, -6.2015868]}, "properties": {"building": "house"}}, {"type": "Feature", "geometry": {"type": "Point", "coordinates": [106.8244211, -6.2016829]}, "properties": {"building": "house"}}, {"type": "Feature", "geometry": {"type": "Point", "coordinates": [106.8242373, -6.2016476]}, "properties": {"building": "house"}}, {"type": "Feature", "geometry": {"type": "Point", "coordinates": [106.8247284, -6.2014388]}, "properties": {"building": "house"}}, {"type": "Feature", "geometry": {"type": "Point", "coordinates": [106.8244175, -6.2013447]}, "properties": {"building": "house"}}, {"type": "Feature", "geometry": {"type": "Point", "coordinates": [106.8245138, -6.2013726]}, "properties": {"building": "house"}}, {"type": "Feature", "geometry": {"type": "Point", "coordinates": [106.8240751, -6.201894]}, "properties": {"building": "house"}}, {"type": "Feature", "geometry": {"type": "Point", "coordinates": [106.8243595, -6.2019714]}, "properties": {"building": "house"}}, {"type": "Feature", "geometry": {"type": "Point", "coordinates": [106.8243887, -6.2018408]}, "properties": {"building": "house"}}, {"type": "Feature", "geometry": {"type": "Point", "coordinates": [106.8241867, -6.2017981]}, "properties": {"building": "house"}}, {"type": "Feature", "geometry": {"type": "Point", "coordinates": [106.8247164, -6.2020615]}, "properties": {"building": "house"}}, {"type": "Feature", "geometry": {"type": "Point", "coordinates": [106.824602, -6.2022121]}, "properties": {"building": "house"}}, {"type": "Feature", "geometry": {"type": "Point", "coordinates": [106.8271452, -6.2028904]}, "properties": {"building": "house"}}, {"type": "Feature", "geometry": {"type": "Point", "coordinates": [106.8262232, -6.2016514]}, "properties": {"building": "house"}}, {"type": "Feature", "geometry": {"type": "Point", "coordinates": [106.8263496, -6.2017707]}, "properties": {"building": "house"}}, {"type": "Feature", "geometry": {"type": "Point", "coordinates": [106.8301335, -6.2006323]}, "properties": {"building": "residential"}}, {"type": "Feature", "geometry": {"type": "Point", "coordinates": [106.8259183, -6.2012093]}, "properties": {"building": "residential"}}, {"type": "Feature", "geometry": {"type": "Point", "coordinates": [106.8264347, -6.2019527]}, "properties": {"building": "house"}}, {"type": "Feature", "geometry": {"type": "Point", "coordinates": [106.8245927, -6.2003068]}, "properties": {"building": "house"}}, {"type": "Feature", "geometry": {"type": "Point", "coordinates": [106.8244005, -6.2004881]}, "properties": {"building": "house"}}, {"type": "Feature", "geometry": {"type": "Point", "coordinates": [106.8241059, -6.2005264]}, "properties": {"building": "house"}}, {"type": "Feature", "geometry": {"type": "Point", "coordinates": [106.824005, -6.200504]}, "properties": {"building": "house"}}, {"type": "Feature", "geometry": {"type": "Point", "coordinates": [106.8239497, -6.2005152]}, "properties": {"building": "house"}}, {"type": "Feature", "geometry": {"type": "Point", "coordinates": [106.8243502, -6.1999996]}, "properties": {"building": "house"}}, {"type": "Feature", "geometry": {"type": "Point", "coordinates": [106.8243059, -6.2000366]}, "properties": {"building": "house"}}, {"type": "Feature", "geometry": {"type": "Point", "coordinates": [106.8242711, -6.2000857]}, "properties": {"building": "house"}}, {"type": "Feature", "geometry": {"type": "Point", "coordinates": [106.8241845, -6.2001195]}, "properties": {"building": "house"}}, {"type": "Feature", "geometry": {"type": "Point", "coordinates": [106.8240902, -6.2001571]}, "properties": {"building": "house"}}, {"type": "Feature", "geometry": {"type": "Point", "coordinates": [106.8239826, -6.2001952]}, "properties": {"building": "house"}}, {"type": "Feature", "geometry": {"type": "Point", "coordinates": [106.8242275, -6.1999665]}, "properties": {"building": "house"}}, {"type": "Feature", "geometry": {"type": "Point", "coordinates": [106.8241316, -6.1999876]}, "properties": {"building": "house"}}, {"type": "Feature", "geometry": {"type": "Point", "coordinates": [106.8240143, -6.2000182]}, "properties": {"building": "house"}}, {"type": "Feature", "geometry": {"type": "Point", "coordinates": [106.8240952, -6.199811]}, "properties": {"building": "house"}}, {"type": "Feature", "geometry": {"type": "Point", "coordinates": [106.8240445, -6.1993518]}, "properties": {"building": "house"}}, {"type": "Feature", "geometry": {"type": "Point", "coordinates": [106.8241356, -6.1995039]}, "properties": {"building": "house"}}, {"type": "Feature", "geometry": {"type": "Point", "coordinates": [106.8245289, -6.1998474]}, "properties": {"building": "house"}}, {"type": "Feature", "geometry": {"type": "Point", "coordinates": [106.8249038, -6.2002667]}, "properties": {"building": "house"}}, {"type": "Feature", "geometry": {"type": "Point", "coordinates": [106.825035, -6.2003626]}, "properties": {"building": "house"}}, {"type": "Feature", "geometry": {"type": "Point", "coordinates": [106.8251761, -6.200502]}, "properties": {"building": "house"}}, {"type": "Feature", "geometry": {"type": "Point", "coordinates": [106.8246354, -6.2014216]}, "properties": {"building": "house"}}, {"type": "Feature", "geometry": {"type": "Point", "coordinates": [106.8248948, -6.2013597]}, "properties": {"building": "house"}}, {"type": "Feature", "geometry": {"type": "Point", "coordinates": [106.8242679, -6.2015005]}, "properties": {"building": "house"}}, {"type": "Feature", "geometry": {"type": "Point", "coordinates": [106.8249281, -6.201492]}, "properties": {"building": "house"}}, {"type": "Feature", "geometry": {"type": "Point", "coordinates": [106.8248216, -6.2014641]}, "properties": {"building": "house"}}, {"type": "Feature", "geometry": {"type": "Point", "coordinates": [106.8255717, -6.2066126]}, "properties": {"building": "residential"}}, {"type": "Feature", "geometry": {"type": "Point", "coordinates": [106.8267365, -6.2067718]}, "properties": {"building": "residential"}}, {"type": "Feature", "geometry": {"type": "Point", "coordinates": [106.8264902, -6.2062805]}, "properties": {"building": "residential"}}, {"type": "Feature", "geometry": {"type": "Point", "coordinates": [106.8259405, -6.2062068]}, "properties": {"building": "residential"}}, {"type": "Feature", "geometry": {"type": "Point", "coordinates": [106.82213, -6.1999244]}, "properties": {"building": "house"}}, {"type": "Feature", "geometry": {"type": "Point", "coordinates": [106.8166351, -6.2022405]}, "properties": {"building": "apartments"}}, {"type": "Feature", "geometry": {"type": "Point", "coordinates": [106.8163086, -6.2019168]}, "properties": {"building": "apartments"}}, {"type": "Feature", "geometry": {"type": "Point", "coordinates": [106.8169187, -6.1972786]}, "properties": {"building": "apartments"}}, {"type": "Feature", "geometry": {"type": "Point", "coordinates": [106.8244584, -6.202162]}, "properties": {"building": "house"}}, {"type": "Feature", "geometry": {"type": "Point", "coordinates": [106.8243587, -6.202125]}, "properties": {"building": "house"}}, {"type": "Feature", "geometry": {"type": "Point", "coordinates": [106.8179813, -6.2052193]}, "properties": {"building": "apartments"}}, {"type": "Feature", "geometry": {"type": "Point", "coordinates": [106.8181844, -6.2061485]}, "properties": {"building": "apartments"}}, {"type": "Feature", "geometry": {"type": "Point", "coordinates": [106.8182748, -6.2056439]}, "properties": {"building": "apartments"}}, {"type": "Feature", "geometry": {"type": "Point", "coordinates": [106.820324, -6.2072622]}, "properties": {"building": "apartments"}}, {"type": "Feature", "geometry": {"type": "Point", "coordinates": [106.8165935, -6.1967764]}, "properties": {"building": "apartments"}}, {"type": "Feature", "geometry": {"type": "Point", "coordinates": [106.8165676, -6.1977259]}, "properties": {"building": "apartments"}}, {"type": "Feature", "geometry": {"type": "Point", "coordinates": [106.8165854, -6.1972511]}, "properties": {"building": "apartments"}}, {"type": "Feature", "geometry": {"type": "Point", "coordinates": [106.8170711, -6.1975008]}, "properties": {"building": "apartments"}}, {"type": "Feature", "geometry": {"type": "Point", "coordinates": [106.817082, -6.1970278]}, "properties": {"building": "apartments"}}, {"type": "Feature", "geometry": {"type": "Point", "coordinates": [106.8188289, -6.1986223]}, "properties": {"building": "apartments"}}, {"type": "Feature", "geometry": {"type": "Point", "coordinates": [106.8277672, -6.2057464]}, "properties": {"building": "apartments"}}, {"type": "Feature", "geometry": {"type": "Point", "coordinates": [106.8250097, -6.2009175]}, "properties": {"building": "house"}}, {"type": "Feature", "geometry": {"type": "Point", "coordinates": [106.8250518, -6.2023166]}, "properties": {"building": "house"}}, {"type": "Feature", "geometry": {"type": "Point", "coordinates": [106.8241649, -6.2019372]}, "properties": {"building": "house"}}, {"type": "Feature", "geometry": {"type": "Point", "coordinates": [106.8243151, -6.2016749]}, "properties": {"building": "house"}}, {"type": "Feature", "geometry": {"type": "Point", "coordinates": [106.7874083, -6.2915197]}, "properties": {"building": "apartments"}}, {"type": "Feature", "geometry": {"type": "Point", "coordinates": [106.7863407, -6.2912861]}, "properties": {"building": "apartments"}}, {"type": "Feature", "geometry": {"type": "Point", "coordinates": [106.7863424, -6.2945881]}, "properties": {"building": "apartments"}}, {"type": "Feature", "geometry": {"type": "Point", "coordinates": [106.7994331, -6.294518]}, "properties": {"building": "house"}}, {"type": "Feature", "geometry": {"type": "Point", "coordinates": [106.7865671, -6.2909226]}, "properties": {"building": "apartments"}}, {"type": "Feature", "geometry": {"type": "Point", "coordinates": [106.7864603, -6.2910968]}, "properties": {"building": "apartments"}}, {"type": "Feature", "geometry": {"type": "Point", "coordinates": [106.7865796, -6.2935629]}, "properties": {"building": "apartments"}}, {"type": "Feature", "geometry": {"type": "Point", "coordinates": [106.7863328, -6.2930687]}, "properties": {"building": "apartments"}}, {"type": "Feature", "geometry": {"type": "Point", "coordinates": [106.7950013, -6.265265]}, "properties": {"building": "house"}}, {"type": "Feature", "geometry": {"type": "Point", "coordinates": [106.7954044, -6.2634305]}, "properties": {"building": "residential"}}, {"type": "Feature", "geometry": {"type": "Point", "coordinates": [106.7954377, -6.2628975]}, "properties": {"building": "residential"}}, {"type": "Feature", "geometry": {"type": "Point", "coordinates": [106.7955266, -6.262913]}, "properties": {"building": "residential"}}, {"type": "Feature", "geometry": {"type": "Point", "coordinates": [106.7986722, -6.2667707]}, "properties": {"building": "house"}}, {"type": "Feature", "geometry": {"type": "Point", "coordinates": [106.8089357, -6.2193771]}, "properties": {"building": "apartments"}}, {"type": "Feature", "geometry": {"type": "Point", "coordinates": [106.805639, -6.226189]}, "properties": {"building": "apartments"}}, {"type": "Feature", "geometry": {"type": "Point", "coordinates": [106.8089321, -6.2201017]}, "properties": {"building": "apartments"}}, {"type": "Feature", "geometry": {"type": "Point", "coordinates": [106.8119844, -6.2255226]}, "properties": {"building": "apartments"}}, {"type": "Feature", "geometry": {"type": "Point", "coordinates": [106.8112688, -6.2253052]}, "properties": {"building": "apartments"}}, {"type": "Feature", "geometry": {"type": "Point", "coordinates": [106.8064339, -6.2273596]}, "properties": {"building": "residential"}}, {"type": "Feature", "geometry": {"type": "Point", "coordinates": [106.8060841, -6.2286616]}, "properties": {"building": "residential"}}, {"type": "Feature", "geometry": {"type": "Point", "coordinates": [106.806425, -6.2290858]}, "properties": {"building": "residential"}}, {"type": "Feature", "geometry": {"type": "Point", "coordinates": [106.8072815, -6.2292382]}, "properties": {"building": "residential"}}, {"type": "Feature", "geometry": {"type": "Point", "coordinates": [106.8095809, -6.2253879]}, "properties": {"building": "apartments"}}, {"type": "Feature", "geometry": {"type": "Point", "coordinates": [106.8101577, -6.2252989]}, "properties": {"building": "apartments"}}, {"type": "Feature", "geometry": {"type": "Point", "coordinates": [106.8114471, -6.2253067]}, "properties": {"building": "apartments"}}, {"type": "Feature", "geometry": {"type": "Point", "coordinates": [106.8111111, -6.2252687]}, "properties": {"building": "apartments"}}, {"type": "Feature", "geometry": {"type": "Point", "coordinates": [106.8123329, -6.2269267]}, "properties": {"building": "apartments"}}, {"type": "Feature", "geometry": {"type": "Point", "coordinates": [106.8120754, -6.227042]}, "properties": {"building": "apartments"}}, {"type": "Feature", "geometry": {"type": "Point", "coordinates": [106.8124885, -6.2271713]}, "properties": {"building": "apartments"}}, {"type": "Feature", "geometry": {"type": "Point", "coordinates": [106.7735741, -6.2869094]}, "properties": {"building": "apartments"}}, {"type": "Feature", "geometry": {"type": "Point", "coordinates": [106.7735854, -6.2867102]}, "properties": {"building": "apartments"}}, {"type": "Feature", "geometry": {"type": "Point", "coordinates": [106.774043, -6.2857844]}, "properties": {"building": "apartments"}}, {"type": "Feature", "geometry": {"type": "Point", "coordinates": [106.7746423, -6.2875532]}, "properties": {"building": "apartments"}}, {"type": "Feature", "geometry": {"type": "Point", "coordinates": [106.7690341, -6.2912352]}, "properties": {"building": "house"}}, {"type": "Feature", "geometry": {"type": "Point", "coordinates": [106.7689784, -6.2908002]}, "properties": {"building": "house"}}, {"type": "Feature", "geometry": {"type": "Point", "coordinates": [106.7689098, -6.2908049]}, "properties": {"building": "house"}}, {"type": "Feature", "geometry": {"type": "Point", "coordinates": [106.7690804, -6.2907447]}, "properties": {"building": "house"}}, {"type": "Feature", "geometry": {"type": "Point", "coordinates": [106.7691055, -6.290834]}, "properties": {"building": "house"}}, {"type": "Feature", "geometry": {"type": "Point", "coordinates": [106.7691296, -6.290941]}, "properties": {"building": "house"}}, {"type": "Feature", "geometry": {"type": "Point", "coordinates": [106.7691564, -6.2910736]}, "properties": {"building": "house"}}, {"type": "Feature", "geometry": {"type": "Point", "coordinates": [106.7691662, -6.2911223]}, "properties": {"building": "house"}}, {"type": "Feature", "geometry": {"type": "Point", "coordinates": [106.7691755, -6.2911684]}, "properties": {"building": "house"}}, {"type": "Feature", "geometry": {"type": "Point", "coordinates": [106.7692493, -6.2914307]}, "properties": {"building": "house"}}, {"type": "Feature", "geometry": {"type": "Point", "coordinates": [106.769284, -6.291807]}, "properties": {"building": "house"}}, {"type": "Feature", "geometry": {"type": "Point", "coordinates": [106.7694596, -6.2920009]}, "properties": {"building": "house"}}, {"type": "Feature", "geometry": {"type": "Point", "coordinates": [106.7692056, -6.2919654]}, "properties": {"building": "house"}}, {"type": "Feature", "geometry": {"type": "Point", "coordinates": [106.7688874, -6.2917708]}, "properties": {"building": "house"}}, {"type": "Feature", "geometry": {"type": "Point", "coordinates": [106.768997, -6.2916194]}, "properties": {"building": "house"}}, {"type": "Feature", "geometry": {"type": "Point", "coordinates": [106.7688907, -6.2915659]}, "properties": {"building": "house"}}, {"type": "Feature", "geometry": {"type": "Point", "coordinates": [106.7687135, -6.2916408]}, "properties": {"building": "house"}}, {"type": "Feature", "geometry": {"type": "Point", "coordinates": [106.7687619, -6.2915015]}, "properties": {"building": "house"}}, {"type": "Feature", "geometry": {"type": "Point", "coordinates": [106.7687768, -6.2910423]}, "properties": {"building": "house"}}, {"type": "Feature", "geometry": {"type": "Point", "coordinates": [106.7686768, -6.2911391]}, "properties": {"building": "house"}}, {"type": "Feature", "geometry": {"type": "Point", "coordinates": [106.7685867, -6.2912762]}, "properties": {"building": "house"}}, {"type": "Feature", "geometry": {"type": "Point", "coordinates": [106.7684639, -6.2911651]}, "properties": {"building": "house"}}, {"type": "Feature", "geometry": {"type": "Point", "coordinates": [106.7684325, -6.2912823]}, "properties": {"building": "house"}}, {"type": "Feature", "geometry": {"type": "Point", "coordinates": [106.7683997, -6.29145]}, "properties": {"building": "house"}}, {"type": "Feature", "geometry": {"type": "Point", "coordinates": [106.7683697, -6.2915234]}, "properties": {"building": "house"}}, {"type": "Feature", "geometry": {"type": "Point", "coordinates": [106.7684872, -6.2916836]}, "properties": {"building": "house"}}, {"type": "Feature", "geometry": {"type": "Point", "coordinates": [106.7683648, -6.2916221]}, "properties": {"building": "house"}}, {"type": "Feature", "geometry": {"type": "Point", "coordinates": [106.7683186, -6.290699]}, "properties": {"building": "house"}}, {"type": "Feature", "geometry": {"type": "Point", "coordinates": [106.7682444, -6.2907754]}, "properties": {"building": "house"}}, {"type": "Feature", "geometry": {"type": "Point", "coordinates": [106.768037, -6.2911609]}, "properties": {"building": "house"}}, {"type": "Feature", "geometry": {"type": "Point", "coordinates": [106.7680207, -6.2912375]}, "properties": {"building": "house"}}, {"type": "Feature", "geometry": {"type": "Point", "coordinates": [106.7681773, -6.291364]}, "properties": {"building": "house"}}, {"type": "Feature", "geometry": {"type": "Point", "coordinates": [106.7682252, -6.2911867]}, "properties": {"building": "house"}}, {"type": "Feature", "geometry": {"type": "Point", "coordinates": [106.7685714, -6.2907055]}, "properties": {"building": "house"}}, {"type": "Feature", "geometry": {"type": "Point", "coordinates": [106.7686309, -6.2906523]}, "properties": {"building": "house"}}, {"type": "Feature", "geometry": {"type": "Point", "coordinates": [106.7686789, -6.2905757]}, "properties": {"building": "house"}}, {"type": "Feature", "geometry": {"type": "Point", "coordinates": [106.7688246, -6.2905018]}, "properties": {"building": "house"}}, {"type": "Feature", "geometry": {"type": "Point", "coordinates": [106.768939, -6.2903891]}, "properties": {"building": "house"}}, {"type": "Feature", "geometry": {"type": "Point", "coordinates": [106.7688181, -6.2902718]}, "properties": {"building": "house"}}, {"type": "Feature", "geometry": {"type": "Point", "coordinates": [106.7687406, -6.2901641]}, "properties": {"building": "house"}}, {"type": "Feature", "geometry": {"type": "Point", "coordinates": [106.7729534, -6.2869881]}, "properties": {"building": "apartments"}}, {"type": "Feature", "geometry": {"type": "Point", "coordinates": [106.769093, -6.2902021]}, "properties": {"building": "house"}}, {"type": "Feature", "geometry": {"type": "Point", "coordinates": [106.7691477, -6.2902738]}, "properties": {"building": "house"}}, {"type": "Feature", "geometry": {"type": "Point", "coordinates": [106.7690572, -6.2906411]}, "properties": {"building": "house"}}, {"type": "Feature", "geometry": {"type": "Point", "coordinates": [106.7689079, -6.2906792]}, "properties": {"building": "house"}}, {"type": "Feature", "geometry": {"type": "Point", "coordinates": [106.7690561, -6.2901351]}, "properties": {"building": "house"}}, {"type": "Feature", "geometry": {"type": "Point", "coordinates": [106.7690202, -6.2900981]}, "properties": {"building": "house"}}, {"type": "Feature", "geometry": {"type": "Point", "coordinates": [106.7689871, -6.2900642]}, "properties": {"building": "house"}}, {"type": "Feature", "geometry": {"type": "Point", "coordinates": [106.7721911, -6.2881563]}, "properties": {"building": "apartments"}}, {"type": "Feature", "geometry": {"type": "Point", "coordinates": [106.772185, -6.2879565]}, "properties": {"building": "apartments"}}, {"type": "Feature", "geometry": {"type": "Point", "coordinates": [106.7721858, -6.2885725]}, "properties": {"building": "apartments"}}, {"type": "Feature", "geometry": {"type": "Point", "coordinates": [106.7721877, -6.2887685]}, "properties": {"building": "apartments"}}, {"type": "Feature", "geometry": {"type": "Point", "coordinates": [106.7719213, -6.288371]}, "properties": {"building": "apartments"}}, {"type": "Feature", "geometry": {"type": "Point", "coordinates": [106.7721209, -6.2875436]}, "properties": {"building": "apartments"}}, {"type": "Feature", "geometry": {"type": "Point", "coordinates": [106.77212, -6.2877446]}, "properties": {"building": "apartments"}}, {"type": "Feature", "geometry": {"type": "Point", "coordinates": [106.8007866, -6.2245779]}, "properties": {"building": "residential"}}, {"type": "Feature", "geometry": {"type": "Point", "coordinates": [106.7988833, -6.231366]}, "properties": {"building": "house"}}, {"type": "Feature", "geometry": {"type": "Point", "coordinates": [106.8004686, -6.2233302]}, "properties": {"building": "residential"}}, {"type": "Feature", "geometry": {"type": "Point", "coordinates": [106.8008323, -6.2240621]}, "properties": {"building": "residential"}}, {"type": "Feature", "geometry": {"type": "Point", "coordinates": [106.7998773, -6.223215]}, "properties": {"building": "residential"}}, {"type": "Feature", "geometry": {"type": "Point", "coordinates": [106.7991199, -6.2313668]}, "properties": {"building": "house"}}, {"type": "Feature", "geometry": {"type": "Point", "coordinates": [106.8027967, -6.2288355]}, "properties": {"building": "apartments"}}, {"type": "Feature", "geometry": {"type": "Point", "coordinates": [106.8023219, -6.228961]}, "properties": {"building": "apartments"}}, {"type": "Feature", "geometry": {"type": "Point", "coordinates": [106.8024972, -6.2286164]}, "properties": {"building": "apartments"}}, {"type": "Feature", "geometry": {"type": "Point", "coordinates": [106.8071494, -6.2298851]}, "properties": {"building": "residential"}}, {"type": "Feature", "geometry": {"type": "Point", "coordinates": [106.8043276, -6.2292018]}, "properties": {"building": "apartments"}}, {"type": "Feature", "geometry": {"type": "Point", "coordinates": [106.7967067, -6.2268435]}, "properties": {"building": "apartments"}}, {"type": "Feature", "geometry": {"type": "Point", "coordinates": [106.8265701, -6.2121637]}, "properties": {"building": "residential"}}, {"type": "Feature", "geometry": {"type": "Point", "coordinates": [106.8183181, -6.2070791]}, "properties": {"building": "apartments"}}, {"type": "Feature", "geometry": {"type": "Point", "coordinates": [106.8177803, -6.2072139]}, "properties": {"building": "apartments"}}, {"type": "Feature", "geometry": {"type": "Point", "coordinates": [106.8183733, -6.2074921]}, "properties": {"building": "apartments"}}, {"type": "Feature", "geometry": {"type": "Point", "coordinates": [106.8239786, -6.2100196]}, "properties": {"building": "residential"}}, {"type": "Feature", "geometry": {"type": "Point", "coordinates": [106.8241643, -6.2104437]}, "properties": {"building": "residential"}}, {"type": "Feature", "geometry": {"type": "Point", "coordinates": [106.8237606, -6.2103871]}, "properties": {"building": "residential"}}, {"type": "Feature", "geometry": {"type": "Point", "coordinates": [106.8280722, -6.2088272]}, "properties": {"building": "residential"}}]}