{"type": "FeatureCollection", "features": [{"type": "Feature", "geometry": {"type": "Point", "coordinates": [106.8411633, -6.1259978]}, "properties": {"kind": "car", "name": ""}}, {"type": "Feature", "geometry": {"type": "Point", "coordinates": [106.8412826, -6.1269918]}, "properties": {"kind": "car", "name": "Sentral Parkir"}}, {"type": "Feature", "geometry": {"type": "Point", "coordinates": [106.8443446, -6.1229048]}, "properties": {"kind": "car", "name": ""}}, {"type": "Feature", "geometry": {"type": "Point", "coordinates": [106.8455952, -6.1219397]}, "properties": {"kind": "car", "name": ""}}, {"type": "Feature", "geometry": {"type": "Point", "coordinates": [106.8431126, -6.1268105]}, "properties": {"kind": "car", "name": "Parkir Sea World"}}, {"type": "Feature", "geometry": {"type": "Point", "coordinates": [106.795043, -6.1451334]}, "properties": {"kind": "car", "name": ""}}, {"type": "Feature", "geometry": {"type": "Point", "coordinates": [106.7951731, -6.1454747]}, "properties": {"kind": "car", "name": ""}}, {"type": "Feature", "geometry": {"type": "Point", "coordinates": [106.8010622, -6.1373406]}, "properties": {"kind": "car", "name": ""}}, {"type": "Feature", "geometry": {"type": "Point", "coordinates": [106.8189841, -6.1948351]}, "properties": {"kind": "car", "name": ""}}, {"type": "Feature", "geometry": {"type": "Point", "coordinates": [106.8208817, -6.2032607]}, "properties": {"kind": "car", "name": ""}}, {"type": "Feature", "geometry": {"type": "Point", "coordinates": [106.821219, -6.2039173]}, "properties": {"kind": "motorcycle", "name": ""}}, {"type": "Feature", "geometry": {"type": "Point", "coordinates": [106.8163522, -6.1977399]}, "properties": {"kind": "car", "name": ""}}, {"type": "Feature", "geometry": {"type": "Point", "coordinates": [106.8207534, -6.2059215]}, "properties": {"kind": "car", "name": ""}}, {"type": "Feature", "geometry": {"type": "Point", "coordinates": [106.822245, -6.197434]}, "properties": {"kind": "car", "name": ""}}, {"type": "Feature", "geometry": {"type": "Point", "coordinates": [106.8170294, -6.2045126]}, "properties": {"kind": "car", "name": ""}}, {"type": "Feature", "geometry": {"type": "Point", "coordinates": [106.8203087, -6.2029264]}, "properties": {"kind": "car", "name": ""}}, {"type": "Feature", "geometry": {"type": "Point", "coordinates": [106.8214635, -6.2039448]}, "properties": {"kind": "car", "name": ""}}, {"type": "Feature", "geometry": {"type": "Point", "coordinates": [106.8217562, -6.2035099]}, "properties": {"kind": "car", "name": ""}}, {"type": "Feature", "geometry": {"type": "Point", "coordinates": [106.8215247, -6.2029394]}, "properties": {"kind": "car", "name": ""}}, {"type": "Feature", "geometry": {"type": "Point", "coordinates": [106.8249291, -6.2038912]}, "properties": {"kind": "car", "name": ""}}, {"type": "Feature", "geometry": {"type": "Point", "coordinates": [106.8248526, -6.2043951]}, "properties": {"kind": "car", "name": ""}}, {"type": "Feature", "geometry": {"type": "Point", "coordinates": [106.8210407, -6.2076848]}, "properties": {"kind": "car", "name": ""}}, {"type": "Feature", "geometry": {"type": "Point", "coordinates": [106.8238429, -6.2076644]}, "properties": {"kind": "car", "name": ""}}, {"type": "Feature", "geometry": {"type": "Point", "coordinates": [106.8188867, -6.2090068]}, "properties": {"kind": "car", "name": ""}}, {"type": "Feature", "geometry": {"type": "Point", "coordinates": [106.8180737, -6.2041682]}, "properties": {"kind": "car", "name": ""}}, {"type": "Feature", "geometry": {"type": "Point", "coordinates": [106.8221471, -6.2010801]}, "properties": {"kind": "car", "name": ""}}, {"type": "Feature", "geometry": {"type": "Point", "coordinates": [106.8218789, -6.2013636]}, "properties": {"kind": "car", "name": "Parkir All Seasons"}}, {"type": "Feature", "geometry": {"type": "Point", "coordinates": [106.8240852, -6.1965492]}, "properties": {"kind": "car", "name": ""}}, {"type": "Feature", "geometry": {"type": "Point", "coordinates": [106.8214404, -6.2078114]}, "properties": {"kind": "car", "name": ""}}, {"type": "Feature", "geometry": {"type": "Point", "coordinates": [106.8231759, -6.2046813]}, "properties": {"kind": "car", "name": ""}}, {"type": "Feature", "geometry": {"type": "Point", "coordinates": [106.8207198, -6.2065297]}, "properties": {"kind": "car", "name": ""}}, {"type": "Feature", "geometry": {"type": "Point", "coordinates": [106.8172749, -6.2044432]}, "properties": {"kind": "motorcycle", "name": "Parkir Karyawan Shangri-La"}}, {"type": "Feature", "geometry": {"type": "Point", "coordinates": [106.8157648, -6.203584]}, "properties": {"kind": "car", "name": ""}}, {"type": "Feature", "geometry": {"type": "Point", "coordinates": [106.8226173, -6.207568]}, "properties": {"kind": "car", "name": ""}}, {"type": "Feature", "geometry": {"type": "Point", "coordinates": [106.8211121, -6.208302]}, "properties": {"kind": "car", "name": ""}}, {"type": "Feature", "geometry": {"type": "Point", "coordinates": [106.8236807, -6.2008732]}, "properties": {"kind": "car", "name": ""}}, {"type": "Feature", "geometry": {"type": "Point", "coordinates": [106.8180238, -6.2044852]}, "properties": {"kind": "motorcycle", "name": ""}}, {"type": "Feature", "geometry": {"type": "Point", "coordinates": [106.8156725, -6.2030629]}, "properties": {"kind": "car", "name": ""}}, {"type": "Feature", "geometry": {"type": "Point", "coordinates": [106.6535468, -6.1227794]}, "properties": {"kind": "car", "name": "Soekarno Hatta Parkir Terminal 2E & F"}}, {"type": "Feature", "geometry": {"type": "Point", "coordinates": [106.6533855, -6.1303514]}, "properties": {"kind": "car", "name": "Soekarno Hatta Parkir Terminal 1C"}}, {"type": "Feature", "geometry": {"type": "Point", "coordinates": [106.6535099, -6.1260873]}, "properties": {"kind": "car", "name": "Parkir Inap 2"}}, {"type": "Feature", "geometry": {"type": "Point", "coordinates": [106.655767, -6.1285419]}, "properties": {"kind": "car", "name": ""}}, {"type": "Feature", "geometry": {"type": "Point", "coordinates": [106.6574117, -6.1261945]}, "properties": {"kind": "car", "name": "Parkir Inap 1"}}, {"type": "Feature", "geometry": {"type": "Point", "coordinates": [106.6547651, -6.1290468]}, "properties": {"kind": "motorcycle", "name": "Terminal 1 Motorcycle Parking Area"}}, {"type": "Feature", "geometry": {"type": "Point", "coordinates": [106.6569224, -6.1286731]}, "properties": {"kind": "car", "name": "Terminal 1A Parking Area"}}, {"type": "Feature", "geometry": {"type": "Point", "coordinates": [106.6560125, -6.1297248]}, "properties": {"kind": "car", "name": "Terminal 1B Parking Area"}}, {"type": "Feature", "geometry": {"type": "Point", "coordinates": [106.653701, -6.1299143]}, "properties": {"kind": "car", "name": "Terminal 1C Parking Area"}}, {"type": "Feature", "geometry": {"type": "Point", "coordinates": [106.6525169, -6.1242752]}, "properties": {"kind": "car", "name": "Terminal 2D Parking Area"}}, {"type": "Feature", "geometry": {"type": "Point", "coordinates": [106.6530824, -6.1236251]}, "properties": {"kind": "car", "name": "Terminal 2E Parking Area"}}, {"type": "Feature", "geometry": {"type": "Point", "coordinates": [106.6540882, -6.1235817]}, "properties": {"kind": "car", "name": "Terminal 2F Parking Area"}}, {"type": "Feature", "geometry": {"type": "Point", "coordinates": [106.6512724, -6.1252604]}, "properties": {"kind": "car", "name": ""}}, {"type": "Feature", "geometry": {"type": "Point", "coordinates": [106.6542341, -6.1242565]}, "properties": {"kind": "motorcycle", "name": "Terminal 2 Motorcycle Parking Area"}}, {"type": "Feature", "geometry": {"type": "Point", "coordinates": [106.6552798, -6.1300506]}, "properties": {"kind": "car", "name": ""}}, {"type": "Feature", "geometry": {"type": "Point", "coordinates": [106.6565367, -6.1295728]}, "properties": {"kind": "car", "name": ""}}, {"type": "Feature", "geometry": {"type": "Point", "coordinates": [106.6523144, -6.1249901]}, "properties": {"kind": "car", "name": ""}}, {"type": "Feature", "geometry": {"type": "Point", "coordinates": [106.6530481, -6.124834]}, "properties": {"kind": "car", "name": ""}}, {"type": "Feature", "geometry": {"type": "Point", "coordinates": [106.6463607, -6.1311843]}, "properties": {"kind": "car", "name": ""}}, {"type": "Feature", "geometry": {"type": "Point", "coordinates": [106.6461557, -6.1306653]}, "properties": {"kind": "car", "name": ""}}, {"type": "Feature", "geometry": {"type": "Point", "coordinates": [106.655896, -6.128821]}, "properties": {"kind": "motorcycle", "name": ""}}, {"type": "Feature", "geometry": {"type": "Point", "coordinates": [106.6553451, -6.1282184]}, "properties": {"kind": "motorcycle", "name": ""}}, {"type": "Feature", "geometry": {"type": "Point", "coordinates": [106.9996719, -6.2363499]}, "properties": {"kind": "car", "name": "Parkir Pintu Utara Stasiun Bekasi"}}, {"type": "Feature", "geometry": {"type": "Point", "coordinates": [106.9995955, -6.2435442]}, "properties": {"kind": "car", "name": ""}}, {"type": "Feature", "geometry": {"type": "Point", "coordinates": [106.9926416, -6.2370341]}, "properties": {"kind": "car", "name": "Gedung Parkir Stadion Patriot Chandrabaga"}}, {"type": "Feature", "geometry": {"type": "Point", "coordinates": [106.9997938, -6.2371906]}, "properties": {"kind": "motorcycle", "name": "Parkir Motor Pintu Selatan Stasiun Bekasi"}}, {"type": "Feature", "geometry": {"type": "Point", "coordinates": [106.9973827, -6.2298368]}, "properties": {"kind": "car", "name": ""}}, {"type": "Feature", "geometry": {"type": "Point", "coordinates": [106.9934925, -6.2400944]}, "properties": {"kind": "car", "name": ""}}, {"type": "Feature", "geometry": {"type": "Point", "coordinates": [106.9920893, -6.2333467]}, "properties": {"kind": "car", "name": ""}}, {"type": "Feature", "geometry": {"type": "Point", "coordinates": [106.9987542, -6.2342833]}, "properties": {"kind": "car", "name": ""}}, {"type": "Feature", "geometry": {"type": "Point", "coordinates": [107.0183598, -6.2473704]}, "properties": {"kind": "car", "name": ""}}, {"type": "Feature", "geometry": {"type": "Point", "coordinates": [107.0150872, -6.2495041]}, "properties": {"kind": "motorcycle", "name": ""}}, {"type": "Feature", "geometry": {"type": "Point", "coordinates": [106.7895125, -6.5944921]}, "properties": {"kind": "motorcycle", "name": ""}}, {"type": "Feature", "geometry": {"type": "Point", "coordinates": [106.7897044, -6.5941685]}, "properties": {"kind": "motorcycle", "name": ""}}, {"type": "Feature", "geometry": {"type": "Point", "coordinates": [106.7895828, -6.5946195]}, "properties": {"kind": "motorcycle", "name": ""}}, {"type": "Feature", "geometry": {"type": "Point", "coordinates": [106.7896845, -6.5942798]}, "properties": {"kind": "motorcycle", "name": ""}}, {"type": "Feature", "geometry": {"type": "Point", "coordinates": [106.790038, -6.5952697]}, "properties": {"kind": "motorcycle", "name": ""}}, {"type": "Feature", "geometry": {"type": "Point", "coordinates": [106.7898543, -6.5935206]}, "properties": {"kind": "motorcycle", "name": ""}}, {"type": "Feature", "geometry": {"type": "Point", "coordinates": [106.7903569, -6.5970211]}, "properties": {"kind": "car", "name": "Parkir Motor"}}, {"type": "Feature", "geometry": {"type": "Point", "coordinates": [106.7879041, -6.5918661]}, "properties": {"kind": "car", "name": ""}}, {"type": "Feature", "geometry": {"type": "Point", "coordinates": [106.7923333, -6.5961735]}, "properties": {"kind": "car", "name": ""}}, {"type": "Feature", "geometry": {"type": "Point", "coordinates": [106.7859803, -6.5961968]}, "properties": {"kind": "car", "name": ""}}, {"type": "Feature", "geometry": {"type": "Point", "coordinates": [106.7923059, -6.589945]}, "properties": {"kind": "car", "name": ""}}, {"type": "Feature", "geometry": {"type": "Point", "coordinates": [106.7879643, -6.5894263]}, "properties": {"kind": "car", "name": ""}}, {"type": "Feature", "geometry": {"type": "Point", "coordinates": [106.7965164, -6.5931285]}, "properties": {"kind": "car", "name": ""}}, {"type": "Feature", "geometry": {"type": "Point", "coordinates": [106.7926626, -6.6012791]}, "properties": {"kind": "car", "name": ""}}, {"type": "Feature", "geometry": {"type": "Point", "coordinates": [106.7941907, -6.6001212]}, "properties": {"kind": "car", "name": ""}}, {"type": "Feature", "geometry": {"type": "Point", "coordinates": [106.7938856, -6.5998414]}, "properties": {"kind": "car", "name": ""}}, {"type": "Feature", "geometry": {"type": "Point", "coordinates": [106.7944562, -6.5997541]}, "properties": {"kind": "car", "name": ""}}, {"type": "Feature", "geometry": {"type": "Point", "coordinates": [106.7946003, -6.6001127]}, "properties": {"kind": "car", "name": ""}}, {"type": "Feature", "geometry": {"type": "Point", "coordinates": [106.7951087, -6.5930935]}, "properties": {"kind": "car", "name": ""}}, {"type": "Feature", "geometry": {"type": "Point", "coordinates": [106.7926063, -6.5956848]}, "properties": {"kind": "car", "name": ""}}, {"type": "Feature", "geometry": {"type": "Point", "coordinates": [106.7936967, -6.597373]}, "properties": {"kind": "car", "name": ""}}, {"type": "Feature", "geometry": {"type": "Point", "coordinates": [106.7951015, -6.5914494]}, "properties": {"kind": "car", "name": ""}}, {"type": "Feature", "geometry": {"type": "Point", "coordinates": [106.7939023, -6.5957295]}, "properties": {"kind": "car", "name": ""}}, {"type": "Feature", "geometry": {"type": "Point", "coordinates": [106.7945953, -6.5937093]}, "properties": {"kind": "car", "name": ""}}, {"type": "Feature", "geometry": {"type": "Point", "coordinates": [106.7925064, -6.5962943]}, "properties": {"kind": "car", "name": ""}}, {"type": "Feature", "geometry": {"type": "Point", "coordinates": [106.7943903, -6.5935686]}, "properties": {"kind": "car", "name": ""}}, {"type": "Feature", "geometry": {"type": "Point", "coordinates": [106.7929266, -6.592042]}, "properties": {"kind": "car", "name": ""}}, {"type": "Feature", "geometry": {"type": "Point", "coordinates": [106.7943923, -6.5932071]}, "properties": {"kind": "car", "name": ""}}, {"type": "Feature", "geometry": {"type": "Point", "coordinates": [106.7930218, -6.5961444]}, "properties": {"kind": "car", "name": ""}}, {"type": "Feature", "geometry": {"type": "Point", "coordinates": [106.7952386, -6.5916997]}, "properties": {"kind": "car", "name": ""}}, {"type": "Feature", "geometry": {"type": "Point", "coordinates": [106.794214, -6.5920914]}, "properties": {"kind": "car", "name": ""}}, {"type": "Feature", "geometry": {"type": "Point", "coordinates": [106.7976546, -6.592805]}, "properties": {"kind": "car", "name": ""}}, {"type": "Feature", "geometry": {"type": "Point", "coordinates": [106.7877206, -6.5919412]}, "properties": {"kind": "car", "name": ""}}, {"type": "Feature", "geometry": {"type": "Point", "coordinates": [106.7900718, -6.596109]}, "properties": {"kind": "car", "name": ""}}, {"type": "Feature", "geometry": {"type": "Point", "coordinates": [106.7869276, -6.5962677]}, "properties": {"kind": "car", "name": ""}}, {"type": "Feature", "geometry": {"type": "Point", "coordinates": [106.7919298, -6.5951405]}, "properties": {"kind": "car", "name": ""}}, {"type": "Feature", "geometry": {"type": "Point", "coordinates": [106.7927492, -6.5967356]}, "properties": {"kind": "car", "name": ""}}, {"type": "Feature", "geometry": {"type": "Point", "coordinates": [106.7941116, -6.5987506]}, "properties": {"kind": "car", "name": ""}}, {"type": "Feature", "geometry": {"type": "Point", "coordinates": [106.7876912, -6.5905964]}, "properties": {"kind": "car", "name": ""}}, {"type": "Feature", "geometry": {"type": "Point", "coordinates": [106.7876921, -6.590471]}, "properties": {"kind": "car", "name": ""}}, {"type": "Feature", "geometry": {"type": "Point", "coordinates": [106.7876911, -6.5907346]}, "properties": {"kind": "car", "name": ""}}, {"type": "Feature", "geometry": {"type": "Point", "coordinates": [106.7870527, -6.5936854]}, "properties": {"kind": "car", "name": ""}}, {"type": "Feature", "geometry": {"type": "Point", "coordinates": [106.7870783, -6.5941264]}, "properties": {"kind": "car", "name": ""}}, {"type": "Feature", "geometry": {"type": "Point", "coordinates": [106.7877356, -6.5933143]}, "properties": {"kind": "car", "name": ""}}, {"type": "Feature", "geometry": {"type": "Point", "coordinates": [106.7877567, -6.5934947]}, "properties": {"kind": "car", "name": ""}}, {"type": "Feature", "geometry": {"type": "Point", "coordinates": [106.7879507, -6.5940004]}, "properties": {"kind": "car", "name": ""}}, {"type": "Feature", "geometry": {"type": "Point", "coordinates": [106.7873104, -6.5894165]}, "properties": {"kind": "car", "name": ""}}, {"type": "Feature", "geometry": {"type": "Point", "coordinates": [106.7856876, -6.5908402]}, "properties": {"kind": "car", "name": ""}}, {"type": "Feature", "geometry": {"type": "Point", "coordinates": [106.7859832, -6.5903598]}, "properties": {"kind": "car", "name": ""}}, {"type": "Feature", "geometry": {"type": "Point", "coordinates": [106.7872772, -6.595325]}, "properties": {"kind": "car", "name": ""}}, {"type": "Feature", "geometry": {"type": "Point", "coordinates": [106.793618, -6.5983236]}, "properties": {"kind": "car", "name": ""}}, {"type": "Feature", "geometry": {"type": "Point", "coordinates": [106.7907693, -6.5962408]}, "properties": {"kind": "car", "name": ""}}, {"type": "Feature", "geometry": {"type": "Point", "coordinates": [106.7938008, -6.5978984]}, "properties": {"kind": "car", "name": ""}}, {"type": "Feature", "geometry": {"type": "Point", "coordinates": [106.7957294, -6.5894586]}, "properties": {"kind": "car", "name": ""}}, {"type": "Feature", "geometry": {"type": "Point", "coordinates": [106.7922281, -6.5955055]}, "properties": {"kind": "car", "name": ""}}, {"type": "Feature", "geometry": {"type": "Point", "coordinates": [106.790144, -6.5924526]}, "properties": {"kind": "car", "name": "Penitipan Motor Rakit Raya"}}, {"type": "Feature", "geometry": {"type": "Point", "coordinates": [106.7901331, -6.5926767]}, "properties": {"kind": "car", "name": ""}}, {"type": "Feature", "geometry": {"type": "Point", "coordinates": [106.7900704, -6.5928717]}, "properties": {"kind": "car", "name": ""}}, {"type": "Feature", "geometry": {"type": "Point", "coordinates": [106.7882714, -6.5944944]}, "properties": {"kind": "motorcycle", "name": "Bata"}}, {"type": "Feature", "geometry": {"type": "Point", "coordinates": [106.7898371, -6.5955546]}, "properties": {"kind": "car", "name": "Parkir Stasiun Bogor"}}, {"type": "Feature", "geometry": {"type": "Point", "coordinates": [106.7900899, -6.594417]}, "properties": {"kind": "car", "name": ""}}, {"type": "Feature", "geometry": {"type": "Point", "coordinates": [106.7927428, -6.5967504]}, "properties": {"kind": "car", "name": ""}}, {"type": "Feature", "geometry": {"type": "Point", "coordinates": [106.7374442, -6.1599769]}, "properties": {"kind": "motorcycle", "name": ""}}, {"type": "Feature", "geometry": {"type": "Point", "coordinates": [106.734503, -6.1586255]}, "properties": {"kind": "car", "name": ""}}, {"type": "Feature", "geometry": {"type": "Point", "coordinates": [106.7340245, -6.160541]}, "properties": {"kind": "motorcycle", "name": ""}}, {"type": "Feature", "geometry": {"type": "Point", "coordinates": [106.793328, -6.490432]}, "properties": {"kind": "motorcycle", "name": ""}}, {"type": "Feature", "geometry": {"type": "Point", "coordinates": [106.7950873, -6.4944736]}, "properties": {"kind": "motorcycle", "name": ""}}, {"type": "Feature", "geometry": {"type": "Point", "coordinates": [106.9242538, -6.2170119]}, "properties": {"kind": "car", "name": ""}}, {"type": "Feature", "geometry": {"type": "Point", "coordinates": [106.8616114, -6.2438349]}, "properties": {"kind": "car", "name": ""}}, {"type": "Feature", "geometry": {"type": "Point", "coordinates": [106.8570742, -6.2365789]}, "properties": {"kind": "car", "name": "Parkir Khusus Seafood 68 Tebet"}}, {"type": "Feature", "geometry": {"type": "Point", "coordinates": [106.6191964, -6.3294044]}, "properties": {"kind": "car", "name": ""}}, {"type": "Feature", "geometry": {"type": "Point", "coordinates": [106.6227996, -6.3331827]}, "properties": {"kind": "car", "name": ""}}, {"type": "Feature", "geometry": {"type": "Point", "coordinates": [106.6239289, -6.3322479]}, "properties": {"kind": "car", "name": ""}}, {"type": "Feature", "geometry": {"type": "Point", "coordinates": [106.6255196, -6.3321161]}, "properties": {"kind": "car", "name": ""}}, {"type": "Feature", "geometry": {"type": "Point", "coordinates": [106.6253229, -6.332076]}, "properties": {"kind": "car", "name": ""}}, {"type": "Feature", "geometry": {"type": "Point", "coordinates": [106.6248865, -6.3323912]}, "properties": {"kind": "car", "name": ""}}, {"type": "Feature", "geometry": {"type": "Point", "coordinates": [107.1443482, -6.2555557]}, "properties": {"kind": "car", "name": ""}}, {"type": "Feature", "geometry": {"type": "Point", "coordinates": [107.1441889, -6.2552315]}, "properties": {"kind": "motorcycle", "name": ""}}, {"type": "Feature", "geometry": {"type": "Point", "coordinates": [106.8442667, -6.2046873]}, "properties": {"kind": "car", "name": ""}}, {"type": "Feature", "geometry": {"type": "Point", "coordinates": [106.8398244, -6.193821]}, "properties": {"kind": "car", "name": ""}}, {"type": "Feature", "geometry": {"type": "Point", "coordinates": [106.8417589, -6.1916162]}, "properties": {"kind": "car", "name": ""}}, {"type": "Feature", "geometry": {"type": "Point", "coordinates": [106.8463517, -6.1958706]}, "properties": {"kind": "car", "name": "Parkir RSCM Gedung A"}}, {"type": "Feature", "geometry": {"type": "Point", "coordinates": [106.8450173, -6.1962731]}, "properties": {"kind": "car", "name": "Parkir RSCM"}}, {"type": "Feature", "geometry": {"type": "Point", "coordinates": [106.8454618, -6.1986238]}, "properties": {"kind": "car", "name": "Parkir RSCM Kencana"}}, {"type": "Feature", "geometry": {"type": "Point", "coordinates": [106.8367976, -6.1983356]}, "properties": {"kind": "car", "name": ""}}, {"type": "Feature", "geometry": {"type": "Point", "coordinates": [106.8365673, -6.1961083]}, "properties": {"kind": "car", "name": ""}}, {"type": "Feature", "geometry": {"type": "Point", "coordinates": [106.8473139, -6.1976667]}, "properties": {"kind": "car", "name": ""}}, {"type": "Feature", "geometry": {"type": "Point", "coordinates": [106.8480178, -6.1966867]}, "properties": {"kind": "car", "name": ""}}, {"type": "Feature", "geometry": {"type": "Point", "coordinates": [106.8468988, -6.1954254]}, "properties": {"kind": "car", "name": ""}}, {"type": "Feature", "geometry": {"type": "Point", "coordinates": [106.8473145, -6.195448]}, "properties": {"kind": "car", "name": ""}}, {"type": "Feature", "geometry": {"type": "Point", "coordinates": [106.8465485, -6.1984556]}, "properties": {"kind": "car", "name": ""}}, {"type": "Feature", "geometry": {"type": "Point", "coordinates": [106.8468643, -6.1981503]}, "properties": {"kind": "car", "name": ""}}, {"type": "Feature", "geometry": {"type": "Point", "coordinates": [106.845427, -6.197882]}, "properties": {"kind": "car", "name": ""}}, {"type": "Feature", "geometry": {"type": "Point", "coordinates": [106.4121503, -6.3355446]}, "properties": {"kind": "car", "name": ""}}, {"type": "Feature", "geometry": {"type": "Point", "coordinates": [106.7999334, -6.5305201]}, "properties": {"kind": "motorcycle", "name": ""}}, {"type": "Feature", "geometry": {"type": "Point", "coordinates": [106.5092393, -6.3541617]}, "properties": {"kind": "car", "name": ""}}, {"type": "Feature", "geometry": {"type": "Point", "coordinates": [106.5091837, -6.354248]}, "properties": {"kind": "motorcycle", "name": ""}}, {"type": "Feature", "geometry": {"type": "Point", "coordinates": [106.6374193, -6.3293932]}, "properties": {"kind": "car", "name": ""}}, {"type": "Feature", "geometry": {"type": "Point", "coordinates": [106.6436796, -6.319408]}, "properties": {"kind": "motorcycle", "name": ""}}, {"type": "Feature", "geometry": {"type": "Point", "coordinates": [106.6432478, -6.3198099]}, "properties": {"kind": "car", "name": ""}}, {"type": "Feature", "geometry": {"type": "Point", "coordinates": [106.6470515, -6.3223935]}, "properties": {"kind": "car", "name": ""}}, {"type": "Feature", "geometry": {"type": "Point", "coordinates": [106.6445301, -6.3200092]}, "properties": {"kind": "car", "name": ""}}, {"type": "Feature", "geometry": {"type": "Point", "coordinates": [106.6457963, -6.3211361]}, "properties": {"kind": "car", "name": ""}}, {"type": "Feature", "geometry": {"type": "Point", "coordinates": [106.6413335, -6.324288]}, "properties": {"kind": "car", "name": ""}}, {"type": "Feature", "geometry": {"type": "Point", "coordinates": [106.6420606, -6.3239308]}, "properties": {"kind": "motorcycle", "name": ""}}, {"type": "Feature", "geometry": {"type": "Point", "coordinates": [106.6451119, -6.320537]}, "properties": {"kind": "car", "name": ""}}, {"type": "Feature", "geometry": {"type": "Point", "coordinates": [106.6431688, -6.322936]}, "properties": {"kind": "motorcycle", "name": ""}}, {"type": "Feature", "geometry": {"type": "Point", "coordinates": [106.6425301, -6.3219552]}, "properties": {"kind": "motorcycle", "name": ""}}, {"type": "Feature", "geometry": {"type": "Point", "coordinates": [106.640198, -6.3253618]}, "properties": {"kind": "motorcycle", "name": ""}}, {"type": "Feature", "geometry": {"type": "Point", "coordinates": [106.4925227, -6.338329]}, "properties": {"kind": "car", "name": ""}}, {"type": "Feature", "geometry": {"type": "Point", "coordinates": [106.8174332, -6.4051852]}, "properties": {"kind": "motorcycle", "name": ""}}, {"type": "Feature", "geometry": {"type": "Point", "coordinates": [106.817517, -6.4053888]}, "properties": {"kind": "motorcycle", "name": ""}}, {"type": "Feature", "geometry": {"type": "Point", "coordinates": [106.8216516, -6.4009222]}, "properties": {"kind": "car", "name": "Parkiran Gereja St. Paulus"}}, {"type": "Feature", "geometry": {"type": "Point", "coordinates": [106.8220391, -6.4025538]}, "properties": {"kind": "car", "name": ""}}, {"type": "Feature", "geometry": {"type": "Point", "coordinates": [106.8209784, -6.3917982]}, "properties": {"kind": "motorcycle", "name": ""}}, {"type": "Feature", "geometry": {"type": "Point", "coordinates": [106.8213426, -6.3898303]}, "properties": {"kind": "motorcycle", "name": ""}}, {"type": "Feature", "geometry": {"type": "Point", "coordinates": [106.8202865, -6.3937941]}, "properties": {"kind": "motorcycle", "name": ""}}, {"type": "Feature", "geometry": {"type": "Point", "coordinates": [106.8248959, -6.3948074]}, "properties": {"kind": "car", "name": ""}}, {"type": "Feature", "geometry": {"type": "Point", "coordinates": [106.8237573, -6.3940744]}, "properties": {"kind": "car", "name": ""}}, {"type": "Feature", "geometry": {"type": "Point", "coordinates": [106.821314, -6.3915753]}, "properties": {"kind": "car", "name": "Stasiun Depok - Car Park (Parkir Mobil)"}}, {"type": "Feature", "geometry": {"type": "Point", "coordinates": [106.8223691, -6.3915388]}, "properties": {"kind": "car", "name": ""}}, {"type": "Feature", "geometry": {"type": "Point", "coordinates": [106.8245733, -6.3897829]}, "properties": {"kind": "car", "name": ""}}, {"type": "Feature", "geometry": {"type": "Point", "coordinates": [106.8213612, -6.3945535]}, "properties": {"kind": "car", "name": ""}}, {"type": "Feature", "geometry": {"type": "Point", "coordinates": [106.8224691, -6.3982753]}, "properties": {"kind": "car", "name": ""}}, {"type": "Feature", "geometry": {"type": "Point", "coordinates": [106.8212235, -6.3911214]}, "properties": {"kind": "motorcycle", "name": ""}}, {"type": "Feature", "geometry": {"type": "Point", "coordinates": [106.8532474, -6.2561649]}, "properties": {"kind": "motorcycle", "name": ""}}, {"type": "Feature", "geometry": {"type": "Point", "coordinates": [106.8536068, -6.2564007]}, "properties": {"kind": "motorcycle", "name": ""}}, {"type": "Feature", "geometry": {"type": "Point", "coordinates": [106.8528613, -6.2564157]}, "properties": {"kind": "motorcycle", "name": ""}}, {"type": "Feature", "geometry": {"type": "Point", "coordinates": [106.8516532, -6.2564266]}, "properties": {"kind": "motorcycle", "name": ""}}, {"type": "Feature", "geometry": {"type": "Point", "coordinates": [106.8516213, -6.2570375]}, "properties": {"kind": "motorcycle", "name": ""}}, {"type": "Feature", "geometry": {"type": "Point", "coordinates": [106.8528421, -6.2570937]}, "properties": {"kind": "motorcycle", "name": ""}}, {"type": "Feature", "geometry": {"type": "Point", "coordinates": [106.8533528, -6.2570326]}, "properties": {"kind": "motorcycle", "name": ""}}, {"type": "Feature", "geometry": {"type": "Point", "coordinates": [106.8516237, -6.2576534]}, "properties": {"kind": "motorcycle", "name": ""}}, {"type": "Feature", "geometry": {"type": "Point", "coordinates": [106.8531893, -6.2576313]}, "properties": {"kind": "motorcycle", "name": ""}}, {"type": "Feature", "geometry": {"type": "Point", "coordinates": [106.85281, -6.2576376]}, "properties": {"kind": "motorcycle", "name": ""}}, {"type": "Feature", "geometry": {"type": "Point", "coordinates": [106.8551512, -6.2549679]}, "properties": {"kind": "car", "name": "Stasiun Kalibata"}}, {"type": "Feature", "geometry": {"type": "Point", "coordinates": [106.8553331, -6.2551628]}, "properties": {"kind": "car", "name": "Stasiun Kalibata"}}, {"type": "Feature", "geometry": {"type": "Point", "coordinates": [106.8549547, -6.2566865]}, "properties": {"kind": "car", "name": ""}}, {"type": "Feature", "geometry": {"type": "Point", "coordinates": [106.8548922, -6.2568246]}, "properties": {"kind": "car", "name": ""}}, {"type": "Feature", "geometry": {"type": "Point", "coordinates": [106.8550324, -6.2565455]}, "properties": {"kind": "car", "name": ""}}, {"type": "Feature", "geometry": {"type": "Point", "coordinates": [106.7957394, -6.1543517]}, "properties": {"kind": "motorcycle", "name": ""}}, {"type": "Feature", "geometry": {"type": "Point", "coordinates": [106.8015907, -6.1559977]}, "properties": {"kind": "car", "name": ""}}, {"type": "Feature", "geometry": {"type": "Point", "coordinates": [106.8055035, -6.1530924]}, "properties": {"kind": "car", "name": ""}}, {"type": "Feature", "geometry": {"type": "Point", "coordinates": [106.8019306, -6.1528554]}, "properties": {"kind": "car", "name": ""}}, {"type": "Feature", "geometry": {"type": "Point", "coordinates": [106.8021478, -6.1524606]}, "properties": {"kind": "car", "name": ""}}, {"type": "Feature", "geometry": {"type": "Point", "coordinates": [106.8040396, -6.1539329]}, "properties": {"kind": "car", "name": ""}}, {"type": "Feature", "geometry": {"type": "Point", "coordinates": [106.8327209, -6.1710058]}, "properties": {"kind": "car", "name": ""}}, {"type": "Feature", "geometry": {"type": "Point", "coordinates": [106.835483, -6.176297]}, "properties": {"kind": "car", "name": ""}}, {"type": "Feature", "geometry": {"type": "Point", "coordinates": [106.8304574, -6.1825609]}, "properties": {"kind": "car", "name": "Parkir Gedung A"}}, {"type": "Feature", "geometry": {"type": "Point", "coordinates": [106.8315802, -6.1812927]}, "properties": {"kind": "car", "name": ""}}, {"type": "Feature", "geometry": {"type": "Point", "coordinates": [106.8352575, -6.1755253]}, "properties": {"kind": "car", "name": ""}}, {"type": "Feature", "geometry": {"type": "Point", "coordinates": [106.8310251, -6.1732989]}, "properties": {"kind": "car", "name": ""}}, {"type": "Feature", "geometry": {"type": "Point", "coordinates": [106.8381596, -6.1757869]}, "properties": {"kind": "car", "name": ""}}, {"type": "Feature", "geometry": {"type": "Point", "coordinates": [106.8260604, -6.179654]}, "properties": {"kind": "car", "name": "Parkir Ikatan Restoran dan Taman Indonesia (IRTI)"}}, {"type": "Feature", "geometry": {"type": "Point", "coordinates": [106.8303966, -6.1770371]}, "properties": {"kind": "car", "name": ""}}, {"type": "Feature", "geometry": {"type": "Point", "coordinates": [106.8256117, -6.1796646]}, "properties": {"kind": "motorcycle", "name": ""}}, {"type": "Feature", "geometry": {"type": "Point", "coordinates": [106.8257059, -6.182007]}, "properties": {"kind": "car", "name": ""}}, {"type": "Feature", "geometry": {"type": "Point", "coordinates": [106.8291673, -6.1812355]}, "properties": {"kind": "car", "name": ""}}, {"type": "Feature", "geometry": {"type": "Point", "coordinates": [106.8288743, -6.1808301]}, "properties": {"kind": "car", "name": ""}}, {"type": "Feature", "geometry": {"type": "Point", "coordinates": [106.8356366, -6.1777083]}, "properties": {"kind": "car", "name": ""}}, {"type": "Feature", "geometry": {"type": "Point", "coordinates": [106.8488568, -6.1917096]}, "properties": {"kind": "motorcycle", "name": ""}}, {"type": "Feature", "geometry": {"type": "Point", "coordinates": [106.8385746, -6.1903053]}, "properties": {"kind": "car", "name": "Gedung Parkir"}}, {"type": "Feature", "geometry": {"type": "Point", "coordinates": [106.8361937, -6.1858419]}, "properties": {"kind": "car", "name": ""}}, {"type": "Feature", "geometry": {"type": "Point", "coordinates": [106.835853, -6.1878838]}, "properties": {"kind": "car", "name": ""}}, {"type": "Feature", "geometry": {"type": "Point", "coordinates": [106.8348895, -6.1879465]}, "properties": {"kind": "car", "name": ""}}, {"type": "Feature", "geometry": {"type": "Point", "coordinates": [106.7914871, -6.1672493]}, "properties": {"kind": "car", "name": ""}}, {"type": "Feature", "geometry": {"type": "Point", "coordinates": [106.7893242, -6.1677222]}, "properties": {"kind": "car", "name": ""}}, {"type": "Feature", "geometry": {"type": "Point", "coordinates": [106.8625038, -6.1253817]}, "properties": {"kind": "car", "name": ""}}, {"type": "Feature", "geometry": {"type": "Point", "coordinates": [106.86345, -6.1234987]}, "properties": {"kind": "car", "name": ""}}, {"type": "Feature", "geometry": {"type": "Point", "coordinates": [106.8553314, -6.1190279]}, "properties": {"kind": "car", "name": ""}}, {"type": "Feature", "geometry": {"type": "Point", "coordinates": [106.8165174, -6.1413415]}, "properties": {"kind": "motorcycle", "name": ""}}, {"type": "Feature", "geometry": {"type": "Point", "coordinates": [106.8131134, -6.1338192]}, "properties": {"kind": "car", "name": ""}}, {"type": "Feature", "geometry": {"type": "Point", "coordinates": [106.8147333, -6.1362791]}, "properties": {"kind": "motorcycle", "name": ""}}, {"type": "Feature", "geometry": {"type": "Point", "coordinates": [106.812433, -6.1383782]}, "properties": {"kind": "car", "name": ""}}, {"type": "Feature", "geometry": {"type": "Point", "coordinates": [106.8134292, -6.1400157]}, "properties": {"kind": "car", "name": ""}}, {"type": "Feature", "geometry": {"type": "Point", "coordinates": [106.8120496, -6.1415482]}, "properties": {"kind": "car", "name": ""}}, {"type": "Feature", "geometry": {"type": "Point", "coordinates": [106.8136602, -6.1338121]}, "properties": {"kind": "car", "name": ""}}, {"type": "Feature", "geometry": {"type": "Point", "coordinates": [106.8137359, -6.1338686]}, "properties": {"kind": "car", "name": ""}}, {"type": "Feature", "geometry": {"type": "Point", "coordinates": [106.8153985, -6.1347759]}, "properties": {"kind": "car", "name": "Area Parkir Kendaraan Stasiun Jakarta Kota"}}, {"type": "Feature", "geometry": {"type": "Point", "coordinates": [106.8161485, -6.1406027]}, "properties": {"kind": "car", "name": ""}}, {"type": "Feature", "geometry": {"type": "Point", "coordinates": [106.8150443, -6.1366541]}, "properties": {"kind": "car", "name": ""}}, {"type": "Feature", "geometry": {"type": "Point", "coordinates": [106.8133531, -6.1359342]}, "properties": {"kind": "car", "name": ""}}, {"type": "Feature", "geometry": {"type": "Point", "coordinates": [106.8144795, -6.1353993]}, "properties": {"kind": "car", "name": ""}}, {"type": "Feature", "geometry": {"type": "Point", "coordinates": [106.6060024, -6.3348078]}, "properties": {"kind": "car", "name": ""}}, {"type": "Feature", "geometry": {"type": "Point", "coordinates": [106.6067518, -6.3347267]}, "properties": {"kind": "motorcycle", "name": ""}}, {"type": "Feature", "geometry": {"type": "Point", "coordinates": [106.6064929, -6.3348323]}, "properties": {"kind": "car", "name": ""}}, {"type": "Feature", "geometry": {"type": "Point", "coordinates": [106.6057156, -6.3343888]}, "properties": {"kind": "motorcycle", "name": ""}}, {"type": "Feature", "geometry": {"type": "Point", "coordinates": [106.6056564, -6.3339073]}, "properties": {"kind": "car", "name": ""}}, {"type": "Feature", "geometry": {"type": "Point", "coordinates": [106.8648985, -6.2165927]}, "properties": {"kind": "car", "name": ""}}, {"type": "Feature", "geometry": {"type": "Point", "coordinates": [106.8735951, -6.2126587]}, "properties": {"kind": "car", "name": ""}}, {"type": "Feature", "geometry": {"type": "Point", "coordinates": [106.8711888, -6.2096426]}, "properties": {"kind": "car", "name": ""}}, {"type": "Feature", "geometry": {"type": "Point", "coordinates": [106.8245515, -6.1376281]}, "properties": {"kind": "car", "name": ""}}, {"type": "Feature", "geometry": {"type": "Point", "coordinates": [106.8347986, -6.1668293]}, "properties": {"kind": "motorcycle", "name": ""}}, {"type": "Feature", "geometry": {"type": "Point", "coordinates": [106.8334199, -6.1616521]}, "properties": {"kind": "car", "name": ""}}, {"type": "Feature", "geometry": {"type": "Point", "coordinates": [106.8327649, -6.1639377]}, "properties": {"kind": "car", "name": ""}}, {"type": "Feature", "geometry": {"type": "Point", "coordinates": [106.8352076, -6.1683206]}, "properties": {"kind": "car", "name": ""}}, {"type": "Feature", "geometry": {"type": "Point", "coordinates": [106.8349161, -6.1669786]}, "properties": {"kind": "car", "name": ""}}, {"type": "Feature", "geometry": {"type": "Point", "coordinates": [106.8370433, -6.1671478]}, "properties": {"kind": "car", "name": ""}}, {"type": "Feature", "geometry": {"type": "Point", "coordinates": [106.726662, -6.2845806]}, "properties": {"kind": "car", "name": ""}}, {"type": "Feature", "geometry": {"type": "Point", "coordinates": [106.7278359, -6.2839792]}, "properties": {"kind": "car", "name": ""}}, {"type": "Feature", "geometry": {"type": "Point", "coordinates": [106.7290865, -6.283677]}, "properties": {"kind": "motorcycle", "name": ""}}, {"type": "Feature", "geometry": {"type": "Point", "coordinates": [106.7295193, -6.284574]}, "properties": {"kind": "car", "name": ""}}, {"type": "Feature", "geometry": {"type": "Point", "coordinates": [106.7299836, -6.2882248]}, "properties": {"kind": "motorcycle", "name": ""}}, {"type": "Feature", "geometry": {"type": "Point", "coordinates": [106.7308627, -6.293664]}, "properties": {"kind": "car", "name": ""}}, {"type": "Feature", "geometry": {"type": "Point", "coordinates": [106.7255158, -6.291356]}, "properties": {"kind": "car", "name": ""}}, {"type": "Feature", "geometry": {"type": "Point", "coordinates": [106.7253546, -6.2930703]}, "properties": {"kind": "motorcycle", "name": ""}}, {"type": "Feature", "geometry": {"type": "Point", "coordinates": [106.7294437, -6.2886618]}, "properties": {"kind": "motorcycle", "name": ""}}, {"type": "Feature", "geometry": {"type": "Point", "coordinates": [106.7298449, -6.284602]}, "properties": {"kind": "car", "name": ""}}, {"type": "Feature", "geometry": {"type": "Point", "coordinates": [106.730216, -6.2880695]}, "properties": {"kind": "car", "name": ""}}, {"type": "Feature", "geometry": {"type": "Point", "coordinates": [106.729163, -6.2893786]}, "properties": {"kind": "motorcycle", "name": ""}}, {"type": "Feature", "geometry": {"type": "Point", "coordinates": [106.7292163, -6.2895664]}, "properties": {"kind": "car", "name": ""}}, {"type": "Feature", "geometry": {"type": "Point", "coordinates": [106.8317222, -6.1290347]}, "properties": {"kind": "car", "name": ""}}, {"type": "Feature", "geometry": {"type": "Point", "coordinates": [106.8316533, -6.1273154]}, "properties": {"kind": "car", "name": ""}}, {"type": "Feature", "geometry": {"type": "Point", "coordinates": [106.8322995, -6.1271423]}, "properties": {"kind": "motorcycle", "name": ""}}, {"type": "Feature", "geometry": {"type": "Point", "coordinates": [106.8340142, -6.1279177]}, "properties": {"kind": "car", "name": ""}}, {"type": "Feature", "geometry": {"type": "Point", "coordinates": [106.7829171, -6.2437227]}, "properties": {"kind": "car", "name": ""}}, {"type": "Feature", "geometry": {"type": "Point", "coordinates": [106.7849476, -6.2357519]}, "properties": {"kind": "motorcycle", "name": ""}}, {"type": "Feature", "geometry": {"type": "Point", "coordinates": [106.7827973, -6.2360429]}, "properties": {"kind": "car", "name": ""}}, {"type": "Feature", "geometry": {"type": "Point", "coordinates": [106.8441566, -6.1631333]}, "properties": {"kind": "car", "name": ""}}, {"type": "Feature", "geometry": {"type": "Point", "coordinates": [106.8436571, -6.1625161]}, "properties": {"kind": "car", "name": ""}}, {"type": "Feature", "geometry": {"type": "Point", "coordinates": [106.8426336, -6.162237]}, "properties": {"kind": "car", "name": ""}}, {"type": "Feature", "geometry": {"type": "Point", "coordinates": [106.8399748, -6.1588483]}, "properties": {"kind": "car", "name": ""}}, {"type": "Feature", "geometry": {"type": "Point", "coordinates": [106.8418667, -6.1580655]}, "properties": {"kind": "car", "name": ""}}, {"type": "Feature", "geometry": {"type": "Point", "coordinates": [106.8424066, -6.1622912]}, "properties": {"kind": "car", "name": ""}}, {"type": "Feature", "geometry": {"type": "Point", "coordinates": [106.841276, -6.1663367]}, "properties": {"kind": "car", "name": ""}}, {"type": "Feature", "geometry": {"type": "Point", "coordinates": [106.8407535, -6.166989]}, "properties": {"kind": "car", "name": ""}}, {"type": "Feature", "geometry": {"type": "Point", "coordinates": [106.8402506, -6.1670757]}, "properties": {"kind": "car", "name": ""}}, {"type": "Feature", "geometry": {"type": "Point", "coordinates": [106.8472719, -6.164135]}, "properties": {"kind": "car", "name": ""}}, {"type": "Feature", "geometry": {"type": "Point", "coordinates": [106.9403755, -6.2173866]}, "properties": {"kind": "car", "name": "Penitipan Motor"}}, {"type": "Feature", "geometry": {"type": "Point", "coordinates": [106.9397168, -6.2182484]}, "properties": {"kind": "car", "name": "Penitipan Motor"}}, {"type": "Feature", "geometry": {"type": "Point", "coordinates": [106.940514, -6.2205361]}, "properties": {"kind": "motorcycle", "name": "Lapangan Parkir"}}, {"type": "Feature", "geometry": {"type": "Point", "coordinates": [106.9327439, -6.2171349]}, "properties": {"kind": "car", "name": ""}}, {"type": "Feature", "geometry": {"type": "Point", "coordinates": [106.8547323, -6.200653]}, "properties": {"kind": "car", "name": ""}}, {"type": "Feature", "geometry": {"type": "Point", "coordinates": [106.8540671, -6.2004043]}, "properties": {"kind": "car", "name": "Parkir BCA Matraman"}}, {"type": "Feature", "geometry": {"type": "Point", "coordinates": [106.8532868, -6.1978688]}, "properties": {"kind": "car", "name": ""}}, {"type": "Feature", "geometry": {"type": "Point", "coordinates": [106.8597235, -6.1937568]}, "properties": {"kind": "car", "name": ""}}, {"type": "Feature", "geometry": {"type": "Point", "coordinates": [106.8600359, -6.1935588]}, "properties": {"kind": "car", "name": ""}}, {"type": "Feature", "geometry": {"type": "Point", "coordinates": [106.834537, -6.32963]}, "properties": {"kind": "car", "name": ""}}, {"type": "Feature", "geometry": {"type": "Point", "coordinates": [106.8346609, -6.329827]}, "properties": {"kind": "car", "name": ""}}, {"type": "Feature", "geometry": {"type": "Point", "coordinates": [106.8345403, -6.3296116]}, "properties": {"kind": "car", "name": ""}}, {"type": "Feature", "geometry": {"type": "Point", "coordinates": [106.8348103, -6.3300581]}, "properties": {"kind": "car", "name": ""}}, {"type": "Feature", "geometry": {"type": "Point", "coordinates": [106.8346728, -6.3298182]}, "properties": {"kind": "car", "name": ""}}, {"type": "Feature", "geometry": {"type": "Point", "coordinates": [106.8292639, -6.3311305]}, "properties": {"kind": "car", "name": ""}}, {"type": "Feature", "geometry": {"type": "Point", "coordinates": [106.8368423, -6.3363517]}, "properties": {"kind": "motorcycle", "name": ""}}, {"type": "Feature", "geometry": {"type": "Point", "coordinates": [106.8357506, -6.3324342]}, "properties": {"kind": "car", "name": ""}}, {"type": "Feature", "geometry": {"type": "Point", "coordinates": [106.8316434, -6.1467418]}, "properties": {"kind": "car", "name": ""}}, {"type": "Feature", "geometry": {"type": "Point", "coordinates": [106.850934, -6.2106598]}, "properties": {"kind": "motorcycle", "name": ""}}, {"type": "Feature", "geometry": {"type": "Point", "coordinates": [106.8484646, -6.2090091]}, "properties": {"kind": "car", "name": ""}}, {"type": "Feature", "geometry": {"type": "Point", "coordinates": [106.8580233, -6.2096784]}, "properties": {"kind": "car", "name": ""}}, {"type": "Feature", "geometry": {"type": "Point", "coordinates": [106.8584008, -6.2092532]}, "properties": {"kind": "car", "name": ""}}, {"type": "Feature", "geometry": {"type": "Point", "coordinates": [106.8595063, -6.2082]}, "properties": {"kind": "car", "name": ""}}, {"type": "Feature", "geometry": {"type": "Point", "coordinates": [106.8590179, -6.2087586]}, "properties": {"kind": "car", "name": ""}}, {"type": "Feature", "geometry": {"type": "Point", "coordinates": [106.859323, -6.2113146]}, "properties": {"kind": "car", "name": ""}}, {"type": "Feature", "geometry": {"type": "Point", "coordinates": [106.8596837, -6.211408]}, "properties": {"kind": "car", "name": ""}}, {"type": "Feature", "geometry": {"type": "Point", "coordinates": [106.8593551, -6.207378]}, "properties": {"kind": "car", "name": ""}}, {"type": "Feature", "geometry": {"type": "Point", "coordinates": [107.1089516, -6.2568453]}, "properties": {"kind": "car", "name": ""}}, {"type": "Feature", "geometry": {"type": "Point", "coordinates": [107.1108002, -6.2572304]}, "properties": {"kind": "car", "name": ""}}, {"type": "Feature", "geometry": {"type": "Point", "coordinates": [107.1121341, -6.2568427]}, "properties": {"kind": "motorcycle", "name": ""}}, {"type": "Feature", "geometry": {"type": "Point", "coordinates": [107.115979, -6.2537379]}, "properties": {"kind": "motorcycle", "name": ""}}, {"type": "Feature", "geometry": {"type": "Point", "coordinates": [107.1156711, -6.2538812]}, "properties": {"kind": "car", "name": ""}}, {"type": "Feature", "geometry": {"type": "Point", "coordinates": [107.1144724, -6.2540393]}, "properties": {"kind": "car", "name": ""}}, {"type": "Feature", "geometry": {"type": "Point", "coordinates": [107.1121354, -6.2564884]}, "properties": {"kind": "motorcycle", "name": ""}}, {"type": "Feature", "geometry": {"type": "Point", "coordinates": [106.8014102, -6.2025678]}, "properties": {"kind": "motorcycle", "name": ""}}, {"type": "Feature", "geometry": {"type": "Point", "coordinates": [106.8013867, -6.2029514]}, "properties": {"kind": "car", "name": "Parkir Basement DIPO Tower"}}, {"type": "Feature", "geometry": {"type": "Point", "coordinates": [106.8004595, -6.2017476]}, "properties": {"kind": "car", "name": ""}}, {"type": "Feature", "geometry": {"type": "Point", "coordinates": [106.7971287, -6.210536]}, "properties": {"kind": "motorcycle", "name": ""}}, {"type": "Feature", "geometry": {"type": "Point", "coordinates": [106.7993051, -6.2092152]}, "properties": {"kind": "car", "name": ""}}, {"type": "Feature", "geometry": {"type": "Point", "coordinates": [106.7975943, -6.2115273]}, "properties": {"kind": "car", "name": ""}}, {"type": "Feature", "geometry": {"type": "Point", "coordinates": [106.8009948, -6.2078361]}, "properties": {"kind": "car", "name": ""}}, {"type": "Feature", "geometry": {"type": "Point", "coordinates": [106.8017393, -6.2107145]}, "properties": {"kind": "car", "name": ""}}, {"type": "Feature", "geometry": {"type": "Point", "coordinates": [106.8006174, -6.2057296]}, "properties": {"kind": "car", "name": ""}}, {"type": "Feature", "geometry": {"type": "Point", "coordinates": [106.7967573, -6.2078445]}, "properties": {"kind": "motorcycle", "name": ""}}, {"type": "Feature", "geometry": {"type": "Point", "coordinates": [106.8024578, -6.2121063]}, "properties": {"kind": "car", "name": ""}}, {"type": "Feature", "geometry": {"type": "Point", "coordinates": [106.8011373, -6.2092409]}, "properties": {"kind": "car", "name": ""}}, {"type": "Feature", "geometry": {"type": "Point", "coordinates": [106.7992854, -6.2056307]}, "properties": {"kind": "car", "name": ""}}, {"type": "Feature", "geometry": {"type": "Point", "coordinates": [106.7986417, -6.2067644]}, "properties": {"kind": "car", "name": ""}}, {"type": "Feature", "geometry": {"type": "Point", "coordinates": [106.8014578, -6.2122133]}, "properties": {"kind": "car", "name": ""}}, {"type": "Feature", "geometry": {"type": "Point", "coordinates": [106.8020929, -6.2123454]}, "properties": {"kind": "car", "name": ""}}, {"type": "Feature", "geometry": {"type": "Point", "coordinates": [106.8019874, -6.2122752]}, "properties": {"kind": "car", "name": ""}}, {"type": "Feature", "geometry": {"type": "Point", "coordinates": [106.802028, -6.212679]}, "properties": {"kind": "car", "name": ""}}, {"type": "Feature", "geometry": {"type": "Point", "coordinates": [106.8016262, -6.2129292]}, "properties": {"kind": "car", "name": ""}}, {"type": "Feature", "geometry": {"type": "Point", "coordinates": [106.8002995, -6.2137125]}, "properties": {"kind": "car", "name": ""}}, {"type": "Feature", "geometry": {"type": "Point", "coordinates": [106.8006331, -6.213502]}, "properties": {"kind": "car", "name": ""}}, {"type": "Feature", "geometry": {"type": "Point", "coordinates": [106.7999426, -6.2136689]}, "properties": {"kind": "car", "name": ""}}, {"type": "Feature", "geometry": {"type": "Point", "coordinates": [106.8013055, -6.2133427]}, "properties": {"kind": "car", "name": ""}}, {"type": "Feature", "geometry": {"type": "Point", "coordinates": [106.8012217, -6.21328]}, "properties": {"kind": "car", "name": ""}}, {"type": "Feature", "geometry": {"type": "Point", "coordinates": [106.8010092, -6.2129993]}, "properties": {"kind": "car", "name": ""}}, {"type": "Feature", "geometry": {"type": "Point", "coordinates": [106.8020326, -6.2120927]}, "properties": {"kind": "car", "name": ""}}, {"type": "Feature", "geometry": {"type": "Point", "coordinates": [106.8019465, -6.2120929]}, "properties": {"kind": "car", "name": ""}}, {"type": "Feature", "geometry": {"type": "Point", "coordinates": [106.7954448, -6.210353]}, "properties": {"kind": "car", "name": ""}}, {"type": "Feature", "geometry": {"type": "Point", "coordinates": [106.8435669, -6.1731087]}, "properties": {"kind": "motorcycle", "name": ""}}, {"type": "Feature", "geometry": {"type": "Point", "coordinates": [106.8434845, -6.1748626]}, "properties": {"kind": "motorcycle", "name": ""}}, {"type": "Feature", "geometry": {"type": "Point", "coordinates": [106.83958, -6.1790832]}, "properties": {"kind": "car", "name": "Amanaia"}}, {"type": "Feature", "geometry": {"type": "Point", "coordinates": [106.8392539, -6.172245]}, "properties": {"kind": "car", "name": ""}}, {"type": "Feature", "geometry": {"type": "Point", "coordinates": [106.8389663, -6.1717054]}, "properties": {"kind": "car", "name": ""}}, {"type": "Feature", "geometry": {"type": "Point", "coordinates": [106.8384673, -6.1718502]}, "properties": {"kind": "car", "name": ""}}, {"type": "Feature", "geometry": {"type": "Point", "coordinates": [106.838702, -6.1723047]}, "properties": {"kind": "car", "name": ""}}, {"type": "Feature", "geometry": {"type": "Point", "coordinates": [106.8392473, -6.171158]}, "properties": {"kind": "car", "name": ""}}, {"type": "Feature", "geometry": {"type": "Point", "coordinates": [106.8439012, -6.1746971]}, "properties": {"kind": "car", "name": ""}}, {"type": "Feature", "geometry": {"type": "Point", "coordinates": [106.8386775, -6.1765601]}, "properties": {"kind": "car", "name": ""}}, {"type": "Feature", "geometry": {"type": "Point", "coordinates": [106.8391252, -6.1756881]}, "properties": {"kind": "car", "name": ""}}, {"type": "Feature", "geometry": {"type": "Point", "coordinates": [106.8423166, -6.1769367]}, "properties": {"kind": "car", "name": ""}}, {"type": "Feature", "geometry": {"type": "Point", "coordinates": [106.8435681, -6.1755403]}, "properties": {"kind": "car", "name": ""}}, {"type": "Feature", "geometry": {"type": "Point", "coordinates": [106.8404863, -6.1793201]}, "properties": {"kind": "car", "name": "Amanaia"}}, {"type": "Feature", "geometry": {"type": "Point", "coordinates": [106.8396078, -6.1793576]}, "properties": {"kind": "car", "name": "Capitol"}}, {"type": "Feature", "geometry": {"type": "Point", "coordinates": [106.7754889, -6.163611]}, "properties": {"kind": "motorcycle", "name": ""}}, {"type": "Feature", "geometry": {"type": "Point", "coordinates": [106.7751857, -6.1631312]}, "properties": {"kind": "motorcycle", "name": ""}}, {"type": "Feature", "geometry": {"type": "Point", "coordinates": [106.7678407, -6.1591886]}, "properties": {"kind": "car", "name": ""}}, {"type": "Feature", "geometry": {"type": "Point", "coordinates": [106.7727814, -6.1631326]}, "properties": {"kind": "car", "name": ""}}, {"type": "Feature", "geometry": {"type": "Point", "coordinates": [106.7729808, -6.1630272]}, "properties": {"kind": "motorcycle", "name": ""}}, {"type": "Feature", "geometry": {"type": "Point", "coordinates": [106.7728422, -6.1627338]}, "properties": {"kind": "car", "name": ""}}, {"type": "Feature", "geometry": {"type": "Point", "coordinates": [106.8278713, -6.3667341]}, "properties": {"kind": "car", "name": ""}}, {"type": "Feature", "geometry": {"type": "Point", "coordinates": [106.8255916, -6.3691322]}, "properties": {"kind": "car", "name": ""}}, {"type": "Feature", "geometry": {"type": "Point", "coordinates": [106.8334573, -6.3700851]}, "properties": {"kind": "car", "name": ""}}, {"type": "Feature", "geometry": {"type": "Point", "coordinates": [106.8335694, -6.3635149]}, "properties": {"kind": "car", "name": ""}}, {"type": "Feature", "geometry": {"type": "Point", "coordinates": [106.8349381, -6.3638918]}, "properties": {"kind": "car", "name": ""}}, {"type": "Feature", "geometry": {"type": "Point", "coordinates": [106.834014, -6.3641711]}, "properties": {"kind": "car", "name": ""}}, {"type": "Feature", "geometry": {"type": "Point", "coordinates": [106.8330143, -6.3742315]}, "properties": {"kind": "car", "name": ""}}, {"type": "Feature", "geometry": {"type": "Point", "coordinates": [106.8339276, -6.3735317]}, "properties": {"kind": "car", "name": ""}}, {"type": "Feature", "geometry": {"type": "Point", "coordinates": [106.8286156, -6.3626458]}, "properties": {"kind": "motorcycle", "name": "Area Parkir Motor FISIP UI"}}, {"type": "Feature", "geometry": {"type": "Point", "coordinates": [106.8265531, -6.3644458]}, "properties": {"kind": "motorcycle", "name": "Parkir Motor FIB"}}, {"type": "Feature", "geometry": {"type": "Point", "coordinates": [106.8314766, -6.3714165]}, "properties": {"kind": "car", "name": ""}}, {"type": "Feature", "geometry": {"type": "Point", "coordinates": [106.8316095, -6.3710449]}, "properties": {"kind": "car", "name": ""}}, {"type": "Feature", "geometry": {"type": "Point", "coordinates": [106.8316618, -6.370871]}, "properties": {"kind": "car", "name": ""}}, {"type": "Feature", "geometry": {"type": "Point", "coordinates": [106.8315932, -6.3710961]}, "properties": {"kind": "car", "name": ""}}, {"type": "Feature", "geometry": {"type": "Point", "coordinates": [106.8316437, -6.3709377]}, "properties": {"kind": "car", "name": ""}}, {"type": "Feature", "geometry": {"type": "Point", "coordinates": [106.831626, -6.3709935]}, "properties": {"kind": "car", "name": ""}}, {"type": "Feature", "geometry": {"type": "Point", "coordinates": [106.831575, -6.3711536]}, "properties": {"kind": "car", "name": ""}}, {"type": "Feature", "geometry": {"type": "Point", "coordinates": [106.8287021, -6.3706593]}, "properties": {"kind": "car", "name": "Parkir Motor FKM"}}, {"type": "Feature", "geometry": {"type": "Point", "coordinates": [106.8261092, -6.3693753]}, "properties": {"kind": "car", "name": "Parkir Motor FMIPA"}}, {"type": "Feature", "geometry": {"type": "Point", "coordinates": [106.8262436, -6.3696612]}, "properties": {"kind": "car", "name": ""}}, {"type": "Feature", "geometry": {"type": "Point", "coordinates": [106.8272396, -6.3691369]}, "properties": {"kind": "car", "name": ""}}, {"type": "Feature", "geometry": {"type": "Point", "coordinates": [106.8274152, -6.3687607]}, "properties": {"kind": "car", "name": ""}}, {"type": "Feature", "geometry": {"type": "Point", "coordinates": [106.8274375, -6.3690182]}, "properties": {"kind": "car", "name": ""}}, {"type": "Feature", "geometry": {"type": "Point", "coordinates": [106.8264597, -6.3684083]}, "properties": {"kind": "car", "name": ""}}, {"type": "Feature", "geometry": {"type": "Point", "coordinates": [106.8284191, -6.3692771]}, "properties": {"kind": "car", "name": ""}}, {"type": "Feature", "geometry": {"type": "Point", "coordinates": [106.8279057, -6.3667642]}, "properties": {"kind": "motorcycle", "name": ""}}, {"type": "Feature", "geometry": {"type": "Point", "coordinates": [106.8278967, -6.3666853]}, "properties": {"kind": "motorcycle", "name": ""}}, {"type": "Feature", "geometry": {"type": "Point", "coordinates": [106.8306828, -6.365454]}, "properties": {"kind": "motorcycle", "name": "Parkir Motor Perpustakaan Universitas Indonesia"}}, {"type": "Feature", "geometry": {"type": "Point", "coordinates": [106.8296825, -6.3685875]}, "properties": {"kind": "car", "name": ""}}, {"type": "Feature", "geometry": {"type": "Point", "coordinates": [106.8286661, -6.3651188]}, "properties": {"kind": "car", "name": ""}}, {"type": "Feature", "geometry": {"type": "Point", "coordinates": [106.8315997, -6.365902]}, "properties": {"kind": "motorcycle", "name": ""}}, {"type": "Feature", "geometry": {"type": "Point", "coordinates": [106.8318359, -6.3659196]}, "properties": {"kind": "car", "name": ""}}, {"type": "Feature", "geometry": {"type": "Point", "coordinates": [106.8290707, -6.3640543]}, "properties": {"kind": "car", "name": "Parkir Motor FASILKOM UI"}}, {"type": "Feature", "geometry": {"type": "Point", "coordinates": [106.8278392, -6.3673169]}, "properties": {"kind": "car", "name": ""}}, {"type": "Feature", "geometry": {"type": "Point", "coordinates": [106.8268413, -6.3678178]}, "properties": {"kind": "car", "name": ""}}, {"type": "Feature", "geometry": {"type": "Point", "coordinates": [106.8302343, -6.3725865]}, "properties": {"kind": "car", "name": "Parkir Utara"}}, {"type": "Feature", "geometry": {"type": "Point", "coordinates": [106.8302153, -6.3736933]}, "properties": {"kind": "car", "name": "Gedung Parkir Timur"}}, {"type": "Feature", "geometry": {"type": "Point", "coordinates": [106.8293662, -6.3740724]}, "properties": {"kind": "car", "name": "Parkir Selatan"}}, {"type": "Feature", "geometry": {"type": "Point", "coordinates": [106.8288634, -6.3628385]}, "properties": {"kind": "motorcycle", "name": "Area Parkir Motor FISIP UI"}}, {"type": "Feature", "geometry": {"type": "Point", "coordinates": [106.8287075, -6.3662251]}, "properties": {"kind": "car", "name": ""}}, {"type": "Feature", "geometry": {"type": "Point", "coordinates": [106.8316746, -6.3645779]}, "properties": {"kind": "car", "name": ""}}, {"type": "Feature", "geometry": {"type": "Point", "coordinates": [106.8312525, -6.3631998]}, "properties": {"kind": "car", "name": ""}}, {"type": "Feature", "geometry": {"type": "Point", "coordinates": [106.8284177, -6.3627263]}, "properties": {"kind": "car", "name": ""}}, {"type": "Feature", "geometry": {"type": "Point", "coordinates": [106.829283, -6.3692812]}, "properties": {"kind": "car", "name": ""}}, {"type": "Feature", "geometry": {"type": "Point", "coordinates": [106.8306061, -6.3618536]}, "properties": {"kind": "car", "name": ""}}, {"type": "Feature", "geometry": {"type": "Point", "coordinates": [106.8328982, -6.3684807]}, "properties": {"kind": "motorcycle", "name": ""}}, {"type": "Feature", "geometry": {"type": "Point", "coordinates": [106.8302471, -6.3621312]}, "properties": {"kind": "car", "name": "Area Parkir Internal FISIP UI"}}, {"type": "Feature", "geometry": {"type": "Point", "coordinates": [106.8300507, -6.3625631]}, "properties": {"kind": "car", "name": "Area Parkir Internal FISIP UI - Gedung C"}}, {"type": "Feature", "geometry": {"type": "Point", "coordinates": [106.8290543, -6.3635558]}, "properties": {"kind": "car", "name": "Area Parkir Internal FISIP UI - Gedung Nusantara"}}, {"type": "Feature", "geometry": {"type": "Point", "coordinates": [106.8330816, -6.369612]}, "properties": {"kind": "car", "name": ""}}, {"type": "Feature", "geometry": {"type": "Point", "coordinates": [106.833533, -6.3681295]}, "properties": {"kind": "car", "name": ""}}, {"type": "Feature", "geometry": {"type": "Point", "coordinates": [106.8329535, -6.3680617]}, "properties": {"kind": "car", "name": ""}}, {"type": "Feature", "geometry": {"type": "Point", "coordinates": [106.8323542, -6.3687268]}, "properties": {"kind": "motorcycle", "name": ""}}, {"type": "Feature", "geometry": {"type": "Point", "coordinates": [106.82885, -6.3625286]}, "properties": {"kind": "motorcycle", "name": ""}}, {"type": "Feature", "geometry": {"type": "Point", "coordinates": [106.826312, -6.3652408]}, "properties": {"kind": "car", "name": ""}}, {"type": "Feature", "geometry": {"type": "Point", "coordinates": [106.8659166, -6.2062272]}, "properties": {"kind": "car", "name": ""}}, {"type": "Feature", "geometry": {"type": "Point", "coordinates": [106.817525, -6.4633837]}, "properties": {"kind": "car", "name": ""}}, {"type": "Feature", "geometry": {"type": "Point", "coordinates": [106.8251196, -6.4606813]}, "properties": {"kind": "car", "name": ""}}, {"type": "Feature", "geometry": {"type": "Point", "coordinates": [106.8200684, -6.465299]}, "properties": {"kind": "car", "name": ""}}, {"type": "Feature", "geometry": {"type": "Point", "coordinates": [106.7439534, -6.2770183]}, "properties": {"kind": "motorcycle", "name": ""}}, {"type": "Feature", "geometry": {"type": "Point", "coordinates": [106.741361, -6.2731641]}, "properties": {"kind": "car", "name": ""}}, {"type": "Feature", "geometry": {"type": "Point", "coordinates": [106.741439, -6.2780371]}, "properties": {"kind": "car", "name": ""}}, {"type": "Feature", "geometry": {"type": "Point", "coordinates": [106.7396866, -6.2722672]}, "properties": {"kind": "car", "name": ""}}, {"type": "Feature", "geometry": {"type": "Point", "coordinates": [106.7402859, -6.2720318]}, "properties": {"kind": "car", "name": ""}}, {"type": "Feature", "geometry": {"type": "Point", "coordinates": [106.7424567, -6.2734307]}, "properties": {"kind": "car", "name": ""}}, {"type": "Feature", "geometry": {"type": "Point", "coordinates": [106.7402974, -6.2705696]}, "properties": {"kind": "car", "name": ""}}, {"type": "Feature", "geometry": {"type": "Point", "coordinates": [106.6771457, -6.1648514]}, "properties": {"kind": "car", "name": "Kantong Parkir"}}, {"type": "Feature", "geometry": {"type": "Point", "coordinates": [106.8385167, -6.146655]}, "properties": {"kind": "car", "name": ""}}, {"type": "Feature", "geometry": {"type": "Point", "coordinates": [106.8434029, -6.1478218]}, "properties": {"kind": "car", "name": "Parkir Barat"}}, {"type": "Feature", "geometry": {"type": "Point", "coordinates": [106.8415072, -6.1471274]}, "properties": {"kind": "car", "name": ""}}, {"type": "Feature", "geometry": {"type": "Point", "coordinates": [106.8356262, -6.1394353]}, "properties": {"kind": "car", "name": ""}}, {"type": "Feature", "geometry": {"type": "Point", "coordinates": [106.8358765, -6.1473874]}, "properties": {"kind": "car", "name": ""}}, {"type": "Feature", "geometry": {"type": "Point", "coordinates": [106.7282714, -6.166925]}, "properties": {"kind": "car", "name": ""}}, {"type": "Feature", "geometry": {"type": "Point", "coordinates": [106.7239541, -6.1601188]}, "properties": {"kind": "car", "name": "Pool Transjakarta Koridor 3"}}, {"type": "Feature", "geometry": {"type": "Point", "coordinates": [106.6779493, -6.319587]}, "properties": {"kind": "car", "name": ""}}, {"type": "Feature", "geometry": {"type": "Point", "coordinates": [106.6749182, -6.3153172]}, "properties": {"kind": "car", "name": ""}}, {"type": "Feature", "geometry": {"type": "Point", "coordinates": [106.6769346, -6.3151461]}, "properties": {"kind": "motorcycle", "name": ""}}, {"type": "Feature", "geometry": {"type": "Point", "coordinates": [106.6764206, -6.3153113]}, "properties": {"kind": "motorcycle", "name": ""}}, {"type": "Feature", "geometry": {"type": "Point", "coordinates": [106.6771904, -6.315409]}, "properties": {"kind": "motorcycle", "name": ""}}, {"type": "Feature", "geometry": {"type": "Point", "coordinates": [106.6773729, -6.3156146]}, "properties": {"kind": "car", "name": ""}}, {"type": "Feature", "geometry": {"type": "Point", "coordinates": [106.6809176, -6.3168047]}, "properties": {"kind": "car", "name": ""}}, {"type": "Feature", "geometry": {"type": "Point", "coordinates": [106.6812089, -6.3167998]}, "properties": {"kind": "car", "name": ""}}, {"type": "Feature", "geometry": {"type": "Point", "coordinates": [106.6812378, -6.3169019]}, "properties": {"kind": "car", "name": ""}}, {"type": "Feature", "geometry": {"type": "Point", "coordinates": [106.6810531, -6.3171717]}, "properties": {"kind": "car", "name": ""}}, {"type": "Feature", "geometry": {"type": "Point", "coordinates": [106.6822404, -6.3143154]}, "properties": {"kind": "car", "name": ""}}, {"type": "Feature", "geometry": {"type": "Point", "coordinates": [106.6836552, -6.3148347]}, "properties": {"kind": "car", "name": ""}}, {"type": "Feature", "geometry": {"type": "Point", "coordinates": [106.6830431, -6.3143595]}, "properties": {"kind": "car", "name": ""}}, {"type": "Feature", "geometry": {"type": "Point", "coordinates": [106.6770698, -6.3221167]}, "properties": {"kind": "car", "name": ""}}, {"type": "Feature", "geometry": {"type": "Point", "coordinates": [106.8210557, -6.1631557]}, "properties": {"kind": "car", "name": ""}}, {"type": "Feature", "geometry": {"type": "Point", "coordinates": [106.7136121, -6.2965619]}, "properties": {"kind": "car", "name": ""}}, {"type": "Feature", "geometry": {"type": "Point", "coordinates": [106.7132866, -6.297407]}, "properties": {"kind": "motorcycle", "name": ""}}, {"type": "Feature", "geometry": {"type": "Point", "coordinates": [106.7130185, -6.2963536]}, "properties": {"kind": "car", "name": ""}}, {"type": "Feature", "geometry": {"type": "Point", "coordinates": [106.713228, -6.2968573]}, "properties": {"kind": "motorcycle", "name": ""}}, {"type": "Feature", "geometry": {"type": "Point", "coordinates": [106.7122742, -6.2972871]}, "properties": {"kind": "motorcycle", "name": "Mandiri Parking"}}, {"type": "Feature", "geometry": {"type": "Point", "coordinates": [106.7134267, -6.2967672]}, "properties": {"kind": "car", "name": "Parkir Stasiun Sudimara"}}, {"type": "Feature", "geometry": {"type": "Point", "coordinates": [106.7128589, -6.2964098]}, "properties": {"kind": "car", "name": ""}}, {"type": "Feature", "geometry": {"type": "Point", "coordinates": [106.7152579, -6.294664]}, "properties": {"kind": "car", "name": ""}}, {"type": "Feature", "geometry": {"type": "Point", "coordinates": [106.70831, -6.2948668]}, "properties": {"kind": "car", "name": ""}}, {"type": "Feature", "geometry": {"type": "Point", "coordinates": [106.8230337, -6.2100347]}, "properties": {"kind": "car", "name": ""}}, {"type": "Feature", "geometry": {"type": "Point", "coordinates": [106.823831, -6.2097143]}, "properties": {"kind": "motorcycle", "name": "Sudirman Plaza"}}, {"type": "Feature", "geometry": {"type": "Point", "coordinates": [106.7550402, -6.1556757]}, "properties": {"kind": "car", "name": ""}}, {"type": "Feature", "geometry": {"type": "Point", "coordinates": [106.7566395, -6.1536194]}, "properties": {"kind": "motorcycle", "name": ""}}, {"type": "Feature", "geometry": {"type": "Point", "coordinates": [106.7568332, -6.1529614]}, "properties": {"kind": "car", "name": ""}}, {"type": "Feature", "geometry": {"type": "Point", "coordinates": [107.0560269, -6.2591823]}, "properties": {"kind": "car", "name": ""}}, {"type": "Feature", "geometry": {"type": "Point", "coordinates": [107.0555011, -6.2605566]}, "properties": {"kind": "car", "name": ""}}, {"type": "Feature", "geometry": {"type": "Point", "coordinates": [107.0546452, -6.2594957]}, "properties": {"kind": "car", "name": ""}}, {"type": "Feature", "geometry": {"type": "Point", "coordinates": [107.0562915, -6.2647275]}, "properties": {"kind": "motorcycle", "name": ""}}, {"type": "Feature", "geometry": {"type": "Point", "coordinates": [106.8052719, -6.1896426]}, "properties": {"kind": "car", "name": ""}}, {"type": "Feature", "geometry": {"type": "Point", "coordinates": [106.8115983, -6.1824513]}, "properties": {"kind": "motorcycle", "name": ""}}, {"type": "Feature", "geometry": {"type": "Point", "coordinates": [106.8111354, -6.1825596]}, "properties": {"kind": "car", "name": ""}}, {"type": "Feature", "geometry": {"type": "Point", "coordinates": [106.6418568, -6.1787154]}, "properties": {"kind": "car", "name": ""}}, {"type": "Feature", "geometry": {"type": "Point", "coordinates": [106.642089, -6.1805276]}, "properties": {"kind": "car", "name": ""}}, {"type": "Feature", "geometry": {"type": "Point", "coordinates": [106.6430709, -6.1722589]}, "properties": {"kind": "car", "name": ""}}, {"type": "Feature", "geometry": {"type": "Point", "coordinates": [106.6301416, -6.176988]}, "properties": {"kind": "motorcycle", "name": ""}}, {"type": "Feature", "geometry": {"type": "Point", "coordinates": [106.6297266, -6.1762062]}, "properties": {"kind": "car", "name": ""}}, {"type": "Feature", "geometry": {"type": "Point", "coordinates": [106.6325189, -6.1765843]}, "properties": {"kind": "car", "name": ""}}, {"type": "Feature", "geometry": {"type": "Point", "coordinates": [106.6307306, -6.176607]}, "properties": {"kind": "motorcycle", "name": ""}}, {"type": "Feature", "geometry": {"type": "Point", "coordinates": [106.6311154, -6.1785893]}, "properties": {"kind": "car", "name": ""}}, {"type": "Feature", "geometry": {"type": "Point", "coordinates": [106.8357427, -6.3064012]}, "properties": {"kind": "motorcycle", "name": ""}}, {"type": "Feature", "geometry": {"type": "Point", "coordinates": [106.8395359, -6.3103102]}, "properties": {"kind": "car", "name": ""}}, {"type": "Feature", "geometry": {"type": "Point", "coordinates": [106.8392759, -6.3085727]}, "properties": {"kind": "car", "name": ""}}, {"type": "Feature", "geometry": {"type": "Point", "coordinates": [106.8391345, -6.3093533]}, "properties": {"kind": "car", "name": ""}}, {"type": "Feature", "geometry": {"type": "Point", "coordinates": [106.8408459, -6.3026802]}, "properties": {"kind": "car", "name": ""}}, {"type": "Feature", "geometry": {"type": "Point", "coordinates": [106.8347138, -6.3072637]}, "properties": {"kind": "car", "name": ""}}, {"type": "Feature", "geometry": {"type": "Point", "coordinates": [106.8352973, -6.3066345]}, "properties": {"kind": "motorcycle", "name": ""}}, {"type": "Feature", "geometry": {"type": "Point", "coordinates": [106.8398529, -6.3100553]}, "properties": {"kind": "car", "name": ""}}, {"type": "Feature", "geometry": {"type": "Point", "coordinates": [106.8426982, -6.3042779]}, "properties": {"kind": "car", "name": ""}}, {"type": "Feature", "geometry": {"type": "Point", "coordinates": [106.8390979, -6.3097291]}, "properties": {"kind": "car", "name": ""}}, {"type": "Feature", "geometry": {"type": "Point", "coordinates": [106.8819883, -6.1105501]}, "properties": {"kind": "motorcycle", "name": ""}}, {"type": "Feature", "geometry": {"type": "Point", "coordinates": [106.8804759, -6.1037435]}, "properties": {"kind": "motorcycle", "name": ""}}, {"type": "Feature", "geometry": {"type": "Point", "coordinates": [106.8809236, -6.1037257]}, "properties": {"kind": "car", "name": ""}}, {"type": "Feature", "geometry": {"type": "Point", "coordinates": [106.8569552, -6.2330461]}, "properties": {"kind": "car", "name": ""}}, {"type": "Feature", "geometry": {"type": "Point", "coordinates": [106.8558306, -6.222573]}, "properties": {"kind": "car", "name": ""}}, {"type": "Feature", "geometry": {"type": "Point", "coordinates": [106.4617404, -6.328169]}, "properties": {"kind": "motorcycle", "name": ""}}, {"type": "Feature", "geometry": {"type": "Point", "coordinates": [106.4615706, -6.3278211]}, "properties": {"kind": "motorcycle", "name": ""}}, {"type": "Feature", "geometry": {"type": "Point", "coordinates": [106.4614411, -6.3280441]}, "properties": {"kind": "motorcycle", "name": ""}}, {"type": "Feature", "geometry": {"type": "Point", "coordinates": [106.4614515, -6.3274265]}, "properties": {"kind": "motorcycle", "name": ""}}, {"type": "Feature", "geometry": {"type": "Point", "coordinates": [106.4621632, -6.327834]}, "properties": {"kind": "car", "name": ""}}, {"type": "Feature", "geometry": {"type": "Point", "coordinates": [106.46241, -6.327431]}, "properties": {"kind": "car", "name": ""}}, {"type": "Feature", "geometry": {"type": "Point", "coordinates": [106.4613909, -6.3278303]}, "properties": {"kind": "motorcycle", "name": ""}}, {"type": "Feature", "geometry": {"type": "Point", "coordinates": [106.434401, -6.3283841]}, "properties": {"kind": "motorcycle", "name": ""}}, {"type": "Feature", "geometry": {"type": "Point", "coordinates": [106.440737, -6.3276529]}, "properties": {"kind": "car", "name": ""}}, {"type": "Feature", "geometry": {"type": "Point", "coordinates": [106.8284439, -6.3622318]}, "properties": {"kind": "car", "name": "FIB parking area"}}, {"type": "Feature", "geometry": {"type": "Point", "coordinates": [106.8281106, -6.3620165]}, "properties": {"kind": "car", "name": ""}}, {"type": "Feature", "geometry": {"type": "Point", "coordinates": [106.825195, -6.3610712]}, "properties": {"kind": "car", "name": ""}}, {"type": "Feature", "geometry": {"type": "Point", "coordinates": [106.8266103, -6.3598337]}, "properties": {"kind": "car", "name": ""}}, {"type": "Feature", "geometry": {"type": "Point", "coordinates": [106.8292252, -6.3617729]}, "properties": {"kind": "car", "name": "Area Parkir Internal FISIP UI - Gedung F"}}, {"type": "Feature", "geometry": {"type": "Point", "coordinates": [106.8295498, -6.3607823]}, "properties": {"kind": "car", "name": "Area Parkir FISIP UI - Lapangan Olahraga"}}, {"type": "Feature", "geometry": {"type": "Point", "coordinates": [106.830163, -6.3612463]}, "properties": {"kind": "car", "name": "Area Parkir FISIP UI - Halte Bus"}}, {"type": "Feature", "geometry": {"type": "Point", "coordinates": [106.8331927, -6.3386404]}, "properties": {"kind": "motorcycle", "name": ""}}, {"type": "Feature", "geometry": {"type": "Point", "coordinates": [106.8340684, -6.3381714]}, "properties": {"kind": "car", "name": ""}}, {"type": "Feature", "geometry": {"type": "Point", "coordinates": [106.8332596, -6.3416452]}, "properties": {"kind": "car", "name": ""}}, {"type": "Feature", "geometry": {"type": "Point", "coordinates": [106.8334579, -6.3407299]}, "properties": {"kind": "car", "name": ""}}, {"type": "Feature", "geometry": {"type": "Point", "coordinates": [106.8326047, -6.3410429]}, "properties": {"kind": "car", "name": ""}}, {"type": "Feature", "geometry": {"type": "Point", "coordinates": [106.8328979, -6.3380954]}, "properties": {"kind": "car", "name": ""}}]}