{"type": "FeatureCollection", "features": [{"type": "Feature", "geometry": {"type": "Point", "coordinates": [106.8012634, -6.243956]}, "properties": {"kind": "car", "name": ""}}, {"type": "Feature", "geometry": {"type": "Point", "coordinates": [106.7964977, -6.2405631]}, "properties": {"kind": "car", "name": "Parkir Kejaksaan Agung"}}, {"type": "Feature", "geometry": {"type": "Point", "coordinates": [106.8003281, -6.2402444]}, "properties": {"kind": "car", "name": ""}}, {"type": "Feature", "geometry": {"type": "Point", "coordinates": [106.8005806, -6.2404929]}, "properties": {"kind": "motorcycle", "name": ""}}, {"type": "Feature", "geometry": {"type": "Point", "coordinates": [106.8034489, -6.2406748]}, "properties": {"kind": "car", "name": ""}}, {"type": "Feature", "geometry": {"type": "Point", "coordinates": [106.8034182, -6.2401394]}, "properties": {"kind": "car", "name": ""}}, {"type": "Feature", "geometry": {"type": "Point", "coordinates": [106.796886, -6.2424508]}, "properties": {"kind": "car", "name": ""}}, {"type": "Feature", "geometry": {"type": "Point", "coordinates": [106.7935747, -6.2401057]}, "properties": {"kind": "car", "name": ""}}, {"type": "Feature", "geometry": {"type": "Point", "coordinates": [106.7932491, -6.240549]}, "properties": {"kind": "car", "name": ""}}, {"type": "Feature", "geometry": {"type": "Point", "coordinates": [106.7928534, -6.2411557]}, "properties": {"kind": "car", "name": ""}}, {"type": "Feature", "geometry": {"type": "Point", "coordinates": [106.7989098, -6.235945]}, "properties": {"kind": "car", "name": ""}}, {"type": "Feature", "geometry": {"type": "Point", "coordinates": [106.7988044, -6.2352244]}, "properties": {"kind": "car", "name": ""}}, {"type": "Feature", "geometry": {"type": "Point", "coordinates": [106.7997217, -6.2350391]}, "properties": {"kind": "car", "name": ""}}, {"type": "Feature", "geometry": {"type": "Point", "coordinates": [106.7935306, -6.240729]}, "properties": {"kind": "car", "name": ""}}, {"type": "Feature", "geometry": {"type": "Point", "coordinates": [106.7931243, -6.2415719]}, "properties": {"kind": "car", "name": ""}}, {"type": "Feature", "geometry": {"type": "Point", "coordinates": [106.7922972, -6.2400049]}, "properties": {"kind": "car", "name": ""}}, {"type": "Feature", "geometry": {"type": "Point", "coordinates": [106.8145472, -6.2206403]}, "properties": {"kind": "car", "name": ""}}, {"type": "Feature", "geometry": {"type": "Point", "coordinates": [106.8142386, -6.2163975]}, "properties": {"kind": "car", "name": ""}}, {"type": "Feature", "geometry": {"type": "Point", "coordinates": [106.8192999, -6.2157407]}, "properties": {"kind": "car", "name": ""}}, {"type": "Feature", "geometry": {"type": "Point", "coordinates": [106.8157411, -6.2176457]}, "properties": {"kind": "car", "name": "Lapangan Parkir Rumah sakit MRCC"}}, {"type": "Feature", "geometry": {"type": "Point", "coordinates": [106.8188867, -6.2090068]}, "properties": {"kind": "car", "name": ""}}, {"type": "Feature", "geometry": {"type": "Point", "coordinates": [106.8164181, -6.2172332]}, "properties": {"kind": "car", "name": ""}}, {"type": "Feature", "geometry": {"type": "Point", "coordinates": [106.8160912, -6.2130321]}, "properties": {"kind": "car", "name": ""}}, {"type": "Feature", "geometry": {"type": "Point", "coordinates": [106.8161147, -6.213521]}, "properties": {"kind": "car", "name": ""}}, {"type": "Feature", "geometry": {"type": "Point", "coordinates": [106.8162204, -6.2105803]}, "properties": {"kind": "car", "name": ""}}, {"type": "Feature", "geometry": {"type": "Point", "coordinates": [106.8159725, -6.2191229]}, "properties": {"kind": "car", "name": "Gedung Y"}}, {"type": "Feature", "geometry": {"type": "Point", "coordinates": [106.818142, -6.2200629]}, "properties": {"kind": "car", "name": ""}}, {"type": "Feature", "geometry": {"type": "Point", "coordinates": [106.8196527, -6.2219488]}, "properties": {"kind": "car", "name": ""}}, {"type": "Feature", "geometry": {"type": "Point", "coordinates": [106.8198417, -6.2177542]}, "properties": {"kind": "car", "name": ""}}, {"type": "Feature", "geometry": {"type": "Point", "coordinates": [106.813968, -6.2121904]}, "properties": {"kind": "car", "name": ""}}, {"type": "Feature", "geometry": {"type": "Point", "coordinates": [106.8216376, -6.210791]}, "properties": {"kind": "car", "name": ""}}, {"type": "Feature", "geometry": {"type": "Point", "coordinates": [106.8211121, -6.208302]}, "properties": {"kind": "car", "name": ""}}, {"type": "Feature", "geometry": {"type": "Point", "coordinates": [106.8195525, -6.2112393]}, "properties": {"kind": "car", "name": ""}}, {"type": "Feature", "geometry": {"type": "Point", "coordinates": [106.819283, -6.2158119]}, "properties": {"kind": "car", "name": ""}}, {"type": "Feature", "geometry": {"type": "Point", "coordinates": [106.818906, -6.2150251]}, "properties": {"kind": "car", "name": ""}}, {"type": "Feature", "geometry": {"type": "Point", "coordinates": [106.8196254, -6.2152385]}, "properties": {"kind": "car", "name": ""}}, {"type": "Feature", "geometry": {"type": "Point", "coordinates": [106.8203139, -6.2157609]}, "properties": {"kind": "car", "name": ""}}, {"type": "Feature", "geometry": {"type": "Point", "coordinates": [106.8215458, -6.2122464]}, "properties": {"kind": "car", "name": ""}}, {"type": "Feature", "geometry": {"type": "Point", "coordinates": [106.8192197, -6.2218571]}, "properties": {"kind": "motorcycle", "name": ""}}, {"type": "Feature", "geometry": {"type": "Point", "coordinates": [106.8222246, -6.2118107]}, "properties": {"kind": "car", "name": ""}}, {"type": "Feature", "geometry": {"type": "Point", "coordinates": [106.8197063, -6.2173296]}, "properties": {"kind": "car", "name": ""}}, {"type": "Feature", "geometry": {"type": "Point", "coordinates": [106.8182163, -6.2188489]}, "properties": {"kind": "motorcycle", "name": ""}}, {"type": "Feature", "geometry": {"type": "Point", "coordinates": [106.8185013, -6.2187202]}, "properties": {"kind": "car", "name": ""}}, {"type": "Feature", "geometry": {"type": "Point", "coordinates": [106.8230337, -6.2100347]}, "properties": {"kind": "car", "name": ""}}, {"type": "Feature", "geometry": {"type": "Point", "coordinates": [106.7980146, -6.2541238]}, "properties": {"kind": "car", "name": ""}}, {"type": "Feature", "geometry": {"type": "Point", "coordinates": [106.7987247, -6.254613]}, "properties": {"kind": "car", "name": ""}}, {"type": "Feature", "geometry": {"type": "Point", "coordinates": [106.7982989, -6.2546064]}, "properties": {"kind": "car", "name": ""}}, {"type": "Feature", "geometry": {"type": "Point", "coordinates": [106.8019656, -6.254085]}, "properties": {"kind": "car", "name": ""}}, {"type": "Feature", "geometry": {"type": "Point", "coordinates": [106.7975623, -6.2546706]}, "properties": {"kind": "motorcycle", "name": ""}}, {"type": "Feature", "geometry": {"type": "Point", "coordinates": [106.7978112, -6.2539339]}, "properties": {"kind": "car", "name": ""}}, {"type": "Feature", "geometry": {"type": "Point", "coordinates": [106.7978651, -6.2540158]}, "properties": {"kind": "car", "name": ""}}, {"type": "Feature", "geometry": {"type": "Point", "coordinates": [106.7976815, -6.2531983]}, "properties": {"kind": "car", "name": ""}}, {"type": "Feature", "geometry": {"type": "Point", "coordinates": [106.797421, -6.253906]}, "properties": {"kind": "car", "name": ""}}, {"type": "Feature", "geometry": {"type": "Point", "coordinates": [106.7931735, -6.2453739]}, "properties": {"kind": "car", "name": ""}}, {"type": "Feature", "geometry": {"type": "Point", "coordinates": [106.7931907, -6.2451336]}, "properties": {"kind": "car", "name": ""}}, {"type": "Feature", "geometry": {"type": "Point", "coordinates": [106.793054, -6.2450904]}, "properties": {"kind": "motorcycle", "name": ""}}, {"type": "Feature", "geometry": {"type": "Point", "coordinates": [106.8189841, -6.1948351]}, "properties": {"kind": "car", "name": ""}}, {"type": "Feature", "geometry": {"type": "Point", "coordinates": [106.8186119, -6.1919326]}, "properties": {"kind": "car", "name": ""}}, {"type": "Feature", "geometry": {"type": "Point", "coordinates": [106.8252529, -6.185725]}, "properties": {"kind": "car", "name": ""}}, {"type": "Feature", "geometry": {"type": "Point", "coordinates": [106.823647, -6.1915698]}, "properties": {"kind": "car", "name": ""}}, {"type": "Feature", "geometry": {"type": "Point", "coordinates": [106.8226608, -6.1920453]}, "properties": {"kind": "car", "name": ""}}, {"type": "Feature", "geometry": {"type": "Point", "coordinates": [106.8243536, -6.1936074]}, "properties": {"kind": "car", "name": ""}}, {"type": "Feature", "geometry": {"type": "Point", "coordinates": [106.822245, -6.197434]}, "properties": {"kind": "car", "name": ""}}, {"type": "Feature", "geometry": {"type": "Point", "coordinates": [106.821781, -6.1855876]}, "properties": {"kind": "car", "name": "Menara Thamrin Parking"}}, {"type": "Feature", "geometry": {"type": "Point", "coordinates": [106.8210773, -6.1858401]}, "properties": {"kind": "car", "name": "Parkiran"}}, {"type": "Feature", "geometry": {"type": "Point", "coordinates": [106.8215838, -6.1865577]}, "properties": {"kind": "car", "name": "Parkir Motor Masjid"}}, {"type": "Feature", "geometry": {"type": "Point", "coordinates": [106.8235039, -6.1857371]}, "properties": {"kind": "car", "name": ""}}, {"type": "Feature", "geometry": {"type": "Point", "coordinates": [106.824359, -6.1861691]}, "properties": {"kind": "car", "name": ""}}, {"type": "Feature", "geometry": {"type": "Point", "coordinates": [106.8240852, -6.1965492]}, "properties": {"kind": "car", "name": ""}}, {"type": "Feature", "geometry": {"type": "Point", "coordinates": [106.8246487, -6.1882663]}, "properties": {"kind": "car", "name": "Parkir Sarinah"}}, {"type": "Feature", "geometry": {"type": "Point", "coordinates": [106.8238422, -6.1882572]}, "properties": {"kind": "car", "name": ""}}, {"type": "Feature", "geometry": {"type": "Point", "coordinates": [106.7966567, -6.2774782]}, "properties": {"kind": "car", "name": ""}}, {"type": "Feature", "geometry": {"type": "Point", "coordinates": [106.8006076, -6.2756753]}, "properties": {"kind": "car", "name": ""}}, {"type": "Feature", "geometry": {"type": "Point", "coordinates": [106.8208817, -6.2032607]}, "properties": {"kind": "car", "name": ""}}, {"type": "Feature", "geometry": {"type": "Point", "coordinates": [106.821219, -6.2039173]}, "properties": {"kind": "motorcycle", "name": ""}}, {"type": "Feature", "geometry": {"type": "Point", "coordinates": [106.8163522, -6.1977399]}, "properties": {"kind": "car", "name": ""}}, {"type": "Feature", "geometry": {"type": "Point", "coordinates": [106.8207534, -6.2059215]}, "properties": {"kind": "car", "name": ""}}, {"type": "Feature", "geometry": {"type": "Point", "coordinates": [106.8170294, -6.2045126]}, "properties": {"kind": "car", "name": ""}}, {"type": "Feature", "geometry": {"type": "Point", "coordinates": [106.8203087, -6.2029264]}, "properties": {"kind": "car", "name": ""}}, {"type": "Feature", "geometry": {"type": "Point", "coordinates": [106.8214635, -6.2039448]}, "properties": {"kind": "car", "name": ""}}, {"type": "Feature", "geometry": {"type": "Point", "coordinates": [106.8217562, -6.2035099]}, "properties": {"kind": "car", "name": ""}}, {"type": "Feature", "geometry": {"type": "Point", "coordinates": [106.8215247, -6.2029394]}, "properties": {"kind": "car", "name": ""}}, {"type": "Feature", "geometry": {"type": "Point", "coordinates": [106.8249291, -6.2038912]}, "properties": {"kind": "car", "name": ""}}, {"type": "Feature", "geometry": {"type": "Point", "coordinates": [106.8248526, -6.2043951]}, "properties": {"kind": "car", "name": ""}}, {"type": "Feature", "geometry": {"type": "Point", "coordinates": [106.8210407, -6.2076848]}, "properties": {"kind": "car", "name": ""}}, {"type": "Feature", "geometry": {"type": "Point", "coordinates": [106.8238429, -6.2076644]}, "properties": {"kind": "car", "name": ""}}, {"type": "Feature", "geometry": {"type": "Point", "coordinates": [106.8180737, -6.2041682]}, "properties": {"kind": "car", "name": ""}}, {"type": "Feature", "geometry": {"type": "Point", "coordinates": [106.8221471, -6.2010801]}, "properties": {"kind": "car", "name": ""}}, {"type": "Feature", "geometry": {"type": "Point", "coordinates": [106.8218789, -6.2013636]}, "properties": {"kind": "car", "name": "Parkir All Seasons"}}, {"type": "Feature", "geometry": {"type": "Point", "coordinates": [106.8214404, -6.2078114]}, "properties": {"kind": "car", "name": ""}}, {"type": "Feature", "geometry": {"type": "Point", "coordinates": [106.8231759, -6.2046813]}, "properties": {"kind": "car", "name": ""}}, {"type": "Feature", "geometry": {"type": "Point", "coordinates": [106.8207198, -6.2065297]}, "properties": {"kind": "car", "name": ""}}, {"type": "Feature", "geometry": {"type": "Point", "coordinates": [106.8172749, -6.2044432]}, "properties": {"kind": "motorcycle", "name": "Parkir Karyawan Shangri-La"}}, {"type": "Feature", "geometry": {"type": "Point", "coordinates": [106.8226173, -6.207568]}, "properties": {"kind": "car", "name": ""}}, {"type": "Feature", "geometry": {"type": "Point", "coordinates": [106.8236807, -6.2008732]}, "properties": {"kind": "car", "name": ""}}, {"type": "Feature", "geometry": {"type": "Point", "coordinates": [106.8180238, -6.2044852]}, "properties": {"kind": "motorcycle", "name": ""}}, {"type": "Feature", "geometry": {"type": "Point", "coordinates": [106.7950303, -6.2898789]}, "properties": {"kind": "car", "name": "Parkir Masjid Alhidayah"}}, {"type": "Feature", "geometry": {"type": "Point", "coordinates": [106.7959357, -6.2946671]}, "properties": {"kind": "car", "name": ""}}, {"type": "Feature", "geometry": {"type": "Point", "coordinates": [106.7963261, -6.2929716]}, "properties": {"kind": "car", "name": ""}}, {"type": "Feature", "geometry": {"type": "Point", "coordinates": [106.7956311, -6.2931545]}, "properties": {"kind": "car", "name": ""}}, {"type": "Feature", "geometry": {"type": "Point", "coordinates": [106.7969538, -6.2936747]}, "properties": {"kind": "car", "name": ""}}, {"type": "Feature", "geometry": {"type": "Point", "coordinates": [106.7953237, -6.2974286]}, "properties": {"kind": "car", "name": ""}}, {"type": "Feature", "geometry": {"type": "Point", "coordinates": [106.7863631, -6.2953416]}, "properties": {"kind": "car", "name": ""}}, {"type": "Feature", "geometry": {"type": "Point", "coordinates": [106.7914871, -6.2928262]}, "properties": {"kind": "car", "name": ""}}, {"type": "Feature", "geometry": {"type": "Point", "coordinates": [106.7953836, -6.2961582]}, "properties": {"kind": "car", "name": ""}}, {"type": "Feature", "geometry": {"type": "Point", "coordinates": [106.8067076, -6.2161836]}, "properties": {"kind": "car", "name": ""}}, {"type": "Feature", "geometry": {"type": "Point", "coordinates": [106.8016903, -6.221392]}, "properties": {"kind": "motorcycle", "name": ""}}, {"type": "Feature", "geometry": {"type": "Point", "coordinates": [106.8021448, -6.2217498]}, "properties": {"kind": "car", "name": ""}}, {"type": "Feature", "geometry": {"type": "Point", "coordinates": [106.8084665, -6.2287438]}, "properties": {"kind": "car", "name": "Lot 17"}}, {"type": "Feature", "geometry": {"type": "Point", "coordinates": [106.8081124, -6.224819]}, "properties": {"kind": "car", "name": ""}}, {"type": "Feature", "geometry": {"type": "Point", "coordinates": [106.8043454, -6.2265821]}, "properties": {"kind": "car", "name": ""}}, {"type": "Feature", "geometry": {"type": "Point", "coordinates": [106.8065254, -6.2167708]}, "properties": {"kind": "car", "name": ""}}, {"type": "Feature", "geometry": {"type": "Point", "coordinates": [106.8045894, -6.222527]}, "properties": {"kind": "car", "name": ""}}, {"type": "Feature", "geometry": {"type": "Point", "coordinates": [106.8058934, -6.2215884]}, "properties": {"kind": "car", "name": ""}}, {"type": "Feature", "geometry": {"type": "Point", "coordinates": [106.807645, -6.2169698]}, "properties": {"kind": "car", "name": "Parkir Timur Senayan"}}, {"type": "Feature", "geometry": {"type": "Point", "coordinates": [106.8075999, -6.2200488]}, "properties": {"kind": "car", "name": "Parkir Timur Senayan"}}, {"type": "Feature", "geometry": {"type": "Point", "coordinates": [106.8104479, -6.2221985]}, "properties": {"kind": "car", "name": ""}}, {"type": "Feature", "geometry": {"type": "Point", "coordinates": [106.8138733, -6.2228923]}, "properties": {"kind": "car", "name": ""}}, {"type": "Feature", "geometry": {"type": "Point", "coordinates": [106.8052833, -6.2273723]}, "properties": {"kind": "car", "name": ""}}, {"type": "Feature", "geometry": {"type": "Point", "coordinates": [106.81067, -6.2191478]}, "properties": {"kind": "car", "name": ""}}, {"type": "Feature", "geometry": {"type": "Point", "coordinates": [106.810185, -6.2202698]}, "properties": {"kind": "car", "name": ""}}, {"type": "Feature", "geometry": {"type": "Point", "coordinates": [106.8157088, -6.2232105]}, "properties": {"kind": "car", "name": ""}}, {"type": "Feature", "geometry": {"type": "Point", "coordinates": [106.812454, -6.2255276]}, "properties": {"kind": "car", "name": "Lot 23"}}, {"type": "Feature", "geometry": {"type": "Point", "coordinates": [106.8140688, -6.2257807]}, "properties": {"kind": "car", "name": ""}}, {"type": "Feature", "geometry": {"type": "Point", "coordinates": [106.8102146, -6.2276977]}, "properties": {"kind": "car", "name": ""}}, {"type": "Feature", "geometry": {"type": "Point", "coordinates": [106.8019575, -6.2237463]}, "properties": {"kind": "car", "name": ""}}, {"type": "Feature", "geometry": {"type": "Point", "coordinates": [106.8150529, -6.2223445]}, "properties": {"kind": "car", "name": ""}}, {"type": "Feature", "geometry": {"type": "Point", "coordinates": [106.8108371, -6.2264271]}, "properties": {"kind": "car", "name": ""}}, {"type": "Feature", "geometry": {"type": "Point", "coordinates": [106.8076873, -6.216163]}, "properties": {"kind": "car", "name": ""}}, {"type": "Feature", "geometry": {"type": "Point", "coordinates": [106.8076269, -6.2205693]}, "properties": {"kind": "car", "name": ""}}, {"type": "Feature", "geometry": {"type": "Point", "coordinates": [106.8086957, -6.2294391]}, "properties": {"kind": "car", "name": "Lot 17"}}, {"type": "Feature", "geometry": {"type": "Point", "coordinates": [106.8092803, -6.2276504]}, "properties": {"kind": "car", "name": ""}}, {"type": "Feature", "geometry": {"type": "Point", "coordinates": [106.8030595, -6.2255935]}, "properties": {"kind": "car", "name": ""}}, {"type": "Feature", "geometry": {"type": "Point", "coordinates": [106.7731475, -6.2928781]}, "properties": {"kind": "car", "name": ""}}, {"type": "Feature", "geometry": {"type": "Point", "coordinates": [106.771428, -6.2885346]}, "properties": {"kind": "car", "name": ""}}, {"type": "Feature", "geometry": {"type": "Point", "coordinates": [106.7715638, -6.2885105]}, "properties": {"kind": "car", "name": ""}}, {"type": "Feature", "geometry": {"type": "Point", "coordinates": [106.7979336, -6.2276789]}, "properties": {"kind": "car", "name": ""}}, {"type": "Feature", "geometry": {"type": "Point", "coordinates": [106.7977882, -6.2281096]}, "properties": {"kind": "car", "name": ""}}, {"type": "Feature", "geometry": {"type": "Point", "coordinates": [106.7989475, -6.2277027]}, "properties": {"kind": "car", "name": ""}}, {"type": "Feature", "geometry": {"type": "Point", "coordinates": [106.7999157, -6.2276026]}, "properties": {"kind": "car", "name": ""}}, {"type": "Feature", "geometry": {"type": "Point", "coordinates": [106.8010225, -6.2250876]}, "properties": {"kind": "car", "name": ""}}, {"type": "Feature", "geometry": {"type": "Point", "coordinates": [106.8008539, -6.2256779]}, "properties": {"kind": "car", "name": ""}}, {"type": "Feature", "geometry": {"type": "Point", "coordinates": [106.800179, -6.2227189]}, "properties": {"kind": "car", "name": ""}}, {"type": "Feature", "geometry": {"type": "Point", "coordinates": [106.799834, -6.2218685]}, "properties": {"kind": "motorcycle", "name": ""}}, {"type": "Feature", "geometry": {"type": "Point", "coordinates": [106.7994608, -6.2284253]}, "properties": {"kind": "car", "name": ""}}, {"type": "Feature", "geometry": {"type": "Point", "coordinates": [106.7977781, -6.2263392]}, "properties": {"kind": "car", "name": ""}}, {"type": "Feature", "geometry": {"type": "Point", "coordinates": [106.7985147, -6.2254237]}, "properties": {"kind": "car", "name": ""}}, {"type": "Feature", "geometry": {"type": "Point", "coordinates": [106.7990078, -6.2284421]}, "properties": {"kind": "motorcycle", "name": ""}}, {"type": "Feature", "geometry": {"type": "Point", "coordinates": [106.7993611, -6.2202967]}, "properties": {"kind": "car", "name": ""}}, {"type": "Feature", "geometry": {"type": "Point", "coordinates": [106.7986272, -6.2286628]}, "properties": {"kind": "motorcycle", "name": ""}}, {"type": "Feature", "geometry": {"type": "Point", "coordinates": [106.799475, -6.2220599]}, "properties": {"kind": "car", "name": ""}}, {"type": "Feature", "geometry": {"type": "Point", "coordinates": [106.8009566, -6.2236544]}, "properties": {"kind": "car", "name": ""}}, {"type": "Feature", "geometry": {"type": "Point", "coordinates": [106.8002998, -6.2291878]}, "properties": {"kind": "car", "name": ""}}, {"type": "Feature", "geometry": {"type": "Point", "coordinates": [106.8260472, -6.2099014]}, "properties": {"kind": "car", "name": ""}}, {"type": "Feature", "geometry": {"type": "Point", "coordinates": [106.8286672, -6.2087221]}, "properties": {"kind": "motorcycle", "name": "Parkir Belakang Menara Duta"}}, {"type": "Feature", "geometry": {"type": "Point", "coordinates": [106.8290219, -6.2083931]}, "properties": {"kind": "car", "name": ""}}, {"type": "Feature", "geometry": {"type": "Point", "coordinates": [106.828808, -6.2092522]}, "properties": {"kind": "car", "name": "Parkir Belakang Menara Duta"}}, {"type": "Feature", "geometry": {"type": "Point", "coordinates": [106.823831, -6.2097143]}, "properties": {"kind": "motorcycle", "name": "Sudirman Plaza"}}]}