{"type": "FeatureCollection", "features": [{"type": "Feature", "geometry": {"type": "Point", "coordinates": [106.7986804, -6.2433406]}, "properties": {"kind": "green_area", "name": ""}}, {"type": "Feature", "geometry": {"type": "Point", "coordinates": [106.7988855, -6.2406526]}, "properties": {"kind": "tree", "name": ""}}, {"type": "Feature", "geometry": {"type": "Point", "coordinates": [106.7991276, -6.2403564]}, "properties": {"kind": "tree", "name": ""}}, {"type": "Feature", "geometry": {"type": "Point", "coordinates": [106.7989775, -6.2404698]}, "properties": {"kind": "tree", "name": ""}}, {"type": "Feature", "geometry": {"type": "Point", "coordinates": [106.7991659, -6.2404358]}, "properties": {"kind": "tree", "name": ""}}, {"type": "Feature", "geometry": {"type": "Point", "coordinates": [106.7991853, -6.2405194]}, "properties": {"kind": "tree", "name": ""}}, {"type": "Feature", "geometry": {"type": "Point", "coordinates": [106.7994438, -6.2406107]}, "properties": {"kind": "tree", "name": ""}}, {"type": "Feature", "geometry": {"type": "Point", "coordinates": [106.799418, -6.2406817]}, "properties": {"kind": "tree", "name": ""}}, {"type": "Feature", "geometry": {"type": "Point", "coordinates": [106.7987025, -6.2431651]}, "properties": {"kind": "green_area", "name": "Taman Martha Tiahahu"}}, {"type": "Feature", "geometry": {"type": "Point", "coordinates": [106.8016413, -6.2328127]}, "properties": {"kind": "green_area", "name": "Taman Mataram"}}, {"type": "Feature", "geometry": {"type": "Point", "coordinates": [106.8020399, -6.2337434]}, "properties": {"kind": "green_area", "name": "Taman Sriwijaya"}}, {"type": "Feature", "geometry": {"type": "Point", "coordinates": [106.79232, -6.2406093]}, "properties": {"kind": "green_area", "name": "Taman Bendera Pusaka Utara"}}, {"type": "Feature", "geometry": {"type": "Point", "coordinates": [106.7910988, -6.239377]}, "properties": {"kind": "green_area", "name": ""}}, {"type": "Feature", "geometry": {"type": "Point", "coordinates": [106.7918525, -6.2351834]}, "properties": {"kind": "green_area", "name": ""}}, {"type": "Feature", "geometry": {"type": "Point", "coordinates": [106.7996867, -6.240521]}, "properties": {"kind": "green_area", "name": "Taman Kota Peruri"}}, {"type": "Feature", "geometry": {"type": "Point", "coordinates": [106.7979417, -6.2348641]}, "properties": {"kind": "green_area", "name": ""}}, {"type": "Feature", "geometry": {"type": "Point", "coordinates": [106.7978858, -6.2435119]}, "properties": {"kind": "green_area", "name": ""}}, {"type": "Feature", "geometry": {"type": "Point", "coordinates": [106.7931473, -6.2440382]}, "properties": {"kind": "green_area", "name": "Taman Bendera Pusaka Selatan"}}, {"type": "Feature", "geometry": {"type": "Point", "coordinates": [106.7996031, -6.2328747]}, "properties": {"kind": "green_area", "name": "Taman Mataram"}}, {"type": "Feature", "geometry": {"type": "Point", "coordinates": [106.7988317, -6.2425628]}, "properties": {"kind": "green_area", "name": "Taman Sedayu Blok M"}}, {"type": "Feature", "geometry": {"type": "Point", "coordinates": [106.7944097, -6.2361404]}, "properties": {"kind": "green_area", "name": "Taman"}}, {"type": "Feature", "geometry": {"type": "Point", "coordinates": [106.7973118, -6.2348541]}, "properties": {"kind": "green_area", "name": "Taman Hang Tuah"}}, {"type": "Feature", "geometry": {"type": "Point", "coordinates": [106.7915431, -6.236422]}, "properties": {"kind": "green_area", "name": ""}}, {"type": "Feature", "geometry": {"type": "Point", "coordinates": [106.8016167, -6.2405377]}, "properties": {"kind": "green_area", "name": ""}}, {"type": "Feature", "geometry": {"type": "Point", "coordinates": [106.7952692, -6.2452602]}, "properties": {"kind": "green_area", "name": ""}}, {"type": "Feature", "geometry": {"type": "Point", "coordinates": [106.794596, -6.2451628]}, "properties": {"kind": "green_area", "name": "Taman Bendera Pusaka Timur"}}, {"type": "Feature", "geometry": {"type": "Point", "coordinates": [106.8037936, -6.2368026]}, "properties": {"kind": "green_area", "name": "Taman Senjaya 2"}}, {"type": "Feature", "geometry": {"type": "Point", "coordinates": [106.800876, -6.2343256]}, "properties": {"kind": "green_area", "name": "Taman Raden Patah"}}, {"type": "Feature", "geometry": {"type": "Point", "coordinates": [106.7952996, -6.2422342]}, "properties": {"kind": "green_area", "name": "Taman Lamandau"}}, {"type": "Feature", "geometry": {"type": "Point", "coordinates": [106.7968421, -6.2450665]}, "properties": {"kind": "green_area", "name": "Taman Sampit"}}, {"type": "Feature", "geometry": {"type": "Point", "coordinates": [106.7924682, -6.2359032]}, "properties": {"kind": "green_area", "name": "Taman Lauser Utara"}}, {"type": "Feature", "geometry": {"type": "Point", "coordinates": [106.8011632, -6.2365758]}, "properties": {"kind": "green_area", "name": "Taman Abipraya Kementerian PUPR"}}, {"type": "Feature", "geometry": {"type": "Point", "coordinates": [106.8011529, -6.2369743]}, "properties": {"kind": "green_area", "name": "Taman Abipraya PUPR"}}, {"type": "Feature", "geometry": {"type": "Point", "coordinates": [106.8012717, -6.2355801]}, "properties": {"kind": "green_area", "name": "PUPR Park"}}, {"type": "Feature", "geometry": {"type": "Point", "coordinates": [106.797967, -6.2418809]}, "properties": {"kind": "green_area", "name": ""}}, {"type": "Feature", "geometry": {"type": "Point", "coordinates": [106.7990966, -6.2403998]}, "properties": {"kind": "green_area", "name": ""}}, {"type": "Feature", "geometry": {"type": "Point", "coordinates": [106.7989789, -6.2404718]}, "properties": {"kind": "green_area", "name": ""}}, {"type": "Feature", "geometry": {"type": "Point", "coordinates": [106.7989194, -6.2406315]}, "properties": {"kind": "green_area", "name": ""}}, {"type": "Feature", "geometry": {"type": "Point", "coordinates": [106.7992407, -6.2407857]}, "properties": {"kind": "green_area", "name": ""}}, {"type": "Feature", "geometry": {"type": "Point", "coordinates": [106.7993278, -6.2404821]}, "properties": {"kind": "green_area", "name": ""}}, {"type": "Feature", "geometry": {"type": "Point", "coordinates": [106.7995, -6.2404965]}, "properties": {"kind": "green_area", "name": ""}}, {"type": "Feature", "geometry": {"type": "Point", "coordinates": [106.7991836, -6.2405179]}, "properties": {"kind": "green_area", "name": ""}}, {"type": "Feature", "geometry": {"type": "Point", "coordinates": [106.7994433, -6.2406134]}, "properties": {"kind": "green_area", "name": ""}}, {"type": "Feature", "geometry": {"type": "Point", "coordinates": [106.7994188, -6.2406844]}, "properties": {"kind": "green_area", "name": ""}}, {"type": "Feature", "geometry": {"type": "Point", "coordinates": [106.8151432, -6.217243]}, "properties": {"kind": "tree", "name": ""}}, {"type": "Feature", "geometry": {"type": "Point", "coordinates": [106.8179982, -6.2159512]}, "properties": {"kind": "green_area", "name": "Taman Sampoerna Strategic Square"}}, {"type": "Feature", "geometry": {"type": "Point", "coordinates": [106.8153075, -6.2126456]}, "properties": {"kind": "green_area", "name": ""}}, {"type": "Feature", "geometry": {"type": "Point", "coordinates": [106.8233844, -6.2182689]}, "properties": {"kind": "green_area", "name": ""}}, {"type": "Feature", "geometry": {"type": "Point", "coordinates": [106.8136339, -6.2168881]}, "properties": {"kind": "green_area", "name": "Taman Sentra BRI"}}, {"type": "Feature", "geometry": {"type": "Point", "coordinates": [106.8233824, -6.2155023]}, "properties": {"kind": "green_area", "name": "Taman Karbela"}}, {"type": "Feature", "geometry": {"type": "Point", "coordinates": [106.7963942, -6.2493739]}, "properties": {"kind": "green_area", "name": ""}}, {"type": "Feature", "geometry": {"type": "Point", "coordinates": [106.8043492, -6.2543558]}, "properties": {"kind": "green_area", "name": ""}}, {"type": "Feature", "geometry": {"type": "Point", "coordinates": [106.8017407, -6.254437]}, "properties": {"kind": "green_area", "name": "Taman gajah"}}, {"type": "Feature", "geometry": {"type": "Point", "coordinates": [106.8032468, -6.2544944]}, "properties": {"kind": "green_area", "name": ""}}, {"type": "Feature", "geometry": {"type": "Point", "coordinates": [106.7990267, -6.2514126]}, "properties": {"kind": "green_area", "name": "Taman Panglima Polim 12"}}, {"type": "Feature", "geometry": {"type": "Point", "coordinates": [106.7977928, -6.2513806]}, "properties": {"kind": "green_area", "name": "Taman Panglima Polim 12"}}, {"type": "Feature", "geometry": {"type": "Point", "coordinates": [106.7987695, -6.2521621]}, "properties": {"kind": "green_area", "name": "Taman Panglima Polim 13"}}, {"type": "Feature", "geometry": {"type": "Point", "coordinates": [106.8018043, -6.2506462]}, "properties": {"kind": "green_area", "name": "Taman Sega"}}, {"type": "Feature", "geometry": {"type": "Point", "coordinates": [106.8020624, -6.2529464]}, "properties": {"kind": "green_area", "name": "Taman Darmawangsa"}}, {"type": "Feature", "geometry": {"type": "Point", "coordinates": [106.8001432, -6.2622645]}, "properties": {"kind": "green_area", "name": "RPTRA Taman Sawo"}}, {"type": "Feature", "geometry": {"type": "Point", "coordinates": [106.8017811, -6.2471601]}, "properties": {"kind": "green_area", "name": "Taman Wijaya"}}, {"type": "Feature", "geometry": {"type": "Point", "coordinates": [106.8007643, -6.2460375]}, "properties": {"kind": "green_area", "name": "Taman Sepeda"}}, {"type": "Feature", "geometry": {"type": "Point", "coordinates": [106.7958161, -6.2477213]}, "properties": {"kind": "green_area", "name": "Taman Sambas"}}, {"type": "Feature", "geometry": {"type": "Point", "coordinates": [106.8216259, -6.1933499]}, "properties": {"kind": "tree", "name": ""}}, {"type": "Feature", "geometry": {"type": "Point", "coordinates": [106.8216493, -6.193372]}, "properties": {"kind": "tree", "name": ""}}, {"type": "Feature", "geometry": {"type": "Point", "coordinates": [106.8232865, -6.1933684]}, "properties": {"kind": "tree", "name": ""}}, {"type": "Feature", "geometry": {"type": "Point", "coordinates": [106.8216085, -6.1934017]}, "properties": {"kind": "tree", "name": ""}}, {"type": "Feature", "geometry": {"type": "Point", "coordinates": [106.8232874, -6.1934076]}, "properties": {"kind": "tree", "name": ""}}, {"type": "Feature", "geometry": {"type": "Point", "coordinates": [106.821912, -6.1933539]}, "properties": {"kind": "tree", "name": ""}}, {"type": "Feature", "geometry": {"type": "Point", "coordinates": [106.8219568, -6.1933539]}, "properties": {"kind": "tree", "name": ""}}, {"type": "Feature", "geometry": {"type": "Point", "coordinates": [106.8211786, -6.1937291]}, "properties": {"kind": "tree", "name": ""}}, {"type": "Feature", "geometry": {"type": "Point", "coordinates": [106.8216058, -6.1934382]}, "properties": {"kind": "tree", "name": ""}}, {"type": "Feature", "geometry": {"type": "Point", "coordinates": [106.8219731, -6.1933836]}, "properties": {"kind": "tree", "name": ""}}, {"type": "Feature", "geometry": {"type": "Point", "coordinates": [106.8215718, -6.1934625]}, "properties": {"kind": "tree", "name": ""}}, {"type": "Feature", "geometry": {"type": "Point", "coordinates": [106.8219419, -6.1933904]}, "properties": {"kind": "tree", "name": ""}}, {"type": "Feature", "geometry": {"type": "Point", "coordinates": [106.8212052, -6.1938218]}, "properties": {"kind": "tree", "name": ""}}, {"type": "Feature", "geometry": {"type": "Point", "coordinates": [106.8219079, -6.1934039]}, "properties": {"kind": "tree", "name": ""}}, {"type": "Feature", "geometry": {"type": "Point", "coordinates": [106.8215732, -6.1934923]}, "properties": {"kind": "tree", "name": ""}}, {"type": "Feature", "geometry": {"type": "Point", "coordinates": [106.8232894, -6.1934917]}, "properties": {"kind": "tree", "name": ""}}, {"type": "Feature", "geometry": {"type": "Point", "coordinates": [106.8215227, -6.1934511]}, "properties": {"kind": "tree", "name": ""}}, {"type": "Feature", "geometry": {"type": "Point", "coordinates": [106.8219473, -6.1934215]}, "properties": {"kind": "tree", "name": ""}}, {"type": "Feature", "geometry": {"type": "Point", "coordinates": [106.8219799, -6.1934242]}, "properties": {"kind": "tree", "name": ""}}, {"type": "Feature", "geometry": {"type": "Point", "coordinates": [106.8211805, -6.1937726]}, "properties": {"kind": "tree", "name": ""}}, {"type": "Feature", "geometry": {"type": "Point", "coordinates": [106.8214331, -6.1939963]}, "properties": {"kind": "tree", "name": ""}}, {"type": "Feature", "geometry": {"type": "Point", "coordinates": [106.821599, -6.1935098]}, "properties": {"kind": "tree", "name": ""}}, {"type": "Feature", "geometry": {"type": "Point", "coordinates": [106.8215216, -6.1934823]}, "properties": {"kind": "tree", "name": ""}}, {"type": "Feature", "geometry": {"type": "Point", "coordinates": [106.8214344, -6.194022]}, "properties": {"kind": "tree", "name": ""}}, {"type": "Feature", "geometry": {"type": "Point", "coordinates": [106.8215516, -6.193438]}, "properties": {"kind": "tree", "name": ""}}, {"type": "Feature", "geometry": {"type": "Point", "coordinates": [106.8215784, -6.1933788]}, "properties": {"kind": "tree", "name": ""}}, {"type": "Feature", "geometry": {"type": "Point", "coordinates": [106.8215476, -6.1935106]}, "properties": {"kind": "tree", "name": ""}}, {"type": "Feature", "geometry": {"type": "Point", "coordinates": [106.8214059, -6.1940341]}, "properties": {"kind": "tree", "name": ""}}, {"type": "Feature", "geometry": {"type": "Point", "coordinates": [106.8215417, -6.1934112]}, "properties": {"kind": "tree", "name": ""}}, {"type": "Feature", "geometry": {"type": "Point", "coordinates": [106.8215699, -6.1935283]}, "properties": {"kind": "tree", "name": ""}}, {"type": "Feature", "geometry": {"type": "Point", "coordinates": [106.8214385, -6.1940639]}, "properties": {"kind": "tree", "name": ""}}, {"type": "Feature", "geometry": {"type": "Point", "coordinates": [106.8214045, -6.1940693]}, "properties": {"kind": "tree", "name": ""}}, {"type": "Feature", "geometry": {"type": "Point", "coordinates": [106.821168, -6.1936126]}, "properties": {"kind": "tree", "name": ""}}, {"type": "Feature", "geometry": {"type": "Point", "coordinates": [106.8211667, -6.1936518]}, "properties": {"kind": "tree", "name": ""}}, {"type": "Feature", "geometry": {"type": "Point", "coordinates": [106.8232769, -6.1936599]}, "properties": {"kind": "tree", "name": ""}}, {"type": "Feature", "geometry": {"type": "Point", "coordinates": [106.8211816, -6.1936801]}, "properties": {"kind": "tree", "name": ""}}, {"type": "Feature", "geometry": {"type": "Point", "coordinates": [106.8212306, -6.1936801]}, "properties": {"kind": "tree", "name": ""}}, {"type": "Feature", "geometry": {"type": "Point", "coordinates": [106.8232759, -6.1936963]}, "properties": {"kind": "tree", "name": ""}}, {"type": "Feature", "geometry": {"type": "Point", "coordinates": [106.8232778, -6.1937173]}, "properties": {"kind": "tree", "name": ""}}, {"type": "Feature", "geometry": {"type": "Point", "coordinates": [106.8212346, -6.1937585]}, "properties": {"kind": "tree", "name": ""}}, {"type": "Feature", "geometry": {"type": "Point", "coordinates": [106.8212686, -6.1937694]}, "properties": {"kind": "tree", "name": ""}}, {"type": "Feature", "geometry": {"type": "Point", "coordinates": [106.8212197, -6.1937815]}, "properties": {"kind": "tree", "name": ""}}, {"type": "Feature", "geometry": {"type": "Point", "coordinates": [106.8213257, -6.1937856]}, "properties": {"kind": "tree", "name": ""}}, {"type": "Feature", "geometry": {"type": "Point", "coordinates": [106.8213121, -6.1938086]}, "properties": {"kind": "tree", "name": ""}}, {"type": "Feature", "geometry": {"type": "Point", "coordinates": [106.8195216, -6.1943868]}, "properties": {"kind": "tree", "name": ""}}, {"type": "Feature", "geometry": {"type": "Point", "coordinates": [106.820009, -6.1944775]}, "properties": {"kind": "tree", "name": ""}}, {"type": "Feature", "geometry": {"type": "Point", "coordinates": [106.8200511, -6.1944923]}, "properties": {"kind": "tree", "name": ""}}, {"type": "Feature", "geometry": {"type": "Point", "coordinates": [106.8203054, -6.1945302]}, "properties": {"kind": "tree", "name": ""}}, {"type": "Feature", "geometry": {"type": "Point", "coordinates": [106.8221717, -6.1945894]}, "properties": {"kind": "tree", "name": ""}}, {"type": "Feature", "geometry": {"type": "Point", "coordinates": [106.8202512, -6.1942466]}, "properties": {"kind": "tree", "name": ""}}, {"type": "Feature", "geometry": {"type": "Point", "coordinates": [106.8223955, -6.1947376]}, "properties": {"kind": "tree", "name": ""}}, {"type": "Feature", "geometry": {"type": "Point", "coordinates": [106.8223887, -6.1947019]}, "properties": {"kind": "tree", "name": ""}}, {"type": "Feature", "geometry": {"type": "Point", "coordinates": [106.8223505, -6.1950101]}, "properties": {"kind": "tree", "name": ""}}, {"type": "Feature", "geometry": {"type": "Point", "coordinates": [106.823511, -6.1955271]}, "properties": {"kind": "tree", "name": ""}}, {"type": "Feature", "geometry": {"type": "Point", "coordinates": [106.8235803, -6.1955287]}, "properties": {"kind": "tree", "name": ""}}, {"type": "Feature", "geometry": {"type": "Point", "coordinates": [106.8236141, -6.1955413]}, "properties": {"kind": "tree", "name": ""}}, {"type": "Feature", "geometry": {"type": "Point", "coordinates": [106.8236411, -6.195564]}, "properties": {"kind": "tree", "name": ""}}, {"type": "Feature", "geometry": {"type": "Point", "coordinates": [106.8234443, -6.1955657]}, "properties": {"kind": "tree", "name": ""}}, {"type": "Feature", "geometry": {"type": "Point", "coordinates": [106.8236639, -6.1955968]}, "properties": {"kind": "tree", "name": ""}}, {"type": "Feature", "geometry": {"type": "Point", "coordinates": [106.8236935, -6.1956304]}, "properties": {"kind": "tree", "name": ""}}, {"type": "Feature", "geometry": {"type": "Point", "coordinates": [106.8233708, -6.1956321]}, "properties": {"kind": "tree", "name": ""}}, {"type": "Feature", "geometry": {"type": "Point", "coordinates": [106.8233593, -6.1958175]}, "properties": {"kind": "tree", "name": ""}}, {"type": "Feature", "geometry": {"type": "Point", "coordinates": [106.8233429, -6.1956631]}, "properties": {"kind": "tree", "name": ""}}, {"type": "Feature", "geometry": {"type": "Point", "coordinates": [106.8237311, -6.1956798]}, "properties": {"kind": "tree", "name": ""}}, {"type": "Feature", "geometry": {"type": "Point", "coordinates": [106.823179, -6.1963027]}, "properties": {"kind": "tree", "name": ""}}, {"type": "Feature", "geometry": {"type": "Point", "coordinates": [106.8233125, -6.1957505]}, "properties": {"kind": "tree", "name": ""}}, {"type": "Feature", "geometry": {"type": "Point", "coordinates": [106.8233057, -6.1958395]}, "properties": {"kind": "tree", "name": ""}}, {"type": "Feature", "geometry": {"type": "Point", "coordinates": [106.823309, -6.196263]}, "properties": {"kind": "tree", "name": ""}}, {"type": "Feature", "geometry": {"type": "Point", "coordinates": [106.8227025, -6.1904437]}, "properties": {"kind": "tree", "name": ""}}, {"type": "Feature", "geometry": {"type": "Point", "coordinates": [106.8227011, -6.1904876]}, "properties": {"kind": "tree", "name": ""}}, {"type": "Feature", "geometry": {"type": "Point", "coordinates": [106.8227011, -6.1905282]}, "properties": {"kind": "tree", "name": ""}}, {"type": "Feature", "geometry": {"type": "Point", "coordinates": [106.8226997, -6.1905789]}, "properties": {"kind": "tree", "name": ""}}, {"type": "Feature", "geometry": {"type": "Point", "coordinates": [106.8226984, -6.1906215]}, "properties": {"kind": "tree", "name": ""}}, {"type": "Feature", "geometry": {"type": "Point", "coordinates": [106.8226984, -6.1906748]}, "properties": {"kind": "tree", "name": ""}}, {"type": "Feature", "geometry": {"type": "Point", "coordinates": [106.8226897, -6.1907437]}, "properties": {"kind": "tree", "name": ""}}, {"type": "Feature", "geometry": {"type": "Point", "coordinates": [106.822686, -6.1908649]}, "properties": {"kind": "tree", "name": ""}}, {"type": "Feature", "geometry": {"type": "Point", "coordinates": [106.8226958, -6.1910782]}, "properties": {"kind": "tree", "name": ""}}, {"type": "Feature", "geometry": {"type": "Point", "coordinates": [106.8226655, -6.1909189]}, "properties": {"kind": "tree", "name": ""}}, {"type": "Feature", "geometry": {"type": "Point", "coordinates": [106.8227548, -6.1913472]}, "properties": {"kind": "tree", "name": ""}}, {"type": "Feature", "geometry": {"type": "Point", "coordinates": [106.8227356, -6.1913873]}, "properties": {"kind": "tree", "name": ""}}, {"type": "Feature", "geometry": {"type": "Point", "coordinates": [106.8227606, -6.1914609]}, "properties": {"kind": "tree", "name": ""}}, {"type": "Feature", "geometry": {"type": "Point", "coordinates": [106.8227395, -6.1914753]}, "properties": {"kind": "tree", "name": ""}}, {"type": "Feature", "geometry": {"type": "Point", "coordinates": [106.8227616, -6.1915565]}, "properties": {"kind": "tree", "name": ""}}, {"type": "Feature", "geometry": {"type": "Point", "coordinates": [106.8227327, -6.1915785]}, "properties": {"kind": "tree", "name": ""}}, {"type": "Feature", "geometry": {"type": "Point", "coordinates": [106.8227587, -6.1916119]}, "properties": {"kind": "tree", "name": ""}}, {"type": "Feature", "geometry": {"type": "Point", "coordinates": [106.8227528, -6.1919675]}, "properties": {"kind": "tree", "name": ""}}, {"type": "Feature", "geometry": {"type": "Point", "coordinates": [106.8227514, -6.1920419]}, "properties": {"kind": "tree", "name": ""}}, {"type": "Feature", "geometry": {"type": "Point", "coordinates": [106.8227507, -6.1921196]}, "properties": {"kind": "tree", "name": ""}}, {"type": "Feature", "geometry": {"type": "Point", "coordinates": [106.8223069, -6.1953643]}, "properties": {"kind": "tree", "name": ""}}, {"type": "Feature", "geometry": {"type": "Point", "coordinates": [106.8223079, -6.1954093]}, "properties": {"kind": "tree", "name": ""}}, {"type": "Feature", "geometry": {"type": "Point", "coordinates": [106.8222906, -6.1954246]}, "properties": {"kind": "tree", "name": ""}}, {"type": "Feature", "geometry": {"type": "Point", "coordinates": [106.8222838, -6.1954475]}, "properties": {"kind": "tree", "name": ""}}, {"type": "Feature", "geometry": {"type": "Point", "coordinates": [106.8225242, -6.1955555]}, "properties": {"kind": "tree", "name": ""}}, {"type": "Feature", "geometry": {"type": "Point", "coordinates": [106.8222665, -6.1955689]}, "properties": {"kind": "tree", "name": ""}}, {"type": "Feature", "geometry": {"type": "Point", "coordinates": [106.8225194, -6.1955861]}, "properties": {"kind": "tree", "name": ""}}, {"type": "Feature", "geometry": {"type": "Point", "coordinates": [106.822553, -6.1955899]}, "properties": {"kind": "tree", "name": ""}}, {"type": "Feature", "geometry": {"type": "Point", "coordinates": [106.8221963, -6.1956598]}, "properties": {"kind": "tree", "name": ""}}, {"type": "Feature", "geometry": {"type": "Point", "coordinates": [106.822578, -6.1956195]}, "properties": {"kind": "tree", "name": ""}}, {"type": "Feature", "geometry": {"type": "Point", "coordinates": [106.823308, -6.1961993]}, "properties": {"kind": "tree", "name": ""}}, {"type": "Feature", "geometry": {"type": "Point", "coordinates": [106.8233072, -6.1961475]}, "properties": {"kind": "tree", "name": ""}}, {"type": "Feature", "geometry": {"type": "Point", "coordinates": [106.8233063, -6.1960867]}, "properties": {"kind": "tree", "name": ""}}, {"type": "Feature", "geometry": {"type": "Point", "coordinates": [106.8233053, -6.196023]}, "properties": {"kind": "tree", "name": ""}}, {"type": "Feature", "geometry": {"type": "Point", "coordinates": [106.8233044, -6.1959697]}, "properties": {"kind": "tree", "name": ""}}, {"type": "Feature", "geometry": {"type": "Point", "coordinates": [106.8233034, -6.1959016]}, "properties": {"kind": "tree", "name": ""}}, {"type": "Feature", "geometry": {"type": "Point", "coordinates": [106.8211235, -6.195576]}, "properties": {"kind": "tree", "name": ""}}, {"type": "Feature", "geometry": {"type": "Point", "coordinates": [106.8210735, -6.1955712]}, "properties": {"kind": "tree", "name": ""}}, {"type": "Feature", "geometry": {"type": "Point", "coordinates": [106.8212193, -6.196167]}, "properties": {"kind": "tree", "name": ""}}, {"type": "Feature", "geometry": {"type": "Point", "coordinates": [106.8195173, -6.1947045]}, "properties": {"kind": "tree", "name": ""}}, {"type": "Feature", "geometry": {"type": "Point", "coordinates": [106.8192208, -6.1944077]}, "properties": {"kind": "tree", "name": ""}}, {"type": "Feature", "geometry": {"type": "Point", "coordinates": [106.820223, -6.1946715]}, "properties": {"kind": "tree", "name": ""}}, {"type": "Feature", "geometry": {"type": "Point", "coordinates": [106.8201828, -6.1946649]}, "properties": {"kind": "tree", "name": ""}}, {"type": "Feature", "geometry": {"type": "Point", "coordinates": [106.8201009, -6.1946604]}, "properties": {"kind": "tree", "name": ""}}, {"type": "Feature", "geometry": {"type": "Point", "coordinates": [106.8199626, -6.1961002]}, "properties": {"kind": "tree", "name": ""}}, {"type": "Feature", "geometry": {"type": "Point", "coordinates": [106.8194396, -6.1959564]}, "properties": {"kind": "tree", "name": ""}}, {"type": "Feature", "geometry": {"type": "Point", "coordinates": [106.819859, -6.1958855]}, "properties": {"kind": "tree", "name": ""}}, {"type": "Feature", "geometry": {"type": "Point", "coordinates": [106.8199633, -6.1959014]}, "properties": {"kind": "tree", "name": ""}}, {"type": "Feature", "geometry": {"type": "Point", "coordinates": [106.8199122, -6.1959437]}, "properties": {"kind": "tree", "name": ""}}, {"type": "Feature", "geometry": {"type": "Point", "coordinates": [106.8198238, -6.1959628]}, "properties": {"kind": "tree", "name": ""}}, {"type": "Feature", "geometry": {"type": "Point", "coordinates": [106.8197717, -6.1959786]}, "properties": {"kind": "tree", "name": ""}}, {"type": "Feature", "geometry": {"type": "Point", "coordinates": [106.8227237, -6.1959004]}, "properties": {"kind": "tree", "name": ""}}, {"type": "Feature", "geometry": {"type": "Point", "coordinates": [106.82265, -6.1956538]}, "properties": {"kind": "tree", "name": ""}}, {"type": "Feature", "geometry": {"type": "Point", "coordinates": [106.8229079, -6.197262]}, "properties": {"kind": "tree", "name": ""}}, {"type": "Feature", "geometry": {"type": "Point", "coordinates": [106.822912, -6.1973134]}, "properties": {"kind": "tree", "name": ""}}, {"type": "Feature", "geometry": {"type": "Point", "coordinates": [106.8226104, -6.196183]}, "properties": {"kind": "tree", "name": ""}}, {"type": "Feature", "geometry": {"type": "Point", "coordinates": [106.8225943, -6.1961226]}, "properties": {"kind": "tree", "name": ""}}, {"type": "Feature", "geometry": {"type": "Point", "coordinates": [106.8226239, -6.1960503]}, "properties": {"kind": "tree", "name": ""}}, {"type": "Feature", "geometry": {"type": "Point", "coordinates": [106.8225437, -6.1959571]}, "properties": {"kind": "tree", "name": ""}}, {"type": "Feature", "geometry": {"type": "Point", "coordinates": [106.8225369, -6.195879]}, "properties": {"kind": "tree", "name": ""}}, {"type": "Feature", "geometry": {"type": "Point", "coordinates": [106.8194068, -6.196157]}, "properties": {"kind": "tree", "name": ""}}, {"type": "Feature", "geometry": {"type": "Point", "coordinates": [106.8186278, -6.1952994]}, "properties": {"kind": "tree", "name": ""}}, {"type": "Feature", "geometry": {"type": "Point", "coordinates": [106.8230386, -6.1942821]}, "properties": {"kind": "tree", "name": ""}}, {"type": "Feature", "geometry": {"type": "Point", "coordinates": [106.8230278, -6.1943065]}, "properties": {"kind": "tree", "name": ""}}, {"type": "Feature", "geometry": {"type": "Point", "coordinates": [106.8230144, -6.1943285]}, "properties": {"kind": "tree", "name": ""}}, {"type": "Feature", "geometry": {"type": "Point", "coordinates": [106.8250291, -6.1953738]}, "properties": {"kind": "tree", "name": ""}}, {"type": "Feature", "geometry": {"type": "Point", "coordinates": [106.8221672, -6.1948885]}, "properties": {"kind": "tree", "name": ""}}, {"type": "Feature", "geometry": {"type": "Point", "coordinates": [106.8221672, -6.1950098]}, "properties": {"kind": "tree", "name": ""}}, {"type": "Feature", "geometry": {"type": "Point", "coordinates": [106.8219915, -6.1947738]}, "properties": {"kind": "tree", "name": ""}}, {"type": "Feature", "geometry": {"type": "Point", "coordinates": [106.8219888, -6.1946965]}, "properties": {"kind": "tree", "name": ""}}, {"type": "Feature", "geometry": {"type": "Point", "coordinates": [106.8220639, -6.1946991]}, "properties": {"kind": "tree", "name": ""}}, {"type": "Feature", "geometry": {"type": "Point", "coordinates": [106.8221109, -6.1947138]}, "properties": {"kind": "tree", "name": ""}}, {"type": "Feature", "geometry": {"type": "Point", "coordinates": [106.8220505, -6.1947765]}, "properties": {"kind": "tree", "name": ""}}, {"type": "Feature", "geometry": {"type": "Point", "coordinates": [106.8221068, -6.1947698]}, "properties": {"kind": "tree", "name": ""}}, {"type": "Feature", "geometry": {"type": "Point", "coordinates": [106.8221444, -6.1948085]}, "properties": {"kind": "tree", "name": ""}}, {"type": "Feature", "geometry": {"type": "Point", "coordinates": [106.8221726, -6.1948498]}, "properties": {"kind": "tree", "name": ""}}, {"type": "Feature", "geometry": {"type": "Point", "coordinates": [106.8222155, -6.1948818]}, "properties": {"kind": "tree", "name": ""}}, {"type": "Feature", "geometry": {"type": "Point", "coordinates": [106.8222128, -6.1949445]}, "properties": {"kind": "tree", "name": ""}}, {"type": "Feature", "geometry": {"type": "Point", "coordinates": [106.8222155, -6.1950031]}, "properties": {"kind": "tree", "name": ""}}, {"type": "Feature", "geometry": {"type": "Point", "coordinates": [106.822198, -6.1950431]}, "properties": {"kind": "tree", "name": ""}}, {"type": "Feature", "geometry": {"type": "Point", "coordinates": [106.8222839, -6.1950711]}, "properties": {"kind": "tree", "name": ""}}, {"type": "Feature", "geometry": {"type": "Point", "coordinates": [106.8222718, -6.1950458]}, "properties": {"kind": "tree", "name": ""}}, {"type": "Feature", "geometry": {"type": "Point", "coordinates": [106.8222651, -6.1950951]}, "properties": {"kind": "tree", "name": ""}}, {"type": "Feature", "geometry": {"type": "Point", "coordinates": [106.8258981, -6.196471]}, "properties": {"kind": "tree", "name": ""}}, {"type": "Feature", "geometry": {"type": "Point", "coordinates": [106.8259491, -6.196475]}, "properties": {"kind": "tree", "name": ""}}, {"type": "Feature", "geometry": {"type": "Point", "coordinates": [106.825996, -6.1964804]}, "properties": {"kind": "tree", "name": ""}}, {"type": "Feature", "geometry": {"type": "Point", "coordinates": [106.8260953, -6.1964884]}, "properties": {"kind": "tree", "name": ""}}, {"type": "Feature", "geometry": {"type": "Point", "coordinates": [106.8261664, -6.1964884]}, "properties": {"kind": "tree", "name": ""}}, {"type": "Feature", "geometry": {"type": "Point", "coordinates": [106.826798, -6.1966044]}, "properties": {"kind": "tree", "name": ""}}, {"type": "Feature", "geometry": {"type": "Point", "coordinates": [106.8267497, -6.196587]}, "properties": {"kind": "tree", "name": ""}}, {"type": "Feature", "geometry": {"type": "Point", "coordinates": [106.8267095, -6.196583]}, "properties": {"kind": "tree", "name": ""}}, {"type": "Feature", "geometry": {"type": "Point", "coordinates": [106.8266585, -6.1965724]}, "properties": {"kind": "tree", "name": ""}}, {"type": "Feature", "geometry": {"type": "Point", "coordinates": [106.826617, -6.1965697]}, "properties": {"kind": "tree", "name": ""}}, {"type": "Feature", "geometry": {"type": "Point", "coordinates": [106.8263796, -6.196531]}, "properties": {"kind": "tree", "name": ""}}, {"type": "Feature", "geometry": {"type": "Point", "coordinates": [106.8264413, -6.1965297]}, "properties": {"kind": "tree", "name": ""}}, {"type": "Feature", "geometry": {"type": "Point", "coordinates": [106.8265177, -6.1965497]}, "properties": {"kind": "tree", "name": ""}}, {"type": "Feature", "geometry": {"type": "Point", "coordinates": [106.8263246, -6.196527]}, "properties": {"kind": "tree", "name": ""}}, {"type": "Feature", "geometry": {"type": "Point", "coordinates": [106.826452, -6.1956644]}, "properties": {"kind": "tree", "name": ""}}, {"type": "Feature", "geometry": {"type": "Point", "coordinates": [106.8264493, -6.1957044]}, "properties": {"kind": "tree", "name": ""}}, {"type": "Feature", "geometry": {"type": "Point", "coordinates": [106.8262656, -6.1957751]}, "properties": {"kind": "tree", "name": ""}}, {"type": "Feature", "geometry": {"type": "Point", "coordinates": [106.8264587, -6.1957897]}, "properties": {"kind": "tree", "name": ""}}, {"type": "Feature", "geometry": {"type": "Point", "coordinates": [106.8264909, -6.1957911]}, "properties": {"kind": "tree", "name": ""}}, {"type": "Feature", "geometry": {"type": "Point", "coordinates": [106.8265499, -6.1957977]}, "properties": {"kind": "tree", "name": ""}}, {"type": "Feature", "geometry": {"type": "Point", "coordinates": [106.8266036, -6.1958017]}, "properties": {"kind": "tree", "name": ""}}, {"type": "Feature", "geometry": {"type": "Point", "coordinates": [106.8266813, -6.1958297]}, "properties": {"kind": "tree", "name": ""}}, {"type": "Feature", "geometry": {"type": "Point", "coordinates": [106.826676, -6.1959231]}, "properties": {"kind": "tree", "name": ""}}, {"type": "Feature", "geometry": {"type": "Point", "coordinates": [106.8265124, -6.1959111]}, "properties": {"kind": "tree", "name": ""}}, {"type": "Feature", "geometry": {"type": "Point", "coordinates": [106.8263555, -6.1958764]}, "properties": {"kind": "tree", "name": ""}}, {"type": "Feature", "geometry": {"type": "Point", "coordinates": [106.8261583, -6.1958431]}, "properties": {"kind": "tree", "name": ""}}, {"type": "Feature", "geometry": {"type": "Point", "coordinates": [106.8257761, -6.1956871]}, "properties": {"kind": "tree", "name": ""}}, {"type": "Feature", "geometry": {"type": "Point", "coordinates": [106.8256943, -6.1956924]}, "properties": {"kind": "tree", "name": ""}}, {"type": "Feature", "geometry": {"type": "Point", "coordinates": [106.825866, -6.1957244]}, "properties": {"kind": "tree", "name": ""}}, {"type": "Feature", "geometry": {"type": "Point", "coordinates": [106.825882, -6.1958071]}, "properties": {"kind": "tree", "name": ""}}, {"type": "Feature", "geometry": {"type": "Point", "coordinates": [106.8260269, -6.1957484]}, "properties": {"kind": "tree", "name": ""}}, {"type": "Feature", "geometry": {"type": "Point", "coordinates": [106.8256634, -6.1957644]}, "properties": {"kind": "tree", "name": ""}}, {"type": "Feature", "geometry": {"type": "Point", "coordinates": [106.825756, -6.1958097]}, "properties": {"kind": "tree", "name": ""}}, {"type": "Feature", "geometry": {"type": "Point", "coordinates": [106.8251404, -6.1957577]}, "properties": {"kind": "tree", "name": ""}}, {"type": "Feature", "geometry": {"type": "Point", "coordinates": [106.825182, -6.1957377]}, "properties": {"kind": "tree", "name": ""}}, {"type": "Feature", "geometry": {"type": "Point", "coordinates": [106.8252262, -6.1957311]}, "properties": {"kind": "tree", "name": ""}}, {"type": "Feature", "geometry": {"type": "Point", "coordinates": [106.8253376, -6.1957284]}, "properties": {"kind": "tree", "name": ""}}, {"type": "Feature", "geometry": {"type": "Point", "coordinates": [106.8254945, -6.1957391]}, "properties": {"kind": "tree", "name": ""}}, {"type": "Feature", "geometry": {"type": "Point", "coordinates": [106.8255065, -6.1961337]}, "properties": {"kind": "tree", "name": ""}}, {"type": "Feature", "geometry": {"type": "Point", "coordinates": [106.8254703, -6.1961124]}, "properties": {"kind": "tree", "name": ""}}, {"type": "Feature", "geometry": {"type": "Point", "coordinates": [106.8253791, -6.1961444]}, "properties": {"kind": "tree", "name": ""}}, {"type": "Feature", "geometry": {"type": "Point", "coordinates": [106.8251069, -6.1963097]}, "properties": {"kind": "tree", "name": ""}}, {"type": "Feature", "geometry": {"type": "Point", "coordinates": [106.8250935, -6.1961924]}, "properties": {"kind": "tree", "name": ""}}, {"type": "Feature", "geometry": {"type": "Point", "coordinates": [106.8250573, -6.1962817]}, "properties": {"kind": "tree", "name": ""}}, {"type": "Feature", "geometry": {"type": "Point", "coordinates": [106.825068, -6.1963671]}, "properties": {"kind": "tree", "name": ""}}, {"type": "Feature", "geometry": {"type": "Point", "coordinates": [106.8251605, -6.1963764]}, "properties": {"kind": "tree", "name": ""}}, {"type": "Feature", "geometry": {"type": "Point", "coordinates": [106.8252195, -6.1963884]}, "properties": {"kind": "tree", "name": ""}}, {"type": "Feature", "geometry": {"type": "Point", "coordinates": [106.8253067, -6.1963884]}, "properties": {"kind": "tree", "name": ""}}, {"type": "Feature", "geometry": {"type": "Point", "coordinates": [106.8254073, -6.196415]}, "properties": {"kind": "tree", "name": ""}}, {"type": "Feature", "geometry": {"type": "Point", "coordinates": [106.8254717, -6.1964244]}, "properties": {"kind": "tree", "name": ""}}, {"type": "Feature", "geometry": {"type": "Point", "coordinates": [106.8255454, -6.1964244]}, "properties": {"kind": "tree", "name": ""}}, {"type": "Feature", "geometry": {"type": "Point", "coordinates": [106.8256178, -6.1964417]}, "properties": {"kind": "tree", "name": ""}}, {"type": "Feature", "geometry": {"type": "Point", "coordinates": [106.8256849, -6.1964497]}, "properties": {"kind": "tree", "name": ""}}, {"type": "Feature", "geometry": {"type": "Point", "coordinates": [106.8198793, -6.1942818]}, "properties": {"kind": "tree", "name": ""}}, {"type": "Feature", "geometry": {"type": "Point", "coordinates": [106.8199436, -6.1943071]}, "properties": {"kind": "tree", "name": ""}}, {"type": "Feature", "geometry": {"type": "Point", "coordinates": [106.8200067, -6.1943165]}, "properties": {"kind": "tree", "name": ""}}, {"type": "Feature", "geometry": {"type": "Point", "coordinates": [106.8200684, -6.1943271]}, "properties": {"kind": "tree", "name": ""}}, {"type": "Feature", "geometry": {"type": "Point", "coordinates": [106.8201274, -6.1943378]}, "properties": {"kind": "tree", "name": ""}}, {"type": "Feature", "geometry": {"type": "Point", "coordinates": [106.8201783, -6.1943471]}, "properties": {"kind": "tree", "name": ""}}, {"type": "Feature", "geometry": {"type": "Point", "coordinates": [106.8202615, -6.1943591]}, "properties": {"kind": "tree", "name": ""}}, {"type": "Feature", "geometry": {"type": "Point", "coordinates": [106.8203272, -6.1943791]}, "properties": {"kind": "tree", "name": ""}}, {"type": "Feature", "geometry": {"type": "Point", "coordinates": [106.8204023, -6.1943871]}, "properties": {"kind": "tree", "name": ""}}, {"type": "Feature", "geometry": {"type": "Point", "coordinates": [106.8205069, -6.1943858]}, "properties": {"kind": "tree", "name": ""}}, {"type": "Feature", "geometry": {"type": "Point", "coordinates": [106.8205498, -6.1940432]}, "properties": {"kind": "tree", "name": ""}}, {"type": "Feature", "geometry": {"type": "Point", "coordinates": [106.8214671, -6.1954684]}, "properties": {"kind": "tree", "name": ""}}, {"type": "Feature", "geometry": {"type": "Point", "coordinates": [106.8215489, -6.1955698]}, "properties": {"kind": "tree", "name": ""}}, {"type": "Feature", "geometry": {"type": "Point", "coordinates": [106.8213022, -6.1953898]}, "properties": {"kind": "tree", "name": ""}}, {"type": "Feature", "geometry": {"type": "Point", "coordinates": [106.8213478, -6.1955311]}, "properties": {"kind": "tree", "name": ""}}, {"type": "Feature", "geometry": {"type": "Point", "coordinates": [106.8213277, -6.1952964]}, "properties": {"kind": "tree", "name": ""}}, {"type": "Feature", "geometry": {"type": "Point", "coordinates": [106.821325, -6.1952511]}, "properties": {"kind": "tree", "name": ""}}, {"type": "Feature", "geometry": {"type": "Point", "coordinates": [106.8211868, -6.1950604]}, "properties": {"kind": "tree", "name": ""}}, {"type": "Feature", "geometry": {"type": "Point", "coordinates": [106.8212056, -6.1951711]}, "properties": {"kind": "tree", "name": ""}}, {"type": "Feature", "geometry": {"type": "Point", "coordinates": [106.8215543, -6.1950164]}, "properties": {"kind": "tree", "name": ""}}, {"type": "Feature", "geometry": {"type": "Point", "coordinates": [106.8215623, -6.1951538]}, "properties": {"kind": "tree", "name": ""}}, {"type": "Feature", "geometry": {"type": "Point", "coordinates": [106.8215623, -6.1954018]}, "properties": {"kind": "tree", "name": ""}}, {"type": "Feature", "geometry": {"type": "Point", "coordinates": [106.8234277, -6.1882022]}, "properties": {"kind": "tree", "name": ""}}, {"type": "Feature", "geometry": {"type": "Point", "coordinates": [106.8235753, -6.1882554]}, "properties": {"kind": "tree", "name": ""}}, {"type": "Feature", "geometry": {"type": "Point", "coordinates": [106.8237273, -6.188254]}, "properties": {"kind": "tree", "name": ""}}, {"type": "Feature", "geometry": {"type": "Point", "coordinates": [106.8234263, -6.1883562]}, "properties": {"kind": "tree", "name": ""}}, {"type": "Feature", "geometry": {"type": "Point", "coordinates": [106.8233539, -6.1874223]}, "properties": {"kind": "tree", "name": ""}}, {"type": "Feature", "geometry": {"type": "Point", "coordinates": [106.8233495, -6.1874957]}, "properties": {"kind": "tree", "name": ""}}, {"type": "Feature", "geometry": {"type": "Point", "coordinates": [106.829574, -6.1963046]}, "properties": {"kind": "green_area", "name": "Taman Menteng"}}, {"type": "Feature", "geometry": {"type": "Point", "coordinates": [106.8262618, -6.1968412]}, "properties": {"kind": "green_area", "name": "Taman Panarukan"}}, {"type": "Feature", "geometry": {"type": "Point", "coordinates": [106.8272853, -6.1978168]}, "properties": {"kind": "green_area", "name": "Taman Panarukan"}}, {"type": "Feature", "geometry": {"type": "Point", "coordinates": [106.824619, -6.1991818]}, "properties": {"kind": "green_area", "name": ""}}, {"type": "Feature", "geometry": {"type": "Point", "coordinates": [106.8208291, -6.185487]}, "properties": {"kind": "green_area", "name": ""}}, {"type": "Feature", "geometry": {"type": "Point", "coordinates": [106.82244, -6.1921636]}, "properties": {"kind": "green_area", "name": ""}}, {"type": "Feature", "geometry": {"type": "Point", "coordinates": [106.8236414, -6.1953417]}, "properties": {"kind": "green_area", "name": ""}}, {"type": "Feature", "geometry": {"type": "Point", "coordinates": [106.8223713, -6.1914016]}, "properties": {"kind": "green_area", "name": ""}}, {"type": "Feature", "geometry": {"type": "Point", "coordinates": [106.8205283, -6.1948005]}, "properties": {"kind": "green_area", "name": "Mini Space Shuttle Park"}}, {"type": "Feature", "geometry": {"type": "Point", "coordinates": [106.8248445, -6.1993941]}, "properties": {"kind": "green_area", "name": "Taman Sumenep"}}, {"type": "Feature", "geometry": {"type": "Point", "coordinates": [106.8253262, -6.188355]}, "properties": {"kind": "green_area", "name": ""}}, {"type": "Feature", "geometry": {"type": "Point", "coordinates": [106.8254121, -6.1882777]}, "properties": {"kind": "green_area", "name": ""}}, {"type": "Feature", "geometry": {"type": "Point", "coordinates": [106.8255406, -6.1901133]}, "properties": {"kind": "green_area", "name": ""}}, {"type": "Feature", "geometry": {"type": "Point", "coordinates": [106.8238254, -6.1847407]}, "properties": {"kind": "green_area", "name": "Thamrin 10"}}, {"type": "Feature", "geometry": {"type": "Point", "coordinates": [106.8208961, -6.1954909]}, "properties": {"kind": "green_area", "name": ""}}, {"type": "Feature", "geometry": {"type": "Point", "coordinates": [106.8201462, -6.194665]}, "properties": {"kind": "green_area", "name": ""}}, {"type": "Feature", "geometry": {"type": "Point", "coordinates": [106.8224358, -6.194544]}, "properties": {"kind": "green_area", "name": ""}}, {"type": "Feature", "geometry": {"type": "Point", "coordinates": [106.8229091, -6.197236]}, "properties": {"kind": "green_area", "name": ""}}, {"type": "Feature", "geometry": {"type": "Point", "coordinates": [106.788344, -6.2734361]}, "properties": {"kind": "green_area", "name": "Pondok Indah Golf Course"}}, {"type": "Feature", "geometry": {"type": "Point", "coordinates": [106.7981655, -6.2855413]}, "properties": {"kind": "green_area", "name": ""}}, {"type": "Feature", "geometry": {"type": "Point", "coordinates": [106.7964559, -6.2844317]}, "properties": {"kind": "green_area", "name": ""}}, {"type": "Feature", "geometry": {"type": "Point", "coordinates": [106.7996001, -6.2768487]}, "properties": {"kind": "green_area", "name": "RPTRA Taman Gajah"}}, {"type": "Feature", "geometry": {"type": "Point", "coordinates": [106.7943353, -6.2793616]}, "properties": {"kind": "green_area", "name": "RPTRA Bahari"}}, {"type": "Feature", "geometry": {"type": "Point", "coordinates": [106.7971788, -6.2807488]}, "properties": {"kind": "green_area", "name": "Urban Forest Cipete"}}, {"type": "Feature", "geometry": {"type": "Point", "coordinates": [106.8269782, -6.2011114]}, "properties": {"kind": "green_area", "name": "Taman Lawang"}}, {"type": "Feature", "geometry": {"type": "Point", "coordinates": [106.8265485, -6.2012742]}, "properties": {"kind": "green_area", "name": "Taman Sumenep"}}, {"type": "Feature", "geometry": {"type": "Point", "coordinates": [106.8276101, -6.202374]}, "properties": {"kind": "green_area", "name": "Taman Viaduct Latuharhary"}}, {"type": "Feature", "geometry": {"type": "Point", "coordinates": [106.8227382, -6.2009241]}, "properties": {"kind": "green_area", "name": "Taman Dukuh Atas"}}, {"type": "Feature", "geometry": {"type": "Point", "coordinates": [106.8247702, -6.2060224]}, "properties": {"kind": "green_area", "name": "Unused Landbank"}}, {"type": "Feature", "geometry": {"type": "Point", "coordinates": [106.817852, -6.2055671]}, "properties": {"kind": "green_area", "name": ""}}, {"type": "Feature", "geometry": {"type": "Point", "coordinates": [106.8179229, -6.2058856]}, "properties": {"kind": "green_area", "name": ""}}, {"type": "Feature", "geometry": {"type": "Point", "coordinates": [106.8228321, -6.2038746]}, "properties": {"kind": "green_area", "name": "Dukuh Atas Skatepark"}}, {"type": "Feature", "geometry": {"type": "Point", "coordinates": [106.8248141, -6.2023639]}, "properties": {"kind": "green_area", "name": "Taman Kudus"}}, {"type": "Feature", "geometry": {"type": "Point", "coordinates": [106.8217655, -6.2021897]}, "properties": {"kind": "green_area", "name": "Jakarta Creative Zone Riverview"}}, {"type": "Feature", "geometry": {"type": "Point", "coordinates": [106.7863254, -6.2891444]}, "properties": {"kind": "green_area", "name": ""}}, {"type": "Feature", "geometry": {"type": "Point", "coordinates": [106.7851174, -6.2936121]}, "properties": {"kind": "green_area", "name": ""}}, {"type": "Feature", "geometry": {"type": "Point", "coordinates": [106.7863718, -6.2936569]}, "properties": {"kind": "green_area", "name": ""}}, {"type": "Feature", "geometry": {"type": "Point", "coordinates": [106.7852575, -6.292804]}, "properties": {"kind": "green_area", "name": ""}}, {"type": "Feature", "geometry": {"type": "Point", "coordinates": [106.7958353, -6.2941152]}, "properties": {"kind": "green_area", "name": ""}}, {"type": "Feature", "geometry": {"type": "Point", "coordinates": [106.7964956, -6.2944862]}, "properties": {"kind": "green_area", "name": ""}}, {"type": "Feature", "geometry": {"type": "Point", "coordinates": [106.796588, -6.2929269]}, "properties": {"kind": "green_area", "name": ""}}, {"type": "Feature", "geometry": {"type": "Point", "coordinates": [106.7963266, -6.2955743]}, "properties": {"kind": "green_area", "name": ""}}, {"type": "Feature", "geometry": {"type": "Point", "coordinates": [106.7979653, -6.2682457]}, "properties": {"kind": "green_area", "name": ""}}, {"type": "Feature", "geometry": {"type": "Point", "coordinates": [106.794024, -6.2690986]}, "properties": {"kind": "green_area", "name": ""}}, {"type": "Feature", "geometry": {"type": "Point", "coordinates": [106.8052044, -6.218674]}, "properties": {"kind": "tree", "name": ""}}, {"type": "Feature", "geometry": {"type": "Point", "coordinates": [106.8041767, -6.21853]}, "properties": {"kind": "tree", "name": ""}}, {"type": "Feature", "geometry": {"type": "Point", "coordinates": [106.8047592, -6.2185411]}, "properties": {"kind": "tree", "name": ""}}, {"type": "Feature", "geometry": {"type": "Point", "coordinates": [106.8049757, -6.2186807]}, "properties": {"kind": "tree", "name": ""}}, {"type": "Feature", "geometry": {"type": "Point", "coordinates": [106.8041707, -6.2186749]}, "properties": {"kind": "tree", "name": ""}}, {"type": "Feature", "geometry": {"type": "Point", "coordinates": [106.8047589, -6.2186748]}, "properties": {"kind": "tree", "name": ""}}, {"type": "Feature", "geometry": {"type": "Point", "coordinates": [106.8049718, -6.2185361]}, "properties": {"kind": "tree", "name": ""}}, {"type": "Feature", "geometry": {"type": "Point", "coordinates": [106.8044748, -6.21867]}, "properties": {"kind": "tree", "name": ""}}, {"type": "Feature", "geometry": {"type": "Point", "coordinates": [106.8048845, -6.218686]}, "properties": {"kind": "tree", "name": ""}}, {"type": "Feature", "geometry": {"type": "Point", "coordinates": [106.8044757, -6.218536]}, "properties": {"kind": "tree", "name": ""}}, {"type": "Feature", "geometry": {"type": "Point", "coordinates": [106.8048799, -6.2185377]}, "properties": {"kind": "tree", "name": ""}}, {"type": "Feature", "geometry": {"type": "Point", "coordinates": [106.8045433, -6.2185421]}, "properties": {"kind": "tree", "name": ""}}, {"type": "Feature", "geometry": {"type": "Point", "coordinates": [106.8053459, -6.2185454]}, "properties": {"kind": "tree", "name": ""}}, {"type": "Feature", "geometry": {"type": "Point", "coordinates": [106.8045365, -6.2186736]}, "properties": {"kind": "tree", "name": ""}}, {"type": "Feature", "geometry": {"type": "Point", "coordinates": [106.8053493, -6.2186728]}, "properties": {"kind": "tree", "name": ""}}, {"type": "Feature", "geometry": {"type": "Point", "coordinates": [106.8044016, -6.2185312]}, "properties": {"kind": "tree", "name": ""}}, {"type": "Feature", "geometry": {"type": "Point", "coordinates": [106.8046085, -6.2185372]}, "properties": {"kind": "tree", "name": ""}}, {"type": "Feature", "geometry": {"type": "Point", "coordinates": [106.8052766, -6.2186706]}, "properties": {"kind": "tree", "name": ""}}, {"type": "Feature", "geometry": {"type": "Point", "coordinates": [106.8043948, -6.2186713]}, "properties": {"kind": "tree", "name": ""}}, {"type": "Feature", "geometry": {"type": "Point", "coordinates": [106.8046078, -6.2186761]}, "properties": {"kind": "tree", "name": ""}}, {"type": "Feature", "geometry": {"type": "Point", "coordinates": [106.8052733, -6.2185467]}, "properties": {"kind": "tree", "name": ""}}, {"type": "Feature", "geometry": {"type": "Point", "coordinates": [106.8042582, -6.2186812]}, "properties": {"kind": "tree", "name": ""}}, {"type": "Feature", "geometry": {"type": "Point", "coordinates": [106.8046774, -6.2186737]}, "properties": {"kind": "tree", "name": ""}}, {"type": "Feature", "geometry": {"type": "Point", "coordinates": [106.8052012, -6.2185412]}, "properties": {"kind": "tree", "name": ""}}, {"type": "Feature", "geometry": {"type": "Point", "coordinates": [106.804264, -6.2185283]}, "properties": {"kind": "tree", "name": ""}}, {"type": "Feature", "geometry": {"type": "Point", "coordinates": [106.8046796, -6.2185378]}, "properties": {"kind": "tree", "name": ""}}, {"type": "Feature", "geometry": {"type": "Point", "coordinates": [106.8028036, -6.2202138]}, "properties": {"kind": "tree", "name": ""}}, {"type": "Feature", "geometry": {"type": "Point", "coordinates": [106.802907, -6.2201925]}, "properties": {"kind": "tree", "name": ""}}, {"type": "Feature", "geometry": {"type": "Point", "coordinates": [106.8024365, -6.2204129]}, "properties": {"kind": "tree", "name": ""}}, {"type": "Feature", "geometry": {"type": "Point", "coordinates": [106.8029432, -6.220182]}, "properties": {"kind": "tree", "name": ""}}, {"type": "Feature", "geometry": {"type": "Point", "coordinates": [106.802977, -6.2201727]}, "properties": {"kind": "tree", "name": ""}}, {"type": "Feature", "geometry": {"type": "Point", "coordinates": [106.8028474, -6.2202038]}, "properties": {"kind": "tree", "name": ""}}, {"type": "Feature", "geometry": {"type": "Point", "coordinates": [106.8027076, -6.2201776]}, "properties": {"kind": "tree", "name": ""}}, {"type": "Feature", "geometry": {"type": "Point", "coordinates": [106.803105, -6.2201278]}, "properties": {"kind": "tree", "name": ""}}, {"type": "Feature", "geometry": {"type": "Point", "coordinates": [106.8031557, -6.2201116]}, "properties": {"kind": "tree", "name": ""}}, {"type": "Feature", "geometry": {"type": "Point", "coordinates": [106.8030597, -6.2201475]}, "properties": {"kind": "tree", "name": ""}}, {"type": "Feature", "geometry": {"type": "Point", "coordinates": [106.8032387, -6.2200123]}, "properties": {"kind": "tree", "name": ""}}, {"type": "Feature", "geometry": {"type": "Point", "coordinates": [106.8038567, -6.2192011]}, "properties": {"kind": "tree", "name": ""}}, {"type": "Feature", "geometry": {"type": "Point", "coordinates": [106.802154, -6.220087]}, "properties": {"kind": "tree", "name": ""}}, {"type": "Feature", "geometry": {"type": "Point", "coordinates": [106.8022906, -6.2201429]}, "properties": {"kind": "tree", "name": ""}}, {"type": "Feature", "geometry": {"type": "Point", "coordinates": [106.8023837, -6.2201385]}, "properties": {"kind": "tree", "name": ""}}, {"type": "Feature", "geometry": {"type": "Point", "coordinates": [106.8068111, -6.2168182]}, "properties": {"kind": "tree", "name": ""}}, {"type": "Feature", "geometry": {"type": "Point", "coordinates": [106.8066841, -6.2167644]}, "properties": {"kind": "tree", "name": ""}}, {"type": "Feature", "geometry": {"type": "Point", "coordinates": [106.8068837, -6.2170125]}, "properties": {"kind": "tree", "name": ""}}, {"type": "Feature", "geometry": {"type": "Point", "coordinates": [106.8066837, -6.2168154]}, "properties": {"kind": "tree", "name": ""}}, {"type": "Feature", "geometry": {"type": "Point", "coordinates": [106.8068862, -6.2167237]}, "properties": {"kind": "tree", "name": ""}}, {"type": "Feature", "geometry": {"type": "Point", "coordinates": [106.8068874, -6.21678]}, "properties": {"kind": "tree", "name": ""}}, {"type": "Feature", "geometry": {"type": "Point", "coordinates": [106.806366, -6.2177974]}, "properties": {"kind": "tree", "name": ""}}, {"type": "Feature", "geometry": {"type": "Point", "coordinates": [106.8055185, -6.2186666]}, "properties": {"kind": "tree", "name": ""}}, {"type": "Feature", "geometry": {"type": "Point", "coordinates": [106.8063684, -6.2179273]}, "properties": {"kind": "tree", "name": ""}}, {"type": "Feature", "geometry": {"type": "Point", "coordinates": [106.8066179, -6.2167627]}, "properties": {"kind": "tree", "name": ""}}, {"type": "Feature", "geometry": {"type": "Point", "coordinates": [106.8068126, -6.2167467]}, "properties": {"kind": "tree", "name": ""}}, {"type": "Feature", "geometry": {"type": "Point", "coordinates": [106.8055191, -6.2185374]}, "properties": {"kind": "tree", "name": ""}}, {"type": "Feature", "geometry": {"type": "Point", "coordinates": [106.8067208, -6.216871]}, "properties": {"kind": "tree", "name": ""}}, {"type": "Feature", "geometry": {"type": "Point", "coordinates": [106.8068869, -6.2168458]}, "properties": {"kind": "tree", "name": ""}}, {"type": "Feature", "geometry": {"type": "Point", "coordinates": [106.8068849, -6.2169187]}, "properties": {"kind": "tree", "name": ""}}, {"type": "Feature", "geometry": {"type": "Point", "coordinates": [106.8068845, -6.2169655]}, "properties": {"kind": "tree", "name": ""}}, {"type": "Feature", "geometry": {"type": "Point", "coordinates": [106.8038457, -6.2206421]}, "properties": {"kind": "tree", "name": ""}}, {"type": "Feature", "geometry": {"type": "Point", "coordinates": [106.8096779, -6.2262633]}, "properties": {"kind": "green_area", "name": "Habitat Park SCBD"}}, {"type": "Feature", "geometry": {"type": "Point", "coordinates": [106.8098533, -6.2248004]}, "properties": {"kind": "tree", "name": ""}}, {"type": "Feature", "geometry": {"type": "Point", "coordinates": [106.8096902, -6.2249634]}, "properties": {"kind": "tree", "name": ""}}, {"type": "Feature", "geometry": {"type": "Point", "coordinates": [106.8097156, -6.225007]}, "properties": {"kind": "tree", "name": ""}}, {"type": "Feature", "geometry": {"type": "Point", "coordinates": [106.8097578, -6.2250465]}, "properties": {"kind": "tree", "name": ""}}, {"type": "Feature", "geometry": {"type": "Point", "coordinates": [106.8098076, -6.2250625]}, "properties": {"kind": "tree", "name": ""}}, {"type": "Feature", "geometry": {"type": "Point", "coordinates": [106.8098567, -6.2250683]}, "properties": {"kind": "tree", "name": ""}}, {"type": "Feature", "geometry": {"type": "Point", "coordinates": [106.8099192, -6.2250549]}, "properties": {"kind": "tree", "name": ""}}, {"type": "Feature", "geometry": {"type": "Point", "coordinates": [106.8099741, -6.2250263]}, "properties": {"kind": "tree", "name": ""}}, {"type": "Feature", "geometry": {"type": "Point", "coordinates": [106.8100138, -6.2249676]}, "properties": {"kind": "tree", "name": ""}}, {"type": "Feature", "geometry": {"type": "Point", "coordinates": [106.8100183, -6.2249164]}, "properties": {"kind": "tree", "name": ""}}, {"type": "Feature", "geometry": {"type": "Point", "coordinates": [106.809998, -6.224873]}, "properties": {"kind": "tree", "name": ""}}, {"type": "Feature", "geometry": {"type": "Point", "coordinates": [106.8099618, -6.2248344]}, "properties": {"kind": "tree", "name": ""}}, {"type": "Feature", "geometry": {"type": "Point", "coordinates": [106.8099129, -6.2248095]}, "properties": {"kind": "tree", "name": ""}}, {"type": "Feature", "geometry": {"type": "Point", "coordinates": [106.8098096, -6.2248085]}, "properties": {"kind": "tree", "name": ""}}, {"type": "Feature", "geometry": {"type": "Point", "coordinates": [106.8097479, -6.2248307]}, "properties": {"kind": "tree", "name": ""}}, {"type": "Feature", "geometry": {"type": "Point", "coordinates": [106.8097096, -6.2248645]}, "properties": {"kind": "tree", "name": ""}}, {"type": "Feature", "geometry": {"type": "Point", "coordinates": [106.8096803, -6.224919]}, "properties": {"kind": "tree", "name": ""}}, {"type": "Feature", "geometry": {"type": "Point", "coordinates": [106.8095872, -6.2244545]}, "properties": {"kind": "tree", "name": ""}}, {"type": "Feature", "geometry": {"type": "Point", "coordinates": [106.8095286, -6.2245413]}, "properties": {"kind": "tree", "name": ""}}, {"type": "Feature", "geometry": {"type": "Point", "coordinates": [106.8094775, -6.2245265]}, "properties": {"kind": "tree", "name": ""}}, {"type": "Feature", "geometry": {"type": "Point", "coordinates": [106.8096851, -6.2245349]}, "properties": {"kind": "tree", "name": ""}}, {"type": "Feature", "geometry": {"type": "Point", "coordinates": [106.8097436, -6.2245688]}, "properties": {"kind": "tree", "name": ""}}, {"type": "Feature", "geometry": {"type": "Point", "coordinates": [106.8099631, -6.2245594]}, "properties": {"kind": "tree", "name": ""}}, {"type": "Feature", "geometry": {"type": "Point", "coordinates": [106.8099209, -6.2245787]}, "properties": {"kind": "tree", "name": ""}}, {"type": "Feature", "geometry": {"type": "Point", "coordinates": [106.8102515, -6.2250102]}, "properties": {"kind": "tree", "name": ""}}, {"type": "Feature", "geometry": {"type": "Point", "coordinates": [106.8102133, -6.2249856]}, "properties": {"kind": "tree", "name": ""}}, {"type": "Feature", "geometry": {"type": "Point", "coordinates": [106.8102582, -6.2249129]}, "properties": {"kind": "tree", "name": ""}}, {"type": "Feature", "geometry": {"type": "Point", "coordinates": [106.8102354, -6.2248902]}, "properties": {"kind": "tree", "name": ""}}, {"type": "Feature", "geometry": {"type": "Point", "coordinates": [106.8098119, -6.2254496]}, "properties": {"kind": "tree", "name": ""}}, {"type": "Feature", "geometry": {"type": "Point", "coordinates": [106.8099285, -6.2252455]}, "properties": {"kind": "tree", "name": ""}}, {"type": "Feature", "geometry": {"type": "Point", "coordinates": [106.8099251, -6.2252136]}, "properties": {"kind": "tree", "name": ""}}, {"type": "Feature", "geometry": {"type": "Point", "coordinates": [106.8097308, -6.2252598]}, "properties": {"kind": "tree", "name": ""}}, {"type": "Feature", "geometry": {"type": "Point", "coordinates": [106.8097257, -6.2252195]}, "properties": {"kind": "tree", "name": ""}}, {"type": "Feature", "geometry": {"type": "Point", "coordinates": [106.8099403, -6.225416]}, "properties": {"kind": "tree", "name": ""}}, {"type": "Feature", "geometry": {"type": "Point", "coordinates": [106.8099302, -6.225453]}, "properties": {"kind": "tree", "name": ""}}, {"type": "Feature", "geometry": {"type": "Point", "coordinates": [106.8071019, -6.2222554]}, "properties": {"kind": "green_area", "name": "Hutan Kota Gelora Bung Karno"}}, {"type": "Feature", "geometry": {"type": "Point", "coordinates": [106.8131623, -6.2280135]}, "properties": {"kind": "green_area", "name": "Taman Widya Chandra"}}, {"type": "Feature", "geometry": {"type": "Point", "coordinates": [106.8109733, -6.2195516]}, "properties": {"kind": "green_area", "name": ""}}, {"type": "Feature", "geometry": {"type": "Point", "coordinates": [106.8038475, -6.2216246]}, "properties": {"kind": "green_area", "name": "Taman Kota Gelora Bung Karno"}}, {"type": "Feature", "geometry": {"type": "Point", "coordinates": [106.8052822, -6.2169432]}, "properties": {"kind": "green_area", "name": "Taman Kridaloka"}}, {"type": "Feature", "geometry": {"type": "Point", "coordinates": [106.8152572, -6.2260972]}, "properties": {"kind": "green_area", "name": "DJP Park"}}, {"type": "Feature", "geometry": {"type": "Point", "coordinates": [106.8097748, -6.2276972]}, "properties": {"kind": "green_area", "name": "SCBD Park"}}, {"type": "Feature", "geometry": {"type": "Point", "coordinates": [106.8035208, -6.2187022]}, "properties": {"kind": "green_area", "name": "Gelanggang Olahraga Bung Karno"}}, {"type": "Feature", "geometry": {"type": "Point", "coordinates": [106.8060127, -6.2159096]}, "properties": {"kind": "green_area", "name": "Taman Kridaloka"}}, {"type": "Feature", "geometry": {"type": "Point", "coordinates": [106.8149475, -6.2259986]}, "properties": {"kind": "green_area", "name": "DJP"}}, {"type": "Feature", "geometry": {"type": "Point", "coordinates": [106.8063271, -6.2264414]}, "properties": {"kind": "green_area", "name": ""}}, {"type": "Feature", "geometry": {"type": "Point", "coordinates": [106.8062665, -6.2267591]}, "properties": {"kind": "green_area", "name": ""}}, {"type": "Feature", "geometry": {"type": "Point", "coordinates": [106.8066084, -6.2267289]}, "properties": {"kind": "green_area", "name": ""}}, {"type": "Feature", "geometry": {"type": "Point", "coordinates": [106.8065816, -6.2265084]}, "properties": {"kind": "green_area", "name": ""}}, {"type": "Feature", "geometry": {"type": "Point", "coordinates": [106.806427, -6.2266124]}, "properties": {"kind": "green_area", "name": ""}}, {"type": "Feature", "geometry": {"type": "Point", "coordinates": [106.8079341, -6.2271173]}, "properties": {"kind": "green_area", "name": ""}}, {"type": "Feature", "geometry": {"type": "Point", "coordinates": [106.8080456, -6.2272774]}, "properties": {"kind": "green_area", "name": ""}}, {"type": "Feature", "geometry": {"type": "Point", "coordinates": [106.8088406, -6.2283263]}, "properties": {"kind": "green_area", "name": ""}}, {"type": "Feature", "geometry": {"type": "Point", "coordinates": [106.8097161, -6.2296371]}, "properties": {"kind": "green_area", "name": ""}}, {"type": "Feature", "geometry": {"type": "Point", "coordinates": [106.8067573, -6.2169672]}, "properties": {"kind": "shelter", "name": ""}}, {"type": "Feature", "geometry": {"type": "Point", "coordinates": [106.7774209, -6.2831403]}, "properties": {"kind": "green_area", "name": ""}}, {"type": "Feature", "geometry": {"type": "Point", "coordinates": [106.7746611, -6.2942132]}, "properties": {"kind": "green_area", "name": ""}}, {"type": "Feature", "geometry": {"type": "Point", "coordinates": [106.7731576, -6.2950986]}, "properties": {"kind": "green_area", "name": ""}}, {"type": "Feature", "geometry": {"type": "Point", "coordinates": [106.7734636, -6.2930897]}, "properties": {"kind": "green_area", "name": ""}}, {"type": "Feature", "geometry": {"type": "Point", "coordinates": [106.7723919, -6.2929342]}, "properties": {"kind": "green_area", "name": ""}}, {"type": "Feature", "geometry": {"type": "Point", "coordinates": [106.7735983, -6.2842657]}, "properties": {"kind": "green_area", "name": ""}}, {"type": "Feature", "geometry": {"type": "Point", "coordinates": [106.7998324, -6.227674]}, "properties": {"kind": "tree", "name": ""}}, {"type": "Feature", "geometry": {"type": "Point", "coordinates": [106.8006586, -6.2281266]}, "properties": {"kind": "tree", "name": ""}}, {"type": "Feature", "geometry": {"type": "Point", "coordinates": [106.8008114, -6.2280119]}, "properties": {"kind": "tree", "name": ""}}, {"type": "Feature", "geometry": {"type": "Point", "coordinates": [106.8019566, -6.2309341]}, "properties": {"kind": "green_area", "name": "Taman Jenggala"}}, {"type": "Feature", "geometry": {"type": "Point", "coordinates": [106.7968277, -6.2311451]}, "properties": {"kind": "green_area", "name": ""}}, {"type": "Feature", "geometry": {"type": "Point", "coordinates": [106.7994851, -6.2291907]}, "properties": {"kind": "green_area", "name": ""}}, {"type": "Feature", "geometry": {"type": "Point", "coordinates": [106.797916, -6.2225358]}, "properties": {"kind": "green_area", "name": ""}}, {"type": "Feature", "geometry": {"type": "Point", "coordinates": [106.7990896, -6.2309489]}, "properties": {"kind": "green_area", "name": "Taman Daha"}}, {"type": "Feature", "geometry": {"type": "Point", "coordinates": [106.7964428, -6.2229375]}, "properties": {"kind": "green_area", "name": ""}}, {"type": "Feature", "geometry": {"type": "Point", "coordinates": [106.7960538, -6.2231561]}, "properties": {"kind": "green_area", "name": ""}}, {"type": "Feature", "geometry": {"type": "Point", "coordinates": [106.7971777, -6.2256612]}, "properties": {"kind": "green_area", "name": ""}}, {"type": "Feature", "geometry": {"type": "Point", "coordinates": [106.7959613, -6.2255611]}, "properties": {"kind": "green_area", "name": ""}}, {"type": "Feature", "geometry": {"type": "Point", "coordinates": [106.7958326, -6.2254251]}, "properties": {"kind": "green_area", "name": ""}}, {"type": "Feature", "geometry": {"type": "Point", "coordinates": [106.7961209, -6.2262251]}, "properties": {"kind": "green_area", "name": ""}}, {"type": "Feature", "geometry": {"type": "Point", "coordinates": [106.7964093, -6.2208466]}, "properties": {"kind": "green_area", "name": ""}}, {"type": "Feature", "geometry": {"type": "Point", "coordinates": [106.7970442, -6.2208033]}, "properties": {"kind": "green_area", "name": ""}}, {"type": "Feature", "geometry": {"type": "Point", "coordinates": [106.7974587, -6.2218599]}, "properties": {"kind": "green_area", "name": ""}}, {"type": "Feature", "geometry": {"type": "Point", "coordinates": [106.8050068, -6.2307159]}, "properties": {"kind": "green_area", "name": "Taman Pulombangkeng"}}, {"type": "Feature", "geometry": {"type": "Point", "coordinates": [106.8066699, -6.2325474]}, "properties": {"kind": "green_area", "name": "Taman Daksa"}}]}