{"type":"FeatureCollection","features":[{"type":"Feature","geometry":{"coordinates":[106.7310673,-6.5615637],"type":"Point"},"properties":{"fid":1189,"NAMA":"BNI DRAMAGA HALTE","TIPE_1":"TRANSPORTASI","TIPE_2":"HALTE","TIPE_3":"-","TELEPON":"","ALAMAT":"BABAKAN, KEC. DRAMAGA, KABUPATEN BOGOR, JAWA BARAT 16680","ID_PROV":"32","PROVINSI":"JAWA BARAT","ID_KABKOT":"32.01","KABKOT":"BOGOR","ID_KEC":"32.01.30","KECAMATAN":"DRAMAGA","ID_DESA":"32.01.30.2008","DESA":"BABAKAN","LONGITUDE":106.7310673,"LATITUDE":-6.5615637,"STATUS":"BUKA","TANGGAL PENGUMPULAN":"Q2 2024","TANGGAL UPDATE":"27/07/2025"}},{"type":"Feature","geometry":{"coordinates":[106.82988,-6.52975],"type":"Point"},"properties":{"fid":1209,"NAMA":"DISHUB KABUPATEN BOGOR 2","TIPE_1":"TRANSPORTASI","TIPE_2":"HALTE","TIPE_3":"-","TELEPON":"","ALAMAT":"CIJUJUNG, KEC. SUKARAJA, KABUPATEN BOGOR, JAWA BARAT","ID_PROV":"32","PROVINSI":"JAWA BARAT","ID_KABKOT":"32.01","KABKOT":"BOGOR","ID_KEC":"32.01.04","KECAMATAN":"SUKARAJA","ID_DESA":"32.01.04.2011","DESA":"CIJUJUNG","LONGITUDE":106.82988,"LATITUDE":-6.52975,"STATUS":"BUKA","TANGGAL PENGUMPULAN":"Q2 2024","TANGGAL UPDATE":"27/07/2025"}},{"type":"Feature","geometry":{"coordinates":[106.9210928,-6.4391593],"type":"Point"},"properties":{"fid":1224,"NAMA":"HALTE - DVL","TIPE_1":"TRANSPORTASI","TIPE_2":"HALTE","TIPE_3":"-","TELEPON":"","ALAMAT":"JALAN MERCEDES BENZ, JL. MERCEDES BENZ DESA NO.105, CICADAS, KEC. GN. PUTRI, KABUPATEN BOGOR, JAWA BARAT 16964","ID_PROV":"32","PROVINSI":"JAWA BARAT","ID_KABKOT":"32.01","KABKOT":"BOGOR","ID_KEC":"32.01.02","KECAMATAN":"GUNUNG PUTRI","ID_DESA":"32.01.02.2007","DESA":"CICADAS","LONGITUDE":106.9210928,"LATITUDE":-6.4391593,"STATUS":"BUKA","TANGGAL PENGUMPULAN":"Q2 2024","TANGGAL UPDATE":"27/07/2025"}},{"type":"Feature","geometry":{"coordinates":[106.5449059,-6.5853404],"type":"Point"},"properties":{"fid":1239,"NAMA":"HALTE ANGKOT BONGAS CITY","TIPE_1":"TRANSPORTASI","TIPE_2":"HALTE","TIPE_3":"-","TELEPON":"","ALAMAT":"JL. RAYA ACE TABRANI, PARAKAN MUNCANG, KEC. NANGGUNG, KABUPATEN BOGOR, JAWA BARAT 16650","ID_PROV":"32","PROVINSI":"JAWA BARAT","ID_KABKOT":"32.01","KABKOT":"BOGOR","ID_KEC":"32.01.21","KECAMATAN":"NANGGUNG","ID_DESA":"32.01.21.2008","DESA":"PARAKANMUNCANG","LONGITUDE":106.5449059,"LATITUDE":-6.5853404,"STATUS":"BUKA","TANGGAL PENGUMPULAN":"Q2 2024","TANGGAL UPDATE":"27/07/2025"}},{"type":"Feature","geometry":{"coordinates":[106.8918252,-6.5734855],"type":"Point"},"properties":{"fid":1241,"NAMA":"HALTE APTB SENTUL CITY","TIPE_1":"TRANSPORTASI","TIPE_2":"HALTE","TIPE_3":"-","TELEPON":"","ALAMAT":"JL. JUNGLE LAND, KARANG TENGAH, KEC. BABAKAN MADANG, KABUPATEN BOGOR, JAWA BARAT 16810","ID_PROV":"32","PROVINSI":"JAWA BARAT","ID_KABKOT":"32.01","KABKOT":"BOGOR","ID_KEC":"32.01.05","KECAMATAN":"BABAKAN MADANG","ID_DESA":"32.01.05.2004","DESA":"KARANG TENGAH","LONGITUDE":106.8918252,"LATITUDE":-6.5734855,"STATUS":"BUKA","TANGGAL PENGUMPULAN":"Q2 2024","TANGGAL UPDATE":"27/07/2025"}},{"type":"Feature","geometry":{"coordinates":[107.0350963,-6.4873811],"type":"Point"},"properties":{"fid":1271,"NAMA":"HALTE BUKIT LOTUS +251 M","TIPE_1":"TRANSPORTASI","TIPE_2":"HALTE","TIPE_3":"-","TELEPON":"","ALAMAT":"JL. CITRA INDAH UTAMA, CIBODAS, KEC. JONGGOL, KABUPATEN BOGOR, JAWA BARAT 16830","ID_PROV":"32","PROVINSI":"JAWA BARAT","ID_KABKOT":"32.01","KABKOT":"BOGOR","ID_KEC":"32.01.06","KECAMATAN":"JONGGOL","ID_DESA":"32.01.06.2008","DESA":"CIBODAS","LONGITUDE":107.0350963,"LATITUDE":-6.4873811,"STATUS":"BUKA","TANGGAL PENGUMPULAN":"Q2 2024","TANGGAL UPDATE":"27/07/2025"}},{"type":"Feature","geometry":{"coordinates":[106.8722316,-6.485158],"type":"Point"},"properties":{"fid":1276,"NAMA":"HALTE BUS","TIPE_1":"TRANSPORTASI","TIPE_2":"HALTE","TIPE_3":"-","TELEPON":"","ALAMAT":"KARANG ASEM BAR., KEC. CITEUREUP, KABUPATEN BOGOR, JAWA BARAT 16810","ID_PROV":"32","PROVINSI":"JAWA BARAT","ID_KABKOT":"32.01","KABKOT":"BOGOR","ID_KEC":"32.01.03","KECAMATAN":"CITEUREUP","ID_DESA":"32.01.03.1007","DESA":"KARANG ASEM BARAT","LONGITUDE":106.8722316,"LATITUDE":-6.485158,"STATUS":"BUKA","TANGGAL PENGUMPULAN":"Q2 2024","TANGGAL UPDATE":"27/07/2025"}},{"type":"Feature","geometry":{"coordinates":[107.0413275,-6.4663637],"type":"Point"},"properties":{"fid":1280,"NAMA":"HALTE BUS CITRA INDAH, FRESH MARKET","TIPE_1":"TRANSPORTASI","TIPE_2":"HALTE","TIPE_3":"-","TELEPON":"","ALAMAT":"SINGAJAYA, KEC. JONGGOL, KABUPATEN BOGOR, JAWA BARAT 16830","ID_PROV":"32","PROVINSI":"JAWA BARAT","ID_KABKOT":"32.01","KABKOT":"BOGOR","ID_KEC":"32.01.06","KECAMATAN":"JONGGOL","ID_DESA":"32.01.06.2003","DESA":"SINGAJAYA","LONGITUDE":107.0413275,"LATITUDE":-6.4663637,"STATUS":"BUKA","TANGGAL PENGUMPULAN":"Q2 2024","TANGGAL UPDATE":"27/07/2025"}},{"type":"Feature","geometry":{"coordinates":[106.8985897,-6.4741034],"type":"Point"},"properties":{"fid":1285,"NAMA":"HALTE BUS ITP","TIPE_1":"TRANSPORTASI","TIPE_2":"HALTE","TIPE_3":"-","TELEPON":"","ALAMAT":"CITEUREUP, KEC. CITEUREUP, KABUPATEN BOGOR, JAWA BARAT 16810","ID_PROV":"32","PROVINSI":"JAWA BARAT","ID_KABKOT":"32.01","KABKOT":"BOGOR","ID_KEC":"32.01.03","KECAMATAN":"CITEUREUP","ID_DESA":"32.01.03.2002","DESA":"CITEUREUP","LONGITUDE":106.8985897,"LATITUDE":-6.4741034,"STATUS":"BUKA","TANGGAL PENGUMPULAN":"Q2 2024","TANGGAL UPDATE":"27/07/2025"}},{"type":"Feature","geometry":{"coordinates":[106.9521423,-6.7254468],"type":"Point"},"properties":{"fid":1286,"NAMA":"HALTE BUS KE ISTANA PANDA","TIPE_1":"TRANSPORTASI","TIPE_2":"HALTE","TIPE_3":"-","TELEPON":"","ALAMAT":"JL. SAFARI JOURNEY, CIBEUREUM, CISARUA, BOGOR REGENCY, WEST JAVA 16750","ID_PROV":"32","PROVINSI":"JAWA BARAT","ID_KABKOT":"32.01","KABKOT":"BOGOR","ID_KEC":"32.01.25","KECAMATAN":"CISARUA","ID_DESA":"32.01.25.2003","DESA":"CIBEUREUM","LONGITUDE":106.9521423,"LATITUDE":-6.7254468,"STATUS":"BUKA","TANGGAL PENGUMPULAN":"Q2 2024","TANGGAL UPDATE":"27/07/2025"}},{"type":"Feature","geometry":{"coordinates":[106.8436718,-6.4841782],"type":"Point"},"properties":{"fid":1305,"NAMA":"HALTE CCM","TIPE_1":"TRANSPORTASI","TIPE_2":"HALTE","TIPE_3":"-","TELEPON":"","ALAMAT":"JL. RAYA JAKARTA-BOGOR NO.507, NANGGEWER MEKAR, KEC. CIBINONG, KABUPATEN BOGOR, JAWA BARAT 16912","ID_PROV":"32","PROVINSI":"JAWA BARAT","ID_KABKOT":"32.01","KABKOT":"BOGOR","ID_KEC":"32.01.01","KECAMATAN":"CIBINONG","ID_DESA":"32.01.01.1007","DESA":"PAKANSARI","LONGITUDE":106.8436718,"LATITUDE":-6.4841782,"STATUS":"BUKA","TANGGAL PENGUMPULAN":"Q2 2024","TANGGAL UPDATE":"27/07/2025"}},{"type":"Feature","geometry":{"coordinates":[106.8366079,-6.5055615],"type":"Point"},"properties":{"fid":1307,"NAMA":"HALTE CENDRAWASIH 1PINGGIR KALI","TIPE_1":"TRANSPORTASI","TIPE_2":"HALTE","TIPE_3":"-","TELEPON":"","ALAMAT":"JL. NANGGEWER INDAH, NANGGEWER MEKAR, KEC. CIBINONG, KABUPATEN BOGOR, JAWA BARAT 16912","ID_PROV":"32","PROVINSI":"JAWA BARAT","ID_KABKOT":"32.01","KABKOT":"BOGOR","ID_KEC":"32.01.01","KECAMATAN":"CIBINONG","ID_DESA":"32.01.01.1005","DESA":"NANGGEWER MEKAR","LONGITUDE":106.8366079,"LATITUDE":-6.5055615,"STATUS":"BUKA","TANGGAL PENGUMPULAN":"Q2 2024","TANGGAL UPDATE":"27/07/2025"}},{"type":"Feature","geometry":{"coordinates":[107.0370481,-6.4837327],"type":"Point"},"properties":{"fid":1319,"NAMA":"HALTE CITY PARK JONGGOL","TIPE_1":"TRANSPORTASI","TIPE_2":"HALTE","TIPE_3":"-","TELEPON":"","ALAMAT":"CITY PARK, TAMAN SUTET CITRA INDAH CITY, JL. CITRA INDAH UTAMA, CIBODAS, KEC. JONGGOL, KABUPATEN BOGOR, JAWA BARAT 16830","ID_PROV":"32","PROVINSI":"JAWA BARAT","ID_KABKOT":"32.01","KABKOT":"BOGOR","ID_KEC":"32.01.06","KECAMATAN":"JONGGOL","ID_DESA":"32.01.06.2008","DESA":"CIBODAS","LONGITUDE":107.0370481,"LATITUDE":-6.4837327,"STATUS":"BUKA","TANGGAL PENGUMPULAN":"Q2 2024","TANGGAL UPDATE":"27/07/2025"}},{"type":"Feature","geometry":{"coordinates":[107.0330874,-6.4887211],"type":"Point"},"properties":{"fid":1324,"NAMA":"HALTE DAMAR (KALI KEBOKURA) +261 M","TIPE_1":"TRANSPORTASI","TIPE_2":"HALTE","TIPE_3":"-","TELEPON":"","ALAMAT":"JL. CITRA INDAH UTAMA NO.100, KEBOKURA, CIBODAS, KEC. JONGGOL, KABUPATEN BOGOR, JAWA BARAT 16830","ID_PROV":"32","PROVINSI":"JAWA BARAT","ID_KABKOT":"32.01","KABKOT":"BOGOR","ID_KEC":"32.01.06","KECAMATAN":"JONGGOL","ID_DESA":"32.01.06.2008","DESA":"CIBODAS","LONGITUDE":107.0330874,"LATITUDE":-6.4887211,"STATUS":"BUKA","TANGGAL PENGUMPULAN":"Q2 2024","TANGGAL UPDATE":"27/07/2025"}},{"type":"Feature","geometry":{"coordinates":[106.7945414,-6.5406065],"type":"Point"},"properties":{"fid":1337,"NAMA":"HALTE DIGITAL JALAN ARU","TIPE_1":"TRANSPORTASI","TIPE_2":"HALTE","TIPE_3":"-","TELEPON":"","ALAMAT":"JL. ARU, CILEBUT BAR., KEC. SUKARAJA, KABUPATEN BOGOR, JAWA BARAT 16710","ID_PROV":"32","PROVINSI":"JAWA BARAT","ID_KABKOT":"32.01","KABKOT":"BOGOR","ID_KEC":"32.01.04","KECAMATAN":"SUKARAJA","ID_DESA":"32.01.04.2003","DESA":"CILEBUT BARAT","LONGITUDE":106.7945414,"LATITUDE":-6.5406065,"STATUS":"BUKA","TANGGAL PENGUMPULAN":"Q2 2024","TANGGAL UPDATE":"27/07/2025"}},{"type":"Feature","geometry":{"coordinates":[106.7948673,-6.5404123],"type":"Point"},"properties":{"fid":1338,"NAMA":"HALTE DIGITAL MADRASAH MANBUAL FALAH","TIPE_1":"TRANSPORTASI","TIPE_2":"HALTE","TIPE_3":"-","TELEPON":"","ALAMAT":"JL. KHUSUS MADRASAH MANBAUL FALAH, CILEBUT BAR., KEC. SUKARAJA, KABUPATEN BOGOR, JAWA BARAT 16710","ID_PROV":"32","PROVINSI":"JAWA BARAT","ID_KABKOT":"32.01","KABKOT":"BOGOR","ID_KEC":"32.01.04","KECAMATAN":"SUKARAJA","ID_DESA":"32.01.04.2003","DESA":"CILEBUT BARAT","LONGITUDE":106.7948673,"LATITUDE":-6.5404123,"STATUS":"BUKA","TANGGAL PENGUMPULAN":"Q2 2024","TANGGAL UPDATE":"27/07/2025"}},{"type":"Feature","geometry":{"coordinates":[106.9660987,-6.4058484],"type":"Point"},"properties":{"fid":1342,"NAMA":"HALTE ELF BHP","TIPE_1":"TRANSPORTASI","TIPE_2":"HALTE","TIPE_3":"-","TELEPON":"","ALAMAT":"CILEUNGSI KIDUL, KEC. CILEUNGSI, KABUPATEN BOGOR, JAWA BARAT","ID_PROV":"32","PROVINSI":"JAWA BARAT","ID_KABKOT":"32.01","KABKOT":"BOGOR","ID_KEC":"32.01.07","KECAMATAN":"CILEUNGSI","ID_DESA":"32.01.07.2007","DESA":"CILEUNGSI KIDUL","LONGITUDE":106.9660987,"LATITUDE":-6.4058484,"STATUS":"BUKA","TANGGAL PENGUMPULAN":"Q2 2024","TANGGAL UPDATE":"27/07/2025"}},{"type":"Feature","geometry":{"coordinates":[106.9575714,-6.3662775],"type":"Point"},"properties":{"fid":1343,"NAMA":"HALTE FEEDER BUS FRESH MARKET","TIPE_1":"TRANSPORTASI","TIPE_2":"HALTE","TIPE_3":"-","TELEPON":"","ALAMAT":"JL. BOULEVARD KOTA WISATA, CIANGSANA, KEC. GN. PUTRI, KABUPATEN BOGOR, JAWA BARAT 16968","ID_PROV":"32","PROVINSI":"JAWA BARAT","ID_KABKOT":"32.01","KABKOT":"BOGOR","ID_KEC":"32.01.02","KECAMATAN":"GUNUNG PUTRI","ID_DESA":"32.01.02.2003","DESA":"CIANGSANA","LONGITUDE":106.9575714,"LATITUDE":-6.3662775,"STATUS":"BUKA","TANGGAL PENGUMPULAN":"Q2 2024","TANGGAL UPDATE":"27/07/2025"}},{"type":"Feature","geometry":{"coordinates":[106.7547616,-6.5964573],"type":"Point"},"properties":{"fid":1348,"NAMA":"HALTE FORDISC","TIPE_1":"TRANSPORTASI","TIPE_2":"HALTE","TIPE_3":"-","TELEPON":"0878-4511-3303","ALAMAT":"JL. CIOMAS PERMAI, CIAPUS, KEC. CIOMAS, KABUPATEN BOGOR, JAWA BARAT 16610","ID_PROV":"32","PROVINSI":"JAWA BARAT","ID_KABKOT":"32.01","KABKOT":"BOGOR","ID_KEC":"32.01.29","KECAMATAN":"CIOMAS","ID_DESA":"32.01.29.2008","DESA":"CIAPUS","LONGITUDE":106.7547616,"LATITUDE":-6.5964573,"STATUS":"BUKA","TANGGAL PENGUMPULAN":"Q2 2024","TANGGAL UPDATE":"27/07/2025"}},{"type":"Feature","geometry":{"coordinates":[106.8885167,-6.4718439],"type":"Point"},"properties":{"fid":1357,"NAMA":"HALTE GUNUNG PUTRI, CITAYAM - NAMBO - JONGGOL","TIPE_1":"TRANSPORTASI","TIPE_2":"HALTE","TIPE_3":"-","TELEPON":"","ALAMAT":"JL. RAYA BOGASARI NO.5, GN. PUTRI, KEC. GN. PUTRI, KABUPATEN BOGOR, JAWA BARAT 16810","ID_PROV":"32","PROVINSI":"JAWA BARAT","ID_KABKOT":"32.01","KABKOT":"BOGOR","ID_KEC":"32.01.02","KECAMATAN":"GUNUNG PUTRI","ID_DESA":"32.01.02.2004","DESA":"GUNUNG PUTRI","LONGITUDE":106.8885167,"LATITUDE":-6.4718439,"STATUS":"BUKA","TANGGAL PENGUMPULAN":"Q2 2024","TANGGAL UPDATE":"27/07/2025"}},{"type":"Feature","geometry":{"coordinates":[107.0332772,-6.4886338],"type":"Point"},"properties":{"fid":1395,"NAMA":"HALTE LOTUS TERATAI (CURUG KEBOKURA)","TIPE_1":"TRANSPORTASI","TIPE_2":"HALTE","TIPE_3":"-","TELEPON":"","ALAMAT":"JL. CITRA INDAH UTAMA NO.100, CIBODAS, KEC. JONGGOL, KABUPATEN BOGOR, JAWA BARAT 16830","ID_PROV":"32","PROVINSI":"JAWA BARAT","ID_KABKOT":"32.01","KABKOT":"BOGOR","ID_KEC":"32.01.06","KECAMATAN":"JONGGOL","ID_DESA":"32.01.06.2008","DESA":"CIBODAS","LONGITUDE":107.0332772,"LATITUDE":-6.4886338,"STATUS":"BUKA","TANGGAL PENGUMPULAN":"Q2 2024","TANGGAL UPDATE":"27/07/2025"}},{"type":"Feature","geometry":{"coordinates":[106.9622747,-6.3510451],"type":"Point"},"properties":{"fid":1397,"NAMA":"HALTE MADISON","TIPE_1":"TRANSPORTASI","TIPE_2":"HALTE","TIPE_3":"-","TELEPON":"","ALAMAT":"JL. RAYA KOTA WISATA NO.8, CIANGSANA, KEC. GN. PUTRI, KABUPATEN BOGOR, JAWA BARAT 16968","ID_PROV":"32","PROVINSI":"JAWA BARAT","ID_KABKOT":"32.01","KABKOT":"BOGOR","ID_KEC":"32.01.02","KECAMATAN":"GUNUNG PUTRI","ID_DESA":"32.01.02.2003","DESA":"CIANGSANA","LONGITUDE":106.9622747,"LATITUDE":-6.3510451,"STATUS":"BUKA","TANGGAL PENGUMPULAN":"Q2 2024","TANGGAL UPDATE":"27/07/2025"}},{"type":"Feature","geometry":{"coordinates":[106.9465724,-6.3921277],"type":"Point"},"properties":{"fid":1407,"NAMA":"HALTE NAGRAK","TIPE_1":"TRANSPORTASI","TIPE_2":"HALTE","TIPE_3":"-","TELEPON":"","ALAMAT":"HALTE, NAGRAK, KEC. GN. PUTRI, KABUPATEN BOGOR, JAWA BARAT 16967","ID_PROV":"32","PROVINSI":"JAWA BARAT","ID_KABKOT":"32.01","KABKOT":"BOGOR","ID_KEC":"32.01.02","KECAMATAN":"GUNUNG PUTRI","ID_DESA":"32.01.02.2009","DESA":"NAGRAK","LONGITUDE":106.9465724,"LATITUDE":-6.3921277,"STATUS":"BUKA","TANGGAL PENGUMPULAN":"Q2 2024","TANGGAL UPDATE":"27/07/2025"}},{"type":"Feature","geometry":{"coordinates":[106.8365136,-6.5041516],"type":"Point"},"properties":{"fid":1430,"NAMA":"HALTE PINGGIR KALI","TIPE_1":"TRANSPORTASI","TIPE_2":"HALTE","TIPE_3":"-","TELEPON":"","ALAMAT":"JL. PURI ALAM KENCANA NO.2, NANGGEWER MEKAR, KEC. CIBINONG, KABUPATEN BOGOR, JAWA BARAT 16912","ID_PROV":"32","PROVINSI":"JAWA BARAT","ID_KABKOT":"32.01","KABKOT":"BOGOR","ID_KEC":"32.01.01","KECAMATAN":"CIBINONG","ID_DESA":"32.01.01.1005","DESA":"NANGGEWER MEKAR","LONGITUDE":106.8365136,"LATITUDE":-6.5041516,"STATUS":"BUKA","TANGGAL PENGUMPULAN":"Q2 2024","TANGGAL UPDATE":"27/07/2025"}},{"type":"Feature","geometry":{"coordinates":[106.8304817,-6.4728746],"type":"Point"},"properties":{"fid":1447,"NAMA":"HALTE RSUD CIBINONG","TIPE_1":"TRANSPORTASI","TIPE_2":"HALTE","TIPE_3":"-","TELEPON":"","ALAMAT":"TENGAH, KEC. CIBINONG, KABUPATEN BOGOR, JAWA BARAT","ID_PROV":"32","PROVINSI":"JAWA BARAT","ID_KABKOT":"32.01","KABKOT":"BOGOR","ID_KEC":"32.01.01","KECAMATAN":"CIBINONG","ID_DESA":"32.01.01.1008","DESA":"TENGAH","LONGITUDE":106.8304817,"LATITUDE":-6.4728746,"STATUS":"BUKA","TANGGAL PENGUMPULAN":"Q2 2024","TANGGAL UPDATE":"27/07/2025"}},{"type":"Feature","geometry":{"coordinates":[106.8549626,-6.4660046],"type":"Point"},"properties":{"fid":1491,"NAMA":"HALTE ST. CIBINONG","TIPE_1":"TRANSPORTASI","TIPE_2":"HALTE","TIPE_3":"-","TELEPON":"","ALAMAT":"JL. RAYA JAKARTA-BOGOR NO.23-748, PABUARAN, KEC. CIBINONG, KABUPATEN BOGOR, JAWA BARAT 16916","ID_PROV":"32","PROVINSI":"JAWA BARAT","ID_KABKOT":"32.01","KABKOT":"BOGOR","ID_KEC":"32.01.01","KECAMATAN":"CIBINONG","ID_DESA":"32.01.01.1012","DESA":"PABUARAN","LONGITUDE":106.8549626,"LATITUDE":-6.4660046,"STATUS":"BUKA","TANGGAL PENGUMPULAN":"Q2 2024","TANGGAL UPDATE":"27/07/2025"}},{"type":"Feature","geometry":{"coordinates":[107.041945,-6.4436911],"type":"Point"},"properties":{"fid":1522,"NAMA":"HALTE TRANS CITRA INDAH","TIPE_1":"TRANSPORTASI","TIPE_2":"HALTE","TIPE_3":"-","TELEPON":"(021) 89934414","ALAMAT":"JL. BUKIT MENTENG, SUKAMAJU, KEC. JONGGOL, KABUPATEN BOGOR, JAWA BARAT 16830","ID_PROV":"32","PROVINSI":"JAWA BARAT","ID_KABKOT":"32.01","KABKOT":"BOGOR","ID_KEC":"32.01.06","KECAMATAN":"JONGGOL","ID_DESA":"32.01.06.2001","DESA":"SUKAMAJU","LONGITUDE":107.041945,"LATITUDE":-6.4436911,"STATUS":"BUKA","TANGGAL PENGUMPULAN":"Q2 2024","TANGGAL UPDATE":"27/07/2025"}},{"type":"Feature","geometry":{"coordinates":[106.85106,-6.46992],"type":"Point"},"properties":{"fid":1662,"NAMA":"JL RAYA BOGOR","TIPE_1":"TRANSPORTASI","TIPE_2":"HALTE","TIPE_3":"-","TELEPON":"","ALAMAT":"PABUARAN, KEC. CIBINONG, KABUPATEN BOGOR, JAWA BARAT","ID_PROV":"32","PROVINSI":"JAWA BARAT","ID_KABKOT":"32.01","KABKOT":"BOGOR","ID_KEC":"32.01.01","KECAMATAN":"CIBINONG","ID_DESA":"32.01.01.1012","DESA":"PABUARAN","LONGITUDE":106.85106,"LATITUDE":-6.46992,"STATUS":"BUKA","TANGGAL PENGUMPULAN":"Q2 2024","TANGGAL UPDATE":"27/07/2025"}},{"type":"Feature","geometry":{"coordinates":[106.83368,-6.52237],"type":"Point"},"properties":{"fid":1663,"NAMA":"JL. CIJUJUNG PERMAI","TIPE_1":"TRANSPORTASI","TIPE_2":"HALTE","TIPE_3":"-","TELEPON":"","ALAMAT":"CIMANDALA, KEC. SUKARAJA, KABUPATEN BOGOR, JAWA BARAT","ID_PROV":"32","PROVINSI":"JAWA BARAT","ID_KABKOT":"32.01","KABKOT":"BOGOR","ID_KEC":"32.01.04","KECAMATAN":"SUKARAJA","ID_DESA":"32.01.04.2010","DESA":"CIMANDALA","LONGITUDE":106.83368,"LATITUDE":-6.52237,"STATUS":"BUKA","TANGGAL PENGUMPULAN":"Q2 2024","TANGGAL UPDATE":"27/07/2025"}},{"type":"Feature","geometry":{"coordinates":[106.8879232,-6.4715054],"type":"Point"},"properties":{"fid":1740,"NAMA":"STASIUN GUNUNG PUTRI (HALTE)","TIPE_1":"TRANSPORTASI","TIPE_2":"HALTE","TIPE_3":"-","TELEPON":"","ALAMAT":"GN. PUTRI, KEC. GN. PUTRI, KABUPATEN BOGOR, JAWA BARAT 16810","ID_PROV":"32","PROVINSI":"JAWA BARAT","ID_KABKOT":"32.01","KABKOT":"BOGOR","ID_KEC":"32.01.02","KECAMATAN":"GUNUNG PUTRI","ID_DESA":"32.01.02.2004","DESA":"GUNUNG PUTRI","LONGITUDE":106.8879232,"LATITUDE":-6.4715054,"STATUS":"BUKA","TANGGAL PENGUMPULAN":"Q2 2024","TANGGAL UPDATE":"27/07/2025"}},{"type":"Feature","geometry":{"coordinates":[106.85428,-6.46762],"type":"Point"},"properties":{"fid":1764,"NAMA":"TERMINAL CIBINONG","TIPE_1":"TRANSPORTASI","TIPE_2":"HALTE","TIPE_3":"-","TELEPON":"","ALAMAT":"RAMAYANA, 43 SAMPING, JL. HR. LUKMAN NO.43, CIRIMEKAR, KEC. CIBINONG, JAWA BARAT 16917","ID_PROV":"32","PROVINSI":"JAWA BARAT","ID_KABKOT":"32.01","KABKOT":"BOGOR","ID_KEC":"32.01.01","KECAMATAN":"CIBINONG","ID_DESA":"32.01.01.1011","DESA":"CIRIMEKAR","LONGITUDE":106.85428,"LATITUDE":-6.46762,"STATUS":"BUKA","TANGGAL PENGUMPULAN":"Q2 2024","TANGGAL UPDATE":"27/07/2025"}},{"type":"Feature","geometry":{"coordinates":[106.6075258,-6.558598],"type":"Point"},"properties":{"fid":1836,"NAMA":"WARUNG HALTE PEMUDA LIEUR","TIPE_1":"TRANSPORTASI","TIPE_2":"HALTE","TIPE_3":"-","TELEPON":"","ALAMAT":"SIBANTENG, KEC. LEUWISADENG, KABUPATEN BOGOR, JAWA BARAT","ID_PROV":"32","PROVINSI":"JAWA BARAT","ID_KABKOT":"32.01","KABKOT":"BOGOR","ID_KEC":"32.01.39","KECAMATAN":"LEUWISADENG","ID_DESA":"32.01.39.2008","DESA":"SIBANTENG","LONGITUDE":106.6075258,"LATITUDE":-6.558598,"STATUS":"BUKA","TANGGAL PENGUMPULAN":"Q2 2024","TANGGAL UPDATE":"27/07/2025"}}]}