{"type":"FeatureCollection","features":[{"type":"Feature","geometry":{"coordinates":[107.0443272,-6.2829334],"type":"Point"},"properties":{"fid":1221,"NAMA":"HALTE","TIPE_1":"TRANSPORTASI","TIPE_2":"HALTE","TIPE_3":"-","TELEPON":"","ALAMAT":"JL. GRAND WISATA NO.21 RUKO AA 10, LAMBANGJAYA, KEC. TAMBUN SEL., KABUPATEN BEKASI, JAWA BARAT 17510","ID_PROV":"32","PROVINSI":"JAWA BARAT","ID_KABKOT":"32.16","KABKOT":"BEKASI","ID_KEC":"32.16.06","KECAMATAN":"TAMBUN SELATAN","ID_DESA":"32.16.06.2003","DESA":"LAMBANGJAYA","LONGITUDE":107.0443272,"LATITUDE":-6.2829334,"STATUS":"BUKA","TANGGAL PENGUMPULAN":"Q2 2024","TANGGAL UPDATE":"27/07/2025"}},{"type":"Feature","geometry":{"coordinates":[107.1692721,-6.2826193],"type":"Point"},"properties":{"fid":1228,"NAMA":"HALTE ACADEMIA","TIPE_1":"TRANSPORTASI","TIPE_2":"HALTE","TIPE_3":"-","TELEPON":"","ALAMAT":"JL. KI HAJAR DEWANTARA NO.5-2, SIMPANGAN, KEC. CIKARANG UTARA, KABUPATEN BEKASI, JAWA BARAT 17530","ID_PROV":"32","PROVINSI":"JAWA BARAT","ID_KABKOT":"32.16","KABKOT":"BEKASI","ID_KEC":"32.16.09","KECAMATAN":"CIKARANG UTARA","ID_DESA":"32.16.09.2007","DESA":"SIMPANGAN","LONGITUDE":107.1692721,"LATITUDE":-6.2826193,"STATUS":"BUKA","TANGGAL PENGUMPULAN":"Q2 2024","TANGGAL UPDATE":"27/07/2025"}},{"type":"Feature","geometry":{"coordinates":[107.134659,-6.3318609],"type":"Point"},"properties":{"fid":1266,"NAMA":"HALTE BPN","TIPE_1":"TRANSPORTASI","TIPE_2":"HALTE","TIPE_3":"-","TELEPON":"","ALAMAT":"JL. M.H.THAMRIN, CIBATU, CIKARANG SEL., KABUPATEN BEKASI, JAWA BARAT 17530","ID_PROV":"32","PROVINSI":"JAWA BARAT","ID_KABKOT":"32.16","KABKOT":"BEKASI","ID_KEC":"32.16.19","KECAMATAN":"CIKARANG SELATAN","ID_DESA":"32.16.19.2001","DESA":"CIBATU","LONGITUDE":107.134659,"LATITUDE":-6.3318609,"STATUS":"BUKA","TANGGAL PENGUMPULAN":"Q2 2024","TANGGAL UPDATE":"27/07/2025"}},{"type":"Feature","geometry":{"coordinates":[107.1273891,-6.3278266],"type":"Point"},"properties":{"fid":1288,"NAMA":"HALTE BUS LIPPO CIKARANG","TIPE_1":"TRANSPORTASI","TIPE_2":"HALTE","TIPE_3":"-","TELEPON":"","ALAMAT":"JL. MH. THAMRIN BLOK PLOT 313 NO.1, SUKARESMI, CIKARANG SEL., KABUPATEN BEKASI, JAWA BARAT 17530","ID_PROV":"32","PROVINSI":"JAWA BARAT","ID_KABKOT":"32.16","KABKOT":"BEKASI","ID_KEC":"32.16.19","KECAMATAN":"CIKARANG SELATAN","ID_DESA":"32.16.19.2005","DESA":"SUKARESMI","LONGITUDE":107.1273891,"LATITUDE":-6.3278266,"STATUS":"BUKA","TANGGAL PENGUMPULAN":"Q2 2024","TANGGAL UPDATE":"27/07/2025"}},{"type":"Feature","geometry":{"coordinates":[107.0477213,-6.2812317],"type":"Point"},"properties":{"fid":1306,"NAMA":"HALTE CELEBRATION PLAZA GRAND WISATA TAMBUN","TIPE_1":"TRANSPORTASI","TIPE_2":"HALTE","TIPE_3":"-","TELEPON":"","ALAMAT":"NO. NO.05/22 SEL., JALAN CELEBRATION BOULEVARD - GRAND WISATA, TAMBUN, TAMBUN SELATAN, BEKASI, JAWA BARAT 17510","ID_PROV":"32","PROVINSI":"JAWA BARAT","ID_KABKOT":"32.16","KABKOT":"BEKASI","ID_KEC":"32.16.06","KECAMATAN":"TAMBUN SELATAN","ID_DESA":"32.16.06.2003","DESA":"LAMBANGJAYA","LONGITUDE":107.0477213,"LATITUDE":-6.2812317,"STATUS":"BUKA","TANGGAL PENGUMPULAN":"Q2 2024","TANGGAL UPDATE":"27/07/2025"}},{"type":"Feature","geometry":{"coordinates":[107.1704695,-6.2930372],"type":"Point"},"properties":{"fid":1326,"NAMA":"HALTE DAMRI BANDARA SOEKARNO HATTA - HOLLYWOOD JUNCTION","TIPE_1":"TRANSPORTASI","TIPE_2":"HALTE","TIPE_3":"-","TELEPON":"","ALAMAT":"MEKARMUKTI, KEC. CIKARANG UTARA, KABUPATEN BEKASI, JAWA BARAT 17530","ID_PROV":"32","PROVINSI":"JAWA BARAT","ID_KABKOT":"32.16","KABKOT":"BEKASI","ID_KEC":"32.16.09","KECAMATAN":"CIKARANG UTARA","ID_DESA":"32.16.09.2010","DESA":"MEKARMUKTI","LONGITUDE":107.1704695,"LATITUDE":-6.2930372,"STATUS":"BUKA","TANGGAL PENGUMPULAN":"Q2 2024","TANGGAL UPDATE":"27/07/2025"}},{"type":"Feature","geometry":{"coordinates":[107.0473745,-6.2780741],"type":"Point"},"properties":{"fid":1329,"NAMA":"HALTE DAMRI GRAND WISATA TAMBUN BEKASI","TIPE_1":"TRANSPORTASI","TIPE_2":"HALTE","TIPE_3":"-","TELEPON":"","ALAMAT":"JL. WEST GATEWAY BLVD, LAMBANGSARI, KEC. TAMBUN SEL., KABUPATEN BEKASI, JAWA BARAT 17510","ID_PROV":"32","PROVINSI":"JAWA BARAT","ID_KABKOT":"32.16","KABKOT":"BEKASI","ID_KEC":"32.16.06","KECAMATAN":"TAMBUN SELATAN","ID_DESA":"32.16.06.2002","DESA":"LAMBANGSARI","LONGITUDE":107.0473745,"LATITUDE":-6.2780741,"STATUS":"BUKA","TANGGAL PENGUMPULAN":"Q2 2024","TANGGAL UPDATE":"27/07/2025"}},{"type":"Feature","geometry":{"coordinates":[106.9753646,-6.1522783],"type":"Point"},"properties":{"fid":1330,"NAMA":"HALTE DAMRI HARAPAN INDAH","TIPE_1":"TRANSPORTASI","TIPE_2":"HALTE","TIPE_3":"-","TELEPON":"","ALAMAT":"TRANSERA, JL. HARAPAN INDAH BOULEVARD, PUSAKA RAKYAT, TARUMAJAYA, BEKASI REGENCY, WEST JAVA","ID_PROV":"32","PROVINSI":"JAWA BARAT","ID_KABKOT":"32.16","KABKOT":"BEKASI","ID_KEC":"32.16.01","KECAMATAN":"TARUMAJAYA","ID_DESA":"32.16.01.2003","DESA":"PUSAKA RAKYAT","LONGITUDE":106.9753646,"LATITUDE":-6.1522783,"STATUS":"BUKA","TANGGAL PENGUMPULAN":"Q2 2024","TANGGAL UPDATE":"27/07/2025"}},{"type":"Feature","geometry":{"coordinates":[107.121667,-6.2689292],"type":"Point"},"properties":{"fid":1351,"NAMA":"HALTE GARDU SAWAH","TIPE_1":"TRANSPORTASI","TIPE_2":"HALTE","TIPE_3":"-","TELEPON":"","ALAMAT":"JL. RAYA IMAM BONJOL NO.8-18, KALIJAYA, KEC. CIKARANG BAR., KABUPATEN BEKASI, JAWA BARAT 17530","ID_PROV":"32","PROVINSI":"JAWA BARAT","ID_KABKOT":"32.16","KABKOT":"BEKASI","ID_KEC":"32.16.08","KECAMATAN":"CIKARANG BARAT","ID_DESA":"32.16.08.2009","DESA":"KALIJAYA","LONGITUDE":107.121667,"LATITUDE":-6.2689292,"STATUS":"BUKA","TANGGAL PENGUMPULAN":"Q2 2024","TANGGAL UPDATE":"27/07/2025"}},{"type":"Feature","geometry":{"coordinates":[106.984029,-6.1522592],"type":"Point"},"properties":{"fid":1359,"NAMA":"HALTE HARMONI","TIPE_1":"TRANSPORTASI","TIPE_2":"HALTE","TIPE_3":"-","TELEPON":"","ALAMAT":"PUSAKA RAKYAT, KEC. TARUMAJAYA, KABUPATEN BEKASI, JAWA BARAT 17214","ID_PROV":"32","PROVINSI":"JAWA BARAT","ID_KABKOT":"32.16","KABKOT":"BEKASI","ID_KEC":"32.16.01","KECAMATAN":"TARUMAJAYA","ID_DESA":"32.16.01.2003","DESA":"PUSAKA RAKYAT","LONGITUDE":106.984029,"LATITUDE":-6.1522592,"STATUS":"BUKA","TANGGAL PENGUMPULAN":"Q2 2024","TANGGAL UPDATE":"27/07/2025"}},{"type":"Feature","geometry":{"coordinates":[107.1125127,-6.2951749],"type":"Point"},"properties":{"fid":1367,"NAMA":"HALTE JARAKOSTA","TIPE_1":"TRANSPORTASI","TIPE_2":"HALTE","TIPE_3":"-","TELEPON":"","ALAMAT":"JL. JARAKOSTA, SUKADANAU, CIKARANG BARAT, BEKASI REGENCY, WEST JAVA 17530","ID_PROV":"32","PROVINSI":"JAWA BARAT","ID_KABKOT":"32.16","KABKOT":"BEKASI","ID_KEC":"32.16.08","KECAMATAN":"CIKARANG BARAT","ID_DESA":"32.16.08.2007","DESA":"SUKADANAU","LONGITUDE":107.1125127,"LATITUDE":-6.2951749,"STATUS":"BUKA","TANGGAL PENGUMPULAN":"Q2 2024","TANGGAL UPDATE":"27/07/2025"}},{"type":"Feature","geometry":{"coordinates":[107.104587,-6.2732797],"type":"Point"},"properties":{"fid":1375,"NAMA":"HALTE KECAMATAN CIKARANG BARAT","TIPE_1":"TRANSPORTASI","TIPE_2":"HALTE","TIPE_3":"-","TELEPON":"","ALAMAT":"JL. DESA, TELAGA ASIH, KEC. CIKARANG BAR., KABUPATEN BEKASI, JAWA BARAT 17530","ID_PROV":"32","PROVINSI":"JAWA BARAT","ID_KABKOT":"32.16","KABKOT":"BEKASI","ID_KEC":"32.16.08","KECAMATAN":"CIKARANG BARAT","ID_DESA":"32.16.08.1008","DESA":"TELAGA ASIH","LONGITUDE":107.104587,"LATITUDE":-6.2732797,"STATUS":"BUKA","TANGGAL PENGUMPULAN":"Q2 2024","TANGGAL UPDATE":"27/07/2025"}},{"type":"Feature","geometry":{"coordinates":[107.1490158,-6.2989285],"type":"Point"},"properties":{"fid":1391,"NAMA":"HALTE LIVING PLAZA JABABEKA","TIPE_1":"TRANSPORTASI","TIPE_2":"HALTE","TIPE_3":"-","TELEPON":"","ALAMAT":"MEKARMUKTI, KEC. CIKARANG UTARA, KABUPATEN BEKASI, JAWA BARAT 17530","ID_PROV":"32","PROVINSI":"JAWA BARAT","ID_KABKOT":"32.16","KABKOT":"BEKASI","ID_KEC":"32.16.09","KECAMATAN":"CIKARANG UTARA","ID_DESA":"32.16.09.2010","DESA":"MEKARMUKTI","LONGITUDE":107.1490158,"LATITUDE":-6.2989285,"STATUS":"BUKA","TANGGAL PENGUMPULAN":"Q2 2024","TANGGAL UPDATE":"27/07/2025"}},{"type":"Feature","geometry":{"coordinates":[107.1380362,-6.3330653],"type":"Point"},"properties":{"fid":1399,"NAMA":"HALTE MALL LIPPO CIKARANG","TIPE_1":"TRANSPORTASI","TIPE_2":"HALTE","TIPE_3":"-","TELEPON":"","ALAMAT":"JL. M.H.THAMRIN, CIBATU, CIKARANG SEL., KABUPATEN BEKASI, JAWA BARAT 17530","ID_PROV":"32","PROVINSI":"JAWA BARAT","ID_KABKOT":"32.16","KABKOT":"BEKASI","ID_KEC":"32.16.19","KECAMATAN":"CIKARANG SELATAN","ID_DESA":"32.16.19.2001","DESA":"CIBATU","LONGITUDE":107.1380362,"LATITUDE":-6.3330653,"STATUS":"BUKA","TANGGAL PENGUMPULAN":"Q2 2024","TANGGAL UPDATE":"27/07/2025"}},{"type":"Feature","geometry":{"coordinates":[107.1324407,-6.3308603],"type":"Point"},"properties":{"fid":1450,"NAMA":"HALTE RUKO UNION","TIPE_1":"TRANSPORTASI","TIPE_2":"HALTE","TIPE_3":"-","TELEPON":"","ALAMAT":"JL. MH. THAMRIN, CIBATU, CIKARANG SEL., KABUPATEN BEKASI, JAWA BARAT 17530","ID_PROV":"32","PROVINSI":"JAWA BARAT","ID_KABKOT":"32.16","KABKOT":"BEKASI","ID_KEC":"32.16.19","KECAMATAN":"CIKARANG SELATAN","ID_DESA":"32.16.19.2001","DESA":"CIBATU","LONGITUDE":107.1324407,"LATITUDE":-6.3308603,"STATUS":"BUKA","TANGGAL PENGUMPULAN":"Q2 2024","TANGGAL UPDATE":"27/07/2025"}},{"type":"Feature","geometry":{"coordinates":[107.1323979,-6.3309307],"type":"Point"},"properties":{"fid":1451,"NAMA":"HALTE RUKO UNION","TIPE_1":"TRANSPORTASI","TIPE_2":"HALTE","TIPE_3":"-","TELEPON":"","ALAMAT":"CIBATU, CIKARANG SEL., KABUPATEN BEKASI, JAWA BARAT 17530","ID_PROV":"32","PROVINSI":"JAWA BARAT","ID_KABKOT":"32.16","KABKOT":"BEKASI","ID_KEC":"32.16.19","KECAMATAN":"CIKARANG SELATAN","ID_DESA":"32.16.19.2001","DESA":"CIBATU","LONGITUDE":107.1323979,"LATITUDE":-6.3309307,"STATUS":"BUKA","TANGGAL PENGUMPULAN":"Q2 2024","TANGGAL UPDATE":"27/07/2025"}},{"type":"Feature","geometry":{"coordinates":[107.1690231,-6.2828438],"type":"Point"},"properties":{"fid":1485,"NAMA":"HALTE SMP PRESIDENT","TIPE_1":"TRANSPORTASI","TIPE_2":"HALTE","TIPE_3":"-","TELEPON":"","ALAMAT":"SIMPANGAN, KEC. CIKARANG UTARA, KABUPATEN BEKASI, JAWA BARAT 17530","ID_PROV":"32","PROVINSI":"JAWA BARAT","ID_KABKOT":"32.16","KABKOT":"BEKASI","ID_KEC":"32.16.09","KECAMATAN":"CIKARANG UTARA","ID_DESA":"32.16.09.2007","DESA":"SIMPANGAN","LONGITUDE":107.1690231,"LATITUDE":-6.2828438,"STATUS":"BUKA","TANGGAL PENGUMPULAN":"Q2 2024","TANGGAL UPDATE":"27/07/2025"}},{"type":"Feature","geometry":{"coordinates":[106.9756331,-6.1523513],"type":"Point"},"properties":{"fid":1634,"NAMA":"HALTE TRANSERA","TIPE_1":"TRANSPORTASI","TIPE_2":"HALTE","TIPE_3":"-","TELEPON":"","ALAMAT":"PUSAKA RAKYAT, KEC. TARUMAJAYA, KABUPATEN BEKASI, JAWA BARAT","ID_PROV":"32","PROVINSI":"JAWA BARAT","ID_KABKOT":"32.16","KABKOT":"BEKASI","ID_KEC":"32.16.01","KECAMATAN":"TARUMAJAYA","ID_DESA":"32.16.01.2003","DESA":"PUSAKA RAKYAT","LONGITUDE":106.9756331,"LATITUDE":-6.1523513,"STATUS":"BUKA","TANGGAL PENGUMPULAN":"Q2 2024","TANGGAL UPDATE":"27/07/2025"}},{"type":"Feature","geometry":{"coordinates":[106.9749371,-6.1521847],"type":"Point"},"properties":{"fid":1636,"NAMA":"HALTE TRANSJAKARTA RUTE 2B","TIPE_1":"TRANSPORTASI","TIPE_2":"HALTE","TIPE_3":"-","TELEPON":"","ALAMAT":"JL. HARAPAN INDAH BOULEVARD, PUSAKA RAKYAT, KEC. TARUMAJAYA, KABUPATEN BEKASI, JAWA BARAT 17214","ID_PROV":"32","PROVINSI":"JAWA BARAT","ID_KABKOT":"32.16","KABKOT":"BEKASI","ID_KEC":"32.16.01","KECAMATAN":"TARUMAJAYA","ID_DESA":"32.16.01.2003","DESA":"PUSAKA RAKYAT","LONGITUDE":106.9749371,"LATITUDE":-6.1521847,"STATUS":"BUKA","TANGGAL PENGUMPULAN":"Q2 2024","TANGGAL UPDATE":"27/07/2025"}},{"type":"Feature","geometry":{"coordinates":[106.9756083,-6.152276],"type":"Point"},"properties":{"fid":1675,"NAMA":"KHI HALTE TRASJAKARTA, DAMRI, PRIMAJASA","TIPE_1":"TRANSPORTASI","TIPE_2":"HALTE","TIPE_3":"-","TELEPON":"","ALAMAT":"JL. HARAPAN INDAH BOULEVARD, PUSAKA RAKYAT, TARUMAJAYA, BEKASI REGENCY, WEST JAVA 17214","ID_PROV":"32","PROVINSI":"JAWA BARAT","ID_KABKOT":"32.16","KABKOT":"BEKASI","ID_KEC":"32.16.01","KECAMATAN":"TARUMAJAYA","ID_DESA":"32.16.01.2003","DESA":"PUSAKA RAKYAT","LONGITUDE":106.9756083,"LATITUDE":-6.152276,"STATUS":"BUKA","TANGGAL PENGUMPULAN":"Q2 2024","TANGGAL UPDATE":"27/07/2025"}},{"type":"Feature","geometry":{"coordinates":[106.97431,-6.16854],"type":"Point"},"properties":{"fid":1694,"NAMA":"PASAR MODERN HARAPAN INDAH","TIPE_1":"TRANSPORTASI","TIPE_2":"HALTE","TIPE_3":"-","TELEPON":"","ALAMAT":"PUSAKA RAKYAT, KEC. TARUMAJAYA, KABUPATEN BEKASI, JAWA BARAT","ID_PROV":"32","PROVINSI":"JAWA BARAT","ID_KABKOT":"32.16","KABKOT":"BEKASI","ID_KEC":"32.16.01","KECAMATAN":"TARUMAJAYA","ID_DESA":"32.16.01.2003","DESA":"PUSAKA RAKYAT","LONGITUDE":106.97431,"LATITUDE":-6.16854,"STATUS":"BUKA","TANGGAL PENGUMPULAN":"Q2 2024","TANGGAL UPDATE":"27/07/2025"}},{"type":"Feature","geometry":{"coordinates":[107.1496961,-6.2975491],"type":"Point"},"properties":{"fid":1704,"NAMA":"POOL BUS DAMRI CIKARANG","TIPE_1":"TRANSPORTASI","TIPE_2":"HALTE","TIPE_3":"-","TELEPON":"","ALAMAT":"JL. INDUSTRI UTARA 1 BLOK T. T NO.1, MEKARMUKTI, KEC. CIKARANG UTARA, KABUPATEN BEKASI, JAWA BARAT 17530","ID_PROV":"32","PROVINSI":"JAWA BARAT","ID_KABKOT":"32.16","KABKOT":"BEKASI","ID_KEC":"32.16.09","KECAMATAN":"CIKARANG UTARA","ID_DESA":"32.16.09.2010","DESA":"MEKARMUKTI","LONGITUDE":107.1496961,"LATITUDE":-6.2975491,"STATUS":"BUKA","TANGGAL PENGUMPULAN":"Q2 2024","TANGGAL UPDATE":"27/07/2025"}}]}