{"type":"FeatureCollection","features":[{"type":"Feature","geometry":{"coordinates":[106.81577,-6.54239],"type":"Point"},"properties":{"fid":1765,"NAMA":"TERMINAL CIPARIGI","TIPE_1":"TRANSPORTASI","TIPE_2":"HALTE","TIPE_3":"-","TELEPON":"","ALAMAT":"CIPARIGI, KEC. BOGOR UTARA, KOTA BOGOR, JAWA BARAT","ID_PROV":"32","PROVINSI":"JAWA BARAT","ID_KABKOT":"32.71","KABKOT":"KOTA BOGOR","ID_KEC":"32.71.05","KECAMATAN":"BOGOR UTARA","ID_DESA":"32.71.05.1004","DESA":"CIPARIGI","LONGITUDE":106.81577,"LATITUDE":-6.54239,"STATUS":"BUKA","TANGGAL PENGUMPULAN":"Q2 2024","TANGGAL UPDATE":"27/07/2025"}},{"type":"Feature","geometry":{"coordinates":[106.77626,-6.55654],"type":"Point"},"properties":{"fid":1828,"NAMA":"TRANSMART","TIPE_1":"TRANSPORTASI","TIPE_2":"HALTE","TIPE_3":"-","TELEPON":"","ALAMAT":"CIBADAK, KEC. TANAH SEREAL, KOTA BOGOR, JAWA BARAT","ID_PROV":"32","PROVINSI":"JAWA BARAT","ID_KABKOT":"32.71","KABKOT":"KOTA BOGOR","ID_KEC":"32.71.06","KECAMATAN":"TANAH SAREAL","ID_DESA":"32.71.06.1011","DESA":"CIBADAK","LONGITUDE":106.77626,"LATITUDE":-6.55654,"STATUS":"BUKA","TANGGAL PENGUMPULAN":"Q2 2024","TANGGAL UPDATE":"27/07/2025"}},{"type":"Feature","geometry":{"coordinates":[106.79214,-6.56156],"type":"Point"},"properties":{"fid":1829,"NAMA":"UIKA 2","TIPE_1":"TRANSPORTASI","TIPE_2":"HALTE","TIPE_3":"-","TELEPON":"","ALAMAT":"KEDUNGBADAK, KEC. TANAH SEREAL, KOTA BOGOR, JAWA BARAT","ID_PROV":"32","PROVINSI":"JAWA BARAT","ID_KABKOT":"32.71","KABKOT":"KOTA BOGOR","ID_KEC":"32.71.06","KECAMATAN":"TANAH SAREAL","ID_DESA":"32.71.06.1003","DESA":"KEDUNG BADAK","LONGITUDE":106.79214,"LATITUDE":-6.56156,"STATUS":"BUKA","TANGGAL PENGUMPULAN":"Q2 2024","TANGGAL UPDATE":"27/07/2025"}},{"type":"Feature","geometry":{"coordinates":[106.831045,-6.6377831],"type":"Point"},"properties":{"fid":1831,"NAMA":"UNITEX 1","TIPE_1":"TRANSPORTASI","TIPE_2":"HALTE","TIPE_3":"-","TELEPON":"","ALAMAT":"JALAN RAYA TAJUR, KOTA BOGOR, JAWA BARAT 16134","ID_PROV":"32","PROVINSI":"JAWA BARAT","ID_KABKOT":"32.71","KABKOT":"KOTA BOGOR","ID_KEC":"32.71.01","KECAMATAN":"BOGOR SELATAN","ID_DESA":"32.71.01.1015","DESA":"PAKUAN","LONGITUDE":106.831045,"LATITUDE":-6.6377831,"STATUS":"BUKA","TANGGAL PENGUMPULAN":"Q2 2024","TANGGAL UPDATE":"27/07/2025"}},{"type":"Feature","geometry":{"coordinates":[106.8313453,-6.6378124],"type":"Point"},"properties":{"fid":1832,"NAMA":"UNITEX 2","TIPE_1":"TRANSPORTASI","TIPE_2":"HALTE","TIPE_3":"-","TELEPON":"","ALAMAT":"JALAN RAYA TAJUR, KOTA BOGOR, JAWA BARAT 16134","ID_PROV":"32","PROVINSI":"JAWA BARAT","ID_KABKOT":"32.71","KABKOT":"KOTA BOGOR","ID_KEC":"32.71.01","KECAMATAN":"BOGOR SELATAN","ID_DESA":"32.71.01.1013","DESA":"MUARA SARI","LONGITUDE":106.8313453,"LATITUDE":-6.6378124,"STATUS":"BUKA","TANGGAL PENGUMPULAN":"Q2 2024","TANGGAL UPDATE":"27/07/2025"}},{"type":"Feature","geometry":{"coordinates":[106.79589,-6.56272],"type":"Point"},"properties":{"fid":1833,"NAMA":"UT BOGOR 2","TIPE_1":"TRANSPORTASI","TIPE_2":"HALTE","TIPE_3":"-","TELEPON":"","ALAMAT":"KEDUNGBADAK, KEC. TANAH SEREAL, KOTA BOGOR, JAWA BARAT","ID_PROV":"32","PROVINSI":"JAWA BARAT","ID_KABKOT":"32.71","KABKOT":"KOTA BOGOR","ID_KEC":"32.71.06","KECAMATAN":"TANAH SAREAL","ID_DESA":"32.71.06.1003","DESA":"KEDUNG BADAK","LONGITUDE":106.79589,"LATITUDE":-6.56272,"STATUS":"BUKA","TANGGAL PENGUMPULAN":"Q2 2024","TANGGAL UPDATE":"27/07/2025"}},{"type":"Feature","geometry":{"coordinates":[106.78602,-6.59539],"type":"Point"},"properties":{"fid":1834,"NAMA":"VETERAN BOGOR","TIPE_1":"TRANSPORTASI","TIPE_2":"HALTE","TIPE_3":"-","TELEPON":"","ALAMAT":"KB. KLP., KECAMATAN BOGOR TENGAH, KOTA BOGOR, JAWA BARAT","ID_PROV":"32","PROVINSI":"JAWA BARAT","ID_KABKOT":"32.71","KABKOT":"KOTA BOGOR","ID_KEC":"32.71.03","KECAMATAN":"BOGOR TENGAH","ID_DESA":"32.71.03.1011","DESA":"KEBON KALAPA","LONGITUDE":106.78602,"LATITUDE":-6.59539,"STATUS":"BUKA","TANGGAL PENGUMPULAN":"Q2 2024","TANGGAL UPDATE":"27/07/2025"}},{"type":"Feature","geometry":{"coordinates":[106.80757,-6.57027],"type":"Point"},"properties":{"fid":1837,"NAMA":"WARUNG JAMBU","TIPE_1":"TRANSPORTASI","TIPE_2":"HALTE","TIPE_3":"-","TELEPON":"","ALAMAT":"BANTARJATI, KEC. BOGOR UTARA, KOTA BOGOR, JAWA BARAT","ID_PROV":"32","PROVINSI":"JAWA BARAT","ID_KABKOT":"32.71","KABKOT":"KOTA BOGOR","ID_KEC":"32.71.06","KECAMATAN":"TANAH SAREAL","ID_DESA":"32.71.06.1001","DESA":"TANAH SAREAL","LONGITUDE":106.80757,"LATITUDE":-6.57027,"STATUS":"BUKA","TANGGAL PENGUMPULAN":"Q2 2024","TANGGAL UPDATE":"27/07/2025"}},{"type":"Feature","geometry":{"coordinates":[106.80915,-6.56914],"type":"Point"},"properties":{"fid":1838,"NAMA":"WARUNG JAMBU TIMUR","TIPE_1":"TRANSPORTASI","TIPE_2":"HALTE","TIPE_3":"-","TELEPON":"","ALAMAT":"BANTARJATI, KEC. BOGOR UTARA, KOTA BOGOR, JAWA BARAT","ID_PROV":"32","PROVINSI":"JAWA BARAT","ID_KABKOT":"32.71","KABKOT":"KOTA BOGOR","ID_KEC":"32.71.05","KECAMATAN":"BOGOR UTARA","ID_DESA":"32.71.05.1001","DESA":"BANTARJATI","LONGITUDE":106.80915,"LATITUDE":-6.56914,"STATUS":"BUKA","TANGGAL PENGUMPULAN":"Q2 2024","TANGGAL UPDATE":"27/07/2025"}},{"type":"Feature","geometry":{"coordinates":[106.7751,-6.59128],"type":"Point"},"properties":{"fid":1840,"NAMA":"YONIF 315 GARUDA BOGOR","TIPE_1":"TRANSPORTASI","TIPE_2":"HALTE","TIPE_3":"-","TELEPON":"","ALAMAT":"GUNUNGBATU, KEC. BOGOR BAR., KOTA BOGOR, JAWA BARAT","ID_PROV":"32","PROVINSI":"JAWA BARAT","ID_KABKOT":"32.71","KABKOT":"KOTA BOGOR","ID_KEC":"32.71.04","KECAMATAN":"BOGOR BARAT","ID_DESA":"32.71.04.1015","DESA":"GUNUNG BATU","LONGITUDE":106.7751,"LATITUDE":-6.59128,"STATUS":"BUKA","TANGGAL PENGUMPULAN":"Q2 2024","TANGGAL UPDATE":"27/07/2025"}},{"type":"Feature","geometry":{"coordinates":[106.80645,-6.58179],"type":"Point"},"properties":{"fid":1182,"NAMA":"BANTAR JATI 1","TIPE_1":"TRANSPORTASI","TIPE_2":"HALTE","TIPE_3":"-","TELEPON":"","ALAMAT":"BANTARJATI, KEC. BOGOR UTARA, KOTA BOGOR, JAWA BARAT","ID_PROV":"32","PROVINSI":"JAWA BARAT","ID_KABKOT":"32.71","KABKOT":"KOTA BOGOR","ID_KEC":"32.71.03","KECAMATAN":"BOGOR TENGAH","ID_DESA":"32.71.03.1005","DESA":"BABAKAN","LONGITUDE":106.80645,"LATITUDE":-6.58179,"STATUS":"BUKA","TANGGAL PENGUMPULAN":"Q2 2024","TANGGAL UPDATE":"27/07/2025"}},{"type":"Feature","geometry":{"coordinates":[106.80699,-6.58024],"type":"Point"},"properties":{"fid":1183,"NAMA":"BANTAR JATI 2","TIPE_1":"TRANSPORTASI","TIPE_2":"HALTE","TIPE_3":"-","TELEPON":"","ALAMAT":"BANTARJATI, KEC. BOGOR UTARA, KOTA BOGOR, JAWA BARAT","ID_PROV":"32","PROVINSI":"JAWA BARAT","ID_KABKOT":"32.71","KABKOT":"KOTA BOGOR","ID_KEC":"32.71.05","KECAMATAN":"BOGOR UTARA","ID_DESA":"32.71.05.1001","DESA":"BANTARJATI","LONGITUDE":106.80699,"LATITUDE":-6.58024,"STATUS":"BUKA","TANGGAL PENGUMPULAN":"Q2 2024","TANGGAL UPDATE":"27/07/2025"}},{"type":"Feature","geometry":{"coordinates":[106.7929,-6.59646],"type":"Point"},"properties":{"fid":1185,"NAMA":"BAPPEDA BOGOR","TIPE_1":"TRANSPORTASI","TIPE_2":"HALTE","TIPE_3":"-","TELEPON":"","ALAMAT":"PABATON, KECAMATAN BOGOR TENGAH, KOTA BOGOR, JAWA BARAT","ID_PROV":"32","PROVINSI":"JAWA BARAT","ID_KABKOT":"32.71","KABKOT":"KOTA BOGOR","ID_KEC":"32.71.03","KECAMATAN":"BOGOR TENGAH","ID_DESA":"32.71.03.1003","DESA":"PABATON","LONGITUDE":106.7929,"LATITUDE":-6.59646,"STATUS":"BUKA","TANGGAL PENGUMPULAN":"Q2 2024","TANGGAL UPDATE":"27/07/2025"}},{"type":"Feature","geometry":{"coordinates":[106.7763393,-6.5565301],"type":"Point"},"properties":{"fid":1187,"NAMA":"BC TRANS HALTE","TIPE_1":"TRANSPORTASI","TIPE_2":"HALTE","TIPE_3":"-","TELEPON":"","ALAMAT":"CIBADAK, KEC. TANAH SEREAL, KOTA BOGOR, JAWA BARAT","ID_PROV":"32","PROVINSI":"JAWA BARAT","ID_KABKOT":"32.71","KABKOT":"KOTA BOGOR","ID_KEC":"32.71.06","KECAMATAN":"TANAH SAREAL","ID_DESA":"32.71.06.1011","DESA":"CIBADAK","LONGITUDE":106.7763393,"LATITUDE":-6.5565301,"STATUS":"BUKA","TANGGAL PENGUMPULAN":"Q2 2024","TANGGAL UPDATE":"27/07/2025"}},{"type":"Feature","geometry":{"coordinates":[106.76038,-6.5789],"type":"Point"},"properties":{"fid":1188,"NAMA":"BKP5K","TIPE_1":"TRANSPORTASI","TIPE_2":"HALTE","TIPE_3":"-","TELEPON":"","ALAMAT":"SINDANGBARANG, KEC. BOGOR BAR., KOTA BOGOR, JAWA BARAT","ID_PROV":"32","PROVINSI":"JAWA BARAT","ID_KABKOT":"32.71","KABKOT":"KOTA BOGOR","ID_KEC":"32.71.04","KECAMATAN":"BOGOR BARAT","ID_DESA":"32.71.04.1002","DESA":"SINDANG BARANG","LONGITUDE":106.76038,"LATITUDE":-6.5789,"STATUS":"BUKA","TANGGAL PENGUMPULAN":"Q2 2024","TANGGAL UPDATE":"27/07/2025"}},{"type":"Feature","geometry":{"coordinates":[106.80286,-6.57259],"type":"Point"},"properties":{"fid":1190,"NAMA":"BPJS BOGOR","TIPE_1":"TRANSPORTASI","TIPE_2":"HALTE","TIPE_3":"-","TELEPON":"","ALAMAT":"TANAH SAREAL, KEC. TANAH SEREAL, KOTA BOGOR, JAWA BARAT","ID_PROV":"32","PROVINSI":"JAWA BARAT","ID_KABKOT":"32.71","KABKOT":"KOTA BOGOR","ID_KEC":"32.71.06","KECAMATAN":"TANAH SAREAL","ID_DESA":"32.71.06.1001","DESA":"TANAH SAREAL","LONGITUDE":106.80286,"LATITUDE":-6.57259,"STATUS":"BUKA","TANGGAL PENGUMPULAN":"Q2 2024","TANGGAL UPDATE":"27/07/2025"}},{"type":"Feature","geometry":{"coordinates":[106.7965,-6.60422],"type":"Point"},"properties":{"fid":1192,"NAMA":"BTM","TIPE_1":"TRANSPORTASI","TIPE_2":"HALTE","TIPE_3":"-","TELEPON":"","ALAMAT":"PALEDANG, KECAMATAN BOGOR TENGAH, KOTA BOGOR, JAWA BARAT","ID_PROV":"32","PROVINSI":"JAWA BARAT","ID_KABKOT":"32.71","KABKOT":"KOTA BOGOR","ID_KEC":"32.71.03","KECAMATAN":"BOGOR TENGAH","ID_DESA":"32.71.03.1002","DESA":"PALEDANG","LONGITUDE":106.7965,"LATITUDE":-6.60422,"STATUS":"BUKA","TANGGAL PENGUMPULAN":"Q2 2024","TANGGAL UPDATE":"27/07/2025"}},{"type":"Feature","geometry":{"coordinates":[106.7924571,-6.5965611],"type":"Point"},"properties":{"fid":1193,"NAMA":"BUDI MULIA","TIPE_1":"TRANSPORTASI","TIPE_2":"HALTE","TIPE_3":"-","TELEPON":"","ALAMAT":"PALEDANG, KECAMATAN BOGOR TENGAH, KOTA BOGOR, JAWA BARAT","ID_PROV":"32","PROVINSI":"JAWA BARAT","ID_KABKOT":"32.71","KABKOT":"KOTA BOGOR","ID_KEC":"32.71.03","KECAMATAN":"BOGOR TENGAH","ID_DESA":"32.71.03.1002","DESA":"PALEDANG","LONGITUDE":106.7924571,"LATITUDE":-6.5965611,"STATUS":"BUKA","TANGGAL PENGUMPULAN":"Q2 2024","TANGGAL UPDATE":"27/07/2025"}},{"type":"Feature","geometry":{"coordinates":[106.80641,-6.60277],"type":"Point"},"properties":{"fid":1199,"NAMA":"CIDANGIANG","TIPE_1":"TRANSPORTASI","TIPE_2":"HALTE","TIPE_3":"-","TELEPON":"","ALAMAT":"TEGALLEGA, KECAMATAN BOGOR TENGAH, KOTA BOGOR, JAWA BARAT","ID_PROV":"32","PROVINSI":"JAWA BARAT","ID_KABKOT":"32.71","KABKOT":"KOTA BOGOR","ID_KEC":"32.71.03","KECAMATAN":"BOGOR TENGAH","ID_DESA":"32.71.03.1007","DESA":"TEGALLEGA","LONGITUDE":106.80641,"LATITUDE":-6.60277,"STATUS":"BUKA","TANGGAL PENGUMPULAN":"Q2 2024","TANGGAL UPDATE":"27/07/2025"}},{"type":"Feature","geometry":{"coordinates":[106.78251,-6.55728],"type":"Point"},"properties":{"fid":1202,"NAMA":"CIMANGGU 1","TIPE_1":"TRANSPORTASI","TIPE_2":"HALTE","TIPE_3":"-","TELEPON":"","ALAMAT":"KEDUNG JAYA, KEC. TANAH SEREAL, KOTA BOGOR, JAWA BARAT","ID_PROV":"32","PROVINSI":"JAWA BARAT","ID_KABKOT":"32.71","KABKOT":"KOTA BOGOR","ID_KEC":"32.71.06","KECAMATAN":"TANAH SAREAL","ID_DESA":"32.71.06.1011","DESA":"CIBADAK","LONGITUDE":106.78251,"LATITUDE":-6.55728,"STATUS":"BUKA","TANGGAL PENGUMPULAN":"Q2 2024","TANGGAL UPDATE":"27/07/2025"}},{"type":"Feature","geometry":{"coordinates":[106.78987,-6.5641],"type":"Point"},"properties":{"fid":1203,"NAMA":"CIMANGGU PERMAI 1","TIPE_1":"TRANSPORTASI","TIPE_2":"HALTE","TIPE_3":"-","TELEPON":"","ALAMAT":"KEDUNGBADAK, KEC. TANAH SEREAL, KOTA BOGOR, JAWA BARAT","ID_PROV":"32","PROVINSI":"JAWA BARAT","ID_KABKOT":"32.71","KABKOT":"KOTA BOGOR","ID_KEC":"32.71.06","KECAMATAN":"TANAH SAREAL","ID_DESA":"32.71.06.1003","DESA":"KEDUNG BADAK","LONGITUDE":106.78987,"LATITUDE":-6.5641,"STATUS":"BUKA","TANGGAL PENGUMPULAN":"Q2 2024","TANGGAL UPDATE":"27/07/2025"}},{"type":"Feature","geometry":{"coordinates":[106.78777,-6.58514],"type":"Point"},"properties":{"fid":1205,"NAMA":"DINAS SOSIAL BOGOR","TIPE_1":"TRANSPORTASI","TIPE_2":"HALTE","TIPE_3":"-","TELEPON":"","ALAMAT":"CIWARINGIN, KECAMATAN BOGOR TENGAH, KOTA BOGOR, JAWA BARAT","ID_PROV":"32","PROVINSI":"JAWA BARAT","ID_KABKOT":"32.71","KABKOT":"KOTA BOGOR","ID_KEC":"32.71.03","KECAMATAN":"BOGOR TENGAH","ID_DESA":"32.71.03.1010","DESA":"CIWARINGIN","LONGITUDE":106.78777,"LATITUDE":-6.58514,"STATUS":"BUKA","TANGGAL PENGUMPULAN":"Q2 2024","TANGGAL UPDATE":"27/07/2025"}},{"type":"Feature","geometry":{"coordinates":[106.79977,-6.57661],"type":"Point"},"properties":{"fid":1206,"NAMA":"DINKES","TIPE_1":"TRANSPORTASI","TIPE_2":"HALTE","TIPE_3":"-","TELEPON":"","ALAMAT":"TANAH SAREAL, KEC. TANAH SEREAL, KOTA BOGOR, JAWA BARAT","ID_PROV":"32","PROVINSI":"JAWA BARAT","ID_KABKOT":"32.71","KABKOT":"KOTA BOGOR","ID_KEC":"32.71.06","KECAMATAN":"TANAH SAREAL","ID_DESA":"32.71.06.1001","DESA":"TANAH SAREAL","LONGITUDE":106.79977,"LATITUDE":-6.57661,"STATUS":"BUKA","TANGGAL PENGUMPULAN":"Q2 2024","TANGGAL UPDATE":"27/07/2025"}},{"type":"Feature","geometry":{"coordinates":[106.80839,-6.57326],"type":"Point"},"properties":{"fid":1207,"NAMA":"DISDIK","TIPE_1":"TRANSPORTASI","TIPE_2":"HALTE","TIPE_3":"-","TELEPON":"","ALAMAT":"BANTARJATI, KEC. BOGOR UTARA, KOTA BOGOR, JAWA BARAT","ID_PROV":"32","PROVINSI":"JAWA BARAT","ID_KABKOT":"32.71","KABKOT":"KOTA BOGOR","ID_KEC":"32.71.05","KECAMATAN":"BOGOR UTARA","ID_DESA":"32.71.05.1001","DESA":"BANTARJATI","LONGITUDE":106.80839,"LATITUDE":-6.57326,"STATUS":"BUKA","TANGGAL PENGUMPULAN":"Q2 2024","TANGGAL UPDATE":"27/07/2025"}},{"type":"Feature","geometry":{"coordinates":[106.82417,-6.62964],"type":"Point"},"properties":{"fid":1208,"NAMA":"DISHUB BOGOR","TIPE_1":"TRANSPORTASI","TIPE_2":"HALTE","TIPE_3":"-","TELEPON":"","ALAMAT":"TAJUR, KEC. BOGOR TIM., KOTA BOGOR, JAWA BARAT","ID_PROV":"32","PROVINSI":"JAWA BARAT","ID_KABKOT":"32.71","KABKOT":"KOTA BOGOR","ID_KEC":"32.71.02","KECAMATAN":"BOGOR TIMUR","ID_DESA":"32.71.02.1006","DESA":"TAJUR","LONGITUDE":106.82417,"LATITUDE":-6.62964,"STATUS":"BUKA","TANGGAL PENGUMPULAN":"Q2 2024","TANGGAL UPDATE":"27/07/2025"}},{"type":"Feature","geometry":{"coordinates":[106.79658,-6.57313],"type":"Point"},"properties":{"fid":1212,"NAMA":"DPRD BARU","TIPE_1":"TRANSPORTASI","TIPE_2":"HALTE","TIPE_3":"-","TELEPON":"","ALAMAT":"TANAH SAREAL, KEC. TANAH SEREAL, KOTA BOGOR, JAWA BARAT","ID_PROV":"32","PROVINSI":"JAWA BARAT","ID_KABKOT":"32.71","KABKOT":"KOTA BOGOR","ID_KEC":"32.71.06","KECAMATAN":"TANAH SAREAL","ID_DESA":"32.71.06.1001","DESA":"TANAH SAREAL","LONGITUDE":106.79658,"LATITUDE":-6.57313,"STATUS":"BUKA","TANGGAL PENGUMPULAN":"Q2 2024","TANGGAL UPDATE":"27/07/2025"}},{"type":"Feature","geometry":{"coordinates":[106.81778,-6.62268],"type":"Point"},"properties":{"fid":1213,"NAMA":"EKALOKASARI","TIPE_1":"TRANSPORTASI","TIPE_2":"HALTE","TIPE_3":"-","TELEPON":"","ALAMAT":"PAKUAN, KEC. BOGOR SEL., KOTA BOGOR, JAWA BARAT","ID_PROV":"32","PROVINSI":"JAWA BARAT","ID_KABKOT":"32.71","KABKOT":"KOTA BOGOR","ID_KEC":"32.71.01","KECAMATAN":"BOGOR SELATAN","ID_DESA":"32.71.01.1015","DESA":"PAKUAN","LONGITUDE":106.81778,"LATITUDE":-6.62268,"STATUS":"BUKA","TANGGAL PENGUMPULAN":"Q2 2024","TANGGAL UPDATE":"27/07/2025"}},{"type":"Feature","geometry":{"coordinates":[106.80469,-6.59181],"type":"Point"},"properties":{"fid":1214,"NAMA":"FAT BUBBLE","TIPE_1":"TRANSPORTASI","TIPE_2":"HALTE","TIPE_3":"-","TELEPON":"","ALAMAT":"BABAKAN, KECAMATAN BOGOR TENGAH, KOTA BOGOR, JAWA BARAT","ID_PROV":"32","PROVINSI":"JAWA BARAT","ID_KABKOT":"32.71","KABKOT":"KOTA BOGOR","ID_KEC":"32.71.03","KECAMATAN":"BOGOR TENGAH","ID_DESA":"32.71.03.1005","DESA":"BABAKAN","LONGITUDE":106.80469,"LATITUDE":-6.59181,"STATUS":"BUKA","TANGGAL PENGUMPULAN":"Q2 2024","TANGGAL UPDATE":"27/07/2025"}},{"type":"Feature","geometry":{"coordinates":[106.7877989,-6.5881474],"type":"Point"},"properties":{"fid":1257,"NAMA":"HALTE BIS PUSKESMAS MERDEKA","TIPE_1":"TRANSPORTASI","TIPE_2":"HALTE","TIPE_3":"-","TELEPON":"","ALAMAT":"JL. MERDEKA, RT.05/RW.05, CIWARINGIN, BOGOR TENGAH, BOGOR CITY, WEST JAVA 16111","ID_PROV":"32","PROVINSI":"JAWA BARAT","ID_KABKOT":"32.71","KABKOT":"KOTA BOGOR","ID_KEC":"32.71.03","KECAMATAN":"BOGOR TENGAH","ID_DESA":"32.71.03.1010","DESA":"CIWARINGIN","LONGITUDE":106.7877989,"LATITUDE":-6.5881474,"STATUS":"BUKA","TANGGAL PENGUMPULAN":"Q2 2024","TANGGAL UPDATE":"27/07/2025"}},{"type":"Feature","geometry":{"coordinates":[106.7638501,-6.5634164],"type":"Point"},"properties":{"fid":1258,"NAMA":"HALTE BIS SEMPLAK-YASMIN","TIPE_1":"TRANSPORTASI","TIPE_2":"HALTE","TIPE_3":"-","TELEPON":"","ALAMAT":"RT.02/RW.01, SEMPLAK, KEC. BOGOR BAR., KOTA BOGOR, JAWA BARAT 16114","ID_PROV":"32","PROVINSI":"JAWA BARAT","ID_KABKOT":"32.71","KABKOT":"KOTA BOGOR","ID_KEC":"32.71.04","KECAMATAN":"BOGOR BARAT","ID_DESA":"32.71.04.1007","DESA":"SEMPLAK","LONGITUDE":106.7638501,"LATITUDE":-6.5634164,"STATUS":"BUKA","TANGGAL PENGUMPULAN":"Q2 2024","TANGGAL UPDATE":"27/07/2025"}},{"type":"Feature","geometry":{"coordinates":[106.7926615,-6.5969898],"type":"Point"},"properties":{"fid":1263,"NAMA":"HALTE BM","TIPE_1":"TRANSPORTASI","TIPE_2":"HALTE","TIPE_3":"-","TELEPON":"","ALAMAT":"JL. PALEDANG GG. TANJAKAN PALA NO.22, RT.04/RW.01, PALEDANG, KECAMATAN BOGOR TENGAH, KOTA BOGOR, JAWA BARAT 16122","ID_PROV":"32","PROVINSI":"JAWA BARAT","ID_KABKOT":"32.71","KABKOT":"KOTA BOGOR","ID_KEC":"32.71.03","KECAMATAN":"BOGOR TENGAH","ID_DESA":"32.71.03.1002","DESA":"PALEDANG","LONGITUDE":106.7926615,"LATITUDE":-6.5969898,"STATUS":"BUKA","TANGGAL PENGUMPULAN":"Q2 2024","TANGGAL UPDATE":"27/07/2025"}},{"type":"Feature","geometry":{"coordinates":[106.755233,-6.5700758],"type":"Point"},"properties":{"fid":1270,"NAMA":"HALTE BUBULAK","TIPE_1":"TRANSPORTASI","TIPE_2":"HALTE","TIPE_3":"-","TELEPON":"","ALAMAT":"TERMINAL, RT.04/RW.08, BUBULAK, KEC. BOGOR BAR., KOTA BOGOR, JAWA BARAT 16115","ID_PROV":"32","PROVINSI":"JAWA BARAT","ID_KABKOT":"32.71","KABKOT":"KOTA BOGOR","ID_KEC":"32.71.04","KECAMATAN":"BOGOR BARAT","ID_DESA":"32.71.04.1003","DESA":"BUBULAK","LONGITUDE":106.755233,"LATITUDE":-6.5700758,"STATUS":"BUKA","TANGGAL PENGUMPULAN":"Q2 2024","TANGGAL UPDATE":"27/07/2025"}},{"type":"Feature","geometry":{"coordinates":[106.7888434,-6.5828224],"type":"Point"},"properties":{"fid":1281,"NAMA":"HALTE BUS CIWARINGIN","TIPE_1":"TRANSPORTASI","TIPE_2":"HALTE","TIPE_3":"-","TELEPON":"","ALAMAT":"JL. RE. MARTADINATA BLOK SALIM NO.49, RT.01/RW.11, CIWARINGIN, KECAMATAN BOGOR TENGAH, KOTA BOGOR, JAWA BARAT 16124","ID_PROV":"32","PROVINSI":"JAWA BARAT","ID_KABKOT":"32.71","KABKOT":"KOTA BOGOR","ID_KEC":"32.71.03","KECAMATAN":"BOGOR TENGAH","ID_DESA":"32.71.03.1010","DESA":"CIWARINGIN","LONGITUDE":106.7888434,"LATITUDE":-6.5828224,"STATUS":"BUKA","TANGGAL PENGUMPULAN":"Q2 2024","TANGGAL UPDATE":"27/07/2025"}},{"type":"Feature","geometry":{"coordinates":[106.7754777,-6.5566297],"type":"Point"},"properties":{"fid":1304,"NAMA":"HALTE CAREFOUR YASMIN","TIPE_1":"TRANSPORTASI","TIPE_2":"HALTE","TIPE_3":"-","TELEPON":"","ALAMAT":"RT.05/RW.04, CIBADAK, KEC. TANAH SEREAL, KOTA BOGOR, JAWA BARAT 16166","ID_PROV":"32","PROVINSI":"JAWA BARAT","ID_KABKOT":"32.71","KABKOT":"KOTA BOGOR","ID_KEC":"32.71.06","KECAMATAN":"TANAH SAREAL","ID_DESA":"32.71.06.1011","DESA":"CIBADAK","LONGITUDE":106.7754777,"LATITUDE":-6.5566297,"STATUS":"BUKA","TANGGAL PENGUMPULAN":"Q2 2024","TANGGAL UPDATE":"27/07/2025"}},{"type":"Feature","geometry":{"coordinates":[106.8061809,-6.6029042],"type":"Point"},"properties":{"fid":1309,"NAMA":"HALTE CIDANGIANG","TIPE_1":"TRANSPORTASI","TIPE_2":"HALTE","TIPE_3":"-","TELEPON":"","ALAMAT":"JL. CIDANGIANG NO.1, RT.04/RW.05, TEGALLEGA, KECAMATAN BOGOR TENGAH, KOTA BOGOR, JAWA BARAT 16129","ID_PROV":"32","PROVINSI":"JAWA BARAT","ID_KABKOT":"32.71","KABKOT":"KOTA BOGOR","ID_KEC":"32.71.03","KECAMATAN":"BOGOR TENGAH","ID_DESA":"32.71.03.1007","DESA":"TEGALLEGA","LONGITUDE":106.8061809,"LATITUDE":-6.6029042,"STATUS":"BUKA","TANGGAL PENGUMPULAN":"Q2 2024","TANGGAL UPDATE":"27/07/2025"}},{"type":"Feature","geometry":{"coordinates":[106.7825111,-6.5572832],"type":"Point"},"properties":{"fid":1315,"NAMA":"HALTE CIMANGGU 1","TIPE_1":"TRANSPORTASI","TIPE_2":"HALTE","TIPE_3":"-","TELEPON":"","ALAMAT":"RT.06/RW.09, KP. PARUNG JAMBU, KEDUNG JAYA, KEC. TANAH SEREAL, KOTA BOGOR, JAWA BARAT 16164","ID_PROV":"32","PROVINSI":"JAWA BARAT","ID_KABKOT":"32.71","KABKOT":"KOTA BOGOR","ID_KEC":"32.71.06","KECAMATAN":"TANAH SAREAL","ID_DESA":"32.71.06.1011","DESA":"CIBADAK","LONGITUDE":106.7825111,"LATITUDE":-6.5572832,"STATUS":"BUKA","TANGGAL PENGUMPULAN":"Q2 2024","TANGGAL UPDATE":"27/07/2025"}},{"type":"Feature","geometry":{"coordinates":[106.7817185,-6.5573249],"type":"Point"},"properties":{"fid":1316,"NAMA":"HALTE CIMANGGU 2","TIPE_1":"TRANSPORTASI","TIPE_2":"HALTE","TIPE_3":"-","TELEPON":"","ALAMAT":"KEDUNG JAYA, KEC. TANAH SEREAL, KOTA BOGOR, JAWA BARAT","ID_PROV":"32","PROVINSI":"JAWA BARAT","ID_KABKOT":"32.71","KABKOT":"KOTA BOGOR","ID_KEC":"32.71.06","KECAMATAN":"TANAH SAREAL","ID_DESA":"32.71.06.1006","DESA":"KEDUNG JAYA","LONGITUDE":106.7817185,"LATITUDE":-6.5573249,"STATUS":"BUKA","TANGGAL PENGUMPULAN":"Q2 2024","TANGGAL UPDATE":"27/07/2025"}},{"type":"Feature","geometry":{"coordinates":[106.8158077,-6.5423691],"type":"Point"},"properties":{"fid":1318,"NAMA":"HALTE CIPARIGI","TIPE_1":"TRANSPORTASI","TIPE_2":"HALTE","TIPE_3":"-","TELEPON":"0811-1969-2222","ALAMAT":"RT.06/RW.11, CIPARIGI, BOGOR UTARA, BOGOR CITY, WEST JAVA 16157","ID_PROV":"32","PROVINSI":"JAWA BARAT","ID_KABKOT":"32.71","KABKOT":"KOTA BOGOR","ID_KEC":"32.71.05","KECAMATAN":"BOGOR UTARA","ID_DESA":"32.71.05.1004","DESA":"CIPARIGI","LONGITUDE":106.8158077,"LATITUDE":-6.5423691,"STATUS":"BUKA","TANGGAL PENGUMPULAN":"Q2 2024","TANGGAL UPDATE":"27/07/2025"}},{"type":"Feature","geometry":{"coordinates":[106.8160015,-6.6202556],"type":"Point"},"properties":{"fid":1325,"NAMA":"HALTE DAMKAR PAJAJARAN","TIPE_1":"TRANSPORTASI","TIPE_2":"HALTE","TIPE_3":"-","TELEPON":"","ALAMAT":"RT.07/RW.02, SUKASARI, KEC. BOGOR TIM., KOTA BOGOR, JAWA BARAT 16142","ID_PROV":"32","PROVINSI":"JAWA BARAT","ID_KABKOT":"32.71","KABKOT":"KOTA BOGOR","ID_KEC":"32.71.02","KECAMATAN":"BOGOR TIMUR","ID_DESA":"32.71.02.1001","DESA":"SUKASARI","LONGITUDE":106.8160015,"LATITUDE":-6.6202556,"STATUS":"BUKA","TANGGAL PENGUMPULAN":"Q2 2024","TANGGAL UPDATE":"27/07/2025"}},{"type":"Feature","geometry":{"coordinates":[106.8056699,-6.6020579],"type":"Point"},"properties":{"fid":1333,"NAMA":"HALTE DEPAN BOTANI SQUARE","TIPE_1":"TRANSPORTASI","TIPE_2":"HALTE","TIPE_3":"-","TELEPON":"","ALAMAT":"JL. RAYA PAJAJARAN, RT.04/RW.05, TEGALLEGA, KECAMATAN BOGOR TENGAH, KOTA BOGOR, JAWA BARAT 16143","ID_PROV":"32","PROVINSI":"JAWA BARAT","ID_KABKOT":"32.71","KABKOT":"KOTA BOGOR","ID_KEC":"32.71.03","KECAMATAN":"BOGOR TENGAH","ID_DESA":"32.71.03.1007","DESA":"TEGALLEGA","LONGITUDE":106.8056699,"LATITUDE":-6.6020579,"STATUS":"BUKA","TANGGAL PENGUMPULAN":"Q2 2024","TANGGAL UPDATE":"27/07/2025"}},{"type":"Feature","geometry":{"coordinates":[106.798552,-6.5781579],"type":"Point"},"properties":{"fid":1355,"NAMA":"HALTE GOR 2 PAJAJARAN BOGOR","TIPE_1":"TRANSPORTASI","TIPE_2":"HALTE","TIPE_3":"-","TELEPON":"","ALAMAT":"JL. A. YANI NO.5, RT.01/RW.02, TANAH SAREAL, KEC. TANAH SEREAL, KOTA BOGOR, JAWA BARAT 16161","ID_PROV":"32","PROVINSI":"JAWA BARAT","ID_KABKOT":"32.71","KABKOT":"KOTA BOGOR","ID_KEC":"32.71.06","KECAMATAN":"TANAH SAREAL","ID_DESA":"32.71.06.1001","DESA":"TANAH SAREAL","LONGITUDE":106.798552,"LATITUDE":-6.5781579,"STATUS":"BUKA","TANGGAL PENGUMPULAN":"Q2 2024","TANGGAL UPDATE":"27/07/2025"}},{"type":"Feature","geometry":{"coordinates":[106.7779671,-6.594351],"type":"Point"},"properties":{"fid":1356,"NAMA":"HALTE GUNUNG BATU","TIPE_1":"TRANSPORTASI","TIPE_2":"HALTE","TIPE_3":"-","TELEPON":"(0251) 8376138","ALAMAT":"JL. RAYA DRAMAGA - BOGOR, RT.05/RW.03, GUNUNGBATU, KEC. BOGOR BAR., KOTA BOGOR, JAWA BARAT 16118","ID_PROV":"32","PROVINSI":"JAWA BARAT","ID_KABKOT":"32.71","KABKOT":"KOTA BOGOR","ID_KEC":"32.71.04","KECAMATAN":"BOGOR BARAT","ID_DESA":"32.71.04.1015","DESA":"GUNUNG BATU","LONGITUDE":106.7779671,"LATITUDE":-6.594351,"STATUS":"BUKA","TANGGAL PENGUMPULAN":"Q2 2024","TANGGAL UPDATE":"27/07/2025"}},{"type":"Feature","geometry":{"coordinates":[106.7895549,-6.5957445],"type":"Point"},"properties":{"fid":1368,"NAMA":"HALTE JEMBATAN MERAH","TIPE_1":"TRANSPORTASI","TIPE_2":"HALTE","TIPE_3":"-","TELEPON":"","ALAMAT":"HALTE, JEMB. MERAH, CIBOGOR, KECAMATAN BOGOR TENGAH, KOTA BOGOR, JAWA BARAT 16121","ID_PROV":"32","PROVINSI":"JAWA BARAT","ID_KABKOT":"32.71","KABKOT":"KOTA BOGOR","ID_KEC":"32.71.03","KECAMATAN":"BOGOR TENGAH","ID_DESA":"32.71.03.1004","DESA":"CIBOGOR","LONGITUDE":106.7895549,"LATITUDE":-6.5957445,"STATUS":"BUKA","TANGGAL PENGUMPULAN":"Q2 2024","TANGGAL UPDATE":"27/07/2025"}},{"type":"Feature","geometry":{"coordinates":[106.8103084,-6.5552168],"type":"Point"},"properties":{"fid":1377,"NAMA":"HALTE KEDUNG HALANG 2","TIPE_1":"TRANSPORTASI","TIPE_2":"HALTE","TIPE_3":"-","TELEPON":"","ALAMAT":"RT.05/RW.01, KEDUNGHALANG, KEC. BOGOR UTARA, KOTA BOGOR, JAWA BARAT 16158","ID_PROV":"32","PROVINSI":"JAWA BARAT","ID_KABKOT":"32.71","KABKOT":"KOTA BOGOR","ID_KEC":"32.71.05","KECAMATAN":"BOGOR UTARA","ID_DESA":"32.71.05.1003","DESA":"KEDUNG HALANG","LONGITUDE":106.8103084,"LATITUDE":-6.5552168,"STATUS":"BUKA","TANGGAL PENGUMPULAN":"Q2 2024","TANGGAL UPDATE":"27/07/2025"}},{"type":"Feature","geometry":{"coordinates":[106.8135161,-6.6140723],"type":"Point"},"properties":{"fid":1379,"NAMA":"HALTE KESATUAN","TIPE_1":"TRANSPORTASI","TIPE_2":"HALTE","TIPE_3":"-","TELEPON":"","ALAMAT":"JL. PULO ARMIN NO.35-78, RT.07/RW.04, BARANANGSIANG, KEC. BOGOR TIM., KOTA BOGOR, JAWA BARAT 16143","ID_PROV":"32","PROVINSI":"JAWA BARAT","ID_KABKOT":"32.71","KABKOT":"KOTA BOGOR","ID_KEC":"32.71.02","KECAMATAN":"BOGOR TIMUR","ID_DESA":"32.71.02.1002","DESA":"BARANANGSIANG","LONGITUDE":106.8135161,"LATITUDE":-6.6140723,"STATUS":"BUKA","TANGGAL PENGUMPULAN":"Q2 2024","TANGGAL UPDATE":"27/07/2025"}},{"type":"Feature","geometry":{"coordinates":[106.8091957,-6.6249367],"type":"Point"},"properties":{"fid":1403,"NAMA":"HALTE MBAH DALEM","TIPE_1":"TRANSPORTASI","TIPE_2":"HALTE","TIPE_3":"-","TELEPON":"","ALAMAT":"JL. LAWANG GINTUNG NO.9, RT.01/RW.08, BATUTULIS, KEC. BOGOR SEL., KOTA BOGOR, JAWA BARAT 16133","ID_PROV":"32","PROVINSI":"JAWA BARAT","ID_KABKOT":"32.71","KABKOT":"KOTA BOGOR","ID_KEC":"32.71.01","KECAMATAN":"BOGOR SELATAN","ID_DESA":"32.71.01.1004","DESA":"LAWANGGINTUNG","LONGITUDE":106.8091957,"LATITUDE":-6.6249367,"STATUS":"BUKA","TANGGAL PENGUMPULAN":"Q2 2024","TANGGAL UPDATE":"27/07/2025"}},{"type":"Feature","geometry":{"coordinates":[106.7558191,-6.570213],"type":"Point"},"properties":{"fid":1458,"NAMA":"HALTE SBJ 01","TIPE_1":"TRANSPORTASI","TIPE_2":"HALTE","TIPE_3":"-","TELEPON":"","ALAMAT":"JALAN KH ABDULLAH BIN NUH, BUBULAK, BOGOR BARAT, BUBULAK, KEC. BOGOR BAR., KOTA BOGOR, JAWA BARAT 16115","ID_PROV":"32","PROVINSI":"JAWA BARAT","ID_KABKOT":"32.71","KABKOT":"KOTA BOGOR","ID_KEC":"32.71.04","KECAMATAN":"BOGOR BARAT","ID_DESA":"32.71.04.1003","DESA":"BUBULAK","LONGITUDE":106.7558191,"LATITUDE":-6.570213,"STATUS":"BUKA","TANGGAL PENGUMPULAN":"Q2 2024","TANGGAL UPDATE":"27/07/2025"}},{"type":"Feature","geometry":{"coordinates":[106.7571786,-6.5700648],"type":"Point"},"properties":{"fid":1459,"NAMA":"HALTE SBJ 02","TIPE_1":"TRANSPORTASI","TIPE_2":"HALTE","TIPE_3":"-","TELEPON":"","ALAMAT":"JALAN KH ABDULLAH BIN NUH, SINDANG BARANG, BOGOR BARAT, BUBULAK, KEC. BOGOR BAR., KOTA BOGOR, JAWA BARAT 16117","ID_PROV":"32","PROVINSI":"JAWA BARAT","ID_KABKOT":"32.71","KABKOT":"KOTA BOGOR","ID_KEC":"32.71.04","KECAMATAN":"BOGOR BARAT","ID_DESA":"32.71.04.1002","DESA":"SINDANG BARANG","LONGITUDE":106.7571786,"LATITUDE":-6.5700648,"STATUS":"BUKA","TANGGAL PENGUMPULAN":"Q2 2024","TANGGAL UPDATE":"27/07/2025"}},{"type":"Feature","geometry":{"coordinates":[106.7572079,-6.5697145],"type":"Point"},"properties":{"fid":1460,"NAMA":"HALTE SBJ 02","TIPE_1":"TRANSPORTASI","TIPE_2":"HALTE","TIPE_3":"-","TELEPON":"","ALAMAT":"RT.06/RW.07, SINDANGBARANG, KEC. BOGOR BAR., KOTA BOGOR, JAWA BARAT 16115","ID_PROV":"32","PROVINSI":"JAWA BARAT","ID_KABKOT":"32.71","KABKOT":"KOTA BOGOR","ID_KEC":"32.71.04","KECAMATAN":"BOGOR BARAT","ID_DESA":"32.71.04.1002","DESA":"SINDANG BARANG","LONGITUDE":106.7572079,"LATITUDE":-6.5697145,"STATUS":"BUKA","TANGGAL PENGUMPULAN":"Q2 2024","TANGGAL UPDATE":"27/07/2025"}},{"type":"Feature","geometry":{"coordinates":[106.752925,-6.572661],"type":"Point"},"properties":{"fid":1475,"NAMA":"HALTE SINBAD BUBULAK","TIPE_1":"TRANSPORTASI","TIPE_2":"HALTE","TIPE_3":"-","TELEPON":"","ALAMAT":"JL. KH. R. ABDULLAH BIN NUH, RT.01/RW.13, BUBULAK, KEC. BOGOR BAR., KOTA BOGOR, JAWA BARAT 16117","ID_PROV":"32","PROVINSI":"JAWA BARAT","ID_KABKOT":"32.71","KABKOT":"KOTA BOGOR","ID_KEC":"32.71.04","KECAMATAN":"BOGOR BARAT","ID_DESA":"32.71.04.1002","DESA":"SINDANG BARANG","LONGITUDE":106.752925,"LATITUDE":-6.572661,"STATUS":"BUKA","TANGGAL PENGUMPULAN":"Q2 2024","TANGGAL UPDATE":"27/07/2025"}},{"type":"Feature","geometry":{"coordinates":[106.8141838,-6.6195635],"type":"Point"},"properties":{"fid":1499,"NAMA":"HALTE SUKASARI","TIPE_1":"TRANSPORTASI","TIPE_2":"HALTE","TIPE_3":"-","TELEPON":"","ALAMAT":"JL. SILIWANGI NO.27-98, RT.03/RW.01, SUKASARI, KEC. BOGOR TIM., KOTA BOGOR, JAWA BARAT 16142","ID_PROV":"32","PROVINSI":"JAWA BARAT","ID_KABKOT":"32.71","KABKOT":"KOTA BOGOR","ID_KEC":"32.71.02","KECAMATAN":"BOGOR TIMUR","ID_DESA":"32.71.02.1001","DESA":"SUKASARI","LONGITUDE":106.8141838,"LATITUDE":-6.6195635,"STATUS":"BUKA","TANGGAL PENGUMPULAN":"Q2 2024","TANGGAL UPDATE":"27/07/2025"}},{"type":"Feature","geometry":{"coordinates":[106.7675259,-6.5707516],"type":"Point"},"properties":{"fid":1516,"NAMA":"HALTE TIP TOP","TIPE_1":"TRANSPORTASI","TIPE_2":"HALTE","TIPE_3":"-","TELEPON":"","ALAMAT":"JL. BRIGJEN SAPTADJI HADIPRAWIRA KP. PARUNG JAMBU NO.82, RT.03/RW.07, CILENDEK BAR., KEC. BOGOR BAR., KOTA BOGOR, JAWA BARAT 16112","ID_PROV":"32","PROVINSI":"JAWA BARAT","ID_KABKOT":"32.71","KABKOT":"KOTA BOGOR","ID_KEC":"32.71.04","KECAMATAN":"BOGOR BARAT","ID_DESA":"32.71.04.1008","DESA":"CILENDEK BARAT","LONGITUDE":106.7675259,"LATITUDE":-6.5707516,"STATUS":"BUKA","TANGGAL PENGUMPULAN":"Q2 2024","TANGGAL UPDATE":"27/07/2025"}},{"type":"Feature","geometry":{"coordinates":[106.80977,-6.5637969],"type":"Point"},"properties":{"fid":1639,"NAMA":"HALTE TUGU NARKOBA 1","TIPE_1":"TRANSPORTASI","TIPE_2":"HALTE","TIPE_3":"-","TELEPON":"","ALAMAT":"JL. SHOLEH ISKANDAR, RT.02/RW.02, CIBULUH, KEC. BOGOR UTARA, KOTA BOGOR, JAWA BARAT 16151","ID_PROV":"32","PROVINSI":"JAWA BARAT","ID_KABKOT":"32.71","KABKOT":"KOTA BOGOR","ID_KEC":"32.71.05","KECAMATAN":"BOGOR UTARA","ID_DESA":"32.71.05.1005","DESA":"CIBULUH","LONGITUDE":106.80977,"LATITUDE":-6.5637969,"STATUS":"BUKA","TANGGAL PENGUMPULAN":"Q2 2024","TANGGAL UPDATE":"27/07/2025"}},{"type":"Feature","geometry":{"coordinates":[106.8095962,-6.5631475],"type":"Point"},"properties":{"fid":1640,"NAMA":"HALTE TUGU NARKOBA 2","TIPE_1":"TRANSPORTASI","TIPE_2":"HALTE","TIPE_3":"-","TELEPON":"","ALAMAT":"JL. SHOLEH ISKANDAR, RT.06/RW.02, CIBULUH, KEC. BOGOR UTARA, KOTA BOGOR, JAWA BARAT 16151","ID_PROV":"32","PROVINSI":"JAWA BARAT","ID_KABKOT":"32.71","KABKOT":"KOTA BOGOR","ID_KEC":"32.71.05","KECAMATAN":"BOGOR UTARA","ID_DESA":"32.71.05.1005","DESA":"CIBULUH","LONGITUDE":106.8095962,"LATITUDE":-6.5631475,"STATUS":"BUKA","TANGGAL PENGUMPULAN":"Q2 2024","TANGGAL UPDATE":"27/07/2025"}},{"type":"Feature","geometry":{"coordinates":[106.8238416,-6.6292704],"type":"Point"},"properties":{"fid":1653,"NAMA":"HALTE/ SHELTER METROLOGI","TIPE_1":"TRANSPORTASI","TIPE_2":"HALTE","TIPE_3":"-","TELEPON":"","ALAMAT":"JL. RAYA TAJUR, RT. 002/002, MUARA SARI, RT.01/RW.04, PAKUAN, BOGOR SELATAN, BOGOR CITY, WEST JAVA 16134","ID_PROV":"32","PROVINSI":"JAWA BARAT","ID_KABKOT":"32.71","KABKOT":"KOTA BOGOR","ID_KEC":"32.71.01","KECAMATAN":"BOGOR SELATAN","ID_DESA":"32.71.01.1015","DESA":"PAKUAN","LONGITUDE":106.8238416,"LATITUDE":-6.6292704,"STATUS":"BUKA","TANGGAL PENGUMPULAN":"Q2 2024","TANGGAL UPDATE":"27/07/2025"}},{"type":"Feature","geometry":{"coordinates":[106.8448077,-6.6621413],"type":"Point"},"properties":{"fid":1654,"NAMA":"HALTE/ SHELTER TRANSPAKUAN/ RANCAMAYA","TIPE_1":"TRANSPORTASI","TIPE_2":"HALTE","TIPE_3":"-","TELEPON":"","ALAMAT":"JL. RAYA CIAWI - SUKABUMI NO.2, RT.01/RW.08, RT.01/RW.08, KP. PARUNG JAMBU, HARJASARI, CIAWI, BOGOR CITY, WEST JAVA 16720","ID_PROV":"32","PROVINSI":"JAWA BARAT","ID_KABKOT":"32.71","KABKOT":"KOTA BOGOR","ID_KEC":"32.71.01","KECAMATAN":"BOGOR SELATAN","ID_DESA":"32.71.01.1012","DESA":"HARJASARI","LONGITUDE":106.8448077,"LATITUDE":-6.6621413,"STATUS":"BUKA","TANGGAL PENGUMPULAN":"Q2 2024","TANGGAL UPDATE":"27/07/2025"}},{"type":"Feature","geometry":{"coordinates":[106.77302,-6.55731],"type":"Point"},"properties":{"fid":1655,"NAMA":"HERMINA","TIPE_1":"TRANSPORTASI","TIPE_2":"HALTE","TIPE_3":"-","TELEPON":"","ALAMAT":"CURUGMEKAR, KEC. BOGOR BAR., KOTA BOGOR, JAWA BARAT","ID_PROV":"32","PROVINSI":"JAWA BARAT","ID_KABKOT":"32.71","KABKOT":"KOTA BOGOR","ID_KEC":"32.71.04","KECAMATAN":"BOGOR BARAT","ID_DESA":"32.71.04.1010","DESA":"CURUG MEKAR","LONGITUDE":106.77302,"LATITUDE":-6.55731,"STATUS":"BUKA","TANGGAL PENGUMPULAN":"Q2 2024","TANGGAL UPDATE":"27/07/2025"}},{"type":"Feature","geometry":{"coordinates":[106.80562,-6.58701],"type":"Point"},"properties":{"fid":1657,"NAMA":"IPB MM","TIPE_1":"TRANSPORTASI","TIPE_2":"HALTE","TIPE_3":"-","TELEPON":"","ALAMAT":"BABAKAN, KECAMATAN BOGOR TENGAH, KOTA BOGOR, JAWA BARAT","ID_PROV":"32","PROVINSI":"JAWA BARAT","ID_KABKOT":"32.71","KABKOT":"KOTA BOGOR","ID_KEC":"32.71.03","KECAMATAN":"BOGOR TENGAH","ID_DESA":"32.71.03.1005","DESA":"BABAKAN","LONGITUDE":106.80562,"LATITUDE":-6.58701,"STATUS":"BUKA","TANGGAL PENGUMPULAN":"Q2 2024","TANGGAL UPDATE":"27/07/2025"}},{"type":"Feature","geometry":{"coordinates":[106.80678,-6.56865],"type":"Point"},"properties":{"fid":1658,"NAMA":"JALAN JEND AHMAD YANI BOGOR","TIPE_1":"TRANSPORTASI","TIPE_2":"HALTE","TIPE_3":"-","TELEPON":"","ALAMAT":"TANAH SAREAL, KEC. TANAH SEREAL, KOTA BOGOR, JAWA BARAT","ID_PROV":"32","PROVINSI":"JAWA BARAT","ID_KABKOT":"32.71","KABKOT":"KOTA BOGOR","ID_KEC":"32.71.06","KECAMATAN":"TANAH SAREAL","ID_DESA":"32.71.06.1001","DESA":"TANAH SAREAL","LONGITUDE":106.80678,"LATITUDE":-6.56865,"STATUS":"BUKA","TANGGAL PENGUMPULAN":"Q2 2024","TANGGAL UPDATE":"27/07/2025"}},{"type":"Feature","geometry":{"coordinates":[106.80995,-6.62539],"type":"Point"},"properties":{"fid":1664,"NAMA":"JL. CIPAKU","TIPE_1":"TRANSPORTASI","TIPE_2":"HALTE","TIPE_3":"-","TELEPON":"","ALAMAT":"LAWANGGINTUNG, KEC. BOGOR SEL., KOTA BOGOR, JAWA BARAT","ID_PROV":"32","PROVINSI":"JAWA BARAT","ID_KABKOT":"32.71","KABKOT":"KOTA BOGOR","ID_KEC":"32.71.01","KECAMATAN":"BOGOR SELATAN","ID_DESA":"32.71.01.1004","DESA":"LAWANGGINTUNG","LONGITUDE":106.80995,"LATITUDE":-6.62539,"STATUS":"BUKA","TANGGAL PENGUMPULAN":"Q2 2024","TANGGAL UPDATE":"27/07/2025"}},{"type":"Feature","geometry":{"coordinates":[106.80432,-6.59213],"type":"Point"},"properties":{"fid":1665,"NAMA":"JL. PANGRANGO","TIPE_1":"TRANSPORTASI","TIPE_2":"HALTE","TIPE_3":"-","TELEPON":"","ALAMAT":"BABAKAN, KECAMATAN BOGOR TENGAH, KOTA BOGOR, JAWA BARAT","ID_PROV":"32","PROVINSI":"JAWA BARAT","ID_KABKOT":"32.71","KABKOT":"KOTA BOGOR","ID_KEC":"32.71.03","KECAMATAN":"BOGOR TENGAH","ID_DESA":"32.71.03.1005","DESA":"BABAKAN","LONGITUDE":106.80432,"LATITUDE":-6.59213,"STATUS":"BUKA","TANGGAL PENGUMPULAN":"Q2 2024","TANGGAL UPDATE":"27/07/2025"}},{"type":"Feature","geometry":{"coordinates":[106.80058,-6.56717],"type":"Point"},"properties":{"fid":1670,"NAMA":"KANTOR DINAS PENDIDIKAN","TIPE_1":"TRANSPORTASI","TIPE_2":"HALTE","TIPE_3":"-","TELEPON":"","ALAMAT":"KB. PEDES, KEC. TANAH SEREAL, KOTA BOGOR, JAWA BARAT","ID_PROV":"32","PROVINSI":"JAWA BARAT","ID_KABKOT":"32.71","KABKOT":"KOTA BOGOR","ID_KEC":"32.71.06","KECAMATAN":"TANAH SAREAL","ID_DESA":"32.71.06.1002","DESA":"KEBON PEDES","LONGITUDE":106.80058,"LATITUDE":-6.56717,"STATUS":"BUKA","TANGGAL PENGUMPULAN":"Q2 2024","TANGGAL UPDATE":"27/07/2025"}},{"type":"Feature","geometry":{"coordinates":[106.80505,-6.60024],"type":"Point"},"properties":{"fid":1672,"NAMA":"KEBUN RAYA","TIPE_1":"TRANSPORTASI","TIPE_2":"HALTE","TIPE_3":"-","TELEPON":"","ALAMAT":"TEGALLEGA, KECAMATAN BOGOR TENGAH, KOTA BOGOR, JAWA BARAT","ID_PROV":"32","PROVINSI":"JAWA BARAT","ID_KABKOT":"32.71","KABKOT":"KOTA BOGOR","ID_KEC":"32.71.03","KECAMATAN":"BOGOR TENGAH","ID_DESA":"32.71.03.1007","DESA":"TEGALLEGA","LONGITUDE":106.80505,"LATITUDE":-6.60024,"STATUS":"BUKA","TANGGAL PENGUMPULAN":"Q2 2024","TANGGAL UPDATE":"27/07/2025"}},{"type":"Feature","geometry":{"coordinates":[106.81379,-6.6137],"type":"Point"},"properties":{"fid":1674,"NAMA":"KESATUAN 2","TIPE_1":"TRANSPORTASI","TIPE_2":"HALTE","TIPE_3":"-","TELEPON":"","ALAMAT":"BARANANGSIANG, KEC. BOGOR TIM., KOTA BOGOR, JAWA BARAT","ID_PROV":"32","PROVINSI":"JAWA BARAT","ID_KABKOT":"32.71","KABKOT":"KOTA BOGOR","ID_KEC":"32.71.02","KECAMATAN":"BOGOR TIMUR","ID_DESA":"32.71.02.1002","DESA":"BARANANGSIANG","LONGITUDE":106.81379,"LATITUDE":-6.6137,"STATUS":"BUKA","TANGGAL PENGUMPULAN":"Q2 2024","TANGGAL UPDATE":"27/07/2025"}},{"type":"Feature","geometry":{"coordinates":[106.81985,-6.61196],"type":"Point"},"properties":{"fid":1676,"NAMA":"KOL. AHMAD SYAM 1","TIPE_1":"TRANSPORTASI","TIPE_2":"HALTE","TIPE_3":"-","TELEPON":"","ALAMAT":"BARANANGSIANG, KEC. BOGOR TIM., KOTA BOGOR, JAWA BARAT","ID_PROV":"32","PROVINSI":"JAWA BARAT","ID_KABKOT":"32.71","KABKOT":"KOTA BOGOR","ID_KEC":"32.71.02","KECAMATAN":"BOGOR TIMUR","ID_DESA":"32.71.02.1003","DESA":"KATULAMPA","LONGITUDE":106.81985,"LATITUDE":-6.61196,"STATUS":"BUKA","TANGGAL PENGUMPULAN":"Q2 2024","TANGGAL UPDATE":"27/07/2025"}},{"type":"Feature","geometry":{"coordinates":[106.81992,-6.61122],"type":"Point"},"properties":{"fid":1677,"NAMA":"KOL. AHMAD SYAM 2","TIPE_1":"TRANSPORTASI","TIPE_2":"HALTE","TIPE_3":"-","TELEPON":"","ALAMAT":"BARANANGSIANG, KEC. BOGOR TIM., KOTA BOGOR, JAWA BARAT","ID_PROV":"32","PROVINSI":"JAWA BARAT","ID_KABKOT":"32.71","KABKOT":"KOTA BOGOR","ID_KEC":"32.71.02","KECAMATAN":"BOGOR TIMUR","ID_DESA":"32.71.02.1003","DESA":"KATULAMPA","LONGITUDE":106.81992,"LATITUDE":-6.61122,"STATUS":"BUKA","TANGGAL PENGUMPULAN":"Q2 2024","TANGGAL UPDATE":"27/07/2025"}},{"type":"Feature","geometry":{"coordinates":[106.80684,-6.54952],"type":"Point"},"properties":{"fid":1678,"NAMA":"KOMPLEK PGRI","TIPE_1":"TRANSPORTASI","TIPE_2":"HALTE","TIPE_3":"-","TELEPON":"","ALAMAT":"KEDUNGHALANG, KEC. BOGOR UTARA, KOTA BOGOR, JAWA BARAT","ID_PROV":"32","PROVINSI":"JAWA BARAT","ID_KABKOT":"32.71","KABKOT":"KOTA BOGOR","ID_KEC":"32.71.05","KECAMATAN":"BOGOR UTARA","ID_DESA":"32.71.05.1003","DESA":"KEDUNG HALANG","LONGITUDE":106.80684,"LATITUDE":-6.54952,"STATUS":"BUKA","TANGGAL PENGUMPULAN":"Q2 2024","TANGGAL UPDATE":"27/07/2025"}},{"type":"Feature","geometry":{"coordinates":[106.7959,-6.60342],"type":"Point"},"properties":{"fid":1680,"NAMA":"KPPN BOGOR","TIPE_1":"TRANSPORTASI","TIPE_2":"HALTE","TIPE_3":"-","TELEPON":"","ALAMAT":"PALEDANG, KECAMATAN BOGOR TENGAH, KOTA BOGOR, JAWA BARAT","ID_PROV":"32","PROVINSI":"JAWA BARAT","ID_KABKOT":"32.71","KABKOT":"KOTA BOGOR","ID_KEC":"32.71.03","KECAMATAN":"BOGOR TENGAH","ID_DESA":"32.71.03.1002","DESA":"PALEDANG","LONGITUDE":106.7959,"LATITUDE":-6.60342,"STATUS":"BUKA","TANGGAL PENGUMPULAN":"Q2 2024","TANGGAL UPDATE":"27/07/2025"}},{"type":"Feature","geometry":{"coordinates":[106.8175,-6.62229],"type":"Point"},"properties":{"fid":1683,"NAMA":"LIPPO PLAZA BOGOR","TIPE_1":"TRANSPORTASI","TIPE_2":"HALTE","TIPE_3":"-","TELEPON":"","ALAMAT":"SUKASARI, KEC. BOGOR TIM., KOTA BOGOR, JAWA BARAT","ID_PROV":"32","PROVINSI":"JAWA BARAT","ID_KABKOT":"32.71","KABKOT":"KOTA BOGOR","ID_KEC":"32.71.02","KECAMATAN":"BOGOR TIMUR","ID_DESA":"32.71.02.1001","DESA":"SUKASARI","LONGITUDE":106.8175,"LATITUDE":-6.62229,"STATUS":"BUKA","TANGGAL PENGUMPULAN":"Q2 2024","TANGGAL UPDATE":"27/07/2025"}},{"type":"Feature","geometry":{"coordinates":[106.8089,-6.60692],"type":"Point"},"properties":{"fid":1685,"NAMA":"MASJID RAYA KOTA BOGOR","TIPE_1":"TRANSPORTASI","TIPE_2":"HALTE","TIPE_3":"-","TELEPON":"","ALAMAT":"BARANANGSIANG, KEC. BOGOR TIM., KOTA BOGOR, JAWA BARAT","ID_PROV":"32","PROVINSI":"JAWA BARAT","ID_KABKOT":"32.71","KABKOT":"KOTA BOGOR","ID_KEC":"32.71.02","KECAMATAN":"BOGOR TIMUR","ID_DESA":"32.71.02.1002","DESA":"BARANANGSIANG","LONGITUDE":106.8089,"LATITUDE":-6.60692,"STATUS":"BUKA","TANGGAL PENGUMPULAN":"Q2 2024","TANGGAL UPDATE":"27/07/2025"}},{"type":"Feature","geometry":{"coordinates":[106.82931,-6.63659],"type":"Point"},"properties":{"fid":1688,"NAMA":"PAKUAN 1","TIPE_1":"TRANSPORTASI","TIPE_2":"HALTE","TIPE_3":"-","TELEPON":"","ALAMAT":"PAKUAN, KEC. BOGOR SEL., KOTA BOGOR, JAWA BARAT","ID_PROV":"32","PROVINSI":"JAWA BARAT","ID_KABKOT":"32.71","KABKOT":"KOTA BOGOR","ID_KEC":"32.71.01","KECAMATAN":"BOGOR SELATAN","ID_DESA":"32.71.01.1015","DESA":"PAKUAN","LONGITUDE":106.82931,"LATITUDE":-6.63659,"STATUS":"BUKA","TANGGAL PENGUMPULAN":"Q2 2024","TANGGAL UPDATE":"27/07/2025"}},{"type":"Feature","geometry":{"coordinates":[106.81899,-6.6236],"type":"Point"},"properties":{"fid":1689,"NAMA":"PAKUAN 2","TIPE_1":"TRANSPORTASI","TIPE_2":"HALTE","TIPE_3":"-","TELEPON":"","ALAMAT":"PAKUAN, KEC. BOGOR SEL., KOTA BOGOR, JAWA BARAT","ID_PROV":"32","PROVINSI":"JAWA BARAT","ID_KABKOT":"32.71","KABKOT":"KOTA BOGOR","ID_KEC":"32.71.01","KECAMATAN":"BOGOR SELATAN","ID_DESA":"32.71.01.1015","DESA":"PAKUAN","LONGITUDE":106.81899,"LATITUDE":-6.6236,"STATUS":"BUKA","TANGGAL PENGUMPULAN":"Q2 2024","TANGGAL UPDATE":"27/07/2025"}},{"type":"Feature","geometry":{"coordinates":[106.82928,-6.6216],"type":"Point"},"properties":{"fid":1692,"NAMA":"PARUNG BANTENG","TIPE_1":"TRANSPORTASI","TIPE_2":"HALTE","TIPE_3":"-","TELEPON":"","ALAMAT":"KATULAMPA, KEC. BOGOR TIM., KOTA BOGOR, JAWA BARAT","ID_PROV":"32","PROVINSI":"JAWA BARAT","ID_KABKOT":"32.71","KABKOT":"KOTA BOGOR","ID_KEC":"32.71.02","KECAMATAN":"BOGOR TIMUR","ID_DESA":"32.71.02.1003","DESA":"KATULAMPA","LONGITUDE":106.82928,"LATITUDE":-6.6216,"STATUS":"BUKA","TANGGAL PENGUMPULAN":"Q2 2024","TANGGAL UPDATE":"27/07/2025"}},{"type":"Feature","geometry":{"coordinates":[106.809968,-6.6082783],"type":"Point"},"properties":{"fid":1696,"NAMA":"PDAM 1","TIPE_1":"TRANSPORTASI","TIPE_2":"HALTE","TIPE_3":"-","TELEPON":"","ALAMAT":"JL. RAYA PAJAJARAN, RT.2/RW.4, BARANANGSIANG, KEC. BOGOR TIM., KOTA BOGOR, JAWA BARAT 16143","ID_PROV":"32","PROVINSI":"JAWA BARAT","ID_KABKOT":"32.71","KABKOT":"KOTA BOGOR","ID_KEC":"32.71.02","KECAMATAN":"BOGOR TIMUR","ID_DESA":"32.71.02.1002","DESA":"BARANANGSIANG","LONGITUDE":106.809968,"LATITUDE":-6.6082783,"STATUS":"BUKA","TANGGAL PENGUMPULAN":"Q2 2024","TANGGAL UPDATE":"27/07/2025"}},{"type":"Feature","geometry":{"coordinates":[106.81837,-6.6229],"type":"Point"},"properties":{"fid":1697,"NAMA":"PDAM 2","TIPE_1":"TRANSPORTASI","TIPE_2":"HALTE","TIPE_3":"-","TELEPON":"","ALAMAT":"SUKASARI, KEC. BOGOR TIM., KOTA BOGOR, JAWA BARAT","ID_PROV":"32","PROVINSI":"JAWA BARAT","ID_KABKOT":"32.71","KABKOT":"KOTA BOGOR","ID_KEC":"32.71.02","KECAMATAN":"BOGOR TIMUR","ID_DESA":"32.71.02.1006","DESA":"TAJUR","LONGITUDE":106.81837,"LATITUDE":-6.6229,"STATUS":"BUKA","TANGGAL PENGUMPULAN":"Q2 2024","TANGGAL UPDATE":"27/07/2025"}},{"type":"Feature","geometry":{"coordinates":[106.7873987,-6.5921816],"type":"Point"},"properties":{"fid":1700,"NAMA":"PGB MERDEKA","TIPE_1":"TRANSPORTASI","TIPE_2":"HALTE","TIPE_3":"-","TELEPON":"","ALAMAT":"KB. KLP., KECAMATAN BOGOR TENGAH, KOTA BOGOR, JAWA BARAT","ID_PROV":"32","PROVINSI":"JAWA BARAT","ID_KABKOT":"32.71","KABKOT":"KOTA BOGOR","ID_KEC":"32.71.03","KECAMATAN":"BOGOR TENGAH","ID_DESA":"32.71.03.1011","DESA":"KEBON KALAPA","LONGITUDE":106.7873987,"LATITUDE":-6.5921816,"STATUS":"BUKA","TANGGAL PENGUMPULAN":"Q2 2024","TANGGAL UPDATE":"27/07/2025"}},{"type":"Feature","geometry":{"coordinates":[106.8077915,-6.5686453],"type":"Point"},"properties":{"fid":1701,"NAMA":"PLAZA JAMBU DUA","TIPE_1":"TRANSPORTASI","TIPE_2":"HALTE","TIPE_3":"-","TELEPON":"","ALAMAT":"CIBULUH, KEC. BOGOR UTARA, KOTA BOGOR, JAWA BARAT","ID_PROV":"32","PROVINSI":"JAWA BARAT","ID_KABKOT":"32.71","KABKOT":"KOTA BOGOR","ID_KEC":"32.71.05","KECAMATAN":"BOGOR UTARA","ID_DESA":"32.71.05.1001","DESA":"BANTARJATI","LONGITUDE":106.8077915,"LATITUDE":-6.5686453,"STATUS":"BUKA","TANGGAL PENGUMPULAN":"Q2 2024","TANGGAL UPDATE":"27/07/2025"}},{"type":"Feature","geometry":{"coordinates":[106.78786,-6.58815],"type":"Point"},"properties":{"fid":1706,"NAMA":"PUSKESMAS MERDEKA","TIPE_1":"TRANSPORTASI","TIPE_2":"HALTE","TIPE_3":"-","TELEPON":"","ALAMAT":"CIWARINGIN, KECAMATAN BOGOR TENGAH, KOTA BOGOR, JAWA BARAT","ID_PROV":"32","PROVINSI":"JAWA BARAT","ID_KABKOT":"32.71","KABKOT":"KOTA BOGOR","ID_KEC":"32.71.03","KECAMATAN":"BOGOR TENGAH","ID_DESA":"32.71.03.1010","DESA":"CIWARINGIN","LONGITUDE":106.78786,"LATITUDE":-6.58815,"STATUS":"BUKA","TANGGAL PENGUMPULAN":"Q2 2024","TANGGAL UPDATE":"27/07/2025"}},{"type":"Feature","geometry":{"coordinates":[106.7718,-6.5573],"type":"Point"},"properties":{"fid":1707,"NAMA":"RADAR BOGOR","TIPE_1":"TRANSPORTASI","TIPE_2":"HALTE","TIPE_3":"-","TELEPON":"","ALAMAT":"CURUGMEKAR, KEC. BOGOR BAR., KOTA BOGOR, JAWA BARAT","ID_PROV":"32","PROVINSI":"JAWA BARAT","ID_KABKOT":"32.71","KABKOT":"KOTA BOGOR","ID_KEC":"32.71.04","KECAMATAN":"BOGOR BARAT","ID_DESA":"32.71.04.1010","DESA":"CURUG MEKAR","LONGITUDE":106.7718,"LATITUDE":-6.5573,"STATUS":"BUKA","TANGGAL PENGUMPULAN":"Q2 2024","TANGGAL UPDATE":"27/07/2025"}},{"type":"Feature","geometry":{"coordinates":[106.79954,-6.60283],"type":"Point"},"properties":{"fid":1708,"NAMA":"RAMAYANA PASAR BOGOR","TIPE_1":"TRANSPORTASI","TIPE_2":"HALTE","TIPE_3":"-","TELEPON":"","ALAMAT":"BABAKAN PS., KECAMATAN BOGOR TENGAH, KOTA BOGOR, JAWA BARAT","ID_PROV":"32","PROVINSI":"JAWA BARAT","ID_KABKOT":"32.71","KABKOT":"KOTA BOGOR","ID_KEC":"32.71.03","KECAMATAN":"BOGOR TENGAH","ID_DESA":"32.71.03.1008","DESA":"BABAKAN PASAR","LONGITUDE":106.79954,"LATITUDE":-6.60283,"STATUS":"BUKA","TANGGAL PENGUMPULAN":"Q2 2024","TANGGAL UPDATE":"27/07/2025"}},{"type":"Feature","geometry":{"coordinates":[106.76711,-6.56035],"type":"Point"},"properties":{"fid":1710,"NAMA":"RUKO YASMIN 1","TIPE_1":"TRANSPORTASI","TIPE_2":"HALTE","TIPE_3":"-","TELEPON":"","ALAMAT":"CURUGMEKAR, KEC. BOGOR BAR., KOTA BOGOR, JAWA BARAT","ID_PROV":"32","PROVINSI":"JAWA BARAT","ID_KABKOT":"32.71","KABKOT":"KOTA BOGOR","ID_KEC":"32.71.04","KECAMATAN":"BOGOR BARAT","ID_DESA":"32.71.04.1010","DESA":"CURUG MEKAR","LONGITUDE":106.76711,"LATITUDE":-6.56035,"STATUS":"BUKA","TANGGAL PENGUMPULAN":"Q2 2024","TANGGAL UPDATE":"27/07/2025"}},{"type":"Feature","geometry":{"coordinates":[106.7672942,-6.5605752],"type":"Point"},"properties":{"fid":1711,"NAMA":"RUKO YASMIN 2","TIPE_1":"TRANSPORTASI","TIPE_2":"HALTE","TIPE_3":"-","TELEPON":"","ALAMAT":"CURUGMEKAR, KEC. BOGOR BAR., KOTA BOGOR, JAWA BARAT","ID_PROV":"32","PROVINSI":"JAWA BARAT","ID_KABKOT":"32.71","KABKOT":"KOTA BOGOR","ID_KEC":"32.71.04","KECAMATAN":"BOGOR BARAT","ID_DESA":"32.71.04.1010","DESA":"CURUG MEKAR","LONGITUDE":106.7672942,"LATITUDE":-6.5605752,"STATUS":"BUKA","TANGGAL PENGUMPULAN":"Q2 2024","TANGGAL UPDATE":"27/07/2025"}},{"type":"Feature","geometry":{"coordinates":[106.75711,-6.56953],"type":"Point"},"properties":{"fid":1714,"NAMA":"SBJ 1","TIPE_1":"TRANSPORTASI","TIPE_2":"HALTE","TIPE_3":"-","TELEPON":"","ALAMAT":"BUBULAK, KEC. BOGOR BAR., KOTA BOGOR, JAWA BARAT","ID_PROV":"32","PROVINSI":"JAWA BARAT","ID_KABKOT":"32.71","KABKOT":"KOTA BOGOR","ID_KEC":"32.71.04","KECAMATAN":"BOGOR BARAT","ID_DESA":"32.71.04.1003","DESA":"BUBULAK","LONGITUDE":106.75711,"LATITUDE":-6.56953,"STATUS":"BUKA","TANGGAL PENGUMPULAN":"Q2 2024","TANGGAL UPDATE":"27/07/2025"}},{"type":"Feature","geometry":{"coordinates":[106.7572169,-6.5697068],"type":"Point"},"properties":{"fid":1715,"NAMA":"SBJ 2","TIPE_1":"TRANSPORTASI","TIPE_2":"HALTE","TIPE_3":"-","TELEPON":"","ALAMAT":"SINDANGBARANG, KEC. BOGOR BAR., KOTA BOGOR, JAWA BARAT","ID_PROV":"32","PROVINSI":"JAWA BARAT","ID_KABKOT":"32.71","KABKOT":"KOTA BOGOR","ID_KEC":"32.71.04","KECAMATAN":"BOGOR BARAT","ID_DESA":"32.71.04.1002","DESA":"SINDANG BARANG","LONGITUDE":106.7572169,"LATITUDE":-6.5697068,"STATUS":"BUKA","TANGGAL PENGUMPULAN":"Q2 2024","TANGGAL UPDATE":"27/07/2025"}},{"type":"Feature","geometry":{"coordinates":[106.8037171,-6.6019334],"type":"Point"},"properties":{"fid":1717,"NAMA":"SDN BANGKA","TIPE_1":"TRANSPORTASI","TIPE_2":"HALTE","TIPE_3":"-","TELEPON":"","ALAMAT":"BARANANGSIANG, KEC. BOGOR TIM., KOTA BOGOR, JAWA BARAT","ID_PROV":"32","PROVINSI":"JAWA BARAT","ID_KABKOT":"32.71","KABKOT":"KOTA BOGOR","ID_KEC":"32.71.02","KECAMATAN":"BOGOR TIMUR","ID_DESA":"32.71.02.1002","DESA":"BARANANGSIANG","LONGITUDE":106.8037171,"LATITUDE":-6.6019334,"STATUS":"BUKA","TANGGAL PENGUMPULAN":"Q2 2024","TANGGAL UPDATE":"27/07/2025"}},{"type":"Feature","geometry":{"coordinates":[106.81311,-6.60494],"type":"Point"},"properties":{"fid":1718,"NAMA":"SEBERANG JL. PAKUAN INDAH","TIPE_1":"TRANSPORTASI","TIPE_2":"HALTE","TIPE_3":"-","TELEPON":"","ALAMAT":"BARANANGSIANG, KEC. BOGOR TIM., KOTA BOGOR, JAWA BARAT","ID_PROV":"32","PROVINSI":"JAWA BARAT","ID_KABKOT":"32.71","KABKOT":"KOTA BOGOR","ID_KEC":"32.71.02","KECAMATAN":"BOGOR TIMUR","ID_DESA":"32.71.02.1002","DESA":"BARANANGSIANG","LONGITUDE":106.81311,"LATITUDE":-6.60494,"STATUS":"BUKA","TANGGAL PENGUMPULAN":"Q2 2024","TANGGAL UPDATE":"27/07/2025"}},{"type":"Feature","geometry":{"coordinates":[106.81096,-6.60672],"type":"Point"},"properties":{"fid":1720,"NAMA":"SEBERANG PUSKESMAS BOGOR TIMUR","TIPE_1":"TRANSPORTASI","TIPE_2":"HALTE","TIPE_3":"-","TELEPON":"","ALAMAT":"BARANANGSIANG, KEC. BOGOR TIM., KOTA BOGOR, JAWA BARAT","ID_PROV":"32","PROVINSI":"JAWA BARAT","ID_KABKOT":"32.71","KABKOT":"KOTA BOGOR","ID_KEC":"32.71.02","KECAMATAN":"BOGOR TIMUR","ID_DESA":"32.71.02.1002","DESA":"BARANANGSIANG","LONGITUDE":106.81096,"LATITUDE":-6.60672,"STATUS":"BUKA","TANGGAL PENGUMPULAN":"Q2 2024","TANGGAL UPDATE":"27/07/2025"}},{"type":"Feature","geometry":{"coordinates":[106.77434,-6.59027],"type":"Point"},"properties":{"fid":1722,"NAMA":"SEBERANG YONIF 315 GARUDA BOGOR","TIPE_1":"TRANSPORTASI","TIPE_2":"HALTE","TIPE_3":"-","TELEPON":"","ALAMAT":"GUNUNGBATU, KEC. BOGOR BAR., KOTA BOGOR, JAWA BARAT","ID_PROV":"32","PROVINSI":"JAWA BARAT","ID_KABKOT":"32.71","KABKOT":"KOTA BOGOR","ID_KEC":"32.71.04","KECAMATAN":"BOGOR BARAT","ID_DESA":"32.71.04.1015","DESA":"GUNUNG BATU","LONGITUDE":106.77434,"LATITUDE":-6.59027,"STATUS":"BUKA","TANGGAL PENGUMPULAN":"Q2 2024","TANGGAL UPDATE":"27/07/2025"}},{"type":"Feature","geometry":{"coordinates":[106.81661,-6.59062],"type":"Point"},"properties":{"fid":1727,"NAMA":"SIMPANG BOGOR BARU","TIPE_1":"TRANSPORTASI","TIPE_2":"HALTE","TIPE_3":"-","TELEPON":"","ALAMAT":"TEGAL GUNDIL, KEC. BOGOR UTARA, KOTA BOGOR, JAWA BARAT","ID_PROV":"32","PROVINSI":"JAWA BARAT","ID_KABKOT":"32.71","KABKOT":"KOTA BOGOR","ID_KEC":"32.71.05","KECAMATAN":"BOGOR UTARA","ID_DESA":"32.71.05.1002","DESA":"TEGAL GUNDIL","LONGITUDE":106.81661,"LATITUDE":-6.59062,"STATUS":"BUKA","TANGGAL PENGUMPULAN":"Q2 2024","TANGGAL UPDATE":"27/07/2025"}},{"type":"Feature","geometry":{"coordinates":[106.81686,-6.59055],"type":"Point"},"properties":{"fid":1728,"NAMA":"SIMPANG CIMAHPAR","TIPE_1":"TRANSPORTASI","TIPE_2":"HALTE","TIPE_3":"-","TELEPON":"","ALAMAT":"TEGAL GUNDIL, KEC. BOGOR UTARA, KOTA BOGOR, JAWA BARAT","ID_PROV":"32","PROVINSI":"JAWA BARAT","ID_KABKOT":"32.71","KABKOT":"KOTA BOGOR","ID_KEC":"32.71.05","KECAMATAN":"BOGOR UTARA","ID_DESA":"32.71.05.1002","DESA":"TEGAL GUNDIL","LONGITUDE":106.81686,"LATITUDE":-6.59055,"STATUS":"BUKA","TANGGAL PENGUMPULAN":"Q2 2024","TANGGAL UPDATE":"27/07/2025"}},{"type":"Feature","geometry":{"coordinates":[106.81292,-6.55957],"type":"Point"},"properties":{"fid":1729,"NAMA":"SIMPANG TALANG 1","TIPE_1":"TRANSPORTASI","TIPE_2":"HALTE","TIPE_3":"-","TELEPON":"","ALAMAT":"KEDUNGHALANG, KEC. BOGOR UTARA, KOTA BOGOR, JAWA BARAT","ID_PROV":"32","PROVINSI":"JAWA BARAT","ID_KABKOT":"32.71","KABKOT":"KOTA BOGOR","ID_KEC":"32.71.05","KECAMATAN":"BOGOR UTARA","ID_DESA":"32.71.05.1003","DESA":"KEDUNG HALANG","LONGITUDE":106.81292,"LATITUDE":-6.55957,"STATUS":"BUKA","TANGGAL PENGUMPULAN":"Q2 2024","TANGGAL UPDATE":"27/07/2025"}},{"type":"Feature","geometry":{"coordinates":[106.84083,-6.64527],"type":"Point"},"properties":{"fid":1730,"NAMA":"SINDANGSARI 1","TIPE_1":"TRANSPORTASI","TIPE_2":"HALTE","TIPE_3":"-","TELEPON":"","ALAMAT":"SINDANGSARI, KEC. BOGOR TIM., KOTA BOGOR, JAWA BARAT","ID_PROV":"32","PROVINSI":"JAWA BARAT","ID_KABKOT":"32.71","KABKOT":"KOTA BOGOR","ID_KEC":"32.71.02","KECAMATAN":"BOGOR TIMUR","ID_DESA":"32.71.02.1004","DESA":"SINDANGSARI","LONGITUDE":106.84083,"LATITUDE":-6.64527,"STATUS":"BUKA","TANGGAL PENGUMPULAN":"Q2 2024","TANGGAL UPDATE":"27/07/2025"}},{"type":"Feature","geometry":{"coordinates":[106.84438,-6.64982],"type":"Point"},"properties":{"fid":1731,"NAMA":"SINDANGSARI 2","TIPE_1":"TRANSPORTASI","TIPE_2":"HALTE","TIPE_3":"-","TELEPON":"","ALAMAT":"SINDANGSARI, KEC. BOGOR TIM., KOTA BOGOR, JAWA BARAT","ID_PROV":"32","PROVINSI":"JAWA BARAT","ID_KABKOT":"32.71","KABKOT":"KOTA BOGOR","ID_KEC":"32.71.02","KECAMATAN":"BOGOR TIMUR","ID_DESA":"32.71.02.1004","DESA":"SINDANGSARI","LONGITUDE":106.84438,"LATITUDE":-6.64982,"STATUS":"BUKA","TANGGAL PENGUMPULAN":"Q2 2024","TANGGAL UPDATE":"27/07/2025"}},{"type":"Feature","geometry":{"coordinates":[106.80653,-6.5829],"type":"Point"},"properties":{"fid":1732,"NAMA":"SMKN 3","TIPE_1":"TRANSPORTASI","TIPE_2":"HALTE","TIPE_3":"-","TELEPON":"","ALAMAT":"BANTARJATI, KEC. BOGOR UTARA, KOTA BOGOR, JAWA BARAT","ID_PROV":"32","PROVINSI":"JAWA BARAT","ID_KABKOT":"32.71","KABKOT":"KOTA BOGOR","ID_KEC":"32.71.03","KECAMATAN":"BOGOR TENGAH","ID_DESA":"32.71.03.1005","DESA":"BABAKAN","LONGITUDE":106.80653,"LATITUDE":-6.5829,"STATUS":"BUKA","TANGGAL PENGUMPULAN":"Q2 2024","TANGGAL UPDATE":"27/07/2025"}},{"type":"Feature","geometry":{"coordinates":[106.80004,-6.56896],"type":"Point"},"properties":{"fid":1733,"NAMA":"SMPN 5","TIPE_1":"TRANSPORTASI","TIPE_2":"HALTE","TIPE_3":"-","TELEPON":"","ALAMAT":"TANAH SAREAL, KEC. TANAH SEREAL, KOTA BOGOR, JAWA BARAT","ID_PROV":"32","PROVINSI":"JAWA BARAT","ID_KABKOT":"32.71","KABKOT":"KOTA BOGOR","ID_KEC":"32.71.06","KECAMATAN":"TANAH SAREAL","ID_DESA":"32.71.06.1001","DESA":"TANAH SAREAL","LONGITUDE":106.80004,"LATITUDE":-6.56896,"STATUS":"BUKA","TANGGAL PENGUMPULAN":"Q2 2024","TANGGAL UPDATE":"27/07/2025"}},{"type":"Feature","geometry":{"coordinates":[106.78989,-6.59449],"type":"Point"},"properties":{"fid":1736,"NAMA":"STASIUN BOGOR","TIPE_1":"TRANSPORTASI","TIPE_2":"HALTE","TIPE_3":"-","TELEPON":"","ALAMAT":"CIBOGOR, KECAMATAN BOGOR TENGAH, KOTA BOGOR, JAWA BARAT","ID_PROV":"32","PROVINSI":"JAWA BARAT","ID_KABKOT":"32.71","KABKOT":"KOTA BOGOR","ID_KEC":"32.71.03","KECAMATAN":"BOGOR TENGAH","ID_DESA":"32.71.03.1004","DESA":"CIBOGOR","LONGITUDE":106.78989,"LATITUDE":-6.59449,"STATUS":"BUKA","TANGGAL PENGUMPULAN":"Q2 2024","TANGGAL UPDATE":"27/07/2025"}},{"type":"Feature","geometry":{"coordinates":[106.78923,-6.59565],"type":"Point"},"properties":{"fid":1737,"NAMA":"STASIUN BOGOR 1","TIPE_1":"TRANSPORTASI","TIPE_2":"HALTE","TIPE_3":"-","TELEPON":"","ALAMAT":"CIBOGOR, KECAMATAN BOGOR TENGAH, KOTA BOGOR, JAWA BARAT","ID_PROV":"32","PROVINSI":"JAWA BARAT","ID_KABKOT":"32.71","KABKOT":"KOTA BOGOR","ID_KEC":"32.71.03","KECAMATAN":"BOGOR TENGAH","ID_DESA":"32.71.03.1004","DESA":"CIBOGOR","LONGITUDE":106.78923,"LATITUDE":-6.59565,"STATUS":"BUKA","TANGGAL PENGUMPULAN":"Q2 2024","TANGGAL UPDATE":"27/07/2025"}},{"type":"Feature","geometry":{"coordinates":[106.7892037,-6.5958609],"type":"Point"},"properties":{"fid":1738,"NAMA":"STASIUN BOGOR 2","TIPE_1":"TRANSPORTASI","TIPE_2":"HALTE","TIPE_3":"-","TELEPON":"","ALAMAT":"PALEDANG, KECAMATAN BOGOR TENGAH, KOTA BOGOR, JAWA BARAT","ID_PROV":"32","PROVINSI":"JAWA BARAT","ID_KABKOT":"32.71","KABKOT":"KOTA BOGOR","ID_KEC":"32.71.03","KECAMATAN":"BOGOR TENGAH","ID_DESA":"32.71.03.1002","DESA":"PALEDANG","LONGITUDE":106.7892037,"LATITUDE":-6.5958609,"STATUS":"BUKA","TANGGAL PENGUMPULAN":"Q2 2024","TANGGAL UPDATE":"27/07/2025"}},{"type":"Feature","geometry":{"coordinates":[106.7896573,-6.596102],"type":"Point"},"properties":{"fid":1739,"NAMA":"STASIUN BOGOR JL. PALEDANG","TIPE_1":"TRANSPORTASI","TIPE_2":"HALTE","TIPE_3":"-","TELEPON":"","ALAMAT":"PALEDANG, KECAMATAN BOGOR TENGAH, KOTA BOGOR, JAWA BARAT","ID_PROV":"32","PROVINSI":"JAWA BARAT","ID_KABKOT":"32.71","KABKOT":"KOTA BOGOR","ID_KEC":"32.71.03","KECAMATAN":"BOGOR TENGAH","ID_DESA":"32.71.03.1002","DESA":"PALEDANG","LONGITUDE":106.7896573,"LATITUDE":-6.596102,"STATUS":"BUKA","TANGGAL PENGUMPULAN":"Q2 2024","TANGGAL UPDATE":"27/07/2025"}},{"type":"Feature","geometry":{"coordinates":[106.7971031,-6.5879693],"type":"Point"},"properties":{"fid":1743,"NAMA":"SUDIRMAN 2","TIPE_1":"TRANSPORTASI","TIPE_2":"HALTE","TIPE_3":"-","TELEPON":"","ALAMAT":"JL. JEND. SUDIRMAN, SEMPUR, KECAMATAN BOGOR TENGAH, KOTA BOGOR, JAWA BARAT 16121","ID_PROV":"32","PROVINSI":"JAWA BARAT","ID_KABKOT":"32.71","KABKOT":"KOTA BOGOR","ID_KEC":"32.71.03","KECAMATAN":"BOGOR TENGAH","ID_DESA":"32.71.03.1006","DESA":"SEMPUR","LONGITUDE":106.7971031,"LATITUDE":-6.5879693,"STATUS":"BUKA","TANGGAL PENGUMPULAN":"Q2 2024","TANGGAL UPDATE":"27/07/2025"}},{"type":"Feature","geometry":{"coordinates":[106.81793,-6.58117],"type":"Point"},"properties":{"fid":1749,"NAMA":"TAMAN CORAT CORET 1","TIPE_1":"TRANSPORTASI","TIPE_2":"HALTE","TIPE_3":"-","TELEPON":"","ALAMAT":"TEGAL GUNDIL, KEC. BOGOR UTARA, KOTA BOGOR, JAWA BARAT","ID_PROV":"32","PROVINSI":"JAWA BARAT","ID_KABKOT":"32.71","KABKOT":"KOTA BOGOR","ID_KEC":"32.71.05","KECAMATAN":"BOGOR UTARA","ID_DESA":"32.71.05.1002","DESA":"TEGAL GUNDIL","LONGITUDE":106.81793,"LATITUDE":-6.58117,"STATUS":"BUKA","TANGGAL PENGUMPULAN":"Q2 2024","TANGGAL UPDATE":"27/07/2025"}},{"type":"Feature","geometry":{"coordinates":[106.80212,-6.59151],"type":"Point"},"properties":{"fid":1750,"NAMA":"TAMAN EKSPRESI","TIPE_1":"TRANSPORTASI","TIPE_2":"HALTE","TIPE_3":"-","TELEPON":"","ALAMAT":"BABAKAN, KECAMATAN BOGOR TENGAH, KOTA BOGOR, JAWA BARAT","ID_PROV":"32","PROVINSI":"JAWA BARAT","ID_KABKOT":"32.71","KABKOT":"KOTA BOGOR","ID_KEC":"32.71.03","KECAMATAN":"BOGOR TENGAH","ID_DESA":"32.71.03.1005","DESA":"BABAKAN","LONGITUDE":106.80212,"LATITUDE":-6.59151,"STATUS":"BUKA","TANGGAL PENGUMPULAN":"Q2 2024","TANGGAL UPDATE":"27/07/2025"}},{"type":"Feature","geometry":{"coordinates":[106.80208,-6.58905],"type":"Point"},"properties":{"fid":1751,"NAMA":"TAMAN KENCANA 2","TIPE_1":"TRANSPORTASI","TIPE_2":"HALTE","TIPE_3":"-","TELEPON":"","ALAMAT":"BABAKAN, KECAMATAN BOGOR TENGAH, KOTA BOGOR, JAWA BARAT","ID_PROV":"32","PROVINSI":"JAWA BARAT","ID_KABKOT":"32.71","KABKOT":"KOTA BOGOR","ID_KEC":"32.71.03","KECAMATAN":"BOGOR TENGAH","ID_DESA":"32.71.03.1005","DESA":"BABAKAN","LONGITUDE":106.80208,"LATITUDE":-6.58905,"STATUS":"BUKA","TANGGAL PENGUMPULAN":"Q2 2024","TANGGAL UPDATE":"27/07/2025"}},{"type":"Feature","geometry":{"coordinates":[106.790797,-6.5961806],"type":"Point"},"properties":{"fid":1752,"NAMA":"TAMAN TOPI BOGOR","TIPE_1":"TRANSPORTASI","TIPE_2":"HALTE","TIPE_3":"-","TELEPON":"","ALAMAT":"JALAN KAPTEN MUSLIHAT, BOGOR TENGAH, KOTA BOGOR, JAWA BARAT 16122","ID_PROV":"32","PROVINSI":"JAWA BARAT","ID_KABKOT":"32.71","KABKOT":"KOTA BOGOR","ID_KEC":"32.71.03","KECAMATAN":"BOGOR TENGAH","ID_DESA":"32.71.03.1002","DESA":"PALEDANG","LONGITUDE":106.790797,"LATITUDE":-6.5961806,"STATUS":"BUKA","TANGGAL PENGUMPULAN":"Q2 2024","TANGGAL UPDATE":"27/07/2025"}},{"type":"Feature","geometry":{"coordinates":[106.76551,-6.56171],"type":"Point"},"properties":{"fid":1754,"NAMA":"TAMAN YASMIN 1","TIPE_1":"TRANSPORTASI","TIPE_2":"HALTE","TIPE_3":"-","TELEPON":"","ALAMAT":"CURUGMEKAR, KEC. BOGOR BAR., KOTA BOGOR, JAWA BARAT","ID_PROV":"32","PROVINSI":"JAWA BARAT","ID_KABKOT":"32.71","KABKOT":"KOTA BOGOR","ID_KEC":"32.71.04","KECAMATAN":"BOGOR BARAT","ID_DESA":"32.71.04.1010","DESA":"CURUG MEKAR","LONGITUDE":106.76551,"LATITUDE":-6.56171,"STATUS":"BUKA","TANGGAL PENGUMPULAN":"Q2 2024","TANGGAL UPDATE":"27/07/2025"}},{"type":"Feature","geometry":{"coordinates":[106.76582,-6.56172],"type":"Point"},"properties":{"fid":1755,"NAMA":"TAMAN YASMIN 2","TIPE_1":"TRANSPORTASI","TIPE_2":"HALTE","TIPE_3":"-","TELEPON":"","ALAMAT":"CURUGMEKAR, KEC. BOGOR BAR., KOTA BOGOR, JAWA BARAT","ID_PROV":"32","PROVINSI":"JAWA BARAT","ID_KABKOT":"32.71","KABKOT":"KOTA BOGOR","ID_KEC":"32.71.04","KECAMATAN":"BOGOR BARAT","ID_DESA":"32.71.04.1010","DESA":"CURUG MEKAR","LONGITUDE":106.76582,"LATITUDE":-6.56172,"STATUS":"BUKA","TANGGAL PENGUMPULAN":"Q2 2024","TANGGAL UPDATE":"27/07/2025"}},{"type":"Feature","geometry":{"coordinates":[106.80676,-6.60585],"type":"Point"},"properties":{"fid":1759,"NAMA":"TERMINAL BARANANGSIANG","TIPE_1":"TRANSPORTASI","TIPE_2":"HALTE","TIPE_3":"-","TELEPON":"","ALAMAT":"BARANANGSIANG, KEC. BOGOR TIM., KOTA BOGOR, JAWA BARAT","ID_PROV":"32","PROVINSI":"JAWA BARAT","ID_KABKOT":"32.71","KABKOT":"KOTA BOGOR","ID_KEC":"32.71.02","KECAMATAN":"BOGOR TIMUR","ID_DESA":"32.71.02.1002","DESA":"BARANANGSIANG","LONGITUDE":106.80676,"LATITUDE":-6.60585,"STATUS":"BUKA","TANGGAL PENGUMPULAN":"Q2 2024","TANGGAL UPDATE":"27/07/2025"}},{"type":"Feature","geometry":{"coordinates":[106.8060078,-6.6041574],"type":"Point"},"properties":{"fid":1760,"NAMA":"TERMINAL BARANANGSIANG - BOGOR","TIPE_1":"TRANSPORTASI","TIPE_2":"HALTE","TIPE_3":"-","TELEPON":"","ALAMAT":"NO, JL. MANGGIS VI, BARANANGSIANG, KEC. BOGOR TIM., KOTA BOGOR, JAWA BARAT 16143","ID_PROV":"32","PROVINSI":"JAWA BARAT","ID_KABKOT":"32.71","KABKOT":"KOTA BOGOR","ID_KEC":"32.71.02","KECAMATAN":"BOGOR TIMUR","ID_DESA":"32.71.02.1002","DESA":"BARANANGSIANG","LONGITUDE":106.8060078,"LATITUDE":-6.6041574,"STATUS":"BUKA","TANGGAL PENGUMPULAN":"Q2 2024","TANGGAL UPDATE":"27/07/2025"}},{"type":"Feature","geometry":{"coordinates":[106.80644,-6.603716],"type":"Point"},"properties":{"fid":1761,"NAMA":"TERMINAL BARANANGSIANG 2","TIPE_1":"TRANSPORTASI","TIPE_2":"HALTE","TIPE_3":"-","TELEPON":"","ALAMAT":"TEGALLEGA, KECAMATAN BOGOR TENGAH, KOTA BOGOR, JAWA BARAT","ID_PROV":"32","PROVINSI":"JAWA BARAT","ID_KABKOT":"32.71","KABKOT":"KOTA BOGOR","ID_KEC":"32.71.03","KECAMATAN":"BOGOR TENGAH","ID_DESA":"32.71.03.1007","DESA":"TEGALLEGA","LONGITUDE":106.80644,"LATITUDE":-6.603716,"STATUS":"BUKA","TANGGAL PENGUMPULAN":"Q2 2024","TANGGAL UPDATE":"27/07/2025"}},{"type":"Feature","geometry":{"coordinates":[106.8061366,-6.6037105],"type":"Point"},"properties":{"fid":1763,"NAMA":"TERMINAL BIS BARANANG SIANG","TIPE_1":"TRANSPORTASI","TIPE_2":"HALTE","TIPE_3":"-","TELEPON":"","ALAMAT":"JL. RAYA PAJAJARAN, BARANANGSIANG, KEC. BOGOR TIM., KOTA BOGOR, JAWA BARAT 16143","ID_PROV":"32","PROVINSI":"JAWA BARAT","ID_KABKOT":"32.71","KABKOT":"KOTA BOGOR","ID_KEC":"32.71.02","KECAMATAN":"BOGOR TIMUR","ID_DESA":"32.71.02.1002","DESA":"BARANANGSIANG","LONGITUDE":106.8061366,"LATITUDE":-6.6037105,"STATUS":"BUKA","TANGGAL PENGUMPULAN":"Q2 2024","TANGGAL UPDATE":"27/07/2025"}}]}