{"type":"FeatureCollection","features":[{"type":"Feature","geometry":{"coordinates":[106.83039,-6.12756],"type":"Point"},"properties":{"fid":552,"NAMA":"ANCOL","TIPE_1":"TRANSPORTASI","TIPE_2":"HALTE","TIPE_3":"-","TELEPON":"","ALAMAT":"RW.10,, KEC. PADEMANGAN, JKT UTARA, DAERAH KHUSUS IBUKOTA JAKARTA 14430","ID_PROV":"31","PROVINSI":"DKI JAKARTA","ID_KABKOT":"31.72","KABKOT":"KOTA ADM. JAKARTA UTARA","ID_KEC":"31.72.05","KECAMATAN":"PADEMANGAN","ID_DESA":"31.72.05.1003","DESA":"ANCOL","LONGITUDE":106.83039,"LATITUDE":-6.12756,"STATUS":"BUKA","TANGGAL PENGUMPULAN":"Q2 2024","TANGGAL UPDATE":"27/07/2025"}},{"type":"Feature","geometry":{"coordinates":[106.77833,-6.10986],"type":"Point"},"properties":{"fid":558,"NAMA":"BAYWALK 1","TIPE_1":"TRANSPORTASI","TIPE_2":"HALTE","TIPE_3":"-","TELEPON":"","ALAMAT":"PLUIT, KEC. PENJARINGAN, JKT UTARA, DAERAH KHUSUS IBUKOTA JAKARTA","ID_PROV":"31","PROVINSI":"DKI JAKARTA","ID_KABKOT":"31.72","KABKOT":"KOTA ADM. JAKARTA UTARA","ID_KEC":"31.72.01","KECAMATAN":"PENJARINGAN","ID_DESA":"31.72.01.1005","DESA":"PLUIT","LONGITUDE":106.77833,"LATITUDE":-6.10986,"STATUS":"BUKA","TANGGAL PENGUMPULAN":"Q2 2024","TANGGAL UPDATE":"27/07/2025"}},{"type":"Feature","geometry":{"coordinates":[106.95942,-6.10608],"type":"Point"},"properties":{"fid":562,"NAMA":"BIDARA 2","TIPE_1":"TRANSPORTASI","TIPE_2":"HALTE","TIPE_3":"-","TELEPON":"","ALAMAT":"MARUNDA, KEC. CILINCING, JKT UTARA, DAERAH KHUSUS IBUKOTA JAKARTA","ID_PROV":"31","PROVINSI":"DKI JAKARTA","ID_KABKOT":"31.72","KABKOT":"KOTA ADM. JAKARTA UTARA","ID_KEC":"31.72.04","KECAMATAN":"CILINCING","ID_DESA":"31.72.04.1003","DESA":"MARUNDA","LONGITUDE":106.95942,"LATITUDE":-6.10608,"STATUS":"BUKA","TANGGAL PENGUMPULAN":"Q2 2024","TANGGAL UPDATE":"27/07/2025"}},{"type":"Feature","geometry":{"coordinates":[106.90968,-6.10857],"type":"Point"},"properties":{"fid":565,"NAMA":"BOGASARI","TIPE_1":"TRANSPORTASI","TIPE_2":"HALTE","TIPE_3":"-","TELEPON":"","ALAMAT":"KALI BARU, KEC. CILINCING, JKT UTARA, DAERAH KHUSUS IBUKOTA JAKARTA","ID_PROV":"31","PROVINSI":"DKI JAKARTA","ID_KABKOT":"31.72","KABKOT":"KOTA ADM. JAKARTA UTARA","ID_KEC":"31.72.04","KECAMATAN":"CILINCING","ID_DESA":"31.72.04.1004","DESA":"KALIBARU","LONGITUDE":106.90968,"LATITUDE":-6.10857,"STATUS":"BUKA","TANGGAL PENGUMPULAN":"Q2 2024","TANGGAL UPDATE":"27/07/2025"}},{"type":"Feature","geometry":{"coordinates":[106.73943,-6.10799],"type":"Point"},"properties":{"fid":567,"NAMA":"BUDDHA TZU CHI","TIPE_1":"TRANSPORTASI","TIPE_2":"HALTE","TIPE_3":"-","TELEPON":"","ALAMAT":"KAMAL MUARA, KEC. PENJARINGAN, JKT UTARA, DAERAH KHUSUS IBUKOTA JAKARTA","ID_PROV":"31","PROVINSI":"DKI JAKARTA","ID_KABKOT":"31.72","KABKOT":"KOTA ADM. JAKARTA UTARA","ID_KEC":"31.72.01","KECAMATAN":"PENJARINGAN","ID_DESA":"31.72.01.1002","DESA":"KAMAL MUARA","LONGITUDE":106.73943,"LATITUDE":-6.10799,"STATUS":"BUKA","TANGGAL PENGUMPULAN":"Q2 2024","TANGGAL UPDATE":"27/07/2025"}},{"type":"Feature","geometry":{"coordinates":[106.85805,-6.14687],"type":"Point"},"properties":{"fid":582,"NAMA":"DANAU AGUNG","TIPE_1":"TRANSPORTASI","TIPE_2":"HALTE","TIPE_3":"-","TELEPON":"","ALAMAT":"RW.10, SUNTER AGUNG, KEC. TJ. PRIOK, JKT UTARA, DAERAH KHUSUS IBUKOTA JAKARTA 14350","ID_PROV":"31","PROVINSI":"DKI JAKARTA","ID_KABKOT":"31.72","KABKOT":"KOTA ADM. JAKARTA UTARA","ID_KEC":"31.72.02","KECAMATAN":"TANJUNG PRIOK","ID_DESA":"31.72.02.1006","DESA":"SUNTER AGUNG","LONGITUDE":106.85805,"LATITUDE":-6.14687,"STATUS":"BUKA","TANGGAL PENGUMPULAN":"Q2 2024","TANGGAL UPDATE":"27/07/2025"}},{"type":"Feature","geometry":{"coordinates":[106.85699,-6.14121],"type":"Point"},"properties":{"fid":583,"NAMA":"DANAU SUNTER","TIPE_1":"TRANSPORTASI","TIPE_2":"HALTE","TIPE_3":"-","TELEPON":"","ALAMAT":"RW.10, SUNTER AGUNG, KEC. TJ. PRIOK, JKT UTARA, DAERAH KHUSUS IBUKOTA JAKARTA 14350","ID_PROV":"31","PROVINSI":"DKI JAKARTA","ID_KABKOT":"31.72","KABKOT":"KOTA ADM. JAKARTA UTARA","ID_KEC":"31.72.02","KECAMATAN":"TANJUNG PRIOK","ID_DESA":"31.72.02.1006","DESA":"SUNTER AGUNG","LONGITUDE":106.85699,"LATITUDE":-6.14121,"STATUS":"BUKA","TANGGAL PENGUMPULAN":"Q2 2024","TANGGAL UPDATE":"27/07/2025"}},{"type":"Feature","geometry":{"coordinates":[106.89245,-6.11023],"type":"Point"},"properties":{"fid":588,"NAMA":"ENGGANO 1","TIPE_1":"TRANSPORTASI","TIPE_2":"HALTE","TIPE_3":"-","TELEPON":"","ALAMAT":"TJ. PRIOK, KEC. TJ. PRIOK, JKT UTARA, DAERAH KHUSUS IBUKOTA JAKARTA","ID_PROV":"31","PROVINSI":"DKI JAKARTA","ID_KABKOT":"31.72","KABKOT":"KOTA ADM. JAKARTA UTARA","ID_KEC":"31.72.02","KECAMATAN":"TANJUNG PRIOK","ID_DESA":"31.72.02.1001","DESA":"TANJUNG PRIOK","LONGITUDE":106.89245,"LATITUDE":-6.11023,"STATUS":"BUKA","TANGGAL PENGUMPULAN":"Q2 2024","TANGGAL UPDATE":"27/07/2025"}},{"type":"Feature","geometry":{"coordinates":[106.74064,-6.10269],"type":"Point"},"properties":{"fid":602,"NAMA":"GOLD COAST","TIPE_1":"TRANSPORTASI","TIPE_2":"HALTE","TIPE_3":"-","TELEPON":"","ALAMAT":"KAMAL MUARA, KEC. PENJARINGAN, JKT UTARA, DAERAH KHUSUS IBUKOTA JAKARTA","ID_PROV":"31","PROVINSI":"DKI JAKARTA","ID_KABKOT":"31.72","KABKOT":"KOTA ADM. JAKARTA UTARA","ID_KEC":"31.72.01","KECAMATAN":"PENJARINGAN","ID_DESA":"31.72.01.1002","DESA":"KAMAL MUARA","LONGITUDE":106.74064,"LATITUDE":-6.10269,"STATUS":"BUKA","TANGGAL PENGUMPULAN":"Q2 2024","TANGGAL UPDATE":"27/07/2025"}},{"type":"Feature","geometry":{"coordinates":[106.8942308,-6.1288993],"type":"Point"},"properties":{"fid":604,"NAMA":"GRAB SHELTER BC TIPLU HALTE BUSWAY PLUMPANG PERTAMINA","TIPE_1":"TRANSPORTASI","TIPE_2":"HALTE","TIPE_3":"-","TELEPON":"","ALAMAT":"JLN YOSUDARSO 12RT.3, RT.3/RW.14, RAWABADAK UTARA, KEC. KOJA, JKT UTARA, DAERAH KHUSUS IBUKOTA JAKARTA 14230","ID_PROV":"31","PROVINSI":"DKI JAKARTA","ID_KABKOT":"31.72","KABKOT":"KOTA ADM. JAKARTA UTARA","ID_KEC":"31.72.03","KECAMATAN":"KOJA","ID_DESA":"31.72.03.1004","DESA":"RAWA BADAK UTARA","LONGITUDE":106.8942308,"LATITUDE":-6.1288993,"STATUS":"BUKA","TANGGAL PENGUMPULAN":"Q2 2024","TANGGAL UPDATE":"27/07/2025"}},{"type":"Feature","geometry":{"coordinates":[106.8325544,-6.1370283],"type":"Point"},"properties":{"fid":607,"NAMA":"GUNUNG SAHARI MANGGA DUA TIMUR","TIPE_1":"TRANSPORTASI","TIPE_2":"HALTE","TIPE_3":"-","TELEPON":"","ALAMAT":"PADEMANGAN BAR., KEC. PADEMANGAN, JKT UTARA, DAERAH KHUSUS IBUKOTA JAKARTA","ID_PROV":"31","PROVINSI":"DKI JAKARTA","ID_KABKOT":"31.72","KABKOT":"KOTA ADM. JAKARTA UTARA","ID_KEC":"31.72.05","KECAMATAN":"PADEMANGAN","ID_DESA":"31.72.05.1002","DESA":"PADEMANGAN BARAT","LONGITUDE":106.8325544,"LATITUDE":-6.1370283,"STATUS":"BUKA","TANGGAL PENGUMPULAN":"Q2 2024","TANGGAL UPDATE":"27/07/2025"}},{"type":"Feature","geometry":{"coordinates":[106.7783275,-6.1098755],"type":"Point"},"properties":{"fid":642,"NAMA":"HALTE BUS BAYWALK MALL","TIPE_1":"TRANSPORTASI","TIPE_2":"HALTE","TIPE_3":"-","TELEPON":"","ALAMAT":"JL. PLUIT KARANG AYU BARAT NO.20, RT.20/RW.2, PLUIT, PENJARINGAN, NORTH JAKARTA CITY, JAKARTA 14450","ID_PROV":"31","PROVINSI":"DKI JAKARTA","ID_KABKOT":"31.72","KABKOT":"KOTA ADM. JAKARTA UTARA","ID_KEC":"31.72.01","KECAMATAN":"PENJARINGAN","ID_DESA":"31.72.01.1005","DESA":"PLUIT","LONGITUDE":106.7783275,"LATITUDE":-6.1098755,"STATUS":"BUKA","TANGGAL PENGUMPULAN":"Q2 2024","TANGGAL UPDATE":"27/07/2025"}},{"type":"Feature","geometry":{"coordinates":[106.9245474,-6.1162332],"type":"Point"},"properties":{"fid":645,"NAMA":"HALTE BUS KEBON BARU","TIPE_1":"TRANSPORTASI","TIPE_2":"HALTE","TIPE_3":"-","TELEPON":"","ALAMAT":"1, RT.1/RW.3, SEMPER TIM., KEC. CILINCING, JKT UTARA, DAERAH KHUSUS IBUKOTA JAKARTA 14130","ID_PROV":"31","PROVINSI":"DKI JAKARTA","ID_KABKOT":"31.72","KABKOT":"KOTA ADM. JAKARTA UTARA","ID_KEC":"31.72.04","KECAMATAN":"CILINCING","ID_DESA":"31.72.04.1007","DESA":"SEMPER BARAT","LONGITUDE":106.9245474,"LATITUDE":-6.1162332,"STATUS":"BUKA","TANGGAL PENGUMPULAN":"Q2 2024","TANGGAL UPDATE":"27/07/2025"}},{"type":"Feature","geometry":{"coordinates":[106.8775772,-6.1388553],"type":"Point"},"properties":{"fid":649,"NAMA":"HALTE BUS PELAYARAN","TIPE_1":"TRANSPORTASI","TIPE_2":"HALTE","TIPE_3":"-","TELEPON":"","ALAMAT":"JL. DANAU SUNTER UTARA, RW.14, SUNTER AGUNG, KEC. TJ. PRIOK, JKT UTARA, DAERAH KHUSUS IBUKOTA JAKARTA 14350","ID_PROV":"31","PROVINSI":"DKI JAKARTA","ID_KABKOT":"31.72","KABKOT":"KOTA ADM. JAKARTA UTARA","ID_KEC":"31.72.02","KECAMATAN":"TANJUNG PRIOK","ID_DESA":"31.72.02.1006","DESA":"SUNTER AGUNG","LONGITUDE":106.8775772,"LATITUDE":-6.1388553,"STATUS":"BUKA","TANGGAL PENGUMPULAN":"Q2 2024","TANGGAL UPDATE":"27/07/2025"}},{"type":"Feature","geometry":{"coordinates":[106.8257625,-6.1352235],"type":"Point"},"properties":{"fid":651,"NAMA":"HALTE BUS PERUMAHAN","TIPE_1":"TRANSPORTASI","TIPE_2":"HALTE","TIPE_3":"-","TELEPON":"","ALAMAT":"JL. MANGGA DUA RAYA NO.1 11, RT.11/RW.5, ANCOL, KEC. PADEMANGAN, JKT UTARA, DAERAH KHUSUS IBUKOTA JAKARTA 14430","ID_PROV":"31","PROVINSI":"DKI JAKARTA","ID_KABKOT":"31.72","KABKOT":"KOTA ADM. JAKARTA UTARA","ID_KEC":"31.72.05","KECAMATAN":"PADEMANGAN","ID_DESA":"31.72.05.1003","DESA":"ANCOL","LONGITUDE":106.8257625,"LATITUDE":-6.1352235,"STATUS":"BUKA","TANGGAL PENGUMPULAN":"Q2 2024","TANGGAL UPDATE":"27/07/2025"}},{"type":"Feature","geometry":{"coordinates":[106.9110991,-6.130168],"type":"Point"},"properties":{"fid":654,"NAMA":"HALTE BUS SEKOLAH","TIPE_1":"TRANSPORTASI","TIPE_2":"HALTE","TIPE_3":"-","TELEPON":"","ALAMAT":"JL. PLUMPANG SEMPER, RT.10/RW.2, TUGU SEL., KEC. KOJA, JKT UTARA, DAERAH KHUSUS IBUKOTA JAKARTA 14260","ID_PROV":"31","PROVINSI":"DKI JAKARTA","ID_KABKOT":"31.72","KABKOT":"KOTA ADM. JAKARTA UTARA","ID_KEC":"31.72.03","KECAMATAN":"KOJA","ID_DESA":"31.72.03.1002","DESA":"TUGU UTARA","LONGITUDE":106.9110991,"LATITUDE":-6.130168,"STATUS":"BUKA","TANGGAL PENGUMPULAN":"Q2 2024","TANGGAL UPDATE":"27/07/2025"}},{"type":"Feature","geometry":{"coordinates":[106.8831693,-6.1682016],"type":"Point"},"properties":{"fid":658,"NAMA":"HALTE BUS SEKOLAH","TIPE_1":"TRANSPORTASI","TIPE_2":"HALTE","TIPE_3":"-","TELEPON":"","ALAMAT":"JL. PERINTIS KEMERDEKAAN, RT.7/RW.2, KLP. GADING BAR., KEC. KLP. GADING, JKT UTARA, DAERAH KHUSUS IBUKOTA JAKARTA 14240","ID_PROV":"31","PROVINSI":"DKI JAKARTA","ID_KABKOT":"31.72","KABKOT":"KOTA ADM. JAKARTA UTARA","ID_KEC":"31.72.06","KECAMATAN":"KELAPA GADING","ID_DESA":"31.72.06.1003","DESA":"KELAPA GADING BARAT","LONGITUDE":106.8831693,"LATITUDE":-6.1682016,"STATUS":"BUKA","TANGGAL PENGUMPULAN":"Q2 2024","TANGGAL UPDATE":"27/07/2025"}},{"type":"Feature","geometry":{"coordinates":[106.8597107,-6.1395254],"type":"Point"},"properties":{"fid":660,"NAMA":"HALTE BUS SMP 140","TIPE_1":"TRANSPORTASI","TIPE_2":"HALTE","TIPE_3":"-","TELEPON":"","ALAMAT":"11, RT.11/RW.9, SUNTER AGUNG, KEC. TJ. PRIOK, JKT UTARA, DAERAH KHUSUS IBUKOTA JAKARTA 14350","ID_PROV":"31","PROVINSI":"DKI JAKARTA","ID_KABKOT":"31.72","KABKOT":"KOTA ADM. JAKARTA UTARA","ID_KEC":"31.72.02","KECAMATAN":"TANJUNG PRIOK","ID_DESA":"31.72.02.1006","DESA":"SUNTER AGUNG","LONGITUDE":106.8597107,"LATITUDE":-6.1395254,"STATUS":"BUKA","TANGGAL PENGUMPULAN":"Q2 2024","TANGGAL UPDATE":"27/07/2025"}},{"type":"Feature","geometry":{"coordinates":[106.7920198,-6.1262634],"type":"Point"},"properties":{"fid":668,"NAMA":"HALTE BUS TRANSJAKARTA PENJARINGAN","TIPE_1":"TRANSPORTASI","TIPE_2":"HALTE","TIPE_3":"-","TELEPON":"","ALAMAT":"JL. PLUIT PUTRA NO.1, RT.17/RW.6, PLUIT, KEC. PENJARINGAN, JKT UTARA, DAERAH KHUSUS IBUKOTA JAKARTA 14450","ID_PROV":"31","PROVINSI":"DKI JAKARTA","ID_KABKOT":"31.72","KABKOT":"KOTA ADM. JAKARTA UTARA","ID_KEC":"31.72.01","KECAMATAN":"PENJARINGAN","ID_DESA":"31.72.01.1001","DESA":"PENJARINGAN","LONGITUDE":106.7920198,"LATITUDE":-6.1262634,"STATUS":"BUKA","TANGGAL PENGUMPULAN":"Q2 2024","TANGGAL UPDATE":"27/07/2025"}},{"type":"Feature","geometry":{"coordinates":[106.8859107,-6.1101545],"type":"Point"},"properties":{"fid":688,"NAMA":"HALTE BUSWAY ENGGGANO","TIPE_1":"TRANSPORTASI","TIPE_2":"HALTE","TIPE_3":"-","TELEPON":"","ALAMAT":"JL. ENGGANO NO.22-23, RT.8/RW.16, TJ. PRIOK, KEC. TJ. PRIOK, JKT UTARA, DAERAH KHUSUS IBUKOTA JAKARTA 14310","ID_PROV":"31","PROVINSI":"DKI JAKARTA","ID_KABKOT":"31.72","KABKOT":"KOTA ADM. JAKARTA UTARA","ID_KEC":"31.72.02","KECAMATAN":"TANJUNG PRIOK","ID_DESA":"31.72.02.1001","DESA":"TANJUNG PRIOK","LONGITUDE":106.8859107,"LATITUDE":-6.1101545,"STATUS":"BUKA","TANGGAL PENGUMPULAN":"Q2 2024","TANGGAL UPDATE":"27/07/2025"}},{"type":"Feature","geometry":{"coordinates":[106.8556489,-6.1268555],"type":"Point"},"properties":{"fid":700,"NAMA":"HALTE BUSWAY JIS","TIPE_1":"TRANSPORTASI","TIPE_2":"HALTE","TIPE_3":"-","TELEPON":"0812-9825-9721","ALAMAT":"JL. DANAU SUNTER BARAT, RT.4/RW.6, SUNTER AGUNG, KEC. TJ. PRIOK, JKT UTARA, DAERAH KHUSUS IBUKOTA JAKARTA 14350","ID_PROV":"31","PROVINSI":"DKI JAKARTA","ID_KABKOT":"31.72","KABKOT":"KOTA ADM. JAKARTA UTARA","ID_KEC":"31.72.02","KECAMATAN":"TANJUNG PRIOK","ID_DESA":"31.72.02.1006","DESA":"SUNTER AGUNG","LONGITUDE":106.8556489,"LATITUDE":-6.1268555,"STATUS":"BUKA","TANGGAL PENGUMPULAN":"Q2 2024","TANGGAL UPDATE":"27/07/2025"}},{"type":"Feature","geometry":{"coordinates":[106.7920205,-6.1262531],"type":"Point"},"properties":{"fid":717,"NAMA":"HALTE BUSWAY PENJARINGAN","TIPE_1":"TRANSPORTASI","TIPE_2":"HALTE","TIPE_3":"-","TELEPON":"","ALAMAT":"JL. PLUIT PUTRA NO.1, RT.17/RW.6, PLUIT, KEC. PENJARINGAN, JKT UTARA, DAERAH KHUSUS IBUKOTA JAKARTA 14450","ID_PROV":"31","PROVINSI":"DKI JAKARTA","ID_KABKOT":"31.72","KABKOT":"KOTA ADM. JAKARTA UTARA","ID_KEC":"31.72.01","KECAMATAN":"PENJARINGAN","ID_DESA":"31.72.01.1001","DESA":"PENJARINGAN","LONGITUDE":106.7920205,"LATITUDE":-6.1262531,"STATUS":"BUKA","TANGGAL PENGUMPULAN":"Q2 2024","TANGGAL UPDATE":"27/07/2025"}},{"type":"Feature","geometry":{"coordinates":[106.8934224,-6.1139823],"type":"Point"},"properties":{"fid":718,"NAMA":"HALTE BUSWAY PERMAI KOJA","TIPE_1":"TRANSPORTASI","TIPE_2":"HALTE","TIPE_3":"-","TELEPON":"","ALAMAT":"4, JL. LORONG 104 TIMUR NO.28 12, RT.4/RW.12, KOJA, KEC. KOJA, JKT UTARA, DAERAH KHUSUS IBUKOTA JAKARTA 14230","ID_PROV":"31","PROVINSI":"DKI JAKARTA","ID_KABKOT":"31.72","KABKOT":"KOTA ADM. JAKARTA UTARA","ID_KEC":"31.72.03","KECAMATAN":"KOJA","ID_DESA":"31.72.03.1001","DESA":"KOJA","LONGITUDE":106.8934224,"LATITUDE":-6.1139823,"STATUS":"BUKA","TANGGAL PENGUMPULAN":"Q2 2024","TANGGAL UPDATE":"27/07/2025"}},{"type":"Feature","geometry":{"coordinates":[106.8933875,-6.1123468],"type":"Point"},"properties":{"fid":719,"NAMA":"HALTE BUSWAY PERMAI KOJA SHBT MANDIRI","TIPE_1":"TRANSPORTASI","TIPE_2":"HALTE","TIPE_3":"-","TELEPON":"","ALAMAT":"4, JL. LORONG 104 TIMUR NO.28 12, RT.4/RW.12, KOJA, KEC. KOJA, JKT UTARA, DAERAH KHUSUS IBUKOTA JAKARTA 14230","ID_PROV":"31","PROVINSI":"DKI JAKARTA","ID_KABKOT":"31.72","KABKOT":"KOTA ADM. JAKARTA UTARA","ID_KEC":"31.72.03","KECAMATAN":"KOJA","ID_DESA":"31.72.03.1001","DESA":"KOJA","LONGITUDE":106.8933875,"LATITUDE":-6.1123468,"STATUS":"BUKA","TANGGAL PENGUMPULAN":"Q2 2024","TANGGAL UPDATE":"27/07/2025"}},{"type":"Feature","geometry":{"coordinates":[106.7676526,-6.1163351],"type":"Point"},"properties":{"fid":752,"NAMA":"HALTE DIAN","TIPE_1":"TRANSPORTASI","TIPE_2":"HALTE","TIPE_3":"-","TELEPON":"","ALAMAT":"JL. PANTAI INDAH UTARA 2, RT.1/RW.16, KAPUK MUARA, KEC. PENJARINGAN, JKT UTARA, DAERAH KHUSUS IBUKOTA JAKARTA 14460","ID_PROV":"31","PROVINSI":"DKI JAKARTA","ID_KABKOT":"31.72","KABKOT":"KOTA ADM. JAKARTA UTARA","ID_KEC":"31.72.01","KECAMATAN":"PENJARINGAN","ID_DESA":"31.72.01.1003","DESA":"KAPUK MUARA","LONGITUDE":106.7676526,"LATITUDE":-6.1163351,"STATUS":"BUKA","TANGGAL PENGUMPULAN":"Q2 2024","TANGGAL UPDATE":"27/07/2025"}},{"type":"Feature","geometry":{"coordinates":[106.844585,-6.152364],"type":"Point"},"properties":{"fid":758,"NAMA":"HALTE GAMBIR EXPO PINTU 2","TIPE_1":"TRANSPORTASI","TIPE_2":"HALTE","TIPE_3":"-","TELEPON":"","ALAMAT":"JL. INDUSTRI RAYA NO.17, RW.10, KEMAYORAN, KEC. KEMAYORAN, KOTA JAKARTA PUSAT, DAERAH KHUSUS IBUKOTA JAKARTA 14410","ID_PROV":"31","PROVINSI":"DKI JAKARTA","ID_KABKOT":"31.72","KABKOT":"KOTA ADM. JAKARTA UTARA","ID_KEC":"31.72.05","KECAMATAN":"PADEMANGAN","ID_DESA":"31.72.05.1001","DESA":"PADEMANGAN TIMUR","LONGITUDE":106.844585,"LATITUDE":-6.152364,"STATUS":"BUKA","TANGGAL PENGUMPULAN":"Q2 2024","TANGGAL UPDATE":"27/07/2025"}},{"type":"Feature","geometry":{"coordinates":[106.8482106,-6.1423438],"type":"Point"},"properties":{"fid":759,"NAMA":"HALTE GAMBIR EXPO PINTU 3","TIPE_1":"TRANSPORTASI","TIPE_2":"HALTE","TIPE_3":"-","TELEPON":"","ALAMAT":"BENYAMIEN SUAIB, PADEMANGAN TIM., KEC. PADEMANGAN, JKT UTARA, DAERAH KHUSUS IBUKOTA JAKARTA 14410","ID_PROV":"31","PROVINSI":"DKI JAKARTA","ID_KABKOT":"31.72","KABKOT":"KOTA ADM. JAKARTA UTARA","ID_KEC":"31.72.05","KECAMATAN":"PADEMANGAN","ID_DESA":"31.72.05.1001","DESA":"PADEMANGAN TIMUR","LONGITUDE":106.8482106,"LATITUDE":-6.1423438,"STATUS":"BUKA","TANGGAL PENGUMPULAN":"Q2 2024","TANGGAL UPDATE":"27/07/2025"}},{"type":"Feature","geometry":{"coordinates":[106.8449908,-6.1495492],"type":"Point"},"properties":{"fid":787,"NAMA":"HALTE JIEXPO 2","TIPE_1":"TRANSPORTASI","TIPE_2":"HALTE","TIPE_3":"-","TELEPON":"","ALAMAT":"RW.10, PADEMANGAN TIM., KEC. KEMAYORAN, KOTA JAKARTA PUSAT, DAERAH KHUSUS IBUKOTA JAKARTA 14410","ID_PROV":"31","PROVINSI":"DKI JAKARTA","ID_KABKOT":"31.72","KABKOT":"KOTA ADM. JAKARTA UTARA","ID_KEC":"31.72.05","KECAMATAN":"PADEMANGAN","ID_DESA":"31.72.05.1001","DESA":"PADEMANGAN TIMUR","LONGITUDE":106.8449908,"LATITUDE":-6.1495492,"STATUS":"BUKA","TANGGAL PENGUMPULAN":"Q2 2024","TANGGAL UPDATE":"27/07/2025"}},{"type":"Feature","geometry":{"coordinates":[106.7997238,-6.1252807],"type":"Point"},"properties":{"fid":810,"NAMA":"HALTE LANDMARK AUTO PLAZA","TIPE_1":"TRANSPORTASI","TIPE_2":"HALTE","TIPE_3":"-","TELEPON":"","ALAMAT":"JL. PLUIT SELATAN RAYA, RW.10, PENJARINGAN, KEC. PENJARINGAN, JKT UTARA, DAERAH KHUSUS IBUKOTA JAKARTA 14440","ID_PROV":"31","PROVINSI":"DKI JAKARTA","ID_KABKOT":"31.72","KABKOT":"KOTA ADM. JAKARTA UTARA","ID_KEC":"31.72.01","KECAMATAN":"PENJARINGAN","ID_DESA":"31.72.01.1001","DESA":"PENJARINGAN","LONGITUDE":106.7997238,"LATITUDE":-6.1252807,"STATUS":"BUKA","TANGGAL PENGUMPULAN":"Q2 2024","TANGGAL UPDATE":"27/07/2025"}},{"type":"Feature","geometry":{"coordinates":[106.9041981,-6.179436],"type":"Point"},"properties":{"fid":822,"NAMA":"HALTE MEDIROS","TIPE_1":"TRANSPORTASI","TIPE_2":"HALTE","TIPE_3":"-","TELEPON":"","ALAMAT":"JL. PERINTIS KEMERDEKAAN, RT.3/RW.6, KLP. GADING TIM., KEC. KLP. GADING, KOTA JAKARTA TIMUR, DAERAH KHUSUS IBUKOTA JAKARTA 13260","ID_PROV":"31","PROVINSI":"DKI JAKARTA","ID_KABKOT":"31.72","KABKOT":"KOTA ADM. JAKARTA UTARA","ID_KEC":"31.72.06","KECAMATAN":"KELAPA GADING","ID_DESA":"31.72.06.1001","DESA":"KELAPA GADING TIMUR","LONGITUDE":106.9041981,"LATITUDE":-6.179436,"STATUS":"BUKA","TANGGAL PENGUMPULAN":"Q2 2024","TANGGAL UPDATE":"27/07/2025"}},{"type":"Feature","geometry":{"coordinates":[106.8737627,-6.1374973],"type":"Point"},"properties":{"fid":825,"NAMA":"HALTE METRO SUNTER","TIPE_1":"TRANSPORTASI","TIPE_2":"HALTE","TIPE_3":"-","TELEPON":"","ALAMAT":"JL. DANAU SUNTER UTARA, RT.9/RW.4, PAPANGGO, KEC. TJ. PRIOK, JKT UTARA, DAERAH KHUSUS IBUKOTA JAKARTA 14340","ID_PROV":"31","PROVINSI":"DKI JAKARTA","ID_KABKOT":"31.72","KABKOT":"KOTA ADM. JAKARTA UTARA","ID_KEC":"31.72.02","KECAMATAN":"TANJUNG PRIOK","ID_DESA":"31.72.02.1006","DESA":"SUNTER AGUNG","LONGITUDE":106.8737627,"LATITUDE":-6.1374973,"STATUS":"BUKA","TANGGAL PENGUMPULAN":"Q2 2024","TANGGAL UPDATE":"27/07/2025"}},{"type":"Feature","geometry":{"coordinates":[106.7921727,-6.1262151],"type":"Point"},"properties":{"fid":836,"NAMA":"HALTE PENJARINGAN BONAVENTURA","TIPE_1":"TRANSPORTASI","TIPE_2":"HALTE","TIPE_3":"-","TELEPON":"","ALAMAT":"BONAVENTURA, JL. JEMB. 3 RAYA, PENJARINGAN, KEC. PENJARINGAN, JKT UTARA, DAERAH KHUSUS IBUKOTA JAKARTA","ID_PROV":"31","PROVINSI":"DKI JAKARTA","ID_KABKOT":"31.72","KABKOT":"KOTA ADM. JAKARTA UTARA","ID_KEC":"31.72.01","KECAMATAN":"PENJARINGAN","ID_DESA":"31.72.01.1001","DESA":"PENJARINGAN","LONGITUDE":106.7921727,"LATITUDE":-6.1262151,"STATUS":"BUKA","TANGGAL PENGUMPULAN":"Q2 2024","TANGGAL UPDATE":"27/07/2025"}},{"type":"Feature","geometry":{"coordinates":[106.8933088,-6.114432],"type":"Point"},"properties":{"fid":837,"NAMA":"HALTE PERMAI KOJA","TIPE_1":"TRANSPORTASI","TIPE_2":"HALTE","TIPE_3":"-","TELEPON":"","ALAMAT":"JL KOM L YOS SUDARSO, NO. 21-BC, KOJA SELATAN, KOJA, RT.4/RW.12, RAWABADAK UTARA, KEC. KOJA, JKT UTARA, DAERAH KHUSUS IBUKOTA JAKARTA 14230","ID_PROV":"31","PROVINSI":"DKI JAKARTA","ID_KABKOT":"31.72","KABKOT":"KOTA ADM. JAKARTA UTARA","ID_KEC":"31.72.03","KECAMATAN":"KOJA","ID_DESA":"31.72.03.1004","DESA":"RAWA BADAK UTARA","LONGITUDE":106.8933088,"LATITUDE":-6.114432,"STATUS":"BUKA","TANGGAL PENGUMPULAN":"Q2 2024","TANGGAL UPDATE":"27/07/2025"}},{"type":"Feature","geometry":{"coordinates":[106.7944215,-6.1223464],"type":"Point"},"properties":{"fid":842,"NAMA":"HALTE PLUIT TIMUR","TIPE_1":"TRANSPORTASI","TIPE_2":"HALTE","TIPE_3":"-","TELEPON":"","ALAMAT":"7, RT.7/RW.9, PLUIT, KEC. PENJARINGAN, JKT UTARA, DAERAH KHUSUS IBUKOTA JAKARTA 14450","ID_PROV":"31","PROVINSI":"DKI JAKARTA","ID_KABKOT":"31.72","KABKOT":"KOTA ADM. JAKARTA UTARA","ID_KEC":"31.72.01","KECAMATAN":"PENJARINGAN","ID_DESA":"31.72.01.1005","DESA":"PLUIT","LONGITUDE":106.7944215,"LATITUDE":-6.1223464,"STATUS":"BUKA","TANGGAL PENGUMPULAN":"Q2 2024","TANGGAL UPDATE":"27/07/2025"}},{"type":"Feature","geometry":{"coordinates":[106.838523,-6.1292157],"type":"Point"},"properties":{"fid":862,"NAMA":"HALTE RE MARTADINATA DEKAT NORTHLAND ANCOL","TIPE_1":"TRANSPORTASI","TIPE_2":"HALTE","TIPE_3":"-","TELEPON":"","ALAMAT":"JL. RE MARTADINATA NO.11, RT.11/RW.11, WEST PADEMANGAN, PADEMANGAN, NORTH JAKARTA CITY, JAKARTA 14420","ID_PROV":"31","PROVINSI":"DKI JAKARTA","ID_KABKOT":"31.72","KABKOT":"KOTA ADM. JAKARTA UTARA","ID_KEC":"31.72.05","KECAMATAN":"PADEMANGAN","ID_DESA":"31.72.05.1002","DESA":"PADEMANGAN BARAT","LONGITUDE":106.838523,"LATITUDE":-6.1292157,"STATUS":"BUKA","TANGGAL PENGUMPULAN":"Q2 2024","TANGGAL UPDATE":"27/07/2025"}},{"type":"Feature","geometry":{"coordinates":[106.908122,-6.161349],"type":"Point"},"properties":{"fid":883,"NAMA":"HALTE SHUTTLE BUS SUMMARECON KELAPA GADING","TIPE_1":"TRANSPORTASI","TIPE_2":"HALTE","TIPE_3":"-","TELEPON":"","ALAMAT":"JL. RAYA GADING INDAH NO.12 13, RT.13/RW.18, PULO GADUNG, KEC. PULO GADUNG, JKT UTARA, DAERAH KHUSUS IBUKOTA JAKARTA 14240","ID_PROV":"31","PROVINSI":"DKI JAKARTA","ID_KABKOT":"31.72","KABKOT":"KOTA ADM. JAKARTA UTARA","ID_KEC":"31.72.06","KECAMATAN":"KELAPA GADING","ID_DESA":"31.72.06.1001","DESA":"KELAPA GADING TIMUR","LONGITUDE":106.908122,"LATITUDE":-6.161349,"STATUS":"BUKA","TANGGAL PENGUMPULAN":"Q2 2024","TANGGAL UPDATE":"27/07/2025"}},{"type":"Feature","geometry":{"coordinates":[106.8940344,-6.1279726],"type":"Point"},"properties":{"fid":899,"NAMA":"HALTE TAMAN KOTA PLUMPANG","TIPE_1":"TRANSPORTASI","TIPE_2":"HALTE","TIPE_3":"-","TELEPON":"","ALAMAT":"LAKS, 14, JL. YOS SUDARSO NO.160, KOJA, KEC. TJ. PRIOK, JKT UTARA, DAERAH KHUSUS IBUKOTA JAKARTA 14320","ID_PROV":"31","PROVINSI":"DKI JAKARTA","ID_KABKOT":"31.72","KABKOT":"KOTA ADM. JAKARTA UTARA","ID_KEC":"31.72.03","KECAMATAN":"KOJA","ID_DESA":"31.72.03.1004","DESA":"RAWA BADAK UTARA","LONGITUDE":106.8940344,"LATITUDE":-6.1279726,"STATUS":"BUKA","TANGGAL PENGUMPULAN":"Q2 2024","TANGGAL UPDATE":"27/07/2025"}},{"type":"Feature","geometry":{"coordinates":[106.8918429,-6.1369872],"type":"Point"},"properties":{"fid":911,"NAMA":"HALTE TRANS SUNTER KELAPA GADING","TIPE_1":"TRANSPORTASI","TIPE_2":"HALTE","TIPE_3":"-","TELEPON":"","ALAMAT":"JL. YOS SUDARSO NO.10, RT.10/RW.6, KLP. GADING BAR., KEC. KLP. GADING, JKT UTARA, DAERAH KHUSUS IBUKOTA JAKARTA 14330","ID_PROV":"31","PROVINSI":"DKI JAKARTA","ID_KABKOT":"31.72","KABKOT":"KOTA ADM. JAKARTA UTARA","ID_KEC":"31.72.02","KECAMATAN":"TANJUNG PRIOK","ID_DESA":"31.72.02.1004","DESA":"SUNGAI BAMBU","LONGITUDE":106.8918429,"LATITUDE":-6.1369872,"STATUS":"BUKA","TANGGAL PENGUMPULAN":"Q2 2024","TANGGAL UPDATE":"27/07/2025"}},{"type":"Feature","geometry":{"coordinates":[106.8919348,-6.1389503],"type":"Point"},"properties":{"fid":926,"NAMA":"HALTE TRANSJAKARTA PERMAI KOJA","TIPE_1":"TRANSPORTASI","TIPE_2":"HALTE","TIPE_3":"-","TELEPON":"","ALAMAT":"JL. YOS SUDARSO NO.13B 9, RT.9/RW.13, KLP. GADING BAR., KEC. KOJA, JKT UTARA, DAERAH KHUSUS IBUKOTA JAKARTA 14240","ID_PROV":"31","PROVINSI":"DKI JAKARTA","ID_KABKOT":"31.72","KABKOT":"KOTA ADM. JAKARTA UTARA","ID_KEC":"31.72.06","KECAMATAN":"KELAPA GADING","ID_DESA":"31.72.06.1003","DESA":"KELAPA GADING BARAT","LONGITUDE":106.8919348,"LATITUDE":-6.1389503,"STATUS":"BUKA","TANGGAL PENGUMPULAN":"Q2 2024","TANGGAL UPDATE":"27/07/2025"}},{"type":"Feature","geometry":{"coordinates":[106.9080877,-6.1294085],"type":"Point"},"properties":{"fid":934,"NAMA":"HALTE TUGU SELATAN","TIPE_1":"TRANSPORTASI","TIPE_2":"HALTE","TIPE_3":"-","TELEPON":"","ALAMAT":"JL. STM WALANG JAYA NO.1, RT.1/RW.1, TUGU SEL., KEC. KOJA, JKT UTARA, DAERAH KHUSUS IBUKOTA JAKARTA 14260","ID_PROV":"31","PROVINSI":"DKI JAKARTA","ID_KABKOT":"31.72","KABKOT":"KOTA ADM. JAKARTA UTARA","ID_KEC":"31.72.03","KECAMATAN":"KOJA","ID_DESA":"31.72.03.1005","DESA":"TUGU SELATAN","LONGITUDE":106.9080877,"LATITUDE":-6.1294085,"STATUS":"BUKA","TANGGAL PENGUMPULAN":"Q2 2024","TANGGAL UPDATE":"27/07/2025"}},{"type":"Feature","geometry":{"coordinates":[106.85586,-6.12669],"type":"Point"},"properties":{"fid":949,"NAMA":"JAKARTA INTERNATIONAL STADIUM","TIPE_1":"TRANSPORTASI","TIPE_2":"HALTE","TIPE_3":"-","TELEPON":"","ALAMAT":"SUNTER AGUNG, KEC. TJ. PRIOK, JKT UTARA, DAERAH KHUSUS IBUKOTA JAKARTA","ID_PROV":"31","PROVINSI":"DKI JAKARTA","ID_KABKOT":"31.72","KABKOT":"KOTA ADM. JAKARTA UTARA","ID_KEC":"31.72.02","KECAMATAN":"TANJUNG PRIOK","ID_DESA":"31.72.02.1006","DESA":"SUNTER AGUNG","LONGITUDE":106.85586,"LATITUDE":-6.12669,"STATUS":"BUKA","TANGGAL PENGUMPULAN":"Q2 2024","TANGGAL UPDATE":"27/07/2025"}},{"type":"Feature","geometry":{"coordinates":[106.89491,-6.10772],"type":"Point"},"properties":{"fid":950,"NAMA":"JALAN LORONG 4","TIPE_1":"TRANSPORTASI","TIPE_2":"HALTE","TIPE_3":"-","TELEPON":"","ALAMAT":"KOJA, KEC. KOJA, JKT UTARA, DAERAH KHUSUS IBUKOTA JAKARTA","ID_PROV":"31","PROVINSI":"DKI JAKARTA","ID_KABKOT":"31.72","KABKOT":"KOTA ADM. JAKARTA UTARA","ID_KEC":"31.72.03","KECAMATAN":"KOJA","ID_DESA":"31.72.03.1001","DESA":"KOJA","LONGITUDE":106.89491,"LATITUDE":-6.10772,"STATUS":"BUKA","TANGGAL PENGUMPULAN":"Q2 2024","TANGGAL UPDATE":"27/07/2025"}},{"type":"Feature","geometry":{"coordinates":[106.85492,-6.13007],"type":"Point"},"properties":{"fid":956,"NAMA":"JEMBATAN ITEM 1","TIPE_1":"TRANSPORTASI","TIPE_2":"HALTE","TIPE_3":"-","TELEPON":"","ALAMAT":"SUNTER AGUNG, KEC. TJ. PRIOK, JKT UTARA, DAERAH KHUSUS IBUKOTA JAKARTA","ID_PROV":"31","PROVINSI":"DKI JAKARTA","ID_KABKOT":"31.72","KABKOT":"KOTA ADM. JAKARTA UTARA","ID_KEC":"31.72.02","KECAMATAN":"TANJUNG PRIOK","ID_DESA":"31.72.02.1006","DESA":"SUNTER AGUNG","LONGITUDE":106.85492,"LATITUDE":-6.13007,"STATUS":"BUKA","TANGGAL PENGUMPULAN":"Q2 2024","TANGGAL UPDATE":"27/07/2025"}},{"type":"Feature","geometry":{"coordinates":[106.7926502,-6.1333618],"type":"Point"},"properties":{"fid":958,"NAMA":"JEMBATAN TIGA","TIPE_1":"TRANSPORTASI","TIPE_2":"HALTE","TIPE_3":"-","TELEPON":"","ALAMAT":"RT.2/RW.16, PENJARINGAN, KEC. PENJARINGAN, JKT UTARA, DAERAH KHUSUS IBUKOTA JAKARTA 14450","ID_PROV":"31","PROVINSI":"DKI JAKARTA","ID_KABKOT":"31.72","KABKOT":"KOTA ADM. JAKARTA UTARA","ID_KEC":"31.72.01","KECAMATAN":"PENJARINGAN","ID_DESA":"31.72.01.1004","DESA":"PEJAGALAN","LONGITUDE":106.7926502,"LATITUDE":-6.1333618,"STATUS":"BUKA","TANGGAL PENGUMPULAN":"Q2 2024","TANGGAL UPDATE":"27/07/2025"}},{"type":"Feature","geometry":{"coordinates":[106.8486583,-6.1448333],"type":"Point"},"properties":{"fid":959,"NAMA":"JIEXPO KEMAYORAN","TIPE_1":"TRANSPORTASI","TIPE_2":"HALTE","TIPE_3":"-","TELEPON":"","ALAMAT":"PADEMANGAN TIM., KEC. PADEMANGAN, JKT UTARA, DAERAH KHUSUS IBUKOTA JAKARTA","ID_PROV":"31","PROVINSI":"DKI JAKARTA","ID_KABKOT":"31.72","KABKOT":"KOTA ADM. JAKARTA UTARA","ID_KEC":"31.72.05","KECAMATAN":"PADEMANGAN","ID_DESA":"31.72.05.1001","DESA":"PADEMANGAN TIMUR","LONGITUDE":106.8486583,"LATITUDE":-6.1448333,"STATUS":"BUKA","TANGGAL PENGUMPULAN":"Q2 2024","TANGGAL UPDATE":"27/07/2025"}},{"type":"Feature","geometry":{"coordinates":[106.78541,-6.1157],"type":"Point"},"properties":{"fid":961,"NAMA":"JL TAMAN PLUIT MURNI","TIPE_1":"TRANSPORTASI","TIPE_2":"HALTE","TIPE_3":"-","TELEPON":"","ALAMAT":"PLUIT, KEC. PENJARINGAN, JKT UTARA, DAERAH KHUSUS IBUKOTA JAKARTA","ID_PROV":"31","PROVINSI":"DKI JAKARTA","ID_KABKOT":"31.72","KABKOT":"KOTA ADM. JAKARTA UTARA","ID_KEC":"31.72.01","KECAMATAN":"PENJARINGAN","ID_DESA":"31.72.01.1005","DESA":"PLUIT","LONGITUDE":106.78541,"LATITUDE":-6.1157,"STATUS":"BUKA","TANGGAL PENGUMPULAN":"Q2 2024","TANGGAL UPDATE":"27/07/2025"}},{"type":"Feature","geometry":{"coordinates":[106.79162,-6.11986],"type":"Point"},"properties":{"fid":962,"NAMA":"JL TAMAN PLUIT PUTRA","TIPE_1":"TRANSPORTASI","TIPE_2":"HALTE","TIPE_3":"-","TELEPON":"","ALAMAT":"PLUIT, KEC. PENJARINGAN, JKT UTARA, DAERAH KHUSUS IBUKOTA JAKARTA","ID_PROV":"31","PROVINSI":"DKI JAKARTA","ID_KABKOT":"31.72","KABKOT":"KOTA ADM. JAKARTA UTARA","ID_KEC":"31.72.01","KECAMATAN":"PENJARINGAN","ID_DESA":"31.72.01.1005","DESA":"PLUIT","LONGITUDE":106.79162,"LATITUDE":-6.11986,"STATUS":"BUKA","TANGGAL PENGUMPULAN":"Q2 2024","TANGGAL UPDATE":"27/07/2025"}},{"type":"Feature","geometry":{"coordinates":[106.79223,-6.1199],"type":"Point"},"properties":{"fid":963,"NAMA":"JL TAMAN PLUIT PUTRI","TIPE_1":"TRANSPORTASI","TIPE_2":"HALTE","TIPE_3":"-","TELEPON":"","ALAMAT":"PLUIT, KEC. PENJARINGAN, JKT UTARA, DAERAH KHUSUS IBUKOTA JAKARTA","ID_PROV":"31","PROVINSI":"DKI JAKARTA","ID_KABKOT":"31.72","KABKOT":"KOTA ADM. JAKARTA UTARA","ID_KEC":"31.72.01","KECAMATAN":"PENJARINGAN","ID_DESA":"31.72.01.1005","DESA":"PLUIT","LONGITUDE":106.79223,"LATITUDE":-6.1199,"STATUS":"BUKA","TANGGAL PENGUMPULAN":"Q2 2024","TANGGAL UPDATE":"27/07/2025"}},{"type":"Feature","geometry":{"coordinates":[106.84241,-6.12781],"type":"Point"},"properties":{"fid":964,"NAMA":"JL. BINARIA ANCOL","TIPE_1":"TRANSPORTASI","TIPE_2":"HALTE","TIPE_3":"-","TELEPON":"","ALAMAT":"ANCOL, KEC. PADEMANGAN, JKT UTARA, DAERAH KHUSUS IBUKOTA JAKARTA","ID_PROV":"31","PROVINSI":"DKI JAKARTA","ID_KABKOT":"31.72","KABKOT":"KOTA ADM. JAKARTA UTARA","ID_KEC":"31.72.05","KECAMATAN":"PADEMANGAN","ID_DESA":"31.72.05.1003","DESA":"ANCOL","LONGITUDE":106.84241,"LATITUDE":-6.12781,"STATUS":"BUKA","TANGGAL PENGUMPULAN":"Q2 2024","TANGGAL UPDATE":"27/07/2025"}},{"type":"Feature","geometry":{"coordinates":[106.83119,-6.13058],"type":"Point"},"properties":{"fid":965,"NAMA":"JL. GUNUNG SAHARI SELATAN","TIPE_1":"TRANSPORTASI","TIPE_2":"HALTE","TIPE_3":"-","TELEPON":"","ALAMAT":"PADEMANGAN BAR., KEC. PADEMANGAN, JKT UTARA, DAERAH KHUSUS IBUKOTA JAKARTA","ID_PROV":"31","PROVINSI":"DKI JAKARTA","ID_KABKOT":"31.72","KABKOT":"KOTA ADM. JAKARTA UTARA","ID_KEC":"31.72.05","KECAMATAN":"PADEMANGAN","ID_DESA":"31.72.05.1002","DESA":"PADEMANGAN BARAT","LONGITUDE":106.83119,"LATITUDE":-6.13058,"STATUS":"BUKA","TANGGAL PENGUMPULAN":"Q2 2024","TANGGAL UPDATE":"27/07/2025"}},{"type":"Feature","geometry":{"coordinates":[106.83118,-6.13032],"type":"Point"},"properties":{"fid":966,"NAMA":"JL. GUNUNG SAHARI UTARA","TIPE_1":"TRANSPORTASI","TIPE_2":"HALTE","TIPE_3":"-","TELEPON":"","ALAMAT":"PADEMANGAN BAR., KEC. PADEMANGAN, JKT UTARA, DAERAH KHUSUS IBUKOTA JAKARTA","ID_PROV":"31","PROVINSI":"DKI JAKARTA","ID_KABKOT":"31.72","KABKOT":"KOTA ADM. JAKARTA UTARA","ID_KEC":"31.72.05","KECAMATAN":"PADEMANGAN","ID_DESA":"31.72.05.1002","DESA":"PADEMANGAN BARAT","LONGITUDE":106.83118,"LATITUDE":-6.13032,"STATUS":"BUKA","TANGGAL PENGUMPULAN":"Q2 2024","TANGGAL UPDATE":"27/07/2025"}},{"type":"Feature","geometry":{"coordinates":[106.83211,-6.13516],"type":"Point"},"properties":{"fid":968,"NAMA":"JLN. AMPERA VI GUNUNG SAHARI","TIPE_1":"TRANSPORTASI","TIPE_2":"HALTE","TIPE_3":"-","TELEPON":"","ALAMAT":"PADEMANGAN BAR., KEC. PADEMANGAN, JKT UTARA, DAERAH KHUSUS IBUKOTA JAKARTA","ID_PROV":"31","PROVINSI":"DKI JAKARTA","ID_KABKOT":"31.72","KABKOT":"KOTA ADM. JAKARTA UTARA","ID_KEC":"31.72.05","KECAMATAN":"PADEMANGAN","ID_DESA":"31.72.05.1002","DESA":"PADEMANGAN BARAT","LONGITUDE":106.83211,"LATITUDE":-6.13516,"STATUS":"BUKA","TANGGAL PENGUMPULAN":"Q2 2024","TANGGAL UPDATE":"27/07/2025"}},{"type":"Feature","geometry":{"coordinates":[106.82006,-6.1294],"type":"Point"},"properties":{"fid":969,"NAMA":"JLN. ANCOL BARAT 1","TIPE_1":"TRANSPORTASI","TIPE_2":"HALTE","TIPE_3":"-","TELEPON":"","ALAMAT":"ANCOL, KEC. PADEMANGAN, JKT UTARA, DAERAH KHUSUS IBUKOTA JAKARTA","ID_PROV":"31","PROVINSI":"DKI JAKARTA","ID_KABKOT":"31.72","KABKOT":"KOTA ADM. JAKARTA UTARA","ID_KEC":"31.72.05","KECAMATAN":"PADEMANGAN","ID_DESA":"31.72.05.1003","DESA":"ANCOL","LONGITUDE":106.82006,"LATITUDE":-6.1294,"STATUS":"BUKA","TANGGAL PENGUMPULAN":"Q2 2024","TANGGAL UPDATE":"27/07/2025"}},{"type":"Feature","geometry":{"coordinates":[106.79409,-6.12028],"type":"Point"},"properties":{"fid":970,"NAMA":"JLN. BB UTARA","TIPE_1":"TRANSPORTASI","TIPE_2":"HALTE","TIPE_3":"-","TELEPON":"","ALAMAT":"PLUIT, KEC. PENJARINGAN, JKT UTARA, DAERAH KHUSUS IBUKOTA JAKARTA","ID_PROV":"31","PROVINSI":"DKI JAKARTA","ID_KABKOT":"31.72","KABKOT":"KOTA ADM. JAKARTA UTARA","ID_KEC":"31.72.01","KECAMATAN":"PENJARINGAN","ID_DESA":"31.72.01.1005","DESA":"PLUIT","LONGITUDE":106.79409,"LATITUDE":-6.12028,"STATUS":"BUKA","TANGGAL PENGUMPULAN":"Q2 2024","TANGGAL UPDATE":"27/07/2025"}},{"type":"Feature","geometry":{"coordinates":[106.91856,-6.10803],"type":"Point"},"properties":{"fid":972,"NAMA":"JLN. KALIBARU BARAT IV","TIPE_1":"TRANSPORTASI","TIPE_2":"HALTE","TIPE_3":"-","TELEPON":"","ALAMAT":"KALI BARU, KEC. CILINCING, JKT UTARA, DAERAH KHUSUS IBUKOTA JAKARTA","ID_PROV":"31","PROVINSI":"DKI JAKARTA","ID_KABKOT":"31.72","KABKOT":"KOTA ADM. JAKARTA UTARA","ID_KEC":"31.72.04","KECAMATAN":"CILINCING","ID_DESA":"31.72.04.1004","DESA":"KALIBARU","LONGITUDE":106.91856,"LATITUDE":-6.10803,"STATUS":"BUKA","TANGGAL PENGUMPULAN":"Q2 2024","TANGGAL UPDATE":"27/07/2025"}},{"type":"Feature","geometry":{"coordinates":[106.7978,-6.12539],"type":"Point"},"properties":{"fid":974,"NAMA":"JLN. PLUIT RAYA 2","TIPE_1":"TRANSPORTASI","TIPE_2":"HALTE","TIPE_3":"-","TELEPON":"","ALAMAT":"PENJARINGAN, KEC. PENJARINGAN, JKT UTARA, DAERAH KHUSUS IBUKOTA JAKARTA","ID_PROV":"31","PROVINSI":"DKI JAKARTA","ID_KABKOT":"31.72","KABKOT":"KOTA ADM. JAKARTA UTARA","ID_KEC":"31.72.01","KECAMATAN":"PENJARINGAN","ID_DESA":"31.72.01.1001","DESA":"PENJARINGAN","LONGITUDE":106.7978,"LATITUDE":-6.12539,"STATUS":"BUKA","TANGGAL PENGUMPULAN":"Q2 2024","TANGGAL UPDATE":"27/07/2025"}},{"type":"Feature","geometry":{"coordinates":[106.88736,-6.15294],"type":"Point"},"properties":{"fid":978,"NAMA":"KALI SUNTER","TIPE_1":"TRANSPORTASI","TIPE_2":"HALTE","TIPE_3":"-","TELEPON":"","ALAMAT":"KLP. GADING BAR., KEC. KLP. GADING, JKT UTARA, DAERAH KHUSUS IBUKOTA JAKARTA","ID_PROV":"31","PROVINSI":"DKI JAKARTA","ID_KABKOT":"31.72","KABKOT":"KOTA ADM. JAKARTA UTARA","ID_KEC":"31.72.06","KECAMATAN":"KELAPA GADING","ID_DESA":"31.72.06.1003","DESA":"KELAPA GADING BARAT","LONGITUDE":106.88736,"LATITUDE":-6.15294,"STATUS":"BUKA","TANGGAL PENGUMPULAN":"Q2 2024","TANGGAL UPDATE":"27/07/2025"}},{"type":"Feature","geometry":{"coordinates":[106.8949399,-6.1764431],"type":"Point"},"properties":{"fid":990,"NAMA":"KLP GADING","TIPE_1":"TRANSPORTASI","TIPE_2":"HALTE","TIPE_3":"-","TELEPON":"","ALAMAT":"JL. PERINTIS KEMERDEKAAN, RT.1/RW.17, KLP. GADING TIM., KEC. KLP. GADING, JKT UTARA, DAERAH KHUSUS IBUKOTA JAKARTA 14240","ID_PROV":"31","PROVINSI":"DKI JAKARTA","ID_KABKOT":"31.72","KABKOT":"KOTA ADM. JAKARTA UTARA","ID_KEC":"31.72.06","KECAMATAN":"KELAPA GADING","ID_DESA":"31.72.06.1001","DESA":"KELAPA GADING TIMUR","LONGITUDE":106.8949399,"LATITUDE":-6.1764431,"STATUS":"BUKA","TANGGAL PENGUMPULAN":"Q2 2024","TANGGAL UPDATE":"27/07/2025"}},{"type":"Feature","geometry":{"coordinates":[106.88169,-6.16204],"type":"Point"},"properties":{"fid":991,"NAMA":"KODAMAR","TIPE_1":"TRANSPORTASI","TIPE_2":"HALTE","TIPE_3":"-","TELEPON":"","ALAMAT":"JL. YOS SUDARSO, KLP. GADING BAR., KEC. KLP. GADING, JKT UTARA, DAERAH KHUSUS IBUKOTA JAKARTA 14360","ID_PROV":"31","PROVINSI":"DKI JAKARTA","ID_KABKOT":"31.72","KABKOT":"KOTA ADM. JAKARTA UTARA","ID_KEC":"31.72.02","KECAMATAN":"TANJUNG PRIOK","ID_DESA":"31.72.02.1002","DESA":"SUNTER JAYA","LONGITUDE":106.88169,"LATITUDE":-6.16204,"STATUS":"BUKA","TANGGAL PENGUMPULAN":"Q2 2024","TANGGAL UPDATE":"27/07/2025"}},{"type":"Feature","geometry":{"coordinates":[106.8932675,-6.1141281],"type":"Point"},"properties":{"fid":992,"NAMA":"KOJA","TIPE_1":"TRANSPORTASI","TIPE_2":"HALTE","TIPE_3":"-","TELEPON":"","ALAMAT":"RAWABADAK UTARA, KEC., JKT UTARA, DAERAH KHUSUS IBUKOTA JAKARTA","ID_PROV":"31","PROVINSI":"DKI JAKARTA","ID_KABKOT":"31.72","KABKOT":"KOTA ADM. JAKARTA UTARA","ID_KEC":"31.72.03","KECAMATAN":"KOJA","ID_DESA":"31.72.03.1004","DESA":"RAWA BADAK UTARA","LONGITUDE":106.8932675,"LATITUDE":-6.1141281,"STATUS":"BUKA","TANGGAL PENGUMPULAN":"Q2 2024","TANGGAL UPDATE":"27/07/2025"}},{"type":"Feature","geometry":{"coordinates":[106.89334,-6.11088],"type":"Point"},"properties":{"fid":1002,"NAMA":"LORONG","TIPE_1":"TRANSPORTASI","TIPE_2":"HALTE","TIPE_3":"-","TELEPON":"","ALAMAT":"KOJA, KEC. KOJA, JKT UTARA, DAERAH KHUSUS IBUKOTA JAKARTA","ID_PROV":"31","PROVINSI":"DKI JAKARTA","ID_KABKOT":"31.72","KABKOT":"KOTA ADM. JAKARTA UTARA","ID_KEC":"31.72.03","KECAMATAN":"KOJA","ID_DESA":"31.72.03.1001","DESA":"KOJA","LONGITUDE":106.89334,"LATITUDE":-6.11088,"STATUS":"BUKA","TANGGAL PENGUMPULAN":"Q2 2024","TANGGAL UPDATE":"27/07/2025"}},{"type":"Feature","geometry":{"coordinates":[106.8924254,-6.1101326],"type":"Point"},"properties":{"fid":1005,"NAMA":"MAMBO","TIPE_1":"TRANSPORTASI","TIPE_2":"HALTE","TIPE_3":"-","TELEPON":"","ALAMAT":"JALAN RAYA PELABUHAN NO.TANJUNG PRIOK, TANJUNG PRIOK, JKT UTARA, 14310","ID_PROV":"31","PROVINSI":"DKI JAKARTA","ID_KABKOT":"31.72","KABKOT":"KOTA ADM. JAKARTA UTARA","ID_KEC":"31.72.02","KECAMATAN":"TANJUNG PRIOK","ID_DESA":"31.72.02.1001","DESA":"TANJUNG PRIOK","LONGITUDE":106.8924254,"LATITUDE":-6.1101326,"STATUS":"BUKA","TANGGAL PENGUMPULAN":"Q2 2024","TANGGAL UPDATE":"27/07/2025"}},{"type":"Feature","geometry":{"coordinates":[106.75963,-6.11644],"type":"Point"},"properties":{"fid":1010,"NAMA":"MAYANG PERMAI","TIPE_1":"TRANSPORTASI","TIPE_2":"HALTE","TIPE_3":"-","TELEPON":"","ALAMAT":"KAPUK MUARA, KEC. PENJARINGAN, JKT UTARA, DAERAH KHUSUS IBUKOTA JAKARTA","ID_PROV":"31","PROVINSI":"DKI JAKARTA","ID_KABKOT":"31.72","KABKOT":"KOTA ADM. JAKARTA UTARA","ID_KEC":"31.72.01","KECAMATAN":"PENJARINGAN","ID_DESA":"31.72.01.1003","DESA":"KAPUK MUARA","LONGITUDE":106.75963,"LATITUDE":-6.11644,"STATUS":"BUKA","TANGGAL PENGUMPULAN":"Q2 2024","TANGGAL UPDATE":"27/07/2025"}},{"type":"Feature","geometry":{"coordinates":[106.7461,-6.09175],"type":"Point"},"properties":{"fid":1011,"NAMA":"MELODY GOLF","TIPE_1":"TRANSPORTASI","TIPE_2":"HALTE","TIPE_3":"-","TELEPON":"","ALAMAT":"","ID_PROV":"31","PROVINSI":"DKI JAKARTA","ID_KABKOT":"31.72","KABKOT":"KOTA ADM. JAKARTA UTARA","ID_KEC":"31.72.01","KECAMATAN":"PENJARINGAN","ID_DESA":"31.72.01.1002","DESA":"KAMAL MUARA","LONGITUDE":106.7461,"LATITUDE":-6.09175,"STATUS":"BUKA","TANGGAL PENGUMPULAN":"Q2 2024","TANGGAL UPDATE":"27/07/2025"}},{"type":"Feature","geometry":{"coordinates":[106.74599,-6.09199],"type":"Point"},"properties":{"fid":1012,"NAMA":"MELODY GOLF 2","TIPE_1":"TRANSPORTASI","TIPE_2":"HALTE","TIPE_3":"-","TELEPON":"","ALAMAT":"","ID_PROV":"31","PROVINSI":"DKI JAKARTA","ID_KABKOT":"31.72","KABKOT":"KOTA ADM. JAKARTA UTARA","ID_KEC":"31.72.01","KECAMATAN":"PENJARINGAN","ID_DESA":"31.72.01.1002","DESA":"KAMAL MUARA","LONGITUDE":106.74599,"LATITUDE":-6.09199,"STATUS":"BUKA","TANGGAL PENGUMPULAN":"Q2 2024","TANGGAL UPDATE":"27/07/2025"}},{"type":"Feature","geometry":{"coordinates":[106.75527,-6.11435],"type":"Point"},"properties":{"fid":1013,"NAMA":"METRIC PIK","TIPE_1":"TRANSPORTASI","TIPE_2":"HALTE","TIPE_3":"-","TELEPON":"","ALAMAT":"KAPUK MUARA, KEC. PENJARINGAN, JKT UTARA, DAERAH KHUSUS IBUKOTA JAKARTA","ID_PROV":"31","PROVINSI":"DKI JAKARTA","ID_KABKOT":"31.72","KABKOT":"KOTA ADM. JAKARTA UTARA","ID_KEC":"31.72.01","KECAMATAN":"PENJARINGAN","ID_DESA":"31.72.01.1003","DESA":"KAPUK MUARA","LONGITUDE":106.75527,"LATITUDE":-6.11435,"STATUS":"BUKA","TANGGAL PENGUMPULAN":"Q2 2024","TANGGAL UPDATE":"27/07/2025"}},{"type":"Feature","geometry":{"coordinates":[106.83164,-6.1337],"type":"Point"},"properties":{"fid":1017,"NAMA":"PADEMANGAN","TIPE_1":"TRANSPORTASI","TIPE_2":"HALTE","TIPE_3":"-","TELEPON":"","ALAMAT":"RT.1/RW.13,  BAR., KEC., JKT UTARA, DAERAH KHUSUS IBUKOTA JAKARTA 14420","ID_PROV":"31","PROVINSI":"DKI JAKARTA","ID_KABKOT":"31.72","KABKOT":"KOTA ADM. JAKARTA UTARA","ID_KEC":"31.72.05","KECAMATAN":"PADEMANGAN","ID_DESA":"31.72.05.1002","DESA":"PADEMANGAN BARAT","LONGITUDE":106.83164,"LATITUDE":-6.1337,"STATUS":"BUKA","TANGGAL PENGUMPULAN":"Q2 2024","TANGGAL UPDATE":"27/07/2025"}},{"type":"Feature","geometry":{"coordinates":[106.83177,-6.1337],"type":"Point"},"properties":{"fid":1018,"NAMA":"PADEMANGAN 1","TIPE_1":"TRANSPORTASI","TIPE_2":"HALTE","TIPE_3":"-","TELEPON":"","ALAMAT":"PADEMANGAN BAR., KEC. PADEMANGAN, JKT UTARA, DAERAH KHUSUS IBUKOTA JAKARTA","ID_PROV":"31","PROVINSI":"DKI JAKARTA","ID_KABKOT":"31.72","KABKOT":"KOTA ADM. JAKARTA UTARA","ID_KEC":"31.72.05","KECAMATAN":"PADEMANGAN","ID_DESA":"31.72.05.1002","DESA":"PADEMANGAN BARAT","LONGITUDE":106.83177,"LATITUDE":-6.1337,"STATUS":"BUKA","TANGGAL PENGUMPULAN":"Q2 2024","TANGGAL UPDATE":"27/07/2025"}},{"type":"Feature","geometry":{"coordinates":[106.80474,-6.12798],"type":"Point"},"properties":{"fid":1019,"NAMA":"PAKIN","TIPE_1":"TRANSPORTASI","TIPE_2":"HALTE","TIPE_3":"-","TELEPON":"","ALAMAT":"RT.2/RW.4, PENJARINGAN, KEC. PENJARINGAN, JKT UTARA, DAERAH KHUSUS IBUKOTA JAKARTA 14440","ID_PROV":"31","PROVINSI":"DKI JAKARTA","ID_KABKOT":"31.72","KABKOT":"KOTA ADM. JAKARTA UTARA","ID_KEC":"31.72.01","KECAMATAN":"PENJARINGAN","ID_DESA":"31.72.01.1001","DESA":"PENJARINGAN","LONGITUDE":106.80474,"LATITUDE":-6.12798,"STATUS":"BUKA","TANGGAL PENGUMPULAN":"Q2 2024","TANGGAL UPDATE":"27/07/2025"}},{"type":"Feature","geometry":{"coordinates":[106.7507122,-6.093736],"type":"Point"},"properties":{"fid":1023,"NAMA":"PANTAI MAJU","TIPE_1":"TRANSPORTASI","TIPE_2":"HALTE","TIPE_3":"-","TELEPON":"","ALAMAT":"","ID_PROV":"31","PROVINSI":"DKI JAKARTA","ID_KABKOT":"31.72","KABKOT":"KOTA ADM. JAKARTA UTARA","ID_KEC":"31.72.01","KECAMATAN":"PENJARINGAN","ID_DESA":"31.72.01.1002","DESA":"KAMAL MUARA","LONGITUDE":106.7507122,"LATITUDE":-6.093736,"STATUS":"BUKA","TANGGAL PENGUMPULAN":"Q2 2024","TANGGAL UPDATE":"27/07/2025"}},{"type":"Feature","geometry":{"coordinates":[106.8804787,-6.1666793],"type":"Point"},"properties":{"fid":1024,"NAMA":"PASAR","TIPE_1":"TRANSPORTASI","TIPE_2":"HALTE","TIPE_3":"-","TELEPON":"","ALAMAT":"JL. PERINTIS KEMERDEKAAN NO.11, KLP. GADING BAR., KEC. KLP. GADING, JKT UTARA, DAERAH KHUSUS IBUKOTA JAKARTA 14240","ID_PROV":"31","PROVINSI":"DKI JAKARTA","ID_KABKOT":"31.72","KABKOT":"KOTA ADM. JAKARTA UTARA","ID_KEC":"31.72.06","KECAMATAN":"KELAPA GADING","ID_DESA":"31.72.06.1003","DESA":"KELAPA GADING BARAT","LONGITUDE":106.8804787,"LATITUDE":-6.1666793,"STATUS":"BUKA","TANGGAL PENGUMPULAN":"Q2 2024","TANGGAL UPDATE":"27/07/2025"}},{"type":"Feature","geometry":{"coordinates":[106.77818,-6.11638],"type":"Point"},"properties":{"fid":1030,"NAMA":"PASAR MUARA KARANG","TIPE_1":"TRANSPORTASI","TIPE_2":"HALTE","TIPE_3":"-","TELEPON":"","ALAMAT":"PLUIT, KEC. PENJARINGAN, JKT UTARA, DAERAH KHUSUS IBUKOTA JAKARTA","ID_PROV":"31","PROVINSI":"DKI JAKARTA","ID_KABKOT":"31.72","KABKOT":"KOTA ADM. JAKARTA UTARA","ID_KEC":"31.72.01","KECAMATAN":"PENJARINGAN","ID_DESA":"31.72.01.1005","DESA":"PLUIT","LONGITUDE":106.77818,"LATITUDE":-6.11638,"STATUS":"BUKA","TANGGAL PENGUMPULAN":"Q2 2024","TANGGAL UPDATE":"27/07/2025"}},{"type":"Feature","geometry":{"coordinates":[106.7919868,-6.1262626],"type":"Point"},"properties":{"fid":1038,"NAMA":"PENJARINGAN","TIPE_1":"TRANSPORTASI","TIPE_2":"HALTE","TIPE_3":"-","TELEPON":"1 500 102","ALAMAT":"KEC., JKT UTARA, DAERAH KHUSUS IBUKOTA JAKARTA","ID_PROV":"31","PROVINSI":"DKI JAKARTA","ID_KABKOT":"31.72","KABKOT":"KOTA ADM. JAKARTA UTARA","ID_KEC":"31.72.01","KECAMATAN":"PENJARINGAN","ID_DESA":"31.72.01.1001","DESA":"PENJARINGAN","LONGITUDE":106.7919868,"LATITUDE":-6.1262626,"STATUS":"BUKA","TANGGAL PENGUMPULAN":"Q2 2024","TANGGAL UPDATE":"27/07/2025"}},{"type":"Feature","geometry":{"coordinates":[106.79236,-6.12757],"type":"Point"},"properties":{"fid":1039,"NAMA":"PENJARINGAN 2","TIPE_1":"TRANSPORTASI","TIPE_2":"HALTE","TIPE_3":"-","TELEPON":"","ALAMAT":"PENJARINGAN, KEC. PENJARINGAN, JKT UTARA, DAERAH KHUSUS IBUKOTA JAKARTA","ID_PROV":"31","PROVINSI":"DKI JAKARTA","ID_KABKOT":"31.72","KABKOT":"KOTA ADM. JAKARTA UTARA","ID_KEC":"31.72.01","KECAMATAN":"PENJARINGAN","ID_DESA":"31.72.01.1001","DESA":"PENJARINGAN","LONGITUDE":106.79236,"LATITUDE":-6.12757,"STATUS":"BUKA","TANGGAL PENGUMPULAN":"Q2 2024","TANGGAL UPDATE":"27/07/2025"}},{"type":"Feature","geometry":{"coordinates":[106.8887142,-6.1717466],"type":"Point"},"properties":{"fid":1040,"NAMA":"PERINTIS KEMERDEKAAN","TIPE_1":"TRANSPORTASI","TIPE_2":"HALTE","TIPE_3":"-","TELEPON":"","ALAMAT":"JL.  NO.31, RW.5, KLP. GADING BAR., KEC. KLP. GADING, JKT UTARA, DAERAH KHUSUS IBUKOTA JAKARTA 14240","ID_PROV":"31","PROVINSI":"DKI JAKARTA","ID_KABKOT":"31.72","KABKOT":"KOTA ADM. JAKARTA UTARA","ID_KEC":"31.72.06","KECAMATAN":"KELAPA GADING","ID_DESA":"31.72.06.1003","DESA":"KELAPA GADING BARAT","LONGITUDE":106.8887142,"LATITUDE":-6.1717466,"STATUS":"BUKA","TANGGAL PENGUMPULAN":"Q2 2024","TANGGAL UPDATE":"27/07/2025"}},{"type":"Feature","geometry":{"coordinates":[106.89287,-6.11389],"type":"Point"},"properties":{"fid":1041,"NAMA":"PERMAI KOJA 1","TIPE_1":"TRANSPORTASI","TIPE_2":"HALTE","TIPE_3":"-","TELEPON":"","ALAMAT":"KB. BAWANG, KEC. TJ. PRIOK, JKT UTARA, DAERAH KHUSUS IBUKOTA JAKARTA","ID_PROV":"31","PROVINSI":"DKI JAKARTA","ID_KABKOT":"31.72","KABKOT":"KOTA ADM. JAKARTA UTARA","ID_KEC":"31.72.02","KECAMATAN":"TANJUNG PRIOK","ID_DESA":"31.72.02.1005","DESA":"KEBON BAWANG","LONGITUDE":106.89287,"LATITUDE":-6.11389,"STATUS":"BUKA","TANGGAL PENGUMPULAN":"Q2 2024","TANGGAL UPDATE":"27/07/2025"}},{"type":"Feature","geometry":{"coordinates":[106.89328,-6.11369],"type":"Point"},"properties":{"fid":1042,"NAMA":"PERMAI KOJA 2","TIPE_1":"TRANSPORTASI","TIPE_2":"HALTE","TIPE_3":"-","TELEPON":"","ALAMAT":"KOJA, KEC. KOJA, JKT UTARA, DAERAH KHUSUS IBUKOTA JAKARTA","ID_PROV":"31","PROVINSI":"DKI JAKARTA","ID_KABKOT":"31.72","KABKOT":"KOTA ADM. JAKARTA UTARA","ID_KEC":"31.72.03","KECAMATAN":"KOJA","ID_DESA":"31.72.03.1001","DESA":"KOJA","LONGITUDE":106.89328,"LATITUDE":-6.11369,"STATUS":"BUKA","TANGGAL PENGUMPULAN":"Q2 2024","TANGGAL UPDATE":"27/07/2025"}},{"type":"Feature","geometry":{"coordinates":[106.89326,-6.11378],"type":"Point"},"properties":{"fid":1043,"NAMA":"PERMAI KOJA 2","TIPE_1":"TRANSPORTASI","TIPE_2":"HALTE","TIPE_3":"-","TELEPON":"","ALAMAT":"KOJA, KEC. KOJA, JKT UTARA, DAERAH KHUSUS IBUKOTA JAKARTA","ID_PROV":"31","PROVINSI":"DKI JAKARTA","ID_KABKOT":"31.72","KABKOT":"KOTA ADM. JAKARTA UTARA","ID_KEC":"31.72.03","KECAMATAN":"KOJA","ID_DESA":"31.72.03.1001","DESA":"KOJA","LONGITUDE":106.89326,"LATITUDE":-6.11378,"STATUS":"BUKA","TANGGAL PENGUMPULAN":"Q2 2024","TANGGAL UPDATE":"27/07/2025"}},{"type":"Feature","geometry":{"coordinates":[106.7397992,-6.1086096],"type":"Point"},"properties":{"fid":1051,"NAMA":"PIK AVENUE","TIPE_1":"TRANSPORTASI","TIPE_2":"HALTE","TIPE_3":"-","TELEPON":"","ALAMAT":"KAMAL MUARA, KEC. PENJARINGAN, JKT UTARA, DAERAH KHUSUS IBUKOTA JAKARTA","ID_PROV":"31","PROVINSI":"DKI JAKARTA","ID_KABKOT":"31.72","KABKOT":"KOTA ADM. JAKARTA UTARA","ID_KEC":"31.72.01","KECAMATAN":"PENJARINGAN","ID_DESA":"31.72.01.1002","DESA":"KAMAL MUARA","LONGITUDE":106.7397992,"LATITUDE":-6.1086096,"STATUS":"BUKA","TANGGAL PENGUMPULAN":"Q2 2024","TANGGAL UPDATE":"27/07/2025"}},{"type":"Feature","geometry":{"coordinates":[106.79037,-6.1158],"type":"Point"},"properties":{"fid":1057,"NAMA":"PLUIT","TIPE_1":"TRANSPORTASI","TIPE_2":"HALTE","TIPE_3":"-","TELEPON":"","ALAMAT":"RT.15/RW.4,, KEC. PENJARINGAN, JKT UTARA, DAERAH KHUSUS IBUKOTA JAKARTA 14450","ID_PROV":"31","PROVINSI":"DKI JAKARTA","ID_KABKOT":"31.72","KABKOT":"KOTA ADM. JAKARTA UTARA","ID_KEC":"31.72.01","KECAMATAN":"PENJARINGAN","ID_DESA":"31.72.01.1005","DESA":"PLUIT","LONGITUDE":106.79037,"LATITUDE":-6.1158,"STATUS":"BUKA","TANGGAL PENGUMPULAN":"Q2 2024","TANGGAL UPDATE":"27/07/2025"}},{"type":"Feature","geometry":{"coordinates":[106.7909,-6.11564],"type":"Point"},"properties":{"fid":1058,"NAMA":"PLUIT 1","TIPE_1":"TRANSPORTASI","TIPE_2":"HALTE","TIPE_3":"-","TELEPON":"","ALAMAT":"PLUIT, KEC. PENJARINGAN, JKT UTARA, DAERAH KHUSUS IBUKOTA JAKARTA","ID_PROV":"31","PROVINSI":"DKI JAKARTA","ID_KABKOT":"31.72","KABKOT":"KOTA ADM. JAKARTA UTARA","ID_KEC":"31.72.01","KECAMATAN":"PENJARINGAN","ID_DESA":"31.72.01.1005","DESA":"PLUIT","LONGITUDE":106.7909,"LATITUDE":-6.11564,"STATUS":"BUKA","TANGGAL PENGUMPULAN":"Q2 2024","TANGGAL UPDATE":"27/07/2025"}},{"type":"Feature","geometry":{"coordinates":[106.78311,-6.1176],"type":"Point"},"properties":{"fid":1059,"NAMA":"PLUIT KARANG INDAH","TIPE_1":"TRANSPORTASI","TIPE_2":"HALTE","TIPE_3":"-","TELEPON":"","ALAMAT":"PLUIT, KEC. PENJARINGAN, JKT UTARA, DAERAH KHUSUS IBUKOTA JAKARTA","ID_PROV":"31","PROVINSI":"DKI JAKARTA","ID_KABKOT":"31.72","KABKOT":"KOTA ADM. JAKARTA UTARA","ID_KEC":"31.72.01","KECAMATAN":"PENJARINGAN","ID_DESA":"31.72.01.1005","DESA":"PLUIT","LONGITUDE":106.78311,"LATITUDE":-6.1176,"STATUS":"BUKA","TANGGAL PENGUMPULAN":"Q2 2024","TANGGAL UPDATE":"27/07/2025"}},{"type":"Feature","geometry":{"coordinates":[106.7997194,-6.1252839],"type":"Point"},"properties":{"fid":1060,"NAMA":"PLUIT SELATAN","TIPE_1":"TRANSPORTASI","TIPE_2":"HALTE","TIPE_3":"-","TELEPON":"","ALAMAT":"PLUIT, KEC. PENJARINGAN, JKT UTARA, DAERAH KHUSUS IBUKOTA JAKARTA","ID_PROV":"31","PROVINSI":"DKI JAKARTA","ID_KABKOT":"31.72","KABKOT":"KOTA ADM. JAKARTA UTARA","ID_KEC":"31.72.01","KECAMATAN":"PENJARINGAN","ID_DESA":"31.72.01.1001","DESA":"PENJARINGAN","LONGITUDE":106.7997194,"LATITUDE":-6.1252839,"STATUS":"BUKA","TANGGAL PENGUMPULAN":"Q2 2024","TANGGAL UPDATE":"27/07/2025"}},{"type":"Feature","geometry":{"coordinates":[106.7899671,-6.1178403],"type":"Point"},"properties":{"fid":1061,"NAMA":"PLUIT VILLAGE MALL","TIPE_1":"TRANSPORTASI","TIPE_2":"HALTE","TIPE_3":"-","TELEPON":"","ALAMAT":"PLUIT, KEC. PENJARINGAN, JKT UTARA, DAERAH KHUSUS IBUKOTA JAKARTA","ID_PROV":"31","PROVINSI":"DKI JAKARTA","ID_KABKOT":"31.72","KABKOT":"KOTA ADM. JAKARTA UTARA","ID_KEC":"31.72.01","KECAMATAN":"PENJARINGAN","ID_DESA":"31.72.01.1005","DESA":"PLUIT","LONGITUDE":106.7899671,"LATITUDE":-6.1178403,"STATUS":"BUKA","TANGGAL PENGUMPULAN":"Q2 2024","TANGGAL UPDATE":"27/07/2025"}},{"type":"Feature","geometry":{"coordinates":[106.89371,-6.12846],"type":"Point"},"properties":{"fid":1062,"NAMA":"PLUMPANG","TIPE_1":"TRANSPORTASI","TIPE_2":"HALTE","TIPE_3":"-","TELEPON":"","ALAMAT":"RAWABADAK UTARA, KEC. KOJA, JKT UTARA, DAERAH KHUSUS IBUKOTA JAKARTA","ID_PROV":"31","PROVINSI":"DKI JAKARTA","ID_KABKOT":"31.72","KABKOT":"KOTA ADM. JAKARTA UTARA","ID_KEC":"31.72.03","KECAMATAN":"KOJA","ID_DESA":"31.72.03.1004","DESA":"RAWA BADAK UTARA","LONGITUDE":106.89371,"LATITUDE":-6.12846,"STATUS":"BUKA","TANGGAL PENGUMPULAN":"Q2 2024","TANGGAL UPDATE":"27/07/2025"}},{"type":"Feature","geometry":{"coordinates":[106.8940699,-6.1291402],"type":"Point"},"properties":{"fid":1063,"NAMA":"PLUMPANG PERTAMINA 2","TIPE_1":"TRANSPORTASI","TIPE_2":"HALTE","TIPE_3":"-","TELEPON":"","ALAMAT":"RAWABADAK UTARA, KEC. KOJA, JKT UTARA, DAERAH KHUSUS IBUKOTA JAKARTA","ID_PROV":"31","PROVINSI":"DKI JAKARTA","ID_KABKOT":"31.72","KABKOT":"KOTA ADM. JAKARTA UTARA","ID_KEC":"31.72.03","KECAMATAN":"KOJA","ID_DESA":"31.72.03.1004","DESA":"RAWA BADAK UTARA","LONGITUDE":106.8940699,"LATITUDE":-6.1291402,"STATUS":"BUKA","TANGGAL PENGUMPULAN":"Q2 2024","TANGGAL UPDATE":"27/07/2025"}},{"type":"Feature","geometry":{"coordinates":[106.89385,-6.13117],"type":"Point"},"properties":{"fid":1064,"NAMA":"PLUMPANG RAYA 1","TIPE_1":"TRANSPORTASI","TIPE_2":"HALTE","TIPE_3":"-","TELEPON":"","ALAMAT":"RAWABADAK SEL., KEC. KOJA, JKT UTARA, DAERAH KHUSUS IBUKOTA JAKARTA","ID_PROV":"31","PROVINSI":"DKI JAKARTA","ID_KABKOT":"31.72","KABKOT":"KOTA ADM. JAKARTA UTARA","ID_KEC":"31.72.03","KECAMATAN":"KOJA","ID_DESA":"31.72.03.1006","DESA":"RAWA BADAK SELATAN","LONGITUDE":106.89385,"LATITUDE":-6.13117,"STATUS":"BUKA","TANGGAL PENGUMPULAN":"Q2 2024","TANGGAL UPDATE":"27/07/2025"}},{"type":"Feature","geometry":{"coordinates":[106.8934477,-6.1163076],"type":"Point"},"properties":{"fid":1065,"NAMA":"POLRES JAKARTA UTARA","TIPE_1":"TRANSPORTASI","TIPE_2":"HALTE","TIPE_3":"-","TELEPON":"","ALAMAT":"RAWABADAK UTARA, KEC. KOJA, JKT UTARA, DAERAH KHUSUS IBUKOTA JAKARTA","ID_PROV":"31","PROVINSI":"DKI JAKARTA","ID_KABKOT":"31.72","KABKOT":"KOTA ADM. JAKARTA UTARA","ID_KEC":"31.72.03","KECAMATAN":"KOJA","ID_DESA":"31.72.03.1004","DESA":"RAWA BADAK UTARA","LONGITUDE":106.8934477,"LATITUDE":-6.1163076,"STATUS":"BUKA","TANGGAL PENGUMPULAN":"Q2 2024","TANGGAL UPDATE":"27/07/2025"}},{"type":"Feature","geometry":{"coordinates":[106.8310371,-6.1316327],"type":"Point"},"properties":{"fid":1066,"NAMA":"POMPA VIADUCT ANCOL","TIPE_1":"TRANSPORTASI","TIPE_2":"HALTE","TIPE_3":"-","TELEPON":"","ALAMAT":"PADEMANGAN BAR., KEC. PADEMANGAN, JKT UTARA, DAERAH KHUSUS IBUKOTA JAKARTA","ID_PROV":"31","PROVINSI":"DKI JAKARTA","ID_KABKOT":"31.72","KABKOT":"KOTA ADM. JAKARTA UTARA","ID_KEC":"31.72.05","KECAMATAN":"PADEMANGAN","ID_DESA":"31.72.05.1002","DESA":"PADEMANGAN BARAT","LONGITUDE":106.8310371,"LATITUDE":-6.1316327,"STATUS":"BUKA","TANGGAL PENGUMPULAN":"Q2 2024","TANGGAL UPDATE":"27/07/2025"}},{"type":"Feature","geometry":{"coordinates":[106.8925635,-6.1745411],"type":"Point"},"properties":{"fid":1073,"NAMA":"PULOMAS","TIPE_1":"TRANSPORTASI","TIPE_2":"HALTE","TIPE_3":"-","TELEPON":"","ALAMAT":"JL. PERINTIS KEMERDEKAAN, KLP. GADING BAR., KEC. KLP. GADING, JKT UTARA, DAERAH KHUSUS IBUKOTA JAKARTA","ID_PROV":"31","PROVINSI":"DKI JAKARTA","ID_KABKOT":"31.72","KABKOT":"KOTA ADM. JAKARTA UTARA","ID_KEC":"31.72.06","KECAMATAN":"KELAPA GADING","ID_DESA":"31.72.06.1003","DESA":"KELAPA GADING BARAT","LONGITUDE":106.8925635,"LATITUDE":-6.1745411,"STATUS":"BUKA","TANGGAL PENGUMPULAN":"Q2 2024","TANGGAL UPDATE":"27/07/2025"}},{"type":"Feature","geometry":{"coordinates":[106.73896,-6.12345],"type":"Point"},"properties":{"fid":1082,"NAMA":"RS GRAND FAMILY","TIPE_1":"TRANSPORTASI","TIPE_2":"HALTE","TIPE_3":"-","TELEPON":"","ALAMAT":"KAMAL MUARA, KEC. PENJARINGAN, JKT UTARA, DAERAH KHUSUS IBUKOTA JAKARTA","ID_PROV":"31","PROVINSI":"DKI JAKARTA","ID_KABKOT":"31.72","KABKOT":"KOTA ADM. JAKARTA UTARA","ID_KEC":"31.72.01","KECAMATAN":"PENJARINGAN","ID_DESA":"31.72.01.1002","DESA":"KAMAL MUARA","LONGITUDE":106.73896,"LATITUDE":-6.12345,"STATUS":"BUKA","TANGGAL PENGUMPULAN":"Q2 2024","TANGGAL UPDATE":"27/07/2025"}},{"type":"Feature","geometry":{"coordinates":[106.906348,-6.129435],"type":"Point"},"properties":{"fid":1083,"NAMA":"RS MULYASARI","TIPE_1":"TRANSPORTASI","TIPE_2":"HALTE","TIPE_3":"-","TELEPON":"","ALAMAT":"JL. PLUMPANG SEMPER, RT.8/RW.1, TUGU SEL., KEC. KOJA, JKT UTARA, DAERAH KHUSUS IBUKOTA JAKARTA 14260","ID_PROV":"31","PROVINSI":"DKI JAKARTA","ID_KABKOT":"31.72","KABKOT":"KOTA ADM. JAKARTA UTARA","ID_KEC":"31.72.03","KECAMATAN":"KOJA","ID_DESA":"31.72.03.1002","DESA":"TUGU UTARA","LONGITUDE":106.906348,"LATITUDE":-6.129435,"STATUS":"BUKA","TANGGAL PENGUMPULAN":"Q2 2024","TANGGAL UPDATE":"27/07/2025"}},{"type":"Feature","geometry":{"coordinates":[106.74356,-6.11264],"type":"Point"},"properties":{"fid":1086,"NAMA":"RUKO CORDOBA 2","TIPE_1":"TRANSPORTASI","TIPE_2":"HALTE","TIPE_3":"-","TELEPON":"","ALAMAT":"KAMAL MUARA, KEC. PENJARINGAN, JKT UTARA, DAERAH KHUSUS IBUKOTA JAKARTA","ID_PROV":"31","PROVINSI":"DKI JAKARTA","ID_KABKOT":"31.72","KABKOT":"KOTA ADM. JAKARTA UTARA","ID_KEC":"31.72.01","KECAMATAN":"PENJARINGAN","ID_DESA":"31.72.01.1002","DESA":"KAMAL MUARA","LONGITUDE":106.74356,"LATITUDE":-6.11264,"STATUS":"BUKA","TANGGAL PENGUMPULAN":"Q2 2024","TANGGAL UPDATE":"27/07/2025"}},{"type":"Feature","geometry":{"coordinates":[106.82349,-6.13185],"type":"Point"},"properties":{"fid":1087,"NAMA":"RUKO GRAND ANCOL","TIPE_1":"TRANSPORTASI","TIPE_2":"HALTE","TIPE_3":"-","TELEPON":"","ALAMAT":"ANCOL, KEC. PADEMANGAN, JKT UTARA, DAERAH KHUSUS IBUKOTA JAKARTA","ID_PROV":"31","PROVINSI":"DKI JAKARTA","ID_KABKOT":"31.72","KABKOT":"KOTA ADM. JAKARTA UTARA","ID_KEC":"31.72.05","KECAMATAN":"PADEMANGAN","ID_DESA":"31.72.05.1003","DESA":"ANCOL","LONGITUDE":106.82349,"LATITUDE":-6.13185,"STATUS":"BUKA","TANGGAL PENGUMPULAN":"Q2 2024","TANGGAL UPDATE":"27/07/2025"}},{"type":"Feature","geometry":{"coordinates":[106.96218,-6.09826],"type":"Point"},"properties":{"fid":1088,"NAMA":"RUSUN MARUNDA 2","TIPE_1":"TRANSPORTASI","TIPE_2":"HALTE","TIPE_3":"-","TELEPON":"","ALAMAT":"MARUNDA, KEC. CILINCING, JKT UTARA, DAERAH KHUSUS IBUKOTA JAKARTA","ID_PROV":"31","PROVINSI":"DKI JAKARTA","ID_KABKOT":"31.72","KABKOT":"KOTA ADM. JAKARTA UTARA","ID_KEC":"31.72.04","KECAMATAN":"CILINCING","ID_DESA":"31.72.04.1003","DESA":"MARUNDA","LONGITUDE":106.96218,"LATITUDE":-6.09826,"STATUS":"BUKA","TANGGAL PENGUMPULAN":"Q2 2024","TANGGAL UPDATE":"27/07/2025"}},{"type":"Feature","geometry":{"coordinates":[106.85763,-6.12629],"type":"Point"},"properties":{"fid":1093,"NAMA":"SBR. TAMAN BMW","TIPE_1":"TRANSPORTASI","TIPE_2":"HALTE","TIPE_3":"-","TELEPON":"","ALAMAT":"SUNTER AGUNG, KEC. TJ. PRIOK, JKT UTARA, DAERAH KHUSUS IBUKOTA JAKARTA","ID_PROV":"31","PROVINSI":"DKI JAKARTA","ID_KABKOT":"31.72","KABKOT":"KOTA ADM. JAKARTA UTARA","ID_KEC":"31.72.02","KECAMATAN":"TANJUNG PRIOK","ID_DESA":"31.72.02.1006","DESA":"SUNTER AGUNG","LONGITUDE":106.85763,"LATITUDE":-6.12629,"STATUS":"BUKA","TANGGAL PENGUMPULAN":"Q2 2024","TANGGAL UPDATE":"27/07/2025"}},{"type":"Feature","geometry":{"coordinates":[106.78905,-6.11235],"type":"Point"},"properties":{"fid":1094,"NAMA":"SD DIAKONIA 2","TIPE_1":"TRANSPORTASI","TIPE_2":"HALTE","TIPE_3":"-","TELEPON":"","ALAMAT":"PLUIT, KEC. PENJARINGAN, JKT UTARA, DAERAH KHUSUS IBUKOTA JAKARTA","ID_PROV":"31","PROVINSI":"DKI JAKARTA","ID_KABKOT":"31.72","KABKOT":"KOTA ADM. JAKARTA UTARA","ID_KEC":"31.72.01","KECAMATAN":"PENJARINGAN","ID_DESA":"31.72.01.1005","DESA":"PLUIT","LONGITUDE":106.78905,"LATITUDE":-6.11235,"STATUS":"BUKA","TANGGAL PENGUMPULAN":"Q2 2024","TANGGAL UPDATE":"27/07/2025"}},{"type":"Feature","geometry":{"coordinates":[106.91781,-6.12928],"type":"Point"},"properties":{"fid":1097,"NAMA":"SEMPER","TIPE_1":"TRANSPORTASI","TIPE_2":"HALTE","TIPE_3":"-","TELEPON":"","ALAMAT":"TUGU SEL., KEC. KOJA, JKT UTARA, DAERAH KHUSUS IBUKOTA JAKARTA","ID_PROV":"31","PROVINSI":"DKI JAKARTA","ID_KABKOT":"31.72","KABKOT":"KOTA ADM. JAKARTA UTARA","ID_KEC":"31.72.03","KECAMATAN":"KOJA","ID_DESA":"31.72.03.1005","DESA":"TUGU SELATAN","LONGITUDE":106.91781,"LATITUDE":-6.12928,"STATUS":"BUKA","TANGGAL PENGUMPULAN":"Q2 2024","TANGGAL UPDATE":"27/07/2025"}},{"type":"Feature","geometry":{"coordinates":[106.916706,-6.1245253],"type":"Point"},"properties":{"fid":1104,"NAMA":"SHELTER HALTE RS. PELABUHAN","TIPE_1":"TRANSPORTASI","TIPE_2":"HALTE","TIPE_3":"-","TELEPON":"","ALAMAT":"JL. KRAMAT JAYA RAYA NO.20 5, RT.2/RW.14, TUGU UTARA, KEC. KOJA, JKT UTARA, DAERAH KHUSUS IBUKOTA JAKARTA 14260","ID_PROV":"31","PROVINSI":"DKI JAKARTA","ID_KABKOT":"31.72","KABKOT":"KOTA ADM. JAKARTA UTARA","ID_KEC":"31.72.03","KECAMATAN":"KOJA","ID_DESA":"31.72.03.1002","DESA":"TUGU UTARA","LONGITUDE":106.916706,"LATITUDE":-6.1245253,"STATUS":"BUKA","TANGGAL PENGUMPULAN":"Q2 2024","TANGGAL UPDATE":"27/07/2025"}},{"type":"Feature","geometry":{"coordinates":[106.91754,-6.10834],"type":"Point"},"properties":{"fid":1108,"NAMA":"SIMPANG JL. KRAMAT JAYA RAYA","TIPE_1":"TRANSPORTASI","TIPE_2":"HALTE","TIPE_3":"-","TELEPON":"","ALAMAT":"SEMPER BAR., KEC. CILINCING, JKT UTARA, DAERAH KHUSUS IBUKOTA JAKARTA","ID_PROV":"31","PROVINSI":"DKI JAKARTA","ID_KABKOT":"31.72","KABKOT":"KOTA ADM. JAKARTA UTARA","ID_KEC":"31.72.04","KECAMATAN":"CILINCING","ID_DESA":"31.72.04.1007","DESA":"SEMPER BARAT","LONGITUDE":106.91754,"LATITUDE":-6.10834,"STATUS":"BUKA","TANGGAL PENGUMPULAN":"Q2 2024","TANGGAL UPDATE":"27/07/2025"}},{"type":"Feature","geometry":{"coordinates":[106.7456318,-6.1242853],"type":"Point"},"properties":{"fid":1114,"NAMA":"SIT I-II PIK","TIPE_1":"TRANSPORTASI","TIPE_2":"HALTE","TIPE_3":"-","TELEPON":"","ALAMAT":"KAMAL MUARA, KEC. PENJARINGAN, JKT UTARA, DAERAH KHUSUS IBUKOTA JAKARTA","ID_PROV":"31","PROVINSI":"DKI JAKARTA","ID_KABKOT":"31.72","KABKOT":"KOTA ADM. JAKARTA UTARA","ID_KEC":"31.72.01","KECAMATAN":"PENJARINGAN","ID_DESA":"31.72.01.1002","DESA":"KAMAL MUARA","LONGITUDE":106.7456318,"LATITUDE":-6.1242853,"STATUS":"BUKA","TANGGAL PENGUMPULAN":"Q2 2024","TANGGAL UPDATE":"27/07/2025"}},{"type":"Feature","geometry":{"coordinates":[106.77495,-6.11568],"type":"Point"},"properties":{"fid":1117,"NAMA":"SMAK PENABUR ENAM 2","TIPE_1":"TRANSPORTASI","TIPE_2":"HALTE","TIPE_3":"-","TELEPON":"","ALAMAT":"PLUIT, KEC. PENJARINGAN, JKT UTARA, DAERAH KHUSUS IBUKOTA JAKARTA","ID_PROV":"31","PROVINSI":"DKI JAKARTA","ID_KABKOT":"31.72","KABKOT":"KOTA ADM. JAKARTA UTARA","ID_KEC":"31.72.01","KECAMATAN":"PENJARINGAN","ID_DESA":"31.72.01.1005","DESA":"PLUIT","LONGITUDE":106.77495,"LATITUDE":-6.11568,"STATUS":"BUKA","TANGGAL PENGUMPULAN":"Q2 2024","TANGGAL UPDATE":"27/07/2025"}},{"type":"Feature","geometry":{"coordinates":[106.84511,-6.12792],"type":"Point"},"properties":{"fid":1119,"NAMA":"ST. ANCOL","TIPE_1":"TRANSPORTASI","TIPE_2":"HALTE","TIPE_3":"-","TELEPON":"","ALAMAT":"PADEMANGAN BAR., KEC. PADEMANGAN, JKT UTARA, DAERAH KHUSUS IBUKOTA JAKARTA","ID_PROV":"31","PROVINSI":"DKI JAKARTA","ID_KABKOT":"31.72","KABKOT":"KOTA ADM. JAKARTA UTARA","ID_KEC":"31.72.05","KECAMATAN":"PADEMANGAN","ID_DESA":"31.72.05.1001","DESA":"PADEMANGAN TIMUR","LONGITUDE":106.84511,"LATITUDE":-6.12792,"STATUS":"BUKA","TANGGAL PENGUMPULAN":"Q2 2024","TANGGAL UPDATE":"27/07/2025"}},{"type":"Feature","geometry":{"coordinates":[106.8449355,-6.1280119],"type":"Point"},"properties":{"fid":1122,"NAMA":"STASIUN ANCOL","TIPE_1":"TRANSPORTASI","TIPE_2":"HALTE","TIPE_3":"-","TELEPON":"","ALAMAT":"PADEMANGAN BAR., KEC. PADEMANGAN, JKT UTARA, DAERAH KHUSUS IBUKOTA JAKARTA","ID_PROV":"31","PROVINSI":"DKI JAKARTA","ID_KABKOT":"31.72","KABKOT":"KOTA ADM. JAKARTA UTARA","ID_KEC":"31.72.05","KECAMATAN":"PADEMANGAN","ID_DESA":"31.72.05.1001","DESA":"PADEMANGAN TIMUR","LONGITUDE":106.8449355,"LATITUDE":-6.1280119,"STATUS":"BUKA","TANGGAL PENGUMPULAN":"Q2 2024","TANGGAL UPDATE":"27/07/2025"}},{"type":"Feature","geometry":{"coordinates":[106.888578,-6.1495659],"type":"Point"},"properties":{"fid":1129,"NAMA":"SUNTER BOULEVARD BARAT","TIPE_1":"TRANSPORTASI","TIPE_2":"HALTE","TIPE_3":"-","TELEPON":"","ALAMAT":"RT.10/RW.11, SUNTER JAYA, TANJUNG PRIOK, JKT UTARA, 14360","ID_PROV":"31","PROVINSI":"DKI JAKARTA","ID_KABKOT":"31.72","KABKOT":"KOTA ADM. JAKARTA UTARA","ID_KEC":"31.72.02","KECAMATAN":"TANJUNG PRIOK","ID_DESA":"31.72.02.1002","DESA":"SUNTER JAYA","LONGITUDE":106.888578,"LATITUDE":-6.1495659,"STATUS":"BUKA","TANGGAL PENGUMPULAN":"Q2 2024","TANGGAL UPDATE":"27/07/2025"}},{"type":"Feature","geometry":{"coordinates":[106.88865,-6.14951],"type":"Point"},"properties":{"fid":1130,"NAMA":"SUNTER BOULEVARD BARAT 1","TIPE_1":"TRANSPORTASI","TIPE_2":"HALTE","TIPE_3":"-","TELEPON":"","ALAMAT":"SUNTER JAYA, KEC. TJ. PRIOK, JKT UTARA, DAERAH KHUSUS IBUKOTA JAKARTA","ID_PROV":"31","PROVINSI":"DKI JAKARTA","ID_KABKOT":"31.72","KABKOT":"KOTA ADM. JAKARTA UTARA","ID_KEC":"31.72.02","KECAMATAN":"TANJUNG PRIOK","ID_DESA":"31.72.02.1002","DESA":"SUNTER JAYA","LONGITUDE":106.88865,"LATITUDE":-6.14951,"STATUS":"BUKA","TANGGAL PENGUMPULAN":"Q2 2024","TANGGAL UPDATE":"27/07/2025"}},{"type":"Feature","geometry":{"coordinates":[106.8708141,-6.1376119],"type":"Point"},"properties":{"fid":1131,"NAMA":"SUNTER KARYA","TIPE_1":"TRANSPORTASI","TIPE_2":"HALTE","TIPE_3":"-","TELEPON":"","ALAMAT":"JALAN DANAU SUNTER UTARA, RT.8/RW.15, SUNTER AGUNG, TANJUNG PRIOK, JKT UTARA, 14350","ID_PROV":"31","PROVINSI":"DKI JAKARTA","ID_KABKOT":"31.72","KABKOT":"KOTA ADM. JAKARTA UTARA","ID_KEC":"31.72.02","KECAMATAN":"TANJUNG PRIOK","ID_DESA":"31.72.02.1006","DESA":"SUNTER AGUNG","LONGITUDE":106.8708141,"LATITUDE":-6.1376119,"STATUS":"BUKA","TANGGAL PENGUMPULAN":"Q2 2024","TANGGAL UPDATE":"27/07/2025"}},{"type":"Feature","geometry":{"coordinates":[106.8910203,-6.1431559],"type":"Point"},"properties":{"fid":1132,"NAMA":"SUNTER KELAPA GADING","TIPE_1":"TRANSPORTASI","TIPE_2":"HALTE","TIPE_3":"-","TELEPON":"","ALAMAT":"RT.10/RW.11, SUNTER JAYA, KEC. TJ. PRIOK, JKT UTARA, DAERAH KHUSUS IBUKOTA JAKARTA 14240","ID_PROV":"31","PROVINSI":"DKI JAKARTA","ID_KABKOT":"31.72","KABKOT":"KOTA ADM. JAKARTA UTARA","ID_KEC":"31.72.06","KECAMATAN":"KELAPA GADING","ID_DESA":"31.72.06.1003","DESA":"KELAPA GADING BARAT","LONGITUDE":106.8910203,"LATITUDE":-6.1431559,"STATUS":"BUKA","TANGGAL PENGUMPULAN":"Q2 2024","TANGGAL UPDATE":"27/07/2025"}},{"type":"Feature","geometry":{"coordinates":[106.8906408,-6.1427947],"type":"Point"},"properties":{"fid":1133,"NAMA":"SUNTER KELAPA GADING 1","TIPE_1":"TRANSPORTASI","TIPE_2":"HALTE","TIPE_3":"-","TELEPON":"","ALAMAT":"JL. GRIYA UTAMA, BLOK A NO 40-41, 14350","ID_PROV":"31","PROVINSI":"DKI JAKARTA","ID_KABKOT":"31.72","KABKOT":"KOTA ADM. JAKARTA UTARA","ID_KEC":"31.72.02","KECAMATAN":"TANJUNG PRIOK","ID_DESA":"31.72.02.1002","DESA":"SUNTER JAYA","LONGITUDE":106.8906408,"LATITUDE":-6.1427947,"STATUS":"BUKA","TANGGAL PENGUMPULAN":"Q2 2024","TANGGAL UPDATE":"27/07/2025"}},{"type":"Feature","geometry":{"coordinates":[106.89102,-6.14316],"type":"Point"},"properties":{"fid":1134,"NAMA":"SUNTER KELAPA GADING 2","TIPE_1":"TRANSPORTASI","TIPE_2":"HALTE","TIPE_3":"-","TELEPON":"","ALAMAT":"RT.10/RW.11, KLP. GADING BAR., KEC. KLP. GADING, JKT UTARA, DAERAH KHUSUS IBUKOTA JAKARTA 14240","ID_PROV":"31","PROVINSI":"DKI JAKARTA","ID_KABKOT":"31.72","KABKOT":"KOTA ADM. JAKARTA UTARA","ID_KEC":"31.72.06","KECAMATAN":"KELAPA GADING","ID_DESA":"31.72.06.1003","DESA":"KELAPA GADING BARAT","LONGITUDE":106.89102,"LATITUDE":-6.14316,"STATUS":"BUKA","TANGGAL PENGUMPULAN":"Q2 2024","TANGGAL UPDATE":"27/07/2025"}},{"type":"Feature","geometry":{"coordinates":[106.8592,-6.13978],"type":"Point"},"properties":{"fid":1135,"NAMA":"SUNTER UTARA","TIPE_1":"TRANSPORTASI","TIPE_2":"HALTE","TIPE_3":"-","TELEPON":"","ALAMAT":"JL. DANAU, SUNTER AGUNG, KEC. TJ. PRIOK, JKT UTARA, DAERAH KHUSUS IBUKOTA JAKARTA","ID_PROV":"31","PROVINSI":"DKI JAKARTA","ID_KABKOT":"31.72","KABKOT":"KOTA ADM. JAKARTA UTARA","ID_KEC":"31.72.02","KECAMATAN":"TANJUNG PRIOK","ID_DESA":"31.72.02.1006","DESA":"SUNTER AGUNG","LONGITUDE":106.8592,"LATITUDE":-6.13978,"STATUS":"BUKA","TANGGAL PENGUMPULAN":"Q2 2024","TANGGAL UPDATE":"27/07/2025"}},{"type":"Feature","geometry":{"coordinates":[106.89399,-6.12792],"type":"Point"},"properties":{"fid":1138,"NAMA":"TAMAN KOTA PLUMPANG","TIPE_1":"TRANSPORTASI","TIPE_2":"HALTE","TIPE_3":"-","TELEPON":"","ALAMAT":"RAWABADAK UTARA, KEC. KOJA, JKT UTARA, DAERAH KHUSUS IBUKOTA JAKARTA","ID_PROV":"31","PROVINSI":"DKI JAKARTA","ID_KABKOT":"31.72","KABKOT":"KOTA ADM. JAKARTA UTARA","ID_KEC":"31.72.03","KECAMATAN":"KOJA","ID_DESA":"31.72.03.1004","DESA":"RAWA BADAK UTARA","LONGITUDE":106.89399,"LATITUDE":-6.12792,"STATUS":"BUKA","TANGGAL PENGUMPULAN":"Q2 2024","TANGGAL UPDATE":"27/07/2025"}},{"type":"Feature","geometry":{"coordinates":[106.79264,-6.13045],"type":"Point"},"properties":{"fid":1142,"NAMA":"TANAH PASIR","TIPE_1":"TRANSPORTASI","TIPE_2":"HALTE","TIPE_3":"-","TELEPON":"","ALAMAT":"PENJARINGAN, KEC. PENJARINGAN, JKT UTARA, DAERAH KHUSUS IBUKOTA JAKARTA","ID_PROV":"31","PROVINSI":"DKI JAKARTA","ID_KABKOT":"31.72","KABKOT":"KOTA ADM. JAKARTA UTARA","ID_KEC":"31.72.01","KECAMATAN":"PENJARINGAN","ID_DESA":"31.72.01.1001","DESA":"PENJARINGAN","LONGITUDE":106.79264,"LATITUDE":-6.13045,"STATUS":"BUKA","TANGGAL PENGUMPULAN":"Q2 2024","TANGGAL UPDATE":"27/07/2025"}},{"type":"Feature","geometry":{"coordinates":[106.88214,-6.10959],"type":"Point"},"properties":{"fid":1144,"NAMA":"TANJUNG PRIOK","TIPE_1":"TRANSPORTASI","TIPE_2":"HALTE","TIPE_3":"-","TELEPON":"","ALAMAT":"TJ. PRIOK, KEC. TJ. PRIOK, JKT UTARA, DAERAH KHUSUS IBUKOTA JAKARTA","ID_PROV":"31","PROVINSI":"DKI JAKARTA","ID_KABKOT":"31.72","KABKOT":"KOTA ADM. JAKARTA UTARA","ID_KEC":"31.72.02","KECAMATAN":"TANJUNG PRIOK","ID_DESA":"31.72.02.1001","DESA":"TANJUNG PRIOK","LONGITUDE":106.88214,"LATITUDE":-6.10959,"STATUS":"BUKA","TANGGAL PENGUMPULAN":"Q2 2024","TANGGAL UPDATE":"27/07/2025"}},{"type":"Feature","geometry":{"coordinates":[106.74292,-6.09477],"type":"Point"},"properties":{"fid":1154,"NAMA":"THE PIANO","TIPE_1":"TRANSPORTASI","TIPE_2":"HALTE","TIPE_3":"-","TELEPON":"","ALAMAT":"","ID_PROV":"31","PROVINSI":"DKI JAKARTA","ID_KABKOT":"31.72","KABKOT":"KOTA ADM. JAKARTA UTARA","ID_KEC":"31.72.01","KECAMATAN":"PENJARINGAN","ID_DESA":"31.72.01.1002","DESA":"KAMAL MUARA","LONGITUDE":106.74292,"LATITUDE":-6.09477,"STATUS":"BUKA","TANGGAL PENGUMPULAN":"Q2 2024","TANGGAL UPDATE":"27/07/2025"}},{"type":"Feature","geometry":{"coordinates":[106.74942,-6.0933],"type":"Point"},"properties":{"fid":1155,"NAMA":"THE VIOLIN","TIPE_1":"TRANSPORTASI","TIPE_2":"HALTE","TIPE_3":"-","TELEPON":"","ALAMAT":"","ID_PROV":"31","PROVINSI":"DKI JAKARTA","ID_KABKOT":"31.72","KABKOT":"KOTA ADM. JAKARTA UTARA","ID_KEC":"31.72.01","KECAMATAN":"PENJARINGAN","ID_DESA":"31.72.01.1002","DESA":"KAMAL MUARA","LONGITUDE":106.74942,"LATITUDE":-6.0933,"STATUS":"BUKA","TANGGAL PENGUMPULAN":"Q2 2024","TANGGAL UPDATE":"27/07/2025"}},{"type":"Feature","geometry":{"coordinates":[106.71828,-6.09576],"type":"Point"},"properties":{"fid":1160,"NAMA":"TUGU INTI PERSADA NUSANTARA 2","TIPE_1":"TRANSPORTASI","TIPE_2":"HALTE","TIPE_3":"-","TELEPON":"","ALAMAT":"KAMAL MUARA, KEC. PENJARINGAN, JKT UTARA, DAERAH KHUSUS IBUKOTA JAKARTA","ID_PROV":"31","PROVINSI":"DKI JAKARTA","ID_KABKOT":"31.72","KABKOT":"KOTA ADM. JAKARTA UTARA","ID_KEC":"31.72.01","KECAMATAN":"PENJARINGAN","ID_DESA":"31.72.01.1002","DESA":"KAMAL MUARA","LONGITUDE":106.71828,"LATITUDE":-6.09576,"STATUS":"BUKA","TANGGAL PENGUMPULAN":"Q2 2024","TANGGAL UPDATE":"27/07/2025"}},{"type":"Feature","geometry":{"coordinates":[106.81751,-6.13084],"type":"Point"},"properties":{"fid":1161,"NAMA":"UBM","TIPE_1":"TRANSPORTASI","TIPE_2":"HALTE","TIPE_3":"-","TELEPON":"","ALAMAT":"ANCOL, KEC. PADEMANGAN, JKT UTARA, DAERAH KHUSUS IBUKOTA JAKARTA","ID_PROV":"31","PROVINSI":"DKI JAKARTA","ID_KABKOT":"31.72","KABKOT":"KOTA ADM. JAKARTA UTARA","ID_KEC":"31.72.05","KECAMATAN":"PADEMANGAN","ID_DESA":"31.72.05.1003","DESA":"ANCOL","LONGITUDE":106.81751,"LATITUDE":-6.13084,"STATUS":"BUKA","TANGGAL PENGUMPULAN":"Q2 2024","TANGGAL UPDATE":"27/07/2025"}},{"type":"Feature","geometry":{"coordinates":[106.89312,-6.11883],"type":"Point"},"properties":{"fid":1165,"NAMA":"WALIKOTA JAKARTA UTARA","TIPE_1":"TRANSPORTASI","TIPE_2":"HALTE","TIPE_3":"-","TELEPON":"","ALAMAT":"KB. BAWANG, KEC. TJ. PRIOK, JKT UTARA, DAERAH KHUSUS IBUKOTA JAKARTA","ID_PROV":"31","PROVINSI":"DKI JAKARTA","ID_KABKOT":"31.72","KABKOT":"KOTA ADM. JAKARTA UTARA","ID_KEC":"31.72.02","KECAMATAN":"TANJUNG PRIOK","ID_DESA":"31.72.02.1005","DESA":"KEBON BAWANG","LONGITUDE":106.89312,"LATITUDE":-6.11883,"STATUS":"BUKA","TANGGAL PENGUMPULAN":"Q2 2024","TANGGAL UPDATE":"27/07/2025"}},{"type":"Feature","geometry":{"coordinates":[106.89347,-6.11884],"type":"Point"},"properties":{"fid":1166,"NAMA":"WALIKOTA JAKARTA UTARA ARAH SELATAN","TIPE_1":"TRANSPORTASI","TIPE_2":"HALTE","TIPE_3":"-","TELEPON":"","ALAMAT":"RAWABADAK UTARA, KEC. KOJA, JKT UTARA, DAERAH KHUSUS IBUKOTA JAKARTA","ID_PROV":"31","PROVINSI":"DKI JAKARTA","ID_KABKOT":"31.72","KABKOT":"KOTA ADM. JAKARTA UTARA","ID_KEC":"31.72.03","KECAMATAN":"KOJA","ID_DESA":"31.72.03.1004","DESA":"RAWA BADAK UTARA","LONGITUDE":106.89347,"LATITUDE":-6.11884,"STATUS":"BUKA","TANGGAL PENGUMPULAN":"Q2 2024","TANGGAL UPDATE":"27/07/2025"}},{"type":"Feature","geometry":{"coordinates":[106.8308769,-6.1347872],"type":"Point"},"properties":{"fid":1167,"NAMA":"WTC MANGGA DUA","TIPE_1":"TRANSPORTASI","TIPE_2":"HALTE","TIPE_3":"-","TELEPON":"","ALAMAT":"ANCOL, KEC. PADEMANGAN, JKT UTARA, DAERAH KHUSUS IBUKOTA JAKARTA","ID_PROV":"31","PROVINSI":"DKI JAKARTA","ID_KABKOT":"31.72","KABKOT":"KOTA ADM. JAKARTA UTARA","ID_KEC":"31.72.05","KECAMATAN":"PADEMANGAN","ID_DESA":"31.72.05.1003","DESA":"ANCOL","LONGITUDE":106.8308769,"LATITUDE":-6.1347872,"STATUS":"BUKA","TANGGAL PENGUMPULAN":"Q2 2024","TANGGAL UPDATE":"27/07/2025"}}]}