{"type":"FeatureCollection","features":[{"type":"Feature","geometry":{"coordinates":[106.82255,-6.39486],"type":"Point"},"properties":{"fid":1180,"NAMA":"BALAIKOTA DEPOK 1","TIPE_1":"TRANSPORTASI","TIPE_2":"HALTE","TIPE_3":"-","TELEPON":"","ALAMAT":"DEPOK, KEC. PANCORAN MAS, KOTA DEPOK, JAWA BARAT","ID_PROV":"32","PROVINSI":"JAWA BARAT","ID_KABKOT":"32.76","KABKOT":"KOTA DEPOK","ID_KEC":"32.76.01","KECAMATAN":"PANCORAN MAS","ID_DESA":"32.76.01.1006","DESA":"DEPOK","LONGITUDE":106.82255,"LATITUDE":-6.39486,"STATUS":"BUKA","TANGGAL PENGUMPULAN":"Q2 2024","TANGGAL UPDATE":"27/07/2025"}},{"type":"Feature","geometry":{"coordinates":[106.7961932,-6.4269747],"type":"Point"},"properties":{"fid":1204,"NAMA":"CIPAYUNG DEPOK","TIPE_1":"TRANSPORTASI","TIPE_2":"HALTE","TIPE_3":"-","TELEPON":"","ALAMAT":"HALTE, CIPAYUNG JAYA, KEC. CIPAYUNG, KOTA DEPOK, JAWA BARAT","ID_PROV":"32","PROVINSI":"JAWA BARAT","ID_KABKOT":"32.76","KABKOT":"KOTA DEPOK","ID_KEC":"32.76.07","KECAMATAN":"CIPAYUNG","ID_DESA":"32.76.07.1001","DESA":"CIPAYUNG","LONGITUDE":106.7961932,"LATITUDE":-6.4269747,"STATUS":"BUKA","TANGGAL PENGUMPULAN":"Q2 2024","TANGGAL UPDATE":"27/07/2025"}},{"type":"Feature","geometry":{"coordinates":[106.8243116,-6.3929641],"type":"Point"},"properties":{"fid":1248,"NAMA":"HALTE BANK BJB","TIPE_1":"TRANSPORTASI","TIPE_2":"HALTE","TIPE_3":"-","TELEPON":"","ALAMAT":"JL. MARGONDA NO.37-39, DEPOK, KEC. PANCORAN MAS, KOTA DEPOK, JAWA BARAT 16431","ID_PROV":"32","PROVINSI":"JAWA BARAT","ID_KABKOT":"32.76","KABKOT":"KOTA DEPOK","ID_KEC":"32.76.01","KECAMATAN":"PANCORAN MAS","ID_DESA":"32.76.01.1006","DESA":"DEPOK","LONGITUDE":106.8243116,"LATITUDE":-6.3929641,"STATUS":"BUKA","TANGGAL PENGUMPULAN":"Q2 2024","TANGGAL UPDATE":"27/07/2025"}},{"type":"Feature","geometry":{"coordinates":[106.794827,-6.336614],"type":"Point"},"properties":{"fid":1251,"NAMA":"HALTE BIKE RIDE RESORT GANDUL","TIPE_1":"TRANSPORTASI","TIPE_2":"HALTE","TIPE_3":"-","TELEPON":"","ALAMAT":"GANDUL, KEC. CINERE, KOTA DEPOK, JAWA BARAT 16514","ID_PROV":"32","PROVINSI":"JAWA BARAT","ID_KABKOT":"32.76","KABKOT":"KOTA DEPOK","ID_KEC":"32.76.09","KECAMATAN":"CINERE","ID_DESA":"32.76.09.1002","DESA":"GANDUL","LONGITUDE":106.794827,"LATITUDE":-6.336614,"STATUS":"BUKA","TANGGAL PENGUMPULAN":"Q2 2024","TANGGAL UPDATE":"27/07/2025"}},{"type":"Feature","geometry":{"coordinates":[106.828065,-6.4197981],"type":"Point"},"properties":{"fid":1296,"NAMA":"HALTE BUS TRANSJABODETABEK","TIPE_1":"TRANSPORTASI","TIPE_2":"HALTE","TIPE_3":"-","TELEPON":"","ALAMAT":"JL. BOULEVARD GRAND DEPOK CITY ANGGREK NO.56, TIRTAJAYA, KEC. SUKMAJAYA, KOTA DEPOK, JAWA BARAT 16412","ID_PROV":"32","PROVINSI":"JAWA BARAT","ID_KABKOT":"32.76","KABKOT":"KOTA DEPOK","ID_KEC":"32.76.05","KECAMATAN":"SUKMAJAYA","ID_DESA":"32.76.05.1010","DESA":"TIRTAJAYA","LONGITUDE":106.828065,"LATITUDE":-6.4197981,"STATUS":"BUKA","TANGGAL PENGUMPULAN":"Q2 2024","TANGGAL UPDATE":"27/07/2025"}},{"type":"Feature","geometry":{"coordinates":[106.8494161,-6.4360544],"type":"Point"},"properties":{"fid":1313,"NAMA":"HALTE CILODONG BENDUNGAN","TIPE_1":"TRANSPORTASI","TIPE_2":"HALTE","TIPE_3":"-","TELEPON":"","ALAMAT":"JL. DIVISION I KOSTARD CILODONG, CILODONG, KEC. CILODONG, KOTA DEPOK, JAWA BARAT 16414","ID_PROV":"32","PROVINSI":"JAWA BARAT","ID_KABKOT":"32.76","KABKOT":"KOTA DEPOK","ID_KEC":"32.76.08","KECAMATAN":"CILODONG","ID_DESA":"32.76.08.1002","DESA":"CILODONG","LONGITUDE":106.8494161,"LATITUDE":-6.4360544,"STATUS":"BUKA","TANGGAL PENGUMPULAN":"Q2 2024","TANGGAL UPDATE":"27/07/2025"}},{"type":"Feature","geometry":{"coordinates":[106.8594756,-6.3572068],"type":"Point"},"properties":{"fid":1314,"NAMA":"HALTE CIMANGGIS SQUARE","TIPE_1":"TRANSPORTASI","TIPE_2":"HALTE","TIPE_3":"-","TELEPON":"","ALAMAT":"RW.5, MEKARSARI, KEC. CIMANGGIS, KOTA DEPOK, JAWA BARAT 16452","ID_PROV":"32","PROVINSI":"JAWA BARAT","ID_KABKOT":"32.76","KABKOT":"KOTA DEPOK","ID_KEC":"32.76.02","KECAMATAN":"CIMANGGIS","ID_DESA":"32.76.02.1010","DESA":"MEKARSARI","LONGITUDE":106.8594756,"LATITUDE":-6.3572068,"STATUS":"BUKA","TANGGAL PENGUMPULAN":"Q2 2024","TANGGAL UPDATE":"27/07/2025"}},{"type":"Feature","geometry":{"coordinates":[106.7934733,-6.3945643],"type":"Point"},"properties":{"fid":1340,"NAMA":"HALTE DTC SAWANGAN","TIPE_1":"TRANSPORTASI","TIPE_2":"HALTE","TIPE_3":"-","TELEPON":"","ALAMAT":"JL. RAYA SAWANGAN, RANGKAPAN JAYA, KEC. SAWANGAN, KOTA DEPOK, JAWA BARAT","ID_PROV":"32","PROVINSI":"JAWA BARAT","ID_KABKOT":"32.76","KABKOT":"KOTA DEPOK","ID_KEC":"32.76.01","KECAMATAN":"PANCORAN MAS","ID_DESA":"32.76.01.1011","DESA":"RANGKAPAN JAYA","LONGITUDE":106.7934733,"LATITUDE":-6.3945643,"STATUS":"BUKA","TANGGAL PENGUMPULAN":"Q2 2024","TANGGAL UPDATE":"27/07/2025"}},{"type":"Feature","geometry":{"coordinates":[106.8322389,-6.3648822],"type":"Point"},"properties":{"fid":1344,"NAMA":"HALTE FHUI","TIPE_1":"TRANSPORTASI","TIPE_2":"HALTE","TIPE_3":"-","TELEPON":"","ALAMAT":"JL. PROF. MR DJOKOSOETONO, PONDOK CINA, KECAMATAN BEJI, KOTA DEPOK, JAWA BARAT 16424","ID_PROV":"32","PROVINSI":"JAWA BARAT","ID_KABKOT":"32.76","KABKOT":"KOTA DEPOK","ID_KEC":"32.76.06","KECAMATAN":"BEJI","ID_DESA":"32.76.06.1005","DESA":"PONDOK CINA","LONGITUDE":106.8322389,"LATITUDE":-6.3648822,"STATUS":"BUKA","TANGGAL PENGUMPULAN":"Q2 2024","TANGGAL UPDATE":"27/07/2025"}},{"type":"Feature","geometry":{"coordinates":[106.83022,-6.36192],"type":"Point"},"properties":{"fid":1345,"NAMA":"HALTE FISIP","TIPE_1":"TRANSPORTASI","TIPE_2":"HALTE","TIPE_3":"-","TELEPON":"","ALAMAT":"PONDOK CINA, KECAMATAN BEJI, KOTA DEPOK, JAWA BARAT","ID_PROV":"32","PROVINSI":"JAWA BARAT","ID_KABKOT":"32.76","KABKOT":"KOTA DEPOK","ID_KEC":"32.76.06","KECAMATAN":"BEJI","ID_DESA":"32.76.06.1005","DESA":"PONDOK CINA","LONGITUDE":106.83022,"LATITUDE":-6.36192,"STATUS":"BUKA","TANGGAL PENGUMPULAN":"Q2 2024","TANGGAL UPDATE":"27/07/2025"}},{"type":"Feature","geometry":{"coordinates":[106.8301697,-6.3618518],"type":"Point"},"properties":{"fid":1346,"NAMA":"HALTE FISIP UI (BIKUN)","TIPE_1":"TRANSPORTASI","TIPE_2":"HALTE","TIPE_3":"-","TELEPON":"(021) 7270006","ALAMAT":"JL. PROF. DR. R SLAMET IMAN SANTOSO, PONDOK CINA, KECAMATAN BEJI, KOTA DEPOK, JAWA BARAT 16424","ID_PROV":"32","PROVINSI":"JAWA BARAT","ID_KABKOT":"32.76","KABKOT":"KOTA DEPOK","ID_KEC":"32.76.06","KECAMATAN":"BEJI","ID_DESA":"32.76.06.1005","DESA":"PONDOK CINA","LONGITUDE":106.8301697,"LATITUDE":-6.3618518,"STATUS":"BUKA","TANGGAL PENGUMPULAN":"Q2 2024","TANGGAL UPDATE":"27/07/2025"}},{"type":"Feature","geometry":{"coordinates":[106.8259306,-6.3697517],"type":"Point"},"properties":{"fid":1347,"NAMA":"HALTE FMIPA 1","TIPE_1":"TRANSPORTASI","TIPE_2":"HALTE","TIPE_3":"-","TELEPON":"","ALAMAT":"JL. LINGKAR, PONDOK CINA, KECAMATAN BEJI, KOTA DEPOK, JAWA BARAT 16425","ID_PROV":"32","PROVINSI":"JAWA BARAT","ID_KABKOT":"32.76","KABKOT":"KOTA DEPOK","ID_KEC":"32.76.06","KECAMATAN":"BEJI","ID_DESA":"32.76.06.1005","DESA":"PONDOK CINA","LONGITUDE":106.8259306,"LATITUDE":-6.3697517,"STATUS":"BUKA","TANGGAL PENGUMPULAN":"Q2 2024","TANGGAL UPDATE":"27/07/2025"}},{"type":"Feature","geometry":{"coordinates":[106.82328,-6.36126],"type":"Point"},"properties":{"fid":1349,"NAMA":"HALTE FT","TIPE_1":"TRANSPORTASI","TIPE_2":"HALTE","TIPE_3":"-","TELEPON":"","ALAMAT":"KUKUSAN, KECAMATAN BEJI, KOTA DEPOK, JAWA BARAT","ID_PROV":"32","PROVINSI":"JAWA BARAT","ID_KABKOT":"32.76","KABKOT":"KOTA DEPOK","ID_KEC":"32.76.06","KECAMATAN":"BEJI","ID_DESA":"32.76.06.1002","DESA":"KUKUSAN","LONGITUDE":106.82328,"LATITUDE":-6.36126,"STATUS":"BUKA","TANGGAL PENGUMPULAN":"Q2 2024","TANGGAL UPDATE":"27/07/2025"}},{"type":"Feature","geometry":{"coordinates":[106.8038913,-6.4078334],"type":"Point"},"properties":{"fid":1352,"NAMA":"HALTE GG H IDAH","TIPE_1":"TRANSPORTASI","TIPE_2":"HALTE","TIPE_3":"-","TELEPON":"","ALAMAT":"JL. H. JEMA, PANCORAN MAS, KEC. PANCORAN MAS, KOTA DEPOK, JAWA BARAT 16436","ID_PROV":"32","PROVINSI":"JAWA BARAT","ID_KABKOT":"32.76","KABKOT":"KOTA DEPOK","ID_KEC":"32.76.01","KECAMATAN":"PANCORAN MAS","ID_DESA":"32.76.01.1008","DESA":"PANCORAN MAS","LONGITUDE":106.8038913,"LATITUDE":-6.4078334,"STATUS":"BUKA","TANGGAL PENGUMPULAN":"Q2 2024","TANGGAL UPDATE":"27/07/2025"}},{"type":"Feature","geometry":{"coordinates":[106.8516808,-6.4061231],"type":"Point"},"properties":{"fid":1353,"NAMA":"HALTE GIANT BBM","TIPE_1":"TRANSPORTASI","TIPE_2":"HALTE","TIPE_3":"-","TELEPON":"","ALAMAT":"JL. TOLE ISKANDAR, SUKAMAJU, KEC. CILODONG, KOTA DEPOK, JAWA BARAT 16415","ID_PROV":"32","PROVINSI":"JAWA BARAT","ID_KABKOT":"32.76","KABKOT":"KOTA DEPOK","ID_KEC":"32.76.08","KECAMATAN":"CILODONG","ID_DESA":"32.76.08.1001","DESA":"SUKAMAJU","LONGITUDE":106.8516808,"LATITUDE":-6.4061231,"STATUS":"BUKA","TANGGAL PENGUMPULAN":"Q2 2024","TANGGAL UPDATE":"27/07/2025"}},{"type":"Feature","geometry":{"coordinates":[106.8077526,-6.4378148],"type":"Point"},"properties":{"fid":1358,"NAMA":"HALTE H. DOEL CITAYAM","TIPE_1":"TRANSPORTASI","TIPE_2":"HALTE","TIPE_3":"-","TELEPON":"","ALAMAT":"JL. PD. TERONG NO.23, BOJONG PD. TERONG, KEC. CIPAYUNG, KOTA DEPOK, JAWA BARAT 16436","ID_PROV":"32","PROVINSI":"JAWA BARAT","ID_KABKOT":"32.76","KABKOT":"KOTA DEPOK","ID_KEC":"32.76.07","KECAMATAN":"CIPAYUNG","ID_DESA":"32.76.07.1004","DESA":"BOJONG PONDOK TERONG","LONGITUDE":106.8077526,"LATITUDE":-6.4378148,"STATUS":"BUKA","TANGGAL PENGUMPULAN":"Q2 2024","TANGGAL UPDATE":"27/07/2025"}},{"type":"Feature","geometry":{"coordinates":[106.7363291,-6.3814717],"type":"Point"},"properties":{"fid":1369,"NAMA":"HALTE JR CONNEXION GARDENS","TIPE_1":"TRANSPORTASI","TIPE_2":"HALTE","TIPE_3":"-","TELEPON":"","ALAMAT":"CURUG, SAWANGAN, DEPOK CITY, WEST JAVA","ID_PROV":"32","PROVINSI":"JAWA BARAT","ID_KABKOT":"32.76","KABKOT":"KOTA DEPOK","ID_KEC":"32.76.11","KECAMATAN":"BOJONGSARI","ID_DESA":"32.76.11.1005","DESA":"CURUG","LONGITUDE":106.7363291,"LATITUDE":-6.3814717,"STATUS":"BUKA","TANGGAL PENGUMPULAN":"Q2 2024","TANGGAL UPDATE":"27/07/2025"}},{"type":"Feature","geometry":{"coordinates":[106.8332966,-6.3773789],"type":"Point"},"properties":{"fid":1370,"NAMA":"HALTE JUANDA 2","TIPE_1":"TRANSPORTASI","TIPE_2":"HALTE","TIPE_3":"-","TELEPON":"","ALAMAT":"JL. IR. H. JUANDA, KEMIRI MUKA, KECAMATAN BEJI, KOTA DEPOK, JAWA BARAT","ID_PROV":"32","PROVINSI":"JAWA BARAT","ID_KABKOT":"32.76","KABKOT":"KOTA DEPOK","ID_KEC":"32.76.06","KECAMATAN":"BEJI","ID_DESA":"32.76.06.1004","DESA":"KEMIRI MUKA","LONGITUDE":106.8332966,"LATITUDE":-6.3773789,"STATUS":"BUKA","TANGGAL PENGUMPULAN":"Q2 2024","TANGGAL UPDATE":"27/07/2025"}},{"type":"Feature","geometry":{"coordinates":[106.8494577,-6.3794584],"type":"Point"},"properties":{"fid":1371,"NAMA":"HALTE JUANDA 2","TIPE_1":"TRANSPORTASI","TIPE_2":"HALTE","TIPE_3":"-","TELEPON":"","ALAMAT":"JL. IR. H. JUANDA, BAKTI JAYA, KEC. SUKMAJAYA, KOTA DEPOK, JAWA BARAT","ID_PROV":"32","PROVINSI":"JAWA BARAT","ID_KABKOT":"32.76","KABKOT":"KOTA DEPOK","ID_KEC":"32.76.05","KECAMATAN":"SUKMAJAYA","ID_DESA":"32.76.05.1005","DESA":"BAKTIJAYA","LONGITUDE":106.8494577,"LATITUDE":-6.3794584,"STATUS":"BUKA","TANGGAL PENGUMPULAN":"Q2 2024","TANGGAL UPDATE":"27/07/2025"}},{"type":"Feature","geometry":{"coordinates":[106.7961932,-6.4269747],"type":"Point"},"properties":{"fid":1376,"NAMA":"HALTE KECAMATAN CIPAYUNG","TIPE_1":"TRANSPORTASI","TIPE_2":"HALTE","TIPE_3":"-","TELEPON":"0857-1984-0811","ALAMAT":"JL. RAYA CIPAYUNG, CIPAYUNG JAYA, KEC. CIPAYUNG, KOTA DEPOK, JAWA BARAT 16437","ID_PROV":"32","PROVINSI":"JAWA BARAT","ID_KABKOT":"32.76","KABKOT":"KOTA DEPOK","ID_KEC":"32.76.07","KECAMATAN":"CIPAYUNG","ID_DESA":"32.76.07.1001","DESA":"CIPAYUNG","LONGITUDE":106.7961932,"LATITUDE":-6.4269747,"STATUS":"BUKA","TANGGAL PENGUMPULAN":"Q2 2024","TANGGAL UPDATE":"27/07/2025"}},{"type":"Feature","geometry":{"coordinates":[106.8621546,-6.400606],"type":"Point"},"properties":{"fid":1381,"NAMA":"HALTE KOMPLEK DEPPEN RRI","TIPE_1":"TRANSPORTASI","TIPE_2":"HALTE","TIPE_3":"-","TELEPON":"","ALAMAT":"JL. KOMP. DEPPEN RRI, CISALAK, KEC. SUKMAJAYA, KOTA DEPOK, JAWA BARAT 16416","ID_PROV":"32","PROVINSI":"JAWA BARAT","ID_KABKOT":"32.76","KABKOT":"KOTA DEPOK","ID_KEC":"32.76.05","KECAMATAN":"SUKMAJAYA","ID_DESA":"32.76.05.1008","DESA":"CISALAK","LONGITUDE":106.8621546,"LATITUDE":-6.400606,"STATUS":"BUKA","TANGGAL PENGUMPULAN":"Q2 2024","TANGGAL UPDATE":"27/07/2025"}},{"type":"Feature","geometry":{"coordinates":[106.8549227,-6.3558225],"type":"Point"},"properties":{"fid":1388,"NAMA":"HALTE LENTERA INSAN","TIPE_1":"TRANSPORTASI","TIPE_2":"HALTE","TIPE_3":"-","TELEPON":"","ALAMAT":"JL. KOMJEN.POL.M.JASIN NO.26-47, TUGU, KEC. CIMANGGIS, KOTA DEPOK, JAWA BARAT 16451","ID_PROV":"32","PROVINSI":"JAWA BARAT","ID_KABKOT":"32.76","KABKOT":"KOTA DEPOK","ID_KEC":"32.76.02","KECAMATAN":"CIMANGGIS","ID_DESA":"32.76.02.1009","DESA":"TUGU","LONGITUDE":106.8549227,"LATITUDE":-6.3558225,"STATUS":"BUKA","TANGGAL PENGUMPULAN":"Q2 2024","TANGGAL UPDATE":"27/07/2025"}},{"type":"Feature","geometry":{"coordinates":[106.8591148,-6.3651116],"type":"Point"},"properties":{"fid":1398,"NAMA":"HALTE MALL CIMANGGIS","TIPE_1":"TRANSPORTASI","TIPE_2":"HALTE","TIPE_3":"-","TELEPON":"","ALAMAT":"TUGU, KEC. CIMANGGIS, KOTA DEPOK, JAWA BARAT 16451","ID_PROV":"32","PROVINSI":"JAWA BARAT","ID_KABKOT":"32.76","KABKOT":"KOTA DEPOK","ID_KEC":"32.76.02","KECAMATAN":"CIMANGGIS","ID_DESA":"32.76.02.1009","DESA":"TUGU","LONGITUDE":106.8591148,"LATITUDE":-6.3651116,"STATUS":"BUKA","TANGGAL PENGUMPULAN":"Q2 2024","TANGGAL UPDATE":"27/07/2025"}},{"type":"Feature","geometry":{"coordinates":[106.8207597,-6.3978379],"type":"Point"},"properties":{"fid":1401,"NAMA":"HALTE MARGONDA","TIPE_1":"TRANSPORTASI","TIPE_2":"HALTE","TIPE_3":"-","TELEPON":"","ALAMAT":"DEPOK, KEC. PANCORAN MAS, KOTA DEPOK, JAWA BARAT","ID_PROV":"32","PROVINSI":"JAWA BARAT","ID_KABKOT":"32.76","KABKOT":"KOTA DEPOK","ID_KEC":"32.76.01","KECAMATAN":"PANCORAN MAS","ID_DESA":"32.76.01.1006","DESA":"DEPOK","LONGITUDE":106.8207597,"LATITUDE":-6.3978379,"STATUS":"BUKA","TANGGAL PENGUMPULAN":"Q2 2024","TANGGAL UPDATE":"27/07/2025"}},{"type":"Feature","geometry":{"coordinates":[106.8211205,-6.3917588],"type":"Point"},"properties":{"fid":1408,"NAMA":"HALTE NAMING D BOTHIN","TIPE_1":"TRANSPORTASI","TIPE_2":"HALTE","TIPE_3":"-","TELEPON":"","ALAMAT":"JL. NAMING D BOTHIN, DEPOK, KEC. PANCORAN MAS, KOTA DEPOK, JAWA BARAT 16431","ID_PROV":"32","PROVINSI":"JAWA BARAT","ID_KABKOT":"32.76","KABKOT":"KOTA DEPOK","ID_KEC":"32.76.01","KECAMATAN":"PANCORAN MAS","ID_DESA":"32.76.01.1006","DESA":"DEPOK","LONGITUDE":106.8211205,"LATITUDE":-6.3917588,"STATUS":"BUKA","TANGGAL PENGUMPULAN":"Q2 2024","TANGGAL UPDATE":"27/07/2025"}},{"type":"Feature","geometry":{"coordinates":[106.8243131,-6.366926],"type":"Point"},"properties":{"fid":1434,"NAMA":"HALTE PNJ","TIPE_1":"TRANSPORTASI","TIPE_2":"HALTE","TIPE_3":"-","TELEPON":"","ALAMAT":"JL. LINGKAR, KUKUSAN, KECAMATAN BEJI, KOTA DEPOK, JAWA BARAT 16425","ID_PROV":"32","PROVINSI":"JAWA BARAT","ID_KABKOT":"32.76","KABKOT":"KOTA DEPOK","ID_KEC":"32.76.06","KECAMATAN":"BEJI","ID_DESA":"32.76.06.1002","DESA":"KUKUSAN","LONGITUDE":106.8243131,"LATITUDE":-6.366926,"STATUS":"BUKA","TANGGAL PENGUMPULAN":"Q2 2024","TANGGAL UPDATE":"27/07/2025"}},{"type":"Feature","geometry":{"coordinates":[106.8238014,-6.366777],"type":"Point"},"properties":{"fid":1436,"NAMA":"HALTE POLTEK (BIKUN)","TIPE_1":"TRANSPORTASI","TIPE_2":"HALTE","TIPE_3":"-","TELEPON":"","ALAMAT":"KUKUSAN, KECAMATAN BEJI, KOTA DEPOK, JAWA BARAT","ID_PROV":"32","PROVINSI":"JAWA BARAT","ID_KABKOT":"32.76","KABKOT":"KOTA DEPOK","ID_KEC":"32.76.06","KECAMATAN":"BEJI","ID_DESA":"32.76.06.1002","DESA":"KUKUSAN","LONGITUDE":106.8238014,"LATITUDE":-6.366777,"STATUS":"BUKA","TANGGAL PENGUMPULAN":"Q2 2024","TANGGAL UPDATE":"27/07/2025"}},{"type":"Feature","geometry":{"coordinates":[106.8335954,-6.370584],"type":"Point"},"properties":{"fid":1437,"NAMA":"HALTE PONDOK CINA","TIPE_1":"TRANSPORTASI","TIPE_2":"HALTE","TIPE_3":"-","TELEPON":"","ALAMAT":"KEMIRI MUKA, DEPOK, KOTA DEPOK, JAWA BARAT","ID_PROV":"32","PROVINSI":"JAWA BARAT","ID_KABKOT":"32.76","KABKOT":"KOTA DEPOK","ID_KEC":"32.76.06","KECAMATAN":"BEJI","ID_DESA":"32.76.06.1005","DESA":"PONDOK CINA","LONGITUDE":106.8335954,"LATITUDE":-6.370584,"STATUS":"BUKA","TANGGAL PENGUMPULAN":"Q2 2024","TANGGAL UPDATE":"27/07/2025"}},{"type":"Feature","geometry":{"coordinates":[106.8261496,-6.4403106],"type":"Point"},"properties":{"fid":1438,"NAMA":"HALTE PURI INSANI 2","TIPE_1":"TRANSPORTASI","TIPE_2":"HALTE","TIPE_3":"-","TELEPON":"","ALAMAT":"JL. H. USMAN HASBI, JATIMULYA, KEC. CILODONG, KOTA DEPOK, JAWA BARAT 16413","ID_PROV":"32","PROVINSI":"JAWA BARAT","ID_KABKOT":"32.76","KABKOT":"KOTA DEPOK","ID_KEC":"32.76.08","KECAMATAN":"CILODONG","ID_DESA":"32.76.08.1005","DESA":"JATIMULYA","LONGITUDE":106.8261496,"LATITUDE":-6.4403106,"STATUS":"BUKA","TANGGAL PENGUMPULAN":"Q2 2024","TANGGAL UPDATE":"27/07/2025"}},{"type":"Feature","geometry":{"coordinates":[106.8379883,-6.3890722],"type":"Point"},"properties":{"fid":1439,"NAMA":"HALTE PUSKSMAS","TIPE_1":"TRANSPORTASI","TIPE_2":"HALTE","TIPE_3":"-","TELEPON":"","ALAMAT":"JL. SENTOSA RAYA, MEKAR JAYA, KEC. SUKMAJAYA, KOTA DEPOK, JAWA BARAT 16411","ID_PROV":"32","PROVINSI":"JAWA BARAT","ID_KABKOT":"32.76","KABKOT":"KOTA DEPOK","ID_KEC":"32.76.05","KECAMATAN":"SUKMAJAYA","ID_DESA":"32.76.05.1004","DESA":"MEKARJAYA","LONGITUDE":106.8379883,"LATITUDE":-6.3890722,"STATUS":"BUKA","TANGGAL PENGUMPULAN":"Q2 2024","TANGGAL UPDATE":"27/07/2025"}},{"type":"Feature","geometry":{"coordinates":[106.830877,-6.3700852],"type":"Point"},"properties":{"fid":1445,"NAMA":"HALTE RIK 2","TIPE_1":"TRANSPORTASI","TIPE_2":"HALTE","TIPE_3":"-","TELEPON":"","ALAMAT":"PONDOK CINA, KECAMATAN BEJI, KOTA DEPOK, JAWA BARAT","ID_PROV":"32","PROVINSI":"JAWA BARAT","ID_KABKOT":"32.76","KABKOT":"KOTA DEPOK","ID_KEC":"32.76.06","KECAMATAN":"BEJI","ID_DESA":"32.76.06.1005","DESA":"PONDOK CINA","LONGITUDE":106.830877,"LATITUDE":-6.3700852,"STATUS":"BUKA","TANGGAL PENGUMPULAN":"Q2 2024","TANGGAL UPDATE":"27/07/2025"}},{"type":"Feature","geometry":{"coordinates":[106.8496364,-6.3794792],"type":"Point"},"properties":{"fid":1453,"NAMA":"HALTE SAMINTEN TRANSDEPOK","TIPE_1":"TRANSPORTASI","TIPE_2":"HALTE","TIPE_3":"-","TELEPON":"","ALAMAT":"JL. IR. H. JUANDA, BAKTI JAYA, SUKMAJAYA, DEPOK CITY, WEST JAVA","ID_PROV":"32","PROVINSI":"JAWA BARAT","ID_KABKOT":"32.76","KABKOT":"KOTA DEPOK","ID_KEC":"32.76.05","KECAMATAN":"SUKMAJAYA","ID_DESA":"32.76.05.1005","DESA":"BAKTIJAYA","LONGITUDE":106.8496364,"LATITUDE":-6.3794792,"STATUS":"BUKA","TANGGAL PENGUMPULAN":"Q2 2024","TANGGAL UPDATE":"27/07/2025"}},{"type":"Feature","geometry":{"coordinates":[106.8472309,-6.4050317],"type":"Point"},"properties":{"fid":1461,"NAMA":"HALTE SD CIPAYUNG","TIPE_1":"TRANSPORTASI","TIPE_2":"HALTE","TIPE_3":"-","TELEPON":"","ALAMAT":"SUKMAJAYA, KEC. SUKMAJAYA, KOTA DEPOK, JAWA BARAT 16412","ID_PROV":"32","PROVINSI":"JAWA BARAT","ID_KABKOT":"32.76","KABKOT":"KOTA DEPOK","ID_KEC":"32.76.05","KECAMATAN":"SUKMAJAYA","ID_DESA":"32.76.05.1001","DESA":"SUKMAJAYA","LONGITUDE":106.8472309,"LATITUDE":-6.4050317,"STATUS":"BUKA","TANGGAL PENGUMPULAN":"Q2 2024","TANGGAL UPDATE":"27/07/2025"}},{"type":"Feature","geometry":{"coordinates":[106.8510884,-6.4003777],"type":"Point"},"properties":{"fid":1462,"NAMA":"HALTE SD MEKAR JAYA II","TIPE_1":"TRANSPORTASI","TIPE_2":"HALTE","TIPE_3":"-","TELEPON":"","ALAMAT":"JL. BAHAGIA RAYA NO.75, ABADIJAYA, KEC. SUKMAJAYA, KOTA DEPOK, JAWA BARAT 16417","ID_PROV":"32","PROVINSI":"JAWA BARAT","ID_KABKOT":"32.76","KABKOT":"KOTA DEPOK","ID_KEC":"32.76.05","KECAMATAN":"SUKMAJAYA","ID_DESA":"32.76.05.1003","DESA":"ABADIJAYA","LONGITUDE":106.8510884,"LATITUDE":-6.4003777,"STATUS":"BUKA","TANGGAL PENGUMPULAN":"Q2 2024","TANGGAL UPDATE":"27/07/2025"}},{"type":"Feature","geometry":{"coordinates":[106.8188506,-6.4056794],"type":"Point"},"properties":{"fid":1493,"NAMA":"HALTE STASIUN DEPOK LAMA","TIPE_1":"TRANSPORTASI","TIPE_2":"HALTE","TIPE_3":"-","TELEPON":"","ALAMAT":"JL. RAYA CITAYAM, DEPOK, KEC. PANCORAN MAS, KOTA DEPOK, JAWA BARAT 16431","ID_PROV":"32","PROVINSI":"JAWA BARAT","ID_KABKOT":"32.76","KABKOT":"KOTA DEPOK","ID_KEC":"32.76.01","KECAMATAN":"PANCORAN MAS","ID_DESA":"32.76.01.1006","DESA":"DEPOK","LONGITUDE":106.8188506,"LATITUDE":-6.4056794,"STATUS":"BUKA","TANGGAL PENGUMPULAN":"Q2 2024","TANGGAL UPDATE":"27/07/2025"}},{"type":"Feature","geometry":{"coordinates":[106.849301,-6.379311],"type":"Point"},"properties":{"fid":1496,"NAMA":"HALTE SUGU TAMU","TIPE_1":"TRANSPORTASI","TIPE_2":"HALTE","TIPE_3":"-","TELEPON":"","ALAMAT":"JL. IR. H. JUANDA, BAKTI JAYA, KEC. SUKMAJAYA, KOTA DEPOK, JAWA BARAT","ID_PROV":"32","PROVINSI":"JAWA BARAT","ID_KABKOT":"32.76","KABKOT":"KOTA DEPOK","ID_KEC":"32.76.05","KECAMATAN":"SUKMAJAYA","ID_DESA":"32.76.05.1005","DESA":"BAKTIJAYA","LONGITUDE":106.849301,"LATITUDE":-6.379311,"STATUS":"BUKA","TANGGAL PENGUMPULAN":"Q2 2024","TANGGAL UPDATE":"27/07/2025"}},{"type":"Feature","geometry":{"coordinates":[106.8643148,-6.4117555],"type":"Point"},"properties":{"fid":1505,"NAMA":"HALTE TAMAN JATIJAJAR","TIPE_1":"TRANSPORTASI","TIPE_2":"HALTE","TIPE_3":"-","TELEPON":"","ALAMAT":"JL. KELURAHAN JATIJAJAR, JATIJAJAR, KEC. TAPOS, KOTA DEPOK, JAWA BARAT 16451","ID_PROV":"32","PROVINSI":"JAWA BARAT","ID_KABKOT":"32.76","KABKOT":"KOTA DEPOK","ID_KEC":"32.76.10","KECAMATAN":"TAPOS","ID_DESA":"32.76.10.1005","DESA":"JATIJAJAR","LONGITUDE":106.8643148,"LATITUDE":-6.4117555,"STATUS":"BUKA","TANGGAL PENGUMPULAN":"Q2 2024","TANGGAL UPDATE":"27/07/2025"}},{"type":"Feature","geometry":{"coordinates":[106.7492195,-6.4177391],"type":"Point"},"properties":{"fid":1507,"NAMA":"HALTE TAMAN MELATI","TIPE_1":"TRANSPORTASI","TIPE_2":"HALTE","TIPE_3":"-","TELEPON":"","ALAMAT":"JL. MELATI RAYA BAR., PENGASINAN, KEC. SAWANGAN, KOTA DEPOK, JAWA BARAT 16518","ID_PROV":"32","PROVINSI":"JAWA BARAT","ID_KABKOT":"32.76","KABKOT":"KOTA DEPOK","ID_KEC":"32.76.11","KECAMATAN":"BOJONGSARI","ID_DESA":"32.76.11.1006","DESA":"DUREN MEKAR","LONGITUDE":106.7492195,"LATITUDE":-6.4177391,"STATUS":"BUKA","TANGGAL PENGUMPULAN":"Q2 2024","TANGGAL UPDATE":"27/07/2025"}},{"type":"Feature","geometry":{"coordinates":[106.8233224,-6.361301],"type":"Point"},"properties":{"fid":1512,"NAMA":"HALTE TEKNIK (BIKUN)","TIPE_1":"TRANSPORTASI","TIPE_2":"HALTE","TIPE_3":"-","TELEPON":"","ALAMAT":"JL. PROF. DR. SUMITRO DJOJOHADIKUSUMO, KUKUSAN, KECAMATAN BEJI, KOTA DEPOK, JAWA BARAT 16425","ID_PROV":"32","PROVINSI":"JAWA BARAT","ID_KABKOT":"32.76","KABKOT":"KOTA DEPOK","ID_KEC":"32.76.06","KECAMATAN":"BEJI","ID_DESA":"32.76.06.1002","DESA":"KUKUSAN","LONGITUDE":106.8233224,"LATITUDE":-6.361301,"STATUS":"BUKA","TANGGAL PENGUMPULAN":"Q2 2024","TANGGAL UPDATE":"27/07/2025"}},{"type":"Feature","geometry":{"coordinates":[106.8225699,-6.3910634],"type":"Point"},"properties":{"fid":1637,"NAMA":"HALTE TRANSJAKARTA TERMINAL DEPOK BARU","TIPE_1":"TRANSPORTASI","TIPE_2":"HALTE","TIPE_3":"-","TELEPON":"","ALAMAT":"JL. GEDORAN DEPOK NO.40, DEPOK, KEC. PANCORAN MAS, KOTA DEPOK, JAWA BARAT 16431","ID_PROV":"32","PROVINSI":"JAWA BARAT","ID_KABKOT":"32.76","KABKOT":"KOTA DEPOK","ID_KEC":"32.76.01","KECAMATAN":"PANCORAN MAS","ID_DESA":"32.76.01.1006","DESA":"DEPOK","LONGITUDE":106.8225699,"LATITUDE":-6.3910634,"STATUS":"BUKA","TANGGAL PENGUMPULAN":"Q2 2024","TANGGAL UPDATE":"27/07/2025"}},{"type":"Feature","geometry":{"coordinates":[106.83185,-6.37659],"type":"Point"},"properties":{"fid":1659,"NAMA":"JL JUANDA DEPOK 1","TIPE_1":"TRANSPORTASI","TIPE_2":"HALTE","TIPE_3":"-","TELEPON":"","ALAMAT":"KEMIRI MUKA, KECAMATAN BEJI, KOTA DEPOK, JAWA BARAT","ID_PROV":"32","PROVINSI":"JAWA BARAT","ID_KABKOT":"32.76","KABKOT":"KOTA DEPOK","ID_KEC":"32.76.06","KECAMATAN":"BEJI","ID_DESA":"32.76.06.1005","DESA":"PONDOK CINA","LONGITUDE":106.83185,"LATITUDE":-6.37659,"STATUS":"BUKA","TANGGAL PENGUMPULAN":"Q2 2024","TANGGAL UPDATE":"27/07/2025"}},{"type":"Feature","geometry":{"coordinates":[106.83208,-6.37666],"type":"Point"},"properties":{"fid":1660,"NAMA":"JL JUANDA DEPOK 2","TIPE_1":"TRANSPORTASI","TIPE_2":"HALTE","TIPE_3":"-","TELEPON":"","ALAMAT":"KEMIRI MUKA, KECAMATAN BEJI, KOTA DEPOK, JAWA BARAT","ID_PROV":"32","PROVINSI":"JAWA BARAT","ID_KABKOT":"32.76","KABKOT":"KOTA DEPOK","ID_KEC":"32.76.06","KECAMATAN":"BEJI","ID_DESA":"32.76.06.1005","DESA":"PONDOK CINA","LONGITUDE":106.83208,"LATITUDE":-6.37666,"STATUS":"BUKA","TANGGAL PENGUMPULAN":"Q2 2024","TANGGAL UPDATE":"27/07/2025"}},{"type":"Feature","geometry":{"coordinates":[106.82953,-6.38309],"type":"Point"},"properties":{"fid":1673,"NAMA":"KEDONGDONG","TIPE_1":"TRANSPORTASI","TIPE_2":"HALTE","TIPE_3":"-","TELEPON":"","ALAMAT":"JL. MARGONDA, KEMIRI MUKA, KECAMATAN BEJI, KOTA DEPOK, JAWA BARAT 16423","ID_PROV":"32","PROVINSI":"JAWA BARAT","ID_KABKOT":"32.76","KABKOT":"KOTA DEPOK","ID_KEC":"32.76.06","KECAMATAN":"BEJI","ID_DESA":"32.76.06.1004","DESA":"KEMIRI MUKA","LONGITUDE":106.82953,"LATITUDE":-6.38309,"STATUS":"BUKA","TANGGAL PENGUMPULAN":"Q2 2024","TANGGAL UPDATE":"27/07/2025"}},{"type":"Feature","geometry":{"coordinates":[106.8414993,-6.3796938],"type":"Point"},"properties":{"fid":1687,"NAMA":"MOCH YUSUF RAYA 2","TIPE_1":"TRANSPORTASI","TIPE_2":"HALTE","TIPE_3":"-","TELEPON":"","ALAMAT":"MEKAR JAYA, KEC. SUKMAJAYA, KOTA DEPOK, JAWA BARAT","ID_PROV":"32","PROVINSI":"JAWA BARAT","ID_KABKOT":"32.76","KABKOT":"KOTA DEPOK","ID_KEC":"32.76.05","KECAMATAN":"SUKMAJAYA","ID_DESA":"32.76.05.1004","DESA":"MEKARJAYA","LONGITUDE":106.8414993,"LATITUDE":-6.3796938,"STATUS":"BUKA","TANGGAL PENGUMPULAN":"Q2 2024","TANGGAL UPDATE":"27/07/2025"}},{"type":"Feature","geometry":{"coordinates":[106.84899,-6.37921],"type":"Point"},"properties":{"fid":1716,"NAMA":"SBR. GG. SAMINTEN","TIPE_1":"TRANSPORTASI","TIPE_2":"HALTE","TIPE_3":"-","TELEPON":"","ALAMAT":"BAKTI JAYA, KEC. SUKMAJAYA, KOTA DEPOK, JAWA BARAT","ID_PROV":"32","PROVINSI":"JAWA BARAT","ID_KABKOT":"32.76","KABKOT":"KOTA DEPOK","ID_KEC":"32.76.05","KECAMATAN":"SUKMAJAYA","ID_DESA":"32.76.05.1005","DESA":"BAKTIJAYA","LONGITUDE":106.84899,"LATITUDE":-6.37921,"STATUS":"BUKA","TANGGAL PENGUMPULAN":"Q2 2024","TANGGAL UPDATE":"27/07/2025"}},{"type":"Feature","geometry":{"coordinates":[106.8190089,-6.4055193],"type":"Point"},"properties":{"fid":1719,"NAMA":"SEBERANG JL. RAYA ST DEPOK LAMA","TIPE_1":"TRANSPORTASI","TIPE_2":"HALTE","TIPE_3":"-","TELEPON":"","ALAMAT":"JL. KARTINI NO.1, DEPOK, KEC. PANCORAN MAS, KOTA DEPOK, JAWA BARAT 16431","ID_PROV":"32","PROVINSI":"JAWA BARAT","ID_KABKOT":"32.76","KABKOT":"KOTA DEPOK","ID_KEC":"32.76.01","KECAMATAN":"PANCORAN MAS","ID_DESA":"32.76.01.1006","DESA":"DEPOK","LONGITUDE":106.8190089,"LATITUDE":-6.4055193,"STATUS":"BUKA","TANGGAL PENGUMPULAN":"Q2 2024","TANGGAL UPDATE":"27/07/2025"}},{"type":"Feature","geometry":{"coordinates":[106.84861,-6.35527],"type":"Point"},"properties":{"fid":1721,"NAMA":"SEBERANG RS BHAYANGKARA DEPOK","TIPE_1":"TRANSPORTASI","TIPE_2":"HALTE","TIPE_3":"-","TELEPON":"","ALAMAT":"TUGU, KEC. CIMANGGIS, KOTA DEPOK, JAWA BARAT","ID_PROV":"32","PROVINSI":"JAWA BARAT","ID_KABKOT":"32.76","KABKOT":"KOTA DEPOK","ID_KEC":"32.76.02","KECAMATAN":"CIMANGGIS","ID_DESA":"32.76.02.1009","DESA":"TUGU","LONGITUDE":106.84861,"LATITUDE":-6.35527,"STATUS":"BUKA","TANGGAL PENGUMPULAN":"Q2 2024","TANGGAL UPDATE":"27/07/2025"}},{"type":"Feature","geometry":{"coordinates":[106.8329819,-6.3601158],"type":"Point"},"properties":{"fid":1742,"NAMA":"STASIUN UNIVERSITAS INDONESIA","TIPE_1":"TRANSPORTASI","TIPE_2":"HALTE","TIPE_3":"-","TELEPON":"","ALAMAT":"PONDOK CINA, KECAMATAN BEJI, KOTA DEPOK, JAWA BARAT 16424","ID_PROV":"32","PROVINSI":"JAWA BARAT","ID_KABKOT":"32.76","KABKOT":"KOTA DEPOK","ID_KEC":"32.76.06","KECAMATAN":"BEJI","ID_DESA":"32.76.06.1005","DESA":"PONDOK CINA","LONGITUDE":106.8329819,"LATITUDE":-6.3601158,"STATUS":"BUKA","TANGGAL PENGUMPULAN":"Q2 2024","TANGGAL UPDATE":"27/07/2025"}},{"type":"Feature","geometry":{"coordinates":[106.82251,-6.39107],"type":"Point"},"properties":{"fid":1758,"NAMA":"TERM. DEPOK BARU","TIPE_1":"TRANSPORTASI","TIPE_2":"HALTE","TIPE_3":"-","TELEPON":"","ALAMAT":"DEPOK, KEC. PANCORAN MAS, KOTA DEPOK, JAWA BARAT","ID_PROV":"32","PROVINSI":"JAWA BARAT","ID_KABKOT":"32.76","KABKOT":"KOTA DEPOK","ID_KEC":"32.76.01","KECAMATAN":"PANCORAN MAS","ID_DESA":"32.76.01.1006","DESA":"DEPOK","LONGITUDE":106.82251,"LATITUDE":-6.39107,"STATUS":"BUKA","TANGGAL PENGUMPULAN":"Q2 2024","TANGGAL UPDATE":"27/07/2025"}},{"type":"Feature","geometry":{"coordinates":[106.82466,-6.39162],"type":"Point"},"properties":{"fid":1769,"NAMA":"TERMINAL TERPADU DEPOK","TIPE_1":"TRANSPORTASI","TIPE_2":"HALTE","TIPE_3":"-","TELEPON":"","ALAMAT":"DEPOK, KEC. HAURGEULIS, KABUPATEN INDRAMAYU, JAWA BARAT","ID_PROV":"32","PROVINSI":"JAWA BARAT","ID_KABKOT":"32.76","KABKOT":"KOTA DEPOK","ID_KEC":"32.76.01","KECAMATAN":"PANCORAN MAS","ID_DESA":"32.76.01.1006","DESA":"DEPOK","LONGITUDE":106.82466,"LATITUDE":-6.39162,"STATUS":"BUKA","TANGGAL PENGUMPULAN":"Q2 2024","TANGGAL UPDATE":"27/07/2025"}},{"type":"Feature","geometry":{"coordinates":[106.8163887,-6.4130847],"type":"Point"},"properties":{"fid":1778,"NAMA":"TRANDEPOK HALTE DIPO","TIPE_1":"TRANSPORTASI","TIPE_2":"HALTE","TIPE_3":"-","TELEPON":"","ALAMAT":"DEPOK, KEC. PANCORAN MAS, KOTA DEPOK, JAWA BARAT 16439","ID_PROV":"32","PROVINSI":"JAWA BARAT","ID_KABKOT":"32.76","KABKOT":"KOTA DEPOK","ID_KEC":"32.76.07","KECAMATAN":"CIPAYUNG","ID_DESA":"32.76.07.1003","DESA":"RATU JAYA","LONGITUDE":106.8163887,"LATITUDE":-6.4130847,"STATUS":"BUKA","TANGGAL PENGUMPULAN":"Q2 2024","TANGGAL UPDATE":"27/07/2025"}},{"type":"Feature","geometry":{"coordinates":[106.8257194,-6.4396159],"type":"Point"},"properties":{"fid":1779,"NAMA":"TRANSDEPOK HALTE ALUN-ALUN","TIPE_1":"TRANSPORTASI","TIPE_2":"HALTE","TIPE_3":"-","TELEPON":"","ALAMAT":"JL. BOULEVARD GRAND DEPOK CITY NO.21, JATIMULYA, KEC. CILODONG, KOTA DEPOK, JAWA BARAT 16413","ID_PROV":"32","PROVINSI":"JAWA BARAT","ID_KABKOT":"32.76","KABKOT":"KOTA DEPOK","ID_KEC":"32.76.08","KECAMATAN":"CILODONG","ID_DESA":"32.76.08.1005","DESA":"JATIMULYA","LONGITUDE":106.8257194,"LATITUDE":-6.4396159,"STATUS":"BUKA","TANGGAL PENGUMPULAN":"Q2 2024","TANGGAL UPDATE":"27/07/2025"}},{"type":"Feature","geometry":{"coordinates":[106.8627879,-6.3731767],"type":"Point"},"properties":{"fid":1780,"NAMA":"TRANSDEPOK HALTE BAYER","TIPE_1":"TRANSPORTASI","TIPE_2":"HALTE","TIPE_3":"-","TELEPON":"","ALAMAT":"JL. RAYA JAKARTA-BOGOR NO.2, CISALAK PS., KEC. CIMANGGIS, KOTA DEPOK, JAWA BARAT 16416","ID_PROV":"32","PROVINSI":"JAWA BARAT","ID_KABKOT":"32.76","KABKOT":"KOTA DEPOK","ID_KEC":"32.76.02","KECAMATAN":"CIMANGGIS","ID_DESA":"32.76.02.1012","DESA":"CISALAK PASAR","LONGITUDE":106.8627879,"LATITUDE":-6.3731767,"STATUS":"BUKA","TANGGAL PENGUMPULAN":"Q2 2024","TANGGAL UPDATE":"27/07/2025"}},{"type":"Feature","geometry":{"coordinates":[106.7815287,-6.3957414],"type":"Point"},"properties":{"fid":1781,"NAMA":"TRANSDEPOK HALTE BDN","TIPE_1":"TRANSPORTASI","TIPE_2":"HALTE","TIPE_3":"-","TELEPON":"","ALAMAT":"RANGKAPAN JAYA BARU, KEC. PANCORAN MAS, KOTA DEPOK, JAWA BARAT","ID_PROV":"32","PROVINSI":"JAWA BARAT","ID_KABKOT":"32.76","KABKOT":"KOTA DEPOK","ID_KEC":"32.76.01","KECAMATAN":"PANCORAN MAS","ID_DESA":"32.76.01.1010","DESA":"RANGKAPAN JAYA BARU","LONGITUDE":106.7815287,"LATITUDE":-6.3957414,"STATUS":"BUKA","TANGGAL PENGUMPULAN":"Q2 2024","TANGGAL UPDATE":"27/07/2025"}},{"type":"Feature","geometry":{"coordinates":[106.8390778,-6.3921606],"type":"Point"},"properties":{"fid":1782,"NAMA":"TRANSDEPOK HALTE BIMA","TIPE_1":"TRANSPORTASI","TIPE_2":"HALTE","TIPE_3":"-","TELEPON":"","ALAMAT":"JL. PROKLAMASI NO.21 BLOK B, RT.5/RW.8, MEKAR JAYA, KEC. SUKMAJAYA, KOTA DEPOK, JAWA BARAT 16411","ID_PROV":"32","PROVINSI":"JAWA BARAT","ID_KABKOT":"32.76","KABKOT":"KOTA DEPOK","ID_KEC":"32.76.05","KECAMATAN":"SUKMAJAYA","ID_DESA":"32.76.05.1004","DESA":"MEKARJAYA","LONGITUDE":106.8390778,"LATITUDE":-6.3921606,"STATUS":"BUKA","TANGGAL PENGUMPULAN":"Q2 2024","TANGGAL UPDATE":"27/07/2025"}},{"type":"Feature","geometry":{"coordinates":[106.7452562,-6.4054188],"type":"Point"},"properties":{"fid":1783,"NAMA":"TRANSDEPOK HALTE BSSN","TIPE_1":"TRANSPORTASI","TIPE_2":"HALTE","TIPE_3":"-","TELEPON":"","ALAMAT":"JL. RAYA MUCHTAR RUKO KARISMA NO.R 3, BOJONGSARI LAMA, KEC. BOJONGSARI, KOTA DEPOK, JAWA BARAT 16516","ID_PROV":"32","PROVINSI":"JAWA BARAT","ID_KABKOT":"32.76","KABKOT":"KOTA DEPOK","ID_KEC":"32.76.11","KECAMATAN":"BOJONGSARI","ID_DESA":"32.76.11.1001","DESA":"BOJONGSARI","LONGITUDE":106.7452562,"LATITUDE":-6.4054188,"STATUS":"BUKA","TANGGAL PENGUMPULAN":"Q2 2024","TANGGAL UPDATE":"27/07/2025"}},{"type":"Feature","geometry":{"coordinates":[106.7477057,-6.361765],"type":"Point"},"properties":{"fid":1784,"NAMA":"TRANSDEPOK HALTE CINANGKA","TIPE_1":"TRANSPORTASI","TIPE_2":"HALTE","TIPE_3":"-","TELEPON":"","ALAMAT":"JL. RAYA PARUNG - CIPUTAT NO.36, KEDAUNG, KEC. SAWANGAN, KOTA DEPOK, JAWA BARAT 16517","ID_PROV":"32","PROVINSI":"JAWA BARAT","ID_KABKOT":"32.76","KABKOT":"KOTA DEPOK","ID_KEC":"32.76.03","KECAMATAN":"SAWANGAN","ID_DESA":"32.76.03.1012","DESA":"KEDAUNG","LONGITUDE":106.7477057,"LATITUDE":-6.361765,"STATUS":"BUKA","TANGGAL PENGUMPULAN":"Q2 2024","TANGGAL UPDATE":"27/07/2025"}},{"type":"Feature","geometry":{"coordinates":[106.7834569,-6.3203448],"type":"Point"},"properties":{"fid":1785,"NAMA":"TRANSDEPOK HALTE CINERE","TIPE_1":"TRANSPORTASI","TIPE_2":"HALTE","TIPE_3":"-","TELEPON":"","ALAMAT":"PANGKALAN JATI, KEC. CINERE, KOTA DEPOK, JAWA BARAT 16513","ID_PROV":"32","PROVINSI":"JAWA BARAT","ID_KABKOT":"32.76","KABKOT":"KOTA DEPOK","ID_KEC":"32.76.09","KECAMATAN":"CINERE","ID_DESA":"32.76.09.1003","DESA":"PANGKALAN JATI","LONGITUDE":106.7834569,"LATITUDE":-6.3203448,"STATUS":"BUKA","TANGGAL PENGUMPULAN":"Q2 2024","TANGGAL UPDATE":"27/07/2025"}},{"type":"Feature","geometry":{"coordinates":[106.8668709,-6.3798531],"type":"Point"},"properties":{"fid":1786,"NAMA":"TRANSDEPOK HALTE CISALAK","TIPE_1":"TRANSPORTASI","TIPE_2":"HALTE","TIPE_3":"-","TELEPON":"","ALAMAT":"JL. RAYA BOGOR NO.KM.32, CISALAK, KEC. SUKMAJAYA, KOTA DEPOK, JAWA BARAT 16416","ID_PROV":"32","PROVINSI":"JAWA BARAT","ID_KABKOT":"32.76","KABKOT":"KOTA DEPOK","ID_KEC":"32.76.05","KECAMATAN":"SUKMAJAYA","ID_DESA":"32.76.05.1008","DESA":"CISALAK","LONGITUDE":106.8668709,"LATITUDE":-6.3798531,"STATUS":"BUKA","TANGGAL PENGUMPULAN":"Q2 2024","TANGGAL UPDATE":"27/07/2025"}},{"type":"Feature","geometry":{"coordinates":[106.8159639,-6.4141672],"type":"Point"},"properties":{"fid":1787,"NAMA":"TRANSDEPOK HALTE DEPO","TIPE_1":"TRANSPORTASI","TIPE_2":"HALTE","TIPE_3":"-","TELEPON":"","ALAMAT":"JL. KP. RATU JAYA NO.59, RATU JAYA, KEC. CIPAYUNG, KOTA DEPOK, JAWA BARAT 16439","ID_PROV":"32","PROVINSI":"JAWA BARAT","ID_KABKOT":"32.76","KABKOT":"KOTA DEPOK","ID_KEC":"32.76.07","KECAMATAN":"CIPAYUNG","ID_DESA":"32.76.07.1003","DESA":"RATU JAYA","LONGITUDE":106.8159639,"LATITUDE":-6.4141672,"STATUS":"BUKA","TANGGAL PENGUMPULAN":"Q2 2024","TANGGAL UPDATE":"27/07/2025"}},{"type":"Feature","geometry":{"coordinates":[106.8321105,-6.3725153],"type":"Point"},"properties":{"fid":1788,"NAMA":"TRANSDEPOK HALTE DETOS","TIPE_1":"TRANSPORTASI","TIPE_2":"HALTE","TIPE_3":"-","TELEPON":"","ALAMAT":"DEPOK MALL, RUKO, KEMIRI MUKA, KECAMATAN BEJI, KOTA DEPOK, JAWA BARAT 16424","ID_PROV":"32","PROVINSI":"JAWA BARAT","ID_KABKOT":"32.76","KABKOT":"KOTA DEPOK","ID_KEC":"32.76.06","KECAMATAN":"BEJI","ID_DESA":"32.76.06.1005","DESA":"PONDOK CINA","LONGITUDE":106.8321105,"LATITUDE":-6.3725153,"STATUS":"BUKA","TANGGAL PENGUMPULAN":"Q2 2024","TANGGAL UPDATE":"27/07/2025"}},{"type":"Feature","geometry":{"coordinates":[106.7933653,-6.3944607],"type":"Point"},"properties":{"fid":1789,"NAMA":"TRANSDEPOK HALTE DTC","TIPE_1":"TRANSPORTASI","TIPE_2":"HALTE","TIPE_3":"-","TELEPON":"","ALAMAT":"JL.RAYA SAWANGAN, DSPANONGAN NO, RT.100RT.01/RW.03, PANONGAN, KEC. PANONGAN, KABUPATEN TANGERANG, BANTEN 15710","ID_PROV":"32","PROVINSI":"JAWA BARAT","ID_KABKOT":"32.76","KABKOT":"KOTA DEPOK","ID_KEC":"32.76.01","KECAMATAN":"PANCORAN MAS","ID_DESA":"32.76.01.1011","DESA":"RANGKAPAN JAYA","LONGITUDE":106.7933653,"LATITUDE":-6.3944607,"STATUS":"BUKA","TANGGAL PENGUMPULAN":"Q2 2024","TANGGAL UPDATE":"27/07/2025"}},{"type":"Feature","geometry":{"coordinates":[106.8530206,-6.4358762],"type":"Point"},"properties":{"fid":1790,"NAMA":"TRANSDEPOK HALTE GAPURA CILODONG","TIPE_1":"TRANSPORTASI","TIPE_2":"HALTE","TIPE_3":"-","TELEPON":"","ALAMAT":"JL. CILODONG RAYA, CILODONG, KEC. CILODONG, KOTA DEPOK, JAWA BARAT","ID_PROV":"32","PROVINSI":"JAWA BARAT","ID_KABKOT":"32.76","KABKOT":"KOTA DEPOK","ID_KEC":"32.76.10","KECAMATAN":"TAPOS","ID_DESA":"32.76.10.1006","DESA":"CILANGKAP","LONGITUDE":106.8530206,"LATITUDE":-6.4358762,"STATUS":"BUKA","TANGGAL PENGUMPULAN":"Q2 2024","TANGGAL UPDATE":"27/07/2025"}},{"type":"Feature","geometry":{"coordinates":[106.8881076,-6.3779068],"type":"Point"},"properties":{"fid":1791,"NAMA":"TRANSDEPOK HALTE GAS ALAM","TIPE_1":"TRANSPORTASI","TIPE_2":"HALTE","TIPE_3":"-","TELEPON":"","ALAMAT":"JL. KOPERASI RAYA NO.20, RT.1/RW.8, CURUG, KEC. CIMANGGIS, KOTA DEPOK, JAWA BARAT 16454","ID_PROV":"32","PROVINSI":"JAWA BARAT","ID_KABKOT":"32.76","KABKOT":"KOTA DEPOK","ID_KEC":"32.76.02","KECAMATAN":"CIMANGGIS","ID_DESA":"32.76.02.1007","DESA":"HARJAMUKTI","LONGITUDE":106.8881076,"LATITUDE":-6.3779068,"STATUS":"BUKA","TANGGAL PENGUMPULAN":"Q2 2024","TANGGAL UPDATE":"27/07/2025"}},{"type":"Feature","geometry":{"coordinates":[106.8289096,-6.4251522],"type":"Point"},"properties":{"fid":1792,"NAMA":"TRANSDEPOK HALTE GDC 2","TIPE_1":"TRANSPORTASI","TIPE_2":"HALTE","TIPE_3":"-","TELEPON":"","ALAMAT":"RUKO ROSE, JL. BOULEVARD GRAND DEPOK CITY, KALIBARU, KEC. CILODONG, KOTA DEPOK, JAWA BARAT 16413","ID_PROV":"32","PROVINSI":"JAWA BARAT","ID_KABKOT":"32.76","KABKOT":"KOTA DEPOK","ID_KEC":"32.76.08","KECAMATAN":"CILODONG","ID_DESA":"32.76.08.1003","DESA":"KALIBARU","LONGITUDE":106.8289096,"LATITUDE":-6.4251522,"STATUS":"BUKA","TANGGAL PENGUMPULAN":"Q2 2024","TANGGAL UPDATE":"27/07/2025"}},{"type":"Feature","geometry":{"coordinates":[106.8195534,-6.4118621],"type":"Point"},"properties":{"fid":1793,"NAMA":"TRANSDEPOK HALTE GDC CILIWUNG","TIPE_1":"TRANSPORTASI","TIPE_2":"HALTE","TIPE_3":"-","TELEPON":"","ALAMAT":"JL. BOULEVARD GRAND DEPOK CITY, TIRTAJAYA, KEC. SUKMAJAYA, KOTA DEPOK, JAWA BARAT 16412","ID_PROV":"32","PROVINSI":"JAWA BARAT","ID_KABKOT":"32.76","KABKOT":"KOTA DEPOK","ID_KEC":"32.76.05","KECAMATAN":"SUKMAJAYA","ID_DESA":"32.76.05.1010","DESA":"TIRTAJAYA","LONGITUDE":106.8195534,"LATITUDE":-6.4118621,"STATUS":"BUKA","TANGGAL PENGUMPULAN":"Q2 2024","TANGGAL UPDATE":"27/07/2025"}},{"type":"Feature","geometry":{"coordinates":[106.8295547,-6.4445047],"type":"Point"},"properties":{"fid":1794,"NAMA":"TRANSDEPOK HALTE GDC MELATI","TIPE_1":"TRANSPORTASI","TIPE_2":"HALTE","TIPE_3":"-","TELEPON":"","ALAMAT":"JATIMULYA, KEC. CILODONG, KOTA DEPOK, JAWA BARAT","ID_PROV":"32","PROVINSI":"JAWA BARAT","ID_KABKOT":"32.76","KABKOT":"KOTA DEPOK","ID_KEC":"32.76.08","KECAMATAN":"CILODONG","ID_DESA":"32.76.08.1005","DESA":"JATIMULYA","LONGITUDE":106.8295547,"LATITUDE":-6.4445047,"STATUS":"BUKA","TANGGAL PENGUMPULAN":"Q2 2024","TANGGAL UPDATE":"27/07/2025"}},{"type":"Feature","geometry":{"coordinates":[106.8559656,-6.380687],"type":"Point"},"properties":{"fid":1795,"NAMA":"TRANSDEPOK HALTE JUANDA 1","TIPE_1":"TRANSPORTASI","TIPE_2":"HALTE","TIPE_3":"-","TELEPON":"","ALAMAT":"JL. IR. H. JUANDA NO.45, DEPOK TIMUR, BAKTI JAYA, KEC. SUKMAJAYA, KOTA DEPOK, JAWA BARAT 16418","ID_PROV":"32","PROVINSI":"JAWA BARAT","ID_KABKOT":"32.76","KABKOT":"KOTA DEPOK","ID_KEC":"32.76.05","KECAMATAN":"SUKMAJAYA","ID_DESA":"32.76.05.1005","DESA":"BAKTIJAYA","LONGITUDE":106.8559656,"LATITUDE":-6.380687,"STATUS":"BUKA","TANGGAL PENGUMPULAN":"Q2 2024","TANGGAL UPDATE":"27/07/2025"}},{"type":"Feature","geometry":{"coordinates":[106.8333725,-6.3775316],"type":"Point"},"properties":{"fid":1796,"NAMA":"TRANSDEPOK HALTE JUANDA 2","TIPE_1":"TRANSPORTASI","TIPE_2":"HALTE","TIPE_3":"-","TELEPON":"","ALAMAT":"KEMIRI MUKA, KECAMATAN BEJI, KOTA DEPOK, JAWA BARAT","ID_PROV":"32","PROVINSI":"JAWA BARAT","ID_KABKOT":"32.76","KABKOT":"KOTA DEPOK","ID_KEC":"32.76.06","KECAMATAN":"BEJI","ID_DESA":"32.76.06.1004","DESA":"KEMIRI MUKA","LONGITUDE":106.8333725,"LATITUDE":-6.3775316,"STATUS":"BUKA","TANGGAL PENGUMPULAN":"Q2 2024","TANGGAL UPDATE":"27/07/2025"}},{"type":"Feature","geometry":{"coordinates":[106.758866,-6.4054841],"type":"Point"},"properties":{"fid":1797,"NAMA":"TRANSDEPOK HALTE KECAMATAN SAWANGAN","TIPE_1":"TRANSPORTASI","TIPE_2":"HALTE","TIPE_3":"-","TELEPON":"0853-6603-4956","ALAMAT":"JL. RAYA MUCHTAR NO.94, SAWANGAN LAMA, KEC. SAWANGAN, KOTA DEPOK, JAWA BARAT 16511","ID_PROV":"32","PROVINSI":"JAWA BARAT","ID_KABKOT":"32.76","KABKOT":"KOTA DEPOK","ID_KEC":"32.76.03","KECAMATAN":"SAWANGAN","ID_DESA":"32.76.03.1010","DESA":"SAWANGAN","LONGITUDE":106.758866,"LATITUDE":-6.4054841,"STATUS":"BUKA","TANGGAL PENGUMPULAN":"Q2 2024","TANGGAL UPDATE":"27/07/2025"}},{"type":"Feature","geometry":{"coordinates":[106.8333798,-6.360912],"type":"Point"},"properties":{"fid":1798,"NAMA":"TRANSDEPOK HALTE KOBER","TIPE_1":"TRANSPORTASI","TIPE_2":"HALTE","TIPE_3":"-","TELEPON":"","ALAMAT":"PONDOK CINA, KECAMATAN BEJI, KOTA DEPOK, JAWA BARAT","ID_PROV":"32","PROVINSI":"JAWA BARAT","ID_KABKOT":"32.76","KABKOT":"KOTA DEPOK","ID_KEC":"32.76.06","KECAMATAN":"BEJI","ID_DESA":"32.76.06.1005","DESA":"PONDOK CINA","LONGITUDE":106.8333798,"LATITUDE":-6.360912,"STATUS":"BUKA","TANGGAL PENGUMPULAN":"Q2 2024","TANGGAL UPDATE":"27/07/2025"}},{"type":"Feature","geometry":{"coordinates":[106.7687577,-6.3836782],"type":"Point"},"properties":{"fid":1799,"NAMA":"TRANSDEPOK HALTE KUBAH EMAS","TIPE_1":"TRANSPORTASI","TIPE_2":"HALTE","TIPE_3":"-","TELEPON":"","ALAMAT":"JL. KH. MUHASAN 2, MERUYUNG, KEC. LIMO, KOTA DEPOK, JAWA BARAT 16514","ID_PROV":"32","PROVINSI":"JAWA BARAT","ID_KABKOT":"32.76","KABKOT":"KOTA DEPOK","ID_KEC":"32.76.04","KECAMATAN":"LIMO","ID_DESA":"32.76.04.1001","DESA":"MERUYUNG","LONGITUDE":106.7687577,"LATITUDE":-6.3836782,"STATUS":"BUKA","TANGGAL PENGUMPULAN":"Q2 2024","TANGGAL UPDATE":"27/07/2025"}},{"type":"Feature","geometry":{"coordinates":[106.8590643,-6.4156743],"type":"Point"},"properties":{"fid":1800,"NAMA":"TRANSDEPOK HALTE LAZADA","TIPE_1":"TRANSPORTASI","TIPE_2":"HALTE","TIPE_3":"-","TELEPON":"","ALAMAT":"JL. RAYA JAKARTA-BOGOR, JATIJAJAR, KEC. TAPOS, KOTA DEPOK, JAWA BARAT 16415","ID_PROV":"32","PROVINSI":"JAWA BARAT","ID_KABKOT":"32.76","KABKOT":"KOTA DEPOK","ID_KEC":"32.76.08","KECAMATAN":"CILODONG","ID_DESA":"32.76.08.1001","DESA":"SUKAMAJU","LONGITUDE":106.8590643,"LATITUDE":-6.4156743,"STATUS":"BUKA","TANGGAL PENGUMPULAN":"Q2 2024","TANGGAL UPDATE":"27/07/2025"}},{"type":"Feature","geometry":{"coordinates":[106.8594516,-6.3658115],"type":"Point"},"properties":{"fid":1801,"NAMA":"TRANSDEPOK HALTE MEKARSARI","TIPE_1":"TRANSPORTASI","TIPE_2":"HALTE","TIPE_3":"-","TELEPON":"","ALAMAT":"MEKARSARI, KEC. CIMANGGIS, KOTA DEPOK, JAWA BARAT 16451","ID_PROV":"32","PROVINSI":"JAWA BARAT","ID_KABKOT":"32.76","KABKOT":"KOTA DEPOK","ID_KEC":"32.76.02","KECAMATAN":"CIMANGGIS","ID_DESA":"32.76.02.1010","DESA":"MEKARSARI","LONGITUDE":106.8594516,"LATITUDE":-6.3658115,"STATUS":"BUKA","TANGGAL PENGUMPULAN":"Q2 2024","TANGGAL UPDATE":"27/07/2025"}},{"type":"Feature","geometry":{"coordinates":[106.8651332,-6.3968729],"type":"Point"},"properties":{"fid":1802,"NAMA":"TRANSDEPOK HALTE NANGKA","TIPE_1":"TRANSPORTASI","TIPE_2":"HALTE","TIPE_3":"-","TELEPON":"","ALAMAT":"JL. RAYA JAKARTA-BOGOR NO.34, CURUG, KEC. CIMANGGIS, KOTA DEPOK, JAWA BARAT 16416","ID_PROV":"32","PROVINSI":"JAWA BARAT","ID_KABKOT":"32.76","KABKOT":"KOTA DEPOK","ID_KEC":"32.76.02","KECAMATAN":"CIMANGGIS","ID_DESA":"32.76.02.1008","DESA":"CURUG","LONGITUDE":106.8651332,"LATITUDE":-6.3968729,"STATUS":"BUKA","TANGGAL PENGUMPULAN":"Q2 2024","TANGGAL UPDATE":"27/07/2025"}},{"type":"Feature","geometry":{"coordinates":[106.871774,-6.381675],"type":"Point"},"properties":{"fid":1803,"NAMA":"TRANSDEPOK HALTE NURUL FALAH","TIPE_1":"TRANSPORTASI","TIPE_2":"HALTE","TIPE_3":"-","TELEPON":"","ALAMAT":"CURUG, KEC. CIMANGGIS, KOTA DEPOK, JAWA BARAT 16453","ID_PROV":"32","PROVINSI":"JAWA BARAT","ID_KABKOT":"32.76","KABKOT":"KOTA DEPOK","ID_KEC":"32.76.02","KECAMATAN":"CIMANGGIS","ID_DESA":"32.76.02.1008","DESA":"CURUG","LONGITUDE":106.871774,"LATITUDE":-6.381675,"STATUS":"BUKA","TANGGAL PENGUMPULAN":"Q2 2024","TANGGAL UPDATE":"27/07/2025"}},{"type":"Feature","geometry":{"coordinates":[106.8219389,-6.4177568],"type":"Point"},"properties":{"fid":1804,"NAMA":"TRANSDEPOK HALTE NURUL HUDA","TIPE_1":"TRANSPORTASI","TIPE_2":"HALTE","TIPE_3":"-","TELEPON":"","ALAMAT":"JL. BOULEVARD GRAND DEPOK CITY, TIRTAJAYA, KEC. SUKMAJAYA, KOTA DEPOK, JAWA BARAT 16412","ID_PROV":"32","PROVINSI":"JAWA BARAT","ID_KABKOT":"32.76","KABKOT":"KOTA DEPOK","ID_KEC":"32.76.05","KECAMATAN":"SUKMAJAYA","ID_DESA":"32.76.05.1010","DESA":"TIRTAJAYA","LONGITUDE":106.8219389,"LATITUDE":-6.4177568,"STATUS":"BUKA","TANGGAL PENGUMPULAN":"Q2 2024","TANGGAL UPDATE":"27/07/2025"}},{"type":"Feature","geometry":{"coordinates":[106.7342786,-6.4148325],"type":"Point"},"properties":{"fid":1805,"NAMA":"TRANSDEPOK HALTE PARUNG","TIPE_1":"TRANSPORTASI","TIPE_2":"HALTE","TIPE_3":"-","TELEPON":"","ALAMAT":"JL. RAYA PARUNG, CURUG, KEC. BOJONGSARI, KOTA DEPOK, JAWA BARAT 16517","ID_PROV":"32","PROVINSI":"JAWA BARAT","ID_KABKOT":"32.76","KABKOT":"KOTA DEPOK","ID_KEC":"32.76.11","KECAMATAN":"BOJONGSARI","ID_DESA":"32.76.11.1006","DESA":"DUREN MEKAR","LONGITUDE":106.7342786,"LATITUDE":-6.4148325,"STATUS":"BUKA","TANGGAL PENGUMPULAN":"Q2 2024","TANGGAL UPDATE":"27/07/2025"}},{"type":"Feature","geometry":{"coordinates":[106.7729061,-6.3948415],"type":"Point"},"properties":{"fid":1806,"NAMA":"TRANSDEPOK HALTE PARUNG BINGUNG GRAB","TIPE_1":"TRANSPORTASI","TIPE_2":"HALTE","TIPE_3":"-","TELEPON":"","ALAMAT":"JL. RAYA SAWANGAN NO.MOR 69, RT.05/RW.03, RANGKAPAN JAYA BARU, KEC. PANCORAN MAS, KOTA DEPOK, JAWA BARAT 16434","ID_PROV":"32","PROVINSI":"JAWA BARAT","ID_KABKOT":"32.76","KABKOT":"KOTA DEPOK","ID_KEC":"32.76.01","KECAMATAN":"PANCORAN MAS","ID_DESA":"32.76.01.1010","DESA":"RANGKAPAN JAYA BARU","LONGITUDE":106.7729061,"LATITUDE":-6.3948415,"STATUS":"BUKA","TANGGAL PENGUMPULAN":"Q2 2024","TANGGAL UPDATE":"27/07/2025"}},{"type":"Feature","geometry":{"coordinates":[106.8458125,-6.3927607],"type":"Point"},"properties":{"fid":1807,"NAMA":"TRANSDEPOK HALTE PASAR AGUNG","TIPE_1":"TRANSPORTASI","TIPE_2":"HALTE","TIPE_3":"-","TELEPON":"","ALAMAT":"JL. PROKLAMASI, ABADIJAYA, KEC. SUKMAJAYA, KOTA DEPOK, JAWA BARAT 16417","ID_PROV":"32","PROVINSI":"JAWA BARAT","ID_KABKOT":"32.76","KABKOT":"KOTA DEPOK","ID_KEC":"32.76.05","KECAMATAN":"SUKMAJAYA","ID_DESA":"32.76.05.1003","DESA":"ABADIJAYA","LONGITUDE":106.8458125,"LATITUDE":-6.3927607,"STATUS":"BUKA","TANGGAL PENGUMPULAN":"Q2 2024","TANGGAL UPDATE":"27/07/2025"}},{"type":"Feature","geometry":{"coordinates":[106.8592745,-6.3584249],"type":"Point"},"properties":{"fid":1808,"NAMA":"TRANSDEPOK HALTE PASAR PAL","TIPE_1":"TRANSPORTASI","TIPE_2":"HALTE","TIPE_3":"-","TELEPON":"","ALAMAT":"JL. RAYA BOGOR NO.32, RW.5, MEKARSARI, KEC. CIMANGGIS, KOTA DEPOK, JAWA BARAT 16452","ID_PROV":"32","PROVINSI":"JAWA BARAT","ID_KABKOT":"32.76","KABKOT":"KOTA DEPOK","ID_KEC":"32.76.02","KECAMATAN":"CIMANGGIS","ID_DESA":"32.76.02.1010","DESA":"MEKARSARI","LONGITUDE":106.8592745,"LATITUDE":-6.3584249,"STATUS":"BUKA","TANGGAL PENGUMPULAN":"Q2 2024","TANGGAL UPDATE":"27/07/2025"}},{"type":"Feature","geometry":{"coordinates":[106.7828138,-6.3334935],"type":"Point"},"properties":{"fid":1809,"NAMA":"TRANSDEPOK HALTE PASAR SEGAR CINERE","TIPE_1":"TRANSPORTASI","TIPE_2":"HALTE","TIPE_3":"-","TELEPON":"","ALAMAT":"MEGA, RW.1, CINERE, KEC. CINERE, KOTA DEPOK, JAWA BARAT","ID_PROV":"32","PROVINSI":"JAWA BARAT","ID_KABKOT":"32.76","KABKOT":"KOTA DEPOK","ID_KEC":"32.76.09","KECAMATAN":"CINERE","ID_DESA":"32.76.09.1001","DESA":"CINERE","LONGITUDE":106.7828138,"LATITUDE":-6.3334935,"STATUS":"BUKA","TANGGAL PENGUMPULAN":"Q2 2024","TANGGAL UPDATE":"27/07/2025"}},{"type":"Feature","geometry":{"coordinates":[106.8443444,-6.3799087],"type":"Point"},"properties":{"fid":1810,"NAMA":"TRANSDEPOK HALTE PESONA SQUARE","TIPE_1":"TRANSPORTASI","TIPE_2":"HALTE","TIPE_3":"-","TELEPON":"","ALAMAT":"JL. IR. H. JUANDA, BAKTI JAYA, KEC. SUKMAJAYA, KOTA DEPOK, JAWA BARAT 16418","ID_PROV":"32","PROVINSI":"JAWA BARAT","ID_KABKOT":"32.76","KABKOT":"KOTA DEPOK","ID_KEC":"32.76.05","KECAMATAN":"SUKMAJAYA","ID_DESA":"32.76.05.1005","DESA":"BAKTIJAYA","LONGITUDE":106.8443444,"LATITUDE":-6.3799087,"STATUS":"BUKA","TANGGAL PENGUMPULAN":"Q2 2024","TANGGAL UPDATE":"27/07/2025"}},{"type":"Feature","geometry":{"coordinates":[106.8077285,-6.4378492],"type":"Point"},"properties":{"fid":1811,"NAMA":"TRANSDEPOK HALTE PONDOK TERONG","TIPE_1":"TRANSPORTASI","TIPE_2":"HALTE","TIPE_3":"-","TELEPON":"","ALAMAT":"JL. RAYA CITAYAM, RATU JAYA, KEC. CIPAYUNG, KOTA DEPOK, JAWA BARAT 16436","ID_PROV":"32","PROVINSI":"JAWA BARAT","ID_KABKOT":"32.76","KABKOT":"KOTA DEPOK","ID_KEC":"32.76.07","KECAMATAN":"CIPAYUNG","ID_DESA":"32.76.07.1004","DESA":"BOJONG PONDOK TERONG","LONGITUDE":106.8077285,"LATITUDE":-6.4378492,"STATUS":"BUKA","TANGGAL PENGUMPULAN":"Q2 2024","TANGGAL UPDATE":"27/07/2025"}},{"type":"Feature","geometry":{"coordinates":[106.8512034,-6.3909112],"type":"Point"},"properties":{"fid":1812,"NAMA":"TRANSDEPOK HALTE PROKLAMASI","TIPE_1":"TRANSPORTASI","TIPE_2":"HALTE","TIPE_3":"-","TELEPON":"","ALAMAT":"JL. PROKLAMASI NO.24, ABADIJAYA, KEC. SUKMAJAYA, KOTA DEPOK, JAWA BARAT 16417","ID_PROV":"32","PROVINSI":"JAWA BARAT","ID_KABKOT":"32.76","KABKOT":"KOTA DEPOK","ID_KEC":"32.76.05","KECAMATAN":"SUKMAJAYA","ID_DESA":"32.76.05.1003","DESA":"ABADIJAYA","LONGITUDE":106.8512034,"LATITUDE":-6.3909112,"STATUS":"BUKA","TANGGAL PENGUMPULAN":"Q2 2024","TANGGAL UPDATE":"27/07/2025"}},{"type":"Feature","geometry":{"coordinates":[106.811887,-6.4255087],"type":"Point"},"properties":{"fid":1813,"NAMA":"TRANSDEPOK HALTE RATUJAYA","TIPE_1":"TRANSPORTASI","TIPE_2":"HALTE","TIPE_3":"-","TELEPON":"","ALAMAT":"GOR JL. RAYA CITAYAM NO.96, RATU JAYA, KEC. CIPAYUNG, KOTA DEPOK, JAWA BARAT 16431","ID_PROV":"32","PROVINSI":"JAWA BARAT","ID_KABKOT":"32.76","KABKOT":"KOTA DEPOK","ID_KEC":"32.76.07","KECAMATAN":"CIPAYUNG","ID_DESA":"32.76.07.1003","DESA":"RATU JAYA","LONGITUDE":106.811887,"LATITUDE":-6.4255087,"STATUS":"BUKA","TANGGAL PENGUMPULAN":"Q2 2024","TANGGAL UPDATE":"27/07/2025"}},{"type":"Feature","geometry":{"coordinates":[106.8065595,-6.3973573],"type":"Point"},"properties":{"fid":1814,"NAMA":"TRANSDEPOK HALTE RS BHAKTI YUDHA","TIPE_1":"TRANSPORTASI","TIPE_2":"HALTE","TIPE_3":"-","TELEPON":"","ALAMAT":"JL. RAYA SAWANGAN NO.10, MAMPANG, KEC. PANCORAN MAS, KOTA DEPOK, JAWA BARAT 16436","ID_PROV":"32","PROVINSI":"JAWA BARAT","ID_KABKOT":"32.76","KABKOT":"KOTA DEPOK","ID_KEC":"32.76.01","KECAMATAN":"PANCORAN MAS","ID_DESA":"32.76.01.1008","DESA":"PANCORAN MAS","LONGITUDE":106.8065595,"LATITUDE":-6.3973573,"STATUS":"BUKA","TANGGAL PENGUMPULAN":"Q2 2024","TANGGAL UPDATE":"27/07/2025"}},{"type":"Feature","geometry":{"coordinates":[106.7435493,-6.3934651],"type":"Point"},"properties":{"fid":1815,"NAMA":"TRANSDEPOK HALTE RSU BRAWIJAYA","TIPE_1":"TRANSPORTASI","TIPE_2":"HALTE","TIPE_3":"-","TELEPON":"","ALAMAT":"JL. RAYA BOJONGSARI NO.20, RW.1, BOJONGSARI BARU, KEC. BOJONGSARI, KOTA DEPOK, JAWA BARAT 16516","ID_PROV":"32","PROVINSI":"JAWA BARAT","ID_KABKOT":"32.76","KABKOT":"KOTA DEPOK","ID_KEC":"32.76.11","KECAMATAN":"BOJONGSARI","ID_DESA":"32.76.11.1002","DESA":"BOJONGSARI BARU","LONGITUDE":106.7435493,"LATITUDE":-6.3934651,"STATUS":"BUKA","TANGGAL PENGUMPULAN":"Q2 2024","TANGGAL UPDATE":"27/07/2025"}},{"type":"Feature","geometry":{"coordinates":[106.776174,-6.3517618],"type":"Point"},"properties":{"fid":1816,"NAMA":"TRANSDEPOK HALTE SAMSAT","TIPE_1":"TRANSPORTASI","TIPE_2":"HALTE","TIPE_3":"-","TELEPON":"","ALAMAT":"JL. CINERE RAYA NO.47-45, LIMO, KEC. LIMO, KOTA DEPOK, JAWA BARAT 16514","ID_PROV":"32","PROVINSI":"JAWA BARAT","ID_KABKOT":"32.76","KABKOT":"KOTA DEPOK","ID_KEC":"32.76.04","KECAMATAN":"LIMO","ID_DESA":"32.76.04.1004","DESA":"LIMO","LONGITUDE":106.776174,"LATITUDE":-6.3517618,"STATUS":"BUKA","TANGGAL PENGUMPULAN":"Q2 2024","TANGGAL UPDATE":"27/07/2025"}},{"type":"Feature","geometry":{"coordinates":[106.7710338,-6.4023936],"type":"Point"},"properties":{"fid":1817,"NAMA":"TRANSDEPOK HALTE SAWANGAN PERMAI","TIPE_1":"TRANSPORTASI","TIPE_2":"HALTE","TIPE_3":"-","TELEPON":"","ALAMAT":"JL. RAYA MUCHTAR NO.8, SAWANGAN BARU, KEC. SAWANGAN, KOTA DEPOK, JAWA BARAT 16511","ID_PROV":"32","PROVINSI":"JAWA BARAT","ID_KABKOT":"32.76","KABKOT":"KOTA DEPOK","ID_KEC":"32.76.03","KECAMATAN":"SAWANGAN","ID_DESA":"32.76.03.1011","DESA":"SAWANGAN BARU","LONGITUDE":106.7710338,"LATITUDE":-6.4023936,"STATUS":"BUKA","TANGGAL PENGUMPULAN":"Q2 2024","TANGGAL UPDATE":"27/07/2025"}},{"type":"Feature","geometry":{"coordinates":[106.8265502,-6.4004267],"type":"Point"},"properties":{"fid":1818,"NAMA":"TRANSDEPOK HALTE SILIWANGI","TIPE_1":"TRANSPORTASI","TIPE_2":"HALTE","TIPE_3":"-","TELEPON":"","ALAMAT":"JL. SILIWANGI NO.55, DEPOK, KEC. PANCORAN MAS, KOTA DEPOK, JAWA BARAT 16431","ID_PROV":"32","PROVINSI":"JAWA BARAT","ID_KABKOT":"32.76","KABKOT":"KOTA DEPOK","ID_KEC":"32.76.01","KECAMATAN":"PANCORAN MAS","ID_DESA":"32.76.01.1006","DESA":"DEPOK","LONGITUDE":106.8265502,"LATITUDE":-6.4004267,"STATUS":"BUKA","TANGGAL PENGUMPULAN":"Q2 2024","TANGGAL UPDATE":"27/07/2025"}},{"type":"Feature","geometry":{"coordinates":[106.8620231,-6.4082092],"type":"Point"},"properties":{"fid":1819,"NAMA":"TRANSDEPOK HALTE SIMPANG DEPOK","TIPE_1":"TRANSPORTASI","TIPE_2":"HALTE","TIPE_3":"-","TELEPON":"","ALAMAT":"JL. RAYA JAKARTA-BOGOR, JATIJAJAR, KEC. TAPOS, KOTA DEPOK, JAWA BARAT 16415","ID_PROV":"32","PROVINSI":"JAWA BARAT","ID_KABKOT":"32.76","KABKOT":"KOTA DEPOK","ID_KEC":"32.76.10","KECAMATAN":"TAPOS","ID_DESA":"32.76.10.1004","DESA":"SUKAMAJU BARU","LONGITUDE":106.8620231,"LATITUDE":-6.4082092,"STATUS":"BUKA","TANGGAL PENGUMPULAN":"Q2 2024","TANGGAL UPDATE":"27/07/2025"}},{"type":"Feature","geometry":{"coordinates":[106.7734767,-6.370677],"type":"Point"},"properties":{"fid":1820,"NAMA":"TRANSDEPOK HALTE SMAN 6","TIPE_1":"TRANSPORTASI","TIPE_2":"HALTE","TIPE_3":"-","TELEPON":"","ALAMAT":"JL. LIMO RAYA NO.8-34, MERUYUNG, KEC. LIMO, KOTA DEPOK, JAWA BARAT 16514","ID_PROV":"32","PROVINSI":"JAWA BARAT","ID_KABKOT":"32.76","KABKOT":"KOTA DEPOK","ID_KEC":"32.76.04","KECAMATAN":"LIMO","ID_DESA":"32.76.04.1001","DESA":"MERUYUNG","LONGITUDE":106.7734767,"LATITUDE":-6.370677,"STATUS":"BUKA","TANGGAL PENGUMPULAN":"Q2 2024","TANGGAL UPDATE":"27/07/2025"}},{"type":"Feature","geometry":{"coordinates":[106.7462969,-6.3850966],"type":"Point"},"properties":{"fid":1821,"NAMA":"TRANSDEPOK HALTE SPBU","TIPE_1":"TRANSPORTASI","TIPE_2":"HALTE","TIPE_3":"-","TELEPON":"","ALAMAT":"JL. RAYA PARUNG - CIPUTAT, RT.1/RW.8, BOJONGSARI BARU, KEC. BOJONGSARI, KOTA DEPOK, JAWA BARAT 16516","ID_PROV":"32","PROVINSI":"JAWA BARAT","ID_KABKOT":"32.76","KABKOT":"KOTA DEPOK","ID_KEC":"32.76.11","KECAMATAN":"BOJONGSARI","ID_DESA":"32.76.11.1002","DESA":"BOJONGSARI BARU","LONGITUDE":106.7462969,"LATITUDE":-6.3850966,"STATUS":"BUKA","TANGGAL PENGUMPULAN":"Q2 2024","TANGGAL UPDATE":"27/07/2025"}},{"type":"Feature","geometry":{"coordinates":[106.82248,-6.3910274],"type":"Point"},"properties":{"fid":1822,"NAMA":"TRANSDEPOK HALTE TERMINAL GEDORAN DEPOK","TIPE_1":"TRANSPORTASI","TIPE_2":"HALTE","TIPE_3":"-","TELEPON":"","ALAMAT":"TERMINAL JL. GEDORAN DEPOK, DEPOK, KEC. PANCORAN MAS, KOTA DEPOK, JAWA BARAT 16431","ID_PROV":"32","PROVINSI":"JAWA BARAT","ID_KABKOT":"32.76","KABKOT":"KOTA DEPOK","ID_KEC":"32.76.01","KECAMATAN":"PANCORAN MAS","ID_DESA":"32.76.01.1006","DESA":"DEPOK","LONGITUDE":106.82248,"LATITUDE":-6.3910274,"STATUS":"BUKA","TANGGAL PENGUMPULAN":"Q2 2024","TANGGAL UPDATE":"27/07/2025"}},{"type":"Feature","geometry":{"coordinates":[106.7455955,-6.3763361],"type":"Point"},"properties":{"fid":1823,"NAMA":"TRANSDEPOK HALTE THE PARK","TIPE_1":"TRANSPORTASI","TIPE_2":"HALTE","TIPE_3":"-","TELEPON":"","ALAMAT":"JL. RAYA PARUNG - CIPUTAT NO.20, KEDAUNG, KEC. SAWANGAN, KOTA DEPOK, JAWA BARAT 16516","ID_PROV":"32","PROVINSI":"JAWA BARAT","ID_KABKOT":"32.76","KABKOT":"KOTA DEPOK","ID_KEC":"32.76.11","KECAMATAN":"BOJONGSARI","ID_DESA":"32.76.11.1003","DESA":"SERUA","LONGITUDE":106.7455955,"LATITUDE":-6.3763361,"STATUS":"BUKA","TANGGAL PENGUMPULAN":"Q2 2024","TANGGAL UPDATE":"27/07/2025"}},{"type":"Feature","geometry":{"coordinates":[106.8165882,-6.399693],"type":"Point"},"properties":{"fid":1824,"NAMA":"TRANSDEPOK HALTE TRANSMART","TIPE_1":"TRANSPORTASI","TIPE_2":"HALTE","TIPE_3":"-","TELEPON":"","ALAMAT":"JL. RTM, DEPOK, KEC. CIMANGGIS, KOTA DEPOK, JAWA BARAT 16451","ID_PROV":"32","PROVINSI":"JAWA BARAT","ID_KABKOT":"32.76","KABKOT":"KOTA DEPOK","ID_KEC":"32.76.01","KECAMATAN":"PANCORAN MAS","ID_DESA":"32.76.01.1006","DESA":"DEPOK","LONGITUDE":106.8165882,"LATITUDE":-6.399693,"STATUS":"BUKA","TANGGAL PENGUMPULAN":"Q2 2024","TANGGAL UPDATE":"27/07/2025"}},{"type":"Feature","geometry":{"coordinates":[106.8674663,-6.385814],"type":"Point"},"properties":{"fid":1825,"NAMA":"TRANSDEPOK HALTE UIII","TIPE_1":"TRANSPORTASI","TIPE_2":"HALTE","TIPE_3":"-","TELEPON":"","ALAMAT":"CURUG, KEC. CIMANGGIS, KOTA DEPOK, JAWA BARAT","ID_PROV":"32","PROVINSI":"JAWA BARAT","ID_KABKOT":"32.76","KABKOT":"KOTA DEPOK","ID_KEC":"32.76.02","KECAMATAN":"CIMANGGIS","ID_DESA":"32.76.02.1008","DESA":"CURUG","LONGITUDE":106.8674663,"LATITUDE":-6.385814,"STATUS":"BUKA","TANGGAL PENGUMPULAN":"Q2 2024","TANGGAL UPDATE":"27/07/2025"}},{"type":"Feature","geometry":{"coordinates":[106.8340812,-6.3682382],"type":"Point"},"properties":{"fid":1826,"NAMA":"TRANSDEPOK HALTE UNIVERSITAS GUNADARMA","TIPE_1":"TRANSPORTASI","TIPE_2":"HALTE","TIPE_3":"-","TELEPON":"","ALAMAT":"JL. MARGONDA NO.433, PONDOK CINA, KECAMATAN BEJI, KOTA DEPOK, JAWA BARAT 16454","ID_PROV":"32","PROVINSI":"JAWA BARAT","ID_KABKOT":"32.76","KABKOT":"KOTA DEPOK","ID_KEC":"32.76.06","KECAMATAN":"BEJI","ID_DESA":"32.76.06.1005","DESA":"PONDOK CINA","LONGITUDE":106.8340812,"LATITUDE":-6.3682382,"STATUS":"BUKA","TANGGAL PENGUMPULAN":"Q2 2024","TANGGAL UPDATE":"27/07/2025"}}]}