{"type":"FeatureCollection","features":[{"type":"Feature","geometry":{"coordinates":[107.0207255,-6.2583113],"type":"Point"},"properties":{"fid":1191,"NAMA":"BTC 1","TIPE_1":"TRANSPORTASI","TIPE_2":"HALTE","TIPE_3":"-","TELEPON":"","ALAMAT":"MARGAHAYU, KEC. BEKASI TIM., KOTA BKS, JAWA BARAT","ID_PROV":"32","PROVINSI":"JAWA BARAT","ID_KABKOT":"32.75","KABKOT":"KOTA BEKASI","ID_KEC":"32.75.01","KECAMATAN":"BEKASI TIMUR","ID_DESA":"32.75.01.1002","DESA":"MARGAHAYU","LONGITUDE":107.0207255,"LATITUDE":-6.2583113,"STATUS":"BUKA","TANGGAL PENGUMPULAN":"Q2 2024","TANGGAL UPDATE":"27/07/2025"}},{"type":"Feature","geometry":{"coordinates":[107.02398,-6.2507],"type":"Point"},"properties":{"fid":1194,"NAMA":"BULAK KAPAL 3","TIPE_1":"TRANSPORTASI","TIPE_2":"HALTE","TIPE_3":"-","TELEPON":"","ALAMAT":"MARGAHAYU, KEC. BEKASI TIM., KOTA BKS, JAWA BARAT","ID_PROV":"32","PROVINSI":"JAWA BARAT","ID_KABKOT":"32.75","KABKOT":"KOTA BEKASI","ID_KEC":"32.75.01","KECAMATAN":"BEKASI TIMUR","ID_DESA":"32.75.01.1002","DESA":"MARGAHAYU","LONGITUDE":107.02398,"LATITUDE":-6.2507,"STATUS":"BUKA","TANGGAL PENGUMPULAN":"Q2 2024","TANGGAL UPDATE":"27/07/2025"}},{"type":"Feature","geometry":{"coordinates":[107.02366,-6.25112],"type":"Point"},"properties":{"fid":1195,"NAMA":"BULAK KAPAL 4","TIPE_1":"TRANSPORTASI","TIPE_2":"HALTE","TIPE_3":"-","TELEPON":"","ALAMAT":"MARGAHAYU, KEC. BEKASI TIM., KOTA BKS, JAWA BARAT","ID_PROV":"32","PROVINSI":"JAWA BARAT","ID_KABKOT":"32.75","KABKOT":"KOTA BEKASI","ID_KEC":"32.75.01","KECAMATAN":"BEKASI TIMUR","ID_DESA":"32.75.01.1002","DESA":"MARGAHAYU","LONGITUDE":107.02366,"LATITUDE":-6.25112,"STATUS":"BUKA","TANGGAL PENGUMPULAN":"Q2 2024","TANGGAL UPDATE":"27/07/2025"}},{"type":"Feature","geometry":{"coordinates":[106.9443338,-6.2568224],"type":"Point"},"properties":{"fid":1196,"NAMA":"BUS STOP","TIPE_1":"TRANSPORTASI","TIPE_2":"HALTE","TIPE_3":"-","TELEPON":"","ALAMAT":"JL. KP. JATI BENING NO.33 6, RW.16, JATIBENING, KEC. PD. GEDE, KOTA BKS, JAWA BARAT 17412","ID_PROV":"32","PROVINSI":"JAWA BARAT","ID_KABKOT":"32.75","KABKOT":"KOTA BEKASI","ID_KEC":"32.75.08","KECAMATAN":"PONDOKGEDE","ID_DESA":"32.75.08.1002","DESA":"JATIBENING","LONGITUDE":106.9443338,"LATITUDE":-6.2568224,"STATUS":"BUKA","TANGGAL PENGUMPULAN":"Q2 2024","TANGGAL UPDATE":"27/07/2025"}},{"type":"Feature","geometry":{"coordinates":[106.9733983,-6.1935366],"type":"Point"},"properties":{"fid":1215,"NAMA":"GERBANG HARAPAN INDAH","TIPE_1":"TRANSPORTASI","TIPE_2":"HALTE","TIPE_3":"-","TELEPON":"","ALAMAT":"JL. RAYA BEKASI, MEDAN SATRIA, KECAMATAN MEDAN SATRIA, KOTA BKS, JAWA BARAT 17132","ID_PROV":"32","PROVINSI":"JAWA BARAT","ID_KABKOT":"32.75","KABKOT":"KOTA BEKASI","ID_KEC":"32.75.06","KECAMATAN":"MEDANSATRIA","ID_DESA":"32.75.06.1001","DESA":"MEDANSATRIA","LONGITUDE":106.9733983,"LATITUDE":-6.1935366,"STATUS":"BUKA","TANGGAL PENGUMPULAN":"Q2 2024","TANGGAL UPDATE":"27/07/2025"}},{"type":"Feature","geometry":{"coordinates":[106.98401,-6.22926],"type":"Point"},"properties":{"fid":1216,"NAMA":"GRAND MALL BEKASI BARAT","TIPE_1":"TRANSPORTASI","TIPE_2":"HALTE","TIPE_3":"-","TELEPON":"","ALAMAT":"KAYURINGIN JAYA, KEC. BEKASI SEL., KOTA BKS, JAWA BARAT","ID_PROV":"32","PROVINSI":"JAWA BARAT","ID_KABKOT":"32.75","KABKOT":"KOTA BEKASI","ID_KEC":"32.75.04","KECAMATAN":"BEKASI SELATAN","ID_DESA":"32.75.04.1005","DESA":"KAYURINGINJAYA","LONGITUDE":106.98401,"LATITUDE":-6.22926,"STATUS":"BUKA","TANGGAL PENGUMPULAN":"Q2 2024","TANGGAL UPDATE":"27/07/2025"}},{"type":"Feature","geometry":{"coordinates":[106.9487488,-6.3196551],"type":"Point"},"properties":{"fid":1240,"NAMA":"HALTE ANGKOT MASJID NURUL A'LA","TIPE_1":"TRANSPORTASI","TIPE_2":"HALTE","TIPE_3":"-","TELEPON":"","ALAMAT":"JL. WIBAWA MUKTI II NO.6, RT.007/RW.002, JATILUHUR, KEC. JATIASIH, KOTA BKS, JAWA BARAT 17425","ID_PROV":"32","PROVINSI":"JAWA BARAT","ID_KABKOT":"32.75","KABKOT":"KOTA BEKASI","ID_KEC":"32.75.09","KECAMATAN":"JATIASIH","ID_DESA":"32.75.09.1005","DESA":"JATILUHUR","LONGITUDE":106.9487488,"LATITUDE":-6.3196551,"STATUS":"BUKA","TANGGAL PENGUMPULAN":"Q2 2024","TANGGAL UPDATE":"27/07/2025"}},{"type":"Feature","geometry":{"coordinates":[107.0029573,-6.225685],"type":"Point"},"properties":{"fid":1259,"NAMA":"HALTE BISKITA TRANS BEKASI PATRIOT SUMMARECON BEKASI","TIPE_1":"TRANSPORTASI","TIPE_2":"HALTE","TIPE_3":"-","TELEPON":"","ALAMAT":"JL. BULEVAR TIM., MARGA MULYA, BEKASI UTARA, BEKASI, WEST JAVA 17142","ID_PROV":"32","PROVINSI":"JAWA BARAT","ID_KABKOT":"32.75","KABKOT":"KOTA BEKASI","ID_KEC":"32.75.03","KECAMATAN":"BEKASI UTARA","ID_DESA":"32.75.03.1005","DESA":"MARGAMULYA","LONGITUDE":107.0029573,"LATITUDE":-6.225685,"STATUS":"BUKA","TANGGAL PENGUMPULAN":"Q2 2024","TANGGAL UPDATE":"27/07/2025"}},{"type":"Feature","geometry":{"coordinates":[106.9916912,-6.3142022],"type":"Point"},"properties":{"fid":1260,"NAMA":"HALTE BISKITA TRANS PATRIOT VIDA 2","TIPE_1":"TRANSPORTASI","TIPE_2":"HALTE","TIPE_3":"-","TELEPON":"","ALAMAT":"RT.002/RW.009, BANTARGEBANG, KEC. BANTAR GEBANG, KOTA BKS, JAWA BARAT 17151","ID_PROV":"32","PROVINSI":"JAWA BARAT","ID_KABKOT":"32.75","KABKOT":"KOTA BEKASI","ID_KEC":"32.75.07","KECAMATAN":"BANTARGEBANG","ID_DESA":"32.75.07.1003","DESA":"BANTARGEBANG","LONGITUDE":106.9916912,"LATITUDE":-6.3142022,"STATUS":"BUKA","TANGGAL PENGUMPULAN":"Q2 2024","TANGGAL UPDATE":"27/07/2025"}},{"type":"Feature","geometry":{"coordinates":[107.0084825,-6.2568653],"type":"Point"},"properties":{"fid":1262,"NAMA":"HALTE BLUPLAZA","TIPE_1":"TRANSPORTASI","TIPE_2":"HALTE","TIPE_3":"-","TELEPON":"","ALAMAT":"JL. CHAIRIL ANWAR, RT.004/RW.009, MARGAHAYU, KEC. BEKASI TIM., KOTA BKS, JAWA BARAT 17113","ID_PROV":"32","PROVINSI":"JAWA BARAT","ID_KABKOT":"32.75","KABKOT":"KOTA BEKASI","ID_KEC":"32.75.01","KECAMATAN":"BEKASI TIMUR","ID_DESA":"32.75.01.1002","DESA":"MARGAHAYU","LONGITUDE":107.0084825,"LATITUDE":-6.2568653,"STATUS":"BUKA","TANGGAL PENGUMPULAN":"Q2 2024","TANGGAL UPDATE":"27/07/2025"}},{"type":"Feature","geometry":{"coordinates":[107.0197732,-6.2594989],"type":"Point"},"properties":{"fid":1269,"NAMA":"HALTE BTC","TIPE_1":"TRANSPORTASI","TIPE_2":"HALTE","TIPE_3":"-","TELEPON":"","ALAMAT":"JL. HM. JOYO MARTONO NO.47, RT.003/RW.021, MARGAHAYU, KEC. BEKASI TIM., KOTA BKS, JAWA BARAT 17113","ID_PROV":"32","PROVINSI":"JAWA BARAT","ID_KABKOT":"32.75","KABKOT":"KOTA BEKASI","ID_KEC":"32.75.01","KECAMATAN":"BEKASI TIMUR","ID_DESA":"32.75.01.1002","DESA":"MARGAHAYU","LONGITUDE":107.0197732,"LATITUDE":-6.2594989,"STATUS":"BUKA","TANGGAL PENGUMPULAN":"Q2 2024","TANGGAL UPDATE":"27/07/2025"}},{"type":"Feature","geometry":{"coordinates":[107.0248994,-6.249704],"type":"Point"},"properties":{"fid":1272,"NAMA":"HALTE BULAK KAPAL","TIPE_1":"TRANSPORTASI","TIPE_2":"HALTE","TIPE_3":"-","TELEPON":"","ALAMAT":"JL. INSINYUR H. JUANDA, AREN JAYA, KEC. BEKASI TIM., KOTA BKS, JAWA BARAT 17111","ID_PROV":"32","PROVINSI":"JAWA BARAT","ID_KABKOT":"32.75","KABKOT":"KOTA BEKASI","ID_KEC":"32.75.01","KECAMATAN":"BEKASI TIMUR","ID_DESA":"32.75.01.1004","DESA":"ARENJAYA","LONGITUDE":107.0248994,"LATITUDE":-6.249704,"STATUS":"BUKA","TANGGAL PENGUMPULAN":"Q2 2024","TANGGAL UPDATE":"27/07/2025"}},{"type":"Feature","geometry":{"coordinates":[107.0245523,-6.2500004],"type":"Point"},"properties":{"fid":1273,"NAMA":"HALTE BULAK KAPAL 1","TIPE_1":"TRANSPORTASI","TIPE_2":"HALTE","TIPE_3":"-","TELEPON":"","ALAMAT":"JL. INSINYUR H. JUANDA, RT.001/RW.021, MARGAHAYU, KEC. BEKASI TIM., KOTA BKS, JAWA BARAT 17113","ID_PROV":"32","PROVINSI":"JAWA BARAT","ID_KABKOT":"32.75","KABKOT":"KOTA BEKASI","ID_KEC":"32.75.01","KECAMATAN":"BEKASI TIMUR","ID_DESA":"32.75.01.1002","DESA":"MARGAHAYU","LONGITUDE":107.0245523,"LATITUDE":-6.2500004,"STATUS":"BUKA","TANGGAL PENGUMPULAN":"Q2 2024","TANGGAL UPDATE":"27/07/2025"}},{"type":"Feature","geometry":{"coordinates":[107.0014037,-6.237976],"type":"Point"},"properties":{"fid":1274,"NAMA":"HALTE BULAN BULAN","TIPE_1":"TRANSPORTASI","TIPE_2":"HALTE","TIPE_3":"-","TELEPON":"","ALAMAT":"JL. INSINYUR H. JUANDA, MARGA MULYA, KEC. BEKASI SEL., KABUPATEN BEKASI, JAWA BARAT 17141","ID_PROV":"32","PROVINSI":"JAWA BARAT","ID_KABKOT":"32.75","KABKOT":"KOTA BEKASI","ID_KEC":"32.75.03","KECAMATAN":"BEKASI UTARA","ID_DESA":"32.75.03.1005","DESA":"MARGAMULYA","LONGITUDE":107.0014037,"LATITUDE":-6.237976,"STATUS":"BUKA","TANGGAL PENGUMPULAN":"Q2 2024","TANGGAL UPDATE":"27/07/2025"}},{"type":"Feature","geometry":{"coordinates":[106.9102241,-6.2591193],"type":"Point"},"properties":{"fid":1289,"NAMA":"HALTE BUS PENGUMPAN","TIPE_1":"TRANSPORTASI","TIPE_2":"HALTE","TIPE_3":"-","TELEPON":"","ALAMAT":"RT.001/RW.005, JATICEMPAKA, KEC. PD. GEDE, KOTA BKS, JAWA BARAT 13620","ID_PROV":"32","PROVINSI":"JAWA BARAT","ID_KABKOT":"32.75","KABKOT":"KOTA BEKASI","ID_KEC":"32.75.08","KECAMATAN":"PONDOKGEDE","ID_DESA":"32.75.08.1007","DESA":"JATICEMPAKA","LONGITUDE":106.9102241,"LATITUDE":-6.2591193,"STATUS":"BUKA","TANGGAL PENGUMPULAN":"Q2 2024","TANGGAL UPDATE":"27/07/2025"}},{"type":"Feature","geometry":{"coordinates":[107.0136208,-6.2501027],"type":"Point"},"properties":{"fid":1292,"NAMA":"HALTE BUS SUKABUMI","TIPE_1":"TRANSPORTASI","TIPE_2":"HALTE","TIPE_3":"-","TELEPON":"","ALAMAT":"RT.001/RW.009, MARGAHAYU, KEC. BEKASI TIM., KOTA BKS, JAWA BARAT 17113","ID_PROV":"32","PROVINSI":"JAWA BARAT","ID_KABKOT":"32.75","KABKOT":"KOTA BEKASI","ID_KEC":"32.75.01","KECAMATAN":"BEKASI TIMUR","ID_DESA":"32.75.01.1002","DESA":"MARGAHAYU","LONGITUDE":107.0136208,"LATITUDE":-6.2501027,"STATUS":"BUKA","TANGGAL PENGUMPULAN":"Q2 2024","TANGGAL UPDATE":"27/07/2025"}},{"type":"Feature","geometry":{"coordinates":[106.97694,-6.1831869],"type":"Point"},"properties":{"fid":1293,"NAMA":"HALTE BUS TANAH APIT","TIPE_1":"TRANSPORTASI","TIPE_2":"HALTE","TIPE_3":"-","TELEPON":"","ALAMAT":"JL. TANAH APIT, RT.004/RW.030, MEDAN SATRIA, KECAMATAN MEDAN SATRIA, KOTA BKS, JAWA BARAT 17132","ID_PROV":"32","PROVINSI":"JAWA BARAT","ID_KABKOT":"32.75","KABKOT":"KOTA BEKASI","ID_KEC":"32.75.06","KECAMATAN":"MEDANSATRIA","ID_DESA":"32.75.06.1001","DESA":"MEDANSATRIA","LONGITUDE":106.97694,"LATITUDE":-6.1831869,"STATUS":"BUKA","TANGGAL PENGUMPULAN":"Q2 2024","TANGGAL UPDATE":"27/07/2025"}},{"type":"Feature","geometry":{"coordinates":[106.9772522,-6.1849171],"type":"Point"},"properties":{"fid":1295,"NAMA":"HALTE BUS TRANS PATRIOT","TIPE_1":"TRANSPORTASI","TIPE_2":"HALTE","TIPE_3":"-","TELEPON":"","ALAMAT":"KOMPLEK ACHAN, JL. HARAPAN INDAH RAYA,NO 9 MEDAN SATRIA, RT.004/RW.030, PEJUANG, KECAMATAN MEDAN SATRIA, KOTA BKS, JAWA BARAT 17131","ID_PROV":"32","PROVINSI":"JAWA BARAT","ID_KABKOT":"32.75","KABKOT":"KOTA BEKASI","ID_KEC":"32.75.06","KECAMATAN":"MEDANSATRIA","ID_DESA":"32.75.06.1003","DESA":"PEJUANG","LONGITUDE":106.9772522,"LATITUDE":-6.1849171,"STATUS":"BUKA","TANGGAL PENGUMPULAN":"Q2 2024","TANGGAL UPDATE":"27/07/2025"}},{"type":"Feature","geometry":{"coordinates":[107.0205452,-6.2582445],"type":"Point"},"properties":{"fid":1299,"NAMA":"HALTE BUSWAY BTC","TIPE_1":"TRANSPORTASI","TIPE_2":"HALTE","TIPE_3":"-","TELEPON":"","ALAMAT":"RT.003/RW.021, MARGAHAYU, KEC. BEKASI TIM., KOTA BKS, JAWA BARAT 17113","ID_PROV":"32","PROVINSI":"JAWA BARAT","ID_KABKOT":"32.75","KABKOT":"KOTA BEKASI","ID_KEC":"32.75.01","KECAMATAN":"BEKASI TIMUR","ID_DESA":"32.75.01.1002","DESA":"MARGAHAYU","LONGITUDE":107.0205452,"LATITUDE":-6.2582445,"STATUS":"BUKA","TANGGAL PENGUMPULAN":"Q2 2024","TANGGAL UPDATE":"27/07/2025"}},{"type":"Feature","geometry":{"coordinates":[107.021913,-6.255175],"type":"Point"},"properties":{"fid":1300,"NAMA":"HALTE BUSWAY BULAK KAPAL","TIPE_1":"TRANSPORTASI","TIPE_2":"HALTE","TIPE_3":"-","TELEPON":"","ALAMAT":"JL. HM JOYOMARTONO, RT.002/RW.021, MARGAHAYU, KEC. BEKASI TIM., KOTA BKS, JAWA BARAT 17113","ID_PROV":"32","PROVINSI":"JAWA BARAT","ID_KABKOT":"32.75","KABKOT":"KOTA BEKASI","ID_KEC":"32.75.01","KECAMATAN":"BEKASI TIMUR","ID_DESA":"32.75.01.1002","DESA":"MARGAHAYU","LONGITUDE":107.021913,"LATITUDE":-6.255175,"STATUS":"BUKA","TANGGAL PENGUMPULAN":"Q2 2024","TANGGAL UPDATE":"27/07/2025"}},{"type":"Feature","geometry":{"coordinates":[106.9422353,-6.2577922],"type":"Point"},"properties":{"fid":1301,"NAMA":"HALTE BUSWAY JATIBENING","TIPE_1":"TRANSPORTASI","TIPE_2":"HALTE","TIPE_3":"-","TELEPON":"","ALAMAT":"BEKASI, RT.001/RW.003, JATIBENING, KEC. PD. GEDE, KOTA BKS, JAWA BARAT 17412","ID_PROV":"32","PROVINSI":"JAWA BARAT","ID_KABKOT":"32.75","KABKOT":"KOTA BEKASI","ID_KEC":"32.75.08","KECAMATAN":"PONDOKGEDE","ID_DESA":"32.75.08.1002","DESA":"JATIBENING","LONGITUDE":106.9422353,"LATITUDE":-6.2577922,"STATUS":"BUKA","TANGGAL PENGUMPULAN":"Q2 2024","TANGGAL UPDATE":"27/07/2025"}},{"type":"Feature","geometry":{"coordinates":[107.0025702,-6.2252269],"type":"Point"},"properties":{"fid":1302,"NAMA":"HALTE BUSWAY SUMMARECON","TIPE_1":"TRANSPORTASI","TIPE_2":"HALTE","TIPE_3":"-","TELEPON":"","ALAMAT":"JALAN BULEVAR TIMUR BLOK VB 01 AXC SUMMARECON BEKASI, RT.006/RW.002, MARGA MULYA, KEC. BEKASI UTARA, KOTA BKS, JAWA BARAT 17143","ID_PROV":"32","PROVINSI":"JAWA BARAT","ID_KABKOT":"32.75","KABKOT":"KOTA BEKASI","ID_KEC":"32.75.03","KECAMATAN":"BEKASI UTARA","ID_DESA":"32.75.03.1005","DESA":"MARGAMULYA","LONGITUDE":107.0025702,"LATITUDE":-6.2252269,"STATUS":"BUKA","TANGGAL PENGUMPULAN":"Q2 2024","TANGGAL UPDATE":"27/07/2025"}},{"type":"Feature","geometry":{"coordinates":[107.0067266,-6.254887],"type":"Point"},"properties":{"fid":1322,"NAMA":"HALTE CUT MUTIA 1","TIPE_1":"TRANSPORTASI","TIPE_2":"HALTE","TIPE_3":"-","TELEPON":"","ALAMAT":"MARGAHAYU, KEC. BEKASI TIM., KOTA BKS, JAWA BARAT 17113","ID_PROV":"32","PROVINSI":"JAWA BARAT","ID_KABKOT":"32.75","KABKOT":"KOTA BEKASI","ID_KEC":"32.75.01","KECAMATAN":"BEKASI TIMUR","ID_DESA":"32.75.01.1002","DESA":"MARGAHAYU","LONGITUDE":107.0067266,"LATITUDE":-6.254887,"STATUS":"BUKA","TANGGAL PENGUMPULAN":"Q2 2024","TANGGAL UPDATE":"27/07/2025"}},{"type":"Feature","geometry":{"coordinates":[107.0238328,-6.2513875],"type":"Point"},"properties":{"fid":1335,"NAMA":"HALTE DEPSOS","TIPE_1":"TRANSPORTASI","TIPE_2":"HALTE","TIPE_3":"-","TELEPON":"","ALAMAT":"RT.009/RW.013, MARGAHAYU, KEC. BEKASI TIM., KOTA BKS, JAWA BARAT 17113","ID_PROV":"32","PROVINSI":"JAWA BARAT","ID_KABKOT":"32.75","KABKOT":"KOTA BEKASI","ID_KEC":"32.75.01","KECAMATAN":"BEKASI TIMUR","ID_DESA":"32.75.01.1002","DESA":"MARGAHAYU","LONGITUDE":107.0238328,"LATITUDE":-6.2513875,"STATUS":"BUKA","TANGGAL PENGUMPULAN":"Q2 2024","TANGGAL UPDATE":"27/07/2025"}},{"type":"Feature","geometry":{"coordinates":[107.027747,-6.308182],"type":"Point"},"properties":{"fid":1339,"NAMA":"HALTE DRIVER SULTAN ZAMRUD","TIPE_1":"TRANSPORTASI","TIPE_2":"HALTE","TIPE_3":"-","TELEPON":"","ALAMAT":"JL. ZAMRUD UTARA NO.121, RT.001/RW.011, CIMUNING, KEC. MUSTIKA JAYA, KOTA BKS, JAWA BARAT 17165","ID_PROV":"32","PROVINSI":"JAWA BARAT","ID_KABKOT":"32.75","KABKOT":"KOTA BEKASI","ID_KEC":"32.75.11","KECAMATAN":"MUSTIKAJAYA","ID_DESA":"32.75.11.1002","DESA":"CIMUNING","LONGITUDE":107.027747,"LATITUDE":-6.308182,"STATUS":"BUKA","TANGGAL PENGUMPULAN":"Q2 2024","TANGGAL UPDATE":"27/07/2025"}},{"type":"Feature","geometry":{"coordinates":[106.9930423,-6.2429482],"type":"Point"},"properties":{"fid":1374,"NAMA":"HALTE KAYURINGIN 5","TIPE_1":"TRANSPORTASI","TIPE_2":"HALTE","TIPE_3":"-","TELEPON":"","ALAMAT":"JL. AHMAD YANI NO.C NO.02, RT.005/RW.002, MARGA JAYA, KEC. BEKASI SEL., KOTA BKS, JAWA BARAT 17141","ID_PROV":"32","PROVINSI":"JAWA BARAT","ID_KABKOT":"32.75","KABKOT":"KOTA BEKASI","ID_KEC":"32.75.04","KECAMATAN":"BEKASI SELATAN","ID_DESA":"32.75.04.1002","DESA":"MARGAJAYA","LONGITUDE":106.9930423,"LATITUDE":-6.2429482,"STATUS":"BUKA","TANGGAL PENGUMPULAN":"Q2 2024","TANGGAL UPDATE":"27/07/2025"}},{"type":"Feature","geometry":{"coordinates":[106.9949534,-6.2678551],"type":"Point"},"properties":{"fid":1378,"NAMA":"HALTE KEMANG 3","TIPE_1":"TRANSPORTASI","TIPE_2":"HALTE","TIPE_3":"-","TELEPON":"","ALAMAT":"JL. RAYA SILIWANGI NO.89, RT.003/RW.003, SEPANJANG JAYA, RAWA LUMBU, BEKASI, WEST JAVA 17114","ID_PROV":"32","PROVINSI":"JAWA BARAT","ID_KABKOT":"32.75","KABKOT":"KOTA BEKASI","ID_KEC":"32.75.05","KECAMATAN":"RAWALUMBU","ID_DESA":"32.75.05.1003","DESA":"SEPANJANGJAYA","LONGITUDE":106.9949534,"LATITUDE":-6.2678551,"STATUS":"BUKA","TANGGAL PENGUMPULAN":"Q2 2024","TANGGAL UPDATE":"27/07/2025"}},{"type":"Feature","geometry":{"coordinates":[106.97324,-6.19415],"type":"Point"},"properties":{"fid":1382,"NAMA":"HALTE KOTA HARAPAN INDAH","TIPE_1":"TRANSPORTASI","TIPE_2":"HALTE","TIPE_3":"-","TELEPON":"","ALAMAT":"MEDAN SATRIA, KECAMATAN MEDAN SATRIA, KOTA BKS, JAWA BARAT","ID_PROV":"32","PROVINSI":"JAWA BARAT","ID_KABKOT":"32.75","KABKOT":"KOTA BEKASI","ID_KEC":"32.75.06","KECAMATAN":"MEDANSATRIA","ID_DESA":"32.75.06.1001","DESA":"MEDANSATRIA","LONGITUDE":106.97324,"LATITUDE":-6.19415,"STATUS":"BUKA","TANGGAL PENGUMPULAN":"Q2 2024","TANGGAL UPDATE":"27/07/2025"}},{"type":"Feature","geometry":{"coordinates":[107.0099064,-6.2476694],"type":"Point"},"properties":{"fid":1386,"NAMA":"HALTE LAPANGAN MULTI GUNA RS BELLA BUS TRANSPATRIOT","TIPE_1":"TRANSPORTASI","TIPE_2":"HALTE","TIPE_3":"-","TELEPON":"","ALAMAT":"RS BELLA BEKASI 1, MARGAHAYU, KEC. BEKASI TIM., KOTA BKS, JAWA BARAT","ID_PROV":"32","PROVINSI":"JAWA BARAT","ID_KABKOT":"32.75","KABKOT":"KOTA BEKASI","ID_KEC":"32.75.01","KECAMATAN":"BEKASI TIMUR","ID_DESA":"32.75.01.1002","DESA":"MARGAHAYU","LONGITUDE":107.0099064,"LATITUDE":-6.2476694,"STATUS":"BUKA","TANGGAL PENGUMPULAN":"Q2 2024","TANGGAL UPDATE":"27/07/2025"}},{"type":"Feature","geometry":{"coordinates":[106.9219741,-6.3506765],"type":"Point"},"properties":{"fid":1387,"NAMA":"HALTE LAVENDER","TIPE_1":"TRANSPORTASI","TIPE_2":"HALTE","TIPE_3":"-","TELEPON":"","ALAMAT":"JL. KRANGGAN RAYA, JATIRADEN, KEC. BEKASI BAR., KOTA BKS, JAWA BARAT 17433","ID_PROV":"32","PROVINSI":"JAWA BARAT","ID_KABKOT":"32.75","KABKOT":"KOTA BEKASI","ID_KEC":"32.75.10","KECAMATAN":"JATISAMPURNA","ID_DESA":"32.75.10.1005","DESA":"JATIRADEN","LONGITUDE":106.9219741,"LATITUDE":-6.3506765,"STATUS":"BUKA","TANGGAL PENGUMPULAN":"Q2 2024","TANGGAL UPDATE":"27/07/2025"}},{"type":"Feature","geometry":{"coordinates":[106.9914209,-6.224122],"type":"Point"},"properties":{"fid":1394,"NAMA":"HALTE LOTUS SUMMARECON","TIPE_1":"TRANSPORTASI","TIPE_2":"HALTE","TIPE_3":"-","TELEPON":"","ALAMAT":"JL. BULEVAR BAR., RT.005/RW.014, HARAPAN MULYA, MEDAN SATRIA, BEKASI, WEST JAVA 17143","ID_PROV":"32","PROVINSI":"JAWA BARAT","ID_KABKOT":"32.75","KABKOT":"KOTA BEKASI","ID_KEC":"32.75.06","KECAMATAN":"MEDANSATRIA","ID_DESA":"32.75.06.1002","DESA":"HARAPANMULYA","LONGITUDE":106.9914209,"LATITUDE":-6.224122,"STATUS":"BUKA","TANGGAL PENGUMPULAN":"Q2 2024","TANGGAL UPDATE":"27/07/2025"}},{"type":"Feature","geometry":{"coordinates":[107.0278252,-6.3079318],"type":"Point"},"properties":{"fid":1412,"NAMA":"HALTE OJOL","TIPE_1":"TRANSPORTASI","TIPE_2":"HALTE","TIPE_3":"-","TELEPON":"","ALAMAT":"JL. T. 1 NO.5 BLOK T1, RT.001/RW.011, CIMUNING, KEC. MUSTIKA JAYA, KOTA BKS, JAWA BARAT 17155","ID_PROV":"32","PROVINSI":"JAWA BARAT","ID_KABKOT":"32.75","KABKOT":"KOTA BEKASI","ID_KEC":"32.75.11","KECAMATAN":"MUSTIKAJAYA","ID_DESA":"32.75.11.1002","DESA":"CIMUNING","LONGITUDE":107.0278252,"LATITUDE":-6.3079318,"STATUS":"BUKA","TANGGAL PENGUMPULAN":"Q2 2024","TANGGAL UPDATE":"27/07/2025"}},{"type":"Feature","geometry":{"coordinates":[107.0273015,-6.2894863],"type":"Point"},"properties":{"fid":1413,"NAMA":"HALTE OJOL","TIPE_1":"TRANSPORTASI","TIPE_2":"HALTE","TIPE_3":"-","TELEPON":"","ALAMAT":"JALAN. MUTIARA GADING TIMUR, MUSTIKA JAYA, KEC. MUSTIKA JAYA, KOTA BKS, JAWA BARAT","ID_PROV":"32","PROVINSI":"JAWA BARAT","ID_KABKOT":"32.75","KABKOT":"KOTA BEKASI","ID_KEC":"32.75.11","KECAMATAN":"MUSTIKAJAYA","ID_DESA":"32.75.11.1003","DESA":"MUSTIKAJAYA","LONGITUDE":107.0273015,"LATITUDE":-6.2894863,"STATUS":"BUKA","TANGGAL PENGUMPULAN":"Q2 2024","TANGGAL UPDATE":"27/07/2025"}},{"type":"Feature","geometry":{"coordinates":[107.013307,-6.248969],"type":"Point"},"properties":{"fid":1421,"NAMA":"HALTE PASAR BARU","TIPE_1":"TRANSPORTASI","TIPE_2":"HALTE","TIPE_3":"-","TELEPON":"","ALAMAT":"PS. BARU BEKASI, JL. PROF. MOCH YAMIN NO.4, RT.006/RW.001, DUREN JAYA, KEC. BEKASI TIM., KOTA BKS, JAWA BARAT 17111","ID_PROV":"32","PROVINSI":"JAWA BARAT","ID_KABKOT":"32.75","KABKOT":"KOTA BEKASI","ID_KEC":"32.75.01","KECAMATAN":"BEKASI TIMUR","ID_DESA":"32.75.01.1003","DESA":"DURENJAYA","LONGITUDE":107.013307,"LATITUDE":-6.248969,"STATUS":"BUKA","TANGGAL PENGUMPULAN":"Q2 2024","TANGGAL UPDATE":"27/07/2025"}},{"type":"Feature","geometry":{"coordinates":[106.94701,-6.24778],"type":"Point"},"properties":{"fid":1426,"NAMA":"HALTE PERUMAHAN KOPERASI 1","TIPE_1":"TRANSPORTASI","TIPE_2":"HALTE","TIPE_3":"-","TELEPON":"","ALAMAT":"BINTARA JAYA, KEC. BEKASI BAR., KOTA BKS, JAWA BARAT","ID_PROV":"32","PROVINSI":"JAWA BARAT","ID_KABKOT":"32.75","KABKOT":"KOTA BEKASI","ID_KEC":"32.75.02","KECAMATAN":"BEKASI BARAT","ID_DESA":"32.75.02.1004","DESA":"BINTARAJAYA","LONGITUDE":106.94701,"LATITUDE":-6.24778,"STATUS":"BUKA","TANGGAL PENGUMPULAN":"Q2 2024","TANGGAL UPDATE":"27/07/2025"}},{"type":"Feature","geometry":{"coordinates":[106.94707,-6.24755],"type":"Point"},"properties":{"fid":1427,"NAMA":"HALTE PERUMAHAN KOPERASI 2","TIPE_1":"TRANSPORTASI","TIPE_2":"HALTE","TIPE_3":"-","TELEPON":"","ALAMAT":"BINTARA JAYA, KEC. BEKASI BAR., KOTA BKS, JAWA BARAT","ID_PROV":"32","PROVINSI":"JAWA BARAT","ID_KABKOT":"32.75","KABKOT":"KOTA BEKASI","ID_KEC":"32.75.02","KECAMATAN":"BEKASI BARAT","ID_DESA":"32.75.02.1004","DESA":"BINTARAJAYA","LONGITUDE":106.94707,"LATITUDE":-6.24755,"STATUS":"BUKA","TANGGAL PENGUMPULAN":"Q2 2024","TANGGAL UPDATE":"27/07/2025"}},{"type":"Feature","geometry":{"coordinates":[106.9150236,-6.3754895],"type":"Point"},"properties":{"fid":1432,"NAMA":"HALTE PLAZA CIBUBUR","TIPE_1":"TRANSPORTASI","TIPE_2":"HALTE","TIPE_3":"-","TELEPON":"","ALAMAT":"JATIKARYA, KEC. JATISAMPURNA, KOTA BKS, JAWA BARAT 17435","ID_PROV":"32","PROVINSI":"JAWA BARAT","ID_KABKOT":"32.75","KABKOT":"KOTA BEKASI","ID_KEC":"32.75.10","KECAMATAN":"JATISAMPURNA","ID_DESA":"32.75.10.1002","DESA":"JATIKARYA","LONGITUDE":106.9150236,"LATITUDE":-6.3754895,"STATUS":"BUKA","TANGGAL PENGUMPULAN":"Q2 2024","TANGGAL UPDATE":"27/07/2025"}},{"type":"Feature","geometry":{"coordinates":[106.9150351,-6.3754744],"type":"Point"},"properties":{"fid":1433,"NAMA":"HALTE PLAZA CIBUBUR","TIPE_1":"TRANSPORTASI","TIPE_2":"HALTE","TIPE_3":"-","TELEPON":"","ALAMAT":"RT.001/RW.003, JATIKARYA, KEC. JATISAMPURNA, KOTA BKS, JAWA BARAT 17435","ID_PROV":"32","PROVINSI":"JAWA BARAT","ID_KABKOT":"32.75","KABKOT":"KOTA BEKASI","ID_KEC":"32.75.10","KECAMATAN":"JATISAMPURNA","ID_DESA":"32.75.10.1002","DESA":"JATIKARYA","LONGITUDE":106.9150351,"LATITUDE":-6.3754744,"STATUS":"BUKA","TANGGAL PENGUMPULAN":"Q2 2024","TANGGAL UPDATE":"27/07/2025"}},{"type":"Feature","geometry":{"coordinates":[107.0109059,-6.2529103],"type":"Point"},"properties":{"fid":1443,"NAMA":"HALTE RAWA SEMUT 1","TIPE_1":"TRANSPORTASI","TIPE_2":"HALTE","TIPE_3":"-","TELEPON":"","ALAMAT":"JL. CUT MUTIA, MARGAHAYU, KEC. BEKASI TIM., KABUPATEN BEKASI, JAWA BARAT 17113","ID_PROV":"32","PROVINSI":"JAWA BARAT","ID_KABKOT":"32.75","KABKOT":"KOTA BEKASI","ID_KEC":"32.75.01","KECAMATAN":"BEKASI TIMUR","ID_DESA":"32.75.01.1002","DESA":"MARGAHAYU","LONGITUDE":107.0109059,"LATITUDE":-6.2529103,"STATUS":"BUKA","TANGGAL PENGUMPULAN":"Q2 2024","TANGGAL UPDATE":"27/07/2025"}},{"type":"Feature","geometry":{"coordinates":[107.0249636,-6.2500384],"type":"Point"},"properties":{"fid":1454,"NAMA":"HALTE SAMSAT","TIPE_1":"TRANSPORTASI","TIPE_2":"HALTE","TIPE_3":"-","TELEPON":"","ALAMAT":"JL. INSINYUR H. JUANDA NO.3 A, RT.001/RW.021, MARGAHAYU, KEC. BEKASI TIM., KOTA BKS, JAWA BARAT 17111","ID_PROV":"32","PROVINSI":"JAWA BARAT","ID_KABKOT":"32.75","KABKOT":"KOTA BEKASI","ID_KEC":"32.75.01","KECAMATAN":"BEKASI TIMUR","ID_DESA":"32.75.01.1002","DESA":"MARGAHAYU","LONGITUDE":107.0249636,"LATITUDE":-6.2500384,"STATUS":"BUKA","TANGGAL PENGUMPULAN":"Q2 2024","TANGGAL UPDATE":"27/07/2025"}},{"type":"Feature","geometry":{"coordinates":[106.9987729,-6.2617542],"type":"Point"},"properties":{"fid":1467,"NAMA":"HALTE SETIA KAWAN (CUT MEUTIA 5)","TIPE_1":"TRANSPORTASI","TIPE_2":"HALTE","TIPE_3":"-","TELEPON":"","ALAMAT":"SEPANJANG JAYA, KEC. RAWALUMBU, KOTA BKS, JAWA BARAT","ID_PROV":"32","PROVINSI":"JAWA BARAT","ID_KABKOT":"32.75","KABKOT":"KOTA BEKASI","ID_KEC":"32.75.05","KECAMATAN":"RAWALUMBU","ID_DESA":"32.75.05.1003","DESA":"SEPANJANGJAYA","LONGITUDE":106.9987729,"LATITUDE":-6.2617542,"STATUS":"BUKA","TANGGAL PENGUMPULAN":"Q2 2024","TANGGAL UPDATE":"27/07/2025"}},{"type":"Feature","geometry":{"coordinates":[106.9760935,-6.1827833],"type":"Point"},"properties":{"fid":1510,"NAMA":"HALTE TANAH APIT","TIPE_1":"TRANSPORTASI","TIPE_2":"HALTE","TIPE_3":"-","TELEPON":"","ALAMAT":"JL. HARAPAN INDAH RAYA, MEDAN SATRIA, KECAMATAN MEDAN SATRIA, KOTA BKS, JAWA BARAT 17132","ID_PROV":"32","PROVINSI":"JAWA BARAT","ID_KABKOT":"32.75","KABKOT":"KOTA BEKASI","ID_KEC":"32.75.06","KECAMATAN":"MEDANSATRIA","ID_DESA":"32.75.06.1001","DESA":"MEDANSATRIA","LONGITUDE":106.9760935,"LATITUDE":-6.1827833,"STATUS":"BUKA","TANGGAL PENGUMPULAN":"Q2 2024","TANGGAL UPDATE":"27/07/2025"}},{"type":"Feature","geometry":{"coordinates":[107.0169542,-6.2487458],"type":"Point"},"properties":{"fid":1513,"NAMA":"HALTE TERMINAL BEKASI 2","TIPE_1":"TRANSPORTASI","TIPE_2":"HALTE","TIPE_3":"-","TELEPON":"","ALAMAT":"JL. INSINYUR H. JUANDA, DUREN JAYA, KEC. BEKASI TIM., KABUPATEN BEKASI, JAWA BARAT 17113","ID_PROV":"32","PROVINSI":"JAWA BARAT","ID_KABKOT":"32.75","KABKOT":"KOTA BEKASI","ID_KEC":"32.75.01","KECAMATAN":"BEKASI TIMUR","ID_DESA":"32.75.01.1003","DESA":"DURENJAYA","LONGITUDE":107.0169542,"LATITUDE":-6.2487458,"STATUS":"BUKA","TANGGAL PENGUMPULAN":"Q2 2024","TANGGAL UPDATE":"27/07/2025"}},{"type":"Feature","geometry":{"coordinates":[107.0239883,-6.2507273],"type":"Point"},"properties":{"fid":1523,"NAMA":"HALTE TRANS JABODETABEK BULAK KAPAL","TIPE_1":"TRANSPORTASI","TIPE_2":"HALTE","TIPE_3":"-","TELEPON":"","ALAMAT":"RT.001/RW.021, MARGAHAYU, KEC. BEKASI TIM., KOTA BKS, JAWA BARAT 17113","ID_PROV":"32","PROVINSI":"JAWA BARAT","ID_KABKOT":"32.75","KABKOT":"KOTA BEKASI","ID_KEC":"32.75.01","KECAMATAN":"BEKASI TIMUR","ID_DESA":"32.75.01.1002","DESA":"MARGAHAYU","LONGITUDE":107.0239883,"LATITUDE":-6.2507273,"STATUS":"BUKA","TANGGAL PENGUMPULAN":"Q2 2024","TANGGAL UPDATE":"27/07/2025"}},{"type":"Feature","geometry":{"coordinates":[106.989639,-6.2770097],"type":"Point"},"properties":{"fid":1524,"NAMA":"HALTE TRANS KEMANG","TIPE_1":"TRANSPORTASI","TIPE_2":"HALTE","TIPE_3":"-","TELEPON":"","ALAMAT":"JL. KEMANG PRATAMA RAYA NO.202, RT.004/RW.001, BOJONG RAWALUMBU, KEC. RAWALUMBU, KOTA BKS, JAWA BARAT 17116","ID_PROV":"32","PROVINSI":"JAWA BARAT","ID_KABKOT":"32.75","KABKOT":"KOTA BEKASI","ID_KEC":"32.75.05","KECAMATAN":"RAWALUMBU","ID_DESA":"32.75.05.1001","DESA":"BOJONG RAWALUMBU","LONGITUDE":106.989639,"LATITUDE":-6.2770097,"STATUS":"BUKA","TANGGAL PENGUMPULAN":"Q2 2024","TANGGAL UPDATE":"27/07/2025"}},{"type":"Feature","geometry":{"coordinates":[106.9755726,-6.2382699],"type":"Point"},"properties":{"fid":1633,"NAMA":"HALTE TRANS PATRIOT","TIPE_1":"TRANSPORTASI","TIPE_2":"HALTE","TIPE_3":"-","TELEPON":"","ALAMAT":"RT.006/RW.011, JAKASAMPURNA, KEC. BEKASI BAR., KOTA BKS, JAWA BARAT 17145","ID_PROV":"32","PROVINSI":"JAWA BARAT","ID_KABKOT":"32.75","KABKOT":"KOTA BEKASI","ID_KEC":"32.75.02","KECAMATAN":"BEKASI BARAT","ID_DESA":"32.75.02.1005","DESA":"JAKASAMPURNA","LONGITUDE":106.9755726,"LATITUDE":-6.2382699,"STATUS":"BUKA","TANGGAL PENGUMPULAN":"Q2 2024","TANGGAL UPDATE":"27/07/2025"}},{"type":"Feature","geometry":{"coordinates":[106.991721,-6.2500254],"type":"Point"},"properties":{"fid":1635,"NAMA":"HALTE TRANSJAKARTA BEKASI BARAT","TIPE_1":"TRANSPORTASI","TIPE_2":"HALTE","TIPE_3":"-","TELEPON":"","ALAMAT":"JL. AHMAD YANI, RT.005/RW.002, PEKAYON JAYA, BEKASI SELATAN, BEKASI, WEST JAVA","ID_PROV":"32","PROVINSI":"JAWA BARAT","ID_KABKOT":"32.75","KABKOT":"KOTA BEKASI","ID_KEC":"32.75.04","KECAMATAN":"BEKASI SELATAN","ID_DESA":"32.75.04.1001","DESA":"PEKAYONJAYA","LONGITUDE":106.991721,"LATITUDE":-6.2500254,"STATUS":"BUKA","TANGGAL PENGUMPULAN":"Q2 2024","TANGGAL UPDATE":"27/07/2025"}},{"type":"Feature","geometry":{"coordinates":[106.9930843,-6.2724279],"type":"Point"},"properties":{"fid":1643,"NAMA":"HALTE UNIV. TRISAKTI 2","TIPE_1":"TRANSPORTASI","TIPE_2":"HALTE","TIPE_3":"-","TELEPON":"","ALAMAT":"JL. RAYA SILIWANGI NO.174, SEPANJANG JAYA, RAWA LUMBU, BEKASI, WEST JAVA 17114","ID_PROV":"32","PROVINSI":"JAWA BARAT","ID_KABKOT":"32.75","KABKOT":"KOTA BEKASI","ID_KEC":"32.75.05","KECAMATAN":"RAWALUMBU","ID_DESA":"32.75.05.1003","DESA":"SEPANJANGJAYA","LONGITUDE":106.9930843,"LATITUDE":-6.2724279,"STATUS":"BUKA","TANGGAL PENGUMPULAN":"Q2 2024","TANGGAL UPDATE":"27/07/2025"}},{"type":"Feature","geometry":{"coordinates":[106.9894552,-6.22375],"type":"Point"},"properties":{"fid":1647,"NAMA":"HALTE VERNONIA SUMMARECON","TIPE_1":"TRANSPORTASI","TIPE_2":"HALTE","TIPE_3":"-","TELEPON":"","ALAMAT":"JL. BULEVAR BAR., RT.005/RW.014, HARAPAN MULYA, MEDAN SATRIA, BEKASI, WEST JAVA 17143","ID_PROV":"32","PROVINSI":"JAWA BARAT","ID_KABKOT":"32.75","KABKOT":"KOTA BEKASI","ID_KEC":"32.75.06","KECAMATAN":"MEDANSATRIA","ID_DESA":"32.75.06.1002","DESA":"HARAPANMULYA","LONGITUDE":106.9894552,"LATITUDE":-6.22375,"STATUS":"BUKA","TANGGAL PENGUMPULAN":"Q2 2024","TANGGAL UPDATE":"27/07/2025"}},{"type":"Feature","geometry":{"coordinates":[106.99059,-6.2557],"type":"Point"},"properties":{"fid":1666,"NAMA":"JL. RAYA PEKAYON","TIPE_1":"TRANSPORTASI","TIPE_2":"HALTE","TIPE_3":"-","TELEPON":"","ALAMAT":"PEKAYON JAYA, KEC. BEKASI SEL., KOTA BKS, JAWA BARAT","ID_PROV":"32","PROVINSI":"JAWA BARAT","ID_KABKOT":"32.75","KABKOT":"KOTA BEKASI","ID_KEC":"32.75.04","KECAMATAN":"BEKASI SELATAN","ID_DESA":"32.75.04.1001","DESA":"PEKAYONJAYA","LONGITUDE":106.99059,"LATITUDE":-6.2557,"STATUS":"BUKA","TANGGAL PENGUMPULAN":"Q2 2024","TANGGAL UPDATE":"27/07/2025"}},{"type":"Feature","geometry":{"coordinates":[106.91152,-6.26657],"type":"Point"},"properties":{"fid":1667,"NAMA":"JLN. RAWA INDAH","TIPE_1":"TRANSPORTASI","TIPE_2":"HALTE","TIPE_3":"-","TELEPON":"","ALAMAT":"JATICEMPAKA, KEC. PD. GEDE, KOTA BKS, JAWA BARAT","ID_PROV":"32","PROVINSI":"JAWA BARAT","ID_KABKOT":"32.75","KABKOT":"KOTA BEKASI","ID_KEC":"32.75.08","KECAMATAN":"PONDOKGEDE","ID_DESA":"32.75.08.1007","DESA":"JATICEMPAKA","LONGITUDE":106.91152,"LATITUDE":-6.26657,"STATUS":"BUKA","TANGGAL PENGUMPULAN":"Q2 2024","TANGGAL UPDATE":"27/07/2025"}},{"type":"Feature","geometry":{"coordinates":[106.99246,-6.24593],"type":"Point"},"properties":{"fid":1671,"NAMA":"KAYURINGIN 2","TIPE_1":"TRANSPORTASI","TIPE_2":"HALTE","TIPE_3":"-","TELEPON":"","ALAMAT":"KAYURINGIN JAYA, KEC. BEKASI SEL., KOTA BKS, JAWA BARAT","ID_PROV":"32","PROVINSI":"JAWA BARAT","ID_KABKOT":"32.75","KABKOT":"KOTA BEKASI","ID_KEC":"32.75.04","KECAMATAN":"BEKASI SELATAN","ID_DESA":"32.75.04.1005","DESA":"KAYURINGINJAYA","LONGITUDE":106.99246,"LATITUDE":-6.24593,"STATUS":"BUKA","TANGGAL PENGUMPULAN":"Q2 2024","TANGGAL UPDATE":"27/07/2025"}},{"type":"Feature","geometry":{"coordinates":[106.9736048,-6.1938699],"type":"Point"},"properties":{"fid":1679,"NAMA":"KOTA HARAPAN INDAH 2","TIPE_1":"TRANSPORTASI","TIPE_2":"HALTE","TIPE_3":"-","TELEPON":"","ALAMAT":"MEDAN SATRIA, KECAMATAN MEDAN SATRIA, KOTA BKS, JAWA BARAT","ID_PROV":"32","PROVINSI":"JAWA BARAT","ID_KABKOT":"32.75","KABKOT":"KOTA BEKASI","ID_KEC":"32.75.06","KECAMATAN":"MEDANSATRIA","ID_DESA":"32.75.06.1001","DESA":"MEDANSATRIA","LONGITUDE":106.9736048,"LATITUDE":-6.1938699,"STATUS":"BUKA","TANGGAL PENGUMPULAN":"Q2 2024","TANGGAL UPDATE":"27/07/2025"}},{"type":"Feature","geometry":{"coordinates":[106.9792484,-6.2254771],"type":"Point"},"properties":{"fid":1681,"NAMA":"KRANJI","TIPE_1":"TRANSPORTASI","TIPE_2":"HALTE","TIPE_3":"-","TELEPON":"","ALAMAT":"JL. I GUSTI NGURAH RAI,, KEC. BEKASI BAR., KOTA BKS, JAWA BARAT 17135","ID_PROV":"32","PROVINSI":"JAWA BARAT","ID_KABKOT":"32.75","KABKOT":"KOTA BEKASI","ID_KEC":"32.75.02","KECAMATAN":"BEKASI BARAT","ID_DESA":"32.75.02.1002","DESA":"KRANJI","LONGITUDE":106.9792484,"LATITUDE":-6.2254771,"STATUS":"BUKA","TANGGAL PENGUMPULAN":"Q2 2024","TANGGAL UPDATE":"27/07/2025"}},{"type":"Feature","geometry":{"coordinates":[106.91371,-6.28213],"type":"Point"},"properties":{"fid":1682,"NAMA":"LAPANGAN PONDOK GEDE","TIPE_1":"TRANSPORTASI","TIPE_2":"HALTE","TIPE_3":"-","TELEPON":"","ALAMAT":"JATIWARINGIN, KEC. PD. GEDE, KOTA BKS, JAWA BARAT","ID_PROV":"32","PROVINSI":"JAWA BARAT","ID_KABKOT":"32.75","KABKOT":"KOTA BEKASI","ID_KEC":"32.75.08","KECAMATAN":"PONDOKGEDE","ID_DESA":"32.75.08.1001","DESA":"JATIWARINGIN","LONGITUDE":106.91371,"LATITUDE":-6.28213,"STATUS":"BUKA","TANGGAL PENGUMPULAN":"Q2 2024","TANGGAL UPDATE":"27/07/2025"}},{"type":"Feature","geometry":{"coordinates":[106.9921393,-6.247858],"type":"Point"},"properties":{"fid":1684,"NAMA":"MALL METROPOLITAN","TIPE_1":"TRANSPORTASI","TIPE_2":"HALTE","TIPE_3":"-","TELEPON":"","ALAMAT":"PEKAYON JAYA, KEC. BEKASI SEL., KOTA BKS, JAWA BARAT","ID_PROV":"32","PROVINSI":"JAWA BARAT","ID_KABKOT":"32.75","KABKOT":"KOTA BEKASI","ID_KEC":"32.75.04","KECAMATAN":"BEKASI SELATAN","ID_DESA":"32.75.04.1001","DESA":"PEKAYONJAYA","LONGITUDE":106.9921393,"LATITUDE":-6.247858,"STATUS":"BUKA","TANGGAL PENGUMPULAN":"Q2 2024","TANGGAL UPDATE":"27/07/2025"}},{"type":"Feature","geometry":{"coordinates":[106.9920127,-6.2503339],"type":"Point"},"properties":{"fid":1686,"NAMA":"MEGA MALL BEKASI","TIPE_1":"TRANSPORTASI","TIPE_2":"HALTE","TIPE_3":"-","TELEPON":"","ALAMAT":"MARGA JAYA, KEC. BEKASI SEL., KOTA BKS, JAWA BARAT","ID_PROV":"32","PROVINSI":"JAWA BARAT","ID_KABKOT":"32.75","KABKOT":"KOTA BEKASI","ID_KEC":"32.75.04","KECAMATAN":"BEKASI SELATAN","ID_DESA":"32.75.04.1002","DESA":"MARGAJAYA","LONGITUDE":106.9920127,"LATITUDE":-6.2503339,"STATUS":"BUKA","TANGGAL PENGUMPULAN":"Q2 2024","TANGGAL UPDATE":"27/07/2025"}},{"type":"Feature","geometry":{"coordinates":[106.9885,-6.31247],"type":"Point"},"properties":{"fid":1693,"NAMA":"PASAR BANTAR GEBANG","TIPE_1":"TRANSPORTASI","TIPE_2":"HALTE","TIPE_3":"-","TELEPON":"","ALAMAT":"BANTARGEBANG, KEC. BANTAR GEBANG, KOTA BKS, JAWA BARAT","ID_PROV":"32","PROVINSI":"JAWA BARAT","ID_KABKOT":"32.75","KABKOT":"KOTA BEKASI","ID_KEC":"32.75.07","KECAMATAN":"BANTARGEBANG","ID_DESA":"32.75.07.1003","DESA":"BANTARGEBANG","LONGITUDE":106.9885,"LATITUDE":-6.31247,"STATUS":"BUKA","TANGGAL PENGUMPULAN":"Q2 2024","TANGGAL UPDATE":"27/07/2025"}},{"type":"Feature","geometry":{"coordinates":[106.9868893,-6.3133626],"type":"Point"},"properties":{"fid":1702,"NAMA":"POLSEK BANTAR GEBANG","TIPE_1":"TRANSPORTASI","TIPE_2":"HALTE","TIPE_3":"-","TELEPON":"","ALAMAT":"BANTARGEBANG, KEC. BANTAR GEBANG, KOTA BKS, JAWA BARAT","ID_PROV":"32","PROVINSI":"JAWA BARAT","ID_KABKOT":"32.75","KABKOT":"KOTA BEKASI","ID_KEC":"32.75.07","KECAMATAN":"BANTARGEBANG","ID_DESA":"32.75.07.1003","DESA":"BANTARGEBANG","LONGITUDE":106.9868893,"LATITUDE":-6.3133626,"STATUS":"BUKA","TANGGAL PENGUMPULAN":"Q2 2024","TANGGAL UPDATE":"27/07/2025"}},{"type":"Feature","geometry":{"coordinates":[106.9115797,-6.2856759],"type":"Point"},"properties":{"fid":1705,"NAMA":"PS. PONDOK GEDE","TIPE_1":"TRANSPORTASI","TIPE_2":"HALTE","TIPE_3":"-","TELEPON":"","ALAMAT":"JATIRAHAYU, KEC. PD. MELATI, KOTA BKS, JAWA BARAT 17414","ID_PROV":"32","PROVINSI":"JAWA BARAT","ID_KABKOT":"32.75","KABKOT":"KOTA BEKASI","ID_KEC":"32.75.12","KECAMATAN":"PONDOKMELATI","ID_DESA":"32.75.12.1001","DESA":"JATIRAHAYU","LONGITUDE":106.9115797,"LATITUDE":-6.2856759,"STATUS":"BUKA","TANGGAL PENGUMPULAN":"Q2 2024","TANGGAL UPDATE":"27/07/2025"}},{"type":"Feature","geometry":{"coordinates":[106.9928799,-6.2404252],"type":"Point"},"properties":{"fid":1735,"NAMA":"STADION 1","TIPE_1":"TRANSPORTASI","TIPE_2":"HALTE","TIPE_3":"-","TELEPON":"","ALAMAT":"JL. AHMAD YANI, KAYURINGIN JAYA, KEC. BEKASI SEL., KABUPATEN BEKASI, JAWA BARAT 17144","ID_PROV":"32","PROVINSI":"JAWA BARAT","ID_KABKOT":"32.75","KABKOT":"KOTA BEKASI","ID_KEC":"32.75.04","KECAMATAN":"BEKASI SELATAN","ID_DESA":"32.75.04.1005","DESA":"KAYURINGINJAYA","LONGITUDE":106.9928799,"LATITUDE":-6.2404252,"STATUS":"BUKA","TANGGAL PENGUMPULAN":"Q2 2024","TANGGAL UPDATE":"27/07/2025"}},{"type":"Feature","geometry":{"coordinates":[107.0028,-6.22557],"type":"Point"},"properties":{"fid":1746,"NAMA":"SUMMARECON BEKASI","TIPE_1":"TRANSPORTASI","TIPE_2":"HALTE","TIPE_3":"-","TELEPON":"","ALAMAT":"MARGA MULYA, KEC. BEKASI UTARA, KOTA BKS, JAWA BARAT 17143","ID_PROV":"32","PROVINSI":"JAWA BARAT","ID_KABKOT":"32.75","KABKOT":"KOTA BEKASI","ID_KEC":"32.75.03","KECAMATAN":"BEKASI UTARA","ID_DESA":"32.75.03.1005","DESA":"MARGAMULYA","LONGITUDE":107.0028,"LATITUDE":-6.22557,"STATUS":"BUKA","TANGGAL PENGUMPULAN":"Q2 2024","TANGGAL UPDATE":"27/07/2025"}},{"type":"Feature","geometry":{"coordinates":[107.02479,-6.22173],"type":"Point"},"properties":{"fid":1753,"NAMA":"TAMAN WISMA ASRI RAYA TIMUR","TIPE_1":"TRANSPORTASI","TIPE_2":"HALTE","TIPE_3":"-","TELEPON":"","ALAMAT":"TLK. PUCUNG, KEC. BEKASI UTARA, KOTA BKS, JAWA BARAT","ID_PROV":"32","PROVINSI":"JAWA BARAT","ID_KABKOT":"32.75","KABKOT":"KOTA BEKASI","ID_KEC":"32.75.03","KECAMATAN":"BEKASI UTARA","ID_DESA":"32.75.03.1004","DESA":"TELUK PUCUNG","LONGITUDE":107.02479,"LATITUDE":-6.22173,"STATUS":"BUKA","TANGGAL PENGUMPULAN":"Q2 2024","TANGGAL UPDATE":"27/07/2025"}},{"type":"Feature","geometry":{"coordinates":[107.0142793,-6.2506298],"type":"Point"},"properties":{"fid":1762,"NAMA":"TERMINAL BEKASI 1","TIPE_1":"TRANSPORTASI","TIPE_2":"HALTE","TIPE_3":"-","TELEPON":"","ALAMAT":"JL. CUT MUTIA NO.43, MARGAHAYU, KEC. BEKASI TIM., KOTA BKS, JAWA BARAT 17113","ID_PROV":"32","PROVINSI":"JAWA BARAT","ID_KABKOT":"32.75","KABKOT":"KOTA BEKASI","ID_KEC":"32.75.01","KECAMATAN":"BEKASI TIMUR","ID_DESA":"32.75.01.1002","DESA":"MARGAHAYU","LONGITUDE":107.0142793,"LATITUDE":-6.2506298,"STATUS":"BUKA","TANGGAL PENGUMPULAN":"Q2 2024","TANGGAL UPDATE":"27/07/2025"}},{"type":"Feature","geometry":{"coordinates":[106.9903,-6.24463],"type":"Point"},"properties":{"fid":1768,"NAMA":"TERMINAL KAYURINGIN","TIPE_1":"TRANSPORTASI","TIPE_2":"HALTE","TIPE_3":"-","TELEPON":"","ALAMAT":"JL. BURANGRANG RAYA, KAYURINGIN JAYA, KEC. BEKASI SEL., KOTA BKS, JAWA BARAT 17144","ID_PROV":"32","PROVINSI":"JAWA BARAT","ID_KABKOT":"32.75","KABKOT":"KOTA BEKASI","ID_KEC":"32.75.04","KECAMATAN":"BEKASI SELATAN","ID_DESA":"32.75.04.1005","DESA":"KAYURINGINJAYA","LONGITUDE":106.9903,"LATITUDE":-6.24463,"STATUS":"BUKA","TANGGAL PENGUMPULAN":"Q2 2024","TANGGAL UPDATE":"27/07/2025"}},{"type":"Feature","geometry":{"coordinates":[106.9916331,-6.2501404],"type":"Point"},"properties":{"fid":1772,"NAMA":"TOL BARAT 2","TIPE_1":"TRANSPORTASI","TIPE_2":"HALTE","TIPE_3":"-","TELEPON":"","ALAMAT":"PEKAYON JAYA, KEC. BEKASI SEL., KOTA BKS, JAWA BARAT","ID_PROV":"32","PROVINSI":"JAWA BARAT","ID_KABKOT":"32.75","KABKOT":"KOTA BEKASI","ID_KEC":"32.75.04","KECAMATAN":"BEKASI SELATAN","ID_DESA":"32.75.04.1001","DESA":"PEKAYONJAYA","LONGITUDE":106.9916331,"LATITUDE":-6.2501404,"STATUS":"BUKA","TANGGAL PENGUMPULAN":"Q2 2024","TANGGAL UPDATE":"27/07/2025"}},{"type":"Feature","geometry":{"coordinates":[106.99167,-6.25004],"type":"Point"},"properties":{"fid":1773,"NAMA":"TOL BARAT 2","TIPE_1":"TRANSPORTASI","TIPE_2":"HALTE","TIPE_3":"-","TELEPON":"","ALAMAT":"PEKAYON JAYA, KEC. BEKASI SEL., KOTA BKS, JAWA BARAT","ID_PROV":"32","PROVINSI":"JAWA BARAT","ID_KABKOT":"32.75","KABKOT":"KOTA BEKASI","ID_KEC":"32.75.04","KECAMATAN":"BEKASI SELATAN","ID_DESA":"32.75.04.1001","DESA":"PEKAYONJAYA","LONGITUDE":106.99167,"LATITUDE":-6.25004,"STATUS":"BUKA","TANGGAL PENGUMPULAN":"Q2 2024","TANGGAL UPDATE":"27/07/2025"}},{"type":"Feature","geometry":{"coordinates":[107.01835,-6.26165],"type":"Point"},"properties":{"fid":1774,"NAMA":"TOL BEKASI TIMUR 2","TIPE_1":"TRANSPORTASI","TIPE_2":"HALTE","TIPE_3":"-","TELEPON":"","ALAMAT":"JL. PENGASINAN - BOJONG MENTENG NO.22, JATIMULYA, KEC. TAMBUN SEL., KOTA BKS, JAWA BARAT 17115","ID_PROV":"32","PROVINSI":"JAWA BARAT","ID_KABKOT":"32.75","KABKOT":"KOTA BEKASI","ID_KEC":"32.75.01","KECAMATAN":"BEKASI TIMUR","ID_DESA":"32.75.01.1002","DESA":"MARGAHAYU","LONGITUDE":107.01835,"LATITUDE":-6.26165,"STATUS":"BUKA","TANGGAL PENGUMPULAN":"Q2 2024","TANGGAL UPDATE":"27/07/2025"}},{"type":"Feature","geometry":{"coordinates":[106.94312,-6.25822],"type":"Point"},"properties":{"fid":1775,"NAMA":"TOL JATIBENING - 1 SELATAN","TIPE_1":"TRANSPORTASI","TIPE_2":"HALTE","TIPE_3":"-","TELEPON":"","ALAMAT":"JATIBENING, KEC. PD. GEDE, KOTA BKS, JAWA BARAT","ID_PROV":"32","PROVINSI":"JAWA BARAT","ID_KABKOT":"32.75","KABKOT":"KOTA BEKASI","ID_KEC":"32.75.08","KECAMATAN":"PONDOKGEDE","ID_DESA":"32.75.08.1006","DESA":"JATIBENING BARU","LONGITUDE":106.94312,"LATITUDE":-6.25822,"STATUS":"BUKA","TANGGAL PENGUMPULAN":"Q2 2024","TANGGAL UPDATE":"27/07/2025"}},{"type":"Feature","geometry":{"coordinates":[106.94376,-6.25637],"type":"Point"},"properties":{"fid":1776,"NAMA":"TOL JATIBENING - 2 BARAT","TIPE_1":"TRANSPORTASI","TIPE_2":"HALTE","TIPE_3":"-","TELEPON":"","ALAMAT":"JATIBENING, KEC. PD. GEDE, KOTA BKS, JAWA BARAT","ID_PROV":"32","PROVINSI":"JAWA BARAT","ID_KABKOT":"32.75","KABKOT":"KOTA BEKASI","ID_KEC":"32.75.08","KECAMATAN":"PONDOKGEDE","ID_DESA":"32.75.08.1006","DESA":"JATIBENING BARU","LONGITUDE":106.94376,"LATITUDE":-6.25637,"STATUS":"BUKA","TANGGAL PENGUMPULAN":"Q2 2024","TANGGAL UPDATE":"27/07/2025"}},{"type":"Feature","geometry":{"coordinates":[106.94382,-6.25637],"type":"Point"},"properties":{"fid":1777,"NAMA":"TOL JATIBENING - 2 TIMUR","TIPE_1":"TRANSPORTASI","TIPE_2":"HALTE","TIPE_3":"-","TELEPON":"","ALAMAT":"JATIBENING, KEC. PD. GEDE, KOTA BKS, JAWA BARAT","ID_PROV":"32","PROVINSI":"JAWA BARAT","ID_KABKOT":"32.75","KABKOT":"KOTA BEKASI","ID_KEC":"32.75.08","KECAMATAN":"PONDOKGEDE","ID_DESA":"32.75.08.1002","DESA":"JATIBENING","LONGITUDE":106.94382,"LATITUDE":-6.25637,"STATUS":"BUKA","TANGGAL PENGUMPULAN":"Q2 2024","TANGGAL UPDATE":"27/07/2025"}},{"type":"Feature","geometry":{"coordinates":[107.0236433,-6.2511406],"type":"Point"},"properties":{"fid":1827,"NAMA":"TRANSJAKARTA","TIPE_1":"TRANSPORTASI","TIPE_2":"HALTE","TIPE_3":"-","TELEPON":"0895-3238-00031","ALAMAT":"JL. HM. JOYO MARTONO, MARGAHAYU, KEC. BEKASI TIM., KOTA BKS, JAWA BARAT 17411","ID_PROV":"32","PROVINSI":"JAWA BARAT","ID_KABKOT":"32.75","KABKOT":"KOTA BEKASI","ID_KEC":"32.75.01","KECAMATAN":"BEKASI TIMUR","ID_DESA":"32.75.01.1002","DESA":"MARGAHAYU","LONGITUDE":107.0236433,"LATITUDE":-6.2511406,"STATUS":"BUKA","TANGGAL PENGUMPULAN":"Q2 2024","TANGGAL UPDATE":"27/07/2025"}},{"type":"Feature","geometry":{"coordinates":[107.0048103,-6.2576734],"type":"Point"},"properties":{"fid":1830,"NAMA":"UNISMA HALTE BANGKU BESI","TIPE_1":"TRANSPORTASI","TIPE_2":"HALTE","TIPE_3":"-","TELEPON":"","ALAMAT":"JL. CUT MUTIA, RT.004/RW.009, MARGAHAYU, KEC. BEKASI TIM., KOTA BKS, JAWA BARAT 17113","ID_PROV":"32","PROVINSI":"JAWA BARAT","ID_KABKOT":"32.75","KABKOT":"KOTA BEKASI","ID_KEC":"32.75.01","KECAMATAN":"BEKASI TIMUR","ID_DESA":"32.75.01.1002","DESA":"MARGAHAYU","LONGITUDE":107.0048103,"LATITUDE":-6.2576734,"STATUS":"BUKA","TANGGAL PENGUMPULAN":"Q2 2024","TANGGAL UPDATE":"27/07/2025"}}]}