{"type":"FeatureCollection","features":[{"type":"Feature","geometry":{"coordinates":[106.6736761,-6.3084387],"type":"Point"},"properties":{"fid":147,"NAMA":"AGRAMAS BUS STOP","TIPE_1":"TRANSPORTASI","TIPE_2":"HALTE","TIPE_3":"-","TELEPON":"","ALAMAT":"JL. RUKO VERSAILLES, RW. BUNTU, KEC. SERPONG, KOTA TANGERANG SELATAN, BANTEN 15310","ID_PROV":"36","PROVINSI":"BANTEN","ID_KABKOT":"36.74","KABKOT":"KOTA TANGERANG SELATAN","ID_KEC":"36.74.01","KECAMATAN":"SERPONG","ID_DESA":"36.74.01.1002","DESA":"RAWABUNTU","LONGITUDE":106.6736761,"LATITUDE":-6.3084387,"STATUS":"BUKA","TANGGAL PENGUMPULAN":"Q2 2024","TANGGAL UPDATE":"27/07/2025"}},{"type":"Feature","geometry":{"coordinates":[106.72865,-6.28681],"type":"Point"},"properties":{"fid":151,"NAMA":"BINTARO XCHANGE","TIPE_1":"TRANSPORTASI","TIPE_2":"HALTE","TIPE_3":"-","TELEPON":"","ALAMAT":"PD. JAYA, KEC. PD. AREN, KOTA TANGERANG SELATAN, BANTEN","ID_PROV":"36","PROVINSI":"BANTEN","ID_KABKOT":"36.74","KABKOT":"KOTA TANGERANG SELATAN","ID_KEC":"36.74.03","KECAMATAN":"PONDOK AREN","ID_DESA":"36.74.03.1004","DESA":"PONDOK JAYA","LONGITUDE":106.72865,"LATITUDE":-6.28681,"STATUS":"BUKA","TANGGAL PENGUMPULAN":"Q2 2024","TANGGAL UPDATE":"27/07/2025"}},{"type":"Feature","geometry":{"coordinates":[106.67175,-6.30665],"type":"Point"},"properties":{"fid":153,"NAMA":"CILENGGANG","TIPE_1":"TRANSPORTASI","TIPE_2":"HALTE","TIPE_3":"-","TELEPON":"","ALAMAT":"RW. BUNTU, KEC. SERPONG, KOTA TANGERANG SELATAN, BANTEN","ID_PROV":"36","PROVINSI":"BANTEN","ID_KABKOT":"36.74","KABKOT":"KOTA TANGERANG SELATAN","ID_KEC":"36.74.01","KECAMATAN":"SERPONG","ID_DESA":"36.74.01.1002","DESA":"RAWABUNTU","LONGITUDE":106.67175,"LATITUDE":-6.30665,"STATUS":"BUKA","TANGGAL PENGUMPULAN":"Q2 2024","TANGGAL UPDATE":"27/07/2025"}},{"type":"Feature","geometry":{"coordinates":[106.7479236,-6.3309753],"type":"Point"},"properties":{"fid":154,"NAMA":"CIPUTAT","TIPE_1":"TRANSPORTASI","TIPE_2":"HALTE","TIPE_3":"-","TELEPON":"","ALAMAT":"KOTA TANGERANG SELATAN,, KEC., KOTA TANGERANG SELATAN, BANTEN 15413","ID_PROV":"36","PROVINSI":"BANTEN","ID_KABKOT":"36.74","KABKOT":"KOTA TANGERANG SELATAN","ID_KEC":"36.74.04","KECAMATAN":"CIPUTAT","ID_DESA":"36.74.04.1003","DESA":"CIPUTAT","LONGITUDE":106.7479236,"LATITUDE":-6.3309753,"STATUS":"BUKA","TANGGAL PENGUMPULAN":"Q2 2024","TANGGAL UPDATE":"27/07/2025"}},{"type":"Feature","geometry":{"coordinates":[106.7509151,-6.2804965],"type":"Point"},"properties":{"fid":156,"NAMA":"HALTE","TIPE_1":"TRANSPORTASI","TIPE_2":"HALTE","TIPE_3":"-","TELEPON":"","ALAMAT":"JL. KUTILANG II NO.20, RENGAS, CIPUTAT TIMUR, SOUTH TANGERANG CITY, BANTEN 15412","ID_PROV":"36","PROVINSI":"BANTEN","ID_KABKOT":"36.74","KABKOT":"KOTA TANGERANG SELATAN","ID_KEC":"36.74.05","KECAMATAN":"CIPUTAT TIMUR","ID_DESA":"36.74.05.1006","DESA":"RENGAS","LONGITUDE":106.7509151,"LATITUDE":-6.2804965,"STATUS":"BUKA","TANGGAL PENGUMPULAN":"Q2 2024","TANGGAL UPDATE":"27/07/2025"}},{"type":"Feature","geometry":{"coordinates":[106.68811,-6.34788],"type":"Point"},"properties":{"fid":158,"NAMA":"HALTE ACCOLA PARK","TIPE_1":"TRANSPORTASI","TIPE_2":"HALTE","TIPE_3":"-","TELEPON":"","ALAMAT":"BUARAN, KEC. SERPONG, KOTA TANGERANG SELATAN, BANTEN","ID_PROV":"36","PROVINSI":"BANTEN","ID_KABKOT":"36.74","KABKOT":"KOTA TANGERANG SELATAN","ID_KEC":"36.74.01","KECAMATAN":"SERPONG","ID_DESA":"36.74.01.1006","DESA":"BUARAN","LONGITUDE":106.68811,"LATITUDE":-6.34788,"STATUS":"BUKA","TANGGAL PENGUMPULAN":"Q2 2024","TANGGAL UPDATE":"27/07/2025"}},{"type":"Feature","geometry":{"coordinates":[106.678099,-6.2955566],"type":"Point"},"properties":{"fid":160,"NAMA":"HALTE AUTOPART","TIPE_1":"TRANSPORTASI","TIPE_2":"HALTE","TIPE_3":"-","TELEPON":"","ALAMAT":"LENGKONG GUDANG TIM., KEC. SERPONG, KOTA TANGERANG SELATAN, BANTEN 15310","ID_PROV":"36","PROVINSI":"BANTEN","ID_KABKOT":"36.74","KABKOT":"KOTA TANGERANG SELATAN","ID_KEC":"36.74.01","KECAMATAN":"SERPONG","ID_DESA":"36.74.01.1007","DESA":"LENGKONG GUDANG TIMUR","LONGITUDE":106.678099,"LATITUDE":-6.2955566,"STATUS":"BUKA","TANGGAL PENGUMPULAN":"Q2 2024","TANGGAL UPDATE":"27/07/2025"}},{"type":"Feature","geometry":{"coordinates":[106.6726481,-6.3279809],"type":"Point"},"properties":{"fid":163,"NAMA":"HALTE BATAN INDAH","TIPE_1":"TRANSPORTASI","TIPE_2":"HALTE","TIPE_3":"-","TELEPON":"","ALAMAT":"KADEMANGAN, KEC. SETU, KOTA TANGERANG SELATAN, BANTEN 15314","ID_PROV":"36","PROVINSI":"BANTEN","ID_KABKOT":"36.74","KABKOT":"KOTA TANGERANG SELATAN","ID_KEC":"36.74.07","KECAMATAN":"SETU","ID_DESA":"36.74.07.1004","DESA":"KADEMANGAN","LONGITUDE":106.6726481,"LATITUDE":-6.3279809,"STATUS":"BUKA","TANGGAL PENGUMPULAN":"Q2 2024","TANGGAL UPDATE":"27/07/2025"}},{"type":"Feature","geometry":{"coordinates":[106.7266319,-6.2908174],"type":"Point"},"properties":{"fid":171,"NAMA":"HALTE BUNDARAN UPJ STASIUN JURANGMANGU","TIPE_1":"TRANSPORTASI","TIPE_2":"HALTE","TIPE_3":"-","TELEPON":"","ALAMAT":"SAWAH BARU, KEC. CIPUTAT, KOTA TANGERANG SELATAN, BANTEN 15413","ID_PROV":"36","PROVINSI":"BANTEN","ID_KABKOT":"36.74","KABKOT":"KOTA TANGERANG SELATAN","ID_KEC":"36.74.04","KECAMATAN":"CIPUTAT","ID_DESA":"36.74.04.1001","DESA":"SAWAH BARU","LONGITUDE":106.7266319,"LATITUDE":-6.2908174,"STATUS":"BUKA","TANGGAL PENGUMPULAN":"Q2 2024","TANGGAL UPDATE":"27/07/2025"}},{"type":"Feature","geometry":{"coordinates":[106.7469088,-6.3165552],"type":"Point"},"properties":{"fid":176,"NAMA":"HALTE BUS CIPUTAT","TIPE_1":"TRANSPORTASI","TIPE_2":"HALTE","TIPE_3":"-","TELEPON":"","ALAMAT":"JL. DEWI SARTIKA NO.5, CIPAYUNG, KEC. CIPUTAT, KOTA TANGERANG SELATAN, BANTEN 15411","ID_PROV":"36","PROVINSI":"BANTEN","ID_KABKOT":"36.74","KABKOT":"KOTA TANGERANG SELATAN","ID_KEC":"36.74.04","KECAMATAN":"CIPUTAT","ID_DESA":"36.74.04.1007","DESA":"CIPAYUNG","LONGITUDE":106.7469088,"LATITUDE":-6.3165552,"STATUS":"BUKA","TANGGAL PENGUMPULAN":"Q2 2024","TANGGAL UPDATE":"27/07/2025"}},{"type":"Feature","geometry":{"coordinates":[106.7276395,-6.283631],"type":"Point"},"properties":{"fid":179,"NAMA":"HALTE BUS INTRANS BINTARO XCHANGE","TIPE_1":"TRANSPORTASI","TIPE_2":"HALTE","TIPE_3":"-","TELEPON":"","ALAMAT":"BINTARO XCHANGE, PONDOK JAYA, PONDOK AREN, SOUTH TANGERANG CITY, BANTEN 15220","ID_PROV":"36","PROVINSI":"BANTEN","ID_KABKOT":"36.74","KABKOT":"KOTA TANGERANG SELATAN","ID_KEC":"36.74.03","KECAMATAN":"PONDOK AREN","ID_DESA":"36.74.03.1004","DESA":"PONDOK JAYA","LONGITUDE":106.7276395,"LATITUDE":-6.283631,"STATUS":"BUKA","TANGGAL PENGUMPULAN":"Q2 2024","TANGGAL UPDATE":"27/07/2025"}},{"type":"Feature","geometry":{"coordinates":[106.6647886,-6.2856784],"type":"Point"},"properties":{"fid":180,"NAMA":"HALTE BUS ITC BSD","TIPE_1":"TRANSPORTASI","TIPE_2":"HALTE","TIPE_3":"-","TELEPON":"","ALAMAT":"JL. PAHLAWAN SERIBU, LENGKONG KARYA, KEC. SERPONG UTARA, KOTA TANGERANG SELATAN, BANTEN 15310","ID_PROV":"36","PROVINSI":"BANTEN","ID_KABKOT":"36.74","KABKOT":"KOTA TANGERANG SELATAN","ID_KEC":"36.74.01","KECAMATAN":"SERPONG","ID_DESA":"36.74.01.1005","DESA":"LENGKONG WETAN","LONGITUDE":106.6647886,"LATITUDE":-6.2856784,"STATUS":"BUKA","TANGGAL PENGUMPULAN":"Q2 2024","TANGGAL UPDATE":"27/07/2025"}},{"type":"Feature","geometry":{"coordinates":[106.665724,-6.2992787],"type":"Point"},"properties":{"fid":191,"NAMA":"HALTE BUS TRANS BELAKANG GIANT BSD","TIPE_1":"TRANSPORTASI","TIPE_2":"HALTE","TIPE_3":"-","TELEPON":"","ALAMAT":"LENGKONG GUDANG, SERPONG SUB-DISTRICT, SOUTH TANGERANG CITY, BANTEN 15321","ID_PROV":"36","PROVINSI":"BANTEN","ID_KABKOT":"36.74","KABKOT":"KOTA TANGERANG SELATAN","ID_KEC":"36.74.01","KECAMATAN":"SERPONG","ID_DESA":"36.74.01.1004","DESA":"LENGKONG GUDANG","LONGITUDE":106.665724,"LATITUDE":-6.2992787,"STATUS":"BUKA","TANGGAL PENGUMPULAN":"Q2 2024","TANGGAL UPDATE":"27/07/2025"}},{"type":"Feature","geometry":{"coordinates":[106.7459948,-6.3195557],"type":"Point"},"properties":{"fid":198,"NAMA":"HALTE BUSWAY CIPUTAT","TIPE_1":"TRANSPORTASI","TIPE_2":"HALTE","TIPE_3":"-","TELEPON":"","ALAMAT":"JL. DEWI SARTIKA NO.5, CIPAYUNG, KEC. CIPUTAT, KOTA TANGERANG SELATAN, BANTEN 15411","ID_PROV":"36","PROVINSI":"BANTEN","ID_KABKOT":"36.74","KABKOT":"KOTA TANGERANG SELATAN","ID_KEC":"36.74.04","KECAMATAN":"CIPUTAT","ID_DESA":"36.74.04.1003","DESA":"CIPUTAT","LONGITUDE":106.7459948,"LATITUDE":-6.3195557,"STATUS":"BUKA","TANGGAL PENGUMPULAN":"Q2 2024","TANGGAL UPDATE":"27/07/2025"}},{"type":"Feature","geometry":{"coordinates":[106.7483528,-6.3313029],"type":"Point"},"properties":{"fid":201,"NAMA":"HALTE BUSWAY PPD","TIPE_1":"TRANSPORTASI","TIPE_2":"HALTE","TIPE_3":"-","TELEPON":"(021) 83225661","ALAMAT":"JL. RE MARTADINATA NO.15, CIPAYUNG, KEC. CIPUTAT, KOTA TANGERANG SELATAN, BANTEN 15412","ID_PROV":"36","PROVINSI":"BANTEN","ID_KABKOT":"36.74","KABKOT":"KOTA TANGERANG SELATAN","ID_KEC":"36.74.04","KECAMATAN":"CIPUTAT","ID_DESA":"36.74.04.1003","DESA":"CIPUTAT","LONGITUDE":106.7483528,"LATITUDE":-6.3313029,"STATUS":"BUKA","TANGGAL PENGUMPULAN":"Q2 2024","TANGGAL UPDATE":"27/07/2025"}},{"type":"Feature","geometry":{"coordinates":[106.6736332,-6.2492855],"type":"Point"},"properties":{"fid":207,"NAMA":"HALTE CELESTA","TIPE_1":"TRANSPORTASI","TIPE_2":"HALTE","TIPE_3":"-","TELEPON":"","ALAMAT":"PD. JAGUNG TIM., KEC. SERPONG UTARA, KOTA TANGERANG SELATAN, BANTEN 15326","ID_PROV":"36","PROVINSI":"BANTEN","ID_KABKOT":"36.74","KABKOT":"KOTA TANGERANG SELATAN","ID_KEC":"36.74.02","KECAMATAN":"SERPONG UTARA","ID_DESA":"36.74.02.1005","DESA":"PONDOK JAGUNG TIMUR","LONGITUDE":106.6736332,"LATITUDE":-6.2492855,"STATUS":"BUKA","TANGGAL PENGUMPULAN":"Q2 2024","TANGGAL UPDATE":"27/07/2025"}},{"type":"Feature","geometry":{"coordinates":[106.66682,-6.2997659],"type":"Point"},"properties":{"fid":218,"NAMA":"HALTE EAST BUSINESS DISTRICT","TIPE_1":"TRANSPORTASI","TIPE_2":"HALTE","TIPE_3":"-","TELEPON":"","ALAMAT":"CILENGGANG, KEC. SERPONG, KOTA TANGERANG SELATAN, BANTEN 15310","ID_PROV":"36","PROVINSI":"BANTEN","ID_KABKOT":"36.74","KABKOT":"KOTA TANGERANG SELATAN","ID_KEC":"36.74.01","KECAMATAN":"SERPONG","ID_DESA":"36.74.01.1008","DESA":"CILENGGANG","LONGITUDE":106.66682,"LATITUDE":-6.2997659,"STATUS":"BUKA","TANGGAL PENGUMPULAN":"Q2 2024","TANGGAL UPDATE":"27/07/2025"}},{"type":"Feature","geometry":{"coordinates":[106.6706854,-6.2989888],"type":"Point"},"properties":{"fid":220,"NAMA":"HALTE EKA HOSPITAL 1","TIPE_1":"TRANSPORTASI","TIPE_2":"HALTE","TIPE_3":"-","TELEPON":"","ALAMAT":"LENGKONG GUDANG, KEC. SERPONG, KOTA TANGERANG SELATAN, BANTEN 15321","ID_PROV":"36","PROVINSI":"BANTEN","ID_KABKOT":"36.74","KABKOT":"KOTA TANGERANG SELATAN","ID_KEC":"36.74.01","KECAMATAN":"SERPONG","ID_DESA":"36.74.01.1004","DESA":"LENGKONG GUDANG","LONGITUDE":106.6706854,"LATITUDE":-6.2989888,"STATUS":"BUKA","TANGGAL PENGUMPULAN":"Q2 2024","TANGGAL UPDATE":"27/07/2025"}},{"type":"Feature","geometry":{"coordinates":[106.6508941,-6.2441173],"type":"Point"},"properties":{"fid":221,"NAMA":"HALTE FLAVOR BLISS","TIPE_1":"TRANSPORTASI","TIPE_2":"HALTE","TIPE_3":"-","TELEPON":"(021) 72094939","ALAMAT":"PAKULONAN, KEC. SERPONG UTARA, KOTA TANGERANG SELATAN, BANTEN 15325","ID_PROV":"36","PROVINSI":"BANTEN","ID_KABKOT":"36.74","KABKOT":"KOTA TANGERANG SELATAN","ID_KEC":"36.74.02","KECAMATAN":"SERPONG UTARA","ID_DESA":"36.74.02.1001","DESA":"PAKULONAN","LONGITUDE":106.6508941,"LATITUDE":-6.2441173,"STATUS":"BUKA","TANGGAL PENGUMPULAN":"Q2 2024","TANGGAL UPDATE":"27/07/2025"}},{"type":"Feature","geometry":{"coordinates":[106.6592756,-6.2413656],"type":"Point"},"properties":{"fid":222,"NAMA":"HALTE FLORA ALAM SUTERA","TIPE_1":"TRANSPORTASI","TIPE_2":"HALTE","TIPE_3":"-","TELEPON":"","ALAMAT":"JL. SUTERA UTAMA, PD. JAGUNG TIM., KEC. SERPONG UTARA, KOTA TANGERANG SELATAN, BANTEN 15320","ID_PROV":"36","PROVINSI":"BANTEN","ID_KABKOT":"36.74","KABKOT":"KOTA TANGERANG SELATAN","ID_KEC":"36.74.02","KECAMATAN":"SERPONG UTARA","ID_DESA":"36.74.02.1005","DESA":"PONDOK JAGUNG TIMUR","LONGITUDE":106.6592756,"LATITUDE":-6.2413656,"STATUS":"BUKA","TANGGAL PENGUMPULAN":"Q2 2024","TANGGAL UPDATE":"27/07/2025"}},{"type":"Feature","geometry":{"coordinates":[106.7076707,-6.3231866],"type":"Point"},"properties":{"fid":226,"NAMA":"HALTE GLAD BUS","TIPE_1":"TRANSPORTASI","TIPE_2":"HALTE","TIPE_3":"-","TELEPON":"(021) 22741924","ALAMAT":"JL. CENDANA RESIDENCE, SERUA, KEC. CIPUTAT, KOTA TANGERANG SELATAN, BANTEN 15414","ID_PROV":"36","PROVINSI":"BANTEN","ID_KABKOT":"36.74","KABKOT":"KOTA TANGERANG SELATAN","ID_KEC":"36.74.04","KECAMATAN":"CIPUTAT","ID_DESA":"36.74.04.1002","DESA":"SERUA","LONGITUDE":106.7076707,"LATITUDE":-6.3231866,"STATUS":"BUKA","TANGGAL PENGUMPULAN":"Q2 2024","TANGGAL UPDATE":"27/07/2025"}},{"type":"Feature","geometry":{"coordinates":[106.6769434,-6.2394022],"type":"Point"},"properties":{"fid":227,"NAMA":"HALTE GLAD BUS KLUB KELUARGA - GRAHA RAYA BINTARO - BINTARO XCHAGE - MRT FATMAWATI - MRT LEBAK BULUS","TIPE_1":"TRANSPORTASI","TIPE_2":"HALTE","TIPE_3":"-","TELEPON":"(021) 22741924","ALAMAT":"JALAN BOULEVARD GRAHA RAYA BLOK JA NO. 40, PAKU JAYA, KEC. SERPONG UTARA, KOTA TANGERANG SELATAN, BANTEN 15423","ID_PROV":"36","PROVINSI":"BANTEN","ID_KABKOT":"36.74","KABKOT":"KOTA TANGERANG SELATAN","ID_KEC":"36.74.02","KECAMATAN":"SERPONG UTARA","ID_DESA":"36.74.02.1003","DESA":"PAKUJAYA","LONGITUDE":106.6769434,"LATITUDE":-6.2394022,"STATUS":"BUKA","TANGGAL PENGUMPULAN":"Q2 2024","TANGGAL UPDATE":"27/07/2025"}},{"type":"Feature","geometry":{"coordinates":[106.6822005,-6.3204054],"type":"Point"},"properties":{"fid":228,"NAMA":"HALTE GOLDEN VIENNA","TIPE_1":"TRANSPORTASI","TIPE_2":"HALTE","TIPE_3":"-","TELEPON":"","ALAMAT":"RW. BUNTU, KEC. SERPONG, KOTA TANGERANG SELATAN, BANTEN 15318","ID_PROV":"36","PROVINSI":"BANTEN","ID_KABKOT":"36.74","KABKOT":"KOTA TANGERANG SELATAN","ID_KEC":"36.74.01","KECAMATAN":"SERPONG","ID_DESA":"36.74.01.1002","DESA":"RAWABUNTU","LONGITUDE":106.6822005,"LATITUDE":-6.3204054,"STATUS":"BUKA","TANGGAL PENGUMPULAN":"Q2 2024","TANGGAL UPDATE":"27/07/2025"}},{"type":"Feature","geometry":{"coordinates":[106.6858862,-6.2534146],"type":"Point"},"properties":{"fid":229,"NAMA":"HALTE GRAHA BINTARO","TIPE_1":"TRANSPORTASI","TIPE_2":"HALTE","TIPE_3":"-","TELEPON":"","ALAMAT":"JL. GRAHA RAYA BINTARO, PD. KACANG BAR., KEC. PD. AREN, KOTA TANGERANG SELATAN, BANTEN 15226","ID_PROV":"36","PROVINSI":"BANTEN","ID_KABKOT":"36.74","KABKOT":"KOTA TANGERANG SELATAN","ID_KEC":"36.74.03","KECAMATAN":"PONDOK AREN","ID_DESA":"36.74.03.1006","DESA":"PONDOK KACANG BARAT","LONGITUDE":106.6858862,"LATITUDE":-6.2534146,"STATUS":"BUKA","TANGGAL PENGUMPULAN":"Q2 2024","TANGGAL UPDATE":"27/07/2025"}},{"type":"Feature","geometry":{"coordinates":[106.6790864,-6.2512816],"type":"Point"},"properties":{"fid":230,"NAMA":"HALTE GRAHA BUNGA 2","TIPE_1":"TRANSPORTASI","TIPE_2":"HALTE","TIPE_3":"-","TELEPON":"","ALAMAT":"PD. KACANG BAR., KEC. PD. AREN, KOTA TANGERANG SELATAN, BANTEN","ID_PROV":"36","PROVINSI":"BANTEN","ID_KABKOT":"36.74","KABKOT":"KOTA TANGERANG SELATAN","ID_KEC":"36.74.03","KECAMATAN":"PONDOK AREN","ID_DESA":"36.74.03.1006","DESA":"PONDOK KACANG BARAT","LONGITUDE":106.6790864,"LATITUDE":-6.2512816,"STATUS":"BUKA","TANGGAL PENGUMPULAN":"Q2 2024","TANGGAL UPDATE":"27/07/2025"}},{"type":"Feature","geometry":{"coordinates":[106.6869,-6.3039388],"type":"Point"},"properties":{"fid":234,"NAMA":"HALTE HOLIDAY","TIPE_1":"TRANSPORTASI","TIPE_2":"HALTE","TIPE_3":"-","TELEPON":"","ALAMAT":"JL. SULAWESI IV BLOK B1 NO.23, RW. MEKAR JAYA, KEC. SERPONG, KOTA TANGERANG SELATAN, BANTEN 15310","ID_PROV":"36","PROVINSI":"BANTEN","ID_KABKOT":"36.74","KABKOT":"KOTA TANGERANG SELATAN","ID_KEC":"36.74.01","KECAMATAN":"SERPONG","ID_DESA":"36.74.01.1003","DESA":"RAWA MEKAR JAYA","LONGITUDE":106.6869,"LATITUDE":-6.3039388,"STATUS":"BUKA","TANGGAL PENGUMPULAN":"Q2 2024","TANGGAL UPDATE":"27/07/2025"}},{"type":"Feature","geometry":{"coordinates":[106.6865312,-6.2603144],"type":"Point"},"properties":{"fid":238,"NAMA":"HALTE JALAK BALI","TIPE_1":"TRANSPORTASI","TIPE_2":"HALTE","TIPE_3":"-","TELEPON":"","ALAMAT":"JL. GRAHA RAYA BINTARO, PD. KACANG BAR., KEC. PD. AREN, KOTA TANGERANG SELATAN, BANTEN 15226","ID_PROV":"36","PROVINSI":"BANTEN","ID_KABKOT":"36.74","KABKOT":"KOTA TANGERANG SELATAN","ID_KEC":"36.74.03","KECAMATAN":"PONDOK AREN","ID_DESA":"36.74.03.1006","DESA":"PONDOK KACANG BARAT","LONGITUDE":106.6865312,"LATITUDE":-6.2603144,"STATUS":"BUKA","TANGGAL PENGUMPULAN":"Q2 2024","TANGGAL UPDATE":"27/07/2025"}},{"type":"Feature","geometry":{"coordinates":[106.6730667,-6.3364595],"type":"Point"},"properties":{"fid":243,"NAMA":"HALTE KADEMANGAN","TIPE_1":"TRANSPORTASI","TIPE_2":"HALTE","TIPE_3":"-","TELEPON":"","ALAMAT":"KADEMANGAN, SETU, SOUTH TANGERANG CITY, BANTEN","ID_PROV":"36","PROVINSI":"BANTEN","ID_KABKOT":"36.74","KABKOT":"KOTA TANGERANG SELATAN","ID_KEC":"36.74.07","KECAMATAN":"SETU","ID_DESA":"36.74.07.1004","DESA":"KADEMANGAN","LONGITUDE":106.6730667,"LATITUDE":-6.3364595,"STATUS":"BUKA","TANGGAL PENGUMPULAN":"Q2 2024","TANGGAL UPDATE":"27/07/2025"}},{"type":"Feature","geometry":{"coordinates":[106.7126938,-6.2701463],"type":"Point"},"properties":{"fid":245,"NAMA":"HALTE KEBAYORAN RESIDENCE","TIPE_1":"TRANSPORTASI","TIPE_2":"HALTE","TIPE_3":"-","TELEPON":"","ALAMAT":"JL. MASJID NURUL FAJRI GG. H. JAYA NO.5B, PD. JAYA, KEC. PD. AREN, KOTA TANGERANG SELATAN, BANTEN 15224","ID_PROV":"36","PROVINSI":"BANTEN","ID_KABKOT":"36.74","KABKOT":"KOTA TANGERANG SELATAN","ID_KEC":"36.74.03","KECAMATAN":"PONDOK AREN","ID_DESA":"36.74.03.1004","DESA":"PONDOK JAYA","LONGITUDE":106.7126938,"LATITUDE":-6.2701463,"STATUS":"BUKA","TANGGAL PENGUMPULAN":"Q2 2024","TANGGAL UPDATE":"27/07/2025"}},{"type":"Feature","geometry":{"coordinates":[106.6668177,-6.2996806],"type":"Point"},"properties":{"fid":249,"NAMA":"HALTE LAPANGAN SUNBURST","TIPE_1":"TRANSPORTASI","TIPE_2":"HALTE","TIPE_3":"-","TELEPON":"","ALAMAT":"15310, CILENGGANG, SERPONG SUB-DISTRICT, SOUTH TANGERANG CITY, BANTEN 15310","ID_PROV":"36","PROVINSI":"BANTEN","ID_KABKOT":"36.74","KABKOT":"KOTA TANGERANG SELATAN","ID_KEC":"36.74.01","KECAMATAN":"SERPONG","ID_DESA":"36.74.01.1008","DESA":"CILENGGANG","LONGITUDE":106.6668177,"LATITUDE":-6.2996806,"STATUS":"BUKA","TANGGAL PENGUMPULAN":"Q2 2024","TANGGAL UPDATE":"27/07/2025"}},{"type":"Feature","geometry":{"coordinates":[106.6590228,-6.2356377],"type":"Point"},"properties":{"fid":258,"NAMA":"HALTE OLIVIA","TIPE_1":"TRANSPORTASI","TIPE_2":"HALTE","TIPE_3":"-","TELEPON":"","ALAMAT":"JL. JALUR SUTERA, PAKUALAM, KEC. SERPONG UTARA, KOTA TANGERANG SELATAN, BANTEN 15320","ID_PROV":"36","PROVINSI":"BANTEN","ID_KABKOT":"36.74","KABKOT":"KOTA TANGERANG SELATAN","ID_KEC":"36.74.02","KECAMATAN":"SERPONG UTARA","ID_DESA":"36.74.02.1002","DESA":"PAKUALAM","LONGITUDE":106.6590228,"LATITUDE":-6.2356377,"STATUS":"BUKA","TANGGAL PENGUMPULAN":"Q2 2024","TANGGAL UPDATE":"27/07/2025"}},{"type":"Feature","geometry":{"coordinates":[106.6858412,-6.3053528],"type":"Point"},"properties":{"fid":266,"NAMA":"HALTE PASAR MODERN BSD TANGERANG SELATAN","TIPE_1":"TRANSPORTASI","TIPE_2":"HALTE","TIPE_3":"-","TELEPON":"","ALAMAT":"JL. LETNAN SUTOPO NO.89, RW. MEKAR JAYA, KEC. SERPONG, KOTA TANGERANG SELATAN, BANTEN 15310","ID_PROV":"36","PROVINSI":"BANTEN","ID_KABKOT":"36.74","KABKOT":"KOTA TANGERANG SELATAN","ID_KEC":"36.74.01","KECAMATAN":"SERPONG","ID_DESA":"36.74.01.1003","DESA":"RAWA MEKAR JAYA","LONGITUDE":106.6858412,"LATITUDE":-6.3053528,"STATUS":"BUKA","TANGGAL PENGUMPULAN":"Q2 2024","TANGGAL UPDATE":"27/07/2025"}},{"type":"Feature","geometry":{"coordinates":[106.756159,-6.3450472],"type":"Point"},"properties":{"fid":274,"NAMA":"HALTE PONDOK CABE CITY MARKET A46","TIPE_1":"TRANSPORTASI","TIPE_2":"HALTE","TIPE_3":"-","TELEPON":"","ALAMAT":"PD. CABE UDIK, KEC. PAMULANG, KOTA TANGERANG SELATAN, BANTEN 15418","ID_PROV":"36","PROVINSI":"BANTEN","ID_KABKOT":"36.74","KABKOT":"KOTA TANGERANG SELATAN","ID_KEC":"36.74.06","KECAMATAN":"PAMULANG","ID_DESA":"36.74.06.1004","DESA":"PONDOK CABE UDIK","LONGITUDE":106.756159,"LATITUDE":-6.3450472,"STATUS":"BUKA","TANGGAL PENGUMPULAN":"Q2 2024","TANGGAL UPDATE":"27/07/2025"}},{"type":"Feature","geometry":{"coordinates":[106.6507656,-6.2442169],"type":"Point"},"properties":{"fid":281,"NAMA":"HALTE RS OMNI","TIPE_1":"TRANSPORTASI","TIPE_2":"HALTE","TIPE_3":"-","TELEPON":"","ALAMAT":"PAKULONAN, KEC. SERPONG UTARA, KOTA TANGERANG SELATAN, BANTEN 15325","ID_PROV":"36","PROVINSI":"BANTEN","ID_KABKOT":"36.74","KABKOT":"KOTA TANGERANG SELATAN","ID_KEC":"36.74.02","KECAMATAN":"SERPONG UTARA","ID_DESA":"36.74.02.1001","DESA":"PAKULONAN","LONGITUDE":106.6507656,"LATITUDE":-6.2442169,"STATUS":"BUKA","TANGGAL PENGUMPULAN":"Q2 2024","TANGGAL UPDATE":"27/07/2025"}},{"type":"Feature","geometry":{"coordinates":[106.7336087,-6.3506822],"type":"Point"},"properties":{"fid":287,"NAMA":"HALTE SEKOLAH","TIPE_1":"TRANSPORTASI","TIPE_2":"HALTE","TIPE_3":"-","TELEPON":"","ALAMAT":"JL. SURYA KENCANA NO.29, PAMULANG BAR., KEC. PAMULANG, KOTA TANGERANG SELATAN, BANTEN 15417","ID_PROV":"36","PROVINSI":"BANTEN","ID_KABKOT":"36.74","KABKOT":"KOTA TANGERANG SELATAN","ID_KEC":"36.74.06","KECAMATAN":"PAMULANG","ID_DESA":"36.74.06.1001","DESA":"PAMULANG BARAT","LONGITUDE":106.7336087,"LATITUDE":-6.3506822,"STATUS":"BUKA","TANGGAL PENGUMPULAN":"Q2 2024","TANGGAL UPDATE":"27/07/2025"}},{"type":"Feature","geometry":{"coordinates":[106.6578934,-6.2394353],"type":"Point"},"properties":{"fid":297,"NAMA":"HALTE SPORT CENTRE","TIPE_1":"TRANSPORTASI","TIPE_2":"HALTE","TIPE_3":"-","TELEPON":"","ALAMAT":"JL. ALAM SUTERA BOULEVARD, PD. JAGUNG TIM., KEC. SERPONG UTARA, KOTA TANGERANG SELATAN, BANTEN 15320","ID_PROV":"36","PROVINSI":"BANTEN","ID_KABKOT":"36.74","KABKOT":"KOTA TANGERANG SELATAN","ID_KEC":"36.74.02","KECAMATAN":"SERPONG UTARA","ID_DESA":"36.74.02.1002","DESA":"PAKUALAM","LONGITUDE":106.6578934,"LATITUDE":-6.2394353,"STATUS":"BUKA","TANGGAL PENGUMPULAN":"Q2 2024","TANGGAL UPDATE":"27/07/2025"}},{"type":"Feature","geometry":{"coordinates":[106.7319394,-6.2700777],"type":"Point"},"properties":{"fid":298,"NAMA":"HALTE STAN","TIPE_1":"TRANSPORTASI","TIPE_2":"HALTE","TIPE_3":"-","TELEPON":"","ALAMAT":"TAMAN, JL. PD. JAYA, PD. RANJI, KEC. CIPUTAT TIM., KOTA TANGERANG SELATAN, BANTEN 15412","ID_PROV":"36","PROVINSI":"BANTEN","ID_KABKOT":"36.74","KABKOT":"KOTA TANGERANG SELATAN","ID_KEC":"36.74.03","KECAMATAN":"PONDOK AREN","ID_DESA":"36.74.03.1011","DESA":"JURANGMANGU TIMUR","LONGITUDE":106.7319394,"LATITUDE":-6.2700777,"STATUS":"BUKA","TANGGAL PENGUMPULAN":"Q2 2024","TANGGAL UPDATE":"27/07/2025"}},{"type":"Feature","geometry":{"coordinates":[106.6508351,-6.2441416],"type":"Point"},"properties":{"fid":305,"NAMA":"HALTE SUTRALOOP BUS THE FLAVOR BLISS ALAM SUTERA","TIPE_1":"TRANSPORTASI","TIPE_2":"HALTE","TIPE_3":"-","TELEPON":"(021) 5398000","ALAMAT":"LIVING WORLD, JL. ALAM SUTERA BOULEVARD NO.21, PAKULONAN, KEC. SERPONG UTARA, KOTA TANGERANG SELATAN, BANTEN 15325","ID_PROV":"36","PROVINSI":"BANTEN","ID_KABKOT":"36.74","KABKOT":"KOTA TANGERANG SELATAN","ID_KEC":"36.74.02","KECAMATAN":"SERPONG UTARA","ID_DESA":"36.74.02.1001","DESA":"PAKULONAN","LONGITUDE":106.6508351,"LATITUDE":-6.2441416,"STATUS":"BUKA","TANGGAL PENGUMPULAN":"Q2 2024","TANGGAL UPDATE":"27/07/2025"}},{"type":"Feature","geometry":{"coordinates":[106.6612065,-6.2779108],"type":"Point"},"properties":{"fid":312,"NAMA":"HALTE TELKOM BSD","TIPE_1":"TRANSPORTASI","TIPE_2":"HALTE","TIPE_3":"-","TELEPON":"","ALAMAT":"LENGKONG KARYA, SERPONG UTARA, SOUTH TANGERANG CITY, BANTEN 15310","ID_PROV":"36","PROVINSI":"BANTEN","ID_KABKOT":"36.74","KABKOT":"KOTA TANGERANG SELATAN","ID_KEC":"36.74.02","KECAMATAN":"SERPONG UTARA","ID_DESA":"36.74.02.1007","DESA":"LENGKONG KARYA","LONGITUDE":106.6612065,"LATITUDE":-6.2779108,"STATUS":"BUKA","TANGGAL PENGUMPULAN":"Q2 2024","TANGGAL UPDATE":"27/07/2025"}},{"type":"Feature","geometry":{"coordinates":[106.7276528,-6.2836436],"type":"Point"},"properties":{"fid":316,"NAMA":"HALTE TRANS BINTARO","TIPE_1":"TRANSPORTASI","TIPE_2":"HALTE","TIPE_3":"-","TELEPON":"","ALAMAT":"PD. JAYA, KEC. PD. AREN, KOTA TANGERANG SELATAN, BANTEN 15220","ID_PROV":"36","PROVINSI":"BANTEN","ID_KABKOT":"36.74","KABKOT":"KOTA TANGERANG SELATAN","ID_KEC":"36.74.03","KECAMATAN":"PONDOK AREN","ID_DESA":"36.74.03.1004","DESA":"PONDOK JAYA","LONGITUDE":106.7276528,"LATITUDE":-6.2836436,"STATUS":"BUKA","TANGGAL PENGUMPULAN":"Q2 2024","TANGGAL UPDATE":"27/07/2025"}},{"type":"Feature","geometry":{"coordinates":[106.6631038,-6.2808855],"type":"Point"},"properties":{"fid":321,"NAMA":"HALTE TRANSJAKARTA S11 BSD PLAZA 2","TIPE_1":"TRANSPORTASI","TIPE_2":"HALTE","TIPE_3":"-","TELEPON":"1 500 102","ALAMAT":"LENGKONG WETAN, SERPONG SUB-DISTRICT, SOUTH TANGERANG CITY, BANTEN 15310","ID_PROV":"36","PROVINSI":"BANTEN","ID_KABKOT":"36.74","KABKOT":"KOTA TANGERANG SELATAN","ID_KEC":"36.74.01","KECAMATAN":"SERPONG","ID_DESA":"36.74.01.1005","DESA":"LENGKONG WETAN","LONGITUDE":106.6631038,"LATITUDE":-6.2808855,"STATUS":"BUKA","TANGGAL PENGUMPULAN":"Q2 2024","TANGGAL UPDATE":"27/07/2025"}},{"type":"Feature","geometry":{"coordinates":[106.7560457,-6.3075173],"type":"Point"},"properties":{"fid":325,"NAMA":"HALTE UIN SYARIFHIDAYATULLAH","TIPE_1":"TRANSPORTASI","TIPE_2":"HALTE","TIPE_3":"-","TELEPON":"0812-8429-1910","ALAMAT":"JL. IR H. JUANDA NO.12, PISANGAN, KEC. CIPUTAT TIM., KOTA TANGERANG SELATAN, BANTEN 15419","ID_PROV":"36","PROVINSI":"BANTEN","ID_KABKOT":"36.74","KABKOT":"KOTA TANGERANG SELATAN","ID_KEC":"36.74.04","KECAMATAN":"CIPUTAT","ID_DESA":"36.74.04.1003","DESA":"CIPUTAT","LONGITUDE":106.7560457,"LATITUDE":-6.3075173,"STATUS":"BUKA","TANGGAL PENGUMPULAN":"Q2 2024","TANGGAL UPDATE":"27/07/2025"}},{"type":"Feature","geometry":{"coordinates":[106.6920586,-6.3469422],"type":"Point"},"properties":{"fid":327,"NAMA":"HALTE UNPAM 2","TIPE_1":"TRANSPORTASI","TIPE_2":"HALTE","TIPE_3":"-","TELEPON":"","ALAMAT":"BUARAN, KEC. SERPONG, KOTA TANGERANG SELATAN, BANTEN 15310","ID_PROV":"36","PROVINSI":"BANTEN","ID_KABKOT":"36.74","KABKOT":"KOTA TANGERANG SELATAN","ID_KEC":"36.74.01","KECAMATAN":"SERPONG","ID_DESA":"36.74.01.1006","DESA":"BUARAN","LONGITUDE":106.6920586,"LATITUDE":-6.3469422,"STATUS":"BUKA","TANGGAL PENGUMPULAN":"Q2 2024","TANGGAL UPDATE":"27/07/2025"}},{"type":"Feature","geometry":{"coordinates":[106.76507,-6.29385],"type":"Point"},"properties":{"fid":337,"NAMA":"JLN. SANDRATEX 1","TIPE_1":"TRANSPORTASI","TIPE_2":"HALTE","TIPE_3":"-","TELEPON":"","ALAMAT":"REMPOA, KEC. CIPUTAT TIM., KOTA TANGERANG SELATAN, BANTEN","ID_PROV":"36","PROVINSI":"BANTEN","ID_KABKOT":"36.74","KABKOT":"KOTA TANGERANG SELATAN","ID_KEC":"36.74.05","KECAMATAN":"CIPUTAT TIMUR","ID_DESA":"36.74.05.1005","DESA":"REMPOA","LONGITUDE":106.76507,"LATITUDE":-6.29385,"STATUS":"BUKA","TANGGAL PENGUMPULAN":"Q2 2024","TANGGAL UPDATE":"27/07/2025"}},{"type":"Feature","geometry":{"coordinates":[106.7487589,-6.3319713],"type":"Point"},"properties":{"fid":342,"NAMA":"POOL PPD TRANSJAKARTA CIPUTAT","TIPE_1":"TRANSPORTASI","TIPE_2":"HALTE","TIPE_3":"-","TELEPON":"","ALAMAT":"CIPAYUNG, KEC. CIPUTAT, KOTA TANGERANG SELATAN, BANTEN","ID_PROV":"36","PROVINSI":"BANTEN","ID_KABKOT":"36.74","KABKOT":"KOTA TANGERANG SELATAN","ID_KEC":"36.74.04","KECAMATAN":"CIPUTAT","ID_DESA":"36.74.04.1007","DESA":"CIPAYUNG","LONGITUDE":106.7487589,"LATITUDE":-6.3319713,"STATUS":"BUKA","TANGGAL PENGUMPULAN":"Q2 2024","TANGGAL UPDATE":"27/07/2025"}},{"type":"Feature","geometry":{"coordinates":[106.67665,-6.31404],"type":"Point"},"properties":{"fid":345,"NAMA":"RAWA BUNTU","TIPE_1":"TRANSPORTASI","TIPE_2":"HALTE","TIPE_3":"-","TELEPON":"","ALAMAT":"CILENGGANG, KEC. SERPONG, KOTA TANGERANG SELATAN, BANTEN","ID_PROV":"36","PROVINSI":"BANTEN","ID_KABKOT":"36.74","KABKOT":"KOTA TANGERANG SELATAN","ID_KEC":"36.74.01","KECAMATAN":"SERPONG","ID_DESA":"36.74.01.1008","DESA":"CILENGGANG","LONGITUDE":106.67665,"LATITUDE":-6.31404,"STATUS":"BUKA","TANGGAL PENGUMPULAN":"Q2 2024","TANGGAL UPDATE":"27/07/2025"}},{"type":"Feature","geometry":{"coordinates":[106.67339,-6.30852],"type":"Point"},"properties":{"fid":346,"NAMA":"SEBERANG VERSAILLES","TIPE_1":"TRANSPORTASI","TIPE_2":"HALTE","TIPE_3":"-","TELEPON":"","ALAMAT":"CILENGGANG, KEC. SERPONG, KOTA TANGERANG SELATAN, BANTEN","ID_PROV":"36","PROVINSI":"BANTEN","ID_KABKOT":"36.74","KABKOT":"KOTA TANGERANG SELATAN","ID_KEC":"36.74.01","KECAMATAN":"SERPONG","ID_DESA":"36.74.01.1008","DESA":"CILENGGANG","LONGITUDE":106.67339,"LATITUDE":-6.30852,"STATUS":"BUKA","TANGGAL PENGUMPULAN":"Q2 2024","TANGGAL UPDATE":"27/07/2025"}},{"type":"Feature","geometry":{"coordinates":[106.74596,-6.31994],"type":"Point"},"properties":{"fid":349,"NAMA":"SMK DARUSSALAM","TIPE_1":"TRANSPORTASI","TIPE_2":"HALTE","TIPE_3":"-","TELEPON":"","ALAMAT":"CIPUTAT, KEC. CIPUTAT, KOTA TANGERANG SELATAN, BANTEN","ID_PROV":"36","PROVINSI":"BANTEN","ID_KABKOT":"36.74","KABKOT":"KOTA TANGERANG SELATAN","ID_KEC":"36.74.04","KECAMATAN":"CIPUTAT","ID_DESA":"36.74.04.1003","DESA":"CIPUTAT","LONGITUDE":106.74596,"LATITUDE":-6.31994,"STATUS":"BUKA","TANGGAL PENGUMPULAN":"Q2 2024","TANGGAL UPDATE":"27/07/2025"}},{"type":"Feature","geometry":{"coordinates":[106.72967,-6.28977],"type":"Point"},"properties":{"fid":351,"NAMA":"ST JURANG MANGU","TIPE_1":"TRANSPORTASI","TIPE_2":"HALTE","TIPE_3":"-","TELEPON":"","ALAMAT":"SAWAH LAMA, KEC. CIPUTAT, KOTA TANGERANG SELATAN, BANTEN","ID_PROV":"36","PROVINSI":"BANTEN","ID_KABKOT":"36.74","KABKOT":"KOTA TANGERANG SELATAN","ID_KEC":"36.74.04","KECAMATAN":"CIPUTAT","ID_DESA":"36.74.04.1004","DESA":"SAWAH","LONGITUDE":106.72967,"LATITUDE":-6.28977,"STATUS":"BUKA","TANGGAL PENGUMPULAN":"Q2 2024","TANGGAL UPDATE":"27/07/2025"}},{"type":"Feature","geometry":{"coordinates":[106.6666028,-6.2952666],"type":"Point"},"properties":{"fid":353,"NAMA":"TERASKOTA","TIPE_1":"TRANSPORTASI","TIPE_2":"HALTE","TIPE_3":"-","TELEPON":"","ALAMAT":"LENGKONG GUDANG, KEC. SERPONG, KOTA TANGERANG SELATAN, BANTEN","ID_PROV":"36","PROVINSI":"BANTEN","ID_KABKOT":"36.74","KABKOT":"KOTA TANGERANG SELATAN","ID_KEC":"36.74.01","KECAMATAN":"SERPONG","ID_DESA":"36.74.01.1004","DESA":"LENGKONG GUDANG","LONGITUDE":106.6666028,"LATITUDE":-6.2952666,"STATUS":"BUKA","TANGGAL PENGUMPULAN":"Q2 2024","TANGGAL UPDATE":"27/07/2025"}},{"type":"Feature","geometry":{"coordinates":[106.754838,-6.3581356],"type":"Point"},"properties":{"fid":355,"NAMA":"TRANSJAKARTA - TERMINAL PONDOK CABE","TIPE_1":"TRANSPORTASI","TIPE_2":"HALTE","TIPE_3":"-","TELEPON":"(021) 8784574","ALAMAT":"HALTE TRANSJAKARTA, JL. TERMINAL PD. CABE(KH. SALEM), PD. CABE UDIK, KEC. PAMULANG, KOTA TANGERANG SELATAN, BANTEN 15418","ID_PROV":"36","PROVINSI":"BANTEN","ID_KABKOT":"36.74","KABKOT":"KOTA TANGERANG SELATAN","ID_KEC":"36.74.06","KECAMATAN":"PAMULANG","ID_DESA":"36.74.06.1004","DESA":"PONDOK CABE UDIK","LONGITUDE":106.754838,"LATITUDE":-6.3581356,"STATUS":"BUKA","TANGGAL PENGUMPULAN":"Q2 2024","TANGGAL UPDATE":"27/07/2025"}}]}