{"type":"FeatureCollection","features":[{"type":"Feature","geometry":{"coordinates":[106.71342,-6.07072],"type":"Point"},"properties":{"fid":148,"NAMA":"ALOHA","TIPE_1":"TRANSPORTASI","TIPE_2":"HALTE","TIPE_3":"-","TELEPON":"","ALAMAT":"","ID_PROV":"36","PROVINSI":"BANTEN","ID_KABKOT":"36.03","KABKOT":"TANGERANG","ID_KEC":"36.03.14","KECAMATAN":"KOSAMBI","ID_DESA":"36.03.14.2002","DESA":"KOSAMBI TIMUR","LONGITUDE":106.71342,"LATITUDE":-6.07072,"STATUS":"BUKA","TANGGAL PENGUMPULAN":"Q2 2024","TANGGAL UPDATE":"27/07/2025"}},{"type":"Feature","geometry":{"coordinates":[106.5243493,-6.2411737],"type":"Point"},"properties":{"fid":162,"NAMA":"HALTE BANK MANDIRI","TIPE_1":"TRANSPORTASI","TIPE_2":"HALTE","TIPE_3":"-","TELEPON":"","ALAMAT":"BLOK L1 NO 16R, JL. CITRA RAYA NO.RAYA, CIKUPA, KEC. CIKUPA, KABUPATEN TANGERANG, BANTEN 15710","ID_PROV":"36","PROVINSI":"BANTEN","ID_KABKOT":"36.03","KABKOT":"TANGERANG","ID_KEC":"36.03.18","KECAMATAN":"CIKUPA","ID_DESA":"36.03.18.2007","DESA":"CIKUPA","LONGITUDE":106.5243493,"LATITUDE":-6.2411737,"STATUS":"BUKA","TANGGAL PENGUMPULAN":"Q2 2024","TANGGAL UPDATE":"27/07/2025"}},{"type":"Feature","geometry":{"coordinates":[106.5660447,-6.1482388],"type":"Point"},"properties":{"fid":164,"NAMA":"HALTE BATANGHARI","TIPE_1":"TRANSPORTASI","TIPE_2":"HALTE","TIPE_3":"-","TELEPON":"","ALAMAT":"KUTABUMI, KEC. PS. KEMIS, KABUPATEN TANGERANG, BANTEN 15560","ID_PROV":"36","PROVINSI":"BANTEN","ID_KABKOT":"36.03","KABKOT":"TANGERANG","ID_KEC":"36.03.12","KECAMATAN":"PASAR KEMIS","ID_DESA":"36.03.12.1010","DESA":"KUTABUMI","LONGITUDE":106.5660447,"LATITUDE":-6.1482388,"STATUS":"BUKA","TANGGAL PENGUMPULAN":"Q2 2024","TANGGAL UPDATE":"27/07/2025"}},{"type":"Feature","geometry":{"coordinates":[106.6486779,-6.3120921],"type":"Point"},"properties":{"fid":168,"NAMA":"HALTE BSD LINK - THE ICON COSMO - BS-0204","TIPE_1":"TRANSPORTASI","TIPE_2":"HALTE","TIPE_3":"-","TELEPON":"","ALAMAT":"SAMPORA, KEC. CISAUK, KABUPATEN TANGERANG, BANTEN 15345","ID_PROV":"36","PROVINSI":"BANTEN","ID_KABKOT":"36.03","KABKOT":"TANGERANG","ID_KEC":"36.03.23","KECAMATAN":"CISAUK","ID_DESA":"36.03.23.2006","DESA":"SAMPORA","LONGITUDE":106.6486779,"LATITUDE":-6.3120921,"STATUS":"BUKA","TANGGAL PENGUMPULAN":"Q2 2024","TANGGAL UPDATE":"27/07/2025"}},{"type":"Feature","geometry":{"coordinates":[106.6420855,-6.3023862],"type":"Point"},"properties":{"fid":169,"NAMA":"HALTE BSD LINK AEON","TIPE_1":"TRANSPORTASI","TIPE_2":"HALTE","TIPE_3":"-","TELEPON":"","ALAMAT":"PAGEDANGAN, KEC. PAGEDANGAN, KABUPATEN TANGERANG, BANTEN 15339","ID_PROV":"36","PROVINSI":"BANTEN","ID_KABKOT":"36.03","KABKOT":"TANGERANG","ID_KEC":"36.03.22","KECAMATAN":"PAGEDANGAN","ID_DESA":"36.03.22.2003","DESA":"PAGEDANGAN","LONGITUDE":106.6420855,"LATITUDE":-6.3023862,"STATUS":"BUKA","TANGGAL PENGUMPULAN":"Q2 2024","TANGGAL UPDATE":"27/07/2025"}},{"type":"Feature","geometry":{"coordinates":[106.6520979,-6.3008675],"type":"Point"},"properties":{"fid":174,"NAMA":"HALTE BUS BSD CITY","TIPE_1":"TRANSPORTASI","TIPE_2":"HALTE","TIPE_3":"-","TELEPON":"","ALAMAT":"BSD, SAMPORA, KEC. TGR, KABUPATEN TANGERANG, BANTEN 15345","ID_PROV":"36","PROVINSI":"BANTEN","ID_KABKOT":"36.03","KABKOT":"TANGERANG","ID_KEC":"36.03.23","KECAMATAN":"CISAUK","ID_DESA":"36.03.23.2006","DESA":"SAMPORA","LONGITUDE":106.6520979,"LATITUDE":-6.3008675,"STATUS":"BUKA","TANGGAL PENGUMPULAN":"Q2 2024","TANGGAL UPDATE":"27/07/2025"}},{"type":"Feature","geometry":{"coordinates":[106.6364225,-6.2812013],"type":"Point"},"properties":{"fid":185,"NAMA":"HALTE BUS PANGKALAN CERI","TIPE_1":"TRANSPORTASI","TIPE_2":"HALTE","TIPE_3":"-","TELEPON":"","ALAMAT":"JL. LENGKONG KULON NO.25, LENGKONG KULON, KEC. PAGEDANGAN, KABUPATEN TANGERANG, BANTEN 15331","ID_PROV":"36","PROVINSI":"BANTEN","ID_KABKOT":"36.03","KABKOT":"TANGERANG","ID_KEC":"36.03.22","KECAMATAN":"PAGEDANGAN","ID_DESA":"36.03.22.2006","DESA":"LENGKONG KULON","LONGITUDE":106.6364225,"LATITUDE":-6.2812013,"STATUS":"BUKA","TANGGAL PENGUMPULAN":"Q2 2024","TANGGAL UPDATE":"27/07/2025"}},{"type":"Feature","geometry":{"coordinates":[106.66749,-6.11921],"type":"Point"},"properties":{"fid":190,"NAMA":"HALTE BUS TERMINAL 3","TIPE_1":"TRANSPORTASI","TIPE_2":"HALTE","TIPE_3":"-","TELEPON":"","ALAMAT":"PAJANG, KEC. BENDA, KOTA TANGERANG, BANTEN","ID_PROV":"36","PROVINSI":"BANTEN","ID_KABKOT":"36.03","KABKOT":"TANGERANG","ID_KEC":"36.03.14","KECAMATAN":"KOSAMBI","ID_DESA":"36.03.14.2006","DESA":"RAWA BURUNG","LONGITUDE":106.66749,"LATITUDE":-6.11921,"STATUS":"BUKA","TANGGAL PENGUMPULAN":"Q2 2024","TANGGAL UPDATE":"27/07/2025"}},{"type":"Feature","geometry":{"coordinates":[106.5060028,-6.2251579],"type":"Point"},"properties":{"fid":210,"NAMA":"HALTE CIKUPA","TIPE_1":"TRANSPORTASI","TIPE_2":"HALTE","TIPE_3":"-","TELEPON":"","ALAMAT":"SUKAMULYA, KEC. CIKUPA, KABUPATEN TANGERANG, BANTEN 15710","ID_PROV":"36","PROVINSI":"BANTEN","ID_KABKOT":"36.03","KABKOT":"TANGERANG","ID_KEC":"36.03.18","KECAMATAN":"CIKUPA","ID_DESA":"36.03.18.2014","DESA":"BOJONG","LONGITUDE":106.5060028,"LATITUDE":-6.2251579,"STATUS":"BUKA","TANGGAL PENGUMPULAN":"Q2 2024","TANGGAL UPDATE":"27/07/2025"}},{"type":"Feature","geometry":{"coordinates":[106.5686321,-6.1470358],"type":"Point"},"properties":{"fid":215,"NAMA":"HALTE DINAMART","TIPE_1":"TRANSPORTASI","TIPE_2":"HALTE","TIPE_3":"-","TELEPON":"","ALAMAT":"JL. RAYA CADAS - KUKUN RW NO.11, RW.KM.4, KUTABUMI, KEC. PS. KEMIS, KABUPATEN TANGERANG, BANTEN 15560","ID_PROV":"36","PROVINSI":"BANTEN","ID_KABKOT":"36.03","KABKOT":"TANGERANG","ID_KEC":"36.03.12","KECAMATAN":"PASAR KEMIS","ID_DESA":"36.03.12.1010","DESA":"KUTABUMI","LONGITUDE":106.5686321,"LATITUDE":-6.1470358,"STATUS":"BUKA","TANGGAL PENGUMPULAN":"Q2 2024","TANGGAL UPDATE":"27/07/2025"}},{"type":"Feature","geometry":{"coordinates":[106.624706,-6.2456197],"type":"Point"},"properties":{"fid":216,"NAMA":"HALTE DOTCOM","TIPE_1":"TRANSPORTASI","TIPE_2":"HALTE","TIPE_3":"-","TELEPON":"","ALAMAT":"JL. BOULEVARD RAYA GADING SERPONG, SERPONGKLP. DUA, KEC. KLP. DUA, KABUPATEN TANGERANG, BANTEN 15810","ID_PROV":"36","PROVINSI":"BANTEN","ID_KABKOT":"36.03","KABKOT":"TANGERANG","ID_KEC":"36.03.28","KECAMATAN":"KELAPA DUA","ID_DESA":"36.03.28.2006","DESA":"CURUG SANGERENG","LONGITUDE":106.624706,"LATITUDE":-6.2456197,"STATUS":"BUKA","TANGGAL PENGUMPULAN":"Q2 2024","TANGGAL UPDATE":"27/07/2025"}},{"type":"Feature","geometry":{"coordinates":[106.4686245,-6.2601058],"type":"Point"},"properties":{"fid":217,"NAMA":"HALTE DRIVER ONLINE UNTARA","TIPE_1":"TRANSPORTASI","TIPE_2":"HALTE","TIPE_3":"-","TELEPON":"","ALAMAT":"TIGARAKSA, KEC. TIGARAKSA, KABUPATEN TANGERANG, BANTEN","ID_PROV":"36","PROVINSI":"BANTEN","ID_KABKOT":"36.03","KABKOT":"TANGERANG","ID_KEC":"36.03.03","KECAMATAN":"TIGARAKSA","ID_DESA":"36.03.03.1001","DESA":"TIGARAKSA","LONGITUDE":106.4686245,"LATITUDE":-6.2601058,"STATUS":"BUKA","TANGGAL PENGUMPULAN":"Q2 2024","TANGGAL UPDATE":"27/07/2025"}},{"type":"Feature","geometry":{"coordinates":[106.6417523,-6.3024577],"type":"Point"},"properties":{"fid":219,"NAMA":"HALTE EDUTOWN","TIPE_1":"TRANSPORTASI","TIPE_2":"HALTE","TIPE_3":"-","TELEPON":"","ALAMAT":"PAGEDANGAN, TANGERANG REGENCY, BANTEN 15339","ID_PROV":"36","PROVINSI":"BANTEN","ID_KABKOT":"36.03","KABKOT":"TANGERANG","ID_KEC":"36.03.22","KECAMATAN":"PAGEDANGAN","ID_DESA":"36.03.22.2003","DESA":"PAGEDANGAN","LONGITUDE":106.6417523,"LATITUDE":-6.3024577,"STATUS":"BUKA","TANGGAL PENGUMPULAN":"Q2 2024","TANGGAL UPDATE":"27/07/2025"}},{"type":"Feature","geometry":{"coordinates":[106.640528,-6.2960288],"type":"Point"},"properties":{"fid":223,"NAMA":"HALTE FPL 1","TIPE_1":"TRANSPORTASI","TIPE_2":"HALTE","TIPE_3":"-","TELEPON":"","ALAMAT":"FORESTA BUSINESS LOFT 1 UNIT 12 BSD, PAGEDANGAN, TANGERANG REGENCY, BANTEN 15339","ID_PROV":"36","PROVINSI":"BANTEN","ID_KABKOT":"36.03","KABKOT":"TANGERANG","ID_KEC":"36.03.22","KECAMATAN":"PAGEDANGAN","ID_DESA":"36.03.22.2003","DESA":"PAGEDANGAN","LONGITUDE":106.640528,"LATITUDE":-6.2960288,"STATUS":"BUKA","TANGGAL PENGUMPULAN":"Q2 2024","TANGGAL UPDATE":"27/07/2025"}},{"type":"Feature","geometry":{"coordinates":[106.6397837,-6.291165],"type":"Point"},"properties":{"fid":224,"NAMA":"HALTE FPL 2","TIPE_1":"TRANSPORTASI","TIPE_2":"HALTE","TIPE_3":"-","TELEPON":"","ALAMAT":"THE POWER PR TOWER FORESTA BUSINESS LOFT 2, JL. BSD RAYA UTAMA NO.11, PAGEDANGAN, TANGERANG REGENCY, BANTEN 15339","ID_PROV":"36","PROVINSI":"BANTEN","ID_KABKOT":"36.03","KABKOT":"TANGERANG","ID_KEC":"36.03.22","KECAMATAN":"PAGEDANGAN","ID_DESA":"36.03.22.2003","DESA":"PAGEDANGAN","LONGITUDE":106.6397837,"LATITUDE":-6.291165,"STATUS":"BUKA","TANGGAL PENGUMPULAN":"Q2 2024","TANGGAL UPDATE":"27/07/2025"}},{"type":"Feature","geometry":{"coordinates":[106.5912219,-6.2492506],"type":"Point"},"properties":{"fid":225,"NAMA":"HALTE GANG SUMATERA","TIPE_1":"TRANSPORTASI","TIPE_2":"HALTE","TIPE_3":"-","TELEPON":"","ALAMAT":"BLOK TH, JL. SUMATERA JL. DASANA INDAH BLOK TH, BOJONG NANGKA, KEC. KLP. DUA, KABUPATEN TANGERANG, BANTEN 15810","ID_PROV":"36","PROVINSI":"BANTEN","ID_KABKOT":"36.03","KABKOT":"TANGERANG","ID_KEC":"36.03.28","KECAMATAN":"KELAPA DUA","ID_DESA":"36.03.28.1005","DESA":"BOJONG NANGKA","LONGITUDE":106.5912219,"LATITUDE":-6.2492506,"STATUS":"BUKA","TANGGAL PENGUMPULAN":"Q2 2024","TANGGAL UPDATE":"27/07/2025"}},{"type":"Feature","geometry":{"coordinates":[106.6352788,-6.3023251],"type":"Point"},"properties":{"fid":235,"NAMA":"HALTE ICE 2","TIPE_1":"TRANSPORTASI","TIPE_2":"HALTE","TIPE_3":"-","TELEPON":"","ALAMAT":"JL. BSD GRAND BOULEVARD, PAGEDANGAN, KEC. PAGEDANGAN, KABUPATEN TANGERANG, BANTEN 15339","ID_PROV":"36","PROVINSI":"BANTEN","ID_KABKOT":"36.03","KABKOT":"TANGERANG","ID_KEC":"36.03.22","KECAMATAN":"PAGEDANGAN","ID_DESA":"36.03.22.2003","DESA":"PAGEDANGAN","LONGITUDE":106.6352788,"LATITUDE":-6.3023251,"STATUS":"BUKA","TANGGAL PENGUMPULAN":"Q2 2024","TANGGAL UPDATE":"27/07/2025"}},{"type":"Feature","geometry":{"coordinates":[106.6294,-6.2408768],"type":"Point"},"properties":{"fid":241,"NAMA":"HALTE JR&JA CONNEXION SMS","TIPE_1":"TRANSPORTASI","TIPE_2":"HALTE","TIPE_3":"-","TELEPON":"","ALAMAT":"PAKULONAN BAR., KEC. KLP. DUA, KABUPATEN TANGERANG, BANTEN 15810","ID_PROV":"36","PROVINSI":"BANTEN","ID_KABKOT":"36.03","KABKOT":"TANGERANG","ID_KEC":"36.03.28","KECAMATAN":"KELAPA DUA","ID_DESA":"36.03.28.1004","DESA":"PAKULONAN BARAT","LONGITUDE":106.6294,"LATITUDE":-6.2408768,"STATUS":"BUKA","TANGGAL PENGUMPULAN":"Q2 2024","TANGGAL UPDATE":"27/07/2025"}},{"type":"Feature","geometry":{"coordinates":[106.5257419,-6.2438733],"type":"Point"},"properties":{"fid":250,"NAMA":"HALTE MARDIGRAS UTARA","TIPE_1":"TRANSPORTASI","TIPE_2":"HALTE","TIPE_3":"-","TELEPON":"","ALAMAT":"JL. CITRA RAYA UTAMA TIMUR, MEKAR BAKTI, KEC. PANONGAN, KABUPATEN TANGERANG, BANTEN 15710","ID_PROV":"36","PROVINSI":"BANTEN","ID_KABKOT":"36.03","KABKOT":"TANGERANG","ID_KEC":"36.03.19","KECAMATAN":"PANONGAN","ID_DESA":"36.03.19.1002","DESA":"MEKAR BAKTI","LONGITUDE":106.5257419,"LATITUDE":-6.2438733,"STATUS":"BUKA","TANGGAL PENGUMPULAN":"Q2 2024","TANGGAL UPDATE":"27/07/2025"}},{"type":"Feature","geometry":{"coordinates":[106.5662942,-6.1468264],"type":"Point"},"properties":{"fid":254,"NAMA":"HALTE MUSI BARAT RAYA","TIPE_1":"TRANSPORTASI","TIPE_2":"HALTE","TIPE_3":"-","TELEPON":"","ALAMAT":"JL. RAYA CADAS - KUKUN, KUTABUMI, KEC. PS. KEMIS, KABUPATEN TANGERANG, BANTEN 15560","ID_PROV":"36","PROVINSI":"BANTEN","ID_KABKOT":"36.03","KABKOT":"TANGERANG","ID_KEC":"36.03.12","KECAMATAN":"PASAR KEMIS","ID_DESA":"36.03.12.1010","DESA":"KUTABUMI","LONGITUDE":106.5662942,"LATITUDE":-6.1468264,"STATUS":"BUKA","TANGGAL PENGUMPULAN":"Q2 2024","TANGGAL UPDATE":"27/07/2025"}},{"type":"Feature","geometry":{"coordinates":[106.6242674,-6.2517884],"type":"Point"},"properties":{"fid":257,"NAMA":"HALTE OJOL","TIPE_1":"TRANSPORTASI","TIPE_2":"HALTE","TIPE_3":"-","TELEPON":"","ALAMAT":"JL. GADING SERPONG BOULEVARD, CURUG SANGERENG, KEC. KLP. DUA, KABUPATEN TANGERANG, BANTEN 15810","ID_PROV":"36","PROVINSI":"BANTEN","ID_KABKOT":"36.03","KABKOT":"TANGERANG","ID_KEC":"36.03.28","KECAMATAN":"KELAPA DUA","ID_DESA":"36.03.28.2006","DESA":"CURUG SANGERENG","LONGITUDE":106.6242674,"LATITUDE":-6.2517884,"STATUS":"BUKA","TANGGAL PENGUMPULAN":"Q2 2024","TANGGAL UPDATE":"27/07/2025"}},{"type":"Feature","geometry":{"coordinates":[106.7207381,-6.0817445],"type":"Point"},"properties":{"fid":261,"NAMA":"HALTE PANTAI PASIR PUTIH","TIPE_1":"TRANSPORTASI","TIPE_2":"HALTE","TIPE_3":"-","TELEPON":"","ALAMAT":"DADAP, KOSAMBI, TANGERANG REGENCY, BANTEN","ID_PROV":"36","PROVINSI":"BANTEN","ID_KABKOT":"36.03","KABKOT":"TANGERANG","ID_KEC":"36.03.14","KECAMATAN":"KOSAMBI","ID_DESA":"36.03.14.1010","DESA":"DADAP","LONGITUDE":106.7207381,"LATITUDE":-6.0817445,"STATUS":"BUKA","TANGGAL PENGUMPULAN":"Q2 2024","TANGGAL UPDATE":"27/07/2025"}},{"type":"Feature","geometry":{"coordinates":[106.5914577,-6.1471628],"type":"Point"},"properties":{"fid":264,"NAMA":"HALTE PASAR CIKIDALAN","TIPE_1":"TRANSPORTASI","TIPE_2":"HALTE","TIPE_3":"-","TELEPON":"","ALAMAT":"JL. KP. BAYUR, LB. WANGI, KEC. SEPATAN TIM., KABUPATEN TANGERANG, BANTEN 15520","ID_PROV":"36","PROVINSI":"BANTEN","ID_KABKOT":"36.03","KABKOT":"TANGERANG","ID_KEC":"36.03.30","KECAMATAN":"SEPATAN TIMUR","ID_DESA":"36.03.30.2002","DESA":"LEBAK WANGI","LONGITUDE":106.5914577,"LATITUDE":-6.1471628,"STATUS":"BUKA","TANGGAL PENGUMPULAN":"Q2 2024","TANGGAL UPDATE":"27/07/2025"}},{"type":"Feature","geometry":{"coordinates":[106.5668987,-6.1468594],"type":"Point"},"properties":{"fid":268,"NAMA":"HALTE PASIR TIMUR SELATAN","TIPE_1":"TRANSPORTASI","TIPE_2":"HALTE","TIPE_3":"-","TELEPON":"","ALAMAT":"JL. RAYA CADAS - KUKUN NO.50, KUTABUMI, KEC. PS. KEMIS, KABUPATEN TANGERANG, BANTEN 15560","ID_PROV":"36","PROVINSI":"BANTEN","ID_KABKOT":"36.03","KABKOT":"TANGERANG","ID_KEC":"36.03.12","KECAMATAN":"PASAR KEMIS","ID_DESA":"36.03.12.1010","DESA":"KUTABUMI","LONGITUDE":106.5668987,"LATITUDE":-6.1468594,"STATUS":"BUKA","TANGGAL PENGUMPULAN":"Q2 2024","TANGGAL UPDATE":"27/07/2025"}},{"type":"Feature","geometry":{"coordinates":[106.6169218,-6.2576781],"type":"Point"},"properties":{"fid":276,"NAMA":"HALTE PPD SUMARECON","TIPE_1":"TRANSPORTASI","TIPE_2":"HALTE","TIPE_3":"-","TELEPON":"","ALAMAT":"JL. SCIENTIA BOULEVARD, CURUG SANGERENG, KEC. KLP. DUA, KABUPATEN TANGERANG, BANTEN 15810","ID_PROV":"36","PROVINSI":"BANTEN","ID_KABKOT":"36.03","KABKOT":"TANGERANG","ID_KEC":"36.03.28","KECAMATAN":"KELAPA DUA","ID_DESA":"36.03.28.2006","DESA":"CURUG SANGERENG","LONGITUDE":106.6169218,"LATITUDE":-6.2576781,"STATUS":"BUKA","TANGGAL PENGUMPULAN":"Q2 2024","TANGGAL UPDATE":"27/07/2025"}},{"type":"Feature","geometry":{"coordinates":[106.6343529,-6.2944955],"type":"Point"},"properties":{"fid":277,"NAMA":"HALTE PRESTIGIA","TIPE_1":"TRANSPORTASI","TIPE_2":"HALTE","TIPE_3":"-","TELEPON":"","ALAMAT":"THE EMINENT CLUSTER NEW, H5 NO, VIVACIA NO.20, PAGEDANGAN, TANGERANG REGENCY, BANTEN 15339","ID_PROV":"36","PROVINSI":"BANTEN","ID_KABKOT":"36.03","KABKOT":"TANGERANG","ID_KEC":"36.03.22","KECAMATAN":"PAGEDANGAN","ID_DESA":"36.03.22.2003","DESA":"PAGEDANGAN","LONGITUDE":106.6343529,"LATITUDE":-6.2944955,"STATUS":"BUKA","TANGGAL PENGUMPULAN":"Q2 2024","TANGGAL UPDATE":"27/07/2025"}},{"type":"Feature","geometry":{"coordinates":[106.4690443,-6.2546424],"type":"Point"},"properties":{"fid":278,"NAMA":"HALTE PURI PERMAI 1","TIPE_1":"TRANSPORTASI","TIPE_2":"HALTE","TIPE_3":"-","TELEPON":"","ALAMAT":"JL. PURI PERMAI, PASIR NANGKA, KEC. TIGARAKSA, KABUPATEN TANGERANG, BANTEN 15720","ID_PROV":"36","PROVINSI":"BANTEN","ID_KABKOT":"36.03","KABKOT":"TANGERANG","ID_KEC":"36.03.03","KECAMATAN":"TIGARAKSA","ID_DESA":"36.03.03.2004","DESA":"PASIR NANGKA","LONGITUDE":106.4690443,"LATITUDE":-6.2546424,"STATUS":"BUKA","TANGGAL PENGUMPULAN":"Q2 2024","TANGGAL UPDATE":"27/07/2025"}},{"type":"Feature","geometry":{"coordinates":[106.565681,-6.1467631],"type":"Point"},"properties":{"fid":286,"NAMA":"HALTE SAWAH BESAR KUTABUMI","TIPE_1":"TRANSPORTASI","TIPE_2":"HALTE","TIPE_3":"-","TELEPON":"","ALAMAT":"JL. RAYA CADAS - KUKUN, KUTABUMI, KEC. PS. KEMIS, KABUPATEN TANGERANG, BANTEN 15560","ID_PROV":"36","PROVINSI":"BANTEN","ID_KABKOT":"36.03","KABKOT":"TANGERANG","ID_KEC":"36.03.12","KECAMATAN":"PASAR KEMIS","ID_DESA":"36.03.12.1010","DESA":"KUTABUMI","LONGITUDE":106.565681,"LATITUDE":-6.1467631,"STATUS":"BUKA","TANGGAL PENGUMPULAN":"Q2 2024","TANGGAL UPDATE":"27/07/2025"}},{"type":"Feature","geometry":{"coordinates":[106.6054202,-6.2279753],"type":"Point"},"properties":{"fid":290,"NAMA":"HALTE SHUTTLE BUS, LIPPO KARAWACI","TIPE_1":"TRANSPORTASI","TIPE_2":"HALTE","TIPE_3":"-","TELEPON":"0823-1080-0168","ALAMAT":"BENCONGAN, KEC. KLP. DUA, KABUPATEN TANGERANG, BANTEN 15810","ID_PROV":"36","PROVINSI":"BANTEN","ID_KABKOT":"36.03","KABKOT":"TANGERANG","ID_KEC":"36.03.28","KECAMATAN":"KELAPA DUA","ID_DESA":"36.03.28.1003","DESA":"BENCONGAN INDAH","LONGITUDE":106.6054202,"LATITUDE":-6.2279753,"STATUS":"BUKA","TANGGAL PENGUMPULAN":"Q2 2024","TANGGAL UPDATE":"27/07/2025"}},{"type":"Feature","geometry":{"coordinates":[106.6431767,-6.313526],"type":"Point"},"properties":{"fid":292,"NAMA":"HALTE SIMPLICITY 1","TIPE_1":"TRANSPORTASI","TIPE_2":"HALTE","TIPE_3":"-","TELEPON":"","ALAMAT":"JL. RAYA KELAPA GADING UTARA, WEST PAKULONAN, KELAPA DUA, TANGERANG REGENCY, BANTEN 15338","ID_PROV":"36","PROVINSI":"BANTEN","ID_KABKOT":"36.03","KABKOT":"TANGERANG","ID_KEC":"36.03.22","KECAMATAN":"PAGEDANGAN","ID_DESA":"36.03.22.2007","DESA":"SITU GADUNG","LONGITUDE":106.6431767,"LATITUDE":-6.313526,"STATUS":"BUKA","TANGGAL PENGUMPULAN":"Q2 2024","TANGGAL UPDATE":"27/07/2025"}},{"type":"Feature","geometry":{"coordinates":[106.7077066,-6.0653272],"type":"Point"},"properties":{"fid":313,"NAMA":"HALTE THAMRIN CBD","TIPE_1":"TRANSPORTASI","TIPE_2":"HALTE","TIPE_3":"-","TELEPON":"","ALAMAT":"WEST KOSAMBI, KOSAMBI, TANGERANG REGENCY, BANTEN 15213","ID_PROV":"36","PROVINSI":"BANTEN","ID_KABKOT":"36.03","KABKOT":"TANGERANG","ID_KEC":"36.03.14","KECAMATAN":"KOSAMBI","ID_DESA":"36.03.14.1001","DESA":"KOSAMBI BARAT","LONGITUDE":106.7077066,"LATITUDE":-6.0653272,"STATUS":"BUKA","TANGGAL PENGUMPULAN":"Q2 2024","TANGGAL UPDATE":"27/07/2025"}},{"type":"Feature","geometry":{"coordinates":[106.6933414,-6.0421621],"type":"Point"},"properties":{"fid":314,"NAMA":"HALTE TOKYO RIVERSIDE PIK 2","TIPE_1":"TRANSPORTASI","TIPE_2":"HALTE","TIPE_3":"-","TELEPON":"","ALAMAT":"RUKAN LA RAVIERA BLOK A NO 35 PIK 2, LEMO, TELUKNAGA, TANGERANG REGENCY, BANTEN 15510","ID_PROV":"36","PROVINSI":"BANTEN","ID_KABKOT":"36.03","KABKOT":"TANGERANG","ID_KEC":"36.03.13","KECAMATAN":"TELUKNAGA","ID_DESA":"36.03.13.2009","DESA":"LEMO","LONGITUDE":106.6933414,"LATITUDE":-6.0421621,"STATUS":"BUKA","TANGGAL PENGUMPULAN":"Q2 2024","TANGGAL UPDATE":"27/07/2025"}},{"type":"Feature","geometry":{"coordinates":[106.5758123,-6.1475851],"type":"Point"},"properties":{"fid":323,"NAMA":"HALTE TRASINDO RAYA","TIPE_1":"TRANSPORTASI","TIPE_2":"HALTE","TIPE_3":"-","TELEPON":"","ALAMAT":"JL. RAYA CADAS - KUKUN, KUTA BARU, KEC. PS. KEMIS, KABUPATEN TANGERANG, BANTEN 15560","ID_PROV":"36","PROVINSI":"BANTEN","ID_KABKOT":"36.03","KABKOT":"TANGERANG","ID_KEC":"36.03.12","KECAMATAN":"PASAR KEMIS","ID_DESA":"36.03.12.1014","DESA":"KUTA BARU","LONGITUDE":106.5758123,"LATITUDE":-6.1475851,"STATUS":"BUKA","TANGGAL PENGUMPULAN":"Q2 2024","TANGGAL UPDATE":"27/07/2025"}},{"type":"Feature","geometry":{"coordinates":[106.5521177,-6.2247773],"type":"Point"},"properties":{"fid":324,"NAMA":"HALTE TURBINE","TIPE_1":"TRANSPORTASI","TIPE_2":"HALTE","TIPE_3":"-","TELEPON":"","ALAMAT":"JL. RAYA SERANG, BITUNG JAYA, KEC. CIKUPA, KABUPATEN TANGERANG, BANTEN 15710","ID_PROV":"36","PROVINSI":"BANTEN","ID_KABKOT":"36.03","KABKOT":"TANGERANG","ID_KEC":"36.03.18","KECAMATAN":"CIKUPA","ID_DESA":"36.03.18.1003","DESA":"BUNDER","LONGITUDE":106.5521177,"LATITUDE":-6.2247773,"STATUS":"BUKA","TANGGAL PENGUMPULAN":"Q2 2024","TANGGAL UPDATE":"27/07/2025"}},{"type":"Feature","geometry":{"coordinates":[106.5718671,-6.1472575],"type":"Point"},"properties":{"fid":332,"NAMA":"HALTE YPI NURUL FALAH KUTABUMI","TIPE_1":"TRANSPORTASI","TIPE_2":"HALTE","TIPE_3":"-","TELEPON":"","ALAMAT":"JL. PANGODOKAN ENCLE, KUTA BARU, KEC. PS. KEMIS, KABUPATEN TANGERANG, BANTEN 15560","ID_PROV":"36","PROVINSI":"BANTEN","ID_KABKOT":"36.03","KABKOT":"TANGERANG","ID_KEC":"36.03.12","KECAMATAN":"PASAR KEMIS","ID_DESA":"36.03.12.1014","DESA":"KUTA BARU","LONGITUDE":106.5718671,"LATITUDE":-6.1472575,"STATUS":"BUKA","TANGGAL PENGUMPULAN":"Q2 2024","TANGGAL UPDATE":"27/07/2025"}},{"type":"Feature","geometry":{"coordinates":[106.50591,-6.22451],"type":"Point"},"properties":{"fid":335,"NAMA":"JL PEMDA TIGARAKSA UTARA","TIPE_1":"TRANSPORTASI","TIPE_2":"HALTE","TIPE_3":"-","TELEPON":"","ALAMAT":"TALAGA, KEC. CIKUPA, KABUPATEN TANGERANG, BANTEN","ID_PROV":"36","PROVINSI":"BANTEN","ID_KABKOT":"36.03","KABKOT":"TANGERANG","ID_KEC":"36.03.18","KECAMATAN":"CIKUPA","ID_DESA":"36.03.18.2004","DESA":"TALAGA","LONGITUDE":106.50591,"LATITUDE":-6.22451,"STATUS":"BUKA","TANGGAL PENGUMPULAN":"Q2 2024","TANGGAL UPDATE":"27/07/2025"}},{"type":"Feature","geometry":{"coordinates":[106.68884,-6.06255],"type":"Point"},"properties":{"fid":339,"NAMA":"MAGENTA","TIPE_1":"TRANSPORTASI","TIPE_2":"HALTE","TIPE_3":"-","TELEPON":"","ALAMAT":"SALEMBARAN JATI, KEC. KOSAMBI, KABUPATEN TANGERANG, BANTEN","ID_PROV":"36","PROVINSI":"BANTEN","ID_KABKOT":"36.03","KABKOT":"TANGERANG","ID_KEC":"36.03.14","KECAMATAN":"KOSAMBI","ID_DESA":"36.03.14.2004","DESA":"SALEMBARAN JATI","LONGITUDE":106.68884,"LATITUDE":-6.06255,"STATUS":"BUKA","TANGGAL PENGUMPULAN":"Q2 2024","TANGGAL UPDATE":"27/07/2025"}},{"type":"Feature","geometry":{"coordinates":[106.6276571,-6.2905558],"type":"Point"},"properties":{"fid":340,"NAMA":"MOZIA HALTE BUS","TIPE_1":"TRANSPORTASI","TIPE_2":"HALTE","TIPE_3":"-","TELEPON":"","ALAMAT":"PIAZZA MOZIA BSD CITY NO.7, LENGKONG KULON, PAGEDANGAN, TANGERANG REGENCY, BANTEN 15339","ID_PROV":"36","PROVINSI":"BANTEN","ID_KABKOT":"36.03","KABKOT":"TANGERANG","ID_KEC":"36.03.22","KECAMATAN":"PAGEDANGAN","ID_DESA":"36.03.22.2006","DESA":"LENGKONG KULON","LONGITUDE":106.6276571,"LATITUDE":-6.2905558,"STATUS":"BUKA","TANGGAL PENGUMPULAN":"Q2 2024","TANGGAL UPDATE":"27/07/2025"}},{"type":"Feature","geometry":{"coordinates":[106.606063,-6.2275691],"type":"Point"},"properties":{"fid":350,"NAMA":"SOUTH LOBBY SUPERMALL KARAWACI - HALTE DEPAN SOLARIA","TIPE_1":"TRANSPORTASI","TIPE_2":"HALTE","TIPE_3":"-","TELEPON":"","ALAMAT":"SUPERMAL KARAWACI, BENCONGAN, KEC. KLP. DUA, KABUPATEN TANGERANG, BANTEN 15810","ID_PROV":"36","PROVINSI":"BANTEN","ID_KABKOT":"36.03","KABKOT":"TANGERANG","ID_KEC":"36.03.28","KECAMATAN":"KELAPA DUA","ID_DESA":"36.03.28.1003","DESA":"BENCONGAN INDAH","LONGITUDE":106.606063,"LATITUDE":-6.2275691,"STATUS":"BUKA","TANGGAL PENGUMPULAN":"Q2 2024","TANGGAL UPDATE":"27/07/2025"}},{"type":"Feature","geometry":{"coordinates":[106.6433996,-6.3032664],"type":"Point"},"properties":{"fid":354,"NAMA":"TITIK JEMPUT OJOL HALTE AEON MALL","TIPE_1":"TRANSPORTASI","TIPE_2":"HALTE","TIPE_3":"-","TELEPON":"","ALAMAT":"PAGEDANGAN, KEC. PAGEDANGAN, KABUPATEN TANGERANG, BANTEN","ID_PROV":"36","PROVINSI":"BANTEN","ID_KABKOT":"36.03","KABKOT":"TANGERANG","ID_KEC":"36.03.22","KECAMATAN":"PAGEDANGAN","ID_DESA":"36.03.22.2003","DESA":"PAGEDANGAN","LONGITUDE":106.6433996,"LATITUDE":-6.3032664,"STATUS":"BUKA","TANGGAL PENGUMPULAN":"Q2 2024","TANGGAL UPDATE":"27/07/2025"}}]}