{"type":"FeatureCollection","features":[{"type":"Feature","geometry":{"coordinates":[106.7547452,-6.2363866],"type":"Point"},"properties":{"fid":922,"NAMA":"HALTE TRANSJAKARTA JORR","TIPE_1":"TRANSPORTASI","TIPE_2":"HALTE","TIPE_3":"-","TELEPON":"","ALAMAT":"RT.1/RW.4, PETUKANGAN SEL., KEC. PESANGGRAHAN, KOTA JAKARTA SELATAN, DAERAH KHUSUS IBUKOTA JAKARTA 12260","ID_PROV":"31","PROVINSI":"DKI JAKARTA","ID_KABKOT":"31.74","KABKOT":"KOTA ADM. JAKARTA SELATAN","ID_KEC":"31.74.10","KECAMATAN":"PESANGGRAHAN","ID_DESA":"31.74.10.1004","DESA":"PETUKANGAN SELATAN","LONGITUDE":106.7547452,"LATITUDE":-6.2363866,"STATUS":"BUKA","TANGGAL PENGUMPULAN":"Q2 2024","TANGGAL UPDATE":"27/07/2025"}},{"type":"Feature","geometry":{"coordinates":[106.8079367,-6.2392099],"type":"Point"},"properties":{"fid":925,"NAMA":"HALTE TRANSJAKARTA PASAR SANTA","TIPE_1":"TRANSPORTASI","TIPE_2":"HALTE","TIPE_3":"-","TELEPON":"","ALAMAT":"JL. WOLTER MONGINSIDI NO.1 1B, RT.15/RW.4, PETOGOGAN, KEBAYORAN BARU, SOUTH JAKARTA CITY, JAKARTA 12170","ID_PROV":"31","PROVINSI":"DKI JAKARTA","ID_KABKOT":"31.74","KABKOT":"KOTA ADM. JAKARTA SELATAN","ID_KEC":"31.74.07","KECAMATAN":"KEBAYORAN BARU","ID_DESA":"31.74.07.1008","DESA":"PETOGOGAN","LONGITUDE":106.8079367,"LATITUDE":-6.2392099,"STATUS":"BUKA","TANGGAL PENGUMPULAN":"Q2 2024","TANGGAL UPDATE":"27/07/2025"}},{"type":"Feature","geometry":{"coordinates":[106.8099769,-6.2216452],"type":"Point"},"properties":{"fid":928,"NAMA":"HALTE TRANSJAKARTA POLDA METRO JAYA","TIPE_1":"TRANSPORTASI","TIPE_2":"HALTE","TIPE_3":"-","TELEPON":"","ALAMAT":"JL. JENDERAL SUDIRMAN, SENAYAN, KEBAYORAN BARU, SOUTH JAKARTA CITY, JAKARTA","ID_PROV":"31","PROVINSI":"DKI JAKARTA","ID_KABKOT":"31.74","KABKOT":"KOTA ADM. JAKARTA SELATAN","ID_KEC":"31.74.07","KECAMATAN":"KEBAYORAN BARU","ID_DESA":"31.74.07.1006","DESA":"SENAYAN","LONGITUDE":106.8099769,"LATITUDE":-6.2216452,"STATUS":"BUKA","TANGGAL PENGUMPULAN":"Q2 2024","TANGGAL UPDATE":"27/07/2025"}},{"type":"Feature","geometry":{"coordinates":[106.8318449,-6.3535764],"type":"Point"},"properties":{"fid":931,"NAMA":"HALTE TRANSJAKARTA UI DEPOK","TIPE_1":"TRANSPORTASI","TIPE_2":"HALTE","TIPE_3":"-","TELEPON":"","ALAMAT":"UNIVERSITAS INDONESIA, RW.3, SRENGSENG SAWAH, KEC. JAGAKARSA, KOTA JAKARTA SELATAN, DAERAH KHUSUS IBUKOTA JAKARTA 10550","ID_PROV":"31","PROVINSI":"DKI JAKARTA","ID_KABKOT":"31.74","KABKOT":"KOTA ADM. JAKARTA SELATAN","ID_KEC":"31.74.09","KECAMATAN":"JAGAKARSA","ID_DESA":"31.74.09.1002","DESA":"SRENGSENG SAWAH","LONGITUDE":106.8318449,"LATITUDE":-6.3535764,"STATUS":"BUKA","TANGGAL PENGUMPULAN":"Q2 2024","TANGGAL UPDATE":"27/07/2025"}},{"type":"Feature","geometry":{"coordinates":[106.7837278,-6.2391546],"type":"Point"},"properties":{"fid":932,"NAMA":"HALTE TRANSJAKARTA VELBAK","TIPE_1":"TRANSPORTASI","TIPE_2":"HALTE","TIPE_3":"-","TELEPON":"","ALAMAT":"JL. KEBAYORAN BARU NO.66-73, RT.1/RW.2, KBY. LAMA UTARA, KEC. KBY. LAMA, KOTA JAKARTA SELATAN, DAERAH KHUSUS IBUKOTA JAKARTA 12240","ID_PROV":"31","PROVINSI":"DKI JAKARTA","ID_KABKOT":"31.74","KABKOT":"KOTA ADM. JAKARTA SELATAN","ID_KEC":"31.74.05","KECAMATAN":"KEBAYORAN LAMA","ID_DESA":"31.74.05.1001","DESA":"KEBAYORAN LAMA UTARA","LONGITUDE":106.7837278,"LATITUDE":-6.2391546,"STATUS":"BUKA","TANGGAL PENGUMPULAN":"Q2 2024","TANGGAL UPDATE":"27/07/2025"}},{"type":"Feature","geometry":{"coordinates":[106.84999,-6.25557],"type":"Point"},"properties":{"fid":933,"NAMA":"HALTE TRANSMIGRASI","TIPE_1":"TRANSPORTASI","TIPE_2":"HALTE","TIPE_3":"-","TELEPON":"","ALAMAT":"JL. RAYA KALIBATA, RT.6/RW.7, RAWAJATI, KEC. PANCORAN, KOTA JAKARTA SELATAN, DAERAH KHUSUS IBUKOTA JAKARTA 12750","ID_PROV":"31","PROVINSI":"DKI JAKARTA","ID_KABKOT":"31.74","KABKOT":"KOTA ADM. JAKARTA SELATAN","ID_KEC":"31.74.08","KECAMATAN":"PANCORAN","ID_DESA":"31.74.08.1003","DESA":"RAWAJATI","LONGITUDE":106.84999,"LATITUDE":-6.25557,"STATUS":"BUKA","TANGGAL PENGUMPULAN":"Q2 2024","TANGGAL UPDATE":"27/07/2025"}},{"type":"Feature","geometry":{"coordinates":[106.8125058,-6.2426978],"type":"Point"},"properties":{"fid":941,"NAMA":"HALTE WIJAYA","TIPE_1":"TRANSPORTASI","TIPE_2":"HALTE","TIPE_3":"-","TELEPON":"","ALAMAT":"JL. WIJAYA I NO.6, RT.6/RW.4, PETOGOGAN, KEC. KBY. BARU, KOTA JAKARTA SELATAN, DAERAH KHUSUS IBUKOTA JAKARTA 12170","ID_PROV":"31","PROVINSI":"DKI JAKARTA","ID_KABKOT":"31.74","KABKOT":"KOTA ADM. JAKARTA SELATAN","ID_KEC":"31.74.07","KECAMATAN":"KEBAYORAN BARU","ID_DESA":"31.74.07.1008","DESA":"PETOGOGAN","LONGITUDE":106.8125058,"LATITUDE":-6.2426978,"STATUS":"BUKA","TANGGAL PENGUMPULAN":"Q2 2024","TANGGAL UPDATE":"27/07/2025"}},{"type":"Feature","geometry":{"coordinates":[106.81382,-6.2388],"type":"Point"},"properties":{"fid":942,"NAMA":"HALTE WOLTER MONGONSIDI","TIPE_1":"TRANSPORTASI","TIPE_2":"HALTE","TIPE_3":"-","TELEPON":"","ALAMAT":"JALAN WALTER MONGONSIDI, RT.1/RW.4, PETOGOGAN, KEC. KBY. BARU, KOTA JAKARTA SELATAN, DAERAH KHUSUS IBUKOTA JAKARTA 12170","ID_PROV":"31","PROVINSI":"DKI JAKARTA","ID_KABKOT":"31.74","KABKOT":"KOTA ADM. JAKARTA SELATAN","ID_KEC":"31.74.07","KECAMATAN":"KEBAYORAN BARU","ID_DESA":"31.74.07.1008","DESA":"PETOGOGAN","LONGITUDE":106.81382,"LATITUDE":-6.2388,"STATUS":"BUKA","TANGGAL PENGUMPULAN":"Q2 2024","TANGGAL UPDATE":"27/07/2025"}},{"type":"Feature","geometry":{"coordinates":[106.7817219,-6.2521465],"type":"Point"},"properties":{"fid":944,"NAMA":"HALTE: SULTAN ISKANDAR MUDA","TIPE_1":"TRANSPORTASI","TIPE_2":"HALTE","TIPE_3":"-","TELEPON":"","ALAMAT":"JL. ARTERI PD. INDAH, RT.8/RW.1, KBY. LAMA SEL., KEC. KBY. LAMA, KOTA JAKARTA SELATAN, DAERAH KHUSUS IBUKOTA JAKARTA 12240","ID_PROV":"31","PROVINSI":"DKI JAKARTA","ID_KABKOT":"31.74","KABKOT":"KOTA ADM. JAKARTA SELATAN","ID_KEC":"31.74.05","KECAMATAN":"KEBAYORAN LAMA","ID_DESA":"31.74.05.1006","DESA":"KEBAYORAN LAMA SELATAN","LONGITUDE":106.7817219,"LATITUDE":-6.2521465,"STATUS":"BUKA","TANGGAL PENGUMPULAN":"Q2 2024","TANGGAL UPDATE":"27/07/2025"}},{"type":"Feature","geometry":{"coordinates":[106.8023072,-6.3131776],"type":"Point"},"properties":{"fid":945,"NAMA":"HALTE:KOMPLEK.TIMAH","TIPE_1":"TRANSPORTASI","TIPE_2":"HALTE","TIPE_3":"-","TELEPON":"","ALAMAT":"RT.1/RW.3, PD. LABU, KEC. CILANDAK, KOTA JAKARTA SELATAN, DAERAH KHUSUS IBUKOTA JAKARTA 12450","ID_PROV":"31","PROVINSI":"DKI JAKARTA","ID_KABKOT":"31.74","KABKOT":"KOTA ADM. JAKARTA SELATAN","ID_KEC":"31.74.06","KECAMATAN":"CILANDAK","ID_DESA":"31.74.06.1003","DESA":"PONDOK LABU","LONGITUDE":106.8023072,"LATITUDE":-6.3131776,"STATUS":"BUKA","TANGGAL PENGUMPULAN":"Q2 2024","TANGGAL UPDATE":"27/07/2025"}},{"type":"Feature","geometry":{"coordinates":[106.8236516,-6.2909505],"type":"Point"},"properties":{"fid":951,"NAMA":"JATI BARAT","TIPE_1":"TRANSPORTASI","TIPE_2":"HALTE","TIPE_3":"-","TELEPON":"","ALAMAT":"JL. WARUNG  NO.37, JATI PADANG, PS. MINGGU, KOTA JAKARTA SELATAN, DAERAH KHUSUS IBUKOTA JAKARTA 12540","ID_PROV":"31","PROVINSI":"DKI JAKARTA","ID_KABKOT":"31.74","KABKOT":"KOTA ADM. JAKARTA SELATAN","ID_KEC":"31.74.04","KECAMATAN":"PASAR MINGGU","ID_DESA":"31.74.04.1002","DESA":"JATI PADANG","LONGITUDE":106.8236516,"LATITUDE":-6.2909505,"STATUS":"BUKA","TANGGAL PENGUMPULAN":"Q2 2024","TANGGAL UPDATE":"27/07/2025"}},{"type":"Feature","geometry":{"coordinates":[106.7832192,-6.2384052],"type":"Point"},"properties":{"fid":984,"NAMA":"KEBAYORAN","TIPE_1":"TRANSPORTASI","TIPE_2":"HALTE","TIPE_3":"-","TELEPON":"","ALAMAT":"12230, JL. SULTAN ISKANDAR MUDA, KBY. LAMA UTARA, KEC. KBY. LAMA, KOTA JAKARTA SELATAN, DAERAH KHUSUS IBUKOTA JAKARTA 12240","ID_PROV":"31","PROVINSI":"DKI JAKARTA","ID_KABKOT":"31.74","KABKOT":"KOTA ADM. JAKARTA SELATAN","ID_KEC":"31.74.05","KECAMATAN":"KEBAYORAN LAMA","ID_DESA":"31.74.05.1001","DESA":"KEBAYORAN LAMA UTARA","LONGITUDE":106.7832192,"LATITUDE":-6.2384052,"STATUS":"BUKA","TANGGAL PENGUMPULAN":"Q2 2024","TANGGAL UPDATE":"27/07/2025"}},{"type":"Feature","geometry":{"coordinates":[106.77415,-6.28941],"type":"Point"},"properties":{"fid":1000,"NAMA":"LEBAK BULUS","TIPE_1":"TRANSPORTASI","TIPE_2":"HALTE","TIPE_3":"-","TELEPON":"","ALAMAT":"LB. BULUS, KEC. CILANDAK, KOTA JAKARTA SELATAN, DAERAH KHUSUS IBUKOTA JAKARTA","ID_PROV":"31","PROVINSI":"DKI JAKARTA","ID_KABKOT":"31.74","KABKOT":"KOTA ADM. JAKARTA SELATAN","ID_KEC":"31.74.06","KECAMATAN":"CILANDAK","ID_DESA":"31.74.06.1002","DESA":"LEBAK BULUS","LONGITUDE":106.77415,"LATITUDE":-6.28941,"STATUS":"BUKA","TANGGAL PENGUMPULAN":"Q2 2024","TANGGAL UPDATE":"27/07/2025"}},{"type":"Feature","geometry":{"coordinates":[106.7740249,-6.2894309],"type":"Point"},"properties":{"fid":1001,"NAMA":"LEBAK BULUS GRAB","TIPE_1":"TRANSPORTASI","TIPE_2":"HALTE","TIPE_3":"-","TELEPON":"(021) 3906454","ALAMAT":"LB. BULUS, KEC. CILANDAK, KOTA JAKARTA SELATAN, DAERAH KHUSUS IBUKOTA JAKARTA","ID_PROV":"31","PROVINSI":"DKI JAKARTA","ID_KABKOT":"31.74","KABKOT":"KOTA ADM. JAKARTA SELATAN","ID_KEC":"31.74.06","KECAMATAN":"CILANDAK","ID_DESA":"31.74.06.1002","DESA":"LEBAK BULUS","LONGITUDE":106.7740249,"LATITUDE":-6.2894309,"STATUS":"BUKA","TANGGAL PENGUMPULAN":"Q2 2024","TANGGAL UPDATE":"27/07/2025"}},{"type":"Feature","geometry":{"coordinates":[106.825724,-6.2426256],"type":"Point"},"properties":{"fid":1006,"NAMA":"MAMPANG PRAPATAN","TIPE_1":"TRANSPORTASI","TIPE_2":"HALTE","TIPE_3":"-","TELEPON":"","ALAMAT":"JL. MAMPANG PRPT. RAYA, RT.6/RW.6, MAMPANG PRPT., KEC. MAMPANG PRPT., KOTA JAKARTA SELATAN, DAERAH KHUSUS IBUKOTA JAKARTA 12790","ID_PROV":"31","PROVINSI":"DKI JAKARTA","ID_KABKOT":"31.74","KABKOT":"KOTA ADM. JAKARTA SELATAN","ID_KEC":"31.74.03","KECAMATAN":"MAMPANG PRAPATAN","ID_DESA":"31.74.03.1001","DESA":"MAMPANG PRAPATAN","LONGITUDE":106.825724,"LATITUDE":-6.2426256,"STATUS":"BUKA","TANGGAL PENGUMPULAN":"Q2 2024","TANGGAL UPDATE":"27/07/2025"}},{"type":"Feature","geometry":{"coordinates":[106.8371709,-6.2416403],"type":"Point"},"properties":{"fid":1021,"NAMA":"PANCORAN BARAT","TIPE_1":"TRANSPORTASI","TIPE_2":"HALTE","TIPE_3":"-","TELEPON":"","ALAMAT":"JALAN JENDRAL GATOT SUBROTO, RT.9/RW.1, MENTENG DALAM, TEBET, KOTA JAKARTA SELATAN, 12870","ID_PROV":"31","PROVINSI":"DKI JAKARTA","ID_KABKOT":"31.74","KABKOT":"KOTA ADM. JAKARTA SELATAN","ID_KEC":"31.74.08","KECAMATAN":"PANCORAN","ID_DESA":"31.74.08.1001","DESA":"PANCORAN","LONGITUDE":106.8371709,"LATITUDE":-6.2416403,"STATUS":"BUKA","TANGGAL PENGUMPULAN":"Q2 2024","TANGGAL UPDATE":"27/07/2025"}},{"type":"Feature","geometry":{"coordinates":[106.8076025,-6.2392866],"type":"Point"},"properties":{"fid":1031,"NAMA":"PASAR SANTA","TIPE_1":"TRANSPORTASI","TIPE_2":"HALTE","TIPE_3":"-","TELEPON":"","ALAMAT":"PETOGOGAN, KEC. KBY. BARU, KOTA JAKARTA SELATAN, DAERAH KHUSUS IBUKOTA JAKARTA","ID_PROV":"31","PROVINSI":"DKI JAKARTA","ID_KABKOT":"31.74","KABKOT":"KOTA ADM. JAKARTA SELATAN","ID_KEC":"31.74.07","KECAMATAN":"KEBAYORAN BARU","ID_DESA":"31.74.07.1008","DESA":"PETOGOGAN","LONGITUDE":106.8076025,"LATITUDE":-6.2392866,"STATUS":"BUKA","TANGGAL PENGUMPULAN":"Q2 2024","TANGGAL UPDATE":"27/07/2025"}},{"type":"Feature","geometry":{"coordinates":[106.8297469,-6.278396],"type":"Point"},"properties":{"fid":1034,"NAMA":"PEJATEN","TIPE_1":"TRANSPORTASI","TIPE_2":"HALTE","TIPE_3":"-","TELEPON":"","ALAMAT":"JL. WARUNG JATI BAR., KOTA JAKARTA SELATAN, DAERAH KHUSUS IBUKOTA JAKARTA 12510","ID_PROV":"31","PROVINSI":"DKI JAKARTA","ID_KABKOT":"31.74","KABKOT":"KOTA ADM. JAKARTA SELATAN","ID_KEC":"31.74.04","KECAMATAN":"PASAR MINGGU","ID_DESA":"31.74.04.1006","DESA":"PEJATEN BARAT","LONGITUDE":106.8297469,"LATITUDE":-6.278396,"STATUS":"BUKA","TANGGAL PENGUMPULAN":"Q2 2024","TANGGAL UPDATE":"27/07/2025"}},{"type":"Feature","geometry":{"coordinates":[106.783265,-6.2214054],"type":"Point"},"properties":{"fid":1044,"NAMA":"PERMATA HIJAU","TIPE_1":"TRANSPORTASI","TIPE_2":"HALTE","TIPE_3":"-","TELEPON":"","ALAMAT":"RT.4/RW.2, GROGOL UTARA, KEC. KBY. LAMA, KOTA JAKARTA SELATAN, DAERAH KHUSUS IBUKOTA JAKARTA 12210","ID_PROV":"31","PROVINSI":"DKI JAKARTA","ID_KABKOT":"31.74","KABKOT":"KOTA ADM. JAKARTA SELATAN","ID_KEC":"31.74.05","KECAMATAN":"KEBAYORAN LAMA","ID_DESA":"31.74.05.1004","DESA":"GROGOL UTARA","LONGITUDE":106.783265,"LATITUDE":-6.2214054,"STATUS":"BUKA","TANGGAL PENGUMPULAN":"Q2 2024","TANGGAL UPDATE":"27/07/2025"}},{"type":"Feature","geometry":{"coordinates":[106.74786,-6.23647],"type":"Point"},"properties":{"fid":1049,"NAMA":"PETUKANGAN UTARA","TIPE_1":"TRANSPORTASI","TIPE_2":"HALTE","TIPE_3":"-","TELEPON":"","ALAMAT":"KEC. PESANGGRAHAN, KOTA JAKARTA SELATAN, DAERAH KHUSUS IBUKOTA JAKARTA","ID_PROV":"31","PROVINSI":"DKI JAKARTA","ID_KABKOT":"31.74","KABKOT":"KOTA ADM. JAKARTA SELATAN","ID_KEC":"31.74.10","KECAMATAN":"PESANGGRAHAN","ID_DESA":"31.74.10.1003","DESA":"PETUKANGAN UTARA","LONGITUDE":106.74786,"LATITUDE":-6.23647,"STATUS":"BUKA","TANGGAL PENGUMPULAN":"Q2 2024","TANGGAL UPDATE":"27/07/2025"}},{"type":"Feature","geometry":{"coordinates":[106.7832571,-6.2660371],"type":"Point"},"properties":{"fid":1052,"NAMA":"PIM 2 HALTE BUS.","TIPE_1":"TRANSPORTASI","TIPE_2":"HALTE","TIPE_3":"-","TELEPON":"","ALAMAT":"JL. METRO PONDOK INDAH NO.6 1, RT.1/RW.16, PD. PINANG, KEC. KBY. LAMA, KOTA JAKARTA SELATAN, DAERAH KHUSUS IBUKOTA JAKARTA 12310","ID_PROV":"31","PROVINSI":"DKI JAKARTA","ID_KABKOT":"31.74","KABKOT":"KOTA ADM. JAKARTA SELATAN","ID_KEC":"31.74.05","KECAMATAN":"KEBAYORAN LAMA","ID_DESA":"31.74.05.1002","DESA":"PONDOK PINANG","LONGITUDE":106.7832571,"LATITUDE":-6.2660371,"STATUS":"BUKA","TANGGAL PENGUMPULAN":"Q2 2024","TANGGAL UPDATE":"27/07/2025"}},{"type":"Feature","geometry":{"coordinates":[106.7548706,-6.23631],"type":"Point"},"properties":{"fid":1054,"NAMA":"PINTU HALTE ARAH TANGERANG KOTA BUSWAY JORR","TIPE_1":"TRANSPORTASI","TIPE_2":"HALTE","TIPE_3":"-","TELEPON":"","ALAMAT":"RT.1/RW.4, PETUKANGAN SEL., KEC. PESANGGRAHAN, KOTA JAKARTA SELATAN, DAERAH KHUSUS IBUKOTA JAKARTA 12260","ID_PROV":"31","PROVINSI":"DKI JAKARTA","ID_KABKOT":"31.74","KABKOT":"KOTA ADM. JAKARTA SELATAN","ID_KEC":"31.74.10","KECAMATAN":"PESANGGRAHAN","ID_DESA":"31.74.10.1004","DESA":"PETUKANGAN SELATAN","LONGITUDE":106.7548706,"LATITUDE":-6.23631,"STATUS":"BUKA","TANGGAL PENGUMPULAN":"Q2 2024","TANGGAL UPDATE":"27/07/2025"}},{"type":"Feature","geometry":{"coordinates":[106.7834857,-6.2672173],"type":"Point"},"properties":{"fid":1067,"NAMA":"PONDOK INDAH","TIPE_1":"TRANSPORTASI","TIPE_2":"HALTE","TIPE_3":"-","TELEPON":"","ALAMAT":"JALAN NASIONAL 12, RT.1/RW.16, PONDOK PINANG, KEBAYORAN LAMA, KOTA JAKARTA SELATAN, 12310","ID_PROV":"31","PROVINSI":"DKI JAKARTA","ID_KABKOT":"31.74","KABKOT":"KOTA ADM. JAKARTA SELATAN","ID_KEC":"31.74.05","KECAMATAN":"KEBAYORAN LAMA","ID_DESA":"31.74.05.1002","DESA":"PONDOK PINANG","LONGITUDE":106.7834857,"LATITUDE":-6.2672173,"STATUS":"BUKA","TANGGAL PENGUMPULAN":"Q2 2024","TANGGAL UPDATE":"27/07/2025"}},{"type":"Feature","geometry":{"coordinates":[106.77205,-6.28213],"type":"Point"},"properties":{"fid":1069,"NAMA":"PONDOK PINANG","TIPE_1":"TRANSPORTASI","TIPE_2":"HALTE","TIPE_3":"-","TELEPON":"","ALAMAT":"JL CIIPUTAT RAYA, PD. PINANG, KEC. KBY. LAMA, KOTA JAKARTA SELATAN, DAERAH KHUSUS IBUKOTA JAKARTA, 12310","ID_PROV":"31","PROVINSI":"DKI JAKARTA","ID_KABKOT":"31.74","KABKOT":"KOTA ADM. JAKARTA SELATAN","ID_KEC":"31.74.05","KECAMATAN":"KEBAYORAN LAMA","ID_DESA":"31.74.05.1002","DESA":"PONDOK PINANG","LONGITUDE":106.77205,"LATITUDE":-6.28213,"STATUS":"BUKA","TANGGAL PENGUMPULAN":"Q2 2024","TANGGAL UPDATE":"27/07/2025"}},{"type":"Feature","geometry":{"coordinates":[106.81624,-6.23895],"type":"Point"},"properties":{"fid":1076,"NAMA":"RAWA BARAT","TIPE_1":"TRANSPORTASI","TIPE_2":"HALTE","TIPE_3":"-","TELEPON":"","ALAMAT":"PETOGOGAN, KEC. KBY. BARU, KOTA JAKARTA SELATAN, DAERAH KHUSUS IBUKOTA JAKARTA","ID_PROV":"31","PROVINSI":"DKI JAKARTA","ID_KABKOT":"31.74","KABKOT":"KOTA ADM. JAKARTA SELATAN","ID_KEC":"31.74.07","KECAMATAN":"KEBAYORAN BARU","ID_DESA":"31.74.07.1008","DESA":"PETOGOGAN","LONGITUDE":106.81624,"LATITUDE":-6.23895,"STATUS":"BUKA","TANGGAL PENGUMPULAN":"Q2 2024","TANGGAL UPDATE":"27/07/2025"}},{"type":"Feature","geometry":{"coordinates":[106.8301081,-6.2081973],"type":"Point"},"properties":{"fid":1101,"NAMA":"SETIABUDI UTARA AINI 1","TIPE_1":"TRANSPORTASI","TIPE_2":"HALTE","TIPE_3":"-","TELEPON":"","ALAMAT":"RT.1/RW.6, SETIA BUDI, KECAMATAN SETIABUDI, KOTA JAKARTA SELATAN, DAERAH KHUSUS IBUKOTA JAKARTA 12910","ID_PROV":"31","PROVINSI":"DKI JAKARTA","ID_KABKOT":"31.74","KABKOT":"KOTA ADM. JAKARTA SELATAN","ID_KEC":"31.74.02","KECAMATAN":"SETIABUDI","ID_DESA":"31.74.02.1007","DESA":"GUNTUR","LONGITUDE":106.8301081,"LATITUDE":-6.2081973,"STATUS":"BUKA","TANGGAL PENGUMPULAN":"Q2 2024","TANGGAL UPDATE":"27/07/2025"}},{"type":"Feature","geometry":{"coordinates":[106.786479,-6.2339253],"type":"Point"},"properties":{"fid":1113,"NAMA":"SIMPRUG","TIPE_1":"TRANSPORTASI","TIPE_2":"HALTE","TIPE_3":"-","TELEPON":"","ALAMAT":"RT.5/RW.2, GROGOL SEL., KEC. KBY. LAMA, KOTA JAKARTA SELATAN, DAERAH KHUSUS IBUKOTA JAKARTA 12220","ID_PROV":"31","PROVINSI":"DKI JAKARTA","ID_KABKOT":"31.74","KABKOT":"KOTA ADM. JAKARTA SELATAN","ID_KEC":"31.74.05","KECAMATAN":"KEBAYORAN LAMA","ID_DESA":"31.74.05.1005","DESA":"GROGOL SELATAN","LONGITUDE":106.786479,"LATITUDE":-6.2339253,"STATUS":"BUKA","TANGGAL PENGUMPULAN":"Q2 2024","TANGGAL UPDATE":"27/07/2025"}},{"type":"Feature","geometry":{"coordinates":[106.83868,-6.30759],"type":"Point"},"properties":{"fid":1120,"NAMA":"ST. TJ. BARAT","TIPE_1":"TRANSPORTASI","TIPE_2":"HALTE","TIPE_3":"-","TELEPON":"","ALAMAT":"JALAN RAYA LENTENG AGUNG BARAT, KEBAGUSAN, PASAR MINGGU, KOTA JAKARTA SELATAN, 12520","ID_PROV":"31","PROVINSI":"DKI JAKARTA","ID_KABKOT":"31.74","KABKOT":"KOTA ADM. JAKARTA SELATAN","ID_KEC":"31.74.09","KECAMATAN":"JAGAKARSA","ID_DESA":"31.74.09.1004","DESA":"LENTENG AGUNG","LONGITUDE":106.83868,"LATITUDE":-6.30759,"STATUS":"BUKA","TANGGAL PENGUMPULAN":"Q2 2024","TANGGAL UPDATE":"27/07/2025"}},{"type":"Feature","geometry":{"coordinates":[106.78266,-6.23734],"type":"Point"},"properties":{"fid":1125,"NAMA":"STASIUN KEBAYORAN","TIPE_1":"TRANSPORTASI","TIPE_2":"HALTE","TIPE_3":"-","TELEPON":"","ALAMAT":"KBY. LAMA UTARA, KEC. KBY. LAMA, KOTA JAKARTA SELATAN, DAERAH KHUSUS IBUKOTA JAKARTA","ID_PROV":"31","PROVINSI":"DKI JAKARTA","ID_KABKOT":"31.74","KABKOT":"KOTA ADM. JAKARTA SELATAN","ID_KEC":"31.74.05","KECAMATAN":"KEBAYORAN LAMA","ID_DESA":"31.74.05.1001","DESA":"KEBAYORAN LAMA UTARA","LONGITUDE":106.78266,"LATITUDE":-6.23734,"STATUS":"BUKA","TANGGAL PENGUMPULAN":"Q2 2024","TANGGAL UPDATE":"27/07/2025"}},{"type":"Feature","geometry":{"coordinates":[106.8308814,-6.240186],"type":"Point"},"properties":{"fid":1146,"NAMA":"TEGAL MAMPANG","TIPE_1":"TRANSPORTASI","TIPE_2":"HALTE","TIPE_3":"-","TELEPON":"","ALAMAT":"MAMPANG PRPT., KEC. MAMPANG PRPT., KOTA JAKARTA SELATAN, DAERAH KHUSUS IBUKOTA JAKARTA","ID_PROV":"31","PROVINSI":"DKI JAKARTA","ID_KABKOT":"31.74","KABKOT":"KOTA ADM. JAKARTA SELATAN","ID_KEC":"31.74.03","KECAMATAN":"MAMPANG PRAPATAN","ID_DESA":"31.74.03.1001","DESA":"MAMPANG PRAPATAN","LONGITUDE":106.8308814,"LATITUDE":-6.240186,"STATUS":"BUKA","TANGGAL PENGUMPULAN":"Q2 2024","TANGGAL UPDATE":"27/07/2025"}},{"type":"Feature","geometry":{"coordinates":[106.8296642,-6.2386426],"type":"Point"},"properties":{"fid":1147,"NAMA":"TEGAL PARANG 1","TIPE_1":"TRANSPORTASI","TIPE_2":"HALTE","TIPE_3":"-","TELEPON":"","ALAMAT":"KUNINGAN BAR., KEC. MAMPANG PRPT., KOTA JAKARTA SELATAN, DAERAH KHUSUS IBUKOTA JAKARTA","ID_PROV":"31","PROVINSI":"DKI JAKARTA","ID_KABKOT":"31.74","KABKOT":"KOTA ADM. JAKARTA SELATAN","ID_KEC":"31.74.03","KECAMATAN":"MAMPANG PRAPATAN","ID_DESA":"31.74.03.1005","DESA":"KUNINGAN BARAT","LONGITUDE":106.8296642,"LATITUDE":-6.2386426,"STATUS":"BUKA","TANGGAL PENGUMPULAN":"Q2 2024","TANGGAL UPDATE":"27/07/2025"}},{"type":"Feature","geometry":{"coordinates":[106.83149,-6.23979],"type":"Point"},"properties":{"fid":1148,"NAMA":"TEGAL PARANG 1","TIPE_1":"TRANSPORTASI","TIPE_2":"HALTE","TIPE_3":"-","TELEPON":"","ALAMAT":"KUNINGAN BAR., KEC. MAMPANG PRPT., KOTA JAKARTA SELATAN, DAERAH KHUSUS IBUKOTA JAKARTA","ID_PROV":"31","PROVINSI":"DKI JAKARTA","ID_KABKOT":"31.74","KABKOT":"KOTA ADM. JAKARTA SELATAN","ID_KEC":"31.74.03","KECAMATAN":"MAMPANG PRAPATAN","ID_DESA":"31.74.03.1005","DESA":"KUNINGAN BARAT","LONGITUDE":106.83149,"LATITUDE":-6.23979,"STATUS":"BUKA","TANGGAL PENGUMPULAN":"Q2 2024","TANGGAL UPDATE":"27/07/2025"}},{"type":"Feature","geometry":{"coordinates":[106.830768,-6.2386686],"type":"Point"},"properties":{"fid":1149,"NAMA":"TEGAL PARANG 2","TIPE_1":"TRANSPORTASI","TIPE_2":"HALTE","TIPE_3":"-","TELEPON":"","ALAMAT":"RT.1/RW.4, KUNINGAN TIM., KECAMATAN SETIABUDI, KOTA JAKARTA SELATAN, DAERAH KHUSUS IBUKOTA JAKARTA 12710","ID_PROV":"31","PROVINSI":"DKI JAKARTA","ID_KABKOT":"31.74","KABKOT":"KOTA ADM. JAKARTA SELATAN","ID_KEC":"31.74.02","KECAMATAN":"SETIABUDI","ID_DESA":"31.74.02.1008","DESA":"KUNINGAN TIMUR","LONGITUDE":106.830768,"LATITUDE":-6.2386686,"STATUS":"BUKA","TANGGAL PENGUMPULAN":"Q2 2024","TANGGAL UPDATE":"27/07/2025"}},{"type":"Feature","geometry":{"coordinates":[106.83054,-6.23857],"type":"Point"},"properties":{"fid":1150,"NAMA":"TEGAL PARANG 2","TIPE_1":"TRANSPORTASI","TIPE_2":"HALTE","TIPE_3":"-","TELEPON":"","ALAMAT":"KUNINGAN TIM., KECAMATAN SETIABUDI, KOTA JAKARTA SELATAN, DAERAH KHUSUS IBUKOTA JAKARTA","ID_PROV":"31","PROVINSI":"DKI JAKARTA","ID_KABKOT":"31.74","KABKOT":"KOTA ADM. JAKARTA SELATAN","ID_KEC":"31.74.02","KECAMATAN":"SETIABUDI","ID_DESA":"31.74.02.1008","DESA":"KUNINGAN TIMUR","LONGITUDE":106.83054,"LATITUDE":-6.23857,"STATUS":"BUKA","TANGGAL PENGUMPULAN":"Q2 2024","TANGGAL UPDATE":"27/07/2025"}},{"type":"Feature","geometry":{"coordinates":[106.83022,-6.23886],"type":"Point"},"properties":{"fid":1151,"NAMA":"TEGAL PARANG ARAH BARAT","TIPE_1":"TRANSPORTASI","TIPE_2":"HALTE","TIPE_3":"-","TELEPON":"","ALAMAT":"KUNINGAN BAR., KEC. MAMPANG PRPT., KOTA JAKARTA SELATAN, DAERAH KHUSUS IBUKOTA JAKARTA","ID_PROV":"31","PROVINSI":"DKI JAKARTA","ID_KABKOT":"31.74","KABKOT":"KOTA ADM. JAKARTA SELATAN","ID_KEC":"31.74.03","KECAMATAN":"MAMPANG PRAPATAN","ID_DESA":"31.74.03.1005","DESA":"KUNINGAN BARAT","LONGITUDE":106.83022,"LATITUDE":-6.23886,"STATUS":"BUKA","TANGGAL PENGUMPULAN":"Q2 2024","TANGGAL UPDATE":"27/07/2025"}},{"type":"Feature","geometry":{"coordinates":[106.83106,-6.239],"type":"Point"},"properties":{"fid":1152,"NAMA":"TEGAL PARANG ARAH TIMUR","TIPE_1":"TRANSPORTASI","TIPE_2":"HALTE","TIPE_3":"-","TELEPON":"","ALAMAT":"KUNINGAN TIM., KECAMATAN SETIABUDI, KOTA JAKARTA SELATAN, DAERAH KHUSUS IBUKOTA JAKARTA","ID_PROV":"31","PROVINSI":"DKI JAKARTA","ID_KABKOT":"31.74","KABKOT":"KOTA ADM. JAKARTA SELATAN","ID_KEC":"31.74.02","KECAMATAN":"SETIABUDI","ID_DESA":"31.74.02.1008","DESA":"KUNINGAN TIMUR","LONGITUDE":106.83106,"LATITUDE":-6.239,"STATUS":"BUKA","TANGGAL PENGUMPULAN":"Q2 2024","TANGGAL UPDATE":"27/07/2025"}},{"type":"Feature","geometry":{"coordinates":[106.8351219,-6.3548248],"type":"Point"},"properties":{"fid":1158,"NAMA":"TRANSDEPOK HALTE AKSES UI","TIPE_1":"TRANSPORTASI","TIPE_2":"HALTE","TIPE_3":"-","TELEPON":"","ALAMAT":"JL. AKSES UI NO.RT.2, RT.2/RW.1, SRENGSENG SAWAH, KEC. JAGAKARSA, KOTA JAKARTA SELATAN, JAWA BARAT 10550","ID_PROV":"31","PROVINSI":"DKI JAKARTA","ID_KABKOT":"31.74","KABKOT":"KOTA ADM. JAKARTA SELATAN","ID_KEC":"31.74.09","KECAMATAN":"JAGAKARSA","ID_DESA":"31.74.09.1002","DESA":"SRENGSENG SAWAH","LONGITUDE":106.8351219,"LATITUDE":-6.3548248,"STATUS":"BUKA","TANGGAL PENGUMPULAN":"Q2 2024","TANGGAL UPDATE":"27/07/2025"}},{"type":"Feature","geometry":{"coordinates":[106.8318288,-6.3535203],"type":"Point"},"properties":{"fid":1159,"NAMA":"TRANSDEPOK HALTE UNIVERSITAS INDONESIA","TIPE_1":"TRANSPORTASI","TIPE_2":"HALTE","TIPE_3":"-","TELEPON":"","ALAMAT":"UNIVERSITAS INDONESIA, SRENGSENG SAWAH, KEC. JAGAKARSA, KOTA JAKARTA SELATAN, DAERAH KHUSUS IBUKOTA JAKARTA","ID_PROV":"31","PROVINSI":"DKI JAKARTA","ID_KABKOT":"31.74","KABKOT":"KOTA ADM. JAKARTA SELATAN","ID_KEC":"31.74.09","KECAMATAN":"JAGAKARSA","ID_DESA":"31.74.09.1002","DESA":"SRENGSENG SAWAH","LONGITUDE":106.8318288,"LATITUDE":-6.3535203,"STATUS":"BUKA","TANGGAL PENGUMPULAN":"Q2 2024","TANGGAL UPDATE":"27/07/2025"}},{"type":"Feature","geometry":{"coordinates":[106.7799739,-6.2867675],"type":"Point"},"properties":{"fid":1162,"NAMA":"UNDERPASS LEBAK BULUS","TIPE_1":"TRANSPORTASI","TIPE_2":"HALTE","TIPE_3":"-","TELEPON":"","ALAMAT":"PD. PINANG, KEC. KBY. LAMA, KOTA JAKARTA SELATAN, DAERAH KHUSUS IBUKOTA JAKARTA","ID_PROV":"31","PROVINSI":"DKI JAKARTA","ID_KABKOT":"31.74","KABKOT":"KOTA ADM. JAKARTA SELATAN","ID_KEC":"31.74.05","KECAMATAN":"KEBAYORAN LAMA","ID_DESA":"31.74.05.1002","DESA":"PONDOK PINANG","LONGITUDE":106.7799739,"LATITUDE":-6.2867675,"STATUS":"BUKA","TANGGAL PENGUMPULAN":"Q2 2024","TANGGAL UPDATE":"27/07/2025"}},{"type":"Feature","geometry":{"coordinates":[106.8318214,-6.3535008],"type":"Point"},"properties":{"fid":1163,"NAMA":"UNIVERSITAS INDONESIA","TIPE_1":"TRANSPORTASI","TIPE_2":"HALTE","TIPE_3":"-","TELEPON":"","ALAMAT":"SRENGSENG SAWAH, KEC. JAGAKARSA, KOTA JAKARTA SELATAN, DAERAH KHUSUS IBUKOTA JAKARTA","ID_PROV":"31","PROVINSI":"DKI JAKARTA","ID_KABKOT":"31.74","KABKOT":"KOTA ADM. JAKARTA SELATAN","ID_KEC":"31.74.09","KECAMATAN":"JAGAKARSA","ID_DESA":"31.74.09.1002","DESA":"SRENGSENG SAWAH","LONGITUDE":106.8318214,"LATITUDE":-6.3535008,"STATUS":"BUKA","TANGGAL PENGUMPULAN":"Q2 2024","TANGGAL UPDATE":"27/07/2025"}},{"type":"Feature","geometry":{"coordinates":[106.7476072,-6.2365393],"type":"Point"},"properties":{"fid":551,"NAMA":"ADAM MALIK (TRANSJAKARTA)","TIPE_1":"TRANSPORTASI","TIPE_2":"HALTE","TIPE_3":"-","TELEPON":"","ALAMAT":"JALAN CILEDUG RAYA PETUKANGAN UTARA, PESANGGRAHAN PETUKANGAN SELATAN PESANGGRAHAN SOUTH JAKARTA (NORTH SIDE, 12270","ID_PROV":"31","PROVINSI":"DKI JAKARTA","ID_KABKOT":"31.74","KABKOT":"KOTA ADM. JAKARTA SELATAN","ID_KEC":"31.74.10","KECAMATAN":"PESANGGRAHAN","ID_DESA":"31.74.10.1004","DESA":"PETUKANGAN SELATAN","LONGITUDE":106.7476072,"LATITUDE":-6.2365393,"STATUS":"BUKA","TANGGAL PENGUMPULAN":"Q2 2024","TANGGAL UPDATE":"27/07/2025"}},{"type":"Feature","geometry":{"coordinates":[106.8153192,-6.2171078],"type":"Point"},"properties":{"fid":561,"NAMA":"BENDUNGAN HILIR","TIPE_1":"TRANSPORTASI","TIPE_2":"HALTE","TIPE_3":"-","TELEPON":"","ALAMAT":"RT.14/RW.1, BEND. HILIR, KECAMATAN TANAH ABANG, KOTA JAKARTA PUSAT, DAERAH KHUSUS IBUKOTA JAKARTA 10210","ID_PROV":"31","PROVINSI":"DKI JAKARTA","ID_KABKOT":"31.74","KABKOT":"KOTA ADM. JAKARTA SELATAN","ID_KEC":"31.74.02","KECAMATAN":"SETIABUDI","ID_DESA":"31.74.02.1002","DESA":"KARET SEMANGGI","LONGITUDE":106.8153192,"LATITUDE":-6.2171078,"STATUS":"BUKA","TANGGAL PENGUMPULAN":"Q2 2024","TANGGAL UPDATE":"27/07/2025"}},{"type":"Feature","geometry":{"coordinates":[106.8303054,-6.274338],"type":"Point"},"properties":{"fid":568,"NAMA":"BUNCIT INDAH","TIPE_1":"TRANSPORTASI","TIPE_2":"HALTE","TIPE_3":"-","TELEPON":"","ALAMAT":"JL. WR. JATI TIMUR RAYA, RT.12/RW.5, KALIBATA, KEC. PANCORAN, KOTA JAKARTA SELATAN, DAERAH KHUSUS IBUKOTA JAKARTA 12510","ID_PROV":"31","PROVINSI":"DKI JAKARTA","ID_KABKOT":"31.74","KABKOT":"KOTA ADM. JAKARTA SELATAN","ID_KEC":"31.74.08","KECAMATAN":"PANCORAN","ID_DESA":"31.74.08.1002","DESA":"KALIBATA","LONGITUDE":106.8303054,"LATITUDE":-6.274338,"STATUS":"BUKA","TANGGAL PENGUMPULAN":"Q2 2024","TANGGAL UPDATE":"27/07/2025"}},{"type":"Feature","geometry":{"coordinates":[106.76224,-6.27755],"type":"Point"},"properties":{"fid":574,"NAMA":"CEMPAKA","TIPE_1":"TRANSPORTASI","TIPE_2":"HALTE","TIPE_3":"-","TELEPON":"","ALAMAT":"BINTARO, KEC. PESANGGRAHAN, KOTA JAKARTA SELATAN, DAERAH KHUSUS IBUKOTA JAKARTA","ID_PROV":"31","PROVINSI":"DKI JAKARTA","ID_KABKOT":"31.74","KABKOT":"KOTA ADM. JAKARTA SELATAN","ID_KEC":"31.74.10","KECAMATAN":"PESANGGRAHAN","ID_DESA":"31.74.10.1002","DESA":"BINTARO","LONGITUDE":106.76224,"LATITUDE":-6.27755,"STATUS":"BUKA","TANGGAL PENGUMPULAN":"Q2 2024","TANGGAL UPDATE":"27/07/2025"}},{"type":"Feature","geometry":{"coordinates":[106.83334,-6.22829],"type":"Point"},"properties":{"fid":584,"NAMA":"DEPARTEMEN KESEHATAN","TIPE_1":"TRANSPORTASI","TIPE_2":"HALTE","TIPE_3":"-","TELEPON":"","ALAMAT":"RT.7/RW.4, KUNINGAN TIMUR, KOTA JAKARTA SELATAN, 12950","ID_PROV":"31","PROVINSI":"DKI JAKARTA","ID_KABKOT":"31.74","KABKOT":"KOTA ADM. JAKARTA SELATAN","ID_KEC":"31.74.02","KECAMATAN":"SETIABUDI","ID_DESA":"31.74.02.1008","DESA":"KUNINGAN TIMUR","LONGITUDE":106.83334,"LATITUDE":-6.22829,"STATUS":"BUKA","TANGGAL PENGUMPULAN":"Q2 2024","TANGGAL UPDATE":"27/07/2025"}},{"type":"Feature","geometry":{"coordinates":[106.822272,-6.2056945],"type":"Point"},"properties":{"fid":585,"NAMA":"DUKUH ATAS 1","TIPE_1":"TRANSPORTASI","TIPE_2":"HALTE","TIPE_3":"-","TELEPON":"","ALAMAT":"RT.10/RW.11, SETIA BUDI, KOTA JAKARTA SELATAN, 10250","ID_PROV":"31","PROVINSI":"DKI JAKARTA","ID_KABKOT":"31.74","KABKOT":"KOTA ADM. JAKARTA SELATAN","ID_KEC":"31.74.02","KECAMATAN":"SETIABUDI","ID_DESA":"31.74.02.1001","DESA":"SETIA BUDI","LONGITUDE":106.822272,"LATITUDE":-6.2056945,"STATUS":"BUKA","TANGGAL PENGUMPULAN":"Q2 2024","TANGGAL UPDATE":"27/07/2025"}},{"type":"Feature","geometry":{"coordinates":[106.8269794,-6.2523813],"type":"Point"},"properties":{"fid":586,"NAMA":"DUREN TIGA","TIPE_1":"TRANSPORTASI","TIPE_2":"HALTE","TIPE_3":"-","TELEPON":"","ALAMAT":"JL. MAMPANG PRPT. RAYA, RT.1/RW.6, TEGAL PARANG, KEC. MAMPANG PRPT., KOTA JAKARTA SELATAN, DAERAH KHUSUS IBUKOTA JAKARTA 12790","ID_PROV":"31","PROVINSI":"DKI JAKARTA","ID_KABKOT":"31.74","KABKOT":"KOTA ADM. JAKARTA SELATAN","ID_KEC":"31.74.03","KECAMATAN":"MAMPANG PRAPATAN","ID_DESA":"31.74.03.1004","DESA":"TEGAL PARANG","LONGITUDE":106.8269794,"LATITUDE":-6.2523813,"STATUS":"BUKA","TANGGAL PENGUMPULAN":"Q2 2024","TANGGAL UPDATE":"27/07/2025"}},{"type":"Feature","geometry":{"coordinates":[106.77909,-6.2891],"type":"Point"},"properties":{"fid":599,"NAMA":"GELANGGANG TB SIMATUPANG","TIPE_1":"TRANSPORTASI","TIPE_2":"HALTE","TIPE_3":"-","TELEPON":"","ALAMAT":"PD. PINANG, KEC. KBY. LAMA, KOTA JAKARTA SELATAN, DAERAH KHUSUS IBUKOTA JAKARTA","ID_PROV":"31","PROVINSI":"DKI JAKARTA","ID_KABKOT":"31.74","KABKOT":"KOTA ADM. JAKARTA SELATAN","ID_KEC":"31.74.05","KECAMATAN":"KEBAYORAN LAMA","ID_DESA":"31.74.05.1002","DESA":"PONDOK PINANG","LONGITUDE":106.77909,"LATITUDE":-6.2891,"STATUS":"BUKA","TANGGAL PENGUMPULAN":"Q2 2024","TANGGAL UPDATE":"27/07/2025"}},{"type":"Feature","geometry":{"coordinates":[106.805792,-6.2242306],"type":"Point"},"properties":{"fid":600,"NAMA":"GELORA BUNG KARNO","TIPE_1":"TRANSPORTASI","TIPE_2":"HALTE","TIPE_3":"-","TELEPON":"","ALAMAT":"JALAN JENDERAL SUDIRMAN, INDONESIA, DAERAH KHUSUS IBUKOTA JAKARTA","ID_PROV":"31","PROVINSI":"DKI JAKARTA","ID_KABKOT":"31.74","KABKOT":"KOTA ADM. JAKARTA SELATAN","ID_KEC":"31.74.07","KECAMATAN":"KEBAYORAN BARU","ID_DESA":"31.74.07.1006","DESA":"SENAYAN","LONGITUDE":106.805792,"LATITUDE":-6.2242306,"STATUS":"BUKA","TANGGAL PENGUMPULAN":"Q2 2024","TANGGAL UPDATE":"27/07/2025"}},{"type":"Feature","geometry":{"coordinates":[106.8318541,-6.2210012],"type":"Point"},"properties":{"fid":603,"NAMA":"GOR SUMANTRI 2","TIPE_1":"TRANSPORTASI","TIPE_2":"HALTE","TIPE_3":"-","TELEPON":"","ALAMAT":"JALAN HR. RASUNA SAID,JAKSEL., RT.2/RW.5, KARET KUNINGAN, KECAMATAN SETIABUDI, KOTA JAKARTA SELATAN, 12940","ID_PROV":"31","PROVINSI":"DKI JAKARTA","ID_KABKOT":"31.74","KABKOT":"KOTA ADM. JAKARTA SELATAN","ID_KEC":"31.74.02","KECAMATAN":"SETIABUDI","ID_DESA":"31.74.02.1003","DESA":"KARET KUNINGAN","LONGITUDE":106.8318541,"LATITUDE":-6.2210012,"STATUS":"BUKA","TANGGAL PENGUMPULAN":"Q2 2024","TANGGAL UPDATE":"27/07/2025"}},{"type":"Feature","geometry":{"coordinates":[106.7972366,-6.2695281],"type":"Point"},"properties":{"fid":614,"NAMA":"HALTE","TIPE_1":"TRANSPORTASI","TIPE_2":"HALTE","TIPE_3":"-","TELEPON":"","ALAMAT":"JALAN RS. FATMAWATI, RT.1/RW.4, GANDARIA SEL., KEC. CILANDAK, KOTA JAKARTA SELATAN, DAERAH KHUSUS IBUKOTA JAKARTA 12420","ID_PROV":"31","PROVINSI":"DKI JAKARTA","ID_KABKOT":"31.74","KABKOT":"KOTA ADM. JAKARTA SELATAN","ID_KEC":"31.74.06","KECAMATAN":"CILANDAK","ID_DESA":"31.74.06.1004","DESA":"GANDARIA SELATAN","LONGITUDE":106.7972366,"LATITUDE":-6.2695281,"STATUS":"BUKA","TANGGAL PENGUMPULAN":"Q2 2024","TANGGAL UPDATE":"27/07/2025"}},{"type":"Feature","geometry":{"coordinates":[106.815548,-6.2926775],"type":"Point"},"properties":{"fid":619,"NAMA":"HALTE AMPERA","TIPE_1":"TRANSPORTASI","TIPE_2":"HALTE","TIPE_3":"-","TELEPON":"0857-1112-1355","ALAMAT":"JL. AMPERA RAYA NO.3-4, RT.2/RW.2, RAGUNAN, PS. MINGGU, KOTA JAKARTA SELATAN, DAERAH KHUSUS IBUKOTA JAKARTA 12560","ID_PROV":"31","PROVINSI":"DKI JAKARTA","ID_KABKOT":"31.74","KABKOT":"KOTA ADM. JAKARTA SELATAN","ID_KEC":"31.74.04","KECAMATAN":"PASAR MINGGU","ID_DESA":"31.74.04.1003","DESA":"CILANDAK TIMUR","LONGITUDE":106.815548,"LATITUDE":-6.2926775,"STATUS":"BUKA","TANGGAL PENGUMPULAN":"Q2 2024","TANGGAL UPDATE":"27/07/2025"}},{"type":"Feature","geometry":{"coordinates":[106.7988813,-6.2398918],"type":"Point"},"properties":{"fid":623,"NAMA":"HALTE ASEAN","TIPE_1":"TRANSPORTASI","TIPE_2":"HALTE","TIPE_3":"-","TELEPON":"","ALAMAT":"RT.1/RW.1, MELAWAI, KEC. KBY. BARU, KOTA JAKARTA SELATAN, DAERAH KHUSUS IBUKOTA JAKARTA","ID_PROV":"31","PROVINSI":"DKI JAKARTA","ID_KABKOT":"31.74","KABKOT":"KOTA ADM. JAKARTA SELATAN","ID_KEC":"31.74.07","KECAMATAN":"KEBAYORAN BARU","ID_DESA":"31.74.07.1001","DESA":"MELAWAI","LONGITUDE":106.7988813,"LATITUDE":-6.2398918,"STATUS":"BUKA","TANGGAL PENGUMPULAN":"Q2 2024","TANGGAL UPDATE":"27/07/2025"}},{"type":"Feature","geometry":{"coordinates":[106.82967,-6.3484],"type":"Point"},"properties":{"fid":624,"NAMA":"HALTE ASRAMA MAHASISWA","TIPE_1":"TRANSPORTASI","TIPE_2":"HALTE","TIPE_3":"-","TELEPON":"","ALAMAT":"SRENGSENG SAWAH, KEC. JAGAKARSA, KOTA JAKARTA SELATAN, DAERAH KHUSUS IBUKOTA JAKARTA","ID_PROV":"31","PROVINSI":"DKI JAKARTA","ID_KABKOT":"31.74","KABKOT":"KOTA ADM. JAKARTA SELATAN","ID_KEC":"31.74.09","KECAMATAN":"JAGAKARSA","ID_DESA":"31.74.09.1002","DESA":"SRENGSENG SAWAH","LONGITUDE":106.82967,"LATITUDE":-6.3484,"STATUS":"BUKA","TANGGAL PENGUMPULAN":"Q2 2024","TANGGAL UPDATE":"27/07/2025"}},{"type":"Feature","geometry":{"coordinates":[106.8297043,-6.3482054],"type":"Point"},"properties":{"fid":625,"NAMA":"HALTE ASRAMA UI","TIPE_1":"TRANSPORTASI","TIPE_2":"HALTE","TIPE_3":"-","TELEPON":"","ALAMAT":"LINGKAR UTARA, RW.3, SRENGSENG SAWAH, KEC. JAGAKARSA, KOTA JAKARTA SELATAN, DAERAH KHUSUS IBUKOTA JAKARTA 12630","ID_PROV":"31","PROVINSI":"DKI JAKARTA","ID_KABKOT":"31.74","KABKOT":"KOTA ADM. JAKARTA SELATAN","ID_KEC":"31.74.09","KECAMATAN":"JAGAKARSA","ID_DESA":"31.74.09.1002","DESA":"SRENGSENG SAWAH","LONGITUDE":106.8297043,"LATITUDE":-6.3482054,"STATUS":"BUKA","TANGGAL PENGUMPULAN":"Q2 2024","TANGGAL UPDATE":"27/07/2025"}},{"type":"Feature","geometry":{"coordinates":[106.7905566,-6.2296521],"type":"Point"},"properties":{"fid":627,"NAMA":"HALTE BALAI PERTAMINA","TIPE_1":"TRANSPORTASI","TIPE_2":"HALTE","TIPE_3":"-","TELEPON":"","ALAMAT":"JL. TEUKU NYAK ARIEF, RT.7/RW.8, GROGOL SEL., KEC. KBY. LAMA, KOTA JAKARTA SELATAN, DAERAH KHUSUS IBUKOTA JAKARTA 12220","ID_PROV":"31","PROVINSI":"DKI JAKARTA","ID_KABKOT":"31.74","KABKOT":"KOTA ADM. JAKARTA SELATAN","ID_KEC":"31.74.05","KECAMATAN":"KEBAYORAN LAMA","ID_DESA":"31.74.05.1005","DESA":"GROGOL SELATAN","LONGITUDE":106.7905566,"LATITUDE":-6.2296521,"STATUS":"BUKA","TANGGAL PENGUMPULAN":"Q2 2024","TANGGAL UPDATE":"27/07/2025"}},{"type":"Feature","geometry":{"coordinates":[106.8079092,-6.2275526],"type":"Point"},"properties":{"fid":628,"NAMA":"HALTE BARU GEDUNG FWD","TIPE_1":"TRANSPORTASI","TIPE_2":"HALTE","TIPE_3":"-","TELEPON":"","ALAMAT":"RT.5/RW.3, SENAYAN, KEC. KBY. BARU, KOTA JAKARTA SELATAN, DAERAH KHUSUS IBUKOTA JAKARTA 12190","ID_PROV":"31","PROVINSI":"DKI JAKARTA","ID_KABKOT":"31.74","KABKOT":"KOTA ADM. JAKARTA SELATAN","ID_KEC":"31.74.07","KECAMATAN":"KEBAYORAN BARU","ID_DESA":"31.74.07.1006","DESA":"SENAYAN","LONGITUDE":106.8079092,"LATITUDE":-6.2275526,"STATUS":"BUKA","TANGGAL PENGUMPULAN":"Q2 2024","TANGGAL UPDATE":"27/07/2025"}},{"type":"Feature","geometry":{"coordinates":[106.8092165,-6.2238014],"type":"Point"},"properties":{"fid":631,"NAMA":"HALTE BEJ","TIPE_1":"TRANSPORTASI","TIPE_2":"HALTE","TIPE_3":"-","TELEPON":"","ALAMAT":"NO.52-53-54, JL. JENDERAL SUDIRMAN NO.5, RT.5/RW.3, SENAYAN, KEC. KBY. BARU, KOTA JAKARTA SELATAN, DAERAH KHUSUS IBUKOTA JAKARTA 12190","ID_PROV":"31","PROVINSI":"DKI JAKARTA","ID_KABKOT":"31.74","KABKOT":"KOTA ADM. JAKARTA SELATAN","ID_KEC":"31.74.07","KECAMATAN":"KEBAYORAN BARU","ID_DESA":"31.74.07.1006","DESA":"SENAYAN","LONGITUDE":106.8092165,"LATITUDE":-6.2238014,"STATUS":"BUKA","TANGGAL PENGUMPULAN":"Q2 2024","TANGGAL UPDATE":"27/07/2025"}},{"type":"Feature","geometry":{"coordinates":[106.8081272,-6.3311336],"type":"Point"},"properties":{"fid":632,"NAMA":"HALTE BENDA","TIPE_1":"TRANSPORTASI","TIPE_2":"HALTE","TIPE_3":"-","TELEPON":"","ALAMAT":"JL. MOH. KAHFI 1 NO.7, RT.7/RW.1, CIGANJUR, KEC. JAGAKARSA, KOTA JAKARTA SELATAN, DAERAH KHUSUS IBUKOTA JAKARTA 12630","ID_PROV":"31","PROVINSI":"DKI JAKARTA","ID_KABKOT":"31.74","KABKOT":"KOTA ADM. JAKARTA SELATAN","ID_KEC":"31.74.09","KECAMATAN":"JAGAKARSA","ID_DESA":"31.74.09.1003","DESA":"CIGANJUR","LONGITUDE":106.8081272,"LATITUDE":-6.3311336,"STATUS":"BUKA","TANGGAL PENGUMPULAN":"Q2 2024","TANGGAL UPDATE":"27/07/2025"}},{"type":"Feature","geometry":{"coordinates":[106.7944978,-6.2317595],"type":"Point"},"properties":{"fid":640,"NAMA":"HALTE BUS","TIPE_1":"TRANSPORTASI","TIPE_2":"HALTE","TIPE_3":"-","TELEPON":"","ALAMAT":"JL. HANG LEKIR NO.25 9, RT.9/RW.6, GUNUNG, KEC. KBY. BARU, KOTA JAKARTA SELATAN, DAERAH KHUSUS IBUKOTA JAKARTA 12120","ID_PROV":"31","PROVINSI":"DKI JAKARTA","ID_KABKOT":"31.74","KABKOT":"KOTA ADM. JAKARTA SELATAN","ID_KEC":"31.74.07","KECAMATAN":"KEBAYORAN BARU","ID_DESA":"31.74.07.1002","DESA":"GUNUNG","LONGITUDE":106.7944978,"LATITUDE":-6.2317595,"STATUS":"BUKA","TANGGAL PENGUMPULAN":"Q2 2024","TANGGAL UPDATE":"27/07/2025"}},{"type":"Feature","geometry":{"coordinates":[106.801485,-6.241115],"type":"Point"},"properties":{"fid":641,"NAMA":"HALTE BUS AO SHUTTLE BLOK M (JL. PALATEHAN II)","TIPE_1":"TRANSPORTASI","TIPE_2":"HALTE","TIPE_3":"-","TELEPON":"","ALAMAT":"JL. FALATEHAN I NO.1A 2, RT.2/RW.1, MELAWAI, KEC. KBY. BARU, KOTA JAKARTA SELATAN, DAERAH KHUSUS IBUKOTA JAKARTA 12160","ID_PROV":"31","PROVINSI":"DKI JAKARTA","ID_KABKOT":"31.74","KABKOT":"KOTA ADM. JAKARTA SELATAN","ID_KEC":"31.74.07","KECAMATAN":"KEBAYORAN BARU","ID_DESA":"31.74.07.1001","DESA":"MELAWAI","LONGITUDE":106.801485,"LATITUDE":-6.241115,"STATUS":"BUKA","TANGGAL PENGUMPULAN":"Q2 2024","TANGGAL UPDATE":"27/07/2025"}},{"type":"Feature","geometry":{"coordinates":[106.8445596,-6.2242168],"type":"Point"},"properties":{"fid":643,"NAMA":"HALTE BUS CASABLANCA","TIPE_1":"TRANSPORTASI","TIPE_2":"HALTE","TIPE_3":"-","TELEPON":"","ALAMAT":"17, JL. RAYA CASABLANCA NO.34, RW.5, MENTENG DALAM, KEC. TEBET, KOTA JAKARTA SELATAN, DAERAH KHUSUS IBUKOTA JAKARTA 12960","ID_PROV":"31","PROVINSI":"DKI JAKARTA","ID_KABKOT":"31.74","KABKOT":"KOTA ADM. JAKARTA SELATAN","ID_KEC":"31.74.01","KECAMATAN":"TEBET","ID_DESA":"31.74.01.1003","DESA":"MENTENG DALAM","LONGITUDE":106.8445596,"LATITUDE":-6.2242168,"STATUS":"BUKA","TANGGAL PENGUMPULAN":"Q2 2024","TANGGAL UPDATE":"27/07/2025"}},{"type":"Feature","geometry":{"coordinates":[106.827902,-6.2399671],"type":"Point"},"properties":{"fid":646,"NAMA":"HALTE BUS LAPANGAN","TIPE_1":"TRANSPORTASI","TIPE_2":"HALTE","TIPE_3":"-","TELEPON":"","ALAMAT":"JL. KAPTEN TENDEAN, RT.1/RW.2, KUNINGAN BAR., KEC. MAMPANG PRPT., KOTA JAKARTA SELATAN, DAERAH KHUSUS IBUKOTA JAKARTA 12710","ID_PROV":"31","PROVINSI":"DKI JAKARTA","ID_KABKOT":"31.74","KABKOT":"KOTA ADM. JAKARTA SELATAN","ID_KEC":"31.74.03","KECAMATAN":"MAMPANG PRAPATAN","ID_DESA":"31.74.03.1005","DESA":"KUNINGAN BARAT","LONGITUDE":106.827902,"LATITUDE":-6.2399671,"STATUS":"BUKA","TANGGAL PENGUMPULAN":"Q2 2024","TANGGAL UPDATE":"27/07/2025"}},{"type":"Feature","geometry":{"coordinates":[106.8004735,-6.2749034],"type":"Point"},"properties":{"fid":647,"NAMA":"HALTE BUS LFJ NEXT TO UFE","TIPE_1":"TRANSPORTASI","TIPE_2":"HALTE","TIPE_3":"-","TELEPON":"(021) 7503062","ALAMAT":"JL. CIPETE DALAM NO.9, RT.8/RW.3, CIPETE SEL., KEC. CILANDAK, KOTA JAKARTA SELATAN, DAERAH KHUSUS IBUKOTA JAKARTA 12410","ID_PROV":"31","PROVINSI":"DKI JAKARTA","ID_KABKOT":"31.74","KABKOT":"KOTA ADM. JAKARTA SELATAN","ID_KEC":"31.74.06","KECAMATAN":"CILANDAK","ID_DESA":"31.74.06.1005","DESA":"CIPETE SELATAN","LONGITUDE":106.8004735,"LATITUDE":-6.2749034,"STATUS":"BUKA","TANGGAL PENGUMPULAN":"Q2 2024","TANGGAL UPDATE":"27/07/2025"}},{"type":"Feature","geometry":{"coordinates":[106.8074838,-6.2315147],"type":"Point"},"properties":{"fid":655,"NAMA":"HALTE BUS SEKOLAH","TIPE_1":"TRANSPORTASI","TIPE_2":"HALTE","TIPE_3":"-","TELEPON":"","ALAMAT":"JL. GUNAWARMAN, KEC. KBY. BARU, KOTA JAKARTA SELATAN, DAERAH KHUSUS IBUKOTA JAKARTA 12180","ID_PROV":"31","PROVINSI":"DKI JAKARTA","ID_KABKOT":"31.74","KABKOT":"KOTA ADM. JAKARTA SELATAN","ID_KEC":"31.74.07","KECAMATAN":"KEBAYORAN BARU","ID_DESA":"31.74.07.1004","DESA":"SELONG","LONGITUDE":106.8074838,"LATITUDE":-6.2315147,"STATUS":"BUKA","TANGGAL PENGUMPULAN":"Q2 2024","TANGGAL UPDATE":"27/07/2025"}},{"type":"Feature","geometry":{"coordinates":[106.8412742,-6.2248286],"type":"Point"},"properties":{"fid":659,"NAMA":"HALTE BUS SEKOLAH DASAR","TIPE_1":"TRANSPORTASI","TIPE_2":"HALTE","TIPE_3":"-","TELEPON":"0896-0893-0817","ALAMAT":"JL. RAYA CASABLANCA, RT.16/RW.5, MENTENG DALAM, KEC. TEBET, KOTA JAKARTA SELATAN, DAERAH KHUSUS IBUKOTA JAKARTA 12960","ID_PROV":"31","PROVINSI":"DKI JAKARTA","ID_KABKOT":"31.74","KABKOT":"KOTA ADM. JAKARTA SELATAN","ID_KEC":"31.74.01","KECAMATAN":"TEBET","ID_DESA":"31.74.01.1003","DESA":"MENTENG DALAM","LONGITUDE":106.8412742,"LATITUDE":-6.2248286,"STATUS":"BUKA","TANGGAL PENGUMPULAN":"Q2 2024","TANGGAL UPDATE":"27/07/2025"}},{"type":"Feature","geometry":{"coordinates":[106.847557,-6.2270314],"type":"Point"},"properties":{"fid":662,"NAMA":"HALTE BUS TEBET","TIPE_1":"TRANSPORTASI","TIPE_2":"HALTE","TIPE_3":"-","TELEPON":"","ALAMAT":"JL. DR. SAHARJO, RW.1, TEBET BAR., KEC. TEBET, KOTA JAKARTA SELATAN, DAERAH KHUSUS IBUKOTA JAKARTA 12870","ID_PROV":"31","PROVINSI":"DKI JAKARTA","ID_KABKOT":"31.74","KABKOT":"KOTA ADM. JAKARTA SELATAN","ID_KEC":"31.74.01","KECAMATAN":"TEBET","ID_DESA":"31.74.01.1002","DESA":"TEBET BARAT","LONGITUDE":106.847557,"LATITUDE":-6.2270314,"STATUS":"BUKA","TANGGAL PENGUMPULAN":"Q2 2024","TANGGAL UPDATE":"27/07/2025"}},{"type":"Feature","geometry":{"coordinates":[106.7816615,-6.252655],"type":"Point"},"properties":{"fid":675,"NAMA":"HALTE BUSWAY 8-6 KEBAYORAN LAMABUNGUR","TIPE_1":"TRANSPORTASI","TIPE_2":"HALTE","TIPE_3":"-","TELEPON":"","ALAMAT":"JL. SULTAN ISKANDAR MUDA NO.9, RT.9/RW.1, SOUTH KEBAYORAN LAMA, KEBAYORAN LAMA, SOUTH JAKARTA CITY, JAKARTA 12240","ID_PROV":"31","PROVINSI":"DKI JAKARTA","ID_KABKOT":"31.74","KABKOT":"KOTA ADM. JAKARTA SELATAN","ID_KEC":"31.74.05","KECAMATAN":"KEBAYORAN LAMA","ID_DESA":"31.74.05.1006","DESA":"KEBAYORAN LAMA SELATAN","LONGITUDE":106.7816615,"LATITUDE":-6.252655,"STATUS":"BUKA","TANGGAL PENGUMPULAN":"Q2 2024","TANGGAL UPDATE":"27/07/2025"}},{"type":"Feature","geometry":{"coordinates":[106.830308,-6.2743185],"type":"Point"},"properties":{"fid":680,"NAMA":"HALTE BUSWAY BUNCIT INDAH","TIPE_1":"TRANSPORTASI","TIPE_2":"HALTE","TIPE_3":"-","TELEPON":"","ALAMAT":"RT.12/RW.5, KALIBATA, KEC. PANCORAN, KOTA JAKARTA SELATAN, DAERAH KHUSUS IBUKOTA JAKARTA 12510","ID_PROV":"31","PROVINSI":"DKI JAKARTA","ID_KABKOT":"31.74","KABKOT":"KOTA ADM. JAKARTA SELATAN","ID_KEC":"31.74.08","KECAMATAN":"PANCORAN","ID_DESA":"31.74.08.1002","DESA":"KALIBATA","LONGITUDE":106.830308,"LATITUDE":-6.2743185,"STATUS":"BUKA","TANGGAL PENGUMPULAN":"Q2 2024","TANGGAL UPDATE":"27/07/2025"}},{"type":"Feature","geometry":{"coordinates":[106.8307435,-6.2742526],"type":"Point"},"properties":{"fid":681,"NAMA":"HALTE BUSWAY BUNCIT INDAH","TIPE_1":"TRANSPORTASI","TIPE_2":"HALTE","TIPE_3":"-","TELEPON":"","ALAMAT":"JL. WR. JATI BARAT RAYA, RT.12/RW.5, KALIBATA, KEC. PANCORAN, KOTA JAKARTA SELATAN, DAERAH KHUSUS IBUKOTA JAKARTA 12510","ID_PROV":"31","PROVINSI":"DKI JAKARTA","ID_KABKOT":"31.74","KABKOT":"KOTA ADM. JAKARTA SELATAN","ID_KEC":"31.74.08","KECAMATAN":"PANCORAN","ID_DESA":"31.74.08.1002","DESA":"KALIBATA","LONGITUDE":106.8307435,"LATITUDE":-6.2742526,"STATUS":"BUKA","TANGGAL PENGUMPULAN":"Q2 2024","TANGGAL UPDATE":"27/07/2025"}},{"type":"Feature","geometry":{"coordinates":[106.7819483,-6.2547555],"type":"Point"},"properties":{"fid":682,"NAMA":"HALTE BUSWAY BUNGUR","TIPE_1":"TRANSPORTASI","TIPE_2":"HALTE","TIPE_3":"-","TELEPON":"","ALAMAT":"JL. SULTAN ISKANDAR MUDA NO.5 3, RT.3/RW.5, KBY. LAMA SEL., KEC. KBY. LAMA, KOTA JAKARTA SELATAN, DAERAH KHUSUS IBUKOTA JAKARTA 12240","ID_PROV":"31","PROVINSI":"DKI JAKARTA","ID_KABKOT":"31.74","KABKOT":"KOTA ADM. JAKARTA SELATAN","ID_KEC":"31.74.05","KECAMATAN":"KEBAYORAN LAMA","ID_DESA":"31.74.05.1006","DESA":"KEBAYORAN LAMA SELATAN","LONGITUDE":106.7819483,"LATITUDE":-6.2547555,"STATUS":"BUKA","TANGGAL PENGUMPULAN":"Q2 2024","TANGGAL UPDATE":"27/07/2025"}},{"type":"Feature","geometry":{"coordinates":[106.7725098,-6.2381149],"type":"Point"},"properties":{"fid":687,"NAMA":"HALTE BUSWAY CIPULIR","TIPE_1":"TRANSPORTASI","TIPE_2":"HALTE","TIPE_3":"-","TELEPON":"","ALAMAT":"JL. CILEDUG RAYA, RT.6/RW.5, CIPULIR, KEC. KBY. LAMA, KOTA JAKARTA SELATAN, DAERAH KHUSUS IBUKOTA JAKARTA","ID_PROV":"31","PROVINSI":"DKI JAKARTA","ID_KABKOT":"31.74","KABKOT":"KOTA ADM. JAKARTA SELATAN","ID_KEC":"31.74.05","KECAMATAN":"KEBAYORAN LAMA","ID_DESA":"31.74.05.1003","DESA":"CIPULIR","LONGITUDE":106.7725098,"LATITUDE":-6.2381149,"STATUS":"BUKA","TANGGAL PENGUMPULAN":"Q2 2024","TANGGAL UPDATE":"27/07/2025"}},{"type":"Feature","geometry":{"coordinates":[106.7779494,-6.2383454],"type":"Point"},"properties":{"fid":702,"NAMA":"HALTE BUSWAY KEBAYORAN LAMA ICON NEO","TIPE_1":"TRANSPORTASI","TIPE_2":"HALTE","TIPE_3":"-","TELEPON":"","ALAMAT":"JL. CIPULIR, CIPULIR, KEC. KBY. LAMA, JAKARTA, DAERAH KHUSUS IBUKOTA JAKARTA 12230","ID_PROV":"31","PROVINSI":"DKI JAKARTA","ID_KABKOT":"31.74","KABKOT":"KOTA ADM. JAKARTA SELATAN","ID_KEC":"31.74.05","KECAMATAN":"KEBAYORAN LAMA","ID_DESA":"31.74.05.1003","DESA":"CIPULIR","LONGITUDE":106.7779494,"LATITUDE":-6.2383454,"STATUS":"BUKA","TANGGAL PENGUMPULAN":"Q2 2024","TANGGAL UPDATE":"27/07/2025"}},{"type":"Feature","geometry":{"coordinates":[106.8280322,-6.2372855],"type":"Point"},"properties":{"fid":708,"NAMA":"HALTE BUSWAY KUNINGAN BARAT","TIPE_1":"TRANSPORTASI","TIPE_2":"HALTE","TIPE_3":"-","TELEPON":"","ALAMAT":"JL. GATOT SUBROTO, KUNINGAN TIM., KECAMATAN SETIABUDI, KOTA JAKARTA SELATAN, DAERAH KHUSUS IBUKOTA JAKARTA","ID_PROV":"31","PROVINSI":"DKI JAKARTA","ID_KABKOT":"31.74","KABKOT":"KOTA ADM. JAKARTA SELATAN","ID_KEC":"31.74.03","KECAMATAN":"MAMPANG PRAPATAN","ID_DESA":"31.74.03.1005","DESA":"KUNINGAN BARAT","LONGITUDE":106.8280322,"LATITUDE":-6.2372855,"STATUS":"BUKA","TANGGAL PENGUMPULAN":"Q2 2024","TANGGAL UPDATE":"27/07/2025"}},{"type":"Feature","geometry":{"coordinates":[106.8290919,-6.234819],"type":"Point"},"properties":{"fid":709,"NAMA":"HALTE BUSWAY KUNINGAN TIMUR","TIPE_1":"TRANSPORTASI","TIPE_2":"HALTE","TIPE_3":"-","TELEPON":"","ALAMAT":"JALAN HR. RASUNA SAID,JAKSEL., RT.5/RW.4, KUNINGAN TIMUR, KECAMATAN SETIABUDI, KOTA JAKARTA SELATAN, 12950","ID_PROV":"31","PROVINSI":"DKI JAKARTA","ID_KABKOT":"31.74","KABKOT":"KOTA ADM. JAKARTA SELATAN","ID_KEC":"31.74.02","KECAMATAN":"SETIABUDI","ID_DESA":"31.74.02.1008","DESA":"KUNINGAN TIMUR","LONGITUDE":106.8290919,"LATITUDE":-6.234819,"STATUS":"BUKA","TANGGAL PENGUMPULAN":"Q2 2024","TANGGAL UPDATE":"27/07/2025"}},{"type":"Feature","geometry":{"coordinates":[106.8439417,-6.2430557],"type":"Point"},"properties":{"fid":714,"NAMA":"HALTE BUSWAY PANCORAN TUGU","TIPE_1":"TRANSPORTASI","TIPE_2":"HALTE","TIPE_3":"-","TELEPON":"","ALAMAT":"RT.2/RW.2, TEBET BAR., KEC. TEBET, KOTA JAKARTA SELATAN, DAERAH KHUSUS IBUKOTA JAKARTA 12780","ID_PROV":"31","PROVINSI":"DKI JAKARTA","ID_KABKOT":"31.74","KABKOT":"KOTA ADM. JAKARTA SELATAN","ID_KEC":"31.74.01","KECAMATAN":"TEBET","ID_DESA":"31.74.01.1002","DESA":"TEBET BARAT","LONGITUDE":106.8439417,"LATITUDE":-6.2430557,"STATUS":"BUKA","TANGGAL PENGUMPULAN":"Q2 2024","TANGGAL UPDATE":"27/07/2025"}},{"type":"Feature","geometry":{"coordinates":[106.7903944,-6.2418276],"type":"Point"},"properties":{"fid":716,"NAMA":"HALTE BUSWAY PASAR MAYESTIK","TIPE_1":"TRANSPORTASI","TIPE_2":"HALTE","TIPE_3":"-","TELEPON":"","ALAMAT":"JALAN KYAI MAJA, RT.13/RW.2, GUNUNG, KEC. KBY. BARU, JAKARTA, DAERAH KHUSUS IBUKOTA JAKARTA 12120","ID_PROV":"31","PROVINSI":"DKI JAKARTA","ID_KABKOT":"31.74","KABKOT":"KOTA ADM. JAKARTA SELATAN","ID_KEC":"31.74.07","KECAMATAN":"KEBAYORAN BARU","ID_DESA":"31.74.07.1002","DESA":"GUNUNG","LONGITUDE":106.7903944,"LATITUDE":-6.2418276,"STATUS":"BUKA","TANGGAL PENGUMPULAN":"Q2 2024","TANGGAL UPDATE":"27/07/2025"}},{"type":"Feature","geometry":{"coordinates":[106.7829489,-6.2212643],"type":"Point"},"properties":{"fid":720,"NAMA":"HALTE BUSWAY PERMATA HIJAU","TIPE_1":"TRANSPORTASI","TIPE_2":"HALTE","TIPE_3":"-","TELEPON":"","ALAMAT":"JL. PERMATA HIJAU NO.1 4, RT.1/RW.2, GROGOL UTARA, KEC. KBY. LAMA, KOTA JAKARTA SELATAN, DAERAH KHUSUS IBUKOTA JAKARTA 12210","ID_PROV":"31","PROVINSI":"DKI JAKARTA","ID_KABKOT":"31.74","KABKOT":"KOTA ADM. JAKARTA SELATAN","ID_KEC":"31.74.05","KECAMATAN":"KEBAYORAN LAMA","ID_DESA":"31.74.05.1004","DESA":"GROGOL UTARA","LONGITUDE":106.7829489,"LATITUDE":-6.2212643,"STATUS":"BUKA","TANGGAL PENGUMPULAN":"Q2 2024","TANGGAL UPDATE":"27/07/2025"}},{"type":"Feature","geometry":{"coordinates":[106.783648,-6.2663544],"type":"Point"},"properties":{"fid":723,"NAMA":"HALTE BUSWAY PONDOK INDAH 2","TIPE_1":"TRANSPORTASI","TIPE_2":"HALTE","TIPE_3":"-","TELEPON":"","ALAMAT":"JL. METRO PONDOK INDAH NO.6 1, RT.1/RW.16, PD. PINANG, KEC. KBY. LAMA, KOTA JAKARTA SELATAN, DAERAH KHUSUS IBUKOTA JAKARTA 12310","ID_PROV":"31","PROVINSI":"DKI JAKARTA","ID_KABKOT":"31.74","KABKOT":"KOTA ADM. JAKARTA SELATAN","ID_KEC":"31.74.05","KECAMATAN":"KEBAYORAN LAMA","ID_DESA":"31.74.05.1002","DESA":"PONDOK PINANG","LONGITUDE":106.783648,"LATITUDE":-6.2663544,"STATUS":"BUKA","TANGGAL PENGUMPULAN":"Q2 2024","TANGGAL UPDATE":"27/07/2025"}},{"type":"Feature","geometry":{"coordinates":[106.8204476,-6.3058427],"type":"Point"},"properties":{"fid":724,"NAMA":"HALTE BUSWAY RAGUNAN","TIPE_1":"TRANSPORTASI","TIPE_2":"HALTE","TIPE_3":"-","TELEPON":"","ALAMAT":"RT.10/RW.7, RAGUNAN, PS. MINGGU, KOTA JAKARTA SELATAN, DAERAH KHUSUS IBUKOTA JAKARTA 12550","ID_PROV":"31","PROVINSI":"DKI JAKARTA","ID_KABKOT":"31.74","KABKOT":"KOTA ADM. JAKARTA SELATAN","ID_KEC":"31.74.04","KECAMATAN":"PASAR MINGGU","ID_DESA":"31.74.04.1004","DESA":"RAGUNAN","LONGITUDE":106.8204476,"LATITUDE":-6.3058427,"STATUS":"BUKA","TANGGAL PENGUMPULAN":"Q2 2024","TANGGAL UPDATE":"27/07/2025"}},{"type":"Feature","geometry":{"coordinates":[106.8583857,-6.2262143],"type":"Point"},"properties":{"fid":726,"NAMA":"HALTE BUSWAY RUMAH SUSUN","TIPE_1":"TRANSPORTASI","TIPE_2":"HALTE","TIPE_3":"-","TELEPON":"","ALAMAT":"RT.1/RW.1, KB. BARU, KEC. TEBET, KOTA JAKARTA SELATAN, DAERAH KHUSUS IBUKOTA JAKARTA 12820","ID_PROV":"31","PROVINSI":"DKI JAKARTA","ID_KABKOT":"31.74","KABKOT":"KOTA ADM. JAKARTA SELATAN","ID_KEC":"31.74.01","KECAMATAN":"TEBET","ID_DESA":"31.74.01.1001","DESA":"TEBET TIMUR","LONGITUDE":106.8583857,"LATITUDE":-6.2262143,"STATUS":"BUKA","TANGGAL PENGUMPULAN":"Q2 2024","TANGGAL UPDATE":"27/07/2025"}},{"type":"Feature","geometry":{"coordinates":[106.8130162,-6.2205823],"type":"Point"},"properties":{"fid":729,"NAMA":"HALTE BUSWAY SEMANGGI","TIPE_1":"TRANSPORTASI","TIPE_2":"HALTE","TIPE_3":"-","TELEPON":"","ALAMAT":"JL. GATOT SUBROTO NO.1, RT.1/RW.4, KARET SEMANGGI, KECAMATAN SETIABUDI, KOTA JAKARTA SELATAN, DAERAH KHUSUS IBUKOTA JAKARTA 12930","ID_PROV":"31","PROVINSI":"DKI JAKARTA","ID_KABKOT":"31.74","KABKOT":"KOTA ADM. JAKARTA SELATAN","ID_KEC":"31.74.07","KECAMATAN":"KEBAYORAN BARU","ID_DESA":"31.74.07.1006","DESA":"SENAYAN","LONGITUDE":106.8130162,"LATITUDE":-6.2205823,"STATUS":"BUKA","TANGGAL PENGUMPULAN":"Q2 2024","TANGGAL UPDATE":"27/07/2025"}},{"type":"Feature","geometry":{"coordinates":[106.7712535,-6.2380033],"type":"Point"},"properties":{"fid":730,"NAMA":"HALTE BUSWAY SESKOAL","TIPE_1":"TRANSPORTASI","TIPE_2":"HALTE","TIPE_3":"-","TELEPON":"","ALAMAT":"JL. CILEDUG RAYA, RT.8/RW.11, CIPULIR, KEC. KBY. LAMA, KOTA JAKARTA SELATAN, DAERAH KHUSUS IBUKOTA JAKARTA 12230","ID_PROV":"31","PROVINSI":"DKI JAKARTA","ID_KABKOT":"31.74","KABKOT":"KOTA ADM. JAKARTA SELATAN","ID_KEC":"31.74.05","KECAMATAN":"KEBAYORAN LAMA","ID_DESA":"31.74.05.1003","DESA":"CIPULIR","LONGITUDE":106.7712535,"LATITUDE":-6.2380033,"STATUS":"BUKA","TANGGAL PENGUMPULAN":"Q2 2024","TANGGAL UPDATE":"27/07/2025"}},{"type":"Feature","geometry":{"coordinates":[106.8317227,-6.2393202],"type":"Point"},"properties":{"fid":732,"NAMA":"HALTE BUSWAY TEGAL PARANG","TIPE_1":"TRANSPORTASI","TIPE_2":"HALTE","TIPE_3":"-","TELEPON":"","ALAMAT":"JL. GATOT SUBROTO NO.KAV 53 1, RT.1/RW.4, KUNINGAN TIM., KECAMATAN SETIABUDI, KOTA JAKARTA SELATAN, DAERAH KHUSUS IBUKOTA JAKARTA 12950","ID_PROV":"31","PROVINSI":"DKI JAKARTA","ID_KABKOT":"31.74","KABKOT":"KOTA ADM. JAKARTA SELATAN","ID_KEC":"31.74.02","KECAMATAN":"SETIABUDI","ID_DESA":"31.74.02.1008","DESA":"KUNINGAN TIMUR","LONGITUDE":106.8317227,"LATITUDE":-6.2393202,"STATUS":"BUKA","TANGGAL PENGUMPULAN":"Q2 2024","TANGGAL UPDATE":"27/07/2025"}},{"type":"Feature","geometry":{"coordinates":[106.8304716,-6.2134343],"type":"Point"},"properties":{"fid":735,"NAMA":"HALTE BUSWAY TRANSJAKARTA KUNINGAN MASYA AINI","TIPE_1":"TRANSPORTASI","TIPE_2":"HALTE","TIPE_3":"-","TELEPON":"","ALAMAT":"RT.3/RW.1, KUNINGAN, MENTENG ATAS, KECAMATAN SETIABUDI, KOTA JAKARTA SELATAN, DAERAH KHUSUS IBUKOTA JAKARTA 12920","ID_PROV":"31","PROVINSI":"DKI JAKARTA","ID_KABKOT":"31.74","KABKOT":"KOTA ADM. JAKARTA SELATAN","ID_KEC":"31.74.02","KECAMATAN":"SETIABUDI","ID_DESA":"31.74.02.1004","DESA":"KARET","LONGITUDE":106.8304716,"LATITUDE":-6.2134343,"STATUS":"BUKA","TANGGAL PENGUMPULAN":"Q2 2024","TANGGAL UPDATE":"27/07/2025"}},{"type":"Feature","geometry":{"coordinates":[106.844532,-6.2243125],"type":"Point"},"properties":{"fid":742,"NAMA":"HALTE CASABLANCA","TIPE_1":"TRANSPORTASI","TIPE_2":"HALTE","TIPE_3":"-","TELEPON":"","ALAMAT":"JL. RAYA CASABLANCA NO.RAYA, RT.10/RW.13, MENTENG DALAM, KEC. TEBET, KOTA JAKARTA SELATAN, DAERAH KHUSUS IBUKOTA JAKARTA 12870","ID_PROV":"31","PROVINSI":"DKI JAKARTA","ID_KABKOT":"31.74","KABKOT":"KOTA ADM. JAKARTA SELATAN","ID_KEC":"31.74.01","KECAMATAN":"TEBET","ID_DESA":"31.74.01.1003","DESA":"MENTENG DALAM","LONGITUDE":106.844532,"LATITUDE":-6.2243125,"STATUS":"BUKA","TANGGAL PENGUMPULAN":"Q2 2024","TANGGAL UPDATE":"27/07/2025"}},{"type":"Feature","geometry":{"coordinates":[106.7996567,-6.2527303],"type":"Point"},"properties":{"fid":745,"NAMA":"HALTE CITRA GRAND WIJAYA CENTER","TIPE_1":"TRANSPORTASI","TIPE_2":"HALTE","TIPE_3":"-","TELEPON":"","ALAMAT":"JL. DHARMAWANGSA RAYA NO.12, RT.4/RW.2, PULO, KEC. KBY. BARU, KOTA JAKARTA SELATAN, DAERAH KHUSUS IBUKOTA JAKARTA 12160","ID_PROV":"31","PROVINSI":"DKI JAKARTA","ID_KABKOT":"31.74","KABKOT":"KOTA ADM. JAKARTA SELATAN","ID_KEC":"31.74.07","KECAMATAN":"KEBAYORAN BARU","ID_DESA":"31.74.07.1007","DESA":"PULO","LONGITUDE":106.7996567,"LATITUDE":-6.2527303,"STATUS":"BUKA","TANGGAL PENGUMPULAN":"Q2 2024","TANGGAL UPDATE":"27/07/2025"}},{"type":"Feature","geometry":{"coordinates":[106.7984876,-6.2399195],"type":"Point"},"properties":{"fid":747,"NAMA":"HALTE CSW CAKRA SELARAS WAHANA TRANSJAKARTA","TIPE_1":"TRANSPORTASI","TIPE_2":"HALTE","TIPE_3":"-","TELEPON":"","ALAMAT":"JL. TRUNOJOYO NO.1, MELAWAI, KEBAYORAN BARU, SOUTH JAKARTA CITY, JAKARTA 12110","ID_PROV":"31","PROVINSI":"DKI JAKARTA","ID_KABKOT":"31.74","KABKOT":"KOTA ADM. JAKARTA SELATAN","ID_KEC":"31.74.07","KECAMATAN":"KEBAYORAN BARU","ID_DESA":"31.74.07.1001","DESA":"MELAWAI","LONGITUDE":106.7984876,"LATITUDE":-6.2399195,"STATUS":"BUKA","TANGGAL PENGUMPULAN":"Q2 2024","TANGGAL UPDATE":"27/07/2025"}},{"type":"Feature","geometry":{"coordinates":[106.8080183,-6.2606128],"type":"Point"},"properties":{"fid":751,"NAMA":"HALTE DEPAN GANG CEMPAKA I","TIPE_1":"TRANSPORTASI","TIPE_2":"HALTE","TIPE_3":"-","TELEPON":"","ALAMAT":"JL. PANGERAN ANTASARI, RT.1/RW.11, CIPETE UTARA, KEC. KBY. BARU, KOTA JAKARTA SELATAN, DAERAH KHUSUS IBUKOTA JAKARTA 12150","ID_PROV":"31","PROVINSI":"DKI JAKARTA","ID_KABKOT":"31.74","KABKOT":"KOTA ADM. JAKARTA SELATAN","ID_KEC":"31.74.07","KECAMATAN":"KEBAYORAN BARU","ID_DESA":"31.74.07.1010","DESA":"CIPETE UTARA","LONGITUDE":106.8080183,"LATITUDE":-6.2606128,"STATUS":"BUKA","TANGGAL PENGUMPULAN":"Q2 2024","TANGGAL UPDATE":"27/07/2025"}},{"type":"Feature","geometry":{"coordinates":[106.830859,-6.2542971],"type":"Point"},"properties":{"fid":754,"NAMA":"HALTE DUREN TIGA","TIPE_1":"TRANSPORTASI","TIPE_2":"HALTE","TIPE_3":"-","TELEPON":"","ALAMAT":"JALAN RAYA DUREN TIGA RT.07RW.05, NO 3CDUREN TIGA, KEC. PANCORAN, KOTA JAKARTA SELATAN, DAERAH KHUSUS IBUKOTA JAKARTA 12760","ID_PROV":"31","PROVINSI":"DKI JAKARTA","ID_KABKOT":"31.74","KABKOT":"KOTA ADM. JAKARTA SELATAN","ID_KEC":"31.74.08","KECAMATAN":"PANCORAN","ID_DESA":"31.74.08.1004","DESA":"DUREN TIGA","LONGITUDE":106.830859,"LATITUDE":-6.2542971,"STATUS":"BUKA","TANGGAL PENGUMPULAN":"Q2 2024","TANGGAL UPDATE":"27/07/2025"}},{"type":"Feature","geometry":{"coordinates":[106.8372499,-6.2534042],"type":"Point"},"properties":{"fid":755,"NAMA":"HALTE DUREN TIGA RAYA","TIPE_1":"TRANSPORTASI","TIPE_2":"HALTE","TIPE_3":"-","TELEPON":"","ALAMAT":"JL. DUREN TIGA RAYA NO.26, RT.5/RW.6, DUREN TIGA, KEC. PANCORAN, KOTA JAKARTA SELATAN, DAERAH KHUSUS IBUKOTA JAKARTA 12760","ID_PROV":"31","PROVINSI":"DKI JAKARTA","ID_KABKOT":"31.74","KABKOT":"KOTA ADM. JAKARTA SELATAN","ID_KEC":"31.74.08","KECAMATAN":"PANCORAN","ID_DESA":"31.74.08.1004","DESA":"DUREN TIGA","LONGITUDE":106.8372499,"LATITUDE":-6.2534042,"STATUS":"BUKA","TANGGAL PENGUMPULAN":"Q2 2024","TANGGAL UPDATE":"27/07/2025"}},{"type":"Feature","geometry":{"coordinates":[106.7914236,-6.2925555],"type":"Point"},"properties":{"fid":756,"NAMA":"HALTE FATMAWATI","TIPE_1":"TRANSPORTASI","TIPE_2":"HALTE","TIPE_3":"-","TELEPON":"","ALAMAT":"JL. R.A. KARTINI, RT.11/RW.4, CILANDAK BAR., KEC. CILANDAK, KOTA JAKARTA SELATAN, DAERAH KHUSUS IBUKOTA JAKARTA 12430","ID_PROV":"31","PROVINSI":"DKI JAKARTA","ID_KABKOT":"31.74","KABKOT":"KOTA ADM. JAKARTA SELATAN","ID_KEC":"31.74.06","KECAMATAN":"CILANDAK","ID_DESA":"31.74.06.1001","DESA":"CILANDAK BARAT","LONGITUDE":106.7914236,"LATITUDE":-6.2925555,"STATUS":"BUKA","TANGGAL PENGUMPULAN":"Q2 2024","TANGGAL UPDATE":"27/07/2025"}},{"type":"Feature","geometry":{"coordinates":[106.7960869,-6.2919329],"type":"Point"},"properties":{"fid":757,"NAMA":"HALTE FATMAWATI CITOS","TIPE_1":"TRANSPORTASI","TIPE_2":"HALTE","TIPE_3":"-","TELEPON":"","ALAMAT":"JL. TB SIMATUPANG NO.19 2, RT.2/RW.9, CILANDAK BAR., KEC. CILANDAK, KOTA JAKARTA SELATAN, DAERAH KHUSUS IBUKOTA JAKARTA 12430","ID_PROV":"31","PROVINSI":"DKI JAKARTA","ID_KABKOT":"31.74","KABKOT":"KOTA ADM. JAKARTA SELATAN","ID_KEC":"31.74.06","KECAMATAN":"CILANDAK","ID_DESA":"31.74.06.1001","DESA":"CILANDAK BARAT","LONGITUDE":106.7960869,"LATITUDE":-6.2919329,"STATUS":"BUKA","TANGGAL PENGUMPULAN":"Q2 2024","TANGGAL UPDATE":"27/07/2025"}},{"type":"Feature","geometry":{"coordinates":[106.8295386,-6.2864369],"type":"Point"},"properties":{"fid":761,"NAMA":"HALTE GAPENSI","TIPE_1":"TRANSPORTASI","TIPE_2":"HALTE","TIPE_3":"-","TELEPON":"","ALAMAT":"JL. RAYA RAGUNAN NO.4, RT.4/RW.3, JATI PADANG, PS. MINGGU, KOTA JAKARTA SELATAN, DAERAH KHUSUS IBUKOTA JAKARTA 12540","ID_PROV":"31","PROVINSI":"DKI JAKARTA","ID_KABKOT":"31.74","KABKOT":"KOTA ADM. JAKARTA SELATAN","ID_KEC":"31.74.04","KECAMATAN":"PASAR MINGGU","ID_DESA":"31.74.04.1002","DESA":"JATI PADANG","LONGITUDE":106.8295386,"LATITUDE":-6.2864369,"STATUS":"BUKA","TANGGAL PENGUMPULAN":"Q2 2024","TANGGAL UPDATE":"27/07/2025"}},{"type":"Feature","geometry":{"coordinates":[106.7897171,-6.2304769],"type":"Point"},"properties":{"fid":763,"NAMA":"HALTE GEDUNG PERTAMINA","TIPE_1":"TRANSPORTASI","TIPE_2":"HALTE","TIPE_3":"-","TELEPON":"","ALAMAT":"JL. TEUKU NYAK ARIEF, RT.7/RW.8, GROGOL SEL., KEC. KBY. LAMA, KOTA JAKARTA SELATAN, DAERAH KHUSUS IBUKOTA JAKARTA 12220","ID_PROV":"31","PROVINSI":"DKI JAKARTA","ID_KABKOT":"31.74","KABKOT":"KOTA ADM. JAKARTA SELATAN","ID_KEC":"31.74.05","KECAMATAN":"KEBAYORAN LAMA","ID_DESA":"31.74.05.1005","DESA":"GROGOL SELATAN","LONGITUDE":106.7897171,"LATITUDE":-6.2304769,"STATUS":"BUKA","TANGGAL PENGUMPULAN":"Q2 2024","TANGGAL UPDATE":"27/07/2025"}},{"type":"Feature","geometry":{"coordinates":[106.8033132,-6.2457535],"type":"Point"},"properties":{"fid":767,"NAMA":"HALTE GEREJA MELAWAI","TIPE_1":"TRANSPORTASI","TIPE_2":"HALTE","TIPE_3":"-","TELEPON":"","ALAMAT":"JALAN MELAWAI RAYA NO.1, RT.3/RW.1, MELAWAI, KEC. KBY. BARU, KOTA JAKARTA SELATAN, DAERAH KHUSUS IBUKOTA JAKARTA 12160","ID_PROV":"31","PROVINSI":"DKI JAKARTA","ID_KABKOT":"31.74","KABKOT":"KOTA ADM. JAKARTA SELATAN","ID_KEC":"31.74.07","KECAMATAN":"KEBAYORAN BARU","ID_DESA":"31.74.07.1001","DESA":"MELAWAI","LONGITUDE":106.8033132,"LATITUDE":-6.2457535,"STATUS":"BUKA","TANGGAL PENGUMPULAN":"Q2 2024","TANGGAL UPDATE":"27/07/2025"}},{"type":"Feature","geometry":{"coordinates":[106.8075062,-6.2351903],"type":"Point"},"properties":{"fid":771,"NAMA":"HALTE GUNAWARMAN","TIPE_1":"TRANSPORTASI","TIPE_2":"HALTE","TIPE_3":"-","TELEPON":"","ALAMAT":"JL. GUNAWARMAN, KEC. KBY. BARU, KOTA JAKARTA SELATAN, DAERAH KHUSUS IBUKOTA JAKARTA 12180","ID_PROV":"31","PROVINSI":"DKI JAKARTA","ID_KABKOT":"31.74","KABKOT":"KOTA ADM. JAKARTA SELATAN","ID_KEC":"31.74.07","KECAMATAN":"KEBAYORAN BARU","ID_DESA":"31.74.07.1004","DESA":"SELONG","LONGITUDE":106.8075062,"LATITUDE":-6.2351903,"STATUS":"BUKA","TANGGAL PENGUMPULAN":"Q2 2024","TANGGAL UPDATE":"27/07/2025"}},{"type":"Feature","geometry":{"coordinates":[106.8325191,-6.2050595],"type":"Point"},"properties":{"fid":773,"NAMA":"HALTE HALIMUN","TIPE_1":"TRANSPORTASI","TIPE_2":"HALTE","TIPE_3":"-","TELEPON":"","ALAMAT":"JL. SULTAN AGUNG, RT.12/RW.6, GUNTUR, KECAMATAN SETIABUDI, KOTA JAKARTA SELATAN, DAERAH KHUSUS IBUKOTA JAKARTA 12980","ID_PROV":"31","PROVINSI":"DKI JAKARTA","ID_KABKOT":"31.74","KABKOT":"KOTA ADM. JAKARTA SELATAN","ID_KEC":"31.74.02","KECAMATAN":"SETIABUDI","ID_DESA":"31.74.02.1007","DESA":"GUNTUR","LONGITUDE":106.8325191,"LATITUDE":-6.2050595,"STATUS":"BUKA","TANGGAL PENGUMPULAN":"Q2 2024","TANGGAL UPDATE":"27/07/2025"}},{"type":"Feature","geometry":{"coordinates":[106.7635837,-6.2494045],"type":"Point"},"properties":{"fid":778,"NAMA":"HALTE JAK 49 (LEBAK BULUS - CIPULIR)","TIPE_1":"TRANSPORTASI","TIPE_2":"HALTE","TIPE_3":"-","TELEPON":"","ALAMAT":"JL. ULUJAMI RAYA NO.2 4, RT.4/RW.1, PESANGGRAHAN, KEC. PESANGGRAHAN, KOTA JAKARTA SELATAN, DAERAH KHUSUS IBUKOTA JAKARTA 12320","ID_PROV":"31","PROVINSI":"DKI JAKARTA","ID_KABKOT":"31.74","KABKOT":"KOTA ADM. JAKARTA SELATAN","ID_KEC":"31.74.10","KECAMATAN":"PESANGGRAHAN","ID_DESA":"31.74.10.1005","DESA":"ULUJAMI","LONGITUDE":106.7635837,"LATITUDE":-6.2494045,"STATUS":"BUKA","TANGGAL PENGUMPULAN":"Q2 2024","TANGGAL UPDATE":"27/07/2025"}},{"type":"Feature","geometry":{"coordinates":[106.8552851,-6.2540731],"type":"Point"},"properties":{"fid":782,"NAMA":"HALTE JAKLINGKO 18 KALIBATA-KUNINGAN","TIPE_1":"TRANSPORTASI","TIPE_2":"HALTE","TIPE_3":"-","TELEPON":"","ALAMAT":"JL. DPR RAYA, RT.6/RW.7, RAWAJATI, KEC. PANCORAN, KOTA JAKARTA SELATAN, DAERAH KHUSUS IBUKOTA JAKARTA 12750","ID_PROV":"31","PROVINSI":"DKI JAKARTA","ID_KABKOT":"31.74","KABKOT":"KOTA ADM. JAKARTA SELATAN","ID_KEC":"31.74.08","KECAMATAN":"PANCORAN","ID_DESA":"31.74.08.1003","DESA":"RAWAJATI","LONGITUDE":106.8552851,"LATITUDE":-6.2540731,"STATUS":"BUKA","TANGGAL PENGUMPULAN":"Q2 2024","TANGGAL UPDATE":"27/07/2025"}},{"type":"Feature","geometry":{"coordinates":[106.8132019,-6.3116478],"type":"Point"},"properties":{"fid":789,"NAMA":"HALTE KAHFI RAYA","TIPE_1":"TRANSPORTASI","TIPE_2":"HALTE","TIPE_3":"-","TELEPON":"","ALAMAT":"JL. MOH. KAHFI 1 NO.6C 2, RT.2/RW.6, JAGAKARSA, KEC. JAGAKARSA, KOTA JAKARTA SELATAN, DAERAH KHUSUS IBUKOTA JAKARTA 12620","ID_PROV":"31","PROVINSI":"DKI JAKARTA","ID_KABKOT":"31.74","KABKOT":"KOTA ADM. JAKARTA SELATAN","ID_KEC":"31.74.09","KECAMATAN":"JAGAKARSA","ID_DESA":"31.74.09.1001","DESA":"JAGAKARSA","LONGITUDE":106.8132019,"LATITUDE":-6.3116478,"STATUS":"BUKA","TANGGAL PENGUMPULAN":"Q2 2024","TANGGAL UPDATE":"27/07/2025"}},{"type":"Feature","geometry":{"coordinates":[106.780317,-6.2327641],"type":"Point"},"properties":{"fid":792,"NAMA":"HALTE KANGKUNG","TIPE_1":"TRANSPORTASI","TIPE_2":"HALTE","TIPE_3":"-","TELEPON":"","ALAMAT":"JL. RAYA KBY. LAMA NO.11, RT.11/RW.1, GROGOL SEL., KEC. KBY. LAMA, KOTA JAKARTA SELATAN, DAERAH KHUSUS IBUKOTA JAKARTA 12220","ID_PROV":"31","PROVINSI":"DKI JAKARTA","ID_KABKOT":"31.74","KABKOT":"KOTA ADM. JAKARTA SELATAN","ID_KEC":"31.74.05","KECAMATAN":"KEBAYORAN LAMA","ID_DESA":"31.74.05.1005","DESA":"GROGOL SELATAN","LONGITUDE":106.780317,"LATITUDE":-6.2327641,"STATUS":"BUKA","TANGGAL PENGUMPULAN":"Q2 2024","TANGGAL UPDATE":"27/07/2025"}},{"type":"Feature","geometry":{"coordinates":[106.8314835,-6.286146],"type":"Point"},"properties":{"fid":794,"NAMA":"HALTE KARANG POLA","TIPE_1":"TRANSPORTASI","TIPE_2":"HALTE","TIPE_3":"-","TELEPON":"","ALAMAT":"JL. RAYA RAGUNAN, RT.3/RW.3, JATI PADANG, PS. MINGGU, KOTA JAKARTA SELATAN, DAERAH KHUSUS IBUKOTA JAKARTA 12540","ID_PROV":"31","PROVINSI":"DKI JAKARTA","ID_KABKOT":"31.74","KABKOT":"KOTA ADM. JAKARTA SELATAN","ID_KEC":"31.74.04","KECAMATAN":"PASAR MINGGU","ID_DESA":"31.74.04.1002","DESA":"JATI PADANG","LONGITUDE":106.8314835,"LATITUDE":-6.286146,"STATUS":"BUKA","TANGGAL PENGUMPULAN":"Q2 2024","TANGGAL UPDATE":"27/07/2025"}},{"type":"Feature","geometry":{"coordinates":[106.8314097,-6.2861431],"type":"Point"},"properties":{"fid":795,"NAMA":"HALTE KARANG POLA","TIPE_1":"TRANSPORTASI","TIPE_2":"HALTE","TIPE_3":"-","TELEPON":"","ALAMAT":"RT.3/RW.3, JATI PADANG, PS. MINGGU, KOTA JAKARTA SELATAN, DAERAH KHUSUS IBUKOTA JAKARTA 12540","ID_PROV":"31","PROVINSI":"DKI JAKARTA","ID_KABKOT":"31.74","KABKOT":"KOTA ADM. JAKARTA SELATAN","ID_KEC":"31.74.04","KECAMATAN":"PASAR MINGGU","ID_DESA":"31.74.04.1002","DESA":"JATI PADANG","LONGITUDE":106.8314097,"LATITUDE":-6.2861431,"STATUS":"BUKA","TANGGAL PENGUMPULAN":"Q2 2024","TANGGAL UPDATE":"27/07/2025"}},{"type":"Feature","geometry":{"coordinates":[106.8273398,-6.2966343],"type":"Point"},"properties":{"fid":800,"NAMA":"HALTE KEBAGUSAN SIMATUPANG","TIPE_1":"TRANSPORTASI","TIPE_2":"HALTE","TIPE_3":"-","TELEPON":"","ALAMAT":"JL. KEBAGUSAN RAYA, RT.4/RW.1, RAGUNAN, PS. MINGGU, KOTA JAKARTA SELATAN, DAERAH KHUSUS IBUKOTA JAKARTA 12520","ID_PROV":"31","PROVINSI":"DKI JAKARTA","ID_KABKOT":"31.74","KABKOT":"KOTA ADM. JAKARTA SELATAN","ID_KEC":"31.74.04","KECAMATAN":"PASAR MINGGU","ID_DESA":"31.74.04.1007","DESA":"KEBAGUSAN","LONGITUDE":106.8273398,"LATITUDE":-6.2966343,"STATUS":"BUKA","TANGGAL PENGUMPULAN":"Q2 2024","TANGGAL UPDATE":"27/07/2025"}},{"type":"Feature","geometry":{"coordinates":[106.7984384,-6.2402521],"type":"Point"},"properties":{"fid":801,"NAMA":"HALTE KEJAKSAAN AGUNG","TIPE_1":"TRANSPORTASI","TIPE_2":"HALTE","TIPE_3":"-","TELEPON":"","ALAMAT":"RT.1/RW.1, MELAWAI, KEC. KBY. BARU, KOTA JAKARTA SELATAN, DAERAH KHUSUS IBUKOTA JAKARTA","ID_PROV":"31","PROVINSI":"DKI JAKARTA","ID_KABKOT":"31.74","KABKOT":"KOTA ADM. JAKARTA SELATAN","ID_KEC":"31.74.07","KECAMATAN":"KEBAYORAN BARU","ID_DESA":"31.74.07.1003","DESA":"KRAMAT PELA","LONGITUDE":106.7984384,"LATITUDE":-6.2402521,"STATUS":"BUKA","TANGGAL PENGUMPULAN":"Q2 2024","TANGGAL UPDATE":"27/07/2025"}},{"type":"Feature","geometry":{"coordinates":[106.83203,-6.2393595],"type":"Point"},"properties":{"fid":802,"NAMA":"HALTE KFC","TIPE_1":"TRANSPORTASI","TIPE_2":"HALTE","TIPE_3":"-","TELEPON":"","ALAMAT":"JL. GATOT SUBROTO, RT.1/RW.4, KUNINGAN TIM., KECAMATAN SETIABUDI, KOTA JAKARTA SELATAN, DAERAH KHUSUS IBUKOTA JAKARTA 12950","ID_PROV":"31","PROVINSI":"DKI JAKARTA","ID_KABKOT":"31.74","KABKOT":"KOTA ADM. JAKARTA SELATAN","ID_KEC":"31.74.02","KECAMATAN":"SETIABUDI","ID_DESA":"31.74.02.1008","DESA":"KUNINGAN TIMUR","LONGITUDE":106.83203,"LATITUDE":-6.2393595,"STATUS":"BUKA","TANGGAL PENGUMPULAN":"Q2 2024","TANGGAL UPDATE":"27/07/2025"}},{"type":"Feature","geometry":{"coordinates":[106.850788,-6.2657889],"type":"Point"},"properties":{"fid":803,"NAMA":"HALTE KOMP. KALIBATA","TIPE_1":"TRANSPORTASI","TIPE_2":"HALTE","TIPE_3":"-","TELEPON":"","ALAMAT":"JL. RAWAJATI TIMUR, RT.7/RW.6, RAWAJATI, KEC. PANCORAN, KOTA JAKARTA SELATAN, DAERAH KHUSUS IBUKOTA JAKARTA 12750","ID_PROV":"31","PROVINSI":"DKI JAKARTA","ID_KABKOT":"31.74","KABKOT":"KOTA ADM. JAKARTA SELATAN","ID_KEC":"31.74.08","KECAMATAN":"PANCORAN","ID_DESA":"31.74.08.1003","DESA":"RAWAJATI","LONGITUDE":106.850788,"LATITUDE":-6.2657889,"STATUS":"BUKA","TANGGAL PENGUMPULAN":"Q2 2024","TANGGAL UPDATE":"27/07/2025"}},{"type":"Feature","geometry":{"coordinates":[106.8401198,-6.2973062],"type":"Point"},"properties":{"fid":805,"NAMA":"HALTE KOMPLEK BATAN","TIPE_1":"TRANSPORTASI","TIPE_2":"HALTE","TIPE_3":"-","TELEPON":"","ALAMAT":"RT.7/RW.7, PS. MINGGU, KOTA JAKARTA SELATAN, DAERAH KHUSUS IBUKOTA JAKARTA 12520","ID_PROV":"31","PROVINSI":"DKI JAKARTA","ID_KABKOT":"31.74","KABKOT":"KOTA ADM. JAKARTA SELATAN","ID_KEC":"31.74.04","KECAMATAN":"PASAR MINGGU","ID_DESA":"31.74.04.1001","DESA":"PASAR MINGGU","LONGITUDE":106.8401198,"LATITUDE":-6.2973062,"STATUS":"BUKA","TANGGAL PENGUMPULAN":"Q2 2024","TANGGAL UPDATE":"27/07/2025"}},{"type":"Feature","geometry":{"coordinates":[106.8143565,-6.2369946],"type":"Point"},"properties":{"fid":811,"NAMA":"HALTE LAPANGAN BLOK S","TIPE_1":"TRANSPORTASI","TIPE_2":"HALTE","TIPE_3":"-","TELEPON":"","ALAMAT":"JL. SURYO, KEBAYORAN BARU, DAERAH KHUSUS IBUKOTA JAKARTA 12180","ID_PROV":"31","PROVINSI":"DKI JAKARTA","ID_KABKOT":"31.74","KABKOT":"KOTA ADM. JAKARTA SELATAN","ID_KEC":"31.74.07","KECAMATAN":"KEBAYORAN BARU","ID_DESA":"31.74.07.1005","DESA":"RAWA BARAT","LONGITUDE":106.8143565,"LATITUDE":-6.2369946,"STATUS":"BUKA","TANGGAL PENGUMPULAN":"Q2 2024","TANGGAL UPDATE":"27/07/2025"}},{"type":"Feature","geometry":{"coordinates":[106.8545565,-6.2250873],"type":"Point"},"properties":{"fid":812,"NAMA":"HALTE LAPANGAN ROS","TIPE_1":"TRANSPORTASI","TIPE_2":"HALTE","TIPE_3":"-","TELEPON":"","ALAMAT":"JL. KH ABDULLAH SYAFEI, RT.8/RW.2, TEBET TIM., KEC. TEBET, KOTA JAKARTA SELATAN, DAERAH KHUSUS IBUKOTA JAKARTA 12810","ID_PROV":"31","PROVINSI":"DKI JAKARTA","ID_KABKOT":"31.74","KABKOT":"KOTA ADM. JAKARTA SELATAN","ID_KEC":"31.74.01","KECAMATAN":"TEBET","ID_DESA":"31.74.01.1001","DESA":"TEBET TIMUR","LONGITUDE":106.8545565,"LATITUDE":-6.2250873,"STATUS":"BUKA","TANGGAL PENGUMPULAN":"Q2 2024","TANGGAL UPDATE":"27/07/2025"}},{"type":"Feature","geometry":{"coordinates":[106.7740774,-6.2894359],"type":"Point"},"properties":{"fid":814,"NAMA":"HALTE LEBAK BULUS","TIPE_1":"TRANSPORTASI","TIPE_2":"HALTE","TIPE_3":"-","TELEPON":"","ALAMAT":"LB. BULUS, KEC. CILANDAK, KOTA JAKARTA SELATAN, DAERAH KHUSUS IBUKOTA JAKARTA","ID_PROV":"31","PROVINSI":"DKI JAKARTA","ID_KABKOT":"31.74","KABKOT":"KOTA ADM. JAKARTA SELATAN","ID_KEC":"31.74.06","KECAMATAN":"CILANDAK","ID_DESA":"31.74.06.1002","DESA":"LEBAK BULUS","LONGITUDE":106.7740774,"LATITUDE":-6.2894359,"STATUS":"BUKA","TANGGAL PENGUMPULAN":"Q2 2024","TANGGAL UPDATE":"27/07/2025"}},{"type":"Feature","geometry":{"coordinates":[106.83636,-6.32195],"type":"Point"},"properties":{"fid":815,"NAMA":"HALTE LENTENG AGUNG","TIPE_1":"TRANSPORTASI","TIPE_2":"HALTE","TIPE_3":"-","TELEPON":"","ALAMAT":"JL. LENTENG AGUNG, RT.7/RW.2, LENTENG AGUNG, KEC. JAGAKARSA, KOTA JAKARTA SELATAN, DAERAH KHUSUS IBUKOTA JAKARTA 12610","ID_PROV":"31","PROVINSI":"DKI JAKARTA","ID_KABKOT":"31.74","KABKOT":"KOTA ADM. JAKARTA SELATAN","ID_KEC":"31.74.09","KECAMATAN":"JAGAKARSA","ID_DESA":"31.74.09.1004","DESA":"LENTENG AGUNG","LONGITUDE":106.83636,"LATITUDE":-6.32195,"STATUS":"BUKA","TANGGAL PENGUMPULAN":"Q2 2024","TANGGAL UPDATE":"27/07/2025"}},{"type":"Feature","geometry":{"coordinates":[106.83803,-6.30896],"type":"Point"},"properties":{"fid":816,"NAMA":"HALTE LENTENG AGUNG BARAT","TIPE_1":"TRANSPORTASI","TIPE_2":"HALTE","TIPE_3":"-","TELEPON":"","ALAMAT":"JL. RAYA LENTENG AGUNG, RT.4/RW.1, LENTENG AGUNG, KEC. JAGAKARSA, KOTA JAKARTA SELATAN, DAERAH KHUSUS IBUKOTA JAKARTA 12530","ID_PROV":"31","PROVINSI":"DKI JAKARTA","ID_KABKOT":"31.74","KABKOT":"KOTA ADM. JAKARTA SELATAN","ID_KEC":"31.74.09","KECAMATAN":"JAGAKARSA","ID_DESA":"31.74.09.1004","DESA":"LENTENG AGUNG","LONGITUDE":106.83803,"LATITUDE":-6.30896,"STATUS":"BUKA","TANGGAL PENGUMPULAN":"Q2 2024","TANGGAL UPDATE":"27/07/2025"}},{"type":"Feature","geometry":{"coordinates":[106.7984263,-6.2364549],"type":"Point"},"properties":{"fid":819,"NAMA":"HALTE MASJID AGUNG AL AZHAR","TIPE_1":"TRANSPORTASI","TIPE_2":"HALTE","TIPE_3":"-","TELEPON":"","ALAMAT":"SELONG, KEC. KBY. BARU, KOTA JAKARTA SELATAN, DAERAH KHUSUS IBUKOTA JAKARTA 12120","ID_PROV":"31","PROVINSI":"DKI JAKARTA","ID_KABKOT":"31.74","KABKOT":"KOTA ADM. JAKARTA SELATAN","ID_KEC":"31.74.07","KECAMATAN":"KEBAYORAN BARU","ID_DESA":"31.74.07.1004","DESA":"SELONG","LONGITUDE":106.7984263,"LATITUDE":-6.2364549,"STATUS":"BUKA","TANGGAL PENGUMPULAN":"Q2 2024","TANGGAL UPDATE":"27/07/2025"}},{"type":"Feature","geometry":{"coordinates":[106.83867,-6.25346],"type":"Point"},"properties":{"fid":826,"NAMA":"HALTE MINYAK","TIPE_1":"TRANSPORTASI","TIPE_2":"HALTE","TIPE_3":"-","TELEPON":"","ALAMAT":"RT.3/RW.6, DUREN TIGA, KEC. PANCORAN, KOTA JAKARTA SELATAN, DAERAH KHUSUS IBUKOTA JAKARTA 12520","ID_PROV":"31","PROVINSI":"DKI JAKARTA","ID_KABKOT":"31.74","KABKOT":"KOTA ADM. JAKARTA SELATAN","ID_KEC":"31.74.08","KECAMATAN":"PANCORAN","ID_DESA":"31.74.08.1004","DESA":"DUREN TIGA","LONGITUDE":106.83867,"LATITUDE":-6.25346,"STATUS":"BUKA","TANGGAL PENGUMPULAN":"Q2 2024","TANGGAL UPDATE":"27/07/2025"}},{"type":"Feature","geometry":{"coordinates":[106.7974055,-6.2537829],"type":"Point"},"properties":{"fid":843,"NAMA":"HALTE POLRES","TIPE_1":"TRANSPORTASI","TIPE_2":"HALTE","TIPE_3":"-","TELEPON":"","ALAMAT":"JL. PANGLIMA POLIM, RT.2/RW.1, PULO, KEC. KBY. BARU, KOTA JAKARTA SELATAN, DAERAH KHUSUS IBUKOTA JAKARTA 12160","ID_PROV":"31","PROVINSI":"DKI JAKARTA","ID_KABKOT":"31.74","KABKOT":"KOTA ADM. JAKARTA SELATAN","ID_KEC":"31.74.07","KECAMATAN":"KEBAYORAN BARU","ID_DESA":"31.74.07.1007","DESA":"PULO","LONGITUDE":106.7974055,"LATITUDE":-6.2537829,"STATUS":"BUKA","TANGGAL PENGUMPULAN":"Q2 2024","TANGGAL UPDATE":"27/07/2025"}},{"type":"Feature","geometry":{"coordinates":[106.8409211,-6.2958775],"type":"Point"},"properties":{"fid":844,"NAMA":"HALTE POLTANGAN","TIPE_1":"TRANSPORTASI","TIPE_2":"HALTE","TIPE_3":"-","TELEPON":"","ALAMAT":"JL. RAYA TJ. BARAT, RT.2/RW.4, PS. MINGGU, KEC. JAGAKARSA, KOTA JAKARTA SELATAN, DAERAH KHUSUS IBUKOTA JAKARTA 12530","ID_PROV":"31","PROVINSI":"DKI JAKARTA","ID_KABKOT":"31.74","KABKOT":"KOTA ADM. JAKARTA SELATAN","ID_KEC":"31.74.09","KECAMATAN":"JAGAKARSA","ID_DESA":"31.74.09.1005","DESA":"TANJUNG BARAT","LONGITUDE":106.8409211,"LATITUDE":-6.2958775,"STATUS":"BUKA","TANGGAL PENGUMPULAN":"Q2 2024","TANGGAL UPDATE":"27/07/2025"}},{"type":"Feature","geometry":{"coordinates":[106.8407592,-6.2947217],"type":"Point"},"properties":{"fid":856,"NAMA":"HALTE RAWA BAMBU","TIPE_1":"TRANSPORTASI","TIPE_2":"HALTE","TIPE_3":"-","TELEPON":"","ALAMAT":"JL. RAYA RW. BAMBU, RT.1/RW.7, PS. MINGGU, KOTA JAKARTA SELATAN, DAERAH KHUSUS IBUKOTA JAKARTA 12520","ID_PROV":"31","PROVINSI":"DKI JAKARTA","ID_KABKOT":"31.74","KABKOT":"KOTA ADM. JAKARTA SELATAN","ID_KEC":"31.74.04","KECAMATAN":"PASAR MINGGU","ID_DESA":"31.74.04.1001","DESA":"PASAR MINGGU","LONGITUDE":106.8407592,"LATITUDE":-6.2947217,"STATUS":"BUKA","TANGGAL PENGUMPULAN":"Q2 2024","TANGGAL UPDATE":"27/07/2025"}},{"type":"Feature","geometry":{"coordinates":[106.8161808,-6.238865],"type":"Point"},"properties":{"fid":857,"NAMA":"HALTE RAWA BARAT","TIPE_1":"TRANSPORTASI","TIPE_2":"HALTE","TIPE_3":"-","TELEPON":"","ALAMAT":"JL. KAPTEN TENDEAN NO.6, RT.6/RW.6, WEST RAWA, KEBAYORAN BARU, SOUTH JAKARTA CITY, JAKARTA 12790","ID_PROV":"31","PROVINSI":"DKI JAKARTA","ID_KABKOT":"31.74","KABKOT":"KOTA ADM. JAKARTA SELATAN","ID_KEC":"31.74.07","KECAMATAN":"KEBAYORAN BARU","ID_DESA":"31.74.07.1005","DESA":"RAWA BARAT","LONGITUDE":106.8161808,"LATITUDE":-6.238865,"STATUS":"BUKA","TANGGAL PENGUMPULAN":"Q2 2024","TANGGAL UPDATE":"27/07/2025"}},{"type":"Feature","geometry":{"coordinates":[106.8527138,-6.2611512],"type":"Point"},"properties":{"fid":859,"NAMA":"HALTE RAWAJATI","TIPE_1":"TRANSPORTASI","TIPE_2":"HALTE","TIPE_3":"-","TELEPON":"","ALAMAT":"JALAN RAYA RAWAJATI, RT.6/RW.8, RAWAJATI, KEC. PANCORAN, KOTA JAKARTA SELATAN, DAERAH KHUSUS IBUKOTA JAKARTA 12750","ID_PROV":"31","PROVINSI":"DKI JAKARTA","ID_KABKOT":"31.74","KABKOT":"KOTA ADM. JAKARTA SELATAN","ID_KEC":"31.74.08","KECAMATAN":"PANCORAN","ID_DESA":"31.74.08.1003","DESA":"RAWAJATI","LONGITUDE":106.8527138,"LATITUDE":-6.2611512,"STATUS":"BUKA","TANGGAL PENGUMPULAN":"Q2 2024","TANGGAL UPDATE":"27/07/2025"}},{"type":"Feature","geometry":{"coordinates":[106.7997852,-6.2918138],"type":"Point"},"properties":{"fid":861,"NAMA":"HALTE RAYAP ASPAL CITOZ","TIPE_1":"TRANSPORTASI","TIPE_2":"HALTE","TIPE_3":"-","TELEPON":"","ALAMAT":"JL. TB SIMATUPANG, RT.2/RW.2, CILANDAK TIM., KEC. CILANDAK, KOTA JAKARTA SELATAN, DAERAH KHUSUS IBUKOTA JAKARTA","ID_PROV":"31","PROVINSI":"DKI JAKARTA","ID_KABKOT":"31.74","KABKOT":"KOTA ADM. JAKARTA SELATAN","ID_KEC":"31.74.06","KECAMATAN":"CILANDAK","ID_DESA":"31.74.06.1001","DESA":"CILANDAK BARAT","LONGITUDE":106.7997852,"LATITUDE":-6.2918138,"STATUS":"BUKA","TANGGAL PENGUMPULAN":"Q2 2024","TANGGAL UPDATE":"27/07/2025"}},{"type":"Feature","geometry":{"coordinates":[106.8208616,-6.2936027],"type":"Point"},"properties":{"fid":865,"NAMA":"HALTE RSUD PASAR MINGGU","TIPE_1":"TRANSPORTASI","TIPE_2":"HALTE","TIPE_3":"-","TELEPON":"","ALAMAT":"RT.1/RW.5, RAGUNAN, PS. MINGGU, KOTA JAKARTA SELATAN, DAERAH KHUSUS IBUKOTA JAKARTA","ID_PROV":"31","PROVINSI":"DKI JAKARTA","ID_KABKOT":"31.74","KABKOT":"KOTA ADM. JAKARTA SELATAN","ID_KEC":"31.74.04","KECAMATAN":"PASAR MINGGU","ID_DESA":"31.74.04.1004","DESA":"RAGUNAN","LONGITUDE":106.8208616,"LATITUDE":-6.2936027,"STATUS":"BUKA","TANGGAL PENGUMPULAN":"Q2 2024","TANGGAL UPDATE":"27/07/2025"}},{"type":"Feature","geometry":{"coordinates":[106.8473806,-6.2378517],"type":"Point"},"properties":{"fid":875,"NAMA":"HALTE SEKOLAH DEWI SARTIKA","TIPE_1":"TRANSPORTASI","TIPE_2":"HALTE","TIPE_3":"-","TELEPON":"","ALAMAT":"JL. TEBET BARAT DALAM RAYA, RT.6/RW.4, TEBET BAR., KEC. TEBET, KOTA JAKARTA SELATAN, DAERAH KHUSUS IBUKOTA JAKARTA 12810","ID_PROV":"31","PROVINSI":"DKI JAKARTA","ID_KABKOT":"31.74","KABKOT":"KOTA ADM. JAKARTA SELATAN","ID_KEC":"31.74.01","KECAMATAN":"TEBET","ID_DESA":"31.74.01.1002","DESA":"TEBET BARAT","LONGITUDE":106.8473806,"LATITUDE":-6.2378517,"STATUS":"BUKA","TANGGAL PENGUMPULAN":"Q2 2024","TANGGAL UPDATE":"27/07/2025"}},{"type":"Feature","geometry":{"coordinates":[106.770947,-6.2875514],"type":"Point"},"properties":{"fid":877,"NAMA":"HALTE SELAPA","TIPE_1":"TRANSPORTASI","TIPE_2":"HALTE","TIPE_3":"-","TELEPON":"","ALAMAT":"JL. CIPUTAT RAYA, RT.1/RW.9, PD. PINANG, KEC. KBY. LAMA, KOTA JAKARTA SELATAN, DAERAH KHUSUS IBUKOTA JAKARTA 12310","ID_PROV":"31","PROVINSI":"DKI JAKARTA","ID_KABKOT":"31.74","KABKOT":"KOTA ADM. JAKARTA SELATAN","ID_KEC":"31.74.05","KECAMATAN":"KEBAYORAN LAMA","ID_DESA":"31.74.05.1002","DESA":"PONDOK PINANG","LONGITUDE":106.770947,"LATITUDE":-6.2875514,"STATUS":"BUKA","TANGGAL PENGUMPULAN":"Q2 2024","TANGGAL UPDATE":"27/07/2025"}},{"type":"Feature","geometry":{"coordinates":[106.7711985,-6.2864943],"type":"Point"},"properties":{"fid":878,"NAMA":"HALTE SELAPA, BUS JURUSAN BEKASI AC132","TIPE_1":"TRANSPORTASI","TIPE_2":"HALTE","TIPE_3":"-","TELEPON":"","ALAMAT":"PD. PINANG, JL. CIPUTAT RAYA, RT.1/RW.9, PD. PINANG, KEC. KBY. LAMA, KOTA JAKARTA SELATAN, DAERAH KHUSUS IBUKOTA JAKARTA 12310","ID_PROV":"31","PROVINSI":"DKI JAKARTA","ID_KABKOT":"31.74","KABKOT":"KOTA ADM. JAKARTA SELATAN","ID_KEC":"31.74.05","KECAMATAN":"KEBAYORAN LAMA","ID_DESA":"31.74.05.1002","DESA":"PONDOK PINANG","LONGITUDE":106.7711985,"LATITUDE":-6.2864943,"STATUS":"BUKA","TANGGAL PENGUMPULAN":"Q2 2024","TANGGAL UPDATE":"27/07/2025"}},{"type":"Feature","geometry":{"coordinates":[106.8147157,-6.2233933],"type":"Point"},"properties":{"fid":882,"NAMA":"HALTE SHUTTLE BUS SCBD I","TIPE_1":"TRANSPORTASI","TIPE_2":"HALTE","TIPE_3":"-","TELEPON":"","ALAMAT":"JL. SCBD NO.5, RT.7/RW.3, SENAYAN, KEC. KBY. BARU, KOTA JAKARTA SELATAN, DAERAH KHUSUS IBUKOTA JAKARTA 12190","ID_PROV":"31","PROVINSI":"DKI JAKARTA","ID_KABKOT":"31.74","KABKOT":"KOTA ADM. JAKARTA SELATAN","ID_KEC":"31.74.07","KECAMATAN":"KEBAYORAN BARU","ID_DESA":"31.74.07.1006","DESA":"SENAYAN","LONGITUDE":106.8147157,"LATITUDE":-6.2233933,"STATUS":"BUKA","TANGGAL PENGUMPULAN":"Q2 2024","TANGGAL UPDATE":"27/07/2025"}},{"type":"Feature","geometry":{"coordinates":[106.8331036,-6.2998982],"type":"Point"},"properties":{"fid":884,"NAMA":"HALTE SIMATUPANG PHE TOWER","TIPE_1":"TRANSPORTASI","TIPE_2":"HALTE","TIPE_3":"-","TELEPON":"","ALAMAT":"JAKARTA SELATAN, RT.1/RW.1, KEBAGUSAN, PS. MINGGU, KOTA JAKARTA SELATAN, DAERAH KHUSUS IBUKOTA JAKARTA 12520","ID_PROV":"31","PROVINSI":"DKI JAKARTA","ID_KABKOT":"31.74","KABKOT":"KOTA ADM. JAKARTA SELATAN","ID_KEC":"31.74.04","KECAMATAN":"PASAR MINGGU","ID_DESA":"31.74.04.1007","DESA":"KEBAGUSAN","LONGITUDE":106.8331036,"LATITUDE":-6.2998982,"STATUS":"BUKA","TANGGAL PENGUMPULAN":"Q2 2024","TANGGAL UPDATE":"27/07/2025"}},{"type":"Feature","geometry":{"coordinates":[106.7878725,-6.2367885],"type":"Point"},"properties":{"fid":885,"NAMA":"HALTE SINGGALANG","TIPE_1":"TRANSPORTASI","TIPE_2":"HALTE","TIPE_3":"-","TELEPON":"","ALAMAT":"JALAN PAKUBUWONO, RT.3/RW.1, GUNUNG, KEC. KBY. BARU, KOTA JAKARTA SELATAN, DAERAH KHUSUS IBUKOTA JAKARTA 12120","ID_PROV":"31","PROVINSI":"DKI JAKARTA","ID_KABKOT":"31.74","KABKOT":"KOTA ADM. JAKARTA SELATAN","ID_KEC":"31.74.07","KECAMATAN":"KEBAYORAN BARU","ID_DESA":"31.74.07.1002","DESA":"GUNUNG","LONGITUDE":106.7878725,"LATITUDE":-6.2367885,"STATUS":"BUKA","TANGGAL PENGUMPULAN":"Q2 2024","TANGGAL UPDATE":"27/07/2025"}},{"type":"Feature","geometry":{"coordinates":[106.84352,-6.25848],"type":"Point"},"properties":{"fid":889,"NAMA":"HALTE SMK KARYA TELADAN","TIPE_1":"TRANSPORTASI","TIPE_2":"HALTE","TIPE_3":"-","TELEPON":"","ALAMAT":"JL. RAYA PASAR MINGGU, RT.14, KALIBATA, KEC. PANCORAN, KOTA JAKARTA SELATAN, DAERAH KHUSUS IBUKOTA JAKARTA 12740","ID_PROV":"31","PROVINSI":"DKI JAKARTA","ID_KABKOT":"31.74","KABKOT":"KOTA ADM. JAKARTA SELATAN","ID_KEC":"31.74.08","KECAMATAN":"PANCORAN","ID_DESA":"31.74.08.1002","DESA":"KALIBATA","LONGITUDE":106.84352,"LATITUDE":-6.25848,"STATUS":"BUKA","TANGGAL PENGUMPULAN":"Q2 2024","TANGGAL UPDATE":"27/07/2025"}},{"type":"Feature","geometry":{"coordinates":[106.8332253,-6.2860746],"type":"Point"},"properties":{"fid":891,"NAMA":"HALTE SMU 28","TIPE_1":"TRANSPORTASI","TIPE_2":"HALTE","TIPE_3":"-","TELEPON":"","ALAMAT":"JL. RAYA RAGUNAN, RT.6/RW.7, JATI PADANG, PS. MINGGU, KOTA JAKARTA SELATAN, DAERAH KHUSUS IBUKOTA JAKARTA 12450","ID_PROV":"31","PROVINSI":"DKI JAKARTA","ID_KABKOT":"31.74","KABKOT":"KOTA ADM. JAKARTA SELATAN","ID_KEC":"31.74.04","KECAMATAN":"PASAR MINGGU","ID_DESA":"31.74.04.1002","DESA":"JATI PADANG","LONGITUDE":106.8332253,"LATITUDE":-6.2860746,"STATUS":"BUKA","TANGGAL PENGUMPULAN":"Q2 2024","TANGGAL UPDATE":"27/07/2025"}},{"type":"Feature","geometry":{"coordinates":[106.836963,-6.2850863],"type":"Point"},"properties":{"fid":892,"NAMA":"HALTE SMU BALAI RAKYAT","TIPE_1":"TRANSPORTASI","TIPE_2":"HALTE","TIPE_3":"-","TELEPON":"","ALAMAT":"JL. RAYA RAGUNAN, RT.6/RW.1, JATI PADANG, PS. MINGGU, KOTA JAKARTA SELATAN, DAERAH KHUSUS IBUKOTA JAKARTA 12540","ID_PROV":"31","PROVINSI":"DKI JAKARTA","ID_KABKOT":"31.74","KABKOT":"KOTA ADM. JAKARTA SELATAN","ID_KEC":"31.74.04","KECAMATAN":"PASAR MINGGU","ID_DESA":"31.74.04.1002","DESA":"JATI PADANG","LONGITUDE":106.836963,"LATITUDE":-6.2850863,"STATUS":"BUKA","TANGGAL PENGUMPULAN":"Q2 2024","TANGGAL UPDATE":"27/07/2025"}},{"type":"Feature","geometry":{"coordinates":[106.8600186,-6.2432813],"type":"Point"},"properties":{"fid":893,"NAMA":"HALTE STASIUN CAWANG ATAS","TIPE_1":"TRANSPORTASI","TIPE_2":"HALTE","TIPE_3":"-","TELEPON":"","ALAMAT":"JL. LETJEN M.T. HARYONO NO.1 1, RT.1/RW.14, KB. BARU, KEC. TEBET, KOTA JAKARTA SELATAN, DAERAH KHUSUS IBUKOTA JAKARTA 12830","ID_PROV":"31","PROVINSI":"DKI JAKARTA","ID_KABKOT":"31.74","KABKOT":"KOTA ADM. JAKARTA SELATAN","ID_KEC":"31.74.08","KECAMATAN":"PANCORAN","ID_DESA":"31.74.08.1006","DESA":"CIKOKO","LONGITUDE":106.8600186,"LATITUDE":-6.2432813,"STATUS":"BUKA","TANGGAL PENGUMPULAN":"Q2 2024","TANGGAL UPDATE":"27/07/2025"}},{"type":"Feature","geometry":{"coordinates":[106.8537778,-6.2419403],"type":"Point"},"properties":{"fid":897,"NAMA":"HALTE TAMAN GAS","TIPE_1":"TRANSPORTASI","TIPE_2":"HALTE","TIPE_3":"-","TELEPON":"","ALAMAT":"RT.10/RW.10, TEBET TIM., KEC. TEBET, KOTA JAKARTA SELATAN, DAERAH KHUSUS IBUKOTA JAKARTA 12810","ID_PROV":"31","PROVINSI":"DKI JAKARTA","ID_KABKOT":"31.74","KABKOT":"KOTA ADM. JAKARTA SELATAN","ID_KEC":"31.74.01","KECAMATAN":"TEBET","ID_DESA":"31.74.01.1001","DESA":"TEBET TIMUR","LONGITUDE":106.8537778,"LATITUDE":-6.2419403,"STATUS":"BUKA","TANGGAL PENGUMPULAN":"Q2 2024","TANGGAL UPDATE":"27/07/2025"}},{"type":"Feature","geometry":{"coordinates":[106.84454,-6.23745],"type":"Point"},"properties":{"fid":901,"NAMA":"HALTE TAMAN ROSITA","TIPE_1":"TRANSPORTASI","TIPE_2":"HALTE","TIPE_3":"-","TELEPON":"","ALAMAT":"JL. PROF. DR. SOEPOMO, RT.17/RW.6, TEBET BAR., KEC. TEBET, KOTA JAKARTA SELATAN, DAERAH KHUSUS IBUKOTA JAKARTA 12810","ID_PROV":"31","PROVINSI":"DKI JAKARTA","ID_KABKOT":"31.74","KABKOT":"KOTA ADM. JAKARTA SELATAN","ID_KEC":"31.74.01","KECAMATAN":"TEBET","ID_DESA":"31.74.01.1002","DESA":"TEBET BARAT","LONGITUDE":106.84454,"LATITUDE":-6.23745,"STATUS":"BUKA","TANGGAL PENGUMPULAN":"Q2 2024","TANGGAL UPDATE":"27/07/2025"}},{"type":"Feature","geometry":{"coordinates":[106.8533099,-6.2380613],"type":"Point"},"properties":{"fid":902,"NAMA":"HALTE TAMAN TEBET","TIPE_1":"TRANSPORTASI","TIPE_2":"HALTE","TIPE_3":"-","TELEPON":"","ALAMAT":"RT.10/RW.10, TEBET TIM., KEC. TEBET, KOTA JAKARTA SELATAN, DAERAH KHUSUS IBUKOTA JAKARTA 12820","ID_PROV":"31","PROVINSI":"DKI JAKARTA","ID_KABKOT":"31.74","KABKOT":"KOTA ADM. JAKARTA SELATAN","ID_KEC":"31.74.01","KECAMATAN":"TEBET","ID_DESA":"31.74.01.1001","DESA":"TEBET TIMUR","LONGITUDE":106.8533099,"LATITUDE":-6.2380613,"STATUS":"BUKA","TANGGAL PENGUMPULAN":"Q2 2024","TANGGAL UPDATE":"27/07/2025"}},{"type":"Feature","geometry":{"coordinates":[106.8072957,-6.2920567],"type":"Point"},"properties":{"fid":906,"NAMA":"HALTE TB. SIMATUPANG","TIPE_1":"TRANSPORTASI","TIPE_2":"HALTE","TIPE_3":"-","TELEPON":"","ALAMAT":"HALTE TERM. SIMATUPANG, JL. TB SIMATUPANG, RT.3/RW.3, CILANDAK TIM., PS. MINGGU, KOTA JAKARTA SELATAN, DAERAH KHUSUS IBUKOTA JAKARTA 12560","ID_PROV":"31","PROVINSI":"DKI JAKARTA","ID_KABKOT":"31.74","KABKOT":"KOTA ADM. JAKARTA SELATAN","ID_KEC":"31.74.04","KECAMATAN":"PASAR MINGGU","ID_DESA":"31.74.04.1003","DESA":"CILANDAK TIMUR","LONGITUDE":106.8072957,"LATITUDE":-6.2920567,"STATUS":"BUKA","TANGGAL PENGUMPULAN":"Q2 2024","TANGGAL UPDATE":"27/07/2025"}},{"type":"Feature","geometry":{"coordinates":[106.8513885,-6.2429531],"type":"Point"},"properties":{"fid":907,"NAMA":"HALTE TEBET BUMD","TIPE_1":"TRANSPORTASI","TIPE_2":"HALTE","TIPE_3":"-","TELEPON":"","ALAMAT":"RW, RT.11/RW.5, TEBET BAR., KEC. TEBET, KOTA JAKARTA SELATAN, DAERAH KHUSUS IBUKOTA JAKARTA 12810","ID_PROV":"31","PROVINSI":"DKI JAKARTA","ID_KABKOT":"31.74","KABKOT":"KOTA ADM. JAKARTA SELATAN","ID_KEC":"31.74.01","KECAMATAN":"TEBET","ID_DESA":"31.74.01.1002","DESA":"TEBET BARAT","LONGITUDE":106.8513885,"LATITUDE":-6.2429531,"STATUS":"BUKA","TANGGAL PENGUMPULAN":"Q2 2024","TANGGAL UPDATE":"27/07/2025"}},{"type":"Feature","geometry":{"coordinates":[106.8310444,-6.2401822],"type":"Point"},"properties":{"fid":908,"NAMA":"HALTE TENDEAN","TIPE_1":"TRANSPORTASI","TIPE_2":"HALTE","TIPE_3":"-","TELEPON":"","ALAMAT":"JL. KAPTEN TENDEAN NO.18A, RT.2/RW.2, MAMPANG PRPT., KEC. MAMPANG PRPT., KOTA JAKARTA SELATAN, DAERAH KHUSUS IBUKOTA JAKARTA 12790","ID_PROV":"31","PROVINSI":"DKI JAKARTA","ID_KABKOT":"31.74","KABKOT":"KOTA ADM. JAKARTA SELATAN","ID_KEC":"31.74.03","KECAMATAN":"MAMPANG PRAPATAN","ID_DESA":"31.74.03.1001","DESA":"MAMPANG PRAPATAN","LONGITUDE":106.8310444,"LATITUDE":-6.2401822,"STATUS":"BUKA","TANGGAL PENGUMPULAN":"Q2 2024","TANGGAL UPDATE":"27/07/2025"}},{"type":"Feature","geometry":{"coordinates":[106.8261969,-6.285951],"type":"Point"},"properties":{"fid":921,"NAMA":"HALTE TRANSJAKARTA JATIPADANG","TIPE_1":"TRANSPORTASI","TIPE_2":"HALTE","TIPE_3":"-","TELEPON":"","ALAMAT":"JL. TAMAN MARGASATWA RAYA NO.1, RT.1/RW.11, JATI PADANG, PASAR MINGGU, SOUTH JAKARTA CITY, JAKARTA 12540","ID_PROV":"31","PROVINSI":"DKI JAKARTA","ID_KABKOT":"31.74","KABKOT":"KOTA ADM. JAKARTA SELATAN","ID_KEC":"31.74.04","KECAMATAN":"PASAR MINGGU","ID_DESA":"31.74.04.1002","DESA":"JATI PADANG","LONGITUDE":106.8261969,"LATITUDE":-6.285951,"STATUS":"BUKA","TANGGAL PENGUMPULAN":"Q2 2024","TANGGAL UPDATE":"27/07/2025"}}]}