{"type":"FeatureCollection","features":[{"type":"Feature","geometry":{"coordinates":[106.624239,-6.2154967],"type":"Point"},"properties":{"fid":149,"NAMA":"BANGKA BUS STOP","TIPE_1":"TRANSPORTASI","TIPE_2":"HALTE","TIPE_3":"-","TELEPON":"0857-1439-6413","ALAMAT":"JL. BANGKA NO.15, RT.002/RW.009, PANUNGGANGAN BAR., KEC. CIBODAS, KOTA TANGERANG, BANTEN 15138","ID_PROV":"36","PROVINSI":"BANTEN","ID_KABKOT":"36.71","KABKOT":"KOTA TANGERANG","ID_KEC":"36.71.09","KECAMATAN":"CIBODAS","ID_DESA":"36.71.09.1004","DESA":"PANUNGGANGAN BARAT","LONGITUDE":106.624239,"LATITUDE":-6.2154967,"STATUS":"BUKA","TANGGAL PENGUMPULAN":"Q2 2024","TANGGAL UPDATE":"27/07/2025"}},{"type":"Feature","geometry":{"coordinates":[106.5806872,-6.1952781],"type":"Point"},"properties":{"fid":150,"NAMA":"BC DULUR HALTE 203","TIPE_1":"TRANSPORTASI","TIPE_2":"HALTE","TIPE_3":"-","TELEPON":"0812-1856-4648","ALAMAT":"JL. DAHU, RT.002/RW.006, KERONCONG, KEC. JATIUWUNG, KOTA TANGERANG, BANTEN 15134","ID_PROV":"36","PROVINSI":"BANTEN","ID_KABKOT":"36.71","KABKOT":"KOTA TANGERANG","ID_KEC":"36.71.02","KECAMATAN":"JATIUWUNG","ID_DESA":"36.71.02.1001","DESA":"KERONCONG","LONGITUDE":106.5806872,"LATITUDE":-6.1952781,"STATUS":"BUKA","TANGGAL PENGUMPULAN":"Q2 2024","TANGGAL UPDATE":"27/07/2025"}},{"type":"Feature","geometry":{"coordinates":[106.70907,-6.22356],"type":"Point"},"properties":{"fid":152,"NAMA":"CBD CILEDUG","TIPE_1":"TRANSPORTASI","TIPE_2":"HALTE","TIPE_3":"-","TELEPON":"","ALAMAT":"KARANG TENGAH, KEC. KARANG TENGAH, KOTA TANGERANG, BANTEN","ID_PROV":"36","PROVINSI":"BANTEN","ID_KABKOT":"36.71","KABKOT":"KOTA TANGERANG","ID_KEC":"36.71.12","KECAMATAN":"KARANG TENGAH","ID_DESA":"36.71.12.1001","DESA":"KARANG TENGAH","LONGITUDE":106.70907,"LATITUDE":-6.22356,"STATUS":"BUKA","TANGGAL PENGUMPULAN":"Q2 2024","TANGGAL UPDATE":"27/07/2025"}},{"type":"Feature","geometry":{"coordinates":[106.5830496,-6.1969969],"type":"Point"},"properties":{"fid":157,"NAMA":"HALTE 203","TIPE_1":"TRANSPORTASI","TIPE_2":"HALTE","TIPE_3":"-","TELEPON":"","ALAMAT":"RT.001/RW.001, GANDASARI, KEC. JATIUWUNG, KOTA TANGERANG, BANTEN 15137","ID_PROV":"36","PROVINSI":"BANTEN","ID_KABKOT":"36.71","KABKOT":"KOTA TANGERANG","ID_KEC":"36.71.02","KECAMATAN":"JATIUWUNG","ID_DESA":"36.71.02.1004","DESA":"GANDASARI","LONGITUDE":106.5830496,"LATITUDE":-6.1969969,"STATUS":"BUKA","TANGGAL PENGUMPULAN":"Q2 2024","TANGGAL UPDATE":"27/07/2025"}},{"type":"Feature","geometry":{"coordinates":[106.7433156,-6.2365366],"type":"Point"},"properties":{"fid":165,"NAMA":"HALTE BIS ADAM MALIK","TIPE_1":"TRANSPORTASI","TIPE_2":"HALTE","TIPE_3":"-","TELEPON":"","ALAMAT":"GG. H. SADELIH, RT.001/RW.011, KREO, KEC. LARANGAN, KOTA TANGERANG, BANTEN 15156","ID_PROV":"36","PROVINSI":"BANTEN","ID_KABKOT":"36.71","KABKOT":"KOTA TANGERANG","ID_KEC":"36.71.13","KECAMATAN":"LARANGAN","ID_DESA":"36.71.13.1008","DESA":"KREO SELATAN","LONGITUDE":106.7433156,"LATITUDE":-6.2365366,"STATUS":"BUKA","TANGGAL PENGUMPULAN":"Q2 2024","TANGGAL UPDATE":"27/07/2025"}},{"type":"Feature","geometry":{"coordinates":[106.5743995,-6.2001375],"type":"Point"},"properties":{"fid":167,"NAMA":"HALTE BIS TAYO JATAKE TANGERANG","TIPE_1":"TRANSPORTASI","TIPE_2":"HALTE","TIPE_3":"-","TELEPON":"","ALAMAT":"KOMPLEK MAGNOLIA RESIDENCE, RT.001/RW.004, JATAKE, KEC. JATIUWUNG, KOTA TANGERANG, BANTEN 15136","ID_PROV":"36","PROVINSI":"BANTEN","ID_KABKOT":"36.71","KABKOT":"KOTA TANGERANG","ID_KEC":"36.71.02","KECAMATAN":"JATIUWUNG","ID_DESA":"36.71.02.1002","DESA":"JATAKE","LONGITUDE":106.5743995,"LATITUDE":-6.2001375,"STATUS":"BUKA","TANGGAL PENGUMPULAN":"Q2 2024","TANGGAL UPDATE":"27/07/2025"}},{"type":"Feature","geometry":{"coordinates":[106.6874355,-6.2192768],"type":"Point"},"properties":{"fid":170,"NAMA":"HALTE BUANA GARDEN","TIPE_1":"TRANSPORTASI","TIPE_2":"HALTE","TIPE_3":"-","TELEPON":"","ALAMAT":"JL. KH. HASYIM ASHARI NO.15-36, RT.004/RW.002, PINANG, KEC. PINANG, KOTA TANGERANG, BANTEN 15145","ID_PROV":"36","PROVINSI":"BANTEN","ID_KABKOT":"36.71","KABKOT":"KOTA TANGERANG","ID_KEC":"36.71.11","KECAMATAN":"PINANG","ID_DESA":"36.71.11.1001","DESA":"PINANG","LONGITUDE":106.6874355,"LATITUDE":-6.2192768,"STATUS":"BUKA","TANGGAL PENGUMPULAN":"Q2 2024","TANGGAL UPDATE":"27/07/2025"}},{"type":"Feature","geometry":{"coordinates":[106.6442284,-6.1673883],"type":"Point"},"properties":{"fid":173,"NAMA":"HALTE BUS AKAP PINTU AIR","TIPE_1":"TRANSPORTASI","TIPE_2":"HALTE","TIPE_3":"-","TELEPON":"","ALAMAT":"RT.002/RW.013, TANAH TINGGI, KEC. TANGERANG, KOTA TANGERANG, BANTEN 15119","ID_PROV":"36","PROVINSI":"BANTEN","ID_KABKOT":"36.71","KABKOT":"KOTA TANGERANG","ID_KEC":"36.71.01","KECAMATAN":"TANGERANG","ID_DESA":"36.71.01.1003","DESA":"TANAH TINGGI","LONGITUDE":106.6442284,"LATITUDE":-6.1673883,"STATUS":"BUKA","TANGGAL PENGUMPULAN":"Q2 2024","TANGGAL UPDATE":"27/07/2025"}},{"type":"Feature","geometry":{"coordinates":[106.6559534,-6.1309408],"type":"Point"},"properties":{"fid":178,"NAMA":"HALTE BUS DAMRI TERMINAL 1B","TIPE_1":"TRANSPORTASI","TIPE_2":"HALTE","TIPE_3":"-","TELEPON":"","ALAMAT":"BANDARA INTERNASIONAL SOEKARNO HATTA TERMINAL B BLOL B-9 NO. P-32, JL. TOL PROF. SEDYATMO, RT.001/RW.010, PAJANG, KEC. BENDA, KOTA TANGERANG, BANTEN 15126","ID_PROV":"36","PROVINSI":"BANTEN","ID_KABKOT":"36.71","KABKOT":"KOTA TANGERANG","ID_KEC":"36.71.04","KECAMATAN":"BENDA","ID_DESA":"36.71.04.1004","DESA":"PAJANG","LONGITUDE":106.6559534,"LATITUDE":-6.1309408,"STATUS":"BUKA","TANGGAL PENGUMPULAN":"Q2 2024","TANGGAL UPDATE":"27/07/2025"}},{"type":"Feature","geometry":{"coordinates":[106.5752501,-6.1993196],"type":"Point"},"properties":{"fid":181,"NAMA":"HALTE BUS JATAKE AUTOCHEM","TIPE_1":"TRANSPORTASI","TIPE_2":"HALTE","TIPE_3":"-","TELEPON":"","ALAMAT":"RT.005/RW.002, JATAKE, KEC. JATIUWUNG, KOTA TANGERANG, BANTEN 15136","ID_PROV":"36","PROVINSI":"BANTEN","ID_KABKOT":"36.71","KABKOT":"KOTA TANGERANG","ID_KEC":"36.71.02","KECAMATAN":"JATIUWUNG","ID_DESA":"36.71.02.1002","DESA":"JATAKE","LONGITUDE":106.5752501,"LATITUDE":-6.1993196,"STATUS":"BUKA","TANGGAL PENGUMPULAN":"Q2 2024","TANGGAL UPDATE":"27/07/2025"}},{"type":"Feature","geometry":{"coordinates":[106.6845266,-6.1995711],"type":"Point"},"properties":{"fid":182,"NAMA":"HALTE BUS KENANGA 1","TIPE_1":"TRANSPORTASI","TIPE_2":"HALTE","TIPE_3":"-","TELEPON":"","ALAMAT":"JL. KH. HASYIM ASHARI NO.14, RT.005/RW.001, KENANGA, CIPONDOH, TANGERANG CITY, BANTEN 15146","ID_PROV":"36","PROVINSI":"BANTEN","ID_KABKOT":"36.71","KABKOT":"KOTA TANGERANG","ID_KEC":"36.71.05","KECAMATAN":"CIPONDOH","ID_DESA":"36.71.05.1005","DESA":"KENANGA","LONGITUDE":106.6845266,"LATITUDE":-6.1995711,"STATUS":"BUKA","TANGGAL PENGUMPULAN":"Q2 2024","TANGGAL UPDATE":"27/07/2025"}},{"type":"Feature","geometry":{"coordinates":[106.6383805,-6.1900533],"type":"Point"},"properties":{"fid":183,"NAMA":"HALTE BUS LAPAS WANITA","TIPE_1":"TRANSPORTASI","TIPE_2":"HALTE","TIPE_3":"-","TELEPON":"","ALAMAT":"RT.001/RW.004, BABAKAN, KEC. TANGERANG, KOTA TANGERANG, BANTEN 15118","ID_PROV":"36","PROVINSI":"BANTEN","ID_KABKOT":"36.71","KABKOT":"KOTA TANGERANG","ID_KEC":"36.71.01","KECAMATAN":"TANGERANG","ID_DESA":"36.71.01.1008","DESA":"BABAKAN","LONGITUDE":106.6383805,"LATITUDE":-6.1900533,"STATUS":"BUKA","TANGGAL PENGUMPULAN":"Q2 2024","TANGGAL UPDATE":"27/07/2025"}},{"type":"Feature","geometry":{"coordinates":[106.7050978,-6.227012],"type":"Point"},"properties":{"fid":187,"NAMA":"HALTE BUS SD SUDIMARA","TIPE_1":"TRANSPORTASI","TIPE_2":"HALTE","TIPE_3":"-","TELEPON":"","ALAMAT":"JALAN RADEN PATAH, SUDIMARA BAR., KEC. CILEDUG, KOTA TANGERANG, BANTEN 15151","ID_PROV":"36","PROVINSI":"BANTEN","ID_KABKOT":"36.71","KABKOT":"KOTA TANGERANG","ID_KEC":"36.71.06","KECAMATAN":"CILEDUG","ID_DESA":"36.71.06.1002","DESA":"SUDIMARA BARAT","LONGITUDE":106.7050978,"LATITUDE":-6.227012,"STATUS":"BUKA","TANGGAL PENGUMPULAN":"Q2 2024","TANGGAL UPDATE":"27/07/2025"}},{"type":"Feature","geometry":{"coordinates":[106.663525,-6.2236383],"type":"Point"},"properties":{"fid":188,"NAMA":"HALTE BUS SUTERA RENATA","TIPE_1":"TRANSPORTASI","TIPE_2":"HALTE","TIPE_3":"-","TELEPON":"","ALAMAT":"JL. MUARAN MEDE NO.12, RT.1/RW.003, KUNCIRAN, KEC. PINANG, KOTA TANGERANG, BANTEN 15144","ID_PROV":"36","PROVINSI":"BANTEN","ID_KABKOT":"36.71","KABKOT":"KOTA TANGERANG","ID_KEC":"36.71.11","KECAMATAN":"PINANG","ID_DESA":"36.71.11.1004","DESA":"KUNCIRAN","LONGITUDE":106.663525,"LATITUDE":-6.2236383,"STATUS":"BUKA","TANGGAL PENGUMPULAN":"Q2 2024","TANGGAL UPDATE":"27/07/2025"}},{"type":"Feature","geometry":{"coordinates":[106.65552,-6.12369],"type":"Point"},"properties":{"fid":189,"NAMA":"HALTE BUS TERMINAL 2","TIPE_1":"TRANSPORTASI","TIPE_2":"HALTE","TIPE_3":"-","TELEPON":"","ALAMAT":"PAJANG, KEC. BENDA, KOTA TANGERANG, BANTEN","ID_PROV":"36","PROVINSI":"BANTEN","ID_KABKOT":"36.71","KABKOT":"KOTA TANGERANG","ID_KEC":"36.71.04","KECAMATAN":"BENDA","ID_DESA":"36.71.04.1004","DESA":"PAJANG","LONGITUDE":106.65552,"LATITUDE":-6.12369,"STATUS":"BUKA","TANGGAL PENGUMPULAN":"Q2 2024","TANGGAL UPDATE":"27/07/2025"}},{"type":"Feature","geometry":{"coordinates":[106.7242329,-6.2298431],"type":"Point"},"properties":{"fid":194,"NAMA":"HALTE BUS TRANSJAKARTA CBD CILEDUG","TIPE_1":"TRANSPORTASI","TIPE_2":"HALTE","TIPE_3":"-","TELEPON":"","ALAMAT":"CBD CILEDUNG, JL. HOS COKROAMINOTO, RT.001/RW.001, LARANGAN UTARA, KEC. KARANG TENGAH, KOTA TANGERANG, BANTEN","ID_PROV":"36","PROVINSI":"BANTEN","ID_KABKOT":"36.71","KABKOT":"KOTA TANGERANG","ID_KEC":"36.71.13","KECAMATAN":"LARANGAN","ID_DESA":"36.71.13.1001","DESA":"LARANGAN UTARA","LONGITUDE":106.7242329,"LATITUDE":-6.2298431,"STATUS":"BUKA","TANGGAL PENGUMPULAN":"Q2 2024","TANGGAL UPDATE":"27/07/2025"}},{"type":"Feature","geometry":{"coordinates":[106.7036698,-6.2283265],"type":"Point"},"properties":{"fid":195,"NAMA":"HALTE BUS YPPUI","TIPE_1":"TRANSPORTASI","TIPE_2":"HALTE","TIPE_3":"-","TELEPON":"","ALAMAT":"JL. RADEN FATAH, SUDIMARA BAR., KEC. CILEDUG, KOTA TANGERANG, BANTEN 15151","ID_PROV":"36","PROVINSI":"BANTEN","ID_KABKOT":"36.71","KABKOT":"KOTA TANGERANG","ID_KEC":"36.71.06","KECAMATAN":"CILEDUG","ID_DESA":"36.71.06.1002","DESA":"SUDIMARA BARAT","LONGITUDE":106.7036698,"LATITUDE":-6.2283265,"STATUS":"BUKA","TANGGAL PENGUMPULAN":"Q2 2024","TANGGAL UPDATE":"27/07/2025"}},{"type":"Feature","geometry":{"coordinates":[106.6258981,-6.1970033],"type":"Point"},"properties":{"fid":196,"NAMA":"HALTE BUSWAY","TIPE_1":"TRANSPORTASI","TIPE_2":"HALTE","TIPE_3":"-","TELEPON":"(021) 55566695","ALAMAT":"JL. IMAM BONJOL, RT.003/RW.001, BOJONG JAYA, KEC. KARAWACI, KOTA TANGERANG, BANTEN 15115","ID_PROV":"36","PROVINSI":"BANTEN","ID_KABKOT":"36.71","KABKOT":"KOTA TANGERANG","ID_KEC":"36.71.07","KECAMATAN":"KARAWACI","ID_DESA":"36.71.07.1002","DESA":"BOJONG JAYA","LONGITUDE":106.6258981,"LATITUDE":-6.1970033,"STATUS":"BUKA","TANGGAL PENGUMPULAN":"Q2 2024","TANGGAL UPDATE":"27/07/2025"}},{"type":"Feature","geometry":{"coordinates":[106.7090926,-6.2231784],"type":"Point"},"properties":{"fid":197,"NAMA":"HALTE BUSWAY CILEDUG RAYA","TIPE_1":"TRANSPORTASI","TIPE_2":"HALTE","TIPE_3":"-","TELEPON":"","ALAMAT":"JL. HOS COKROAMINOTO NO.9, RT.001/RW.001, KARANG TENGAH, KEC. KARANG TENGAH, KOTA TANGERANG, BANTEN 15157","ID_PROV":"36","PROVINSI":"BANTEN","ID_KABKOT":"36.71","KABKOT":"KOTA TANGERANG","ID_KEC":"36.71.12","KECAMATAN":"KARANG TENGAH","ID_DESA":"36.71.12.1001","DESA":"KARANG TENGAH","LONGITUDE":106.7090926,"LATITUDE":-6.2231784,"STATUS":"BUKA","TANGGAL PENGUMPULAN":"Q2 2024","TANGGAL UPDATE":"27/07/2025"}},{"type":"Feature","geometry":{"coordinates":[106.6459702,-6.1754996],"type":"Point"},"properties":{"fid":199,"NAMA":"HALTE BUSWAY DEPAN STASIUN TANAH TINGGI","TIPE_1":"TRANSPORTASI","TIPE_2":"HALTE","TIPE_3":"-","TELEPON":"","ALAMAT":"JL. BENTENG BETAWI, RT.001/RW.001, TANAH TINGGI, KEC. BATUCEPER, KOTA TANGERANG, BANTEN 15119","ID_PROV":"36","PROVINSI":"BANTEN","ID_KABKOT":"36.71","KABKOT":"KOTA TANGERANG","ID_KEC":"36.71.01","KECAMATAN":"TANGERANG","ID_DESA":"36.71.01.1003","DESA":"TANAH TINGGI","LONGITUDE":106.6459702,"LATITUDE":-6.1754996,"STATUS":"BUKA","TANGGAL PENGUMPULAN":"Q2 2024","TANGGAL UPDATE":"27/07/2025"}},{"type":"Feature","geometry":{"coordinates":[106.6160331,-6.2200664],"type":"Point"},"properties":{"fid":200,"NAMA":"HALTE BUSWAY GIANT PALEM SEMI","TIPE_1":"TRANSPORTASI","TIPE_2":"HALTE","TIPE_3":"-","TELEPON":"","ALAMAT":"JL. PALEM RAJA RAYA, RT.001/RW.009, PANUNGGANGAN BAR., KEC. CIBODAS, KOTA TANGERANG, BANTEN 15138","ID_PROV":"36","PROVINSI":"BANTEN","ID_KABKOT":"36.71","KABKOT":"KOTA TANGERANG","ID_KEC":"36.71.09","KECAMATAN":"CIBODAS","ID_DESA":"36.71.09.1004","DESA":"PANUNGGANGAN BARAT","LONGITUDE":106.6160331,"LATITUDE":-6.2200664,"STATUS":"BUKA","TANGGAL PENGUMPULAN":"Q2 2024","TANGGAL UPDATE":"27/07/2025"}},{"type":"Feature","geometry":{"coordinates":[106.7232845,-6.230548],"type":"Point"},"properties":{"fid":202,"NAMA":"HALTE BUSWAY PURIBETA 2 ARAH KEBAYORAN","TIPE_1":"TRANSPORTASI","TIPE_2":"HALTE","TIPE_3":"-","TELEPON":"0812-8203-0681","ALAMAT":"PURIBETA 2, RT.001/RW.013, LARANGAN UTARA, KEC. LARANGAN, KOTA TANGERANG, BANTEN 15154","ID_PROV":"36","PROVINSI":"BANTEN","ID_KABKOT":"36.71","KABKOT":"KOTA TANGERANG","ID_KEC":"36.71.13","KECAMATAN":"LARANGAN","ID_DESA":"36.71.13.1001","DESA":"LARANGAN UTARA","LONGITUDE":106.7232845,"LATITUDE":-6.230548,"STATUS":"BUKA","TANGGAL PENGUMPULAN":"Q2 2024","TANGGAL UPDATE":"27/07/2025"}},{"type":"Feature","geometry":{"coordinates":[106.594113,-6.1510486],"type":"Point"},"properties":{"fid":203,"NAMA":"HALTE BUSWAY RS. HERMINA PERIUK TANGERANG RAYA","TIPE_1":"TRANSPORTASI","TIPE_2":"HALTE","TIPE_3":"-","TELEPON":"","ALAMAT":"CADAS 1, PERIUK, KEC. PERIUK, KOTA TANGERANG, BANTEN","ID_PROV":"36","PROVINSI":"BANTEN","ID_KABKOT":"36.71","KABKOT":"KOTA TANGERANG","ID_KEC":"36.71.08","KECAMATAN":"PERIUK","ID_DESA":"36.71.08.1001","DESA":"PERIUK","LONGITUDE":106.594113,"LATITUDE":-6.1510486,"STATUS":"BUKA","TANGGAL PENGUMPULAN":"Q2 2024","TANGGAL UPDATE":"27/07/2025"}},{"type":"Feature","geometry":{"coordinates":[106.7099928,-6.2219509],"type":"Point"},"properties":{"fid":204,"NAMA":"HALTE BUSWAY TERBARU","TIPE_1":"TRANSPORTASI","TIPE_2":"HALTE","TIPE_3":"-","TELEPON":"","ALAMAT":"JL. HOS COKROAMINOTO BLOK A2 NO.1, RT.001/RW.001, KARANG TENGAH, KEC. KARANG TENGAH, KOTA TANGERANG, BANTEN 15157","ID_PROV":"36","PROVINSI":"BANTEN","ID_KABKOT":"36.71","KABKOT":"KOTA TANGERANG","ID_KEC":"36.71.12","KECAMATAN":"KARANG TENGAH","ID_DESA":"36.71.12.1001","DESA":"KARANG TENGAH","LONGITUDE":106.7099928,"LATITUDE":-6.2219509,"STATUS":"BUKA","TANGGAL PENGUMPULAN":"Q2 2024","TANGGAL UPDATE":"27/07/2025"}},{"type":"Feature","geometry":{"coordinates":[106.5744414,-6.2000852],"type":"Point"},"properties":{"fid":205,"NAMA":"HALTE BUSWAY TRANS KOTA TANGERANG (KOMPLEK MAGNOLIA RESIDENCE)","TIPE_1":"TRANSPORTASI","TIPE_2":"HALTE","TIPE_3":"-","TELEPON":"","ALAMAT":"KOMPLEK MAGNOLIA RESIDENCE, RT.001/RW.004, JATAKE, KEC. JATIUWUNG, KOTA TANGERANG, BANTEN 15136","ID_PROV":"36","PROVINSI":"BANTEN","ID_KABKOT":"36.71","KABKOT":"KOTA TANGERANG","ID_KEC":"36.71.02","KECAMATAN":"JATIUWUNG","ID_DESA":"36.71.02.1002","DESA":"JATAKE","LONGITUDE":106.5744414,"LATITUDE":-6.2000852,"STATUS":"BUKA","TANGGAL PENGUMPULAN":"Q2 2024","TANGGAL UPDATE":"27/07/2025"}},{"type":"Feature","geometry":{"coordinates":[106.70896,-6.22373],"type":"Point"},"properties":{"fid":206,"NAMA":"HALTE CBD CILEDUG 1","TIPE_1":"TRANSPORTASI","TIPE_2":"HALTE","TIPE_3":"-","TELEPON":"","ALAMAT":"KARANG TENGAH, KEC. KARANG TENGAH, KOTA TANGERANG, BANTEN","ID_PROV":"36","PROVINSI":"BANTEN","ID_KABKOT":"36.71","KABKOT":"KOTA TANGERANG","ID_KEC":"36.71.12","KECAMATAN":"KARANG TENGAH","ID_DESA":"36.71.12.1001","DESA":"KARANG TENGAH","LONGITUDE":106.70896,"LATITUDE":-6.22373,"STATUS":"BUKA","TANGGAL PENGUMPULAN":"Q2 2024","TANGGAL UPDATE":"27/07/2025"}},{"type":"Feature","geometry":{"coordinates":[106.7097353,-6.2245672],"type":"Point"},"properties":{"fid":212,"NAMA":"HALTE CILEDUG","TIPE_1":"TRANSPORTASI","TIPE_2":"HALTE","TIPE_3":"-","TELEPON":"","ALAMAT":"JL. HOS COKROAMINOTO, SUDIMARA BAR., KEC. CILEDUG, KOTA TANGERANG, BANTEN 15151","ID_PROV":"36","PROVINSI":"BANTEN","ID_KABKOT":"36.71","KABKOT":"KOTA TANGERANG","ID_KEC":"36.71.12","KECAMATAN":"KARANG TENGAH","ID_DESA":"36.71.12.1001","DESA":"KARANG TENGAH","LONGITUDE":106.7097353,"LATITUDE":-6.2245672,"STATUS":"BUKA","TANGGAL PENGUMPULAN":"Q2 2024","TANGGAL UPDATE":"27/07/2025"}},{"type":"Feature","geometry":{"coordinates":[106.6442551,-6.1678745],"type":"Point"},"properties":{"fid":213,"NAMA":"HALTE DAAN MOGOT","TIPE_1":"TRANSPORTASI","TIPE_2":"HALTE","TIPE_3":"-","TELEPON":"","ALAMAT":"RT.002/RW.013, TANAH TINGGI, KEC. TANGERANG, KOTA TANGERANG, BANTEN 15119","ID_PROV":"36","PROVINSI":"BANTEN","ID_KABKOT":"36.71","KABKOT":"KOTA TANGERANG","ID_KEC":"36.71.01","KECAMATAN":"TANGERANG","ID_DESA":"36.71.01.1003","DESA":"TANAH TINGGI","LONGITUDE":106.6442551,"LATITUDE":-6.1678745,"STATUS":"BUKA","TANGGAL PENGUMPULAN":"Q2 2024","TANGGAL UPDATE":"27/07/2025"}},{"type":"Feature","geometry":{"coordinates":[106.6576764,-6.1287983],"type":"Point"},"properties":{"fid":214,"NAMA":"HALTE DAMRI TERMINAL 1A","TIPE_1":"TRANSPORTASI","TIPE_2":"HALTE","TIPE_3":"-","TELEPON":"","ALAMAT":"JALAN P4, PAJANG, BENDA, RT.001/RW.010, PAJANG, KEC. BENDA, KOTA TANGERANG, BANTEN 15126","ID_PROV":"36","PROVINSI":"BANTEN","ID_KABKOT":"36.71","KABKOT":"KOTA TANGERANG","ID_KEC":"36.71.04","KECAMATAN":"BENDA","ID_DESA":"36.71.04.1004","DESA":"PAJANG","LONGITUDE":106.6576764,"LATITUDE":-6.1287983,"STATUS":"BUKA","TANGGAL PENGUMPULAN":"Q2 2024","TANGGAL UPDATE":"27/07/2025"}},{"type":"Feature","geometry":{"coordinates":[106.6341814,-6.1951853],"type":"Point"},"properties":{"fid":231,"NAMA":"HALTE GREEN CAMPUS RAHARJA","TIPE_1":"TRANSPORTASI","TIPE_2":"HALTE","TIPE_3":"-","TELEPON":"","ALAMAT":"JL. JENDERAL SUDIRMAN, BABAKAN, KEC. TANGERANG, KOTA TANGERANG, BANTEN 15118","ID_PROV":"36","PROVINSI":"BANTEN","ID_KABKOT":"36.71","KABKOT":"KOTA TANGERANG","ID_KEC":"36.71.01","KECAMATAN":"TANGERANG","ID_DESA":"36.71.01.1008","DESA":"BABAKAN","LONGITUDE":106.6341814,"LATITUDE":-6.1951853,"STATUS":"BUKA","TANGGAL PENGUMPULAN":"Q2 2024","TANGGAL UPDATE":"27/07/2025"}},{"type":"Feature","geometry":{"coordinates":[106.720185,-6.2284852],"type":"Point"},"properties":{"fid":232,"NAMA":"HALTE HAJI NABA","TIPE_1":"TRANSPORTASI","TIPE_2":"HALTE","TIPE_3":"-","TELEPON":"","ALAMAT":"JL. DR. SOETOMO, RT.003/RW.009, KARANG TIM., KEC. KARANG TENGAH, KOTA TANGERANG, BANTEN 15151","ID_PROV":"36","PROVINSI":"BANTEN","ID_KABKOT":"36.71","KABKOT":"KOTA TANGERANG","ID_KEC":"36.71.12","KECAMATAN":"KARANG TENGAH","ID_DESA":"36.71.12.1005","DESA":"KARANG TIMUR","LONGITUDE":106.720185,"LATITUDE":-6.2284852,"STATUS":"BUKA","TANGGAL PENGUMPULAN":"Q2 2024","TANGGAL UPDATE":"27/07/2025"}},{"type":"Feature","geometry":{"coordinates":[106.6458769,-6.1844482],"type":"Point"},"properties":{"fid":233,"NAMA":"HALTE HASYIM ASHARI","TIPE_1":"TRANSPORTASI","TIPE_2":"HALTE","TIPE_3":"-","TELEPON":"","ALAMAT":"JL. KH. HASYIM ASHARI, RT.003/RW.007, BUARAN INDAH, KEC. TANGERANG, KOTA TANGERANG, BANTEN 15119","ID_PROV":"36","PROVINSI":"BANTEN","ID_KABKOT":"36.71","KABKOT":"KOTA TANGERANG","ID_KEC":"36.71.01","KECAMATAN":"TANGERANG","ID_DESA":"36.71.01.1004","DESA":"BUARAN INDAH","LONGITUDE":106.6458769,"LATITUDE":-6.1844482,"STATUS":"BUKA","TANGGAL PENGUMPULAN":"Q2 2024","TANGGAL UPDATE":"27/07/2025"}},{"type":"Feature","geometry":{"coordinates":[106.6439699,-6.1706917],"type":"Point"},"properties":{"fid":236,"NAMA":"HALTE IMIGRASI","TIPE_1":"TRANSPORTASI","TIPE_2":"HALTE","TIPE_3":"-","TELEPON":"","ALAMAT":"RT.002/RW.014, TANAH TINGGI, KEC. TANGERANG, KOTA TANGERANG, BANTEN 15119","ID_PROV":"36","PROVINSI":"BANTEN","ID_KABKOT":"36.71","KABKOT":"KOTA TANGERANG","ID_KEC":"36.71.01","KECAMATAN":"TANGERANG","ID_DESA":"36.71.01.1003","DESA":"TANAH TINGGI","LONGITUDE":106.6439699,"LATITUDE":-6.1706917,"STATUS":"BUKA","TANGGAL PENGUMPULAN":"Q2 2024","TANGGAL UPDATE":"27/07/2025"}},{"type":"Feature","geometry":{"coordinates":[106.6397619,-6.1970057],"type":"Point"},"properties":{"fid":242,"NAMA":"HALTE JUICE","TIPE_1":"TRANSPORTASI","TIPE_2":"HALTE","TIPE_3":"-","TELEPON":"0899-4201-222","ALAMAT":"KP. PESONO JLN HAJI RAMLIH RT01/06 NO 27 GANG UCOK. KEL, RT.004/RW.005, KLP. INDAH, KEC. TANGERANG, KOTA TANGERANG, BANTEN 15117","ID_PROV":"36","PROVINSI":"BANTEN","ID_KABKOT":"36.71","KABKOT":"KOTA TANGERANG","ID_KEC":"36.71.01","KECAMATAN":"TANGERANG","ID_DESA":"36.71.01.1008","DESA":"BABAKAN","LONGITUDE":106.6397619,"LATITUDE":-6.1970057,"STATUS":"BUKA","TANGGAL PENGUMPULAN":"Q2 2024","TANGGAL UPDATE":"27/07/2025"}},{"type":"Feature","geometry":{"coordinates":[106.643464,-6.1811932],"type":"Point"},"properties":{"fid":244,"NAMA":"HALTE KANGKUNG","TIPE_1":"TRANSPORTASI","TIPE_2":"HALTE","TIPE_3":"-","TELEPON":"","ALAMAT":"JL. JENDERAL SUDIRMAN, RT.002/RW.012, SUKASARI, KEC. TANGERANG, KOTA TANGERANG, BANTEN 15118","ID_PROV":"36","PROVINSI":"BANTEN","ID_KABKOT":"36.71","KABKOT":"KOTA TANGERANG","ID_KEC":"36.71.01","KECAMATAN":"TANGERANG","ID_DESA":"36.71.01.1004","DESA":"BUARAN INDAH","LONGITUDE":106.643464,"LATITUDE":-6.1811932,"STATUS":"BUKA","TANGGAL PENGUMPULAN":"Q2 2024","TANGGAL UPDATE":"27/07/2025"}},{"type":"Feature","geometry":{"coordinates":[106.6768791,-6.1947965],"type":"Point"},"properties":{"fid":246,"NAMA":"HALTE KECAMATAN CIPONDOH","TIPE_1":"TRANSPORTASI","TIPE_2":"HALTE","TIPE_3":"-","TELEPON":"","ALAMAT":"GG. PLURU, RT.003/RW.001, CIPONDOH, KEC. CIPONDOH, KOTA TANGERANG, BANTEN 15148","ID_PROV":"36","PROVINSI":"BANTEN","ID_KABKOT":"36.71","KABKOT":"KOTA TANGERANG","ID_KEC":"36.71.05","KECAMATAN":"CIPONDOH","ID_DESA":"36.71.05.1001","DESA":"CIPONDOH","LONGITUDE":106.6768791,"LATITUDE":-6.1947965,"STATUS":"BUKA","TANGGAL PENGUMPULAN":"Q2 2024","TANGGAL UPDATE":"27/07/2025"}},{"type":"Feature","geometry":{"coordinates":[106.6199923,-6.1825225],"type":"Point"},"properties":{"fid":253,"NAMA":"HALTE MERDEKA","TIPE_1":"TRANSPORTASI","TIPE_2":"HALTE","TIPE_3":"-","TELEPON":"","ALAMAT":"RT.003/RW.003, PABUARAN, KEC. KARAWACI, KOTA TANGERANG, BANTEN 15114","ID_PROV":"36","PROVINSI":"BANTEN","ID_KABKOT":"36.71","KABKOT":"KOTA TANGERANG","ID_KEC":"36.71.07","KECAMATAN":"KARAWACI","ID_DESA":"36.71.07.1007","DESA":"PABUARAN","LONGITUDE":106.6199923,"LATITUDE":-6.1825225,"STATUS":"BUKA","TANGGAL PENGUMPULAN":"Q2 2024","TANGGAL UPDATE":"27/07/2025"}},{"type":"Feature","geometry":{"coordinates":[106.5848212,-6.2107942],"type":"Point"},"properties":{"fid":259,"NAMA":"HALTE PAJAJARAN AP 01","TIPE_1":"TRANSPORTASI","TIPE_2":"HALTE","TIPE_3":"-","TELEPON":"","ALAMAT":"JL. RAYA PAJAJARAN NO.11, RT.002/RW.003, GANDASARI, KEC. JATIUWUNG, KOTA TANGERANG, BANTEN 15137","ID_PROV":"36","PROVINSI":"BANTEN","ID_KABKOT":"36.71","KABKOT":"KOTA TANGERANG","ID_KEC":"36.71.02","KECAMATAN":"JATIUWUNG","ID_DESA":"36.71.02.1004","DESA":"GANDASARI","LONGITUDE":106.5848212,"LATITUDE":-6.2107942,"STATUS":"BUKA","TANGGAL PENGUMPULAN":"Q2 2024","TANGGAL UPDATE":"27/07/2025"}},{"type":"Feature","geometry":{"coordinates":[106.6625402,-6.1878197],"type":"Point"},"properties":{"fid":260,"NAMA":"HALTE PANGLIMA POLIM","TIPE_1":"TRANSPORTASI","TIPE_2":"HALTE","TIPE_3":"-","TELEPON":"","ALAMAT":"JL. KH. HASYIM ASHARI, NORTH PORIS PLAWAD, CIPONDOH, TANGERANG CITY, BANTEN","ID_PROV":"36","PROVINSI":"BANTEN","ID_KABKOT":"36.71","KABKOT":"KOTA TANGERANG","ID_KEC":"36.71.05","KECAMATAN":"CIPONDOH","ID_DESA":"36.71.05.1009","DESA":"PORIS PLAWAD UTARA","LONGITUDE":106.6625402,"LATITUDE":-6.1878197,"STATUS":"BUKA","TANGGAL PENGUMPULAN":"Q2 2024","TANGGAL UPDATE":"27/07/2025"}},{"type":"Feature","geometry":{"coordinates":[106.6438673,-6.2256842],"type":"Point"},"properties":{"fid":262,"NAMA":"HALTE PANUNGGANGAN","TIPE_1":"TRANSPORTASI","TIPE_2":"HALTE","TIPE_3":"-","TELEPON":"","ALAMAT":"PANUNGGANGAN, KEC. PINANG, KOTA TANGERANG, BANTEN","ID_PROV":"36","PROVINSI":"BANTEN","ID_KABKOT":"36.71","KABKOT":"KOTA TANGERANG","ID_KEC":"36.71.11","KECAMATAN":"PINANG","ID_DESA":"36.71.11.1009","DESA":"PANUNGGANGAN","LONGITUDE":106.6438673,"LATITUDE":-6.2256842,"STATUS":"BUKA","TANGGAL PENGUMPULAN":"Q2 2024","TANGGAL UPDATE":"27/07/2025"}},{"type":"Feature","geometry":{"coordinates":[106.6335053,-6.2211976],"type":"Point"},"properties":{"fid":263,"NAMA":"HALTE PANUNGGANGAN","TIPE_1":"TRANSPORTASI","TIPE_2":"HALTE","TIPE_3":"-","TELEPON":"0812-2199-9904","ALAMAT":"RT.007/RW.001, PANUNGGANGAN UTARA, KEC. PINANG, KOTA TANGERANG, BANTEN 15143","ID_PROV":"36","PROVINSI":"BANTEN","ID_KABKOT":"36.71","KABKOT":"KOTA TANGERANG","ID_KEC":"36.71.11","KECAMATAN":"PINANG","ID_DESA":"36.71.11.1010","DESA":"PANUNGGANGAN UTARA","LONGITUDE":106.6335053,"LATITUDE":-6.2211976,"STATUS":"BUKA","TANGGAL PENGUMPULAN":"Q2 2024","TANGGAL UPDATE":"27/07/2025"}},{"type":"Feature","geometry":{"coordinates":[106.6444756,-6.172535],"type":"Point"},"properties":{"fid":265,"NAMA":"HALTE PASAR INDUK TANAH TINGGI","TIPE_1":"TRANSPORTASI","TIPE_2":"HALTE","TIPE_3":"-","TELEPON":"","ALAMAT":"JL. KEHAKIMAN 12 NO.100, RT.003/RW.013, TANAH TINGGI, KEC. TANGERANG, KOTA TANGERANG, BANTEN 15119","ID_PROV":"36","PROVINSI":"BANTEN","ID_KABKOT":"36.71","KABKOT":"KOTA TANGERANG","ID_KEC":"36.71.01","KECAMATAN":"TANGERANG","ID_DESA":"36.71.01.1003","DESA":"TANAH TINGGI","LONGITUDE":106.6444756,"LATITUDE":-6.172535,"STATUS":"BUKA","TANGGAL PENGUMPULAN":"Q2 2024","TANGGAL UPDATE":"27/07/2025"}},{"type":"Feature","geometry":{"coordinates":[106.5828079,-6.1721006],"type":"Point"},"properties":{"fid":270,"NAMA":"HALTE PERSADA RAYA","TIPE_1":"TRANSPORTASI","TIPE_2":"HALTE","TIPE_3":"-","TELEPON":"","ALAMAT":"JL. RAYA VILLA TANGERANG INDAH, GEMBOR, KEC. PERIUK, KOTA TANGERANG, BANTEN 15133","ID_PROV":"36","PROVINSI":"BANTEN","ID_KABKOT":"36.71","KABKOT":"KOTA TANGERANG","ID_KEC":"36.71.08","KECAMATAN":"PERIUK","ID_DESA":"36.71.08.1002","DESA":"GEMBOR","LONGITUDE":106.5828079,"LATITUDE":-6.1721006,"STATUS":"BUKA","TANGGAL PENGUMPULAN":"Q2 2024","TANGGAL UPDATE":"27/07/2025"}},{"type":"Feature","geometry":{"coordinates":[106.6340679,-6.16894],"type":"Point"},"properties":{"fid":272,"NAMA":"HALTE PINTU AIR","TIPE_1":"TRANSPORTASI","TIPE_2":"HALTE","TIPE_3":"-","TELEPON":"","ALAMAT":"JL. RAYA DAAN MOGOT NO.70, RT.001/RW.001, SUKARASA, KEC. TANGERANG, KOTA TANGERANG, BANTEN 15111","ID_PROV":"36","PROVINSI":"BANTEN","ID_KABKOT":"36.71","KABKOT":"KOTA TANGERANG","ID_KEC":"36.71.01","KECAMATAN":"TANGERANG","ID_DESA":"36.71.01.1001","DESA":"SUKARASA","LONGITUDE":106.6340679,"LATITUDE":-6.16894,"STATUS":"BUKA","TANGGAL PENGUMPULAN":"Q2 2024","TANGGAL UPDATE":"27/07/2025"}},{"type":"Feature","geometry":{"coordinates":[106.6317052,-6.171744],"type":"Point"},"properties":{"fid":273,"NAMA":"HALTE PLN","TIPE_1":"TRANSPORTASI","TIPE_2":"HALTE","TIPE_3":"-","TELEPON":"","ALAMAT":"JL. RAYA DAAN MOGOT NO.61, RT.002/RW.004, SUKARASA, KEC. TANGERANG, KOTA TANGERANG, BANTEN 15111","ID_PROV":"36","PROVINSI":"BANTEN","ID_KABKOT":"36.71","KABKOT":"KOTA TANGERANG","ID_KEC":"36.71.01","KECAMATAN":"TANGERANG","ID_DESA":"36.71.01.1001","DESA":"SUKARASA","LONGITUDE":106.6317052,"LATITUDE":-6.171744,"STATUS":"BUKA","TANGGAL PENGUMPULAN":"Q2 2024","TANGGAL UPDATE":"27/07/2025"}},{"type":"Feature","geometry":{"coordinates":[106.6939507,-6.1984033],"type":"Point"},"properties":{"fid":275,"NAMA":"HALTE PORTAL","TIPE_1":"TRANSPORTASI","TIPE_2":"HALTE","TIPE_3":"-","TELEPON":"","ALAMAT":"JL. KIHAJAR DEWANTORO, RT.003/RW.003, GONDRONG, KEC. CIPONDOH, KOTA TANGERANG, BANTEN 15146","ID_PROV":"36","PROVINSI":"BANTEN","ID_KABKOT":"36.71","KABKOT":"KOTA TANGERANG","ID_KEC":"36.71.05","KECAMATAN":"CIPONDOH","ID_DESA":"36.71.05.1004","DESA":"GONDRONG","LONGITUDE":106.6939507,"LATITUDE":-6.1984033,"STATUS":"BUKA","TANGGAL PENGUMPULAN":"Q2 2024","TANGGAL UPDATE":"27/07/2025"}},{"type":"Feature","geometry":{"coordinates":[106.6443636,-6.1721107],"type":"Point"},"properties":{"fid":279,"NAMA":"HALTE PUSPEM","TIPE_1":"TRANSPORTASI","TIPE_2":"HALTE","TIPE_3":"-","TELEPON":"","ALAMAT":"BLOK, JL. JENDERAL SUDIRMAN A NO.1, RT.003/RW.013, TANAH TINGGI, TANGERANG, TANGERANG CITY, BANTEN 15119","ID_PROV":"36","PROVINSI":"BANTEN","ID_KABKOT":"36.71","KABKOT":"KOTA TANGERANG","ID_KEC":"36.71.01","KECAMATAN":"TANGERANG","ID_DESA":"36.71.01.1003","DESA":"TANAH TINGGI","LONGITUDE":106.6443636,"LATITUDE":-6.1721107,"STATUS":"BUKA","TANGGAL PENGUMPULAN":"Q2 2024","TANGGAL UPDATE":"27/07/2025"}},{"type":"Feature","geometry":{"coordinates":[106.6163111,-6.18564],"type":"Point"},"properties":{"fid":280,"NAMA":"HALTE RAJAWALI","TIPE_1":"TRANSPORTASI","TIPE_2":"HALTE","TIPE_3":"-","TELEPON":"","ALAMAT":"JL. RAYA MERDEKA, RT.1/RW.001, CIMONE JAYA, KEC. KARAWACI, KOTA TANGERANG, BANTEN 15114","ID_PROV":"36","PROVINSI":"BANTEN","ID_KABKOT":"36.71","KABKOT":"KOTA TANGERANG","ID_KEC":"36.71.07","KECAMATAN":"KARAWACI","ID_DESA":"36.71.07.1006","DESA":"CIMONE JAYA","LONGITUDE":106.6163111,"LATITUDE":-6.18564,"STATUS":"BUKA","TANGGAL PENGUMPULAN":"Q2 2024","TANGGAL UPDATE":"27/07/2025"}},{"type":"Feature","geometry":{"coordinates":[106.6030078,-6.1882993],"type":"Point"},"properties":{"fid":282,"NAMA":"HALTE RSU ANISA","TIPE_1":"TRANSPORTASI","TIPE_2":"HALTE","TIPE_3":"-","TELEPON":"","ALAMAT":"JL. GATOT SUBROTO, RT.001/RW.9, CIBODAS, KEC. CIBODAS, KOTA TANGERANG, BANTEN 15132","ID_PROV":"36","PROVINSI":"BANTEN","ID_KABKOT":"36.71","KABKOT":"KOTA TANGERANG","ID_KEC":"36.71.09","KECAMATAN":"CIBODAS","ID_DESA":"36.71.09.1001","DESA":"CIBODAS","LONGITUDE":106.6030078,"LATITUDE":-6.1882993,"STATUS":"BUKA","TANGGAL PENGUMPULAN":"Q2 2024","TANGGAL UPDATE":"27/07/2025"}},{"type":"Feature","geometry":{"coordinates":[106.6566206,-6.2283882],"type":"Point"},"properties":{"fid":283,"NAMA":"HALTE RUKO PROMINENCE","TIPE_1":"TRANSPORTASI","TIPE_2":"HALTE","TIPE_3":"-","TELEPON":"","ALAMAT":"RT.001/RW.006, RT.001/RW.006, PANUNGGANGAN TIM., KEC. PINANG, KOTA TANGERANG, BANTEN 15143","ID_PROV":"36","PROVINSI":"BANTEN","ID_KABKOT":"36.71","KABKOT":"KOTA TANGERANG","ID_KEC":"36.71.11","KECAMATAN":"PINANG","ID_DESA":"36.71.11.1011","DESA":"PANUNGGANGAN TIMUR","LONGITUDE":106.6566206,"LATITUDE":-6.2283882,"STATUS":"BUKA","TANGGAL PENGUMPULAN":"Q2 2024","TANGGAL UPDATE":"27/07/2025"}},{"type":"Feature","geometry":{"coordinates":[106.63652,-6.17132],"type":"Point"},"properties":{"fid":285,"NAMA":"HALTE SATRIA","TIPE_1":"TRANSPORTASI","TIPE_2":"HALTE","TIPE_3":"-","TELEPON":"","ALAMAT":"SUKAASIH, KEC. TANGERANG, KOTA TANGERANG, BANTEN","ID_PROV":"36","PROVINSI":"BANTEN","ID_KABKOT":"36.71","KABKOT":"KOTA TANGERANG","ID_KEC":"36.71.01","KECAMATAN":"TANGERANG","ID_DESA":"36.71.01.1002","DESA":"SUKAASIH","LONGITUDE":106.63652,"LATITUDE":-6.17132,"STATUS":"BUKA","TANGGAL PENGUMPULAN":"Q2 2024","TANGGAL UPDATE":"27/07/2025"}},{"type":"Feature","geometry":{"coordinates":[106.666356,-6.1839068],"type":"Point"},"properties":{"fid":288,"NAMA":"HALTE SHOPEEE","TIPE_1":"TRANSPORTASI","TIPE_2":"HALTE","TIPE_3":"-","TELEPON":"0819-8719-3281","ALAMAT":"RT.005/RW.001, PORIS PLAWAD UTARA, KEC. CIPONDOH, KOTA TANGERANG, BANTEN 15141","ID_PROV":"36","PROVINSI":"BANTEN","ID_KABKOT":"36.71","KABKOT":"KOTA TANGERANG","ID_KEC":"36.71.05","KECAMATAN":"CIPONDOH","ID_DESA":"36.71.05.1009","DESA":"PORIS PLAWAD UTARA","LONGITUDE":106.666356,"LATITUDE":-6.1839068,"STATUS":"BUKA","TANGGAL PENGUMPULAN":"Q2 2024","TANGGAL UPDATE":"27/07/2025"}},{"type":"Feature","geometry":{"coordinates":[106.622107,-6.1794694],"type":"Point"},"properties":{"fid":293,"NAMA":"HALTE SINAR HATI","TIPE_1":"TRANSPORTASI","TIPE_2":"HALTE","TIPE_3":"-","TELEPON":"","ALAMAT":"JL. RAYA MERDEKA NO.143, RT.003/RW.002, SUKAJADI, KEC. KARAWACI, KOTA TANGERANG, BANTEN 15114","ID_PROV":"36","PROVINSI":"BANTEN","ID_KABKOT":"36.71","KABKOT":"KOTA TANGERANG","ID_KEC":"36.71.07","KECAMATAN":"KARAWACI","ID_DESA":"36.71.07.1007","DESA":"PABUARAN","LONGITUDE":106.622107,"LATITUDE":-6.1794694,"STATUS":"BUKA","TANGGAL PENGUMPULAN":"Q2 2024","TANGGAL UPDATE":"27/07/2025"}},{"type":"Feature","geometry":{"coordinates":[106.6482909,-6.1662531],"type":"Point"},"properties":{"fid":296,"NAMA":"HALTE SMPN 5","TIPE_1":"TRANSPORTASI","TIPE_2":"HALTE","TIPE_3":"-","TELEPON":"","ALAMAT":"JL. DAAN MOGOT KM-23 NO.5, RT.001/RW.008, TANAH TINGGI, KEC. TANGERANG, KOTA TANGERANG, BANTEN 15119","ID_PROV":"36","PROVINSI":"BANTEN","ID_KABKOT":"36.71","KABKOT":"KOTA TANGERANG","ID_KEC":"36.71.01","KECAMATAN":"TANGERANG","ID_DESA":"36.71.01.1003","DESA":"TANAH TINGGI","LONGITUDE":106.6482909,"LATITUDE":-6.1662531,"STATUS":"BUKA","TANGGAL PENGUMPULAN":"Q2 2024","TANGGAL UPDATE":"27/07/2025"}},{"type":"Feature","geometry":{"coordinates":[106.645794,-6.175474],"type":"Point"},"properties":{"fid":299,"NAMA":"HALTE STASIUN BENTENG BETAWI","TIPE_1":"TRANSPORTASI","TIPE_2":"HALTE","TIPE_3":"-","TELEPON":"","ALAMAT":"JL. BENTENG BETAWI, RT.001/RW.001, TANAH TINGGI, KEC. TANGERANG, KOTA TANGERANG, BANTEN 15119","ID_PROV":"36","PROVINSI":"BANTEN","ID_KABKOT":"36.71","KABKOT":"KOTA TANGERANG","ID_KEC":"36.71.01","KECAMATAN":"TANGERANG","ID_DESA":"36.71.01.1003","DESA":"TANAH TINGGI","LONGITUDE":106.645794,"LATITUDE":-6.175474,"STATUS":"BUKA","TANGGAL PENGUMPULAN":"Q2 2024","TANGGAL UPDATE":"27/07/2025"}},{"type":"Feature","geometry":{"coordinates":[106.6454797,-6.1752493],"type":"Point"},"properties":{"fid":300,"NAMA":"HALTE STASIUN TANAH TINGGI","TIPE_1":"TRANSPORTASI","TIPE_2":"HALTE","TIPE_3":"-","TELEPON":"","ALAMAT":"HALTE STASIUN, 2, RT.001/RW.001, TANAH TINGGI, KEC. TANGERANG, KOTA TANGERANG, BANTEN 15119","ID_PROV":"36","PROVINSI":"BANTEN","ID_KABKOT":"36.71","KABKOT":"KOTA TANGERANG","ID_KEC":"36.71.01","KECAMATAN":"TANGERANG","ID_DESA":"36.71.01.1003","DESA":"TANAH TINGGI","LONGITUDE":106.6454797,"LATITUDE":-6.1752493,"STATUS":"BUKA","TANGGAL PENGUMPULAN":"Q2 2024","TANGGAL UPDATE":"27/07/2025"}},{"type":"Feature","geometry":{"coordinates":[106.64573,-6.17541],"type":"Point"},"properties":{"fid":301,"NAMA":"HALTE STASIUN TANAH TINGGI 2","TIPE_1":"TRANSPORTASI","TIPE_2":"HALTE","TIPE_3":"-","TELEPON":"0813-8765-0419","ALAMAT":"TANAH TINGGI, KEC. TANGERANG, KOTA TANGERANG, BANTEN","ID_PROV":"36","PROVINSI":"BANTEN","ID_KABKOT":"36.71","KABKOT":"KOTA TANGERANG","ID_KEC":"36.71.01","KECAMATAN":"TANGERANG","ID_DESA":"36.71.01.1003","DESA":"TANAH TINGGI","LONGITUDE":106.64573,"LATITUDE":-6.17541,"STATUS":"BUKA","TANGGAL PENGUMPULAN":"Q2 2024","TANGGAL UPDATE":"27/07/2025"}},{"type":"Feature","geometry":{"coordinates":[106.64649,-6.17561],"type":"Point"},"properties":{"fid":302,"NAMA":"HALTE STASIUN TANAH TINGI 1","TIPE_1":"TRANSPORTASI","TIPE_2":"HALTE","TIPE_3":"-","TELEPON":"","ALAMAT":"JL. BENTENG BETAWI, TANAH TINGGI, KEC. TANGERANG, KOTA TANGERANG, BANTEN 15119","ID_PROV":"36","PROVINSI":"BANTEN","ID_KABKOT":"36.71","KABKOT":"KOTA TANGERANG","ID_KEC":"36.71.01","KECAMATAN":"TANGERANG","ID_DESA":"36.71.01.1004","DESA":"BUARAN INDAH","LONGITUDE":106.64649,"LATITUDE":-6.17561,"STATUS":"BUKA","TANGGAL PENGUMPULAN":"Q2 2024","TANGGAL UPDATE":"27/07/2025"}},{"type":"Feature","geometry":{"coordinates":[106.6445442,-6.1767663],"type":"Point"},"properties":{"fid":303,"NAMA":"HALTE SUDIRMAN","TIPE_1":"TRANSPORTASI","TIPE_2":"HALTE","TIPE_3":"-","TELEPON":"","ALAMAT":"E79, JL. JENDERAL SUDIRMAN, RT.005/RW.001, BUARAN INDAH, KEC. TANGERANG, KOTA TANGERANG, BANTEN 15119","ID_PROV":"36","PROVINSI":"BANTEN","ID_KABKOT":"36.71","KABKOT":"KOTA TANGERANG","ID_KEC":"36.71.01","KECAMATAN":"TANGERANG","ID_DESA":"36.71.01.1004","DESA":"BUARAN INDAH","LONGITUDE":106.6445442,"LATITUDE":-6.1767663,"STATUS":"BUKA","TANGGAL PENGUMPULAN":"Q2 2024","TANGGAL UPDATE":"27/07/2025"}},{"type":"Feature","geometry":{"coordinates":[106.7454468,-6.2365067],"type":"Point"},"properties":{"fid":304,"NAMA":"HALTE SULAIMAN","TIPE_1":"TRANSPORTASI","TIPE_2":"HALTE","TIPE_3":"-","TELEPON":"","ALAMAT":"JL. CILEDUG RAYA NO.56-57, PETUKANGAN UTARA, KEC. PESANGGRAHAN, KOTA JAKARTA SELATAN, DAERAH KHUSUS IBUKOTA JAKARTA 12260","ID_PROV":"36","PROVINSI":"BANTEN","ID_KABKOT":"36.71","KABKOT":"KOTA TANGERANG","ID_KEC":"36.71.13","KECAMATAN":"LARANGAN","ID_DESA":"36.71.13.1008","DESA":"KREO SELATAN","LONGITUDE":106.7454468,"LATITUDE":-6.2365067,"STATUS":"BUKA","TANGGAL PENGUMPULAN":"Q2 2024","TANGGAL UPDATE":"27/07/2025"}},{"type":"Feature","geometry":{"coordinates":[106.6139238,-6.2073861],"type":"Point"},"properties":{"fid":307,"NAMA":"HALTE TAYO! CEMARA","TIPE_1":"TRANSPORTASI","TIPE_2":"HALTE","TIPE_3":"-","TELEPON":"","ALAMAT":"RT.009/RW.002, KARAWACI BARU, KARAWACI, TANGERANG CITY, BANTEN 15116","ID_PROV":"36","PROVINSI":"BANTEN","ID_KABKOT":"36.71","KABKOT":"KOTA TANGERANG","ID_KEC":"36.71.07","KECAMATAN":"KARAWACI","ID_DESA":"36.71.07.1003","DESA":"KARAWACI BARU","LONGITUDE":106.6139238,"LATITUDE":-6.2073861,"STATUS":"BUKA","TANGGAL PENGUMPULAN":"Q2 2024","TANGGAL UPDATE":"27/07/2025"}},{"type":"Feature","geometry":{"coordinates":[106.6848118,-6.1993277],"type":"Point"},"properties":{"fid":308,"NAMA":"HALTE TAYO! KENANGA","TIPE_1":"TRANSPORTASI","TIPE_2":"HALTE","TIPE_3":"-","TELEPON":"","ALAMAT":"JL. CIPONDOH RAYA NO.70, RT.003/RW.006, KENANGA, KEC. CIPONDOH, KOTA TANGERANG, BANTEN 15146","ID_PROV":"36","PROVINSI":"BANTEN","ID_KABKOT":"36.71","KABKOT":"KOTA TANGERANG","ID_KEC":"36.71.05","KECAMATAN":"CIPONDOH","ID_DESA":"36.71.05.1005","DESA":"KENANGA","LONGITUDE":106.6848118,"LATITUDE":-6.1993277,"STATUS":"BUKA","TANGGAL PENGUMPULAN":"Q2 2024","TANGGAL UPDATE":"27/07/2025"}},{"type":"Feature","geometry":{"coordinates":[106.6888956,-6.2019321],"type":"Point"},"properties":{"fid":309,"NAMA":"HALTE TAYO! NEROGTOG","TIPE_1":"TRANSPORTASI","TIPE_2":"HALTE","TIPE_3":"-","TELEPON":"","ALAMAT":"RT.002/RW.002, NEROGTOG, PINANG, TANGERANG CITY, BANTEN 15145","ID_PROV":"36","PROVINSI":"BANTEN","ID_KABKOT":"36.71","KABKOT":"KOTA TANGERANG","ID_KEC":"36.71.11","KECAMATAN":"PINANG","ID_DESA":"36.71.11.1003","DESA":"NEROKTOG","LONGITUDE":106.6888956,"LATITUDE":-6.2019321,"STATUS":"BUKA","TANGGAL PENGUMPULAN":"Q2 2024","TANGGAL UPDATE":"27/07/2025"}},{"type":"Feature","geometry":{"coordinates":[106.662068,-6.187863],"type":"Point"},"properties":{"fid":310,"NAMA":"HALTE TAYO! PORIS PLAWAD 2","TIPE_1":"TRANSPORTASI","TIPE_2":"HALTE","TIPE_3":"-","TELEPON":"","ALAMAT":"JL. KH. HASYIM ASHARI NO.38, RT.002/RW.016, PORIS PLAWAD INDAH, KEC. CIPONDOH, KOTA TANGERANG, BANTEN 15141","ID_PROV":"36","PROVINSI":"BANTEN","ID_KABKOT":"36.71","KABKOT":"KOTA TANGERANG","ID_KEC":"36.71.05","KECAMATAN":"CIPONDOH","ID_DESA":"36.71.05.1010","DESA":"PORIS PLAWAD INDAH","LONGITUDE":106.662068,"LATITUDE":-6.187863,"STATUS":"BUKA","TANGGAL PENGUMPULAN":"Q2 2024","TANGGAL UPDATE":"27/07/2025"}},{"type":"Feature","geometry":{"coordinates":[106.6150145,-6.2106448],"type":"Point"},"properties":{"fid":311,"NAMA":"HALTE TAYO! TAMAN PISANG","TIPE_1":"TRANSPORTASI","TIPE_2":"HALTE","TIPE_3":"-","TELEPON":"","ALAMAT":"RT.001/RW.012, NUSA JAYA, KARAWACI, TANGERANG CITY, BANTEN 15138","ID_PROV":"36","PROVINSI":"BANTEN","ID_KABKOT":"36.71","KABKOT":"KOTA TANGERANG","ID_KEC":"36.71.07","KECAMATAN":"KARAWACI","ID_DESA":"36.71.07.1004","DESA":"NUSA JAYA","LONGITUDE":106.6150145,"LATITUDE":-6.2106448,"STATUS":"BUKA","TANGGAL PENGUMPULAN":"Q2 2024","TANGGAL UPDATE":"27/07/2025"}},{"type":"Feature","geometry":{"coordinates":[106.5830851,-6.1721213],"type":"Point"},"properties":{"fid":315,"NAMA":"HALTE TOTAL PERSADA RAYA","TIPE_1":"TRANSPORTASI","TIPE_2":"HALTE","TIPE_3":"-","TELEPON":"","ALAMAT":"HALTE PERSADA RAYA, JL. RAYA VILLA TANGERANG INDAH, RT.003/RW.007, GEMBOR, KEC. PERIUK, KOTA TANGERANG, BANTEN 15133","ID_PROV":"36","PROVINSI":"BANTEN","ID_KABKOT":"36.71","KABKOT":"KOTA TANGERANG","ID_KEC":"36.71.08","KECAMATAN":"PERIUK","ID_DESA":"36.71.08.1002","DESA":"GEMBOR","LONGITUDE":106.5830851,"LATITUDE":-6.1721213,"STATUS":"BUKA","TANGGAL PENGUMPULAN":"Q2 2024","TANGGAL UPDATE":"27/07/2025"}},{"type":"Feature","geometry":{"coordinates":[106.7091661,-6.2228411],"type":"Point"},"properties":{"fid":317,"NAMA":"HALTE TRANS JAKARTA CBD CILEDUG","TIPE_1":"TRANSPORTASI","TIPE_2":"HALTE","TIPE_3":"-","TELEPON":"","ALAMAT":"JL. PALEM GANDA ASRI NO.40, RT.001/RW.003, CENTRAL KARANG, KARANG TENGAH, TANGERANG CITY, BANTEN 15157","ID_PROV":"36","PROVINSI":"BANTEN","ID_KABKOT":"36.71","KABKOT":"KOTA TANGERANG","ID_KEC":"36.71.12","KECAMATAN":"KARANG TENGAH","ID_DESA":"36.71.12.1001","DESA":"KARANG TENGAH","LONGITUDE":106.7091661,"LATITUDE":-6.2228411,"STATUS":"BUKA","TANGGAL PENGUMPULAN":"Q2 2024","TANGGAL UPDATE":"27/07/2025"}},{"type":"Feature","geometry":{"coordinates":[106.6054652,-6.2072368],"type":"Point"},"properties":{"fid":318,"NAMA":"HALTE TRANS TANGERANG MALABAR","TIPE_1":"TRANSPORTASI","TIPE_2":"HALTE","TIPE_3":"-","TELEPON":"","ALAMAT":"JL. BOROBUDUR BLOK C 3 & 5, CIBODAS BARU, CIBODAS, RT.002/RW.012, CIBODAS BARU, KEC. TANGERANG, KOTA TANGERANG, BANTEN 15138","ID_PROV":"36","PROVINSI":"BANTEN","ID_KABKOT":"36.71","KABKOT":"KOTA TANGERANG","ID_KEC":"36.71.09","KECAMATAN":"CIBODAS","ID_DESA":"36.71.09.1003","DESA":"CIBODAS BARU","LONGITUDE":106.6054652,"LATITUDE":-6.2072368,"STATUS":"BUKA","TANGGAL PENGUMPULAN":"Q2 2024","TANGGAL UPDATE":"27/07/2025"}},{"type":"Feature","geometry":{"coordinates":[106.7090661,-6.2227931],"type":"Point"},"properties":{"fid":319,"NAMA":"HALTE TRANSJAKARTA KORIDOR 13 CBD CILEDUG","TIPE_1":"TRANSPORTASI","TIPE_2":"HALTE","TIPE_3":"-","TELEPON":"","ALAMAT":"BLOK A NO.8, RT.001/RW.016, CENTRAL KARANG, KARANG TENGAH, TANGERANG CITY, BANTEN 15157","ID_PROV":"36","PROVINSI":"BANTEN","ID_KABKOT":"36.71","KABKOT":"KOTA TANGERANG","ID_KEC":"36.71.12","KECAMATAN":"KARANG TENGAH","ID_DESA":"36.71.12.1001","DESA":"KARANG TENGAH","LONGITUDE":106.7090661,"LATITUDE":-6.2227931,"STATUS":"BUKA","TANGGAL PENGUMPULAN":"Q2 2024","TANGGAL UPDATE":"27/07/2025"}},{"type":"Feature","geometry":{"coordinates":[106.6174746,-6.2194657],"type":"Point"},"properties":{"fid":320,"NAMA":"HALTE TRANSJAKARTA PALEM SEMI","TIPE_1":"TRANSPORTASI","TIPE_2":"HALTE","TIPE_3":"-","TELEPON":"","ALAMAT":"JL. IMAM BONJOL NO.4/9, RT.001/RW.009, PANUNGGANGAN BAR., KEC. CIBODAS, KOTA TANGERANG, BANTEN 15138","ID_PROV":"36","PROVINSI":"BANTEN","ID_KABKOT":"36.71","KABKOT":"KOTA TANGERANG","ID_KEC":"36.71.09","KECAMATAN":"CIBODAS","ID_DESA":"36.71.09.1004","DESA":"PANUNGGANGAN BARAT","LONGITUDE":106.6174746,"LATITUDE":-6.2194657,"STATUS":"BUKA","TANGGAL PENGUMPULAN":"Q2 2024","TANGGAL UPDATE":"27/07/2025"}},{"type":"Feature","geometry":{"coordinates":[106.6641941,-6.1729823],"type":"Point"},"properties":{"fid":322,"NAMA":"HALTE TRANSJAKARTA TERMINAL PORIS PLAWAD","TIPE_1":"TRANSPORTASI","TIPE_2":"HALTE","TIPE_3":"-","TELEPON":"","ALAMAT":"RT.003/RW.009, PORIS PLAWAD, KEC. CIPONDOH, KOTA TANGERANG, BANTEN 15141","ID_PROV":"36","PROVINSI":"BANTEN","ID_KABKOT":"36.71","KABKOT":"KOTA TANGERANG","ID_KEC":"36.71.05","KECAMATAN":"CIPONDOH","ID_DESA":"36.71.05.1008","DESA":"PORIS PLAWAD","LONGITUDE":106.6641941,"LATITUDE":-6.1729823,"STATUS":"BUKA","TANGGAL PENGUMPULAN":"Q2 2024","TANGGAL UPDATE":"27/07/2025"}},{"type":"Feature","geometry":{"coordinates":[106.6009203,-6.1885478],"type":"Point"},"properties":{"fid":330,"NAMA":"HALTE UWUNG JAYA","TIPE_1":"TRANSPORTASI","TIPE_2":"HALTE","TIPE_3":"-","TELEPON":"","ALAMAT":"JL. GATOT SUBROTO NO.5, RT.001/RW.9, CIBODAS, KEC. CIBODAS, KOTA TANGERANG, BANTEN 15132","ID_PROV":"36","PROVINSI":"BANTEN","ID_KABKOT":"36.71","KABKOT":"KOTA TANGERANG","ID_KEC":"36.71.09","KECAMATAN":"CIBODAS","ID_DESA":"36.71.09.1001","DESA":"CIBODAS","LONGITUDE":106.6009203,"LATITUDE":-6.1885478,"STATUS":"BUKA","TANGGAL PENGUMPULAN":"Q2 2024","TANGGAL UPDATE":"27/07/2025"}},{"type":"Feature","geometry":{"coordinates":[106.624257,-6.2155095],"type":"Point"},"properties":{"fid":333,"NAMA":"INTERNAL BUS STOP","TIPE_1":"TRANSPORTASI","TIPE_2":"HALTE","TIPE_3":"-","TELEPON":"(021) 5460091","ALAMAT":"JL. ENGGANO, RT.002/RW.009, PANUNGGANGAN BAR., KEC. CIBODAS, KOTA TANGERANG, BANTEN 15138","ID_PROV":"36","PROVINSI":"BANTEN","ID_KABKOT":"36.71","KABKOT":"KOTA TANGERANG","ID_KEC":"36.71.09","KECAMATAN":"CIBODAS","ID_DESA":"36.71.09.1004","DESA":"PANUNGGANGAN BARAT","LONGITUDE":106.624257,"LATITUDE":-6.2155095,"STATUS":"BUKA","TANGGAL PENGUMPULAN":"Q2 2024","TANGGAL UPDATE":"27/07/2025"}},{"type":"Feature","geometry":{"coordinates":[106.63044,-6.21618],"type":"Point"},"properties":{"fid":334,"NAMA":"JALAN KEBON NANAS 2","TIPE_1":"TRANSPORTASI","TIPE_2":"HALTE","TIPE_3":"-","TELEPON":"","ALAMAT":"PANUNGGANGAN UTARA, KEC. PINANG, KOTA TANGERANG, BANTEN","ID_PROV":"36","PROVINSI":"BANTEN","ID_KABKOT":"36.71","KABKOT":"KOTA TANGERANG","ID_KEC":"36.71.11","KECAMATAN":"PINANG","ID_DESA":"36.71.11.1010","DESA":"PANUNGGANGAN UTARA","LONGITUDE":106.63044,"LATITUDE":-6.21618,"STATUS":"BUKA","TANGGAL PENGUMPULAN":"Q2 2024","TANGGAL UPDATE":"27/07/2025"}},{"type":"Feature","geometry":{"coordinates":[106.68582,-6.11448],"type":"Point"},"properties":{"fid":336,"NAMA":"JLN. HUSEIN SASTRANEGARA","TIPE_1":"TRANSPORTASI","TIPE_2":"HALTE","TIPE_3":"-","TELEPON":"","ALAMAT":"BENDA, KEC. BENDA, KOTA TANGERANG, BANTEN","ID_PROV":"36","PROVINSI":"BANTEN","ID_KABKOT":"36.71","KABKOT":"KOTA TANGERANG","ID_KEC":"36.71.04","KECAMATAN":"BENDA","ID_DESA":"36.71.04.1003","DESA":"BENDA","LONGITUDE":106.68582,"LATITUDE":-6.11448,"STATUS":"BUKA","TANGGAL PENGUMPULAN":"Q2 2024","TANGGAL UPDATE":"27/07/2025"}},{"type":"Feature","geometry":{"coordinates":[106.6217812,-6.1794695],"type":"Point"},"properties":{"fid":338,"NAMA":"KENAIBAN","TIPE_1":"TRANSPORTASI","TIPE_2":"HALTE","TIPE_3":"-","TELEPON":"","ALAMAT":"JL. RAYA MERDEKA NO.240, RT.002/RW.002, PABUARAN, KEC. KARAWACI, KOTA TANGERANG, BANTEN 15114","ID_PROV":"36","PROVINSI":"BANTEN","ID_KABKOT":"36.71","KABKOT":"KOTA TANGERANG","ID_KEC":"36.71.07","KECAMATAN":"KARAWACI","ID_DESA":"36.71.07.1007","DESA":"PABUARAN","LONGITUDE":106.6217812,"LATITUDE":-6.1794695,"STATUS":"BUKA","TANGGAL PENGUMPULAN":"Q2 2024","TANGGAL UPDATE":"27/07/2025"}},{"type":"Feature","geometry":{"coordinates":[106.6337027,-6.2218855],"type":"Point"},"properties":{"fid":341,"NAMA":"NEW HALTE MASSAGE","TIPE_1":"TRANSPORTASI","TIPE_2":"HALTE","TIPE_3":"-","TELEPON":"","ALAMAT":"JL. MH. THAMRIN NO.5, RT.007/RW.001, NORTH PANUNGGANGAN, PINANG, TANGERANG CITY, BANTEN 15143","ID_PROV":"36","PROVINSI":"BANTEN","ID_KABKOT":"36.71","KABKOT":"KOTA TANGERANG","ID_KEC":"36.71.11","KECAMATAN":"PINANG","ID_DESA":"36.71.11.1010","DESA":"PANUNGGANGAN UTARA","LONGITUDE":106.6337027,"LATITUDE":-6.2218855,"STATUS":"BUKA","TANGGAL PENGUMPULAN":"Q2 2024","TANGGAL UPDATE":"27/07/2025"}},{"type":"Feature","geometry":{"coordinates":[106.7260066,-6.2305346],"type":"Point"},"properties":{"fid":343,"NAMA":"PURI BETA 1","TIPE_1":"TRANSPORTASI","TIPE_2":"HALTE","TIPE_3":"-","TELEPON":"","ALAMAT":"LARANGAN UTARA, KEC. LARANGAN, KOTA TANGERANG, BANTEN","ID_PROV":"36","PROVINSI":"BANTEN","ID_KABKOT":"36.71","KABKOT":"KOTA TANGERANG","ID_KEC":"36.71.13","KECAMATAN":"LARANGAN","ID_DESA":"36.71.13.1001","DESA":"LARANGAN UTARA","LONGITUDE":106.7260066,"LATITUDE":-6.2305346,"STATUS":"BUKA","TANGGAL PENGUMPULAN":"Q2 2024","TANGGAL UPDATE":"27/07/2025"}},{"type":"Feature","geometry":{"coordinates":[106.72364,-6.23052],"type":"Point"},"properties":{"fid":344,"NAMA":"PURI BETA 2","TIPE_1":"TRANSPORTASI","TIPE_2":"HALTE","TIPE_3":"-","TELEPON":"","ALAMAT":"KARANG TIM., KEC. KARANG TENGAH, KOTA TANGERANG, BANTEN 15157","ID_PROV":"36","PROVINSI":"BANTEN","ID_KABKOT":"36.71","KABKOT":"KOTA TANGERANG","ID_KEC":"36.71.13","KECAMATAN":"LARANGAN","ID_DESA":"36.71.13.1001","DESA":"LARANGAN UTARA","LONGITUDE":106.72364,"LATITUDE":-6.23052,"STATUS":"BUKA","TANGGAL PENGUMPULAN":"Q2 2024","TANGGAL UPDATE":"27/07/2025"}},{"type":"Feature","geometry":{"coordinates":[106.6346925,-6.1945046],"type":"Point"},"properties":{"fid":352,"NAMA":"TANGERANG CITY 2","TIPE_1":"TRANSPORTASI","TIPE_2":"HALTE","TIPE_3":"-","TELEPON":"","ALAMAT":"JALAN JEND. SUDIRMAN, KECAMATAN TANGERANG, KOTA TANGERANG, BANTEN 15118","ID_PROV":"36","PROVINSI":"BANTEN","ID_KABKOT":"36.71","KABKOT":"KOTA TANGERANG","ID_KEC":"36.71.01","KECAMATAN":"TANGERANG","ID_DESA":"36.71.01.1008","DESA":"BABAKAN","LONGITUDE":106.6346925,"LATITUDE":-6.1945046,"STATUS":"BUKA","TANGGAL PENGUMPULAN":"Q2 2024","TANGGAL UPDATE":"27/07/2025"}},{"type":"Feature","geometry":{"coordinates":[106.62834,-6.20756],"type":"Point"},"properties":{"fid":356,"NAMA":"TRANSMART MH THAMRIN 1","TIPE_1":"TRANSPORTASI","TIPE_2":"HALTE","TIPE_3":"-","TELEPON":"","ALAMAT":"CIKOKOL, KEC. TANGERANG, KOTA TANGERANG, BANTEN","ID_PROV":"36","PROVINSI":"BANTEN","ID_KABKOT":"36.71","KABKOT":"KOTA TANGERANG","ID_KEC":"36.71.01","KECAMATAN":"TANGERANG","ID_DESA":"36.71.01.1005","DESA":"CIKOKOL","LONGITUDE":106.62834,"LATITUDE":-6.20756,"STATUS":"BUKA","TANGGAL PENGUMPULAN":"Q2 2024","TANGGAL UPDATE":"27/07/2025"}},{"type":"Feature","geometry":{"coordinates":[106.6304171,-6.2160704],"type":"Point"},"properties":{"fid":357,"NAMA":"WEBSITE ANIME","TIPE_1":"TRANSPORTASI","TIPE_2":"HALTE","TIPE_3":"-","TELEPON":"","ALAMAT":"JL MH THAMRIN, GANG MADRASAH JL. KB. NANAS, KOTA TANGERANG, BANTEN 15143","ID_PROV":"36","PROVINSI":"BANTEN","ID_KABKOT":"36.71","KABKOT":"KOTA TANGERANG","ID_KEC":"36.71.11","KECAMATAN":"PINANG","ID_DESA":"36.71.11.1010","DESA":"PANUNGGANGAN UTARA","LONGITUDE":106.6304171,"LATITUDE":-6.2160704,"STATUS":"BUKA","TANGGAL PENGUMPULAN":"Q2 2024","TANGGAL UPDATE":"27/07/2025"}}]}