{"type":"FeatureCollection","features":[{"type":"Feature","geometry":{"coordinates":[[[106.68721156886232,-6.092784884509745],[106.69619472170352,-6.092784884509745],[106.69619472170352,-6.101776739792688],[106.68721156886232,-6.101776739792688],[106.68721156886232,-6.092784884509745]]],"type":"Polygon"},"properties":{"fid":493981,"ID_GRID":5026587,"INDEKS":0.3435185440349494,"STATUS":"CUKUP","ID_PROV":"31","PROVINSI":"DKI JAKARTA","ID_KABKOT":"31.73","KABKOT":"KOTA ADM. JAKARTA BARAT","ID_KEC":"31.73.06","KECAMATAN":"KALIDERES","ID_DESA":"31.73.06.1004","DESA":"KAMAL"}},{"type":"Feature","geometry":{"coordinates":[[[106.68721156886232,-6.101776739792688],[106.69619472170352,-6.101776739792688],[106.69619472170352,-6.110768442227489],[106.68721156886232,-6.110768442227489],[106.68721156886232,-6.101776739792688]]],"type":"Polygon"},"properties":{"fid":493982,"ID_GRID":5026588,"INDEKS":0.373923521341809,"STATUS":"CUKUP","ID_PROV":"31","PROVINSI":"DKI JAKARTA","ID_KABKOT":"31.73","KABKOT":"KOTA ADM. JAKARTA BARAT","ID_KEC":"31.73.06","KECAMATAN":"KALIDERES","ID_DESA":"31.73.06.1004","DESA":"KAMAL"}},{"type":"Feature","geometry":{"coordinates":[[[106.68721156886232,-6.119759991592472],[106.69619472170352,-6.119759991592472],[106.69619472170352,-6.128751387665971],[106.68721156886232,-6.128751387665971],[106.68721156886232,-6.119759991592472]]],"type":"Polygon"},"properties":{"fid":493984,"ID_GRID":5026590,"INDEKS":0.3953670528642634,"STATUS":"CUKUP","ID_PROV":"31","PROVINSI":"DKI JAKARTA","ID_KABKOT":"31.73","KABKOT":"KOTA ADM. JAKARTA BARAT","ID_KEC":"31.73.06","KECAMATAN":"KALIDERES","ID_DESA":"31.73.06.1005","DESA":"PEGADUNGAN"}},{"type":"Feature","geometry":{"coordinates":[[[106.68721156886232,-6.128751387665971],[106.69619472170352,-6.128751387665971],[106.69619472170352,-6.137742630226345],[106.68721156886232,-6.137742630226345],[106.68721156886232,-6.128751387665971]]],"type":"Polygon"},"properties":{"fid":493985,"ID_GRID":5026591,"INDEKS":0.3074414944216349,"STATUS":"CUKUP","ID_PROV":"31","PROVINSI":"DKI JAKARTA","ID_KABKOT":"31.73","KABKOT":"KOTA ADM. JAKARTA BARAT","ID_KEC":"31.73.06","KECAMATAN":"KALIDERES","ID_DESA":"31.73.06.1005","DESA":"PEGADUNGAN"}},{"type":"Feature","geometry":{"coordinates":[[[106.68721156886232,-6.137742630226345],[106.69619472170352,-6.137742630226345],[106.69619472170352,-6.146733719051968],[106.68721156886232,-6.146733719051968],[106.68721156886232,-6.137742630226345]]],"type":"Polygon"},"properties":{"fid":493986,"ID_GRID":5026592,"INDEKS":0.26494614890784274,"STATUS":"CUKUP","ID_PROV":"31","PROVINSI":"DKI JAKARTA","ID_KABKOT":"31.73","KABKOT":"KOTA ADM. JAKARTA BARAT","ID_KEC":"31.73.06","KECAMATAN":"KALIDERES","ID_DESA":"31.73.06.1001","DESA":"KALIDERES"}},{"type":"Feature","geometry":{"coordinates":[[[106.68721156886232,-6.146733719051968],[106.69619472170352,-6.146733719051968],[106.69619472170352,-6.155724653921241],[106.68721156886232,-6.155724653921241],[106.68721156886232,-6.146733719051968]]],"type":"Polygon"},"properties":{"fid":493987,"ID_GRID":5026593,"INDEKS":0.23985753707096327,"STATUS":"CUKUP","ID_PROV":"31","PROVINSI":"DKI JAKARTA","ID_KABKOT":"31.73","KABKOT":"KOTA ADM. JAKARTA BARAT","ID_KEC":"31.73.06","KECAMATAN":"KALIDERES","ID_DESA":"31.73.06.1001","DESA":"KALIDERES"}},{"type":"Feature","geometry":{"coordinates":[[[106.68721156886232,-6.155724653921241],[106.69619472170352,-6.155724653921241],[106.69619472170352,-6.164715434612578],[106.68721156886232,-6.164715434612578],[106.68721156886232,-6.155724653921241]]],"type":"Polygon"},"properties":{"fid":493988,"ID_GRID":5026594,"INDEKS":0.3121203792968182,"STATUS":"CUKUP","ID_PROV":"31","PROVINSI":"DKI JAKARTA","ID_KABKOT":"31.73","KABKOT":"KOTA ADM. JAKARTA BARAT","ID_KEC":"31.73.06","KECAMATAN":"KALIDERES","ID_DESA":"31.73.06.1001","DESA":"KALIDERES"}},{"type":"Feature","geometry":{"coordinates":[[[106.68721156886232,-6.164715434612578],[106.69619472170352,-6.164715434612578],[106.69619472170352,-6.173706060904413],[106.68721156886232,-6.173706060904413],[106.68721156886232,-6.164715434612578]]],"type":"Polygon"},"properties":{"fid":493989,"ID_GRID":5026595,"INDEKS":0.33585885147965205,"STATUS":"CUKUP","ID_PROV":"31","PROVINSI":"DKI JAKARTA","ID_KABKOT":"31.73","KABKOT":"KOTA ADM. JAKARTA BARAT","ID_KEC":"31.73.06","KECAMATAN":"KALIDERES","ID_DESA":"31.73.06.1002","DESA":"SEMANAN"}},{"type":"Feature","geometry":{"coordinates":[[[106.69619472170352,-6.092784884509745],[106.7051778745447,-6.092784884509745],[106.7051778745447,-6.101776739792688],[106.69619472170352,-6.101776739792688],[106.69619472170352,-6.092784884509745]]],"type":"Polygon"},"properties":{"fid":494170,"ID_GRID":5029587,"INDEKS":0.2765831800377493,"STATUS":"CUKUP","ID_PROV":"31","PROVINSI":"DKI JAKARTA","ID_KABKOT":"31.73","KABKOT":"KOTA ADM. JAKARTA BARAT","ID_KEC":"31.73.06","KECAMATAN":"KALIDERES","ID_DESA":"31.73.06.1004","DESA":"KAMAL"}},{"type":"Feature","geometry":{"coordinates":[[[106.69619472170352,-6.101776739792688],[106.7051778745447,-6.101776739792688],[106.7051778745447,-6.110768442227489],[106.69619472170352,-6.110768442227489],[106.69619472170352,-6.101776739792688]]],"type":"Polygon"},"properties":{"fid":494171,"ID_GRID":5029588,"INDEKS":0.3320701953933413,"STATUS":"CUKUP","ID_PROV":"31","PROVINSI":"DKI JAKARTA","ID_KABKOT":"31.73","KABKOT":"KOTA ADM. JAKARTA BARAT","ID_KEC":"31.73.06","KECAMATAN":"KALIDERES","ID_DESA":"31.73.06.1004","DESA":"KAMAL"}},{"type":"Feature","geometry":{"coordinates":[[[106.69619472170352,-6.110768442227489],[106.7051778745447,-6.110768442227489],[106.7051778745447,-6.119759991592472],[106.69619472170352,-6.119759991592472],[106.69619472170352,-6.110768442227489]]],"type":"Polygon"},"properties":{"fid":494172,"ID_GRID":5029589,"INDEKS":0.3233986026582552,"STATUS":"CUKUP","ID_PROV":"31","PROVINSI":"DKI JAKARTA","ID_KABKOT":"31.73","KABKOT":"KOTA ADM. JAKARTA BARAT","ID_KEC":"31.73.06","KECAMATAN":"KALIDERES","ID_DESA":"31.73.06.1004","DESA":"KAMAL"}},{"type":"Feature","geometry":{"coordinates":[[[106.69619472170352,-6.119759991592472],[106.7051778745447,-6.119759991592472],[106.7051778745447,-6.128751387665971],[106.69619472170352,-6.128751387665971],[106.69619472170352,-6.119759991592472]]],"type":"Polygon"},"properties":{"fid":494173,"ID_GRID":5029590,"INDEKS":0.3234128415339649,"STATUS":"CUKUP","ID_PROV":"31","PROVINSI":"DKI JAKARTA","ID_KABKOT":"31.73","KABKOT":"KOTA ADM. JAKARTA BARAT","ID_KEC":"31.73.06","KECAMATAN":"KALIDERES","ID_DESA":"31.73.06.1005","DESA":"PEGADUNGAN"}},{"type":"Feature","geometry":{"coordinates":[[[106.69619472170352,-6.128751387665971],[106.7051778745447,-6.128751387665971],[106.7051778745447,-6.137742630226345],[106.69619472170352,-6.137742630226345],[106.69619472170352,-6.128751387665971]]],"type":"Polygon"},"properties":{"fid":494174,"ID_GRID":5029591,"INDEKS":0.27187155837229654,"STATUS":"CUKUP","ID_PROV":"31","PROVINSI":"DKI JAKARTA","ID_KABKOT":"31.73","KABKOT":"KOTA ADM. JAKARTA BARAT","ID_KEC":"31.73.06","KECAMATAN":"KALIDERES","ID_DESA":"31.73.06.1005","DESA":"PEGADUNGAN"}},{"type":"Feature","geometry":{"coordinates":[[[106.69619472170352,-6.137742630226345],[106.7051778745447,-6.137742630226345],[106.7051778745447,-6.146733719051968],[106.69619472170352,-6.146733719051968],[106.69619472170352,-6.137742630226345]]],"type":"Polygon"},"properties":{"fid":494175,"ID_GRID":5029592,"INDEKS":0.26643420553329583,"STATUS":"CUKUP","ID_PROV":"31","PROVINSI":"DKI JAKARTA","ID_KABKOT":"31.73","KABKOT":"KOTA ADM. JAKARTA BARAT","ID_KEC":"31.73.06","KECAMATAN":"KALIDERES","ID_DESA":"31.73.06.1005","DESA":"PEGADUNGAN"}},{"type":"Feature","geometry":{"coordinates":[[[106.69619472170352,-6.146733719051968],[106.7051778745447,-6.146733719051968],[106.7051778745447,-6.155724653921241],[106.69619472170352,-6.155724653921241],[106.69619472170352,-6.146733719051968]]],"type":"Polygon"},"properties":{"fid":494176,"ID_GRID":5029593,"INDEKS":0.2482270401190309,"STATUS":"CUKUP","ID_PROV":"31","PROVINSI":"DKI JAKARTA","ID_KABKOT":"31.73","KABKOT":"KOTA ADM. JAKARTA BARAT","ID_KEC":"31.73.06","KECAMATAN":"KALIDERES","ID_DESA":"31.73.06.1001","DESA":"KALIDERES"}},{"type":"Feature","geometry":{"coordinates":[[[106.69619472170352,-6.155724653921241],[106.7051778745447,-6.155724653921241],[106.7051778745447,-6.164715434612578],[106.69619472170352,-6.164715434612578],[106.69619472170352,-6.155724653921241]]],"type":"Polygon"},"properties":{"fid":494177,"ID_GRID":5029594,"INDEKS":0.2855749528011749,"STATUS":"CUKUP","ID_PROV":"31","PROVINSI":"DKI JAKARTA","ID_KABKOT":"31.73","KABKOT":"KOTA ADM. JAKARTA BARAT","ID_KEC":"31.73.06","KECAMATAN":"KALIDERES","ID_DESA":"31.73.06.1002","DESA":"SEMANAN"}},{"type":"Feature","geometry":{"coordinates":[[[106.69619472170352,-6.164715434612578],[106.7051778745447,-6.164715434612578],[106.7051778745447,-6.173706060904413],[106.69619472170352,-6.173706060904413],[106.69619472170352,-6.164715434612578]]],"type":"Polygon"},"properties":{"fid":494178,"ID_GRID":5029595,"INDEKS":0.2797459215191384,"STATUS":"CUKUP","ID_PROV":"31","PROVINSI":"DKI JAKARTA","ID_KABKOT":"31.73","KABKOT":"KOTA ADM. JAKARTA BARAT","ID_KEC":"31.73.06","KECAMATAN":"KALIDERES","ID_DESA":"31.73.06.1002","DESA":"SEMANAN"}},{"type":"Feature","geometry":{"coordinates":[[[106.7051778745447,-6.092784884509745],[106.7141610273859,-6.092784884509745],[106.7141610273859,-6.101776739792688],[106.7051778745447,-6.101776739792688],[106.7051778745447,-6.092784884509745]]],"type":"Polygon"},"properties":{"fid":494359,"ID_GRID":5032587,"INDEKS":0.26492802956126593,"STATUS":"CUKUP","ID_PROV":"31","PROVINSI":"DKI JAKARTA","ID_KABKOT":"31.73","KABKOT":"KOTA ADM. JAKARTA BARAT","ID_KEC":"31.73.06","KECAMATAN":"KALIDERES","ID_DESA":"31.73.06.1004","DESA":"KAMAL"}},{"type":"Feature","geometry":{"coordinates":[[[106.7051778745447,-6.101776739792688],[106.7141610273859,-6.101776739792688],[106.7141610273859,-6.110768442227489],[106.7051778745447,-6.110768442227489],[106.7051778745447,-6.101776739792688]]],"type":"Polygon"},"properties":{"fid":494360,"ID_GRID":5032588,"INDEKS":0.30367045744884114,"STATUS":"CUKUP","ID_PROV":"31","PROVINSI":"DKI JAKARTA","ID_KABKOT":"31.73","KABKOT":"KOTA ADM. JAKARTA BARAT","ID_KEC":"31.73.06","KECAMATAN":"KALIDERES","ID_DESA":"31.73.06.1003","DESA":"TEGAL ALUR"}},{"type":"Feature","geometry":{"coordinates":[[[106.7051778745447,-6.110768442227489],[106.7141610273859,-6.110768442227489],[106.7141610273859,-6.119759991592472],[106.7051778745447,-6.119759991592472],[106.7051778745447,-6.110768442227489]]],"type":"Polygon"},"properties":{"fid":494361,"ID_GRID":5032589,"INDEKS":0.25284497237347814,"STATUS":"CUKUP","ID_PROV":"31","PROVINSI":"DKI JAKARTA","ID_KABKOT":"31.73","KABKOT":"KOTA ADM. JAKARTA BARAT","ID_KEC":"31.73.06","KECAMATAN":"KALIDERES","ID_DESA":"31.73.06.1003","DESA":"TEGAL ALUR"}},{"type":"Feature","geometry":{"coordinates":[[[106.7051778745447,-6.119759991592472],[106.7141610273859,-6.119759991592472],[106.7141610273859,-6.128751387665971],[106.7051778745447,-6.128751387665971],[106.7051778745447,-6.119759991592472]]],"type":"Polygon"},"properties":{"fid":494362,"ID_GRID":5032590,"INDEKS":0.2789801872018293,"STATUS":"CUKUP","ID_PROV":"31","PROVINSI":"DKI JAKARTA","ID_KABKOT":"31.73","KABKOT":"KOTA ADM. JAKARTA BARAT","ID_KEC":"31.73.06","KECAMATAN":"KALIDERES","ID_DESA":"31.73.06.1003","DESA":"TEGAL ALUR"}},{"type":"Feature","geometry":{"coordinates":[[[106.7051778745447,-6.128751387665971],[106.7141610273859,-6.128751387665971],[106.7141610273859,-6.137742630226345],[106.7051778745447,-6.137742630226345],[106.7051778745447,-6.128751387665971]]],"type":"Polygon"},"properties":{"fid":494363,"ID_GRID":5032591,"INDEKS":0.25085531914037124,"STATUS":"CUKUP","ID_PROV":"31","PROVINSI":"DKI JAKARTA","ID_KABKOT":"31.73","KABKOT":"KOTA ADM. JAKARTA BARAT","ID_KEC":"31.73.06","KECAMATAN":"KALIDERES","ID_DESA":"31.73.06.1005","DESA":"PEGADUNGAN"}},{"type":"Feature","geometry":{"coordinates":[[[106.7051778745447,-6.137742630226345],[106.7141610273859,-6.137742630226345],[106.7141610273859,-6.146733719051968],[106.7051778745447,-6.146733719051968],[106.7051778745447,-6.137742630226345]]],"type":"Polygon"},"properties":{"fid":494364,"ID_GRID":5032592,"INDEKS":0.26629955290762847,"STATUS":"CUKUP","ID_PROV":"31","PROVINSI":"DKI JAKARTA","ID_KABKOT":"31.73","KABKOT":"KOTA ADM. JAKARTA BARAT","ID_KEC":"31.73.06","KECAMATAN":"KALIDERES","ID_DESA":"31.73.06.1005","DESA":"PEGADUNGAN"}},{"type":"Feature","geometry":{"coordinates":[[[106.7051778745447,-6.146733719051968],[106.7141610273859,-6.146733719051968],[106.7141610273859,-6.155724653921241],[106.7051778745447,-6.155724653921241],[106.7051778745447,-6.146733719051968]]],"type":"Polygon"},"properties":{"fid":494365,"ID_GRID":5032593,"INDEKS":0.2861465590602574,"STATUS":"CUKUP","ID_PROV":"31","PROVINSI":"DKI JAKARTA","ID_KABKOT":"31.73","KABKOT":"KOTA ADM. JAKARTA BARAT","ID_KEC":"31.73.06","KECAMATAN":"KALIDERES","ID_DESA":"31.73.06.1001","DESA":"KALIDERES"}},{"type":"Feature","geometry":{"coordinates":[[[106.7051778745447,-6.155724653921241],[106.7141610273859,-6.155724653921241],[106.7141610273859,-6.164715434612578],[106.7051778745447,-6.164715434612578],[106.7051778745447,-6.155724653921241]]],"type":"Polygon"},"properties":{"fid":494366,"ID_GRID":5032594,"INDEKS":0.33365460721257634,"STATUS":"CUKUP","ID_PROV":"31","PROVINSI":"DKI JAKARTA","ID_KABKOT":"31.73","KABKOT":"KOTA ADM. JAKARTA BARAT","ID_KEC":"31.73.06","KECAMATAN":"KALIDERES","ID_DESA":"31.73.06.1002","DESA":"SEMANAN"}},{"type":"Feature","geometry":{"coordinates":[[[106.7051778745447,-6.164715434612578],[106.7141610273859,-6.164715434612578],[106.7141610273859,-6.173706060904413],[106.7051778745447,-6.173706060904413],[106.7051778745447,-6.164715434612578]]],"type":"Polygon"},"properties":{"fid":494367,"ID_GRID":5032595,"INDEKS":0.30589892256139506,"STATUS":"CUKUP","ID_PROV":"31","PROVINSI":"DKI JAKARTA","ID_KABKOT":"31.73","KABKOT":"KOTA ADM. JAKARTA BARAT","ID_KEC":"31.73.06","KECAMATAN":"KALIDERES","ID_DESA":"31.73.06.1002","DESA":"SEMANAN"}},{"type":"Feature","geometry":{"coordinates":[[[106.7051778745447,-6.173706060904413],[106.7141610273859,-6.173706060904413],[106.7141610273859,-6.182696532575203],[106.7051778745447,-6.182696532575203],[106.7051778745447,-6.173706060904413]]],"type":"Polygon"},"properties":{"fid":494368,"ID_GRID":5032596,"INDEKS":0.3000260070364743,"STATUS":"CUKUP","ID_PROV":"31","PROVINSI":"DKI JAKARTA","ID_KABKOT":"31.73","KABKOT":"KOTA ADM. JAKARTA BARAT","ID_KEC":"31.73.01","KECAMATAN":"CENGKARENG","ID_DESA":"31.73.01.1002","DESA":"DURI KOSAMBI"}},{"type":"Feature","geometry":{"coordinates":[[[106.7141610273859,-6.101776739792688],[106.72314418022711,-6.101776739792688],[106.72314418022711,-6.110768442227489],[106.7141610273859,-6.110768442227489],[106.7141610273859,-6.101776739792688]]],"type":"Polygon"},"properties":{"fid":494542,"ID_GRID":5035588,"INDEKS":0.20828410742258785,"STATUS":"CUKUP","ID_PROV":"31","PROVINSI":"DKI JAKARTA","ID_KABKOT":"31.73","KABKOT":"KOTA ADM. JAKARTA BARAT","ID_KEC":"31.73.06","KECAMATAN":"KALIDERES","ID_DESA":"31.73.06.1003","DESA":"TEGAL ALUR"}},{"type":"Feature","geometry":{"coordinates":[[[106.7141610273859,-6.110768442227489],[106.72314418022711,-6.110768442227489],[106.72314418022711,-6.119759991592472],[106.7141610273859,-6.119759991592472],[106.7141610273859,-6.110768442227489]]],"type":"Polygon"},"properties":{"fid":494543,"ID_GRID":5035589,"INDEKS":0.23026573392532637,"STATUS":"CUKUP","ID_PROV":"31","PROVINSI":"DKI JAKARTA","ID_KABKOT":"31.73","KABKOT":"KOTA ADM. JAKARTA BARAT","ID_KEC":"31.73.06","KECAMATAN":"KALIDERES","ID_DESA":"31.73.06.1003","DESA":"TEGAL ALUR"}},{"type":"Feature","geometry":{"coordinates":[[[106.7141610273859,-6.119759991592472],[106.72314418022711,-6.119759991592472],[106.72314418022711,-6.128751387665971],[106.7141610273859,-6.128751387665971],[106.7141610273859,-6.119759991592472]]],"type":"Polygon"},"properties":{"fid":494544,"ID_GRID":5035590,"INDEKS":0.23809134745024105,"STATUS":"CUKUP","ID_PROV":"31","PROVINSI":"DKI JAKARTA","ID_KABKOT":"31.73","KABKOT":"KOTA ADM. JAKARTA BARAT","ID_KEC":"31.73.06","KECAMATAN":"KALIDERES","ID_DESA":"31.73.06.1003","DESA":"TEGAL ALUR"}},{"type":"Feature","geometry":{"coordinates":[[[106.7141610273859,-6.128751387665971],[106.72314418022711,-6.128751387665971],[106.72314418022711,-6.137742630226345],[106.7141610273859,-6.137742630226345],[106.7141610273859,-6.128751387665971]]],"type":"Polygon"},"properties":{"fid":494545,"ID_GRID":5035591,"INDEKS":0.28212307808156184,"STATUS":"CUKUP","ID_PROV":"31","PROVINSI":"DKI JAKARTA","ID_KABKOT":"31.73","KABKOT":"KOTA ADM. JAKARTA BARAT","ID_KEC":"31.73.01","KECAMATAN":"CENGKARENG","ID_DESA":"31.73.01.1001","DESA":"CENGKARENG BARAT"}},{"type":"Feature","geometry":{"coordinates":[[[106.7141610273859,-6.137742630226345],[106.72314418022711,-6.137742630226345],[106.72314418022711,-6.146733719051968],[106.7141610273859,-6.146733719051968],[106.7141610273859,-6.137742630226345]]],"type":"Polygon"},"properties":{"fid":494546,"ID_GRID":5035592,"INDEKS":0.2883655497918882,"STATUS":"CUKUP","ID_PROV":"31","PROVINSI":"DKI JAKARTA","ID_KABKOT":"31.73","KABKOT":"KOTA ADM. JAKARTA BARAT","ID_KEC":"31.73.01","KECAMATAN":"CENGKARENG","ID_DESA":"31.73.01.1001","DESA":"CENGKARENG BARAT"}},{"type":"Feature","geometry":{"coordinates":[[[106.7141610273859,-6.146733719051968],[106.72314418022711,-6.146733719051968],[106.72314418022711,-6.155724653921241],[106.7141610273859,-6.155724653921241],[106.7141610273859,-6.146733719051968]]],"type":"Polygon"},"properties":{"fid":494547,"ID_GRID":5035593,"INDEKS":0.2710327820357686,"STATUS":"CUKUP","ID_PROV":"31","PROVINSI":"DKI JAKARTA","ID_KABKOT":"31.73","KABKOT":"KOTA ADM. JAKARTA BARAT","ID_KEC":"31.73.06","KECAMATAN":"KALIDERES","ID_DESA":"31.73.06.1001","DESA":"KALIDERES"}},{"type":"Feature","geometry":{"coordinates":[[[106.7141610273859,-6.155724653921241],[106.72314418022711,-6.155724653921241],[106.72314418022711,-6.164715434612578],[106.7141610273859,-6.164715434612578],[106.7141610273859,-6.155724653921241]]],"type":"Polygon"},"properties":{"fid":494548,"ID_GRID":5035594,"INDEKS":0.3905217289459388,"STATUS":"CUKUP","ID_PROV":"31","PROVINSI":"DKI JAKARTA","ID_KABKOT":"31.73","KABKOT":"KOTA ADM. JAKARTA BARAT","ID_KEC":"31.73.01","KECAMATAN":"CENGKARENG","ID_DESA":"31.73.01.1002","DESA":"DURI KOSAMBI"}},{"type":"Feature","geometry":{"coordinates":[[[106.7141610273859,-6.164715434612578],[106.72314418022711,-6.164715434612578],[106.72314418022711,-6.173706060904413],[106.7141610273859,-6.173706060904413],[106.7141610273859,-6.164715434612578]]],"type":"Polygon"},"properties":{"fid":494549,"ID_GRID":5035595,"INDEKS":0.2848706780988432,"STATUS":"CUKUP","ID_PROV":"31","PROVINSI":"DKI JAKARTA","ID_KABKOT":"31.73","KABKOT":"KOTA ADM. JAKARTA BARAT","ID_KEC":"31.73.01","KECAMATAN":"CENGKARENG","ID_DESA":"31.73.01.1002","DESA":"DURI KOSAMBI"}},{"type":"Feature","geometry":{"coordinates":[[[106.7141610273859,-6.173706060904413],[106.72314418022711,-6.173706060904413],[106.72314418022711,-6.182696532575203],[106.7141610273859,-6.182696532575203],[106.7141610273859,-6.173706060904413]]],"type":"Polygon"},"properties":{"fid":494550,"ID_GRID":5035596,"INDEKS":0.28041534362204784,"STATUS":"CUKUP","ID_PROV":"31","PROVINSI":"DKI JAKARTA","ID_KABKOT":"31.73","KABKOT":"KOTA ADM. JAKARTA BARAT","ID_KEC":"31.73.01","KECAMATAN":"CENGKARENG","ID_DESA":"31.73.01.1002","DESA":"DURI KOSAMBI"}},{"type":"Feature","geometry":{"coordinates":[[[106.72314418022711,-6.119759991592472],[106.7321273330683,-6.119759991592472],[106.7321273330683,-6.128751387665971],[106.72314418022711,-6.128751387665971],[106.72314418022711,-6.119759991592472]]],"type":"Polygon"},"properties":{"fid":494727,"ID_GRID":5038590,"INDEKS":0.28145894446252334,"STATUS":"CUKUP","ID_PROV":"31","PROVINSI":"DKI JAKARTA","ID_KABKOT":"31.73","KABKOT":"KOTA ADM. JAKARTA BARAT","ID_KEC":"31.73.06","KECAMATAN":"KALIDERES","ID_DESA":"31.73.06.1003","DESA":"TEGAL ALUR"}},{"type":"Feature","geometry":{"coordinates":[[[106.72314418022711,-6.128751387665971],[106.7321273330683,-6.128751387665971],[106.7321273330683,-6.137742630226345],[106.72314418022711,-6.137742630226345],[106.72314418022711,-6.128751387665971]]],"type":"Polygon"},"properties":{"fid":494728,"ID_GRID":5038591,"INDEKS":0.23893586157052488,"STATUS":"CUKUP","ID_PROV":"31","PROVINSI":"DKI JAKARTA","ID_KABKOT":"31.73","KABKOT":"KOTA ADM. JAKARTA BARAT","ID_KEC":"31.73.01","KECAMATAN":"CENGKARENG","ID_DESA":"31.73.01.1001","DESA":"CENGKARENG BARAT"}},{"type":"Feature","geometry":{"coordinates":[[[106.72314418022711,-6.137742630226345],[106.7321273330683,-6.137742630226345],[106.7321273330683,-6.146733719051968],[106.72314418022711,-6.146733719051968],[106.72314418022711,-6.137742630226345]]],"type":"Polygon"},"properties":{"fid":494729,"ID_GRID":5038592,"INDEKS":0.2856780916465689,"STATUS":"CUKUP","ID_PROV":"31","PROVINSI":"DKI JAKARTA","ID_KABKOT":"31.73","KABKOT":"KOTA ADM. JAKARTA BARAT","ID_KEC":"31.73.01","KECAMATAN":"CENGKARENG","ID_DESA":"31.73.01.1001","DESA":"CENGKARENG BARAT"}},{"type":"Feature","geometry":{"coordinates":[[[106.72314418022711,-6.146733719051968],[106.7321273330683,-6.146733719051968],[106.7321273330683,-6.155724653921241],[106.72314418022711,-6.155724653921241],[106.72314418022711,-6.146733719051968]]],"type":"Polygon"},"properties":{"fid":494730,"ID_GRID":5038593,"INDEKS":0.26449864257165717,"STATUS":"CUKUP","ID_PROV":"31","PROVINSI":"DKI JAKARTA","ID_KABKOT":"31.73","KABKOT":"KOTA ADM. JAKARTA BARAT","ID_KEC":"31.73.01","KECAMATAN":"CENGKARENG","ID_DESA":"31.73.01.1006","DESA":"CENGKARENG TIMUR"}},{"type":"Feature","geometry":{"coordinates":[[[106.72314418022711,-6.155724653921241],[106.7321273330683,-6.155724653921241],[106.7321273330683,-6.164715434612578],[106.72314418022711,-6.164715434612578],[106.72314418022711,-6.155724653921241]]],"type":"Polygon"},"properties":{"fid":494731,"ID_GRID":5038594,"INDEKS":0.27802833878898364,"STATUS":"CUKUP","ID_PROV":"31","PROVINSI":"DKI JAKARTA","ID_KABKOT":"31.73","KABKOT":"KOTA ADM. JAKARTA BARAT","ID_KEC":"31.73.01","KECAMATAN":"CENGKARENG","ID_DESA":"31.73.01.1003","DESA":"RAWA BUAYA"}},{"type":"Feature","geometry":{"coordinates":[[[106.72314418022711,-6.164715434612578],[106.7321273330683,-6.164715434612578],[106.7321273330683,-6.173706060904413],[106.72314418022711,-6.173706060904413],[106.72314418022711,-6.164715434612578]]],"type":"Polygon"},"properties":{"fid":494732,"ID_GRID":5038595,"INDEKS":0.31890579548111575,"STATUS":"CUKUP","ID_PROV":"31","PROVINSI":"DKI JAKARTA","ID_KABKOT":"31.73","KABKOT":"KOTA ADM. JAKARTA BARAT","ID_KEC":"31.73.01","KECAMATAN":"CENGKARENG","ID_DESA":"31.73.01.1002","DESA":"DURI KOSAMBI"}},{"type":"Feature","geometry":{"coordinates":[[[106.72314418022711,-6.173706060904413],[106.7321273330683,-6.173706060904413],[106.7321273330683,-6.182696532575203],[106.72314418022711,-6.182696532575203],[106.72314418022711,-6.173706060904413]]],"type":"Polygon"},"properties":{"fid":494733,"ID_GRID":5038596,"INDEKS":0.34870916054580864,"STATUS":"CUKUP","ID_PROV":"31","PROVINSI":"DKI JAKARTA","ID_KABKOT":"31.73","KABKOT":"KOTA ADM. JAKARTA BARAT","ID_KEC":"31.73.01","KECAMATAN":"CENGKARENG","ID_DESA":"31.73.01.1002","DESA":"DURI KOSAMBI"}},{"type":"Feature","geometry":{"coordinates":[[[106.72314418022711,-6.182696532575203],[106.7321273330683,-6.182696532575203],[106.7321273330683,-6.191686849403425],[106.72314418022711,-6.191686849403425],[106.72314418022711,-6.182696532575203]]],"type":"Polygon"},"properties":{"fid":494734,"ID_GRID":5038597,"INDEKS":0.3801787418318305,"STATUS":"CUKUP","ID_PROV":"31","PROVINSI":"DKI JAKARTA","ID_KABKOT":"31.73","KABKOT":"KOTA ADM. JAKARTA BARAT","ID_KEC":"31.73.08","KECAMATAN":"KEMBANGAN","ID_DESA":"31.73.08.1006","DESA":"KEMBANGAN SELATAN"}},{"type":"Feature","geometry":{"coordinates":[[[106.72314418022711,-6.191686849403425],[106.7321273330683,-6.191686849403425],[106.7321273330683,-6.200677011167568],[106.72314418022711,-6.200677011167568],[106.72314418022711,-6.191686849403425]]],"type":"Polygon"},"properties":{"fid":494735,"ID_GRID":5038598,"INDEKS":0.32763884314513125,"STATUS":"CUKUP","ID_PROV":"31","PROVINSI":"DKI JAKARTA","ID_KABKOT":"31.73","KABKOT":"KOTA ADM. JAKARTA BARAT","ID_KEC":"31.73.08","KECAMATAN":"KEMBANGAN","ID_DESA":"31.73.08.1002","DESA":"MERUYA UTARA"}},{"type":"Feature","geometry":{"coordinates":[[[106.72314418022711,-6.200677011167568],[106.7321273330683,-6.200677011167568],[106.7321273330683,-6.20966701764615],[106.72314418022711,-6.20966701764615],[106.72314418022711,-6.200677011167568]]],"type":"Polygon"},"properties":{"fid":494736,"ID_GRID":5038599,"INDEKS":0.348016800143077,"STATUS":"CUKUP","ID_PROV":"31","PROVINSI":"DKI JAKARTA","ID_KABKOT":"31.73","KABKOT":"KOTA ADM. JAKARTA BARAT","ID_KEC":"31.73.08","KECAMATAN":"KEMBANGAN","ID_DESA":"31.73.08.1003","DESA":"MERUYA SELATAN"}},{"type":"Feature","geometry":{"coordinates":[[[106.72314418022711,-6.20966701764615],[106.7321273330683,-6.20966701764615],[106.7321273330683,-6.218656868617704],[106.72314418022711,-6.218656868617704],[106.72314418022711,-6.20966701764615]]],"type":"Polygon"},"properties":{"fid":494737,"ID_GRID":5038600,"INDEKS":0.3251971654899405,"STATUS":"CUKUP","ID_PROV":"31","PROVINSI":"DKI JAKARTA","ID_KABKOT":"31.73","KABKOT":"KOTA ADM. JAKARTA BARAT","ID_KEC":"31.73.08","KECAMATAN":"KEMBANGAN","ID_DESA":"31.73.08.1003","DESA":"MERUYA SELATAN"}},{"type":"Feature","geometry":{"coordinates":[[[106.72314418022711,-6.218656868617704],[106.7321273330683,-6.218656868617704],[106.7321273330683,-6.227646563860785],[106.72314418022711,-6.227646563860785],[106.72314418022711,-6.218656868617704]]],"type":"Polygon"},"properties":{"fid":494738,"ID_GRID":5038601,"INDEKS":0.2878653875658463,"STATUS":"CUKUP","ID_PROV":"31","PROVINSI":"DKI JAKARTA","ID_KABKOT":"31.73","KABKOT":"KOTA ADM. JAKARTA BARAT","ID_KEC":"31.73.08","KECAMATAN":"KEMBANGAN","ID_DESA":"31.73.08.1005","DESA":"JOGLO"}},{"type":"Feature","geometry":{"coordinates":[[[106.7321273330683,-6.128751387665971],[106.7411104859095,-6.128751387665971],[106.7411104859095,-6.137742630226345],[106.7321273330683,-6.137742630226345],[106.7321273330683,-6.128751387665971]]],"type":"Polygon"},"properties":{"fid":494914,"ID_GRID":5041591,"INDEKS":0.2611887114134483,"STATUS":"CUKUP","ID_PROV":"31","PROVINSI":"DKI JAKARTA","ID_KABKOT":"31.73","KABKOT":"KOTA ADM. JAKARTA BARAT","ID_KEC":"31.73.01","KECAMATAN":"CENGKARENG","ID_DESA":"31.73.01.1006","DESA":"CENGKARENG TIMUR"}},{"type":"Feature","geometry":{"coordinates":[[[106.7321273330683,-6.137742630226345],[106.7411104859095,-6.137742630226345],[106.7411104859095,-6.146733719051968],[106.7321273330683,-6.146733719051968],[106.7321273330683,-6.137742630226345]]],"type":"Polygon"},"properties":{"fid":494915,"ID_GRID":5041592,"INDEKS":0.22775202836324798,"STATUS":"CUKUP","ID_PROV":"31","PROVINSI":"DKI JAKARTA","ID_KABKOT":"31.73","KABKOT":"KOTA ADM. JAKARTA BARAT","ID_KEC":"31.73.01","KECAMATAN":"CENGKARENG","ID_DESA":"31.73.01.1006","DESA":"CENGKARENG TIMUR"}},{"type":"Feature","geometry":{"coordinates":[[[106.7321273330683,-6.146733719051968],[106.7411104859095,-6.146733719051968],[106.7411104859095,-6.155724653921241],[106.7321273330683,-6.155724653921241],[106.7321273330683,-6.146733719051968]]],"type":"Polygon"},"properties":{"fid":494916,"ID_GRID":5041593,"INDEKS":0.23596421527591618,"STATUS":"CUKUP","ID_PROV":"31","PROVINSI":"DKI JAKARTA","ID_KABKOT":"31.73","KABKOT":"KOTA ADM. JAKARTA BARAT","ID_KEC":"31.73.01","KECAMATAN":"CENGKARENG","ID_DESA":"31.73.01.1006","DESA":"CENGKARENG TIMUR"}},{"type":"Feature","geometry":{"coordinates":[[[106.7321273330683,-6.155724653921241],[106.7411104859095,-6.155724653921241],[106.7411104859095,-6.164715434612578],[106.7321273330683,-6.164715434612578],[106.7321273330683,-6.155724653921241]]],"type":"Polygon"},"properties":{"fid":494917,"ID_GRID":5041594,"INDEKS":0.23879843121060984,"STATUS":"CUKUP","ID_PROV":"31","PROVINSI":"DKI JAKARTA","ID_KABKOT":"31.73","KABKOT":"KOTA ADM. JAKARTA BARAT","ID_KEC":"31.73.01","KECAMATAN":"CENGKARENG","ID_DESA":"31.73.01.1003","DESA":"RAWA BUAYA"}},{"type":"Feature","geometry":{"coordinates":[[[106.7321273330683,-6.164715434612578],[106.7411104859095,-6.164715434612578],[106.7411104859095,-6.173706060904413],[106.7321273330683,-6.173706060904413],[106.7321273330683,-6.164715434612578]]],"type":"Polygon"},"properties":{"fid":494918,"ID_GRID":5041595,"INDEKS":0.3236206516527714,"STATUS":"CUKUP","ID_PROV":"31","PROVINSI":"DKI JAKARTA","ID_KABKOT":"31.73","KABKOT":"KOTA ADM. JAKARTA BARAT","ID_KEC":"31.73.01","KECAMATAN":"CENGKARENG","ID_DESA":"31.73.01.1003","DESA":"RAWA BUAYA"}},{"type":"Feature","geometry":{"coordinates":[[[106.7321273330683,-6.173706060904413],[106.7411104859095,-6.173706060904413],[106.7411104859095,-6.182696532575203],[106.7321273330683,-6.182696532575203],[106.7321273330683,-6.173706060904413]]],"type":"Polygon"},"properties":{"fid":494919,"ID_GRID":5041596,"INDEKS":0.3008925535063693,"STATUS":"CUKUP","ID_PROV":"31","PROVINSI":"DKI JAKARTA","ID_KABKOT":"31.73","KABKOT":"KOTA ADM. JAKARTA BARAT","ID_KEC":"31.73.08","KECAMATAN":"KEMBANGAN","ID_DESA":"31.73.08.1001","DESA":"KEMBANGAN UTARA"}},{"type":"Feature","geometry":{"coordinates":[[[106.7321273330683,-6.182696532575203],[106.7411104859095,-6.182696532575203],[106.7411104859095,-6.191686849403425],[106.7321273330683,-6.191686849403425],[106.7321273330683,-6.182696532575203]]],"type":"Polygon"},"properties":{"fid":494920,"ID_GRID":5041597,"INDEKS":0.3299385159386748,"STATUS":"CUKUP","ID_PROV":"31","PROVINSI":"DKI JAKARTA","ID_KABKOT":"31.73","KABKOT":"KOTA ADM. JAKARTA BARAT","ID_KEC":"31.73.08","KECAMATAN":"KEMBANGAN","ID_DESA":"31.73.08.1006","DESA":"KEMBANGAN SELATAN"}},{"type":"Feature","geometry":{"coordinates":[[[106.7321273330683,-6.191686849403425],[106.7411104859095,-6.191686849403425],[106.7411104859095,-6.200677011167568],[106.7321273330683,-6.200677011167568],[106.7321273330683,-6.191686849403425]]],"type":"Polygon"},"properties":{"fid":494921,"ID_GRID":5041598,"INDEKS":0.29388603922676915,"STATUS":"CUKUP","ID_PROV":"31","PROVINSI":"DKI JAKARTA","ID_KABKOT":"31.73","KABKOT":"KOTA ADM. JAKARTA BARAT","ID_KEC":"31.73.08","KECAMATAN":"KEMBANGAN","ID_DESA":"31.73.08.1002","DESA":"MERUYA UTARA"}},{"type":"Feature","geometry":{"coordinates":[[[106.7321273330683,-6.200677011167568],[106.7411104859095,-6.200677011167568],[106.7411104859095,-6.20966701764615],[106.7321273330683,-6.20966701764615],[106.7321273330683,-6.200677011167568]]],"type":"Polygon"},"properties":{"fid":494922,"ID_GRID":5041599,"INDEKS":0.33607963049105266,"STATUS":"CUKUP","ID_PROV":"31","PROVINSI":"DKI JAKARTA","ID_KABKOT":"31.73","KABKOT":"KOTA ADM. JAKARTA BARAT","ID_KEC":"31.73.08","KECAMATAN":"KEMBANGAN","ID_DESA":"31.73.08.1003","DESA":"MERUYA SELATAN"}},{"type":"Feature","geometry":{"coordinates":[[[106.7321273330683,-6.20966701764615],[106.7411104859095,-6.20966701764615],[106.7411104859095,-6.218656868617704],[106.7321273330683,-6.218656868617704],[106.7321273330683,-6.20966701764615]]],"type":"Polygon"},"properties":{"fid":494923,"ID_GRID":5041600,"INDEKS":0.31910480519190526,"STATUS":"CUKUP","ID_PROV":"31","PROVINSI":"DKI JAKARTA","ID_KABKOT":"31.73","KABKOT":"KOTA ADM. JAKARTA BARAT","ID_KEC":"31.73.08","KECAMATAN":"KEMBANGAN","ID_DESA":"31.73.08.1003","DESA":"MERUYA SELATAN"}},{"type":"Feature","geometry":{"coordinates":[[[106.7321273330683,-6.218656868617704],[106.7411104859095,-6.218656868617704],[106.7411104859095,-6.227646563860785],[106.7321273330683,-6.227646563860785],[106.7321273330683,-6.218656868617704]]],"type":"Polygon"},"properties":{"fid":494924,"ID_GRID":5041601,"INDEKS":0.3109859673309666,"STATUS":"CUKUP","ID_PROV":"31","PROVINSI":"DKI JAKARTA","ID_KABKOT":"31.73","KABKOT":"KOTA ADM. JAKARTA BARAT","ID_KEC":"31.73.08","KECAMATAN":"KEMBANGAN","ID_DESA":"31.73.08.1005","DESA":"JOGLO"}},{"type":"Feature","geometry":{"coordinates":[[[106.7411104859095,-6.128751387665971],[106.7500936387507,-6.128751387665971],[106.7500936387507,-6.137742630226345],[106.7411104859095,-6.137742630226345],[106.7411104859095,-6.128751387665971]]],"type":"Polygon"},"properties":{"fid":495092,"ID_GRID":5044591,"INDEKS":0.20721649032349537,"STATUS":"CUKUP","ID_PROV":"31","PROVINSI":"DKI JAKARTA","ID_KABKOT":"31.73","KABKOT":"KOTA ADM. JAKARTA BARAT","ID_KEC":"31.73.01","KECAMATAN":"CENGKARENG","ID_DESA":"31.73.01.1005","DESA":"KAPUK"}},{"type":"Feature","geometry":{"coordinates":[[[106.7411104859095,-6.137742630226345],[106.7500936387507,-6.137742630226345],[106.7500936387507,-6.146733719051968],[106.7411104859095,-6.146733719051968],[106.7411104859095,-6.137742630226345]]],"type":"Polygon"},"properties":{"fid":495093,"ID_GRID":5044592,"INDEKS":0.1919697566356431,"STATUS":"BURUK","ID_PROV":"31","PROVINSI":"DKI JAKARTA","ID_KABKOT":"31.73","KABKOT":"KOTA ADM. JAKARTA BARAT","ID_KEC":"31.73.01","KECAMATAN":"CENGKARENG","ID_DESA":"31.73.01.1005","DESA":"KAPUK"}},{"type":"Feature","geometry":{"coordinates":[[[106.7411104859095,-6.146733719051968],[106.7500936387507,-6.146733719051968],[106.7500936387507,-6.155724653921241],[106.7411104859095,-6.155724653921241],[106.7411104859095,-6.146733719051968]]],"type":"Polygon"},"properties":{"fid":495094,"ID_GRID":5044593,"INDEKS":0.2667316840347334,"STATUS":"CUKUP","ID_PROV":"31","PROVINSI":"DKI JAKARTA","ID_KABKOT":"31.73","KABKOT":"KOTA ADM. JAKARTA BARAT","ID_KEC":"31.73.01","KECAMATAN":"CENGKARENG","ID_DESA":"31.73.01.1005","DESA":"KAPUK"}},{"type":"Feature","geometry":{"coordinates":[[[106.7411104859095,-6.155724653921241],[106.7500936387507,-6.155724653921241],[106.7500936387507,-6.164715434612578],[106.7411104859095,-6.164715434612578],[106.7411104859095,-6.155724653921241]]],"type":"Polygon"},"properties":{"fid":495095,"ID_GRID":5044594,"INDEKS":0.2939142980386184,"STATUS":"CUKUP","ID_PROV":"31","PROVINSI":"DKI JAKARTA","ID_KABKOT":"31.73","KABKOT":"KOTA ADM. JAKARTA BARAT","ID_KEC":"31.73.01","KECAMATAN":"CENGKARENG","ID_DESA":"31.73.01.1003","DESA":"RAWA BUAYA"}},{"type":"Feature","geometry":{"coordinates":[[[106.7411104859095,-6.164715434612578],[106.7500936387507,-6.164715434612578],[106.7500936387507,-6.173706060904413],[106.7411104859095,-6.173706060904413],[106.7411104859095,-6.164715434612578]]],"type":"Polygon"},"properties":{"fid":495096,"ID_GRID":5044595,"INDEKS":0.3075199523877397,"STATUS":"CUKUP","ID_PROV":"31","PROVINSI":"DKI JAKARTA","ID_KABKOT":"31.73","KABKOT":"KOTA ADM. JAKARTA BARAT","ID_KEC":"31.73.08","KECAMATAN":"KEMBANGAN","ID_DESA":"31.73.08.1001","DESA":"KEMBANGAN UTARA"}},{"type":"Feature","geometry":{"coordinates":[[[106.7411104859095,-6.173706060904413],[106.7500936387507,-6.173706060904413],[106.7500936387507,-6.182696532575203],[106.7411104859095,-6.182696532575203],[106.7411104859095,-6.173706060904413]]],"type":"Polygon"},"properties":{"fid":495097,"ID_GRID":5044596,"INDEKS":0.30153044934738127,"STATUS":"CUKUP","ID_PROV":"31","PROVINSI":"DKI JAKARTA","ID_KABKOT":"31.73","KABKOT":"KOTA ADM. JAKARTA BARAT","ID_KEC":"31.73.08","KECAMATAN":"KEMBANGAN","ID_DESA":"31.73.08.1006","DESA":"KEMBANGAN SELATAN"}},{"type":"Feature","geometry":{"coordinates":[[[106.7411104859095,-6.182696532575203],[106.7500936387507,-6.182696532575203],[106.7500936387507,-6.191686849403425],[106.7411104859095,-6.191686849403425],[106.7411104859095,-6.182696532575203]]],"type":"Polygon"},"properties":{"fid":495098,"ID_GRID":5044597,"INDEKS":0.30031135301999373,"STATUS":"CUKUP","ID_PROV":"31","PROVINSI":"DKI JAKARTA","ID_KABKOT":"31.73","KABKOT":"KOTA ADM. JAKARTA BARAT","ID_KEC":"31.73.08","KECAMATAN":"KEMBANGAN","ID_DESA":"31.73.08.1006","DESA":"KEMBANGAN SELATAN"}},{"type":"Feature","geometry":{"coordinates":[[[106.7411104859095,-6.191686849403425],[106.7500936387507,-6.191686849403425],[106.7500936387507,-6.200677011167568],[106.7411104859095,-6.200677011167568],[106.7411104859095,-6.191686849403425]]],"type":"Polygon"},"properties":{"fid":495099,"ID_GRID":5044598,"INDEKS":0.292172366178822,"STATUS":"CUKUP","ID_PROV":"31","PROVINSI":"DKI JAKARTA","ID_KABKOT":"31.73","KABKOT":"KOTA ADM. JAKARTA BARAT","ID_KEC":"31.73.08","KECAMATAN":"KEMBANGAN","ID_DESA":"31.73.08.1002","DESA":"MERUYA UTARA"}},{"type":"Feature","geometry":{"coordinates":[[[106.7411104859095,-6.200677011167568],[106.7500936387507,-6.200677011167568],[106.7500936387507,-6.20966701764615],[106.7411104859095,-6.20966701764615],[106.7411104859095,-6.200677011167568]]],"type":"Polygon"},"properties":{"fid":495100,"ID_GRID":5044599,"INDEKS":0.3635812075971134,"STATUS":"CUKUP","ID_PROV":"31","PROVINSI":"DKI JAKARTA","ID_KABKOT":"31.73","KABKOT":"KOTA ADM. JAKARTA BARAT","ID_KEC":"31.73.08","KECAMATAN":"KEMBANGAN","ID_DESA":"31.73.08.1004","DESA":"SRENGSENG"}},{"type":"Feature","geometry":{"coordinates":[[[106.7411104859095,-6.20966701764615],[106.7500936387507,-6.20966701764615],[106.7500936387507,-6.218656868617704],[106.7411104859095,-6.218656868617704],[106.7411104859095,-6.20966701764615]]],"type":"Polygon"},"properties":{"fid":495101,"ID_GRID":5044600,"INDEKS":0.45067282617639465,"STATUS":"SEDANG","ID_PROV":"31","PROVINSI":"DKI JAKARTA","ID_KABKOT":"31.73","KABKOT":"KOTA ADM. JAKARTA BARAT","ID_KEC":"31.73.08","KECAMATAN":"KEMBANGAN","ID_DESA":"31.73.08.1005","DESA":"JOGLO"}},{"type":"Feature","geometry":{"coordinates":[[[106.7500936387507,-6.137742630226345],[106.75907679159188,-6.137742630226345],[106.75907679159188,-6.146733719051968],[106.7500936387507,-6.146733719051968],[106.7500936387507,-6.137742630226345]]],"type":"Polygon"},"properties":{"fid":495262,"ID_GRID":5047592,"INDEKS":0.23571994266540822,"STATUS":"CUKUP","ID_PROV":"31","PROVINSI":"DKI JAKARTA","ID_KABKOT":"31.73","KABKOT":"KOTA ADM. JAKARTA BARAT","ID_KEC":"31.73.01","KECAMATAN":"CENGKARENG","ID_DESA":"31.73.01.1005","DESA":"KAPUK"}},{"type":"Feature","geometry":{"coordinates":[[[106.7500936387507,-6.146733719051968],[106.75907679159188,-6.146733719051968],[106.75907679159188,-6.155724653921241],[106.7500936387507,-6.155724653921241],[106.7500936387507,-6.146733719051968]]],"type":"Polygon"},"properties":{"fid":495263,"ID_GRID":5047593,"INDEKS":0.39041747997118526,"STATUS":"CUKUP","ID_PROV":"31","PROVINSI":"DKI JAKARTA","ID_KABKOT":"31.73","KABKOT":"KOTA ADM. JAKARTA BARAT","ID_KEC":"31.73.01","KECAMATAN":"CENGKARENG","ID_DESA":"31.73.01.1004","DESA":"KEDAUNG KALI ANGKE"}},{"type":"Feature","geometry":{"coordinates":[[[106.7500936387507,-6.155724653921241],[106.75907679159188,-6.155724653921241],[106.75907679159188,-6.164715434612578],[106.7500936387507,-6.164715434612578],[106.7500936387507,-6.155724653921241]]],"type":"Polygon"},"properties":{"fid":495264,"ID_GRID":5047594,"INDEKS":0.26009815429302463,"STATUS":"CUKUP","ID_PROV":"31","PROVINSI":"DKI JAKARTA","ID_KABKOT":"31.73","KABKOT":"KOTA ADM. JAKARTA BARAT","ID_KEC":"31.73.08","KECAMATAN":"KEMBANGAN","ID_DESA":"31.73.08.1001","DESA":"KEMBANGAN UTARA"}},{"type":"Feature","geometry":{"coordinates":[[[106.7500936387507,-6.164715434612578],[106.75907679159188,-6.164715434612578],[106.75907679159188,-6.173706060904413],[106.7500936387507,-6.173706060904413],[106.7500936387507,-6.164715434612578]]],"type":"Polygon"},"properties":{"fid":495265,"ID_GRID":5047595,"INDEKS":0.2871799457174146,"STATUS":"CUKUP","ID_PROV":"31","PROVINSI":"DKI JAKARTA","ID_KABKOT":"31.73","KABKOT":"KOTA ADM. JAKARTA BARAT","ID_KEC":"31.73.05","KECAMATAN":"KEBON JERUK","ID_DESA":"31.73.05.1006","DESA":"KEDOYA UTARA"}},{"type":"Feature","geometry":{"coordinates":[[[106.7500936387507,-6.173706060904413],[106.75907679159188,-6.173706060904413],[106.75907679159188,-6.182696532575203],[106.7500936387507,-6.182696532575203],[106.7500936387507,-6.173706060904413]]],"type":"Polygon"},"properties":{"fid":495266,"ID_GRID":5047596,"INDEKS":0.3009968419079137,"STATUS":"CUKUP","ID_PROV":"31","PROVINSI":"DKI JAKARTA","ID_KABKOT":"31.73","KABKOT":"KOTA ADM. JAKARTA BARAT","ID_KEC":"31.73.05","KECAMATAN":"KEBON JERUK","ID_DESA":"31.73.05.1007","DESA":"KEDOYA SELATAN"}},{"type":"Feature","geometry":{"coordinates":[[[106.7500936387507,-6.182696532575203],[106.75907679159188,-6.182696532575203],[106.75907679159188,-6.191686849403425],[106.7500936387507,-6.191686849403425],[106.7500936387507,-6.182696532575203]]],"type":"Polygon"},"properties":{"fid":495267,"ID_GRID":5047597,"INDEKS":0.3110629246037274,"STATUS":"CUKUP","ID_PROV":"31","PROVINSI":"DKI JAKARTA","ID_KABKOT":"31.73","KABKOT":"KOTA ADM. JAKARTA BARAT","ID_KEC":"31.73.08","KECAMATAN":"KEMBANGAN","ID_DESA":"31.73.08.1006","DESA":"KEMBANGAN SELATAN"}},{"type":"Feature","geometry":{"coordinates":[[[106.7500936387507,-6.191686849403425],[106.75907679159188,-6.191686849403425],[106.75907679159188,-6.200677011167568],[106.7500936387507,-6.200677011167568],[106.7500936387507,-6.191686849403425]]],"type":"Polygon"},"properties":{"fid":495268,"ID_GRID":5047598,"INDEKS":0.2649859770565297,"STATUS":"CUKUP","ID_PROV":"31","PROVINSI":"DKI JAKARTA","ID_KABKOT":"31.73","KABKOT":"KOTA ADM. JAKARTA BARAT","ID_KEC":"31.73.08","KECAMATAN":"KEMBANGAN","ID_DESA":"31.73.08.1002","DESA":"MERUYA UTARA"}},{"type":"Feature","geometry":{"coordinates":[[[106.7500936387507,-6.200677011167568],[106.75907679159188,-6.200677011167568],[106.75907679159188,-6.20966701764615],[106.7500936387507,-6.20966701764615],[106.7500936387507,-6.200677011167568]]],"type":"Polygon"},"properties":{"fid":495269,"ID_GRID":5047599,"INDEKS":0.2909483802430132,"STATUS":"CUKUP","ID_PROV":"31","PROVINSI":"DKI JAKARTA","ID_KABKOT":"31.73","KABKOT":"KOTA ADM. JAKARTA BARAT","ID_KEC":"31.73.08","KECAMATAN":"KEMBANGAN","ID_DESA":"31.73.08.1004","DESA":"SRENGSENG"}},{"type":"Feature","geometry":{"coordinates":[[[106.7500936387507,-6.20966701764615],[106.75907679159188,-6.20966701764615],[106.75907679159188,-6.218656868617704],[106.7500936387507,-6.218656868617704],[106.7500936387507,-6.20966701764615]]],"type":"Polygon"},"properties":{"fid":495270,"ID_GRID":5047600,"INDEKS":0.37960190744323524,"STATUS":"CUKUP","ID_PROV":"31","PROVINSI":"DKI JAKARTA","ID_KABKOT":"31.73","KABKOT":"KOTA ADM. JAKARTA BARAT","ID_KEC":"31.73.08","KECAMATAN":"KEMBANGAN","ID_DESA":"31.73.08.1005","DESA":"JOGLO"}},{"type":"Feature","geometry":{"coordinates":[[[106.75907679159188,-6.137742630226345],[106.76805994443308,-6.137742630226345],[106.76805994443308,-6.146733719051968],[106.75907679159188,-6.146733719051968],[106.75907679159188,-6.137742630226345]]],"type":"Polygon"},"properties":{"fid":495432,"ID_GRID":5050592,"INDEKS":0.17839774398408537,"STATUS":"BURUK","ID_PROV":"31","PROVINSI":"DKI JAKARTA","ID_KABKOT":"31.73","KABKOT":"KOTA ADM. JAKARTA BARAT","ID_KEC":"31.73.01","KECAMATAN":"CENGKARENG","ID_DESA":"31.73.01.1005","DESA":"KAPUK"}},{"type":"Feature","geometry":{"coordinates":[[[106.75907679159188,-6.146733719051968],[106.76805994443308,-6.146733719051968],[106.76805994443308,-6.155724653921241],[106.75907679159188,-6.155724653921241],[106.75907679159188,-6.146733719051968]]],"type":"Polygon"},"properties":{"fid":495433,"ID_GRID":5050593,"INDEKS":0.23999873428554033,"STATUS":"CUKUP","ID_PROV":"31","PROVINSI":"DKI JAKARTA","ID_KABKOT":"31.73","KABKOT":"KOTA ADM. JAKARTA BARAT","ID_KEC":"31.73.01","KECAMATAN":"CENGKARENG","ID_DESA":"31.73.01.1004","DESA":"KEDAUNG KALI ANGKE"}},{"type":"Feature","geometry":{"coordinates":[[[106.75907679159188,-6.155724653921241],[106.76805994443308,-6.155724653921241],[106.76805994443308,-6.164715434612578],[106.75907679159188,-6.164715434612578],[106.75907679159188,-6.155724653921241]]],"type":"Polygon"},"properties":{"fid":495434,"ID_GRID":5050594,"INDEKS":0.2407166149443284,"STATUS":"CUKUP","ID_PROV":"31","PROVINSI":"DKI JAKARTA","ID_KABKOT":"31.73","KABKOT":"KOTA ADM. JAKARTA BARAT","ID_KEC":"31.73.05","KECAMATAN":"KEBON JERUK","ID_DESA":"31.73.05.1006","DESA":"KEDOYA UTARA"}},{"type":"Feature","geometry":{"coordinates":[[[106.75907679159188,-6.164715434612578],[106.76805994443308,-6.164715434612578],[106.76805994443308,-6.173706060904413],[106.75907679159188,-6.173706060904413],[106.75907679159188,-6.164715434612578]]],"type":"Polygon"},"properties":{"fid":495435,"ID_GRID":5050595,"INDEKS":0.24132172552624134,"STATUS":"CUKUP","ID_PROV":"31","PROVINSI":"DKI JAKARTA","ID_KABKOT":"31.73","KABKOT":"KOTA ADM. JAKARTA BARAT","ID_KEC":"31.73.05","KECAMATAN":"KEBON JERUK","ID_DESA":"31.73.05.1006","DESA":"KEDOYA UTARA"}},{"type":"Feature","geometry":{"coordinates":[[[106.75907679159188,-6.173706060904413],[106.76805994443308,-6.173706060904413],[106.76805994443308,-6.182696532575203],[106.75907679159188,-6.182696532575203],[106.75907679159188,-6.173706060904413]]],"type":"Polygon"},"properties":{"fid":495436,"ID_GRID":5050596,"INDEKS":0.24425975316986043,"STATUS":"CUKUP","ID_PROV":"31","PROVINSI":"DKI JAKARTA","ID_KABKOT":"31.73","KABKOT":"KOTA ADM. JAKARTA BARAT","ID_KEC":"31.73.05","KECAMATAN":"KEBON JERUK","ID_DESA":"31.73.05.1007","DESA":"KEDOYA SELATAN"}},{"type":"Feature","geometry":{"coordinates":[[[106.75907679159188,-6.182696532575203],[106.76805994443308,-6.182696532575203],[106.76805994443308,-6.191686849403425],[106.75907679159188,-6.191686849403425],[106.75907679159188,-6.182696532575203]]],"type":"Polygon"},"properties":{"fid":495437,"ID_GRID":5050597,"INDEKS":0.2785324319389788,"STATUS":"CUKUP","ID_PROV":"31","PROVINSI":"DKI JAKARTA","ID_KABKOT":"31.73","KABKOT":"KOTA ADM. JAKARTA BARAT","ID_KEC":"31.73.05","KECAMATAN":"KEBON JERUK","ID_DESA":"31.73.05.1007","DESA":"KEDOYA SELATAN"}},{"type":"Feature","geometry":{"coordinates":[[[106.75907679159188,-6.191686849403425],[106.76805994443308,-6.191686849403425],[106.76805994443308,-6.200677011167568],[106.75907679159188,-6.200677011167568],[106.75907679159188,-6.191686849403425]]],"type":"Polygon"},"properties":{"fid":495438,"ID_GRID":5050598,"INDEKS":0.27787240067374047,"STATUS":"CUKUP","ID_PROV":"31","PROVINSI":"DKI JAKARTA","ID_KABKOT":"31.73","KABKOT":"KOTA ADM. JAKARTA BARAT","ID_KEC":"31.73.05","KECAMATAN":"KEBON JERUK","ID_DESA":"31.73.05.1001","DESA":"KEBON JERUK"}},{"type":"Feature","geometry":{"coordinates":[[[106.75907679159188,-6.200677011167568],[106.76805994443308,-6.200677011167568],[106.76805994443308,-6.20966701764615],[106.75907679159188,-6.20966701764615],[106.75907679159188,-6.200677011167568]]],"type":"Polygon"},"properties":{"fid":495439,"ID_GRID":5050599,"INDEKS":0.2971855975735396,"STATUS":"CUKUP","ID_PROV":"31","PROVINSI":"DKI JAKARTA","ID_KABKOT":"31.73","KABKOT":"KOTA ADM. JAKARTA BARAT","ID_KEC":"31.73.08","KECAMATAN":"KEMBANGAN","ID_DESA":"31.73.08.1004","DESA":"SRENGSENG"}},{"type":"Feature","geometry":{"coordinates":[[[106.75907679159188,-6.20966701764615],[106.76805994443308,-6.20966701764615],[106.76805994443308,-6.218656868617704],[106.75907679159188,-6.218656868617704],[106.75907679159188,-6.20966701764615]]],"type":"Polygon"},"properties":{"fid":495440,"ID_GRID":5050600,"INDEKS":0.31029332369648066,"STATUS":"CUKUP","ID_PROV":"31","PROVINSI":"DKI JAKARTA","ID_KABKOT":"31.73","KABKOT":"KOTA ADM. JAKARTA BARAT","ID_KEC":"31.73.08","KECAMATAN":"KEMBANGAN","ID_DESA":"31.73.08.1004","DESA":"SRENGSENG"}},{"type":"Feature","geometry":{"coordinates":[[[106.76805994443308,-6.137742630226345],[106.77704309727427,-6.137742630226345],[106.77704309727427,-6.146733719051968],[106.76805994443308,-6.146733719051968],[106.76805994443308,-6.137742630226345]]],"type":"Polygon"},"properties":{"fid":495602,"ID_GRID":5053592,"INDEKS":0.19018722989889764,"STATUS":"BURUK","ID_PROV":"31","PROVINSI":"DKI JAKARTA","ID_KABKOT":"31.73","KABKOT":"KOTA ADM. JAKARTA BARAT","ID_KEC":"31.73.01","KECAMATAN":"CENGKARENG","ID_DESA":"31.73.01.1005","DESA":"KAPUK"}},{"type":"Feature","geometry":{"coordinates":[[[106.76805994443308,-6.146733719051968],[106.77704309727427,-6.146733719051968],[106.77704309727427,-6.155724653921241],[106.76805994443308,-6.155724653921241],[106.76805994443308,-6.146733719051968]]],"type":"Polygon"},"properties":{"fid":495603,"ID_GRID":5053593,"INDEKS":0.2371338364035688,"STATUS":"CUKUP","ID_PROV":"31","PROVINSI":"DKI JAKARTA","ID_KABKOT":"31.73","KABKOT":"KOTA ADM. JAKARTA BARAT","ID_KEC":"31.73.02","KECAMATAN":"GROGOL PETAMBURAN","ID_DESA":"31.73.02.1007","DESA":"WIJAYA KUSUMA"}},{"type":"Feature","geometry":{"coordinates":[[[106.76805994443308,-6.155724653921241],[106.77704309727427,-6.155724653921241],[106.77704309727427,-6.164715434612578],[106.76805994443308,-6.164715434612578],[106.76805994443308,-6.155724653921241]]],"type":"Polygon"},"properties":{"fid":495604,"ID_GRID":5053594,"INDEKS":0.2781660257606905,"STATUS":"CUKUP","ID_PROV":"31","PROVINSI":"DKI JAKARTA","ID_KABKOT":"31.73","KABKOT":"KOTA ADM. JAKARTA BARAT","ID_KEC":"31.73.02","KECAMATAN":"GROGOL PETAMBURAN","ID_DESA":"31.73.02.1007","DESA":"WIJAYA KUSUMA"}},{"type":"Feature","geometry":{"coordinates":[[[106.76805994443308,-6.164715434612578],[106.77704309727427,-6.164715434612578],[106.77704309727427,-6.173706060904413],[106.76805994443308,-6.173706060904413],[106.76805994443308,-6.164715434612578]]],"type":"Polygon"},"properties":{"fid":495605,"ID_GRID":5053595,"INDEKS":0.24240655304917072,"STATUS":"CUKUP","ID_PROV":"31","PROVINSI":"DKI JAKARTA","ID_KABKOT":"31.73","KABKOT":"KOTA ADM. JAKARTA BARAT","ID_KEC":"31.73.05","KECAMATAN":"KEBON JERUK","ID_DESA":"31.73.05.1005","DESA":"DURI KEPA"}},{"type":"Feature","geometry":{"coordinates":[[[106.76805994443308,-6.173706060904413],[106.77704309727427,-6.173706060904413],[106.77704309727427,-6.182696532575203],[106.76805994443308,-6.182696532575203],[106.76805994443308,-6.173706060904413]]],"type":"Polygon"},"properties":{"fid":495606,"ID_GRID":5053596,"INDEKS":0.2304103272616757,"STATUS":"CUKUP","ID_PROV":"31","PROVINSI":"DKI JAKARTA","ID_KABKOT":"31.73","KABKOT":"KOTA ADM. JAKARTA BARAT","ID_KEC":"31.73.05","KECAMATAN":"KEBON JERUK","ID_DESA":"31.73.05.1005","DESA":"DURI KEPA"}},{"type":"Feature","geometry":{"coordinates":[[[106.76805994443308,-6.182696532575203],[106.77704309727427,-6.182696532575203],[106.77704309727427,-6.191686849403425],[106.76805994443308,-6.191686849403425],[106.76805994443308,-6.182696532575203]]],"type":"Polygon"},"properties":{"fid":495607,"ID_GRID":5053597,"INDEKS":0.2592052732371102,"STATUS":"CUKUP","ID_PROV":"31","PROVINSI":"DKI JAKARTA","ID_KABKOT":"31.73","KABKOT":"KOTA ADM. JAKARTA BARAT","ID_KEC":"31.73.05","KECAMATAN":"KEBON JERUK","ID_DESA":"31.73.05.1005","DESA":"DURI KEPA"}},{"type":"Feature","geometry":{"coordinates":[[[106.76805994443308,-6.191686849403425],[106.77704309727427,-6.191686849403425],[106.77704309727427,-6.200677011167568],[106.76805994443308,-6.200677011167568],[106.76805994443308,-6.191686849403425]]],"type":"Polygon"},"properties":{"fid":495608,"ID_GRID":5053598,"INDEKS":0.25128800417968933,"STATUS":"CUKUP","ID_PROV":"31","PROVINSI":"DKI JAKARTA","ID_KABKOT":"31.73","KABKOT":"KOTA ADM. JAKARTA BARAT","ID_KEC":"31.73.05","KECAMATAN":"KEBON JERUK","ID_DESA":"31.73.05.1001","DESA":"KEBON JERUK"}},{"type":"Feature","geometry":{"coordinates":[[[106.76805994443308,-6.200677011167568],[106.77704309727427,-6.200677011167568],[106.77704309727427,-6.20966701764615],[106.76805994443308,-6.20966701764615],[106.76805994443308,-6.200677011167568]]],"type":"Polygon"},"properties":{"fid":495609,"ID_GRID":5053599,"INDEKS":0.2492265590732529,"STATUS":"CUKUP","ID_PROV":"31","PROVINSI":"DKI JAKARTA","ID_KABKOT":"31.73","KABKOT":"KOTA ADM. JAKARTA BARAT","ID_KEC":"31.73.05","KECAMATAN":"KEBON JERUK","ID_DESA":"31.73.05.1004","DESA":"KELAPA DUA"}},{"type":"Feature","geometry":{"coordinates":[[[106.76805994443308,-6.20966701764615],[106.77704309727427,-6.20966701764615],[106.77704309727427,-6.218656868617704],[106.76805994443308,-6.218656868617704],[106.76805994443308,-6.20966701764615]]],"type":"Polygon"},"properties":{"fid":495610,"ID_GRID":5053600,"INDEKS":0.26347271242855447,"STATUS":"CUKUP","ID_PROV":"31","PROVINSI":"DKI JAKARTA","ID_KABKOT":"31.73","KABKOT":"KOTA ADM. JAKARTA BARAT","ID_KEC":"31.73.05","KECAMATAN":"KEBON JERUK","ID_DESA":"31.73.05.1002","DESA":"SUKABUMI UTARA"}},{"type":"Feature","geometry":{"coordinates":[[[106.76805994443308,-6.218656868617704],[106.77704309727427,-6.218656868617704],[106.77704309727427,-6.227646563860785],[106.76805994443308,-6.227646563860785],[106.76805994443308,-6.218656868617704]]],"type":"Polygon"},"properties":{"fid":495611,"ID_GRID":5053601,"INDEKS":0.2368965216791141,"STATUS":"CUKUP","ID_PROV":"31","PROVINSI":"DKI JAKARTA","ID_KABKOT":"31.73","KABKOT":"KOTA ADM. JAKARTA BARAT","ID_KEC":"31.73.05","KECAMATAN":"KEBON JERUK","ID_DESA":"31.73.05.1003","DESA":"SUKABUMI SELATAN"}},{"type":"Feature","geometry":{"coordinates":[[[106.77704309727427,-6.146733719051968],[106.78602625011547,-6.146733719051968],[106.78602625011547,-6.155724653921241],[106.77704309727427,-6.155724653921241],[106.77704309727427,-6.146733719051968]]],"type":"Polygon"},"properties":{"fid":495774,"ID_GRID":5056593,"INDEKS":0.18712505270246815,"STATUS":"BURUK","ID_PROV":"31","PROVINSI":"DKI JAKARTA","ID_KABKOT":"31.73","KABKOT":"KOTA ADM. JAKARTA BARAT","ID_KEC":"31.73.02","KECAMATAN":"GROGOL PETAMBURAN","ID_DESA":"31.73.02.1007","DESA":"WIJAYA KUSUMA"}},{"type":"Feature","geometry":{"coordinates":[[[106.77704309727427,-6.155724653921241],[106.78602625011547,-6.155724653921241],[106.78602625011547,-6.164715434612578],[106.77704309727427,-6.164715434612578],[106.77704309727427,-6.155724653921241]]],"type":"Polygon"},"properties":{"fid":495775,"ID_GRID":5056594,"INDEKS":0.2277111022761374,"STATUS":"CUKUP","ID_PROV":"31","PROVINSI":"DKI JAKARTA","ID_KABKOT":"31.73","KABKOT":"KOTA ADM. JAKARTA BARAT","ID_KEC":"31.73.02","KECAMATAN":"GROGOL PETAMBURAN","ID_DESA":"31.73.02.1004","DESA":"JELAMBAR"}},{"type":"Feature","geometry":{"coordinates":[[[106.77704309727427,-6.164715434612578],[106.78602625011547,-6.164715434612578],[106.78602625011547,-6.173706060904413],[106.77704309727427,-6.173706060904413],[106.77704309727427,-6.164715434612578]]],"type":"Polygon"},"properties":{"fid":495776,"ID_GRID":5056595,"INDEKS":0.2315816989171845,"STATUS":"CUKUP","ID_PROV":"31","PROVINSI":"DKI JAKARTA","ID_KABKOT":"31.73","KABKOT":"KOTA ADM. JAKARTA BARAT","ID_KEC":"31.73.02","KECAMATAN":"GROGOL PETAMBURAN","ID_DESA":"31.73.02.1002","DESA":"TANJUNG DUREN UTARA"}},{"type":"Feature","geometry":{"coordinates":[[[106.77704309727427,-6.173706060904413],[106.78602625011547,-6.173706060904413],[106.78602625011547,-6.182696532575203],[106.77704309727427,-6.182696532575203],[106.77704309727427,-6.173706060904413]]],"type":"Polygon"},"properties":{"fid":495777,"ID_GRID":5056596,"INDEKS":0.22390212661306338,"STATUS":"CUKUP","ID_PROV":"31","PROVINSI":"DKI JAKARTA","ID_KABKOT":"31.73","KABKOT":"KOTA ADM. JAKARTA BARAT","ID_KEC":"31.73.02","KECAMATAN":"GROGOL PETAMBURAN","ID_DESA":"31.73.02.1002","DESA":"TANJUNG DUREN UTARA"}},{"type":"Feature","geometry":{"coordinates":[[[106.77704309727427,-6.182696532575203],[106.78602625011547,-6.182696532575203],[106.78602625011547,-6.191686849403425],[106.77704309727427,-6.191686849403425],[106.77704309727427,-6.182696532575203]]],"type":"Polygon"},"properties":{"fid":495778,"ID_GRID":5056597,"INDEKS":0.2571571598131601,"STATUS":"CUKUP","ID_PROV":"31","PROVINSI":"DKI JAKARTA","ID_KABKOT":"31.73","KABKOT":"KOTA ADM. JAKARTA BARAT","ID_KEC":"31.73.05","KECAMATAN":"KEBON JERUK","ID_DESA":"31.73.05.1001","DESA":"KEBON JERUK"}},{"type":"Feature","geometry":{"coordinates":[[[106.77704309727427,-6.191686849403425],[106.78602625011547,-6.191686849403425],[106.78602625011547,-6.200677011167568],[106.77704309727427,-6.200677011167568],[106.77704309727427,-6.191686849403425]]],"type":"Polygon"},"properties":{"fid":495779,"ID_GRID":5056598,"INDEKS":0.26906276080486685,"STATUS":"CUKUP","ID_PROV":"31","PROVINSI":"DKI JAKARTA","ID_KABKOT":"31.73","KABKOT":"KOTA ADM. JAKARTA BARAT","ID_KEC":"31.73.05","KECAMATAN":"KEBON JERUK","ID_DESA":"31.73.05.1001","DESA":"KEBON JERUK"}},{"type":"Feature","geometry":{"coordinates":[[[106.77704309727427,-6.200677011167568],[106.78602625011547,-6.200677011167568],[106.78602625011547,-6.20966701764615],[106.77704309727427,-6.20966701764615],[106.77704309727427,-6.200677011167568]]],"type":"Polygon"},"properties":{"fid":495780,"ID_GRID":5056599,"INDEKS":0.22931103420289442,"STATUS":"CUKUP","ID_PROV":"31","PROVINSI":"DKI JAKARTA","ID_KABKOT":"31.73","KABKOT":"KOTA ADM. JAKARTA BARAT","ID_KEC":"31.73.05","KECAMATAN":"KEBON JERUK","ID_DESA":"31.73.05.1002","DESA":"SUKABUMI UTARA"}},{"type":"Feature","geometry":{"coordinates":[[[106.78602625011547,-6.146733719051968],[106.79500940295667,-6.146733719051968],[106.79500940295667,-6.155724653921241],[106.78602625011547,-6.155724653921241],[106.78602625011547,-6.146733719051968]]],"type":"Polygon"},"properties":{"fid":495946,"ID_GRID":5059593,"INDEKS":0.2023303822054795,"STATUS":"CUKUP","ID_PROV":"31","PROVINSI":"DKI JAKARTA","ID_KABKOT":"31.73","KABKOT":"KOTA ADM. JAKARTA BARAT","ID_KEC":"31.73.02","KECAMATAN":"GROGOL PETAMBURAN","ID_DESA":"31.73.02.1006","DESA":"JELAMBAR BARU"}},{"type":"Feature","geometry":{"coordinates":[[[106.78602625011547,-6.155724653921241],[106.79500940295667,-6.155724653921241],[106.79500940295667,-6.164715434612578],[106.78602625011547,-6.164715434612578],[106.78602625011547,-6.155724653921241]]],"type":"Polygon"},"properties":{"fid":495947,"ID_GRID":5059594,"INDEKS":0.20274240929972043,"STATUS":"CUKUP","ID_PROV":"31","PROVINSI":"DKI JAKARTA","ID_KABKOT":"31.73","KABKOT":"KOTA ADM. JAKARTA BARAT","ID_KEC":"31.73.02","KECAMATAN":"GROGOL PETAMBURAN","ID_DESA":"31.73.02.1004","DESA":"JELAMBAR"}},{"type":"Feature","geometry":{"coordinates":[[[106.78602625011547,-6.164715434612578],[106.79500940295667,-6.164715434612578],[106.79500940295667,-6.173706060904413],[106.78602625011547,-6.173706060904413],[106.78602625011547,-6.164715434612578]]],"type":"Polygon"},"properties":{"fid":495948,"ID_GRID":5059595,"INDEKS":0.25757498796293776,"STATUS":"CUKUP","ID_PROV":"31","PROVINSI":"DKI JAKARTA","ID_KABKOT":"31.73","KABKOT":"KOTA ADM. JAKARTA BARAT","ID_KEC":"31.73.02","KECAMATAN":"GROGOL PETAMBURAN","ID_DESA":"31.73.02.1003","DESA":"TOMANG"}},{"type":"Feature","geometry":{"coordinates":[[[106.78602625011547,-6.173706060904413],[106.79500940295667,-6.173706060904413],[106.79500940295667,-6.182696532575203],[106.78602625011547,-6.182696532575203],[106.78602625011547,-6.173706060904413]]],"type":"Polygon"},"properties":{"fid":495949,"ID_GRID":5059596,"INDEKS":0.24740151315263462,"STATUS":"CUKUP","ID_PROV":"31","PROVINSI":"DKI JAKARTA","ID_KABKOT":"31.73","KABKOT":"KOTA ADM. JAKARTA BARAT","ID_KEC":"31.73.02","KECAMATAN":"GROGOL PETAMBURAN","ID_DESA":"31.73.02.1005","DESA":"TANJUNG DUREN SELATAN"}},{"type":"Feature","geometry":{"coordinates":[[[106.78602625011547,-6.182696532575203],[106.79500940295667,-6.182696532575203],[106.79500940295667,-6.191686849403425],[106.78602625011547,-6.191686849403425],[106.78602625011547,-6.182696532575203]]],"type":"Polygon"},"properties":{"fid":495950,"ID_GRID":5059597,"INDEKS":0.27800953756296054,"STATUS":"CUKUP","ID_PROV":"31","PROVINSI":"DKI JAKARTA","ID_KABKOT":"31.73","KABKOT":"KOTA ADM. JAKARTA BARAT","ID_KEC":"31.73.07","KECAMATAN":"PAL MERAH","ID_DESA":"31.73.07.1005","DESA":"KEMANGGISAN"}},{"type":"Feature","geometry":{"coordinates":[[[106.78602625011547,-6.191686849403425],[106.79500940295667,-6.191686849403425],[106.79500940295667,-6.200677011167568],[106.78602625011547,-6.200677011167568],[106.78602625011547,-6.191686849403425]]],"type":"Polygon"},"properties":{"fid":495951,"ID_GRID":5059598,"INDEKS":0.23578504573905745,"STATUS":"CUKUP","ID_PROV":"31","PROVINSI":"DKI JAKARTA","ID_KABKOT":"31.73","KABKOT":"KOTA ADM. JAKARTA BARAT","ID_KEC":"31.73.07","KECAMATAN":"PAL MERAH","ID_DESA":"31.73.07.1001","DESA":"PALMERAH"}},{"type":"Feature","geometry":{"coordinates":[[[106.78602625011547,-6.200677011167568],[106.79500940295667,-6.200677011167568],[106.79500940295667,-6.20966701764615],[106.78602625011547,-6.20966701764615],[106.78602625011547,-6.200677011167568]]],"type":"Polygon"},"properties":{"fid":495952,"ID_GRID":5059599,"INDEKS":0.23599994464463547,"STATUS":"CUKUP","ID_PROV":"31","PROVINSI":"DKI JAKARTA","ID_KABKOT":"31.73","KABKOT":"KOTA ADM. JAKARTA BARAT","ID_KEC":"31.73.07","KECAMATAN":"PAL MERAH","ID_DESA":"31.73.07.1001","DESA":"PALMERAH"}},{"type":"Feature","geometry":{"coordinates":[[[106.79500940295667,-6.137742630226345],[106.80399255579786,-6.137742630226345],[106.80399255579786,-6.146733719051968],[106.79500940295667,-6.146733719051968],[106.79500940295667,-6.137742630226345]]],"type":"Polygon"},"properties":{"fid":496116,"ID_GRID":5062592,"INDEKS":0.18153497857906273,"STATUS":"BURUK","ID_PROV":"31","PROVINSI":"DKI JAKARTA","ID_KABKOT":"31.73","KABKOT":"KOTA ADM. JAKARTA BARAT","ID_KEC":"31.73.04","KECAMATAN":"TAMBORA","ID_DESA":"31.73.04.1007","DESA":"ANGKE"}},{"type":"Feature","geometry":{"coordinates":[[[106.79500940295667,-6.146733719051968],[106.80399255579786,-6.146733719051968],[106.80399255579786,-6.155724653921241],[106.79500940295667,-6.155724653921241],[106.79500940295667,-6.146733719051968]]],"type":"Polygon"},"properties":{"fid":496117,"ID_GRID":5062593,"INDEKS":0.1747073737735098,"STATUS":"BURUK","ID_PROV":"31","PROVINSI":"DKI JAKARTA","ID_KABKOT":"31.73","KABKOT":"KOTA ADM. JAKARTA BARAT","ID_KEC":"31.73.04","KECAMATAN":"TAMBORA","ID_DESA":"31.73.04.1006","DESA":"JEMBATAN BESI"}},{"type":"Feature","geometry":{"coordinates":[[[106.79500940295667,-6.155724653921241],[106.80399255579786,-6.155724653921241],[106.80399255579786,-6.164715434612578],[106.79500940295667,-6.164715434612578],[106.79500940295667,-6.155724653921241]]],"type":"Polygon"},"properties":{"fid":496118,"ID_GRID":5062594,"INDEKS":0.22036938721278154,"STATUS":"CUKUP","ID_PROV":"31","PROVINSI":"DKI JAKARTA","ID_KABKOT":"31.73","KABKOT":"KOTA ADM. JAKARTA BARAT","ID_KEC":"31.73.02","KECAMATAN":"GROGOL PETAMBURAN","ID_DESA":"31.73.02.1001","DESA":"GROGOL"}},{"type":"Feature","geometry":{"coordinates":[[[106.79500940295667,-6.164715434612578],[106.80399255579786,-6.164715434612578],[106.80399255579786,-6.173706060904413],[106.79500940295667,-6.173706060904413],[106.79500940295667,-6.164715434612578]]],"type":"Polygon"},"properties":{"fid":496119,"ID_GRID":5062595,"INDEKS":0.22468302414655905,"STATUS":"CUKUP","ID_PROV":"31","PROVINSI":"DKI JAKARTA","ID_KABKOT":"31.73","KABKOT":"KOTA ADM. JAKARTA BARAT","ID_KEC":"31.73.02","KECAMATAN":"GROGOL PETAMBURAN","ID_DESA":"31.73.02.1003","DESA":"TOMANG"}},{"type":"Feature","geometry":{"coordinates":[[[106.79500940295667,-6.173706060904413],[106.80399255579786,-6.173706060904413],[106.80399255579786,-6.182696532575203],[106.79500940295667,-6.182696532575203],[106.79500940295667,-6.173706060904413]]],"type":"Polygon"},"properties":{"fid":496120,"ID_GRID":5062596,"INDEKS":0.22490922437313407,"STATUS":"CUKUP","ID_PROV":"31","PROVINSI":"DKI JAKARTA","ID_KABKOT":"31.73","KABKOT":"KOTA ADM. JAKARTA BARAT","ID_KEC":"31.73.07","KECAMATAN":"PAL MERAH","ID_DESA":"31.73.07.1004","DESA":"JATIPULO"}},{"type":"Feature","geometry":{"coordinates":[[[106.79500940295667,-6.182696532575203],[106.80399255579786,-6.182696532575203],[106.80399255579786,-6.191686849403425],[106.79500940295667,-6.191686849403425],[106.79500940295667,-6.182696532575203]]],"type":"Polygon"},"properties":{"fid":496121,"ID_GRID":5062597,"INDEKS":0.2293501159157416,"STATUS":"CUKUP","ID_PROV":"31","PROVINSI":"DKI JAKARTA","ID_KABKOT":"31.73","KABKOT":"KOTA ADM. JAKARTA BARAT","ID_KEC":"31.73.07","KECAMATAN":"PAL MERAH","ID_DESA":"31.73.07.1006","DESA":"KOTA BAMBU SELATAN"}},{"type":"Feature","geometry":{"coordinates":[[[106.79500940295667,-6.191686849403425],[106.80399255579786,-6.191686849403425],[106.80399255579786,-6.200677011167568],[106.79500940295667,-6.200677011167568],[106.79500940295667,-6.191686849403425]]],"type":"Polygon"},"properties":{"fid":496122,"ID_GRID":5062598,"INDEKS":0.25612243051755235,"STATUS":"CUKUP","ID_PROV":"31","PROVINSI":"DKI JAKARTA","ID_KABKOT":"31.73","KABKOT":"KOTA ADM. JAKARTA BARAT","ID_KEC":"31.73.07","KECAMATAN":"PAL MERAH","ID_DESA":"31.73.07.1002","DESA":"SLIPI"}},{"type":"Feature","geometry":{"coordinates":[[[106.80399255579786,-6.128751387665971],[106.81297570863904,-6.128751387665971],[106.81297570863904,-6.137742630226345],[106.80399255579786,-6.137742630226345],[106.80399255579786,-6.128751387665971]]],"type":"Polygon"},"properties":{"fid":496285,"ID_GRID":5065591,"INDEKS":0.2051137301161115,"STATUS":"CUKUP","ID_PROV":"31","PROVINSI":"DKI JAKARTA","ID_KABKOT":"31.73","KABKOT":"KOTA ADM. JAKARTA BARAT","ID_KEC":"31.73.04","KECAMATAN":"TAMBORA","ID_DESA":"31.73.04.1010","DESA":"ROA MALAKA"}},{"type":"Feature","geometry":{"coordinates":[[[106.80399255579786,-6.137742630226345],[106.81297570863904,-6.137742630226345],[106.81297570863904,-6.146733719051968],[106.80399255579786,-6.146733719051968],[106.80399255579786,-6.137742630226345]]],"type":"Polygon"},"properties":{"fid":496286,"ID_GRID":5065592,"INDEKS":0.17854024928707277,"STATUS":"BURUK","ID_PROV":"31","PROVINSI":"DKI JAKARTA","ID_KABKOT":"31.73","KABKOT":"KOTA ADM. JAKARTA BARAT","ID_KEC":"31.73.04","KECAMATAN":"TAMBORA","ID_DESA":"31.73.04.1001","DESA":"TAMBORA"}},{"type":"Feature","geometry":{"coordinates":[[[106.80399255579786,-6.146733719051968],[106.81297570863904,-6.146733719051968],[106.81297570863904,-6.155724653921241],[106.80399255579786,-6.155724653921241],[106.80399255579786,-6.146733719051968]]],"type":"Polygon"},"properties":{"fid":496287,"ID_GRID":5065593,"INDEKS":0.1645598505014573,"STATUS":"BURUK","ID_PROV":"31","PROVINSI":"DKI JAKARTA","ID_KABKOT":"31.73","KABKOT":"KOTA ADM. JAKARTA BARAT","ID_KEC":"31.73.04","KECAMATAN":"TAMBORA","ID_DESA":"31.73.04.1004","DESA":"TANAH SEREAL"}},{"type":"Feature","geometry":{"coordinates":[[[106.80399255579786,-6.182696532575203],[106.81297570863904,-6.182696532575203],[106.81297570863904,-6.191686849403425],[106.80399255579786,-6.191686849403425],[106.80399255579786,-6.182696532575203]]],"type":"Polygon"},"properties":{"fid":496291,"ID_GRID":5065597,"INDEKS":0.22642386605740655,"STATUS":"CUKUP","ID_PROV":"31","PROVINSI":"DKI JAKARTA","ID_KABKOT":"31.73","KABKOT":"KOTA ADM. JAKARTA BARAT","ID_KEC":"31.73.07","KECAMATAN":"PAL MERAH","ID_DESA":"31.73.07.1003","DESA":"KOTA BAMBU UTARA"}},{"type":"Feature","geometry":{"coordinates":[[[106.81297570863904,-6.137742630226345],[106.82195886148025,-6.137742630226345],[106.82195886148025,-6.146733719051968],[106.81297570863904,-6.146733719051968],[106.81297570863904,-6.137742630226345]]],"type":"Polygon"},"properties":{"fid":496455,"ID_GRID":5068592,"INDEKS":0.18732617849516583,"STATUS":"BURUK","ID_PROV":"31","PROVINSI":"DKI JAKARTA","ID_KABKOT":"31.73","KABKOT":"KOTA ADM. JAKARTA BARAT","ID_KEC":"31.73.03","KECAMATAN":"TAMAN SARI","ID_DESA":"31.73.03.1005","DESA":"MANGGA BESAR"}},{"type":"Feature","geometry":{"coordinates":[[[106.81297570863904,-6.146733719051968],[106.82195886148025,-6.146733719051968],[106.82195886148025,-6.155724653921241],[106.81297570863904,-6.155724653921241],[106.81297570863904,-6.146733719051968]]],"type":"Polygon"},"properties":{"fid":496456,"ID_GRID":5068593,"INDEKS":0.18452984221452273,"STATUS":"BURUK","ID_PROV":"31","PROVINSI":"DKI JAKARTA","ID_KABKOT":"31.73","KABKOT":"KOTA ADM. JAKARTA BARAT","ID_KEC":"31.73.03","KECAMATAN":"TAMAN SARI","ID_DESA":"31.73.03.1003","DESA":"MAPHAR"}},{"type":"Feature","geometry":{"coordinates":[[[106.82195886148025,-6.146733719051968],[106.83094201432145,-6.146733719051968],[106.83094201432145,-6.155724653921241],[106.82195886148025,-6.155724653921241],[106.82195886148025,-6.146733719051968]]],"type":"Polygon"},"properties":{"fid":496626,"ID_GRID":5071593,"INDEKS":0.19677571138224287,"STATUS":"BURUK","ID_PROV":"31","PROVINSI":"DKI JAKARTA","ID_KABKOT":"31.73","KABKOT":"KOTA ADM. JAKARTA BARAT","ID_KEC":"31.73.03","KECAMATAN":"TAMAN SARI","ID_DESA":"31.73.03.1001","DESA":"TAMAN SARI"}}]}