{"type":"FeatureCollection","features":[{"type":"Feature","geometry":{"coordinates":[[[106.79500940295667,-6.200677011167568],[106.80399255579786,-6.200677011167568],[106.80399255579786,-6.20966701764615],[106.79500940295667,-6.20966701764615],[106.79500940295667,-6.200677011167568]]],"type":"Polygon"},"properties":{"fid":496123,"ID_GRID":5062599,"INDEKS":0.32485296293285815,"STATUS":"CUKUP","ID_PROV":"31","PROVINSI":"DKI JAKARTA","ID_KABKOT":"31.71","KABKOT":"KOTA ADM. JAKARTA PUSAT","ID_KEC":"31.71.07","KECAMATAN":"TANAH ABANG","ID_DESA":"31.71.07.1001","DESA":"GELORA"}},{"type":"Feature","geometry":{"coordinates":[[[106.79500940295667,-6.20966701764615],[106.80399255579786,-6.20966701764615],[106.80399255579786,-6.218656868617704],[106.79500940295667,-6.218656868617704],[106.79500940295667,-6.20966701764615]]],"type":"Polygon"},"properties":{"fid":496124,"ID_GRID":5062600,"INDEKS":0.378517045818194,"STATUS":"CUKUP","ID_PROV":"31","PROVINSI":"DKI JAKARTA","ID_KABKOT":"31.71","KABKOT":"KOTA ADM. JAKARTA PUSAT","ID_KEC":"31.71.07","KECAMATAN":"TANAH ABANG","ID_DESA":"31.71.07.1001","DESA":"GELORA"}},{"type":"Feature","geometry":{"coordinates":[[[106.79500940295667,-6.218656868617704],[106.80399255579786,-6.218656868617704],[106.80399255579786,-6.227646563860785],[106.79500940295667,-6.227646563860785],[106.79500940295667,-6.218656868617704]]],"type":"Polygon"},"properties":{"fid":496125,"ID_GRID":5062601,"INDEKS":0.4142250458372893,"STATUS":"SEDANG","ID_PROV":"31","PROVINSI":"DKI JAKARTA","ID_KABKOT":"31.71","KABKOT":"KOTA ADM. JAKARTA PUSAT","ID_KEC":"31.71.07","KECAMATAN":"TANAH ABANG","ID_DESA":"31.71.07.1001","DESA":"GELORA"}},{"type":"Feature","geometry":{"coordinates":[[[106.80399255579786,-6.155724653921241],[106.81297570863904,-6.155724653921241],[106.81297570863904,-6.164715434612578],[106.80399255579786,-6.164715434612578],[106.80399255579786,-6.155724653921241]]],"type":"Polygon"},"properties":{"fid":496288,"ID_GRID":5065594,"INDEKS":0.21369876457567522,"STATUS":"CUKUP","ID_PROV":"31","PROVINSI":"DKI JAKARTA","ID_KABKOT":"31.71","KABKOT":"KOTA ADM. JAKARTA PUSAT","ID_KEC":"31.71.01","KECAMATAN":"GAMBIR","ID_DESA":"31.71.01.1006","DESA":"DURI PULO"}},{"type":"Feature","geometry":{"coordinates":[[[106.80399255579786,-6.164715434612578],[106.81297570863904,-6.164715434612578],[106.81297570863904,-6.173706060904413],[106.80399255579786,-6.173706060904413],[106.80399255579786,-6.164715434612578]]],"type":"Polygon"},"properties":{"fid":496289,"ID_GRID":5065595,"INDEKS":0.21041703475190993,"STATUS":"CUKUP","ID_PROV":"31","PROVINSI":"DKI JAKARTA","ID_KABKOT":"31.71","KABKOT":"KOTA ADM. JAKARTA PUSAT","ID_KEC":"31.71.01","KECAMATAN":"GAMBIR","ID_DESA":"31.71.01.1002","DESA":"CIDENG"}},{"type":"Feature","geometry":{"coordinates":[[[106.80399255579786,-6.173706060904413],[106.81297570863904,-6.173706060904413],[106.81297570863904,-6.182696532575203],[106.80399255579786,-6.182696532575203],[106.80399255579786,-6.173706060904413]]],"type":"Polygon"},"properties":{"fid":496290,"ID_GRID":5065596,"INDEKS":0.20737949458424607,"STATUS":"CUKUP","ID_PROV":"31","PROVINSI":"DKI JAKARTA","ID_KABKOT":"31.71","KABKOT":"KOTA ADM. JAKARTA PUSAT","ID_KEC":"31.71.01","KECAMATAN":"GAMBIR","ID_DESA":"31.71.01.1002","DESA":"CIDENG"}},{"type":"Feature","geometry":{"coordinates":[[[106.80399255579786,-6.191686849403425],[106.81297570863904,-6.191686849403425],[106.81297570863904,-6.200677011167568],[106.80399255579786,-6.200677011167568],[106.80399255579786,-6.191686849403425]]],"type":"Polygon"},"properties":{"fid":496292,"ID_GRID":5065598,"INDEKS":0.24592978588166844,"STATUS":"CUKUP","ID_PROV":"31","PROVINSI":"DKI JAKARTA","ID_KABKOT":"31.71","KABKOT":"KOTA ADM. JAKARTA PUSAT","ID_KEC":"31.71.07","KECAMATAN":"TANAH ABANG","ID_DESA":"31.71.07.1004","DESA":"PETAMBURAN"}},{"type":"Feature","geometry":{"coordinates":[[[106.80399255579786,-6.200677011167568],[106.81297570863904,-6.200677011167568],[106.81297570863904,-6.20966701764615],[106.80399255579786,-6.20966701764615],[106.80399255579786,-6.200677011167568]]],"type":"Polygon"},"properties":{"fid":496293,"ID_GRID":5065599,"INDEKS":0.29541374359166983,"STATUS":"CUKUP","ID_PROV":"31","PROVINSI":"DKI JAKARTA","ID_KABKOT":"31.71","KABKOT":"KOTA ADM. JAKARTA PUSAT","ID_KEC":"31.71.07","KECAMATAN":"TANAH ABANG","ID_DESA":"31.71.07.1002","DESA":"BENDUNGAN HILIR"}},{"type":"Feature","geometry":{"coordinates":[[[106.80399255579786,-6.20966701764615],[106.81297570863904,-6.20966701764615],[106.81297570863904,-6.218656868617704],[106.80399255579786,-6.218656868617704],[106.80399255579786,-6.20966701764615]]],"type":"Polygon"},"properties":{"fid":496294,"ID_GRID":5065600,"INDEKS":0.32298295466817,"STATUS":"CUKUP","ID_PROV":"31","PROVINSI":"DKI JAKARTA","ID_KABKOT":"31.71","KABKOT":"KOTA ADM. JAKARTA PUSAT","ID_KEC":"31.71.07","KECAMATAN":"TANAH ABANG","ID_DESA":"31.71.07.1001","DESA":"GELORA"}},{"type":"Feature","geometry":{"coordinates":[[[106.81297570863904,-6.155724653921241],[106.82195886148025,-6.155724653921241],[106.82195886148025,-6.164715434612578],[106.81297570863904,-6.164715434612578],[106.81297570863904,-6.155724653921241]]],"type":"Polygon"},"properties":{"fid":496457,"ID_GRID":5068594,"INDEKS":0.18864220891855965,"STATUS":"BURUK","ID_PROV":"31","PROVINSI":"DKI JAKARTA","ID_KABKOT":"31.71","KABKOT":"KOTA ADM. JAKARTA PUSAT","ID_KEC":"31.71.01","KECAMATAN":"GAMBIR","ID_DESA":"31.71.01.1003","DESA":"PETOJO UTARA"}},{"type":"Feature","geometry":{"coordinates":[[[106.81297570863904,-6.164715434612578],[106.82195886148025,-6.164715434612578],[106.82195886148025,-6.173706060904413],[106.81297570863904,-6.173706060904413],[106.81297570863904,-6.164715434612578]]],"type":"Polygon"},"properties":{"fid":496458,"ID_GRID":5068595,"INDEKS":0.2372239358839472,"STATUS":"CUKUP","ID_PROV":"31","PROVINSI":"DKI JAKARTA","ID_KABKOT":"31.71","KABKOT":"KOTA ADM. JAKARTA PUSAT","ID_KEC":"31.71.01","KECAMATAN":"GAMBIR","ID_DESA":"31.71.01.1003","DESA":"PETOJO UTARA"}},{"type":"Feature","geometry":{"coordinates":[[[106.81297570863904,-6.173706060904413],[106.82195886148025,-6.173706060904413],[106.82195886148025,-6.182696532575203],[106.81297570863904,-6.182696532575203],[106.81297570863904,-6.173706060904413]]],"type":"Polygon"},"properties":{"fid":496459,"ID_GRID":5068596,"INDEKS":0.250422913136223,"STATUS":"CUKUP","ID_PROV":"31","PROVINSI":"DKI JAKARTA","ID_KABKOT":"31.71","KABKOT":"KOTA ADM. JAKARTA PUSAT","ID_KEC":"31.71.01","KECAMATAN":"GAMBIR","ID_DESA":"31.71.01.1004","DESA":"PETOJO SELATAN"}},{"type":"Feature","geometry":{"coordinates":[[[106.81297570863904,-6.182696532575203],[106.82195886148025,-6.182696532575203],[106.82195886148025,-6.191686849403425],[106.81297570863904,-6.191686849403425],[106.81297570863904,-6.182696532575203]]],"type":"Polygon"},"properties":{"fid":496460,"ID_GRID":5068597,"INDEKS":0.23370250896700376,"STATUS":"CUKUP","ID_PROV":"31","PROVINSI":"DKI JAKARTA","ID_KABKOT":"31.71","KABKOT":"KOTA ADM. JAKARTA PUSAT","ID_KEC":"31.71.07","KECAMATAN":"TANAH ABANG","ID_DESA":"31.71.07.1007","DESA":"KAMPUNG BALI"}},{"type":"Feature","geometry":{"coordinates":[[[106.81297570863904,-6.191686849403425],[106.82195886148025,-6.191686849403425],[106.82195886148025,-6.200677011167568],[106.81297570863904,-6.200677011167568],[106.81297570863904,-6.191686849403425]]],"type":"Polygon"},"properties":{"fid":496461,"ID_GRID":5068598,"INDEKS":0.25477594431363537,"STATUS":"CUKUP","ID_PROV":"31","PROVINSI":"DKI JAKARTA","ID_KABKOT":"31.71","KABKOT":"KOTA ADM. JAKARTA PUSAT","ID_KEC":"31.71.07","KECAMATAN":"TANAH ABANG","ID_DESA":"31.71.07.1005","DESA":"KEBON MELATI"}},{"type":"Feature","geometry":{"coordinates":[[[106.81297570863904,-6.200677011167568],[106.82195886148025,-6.200677011167568],[106.82195886148025,-6.20966701764615],[106.81297570863904,-6.20966701764615],[106.81297570863904,-6.200677011167568]]],"type":"Polygon"},"properties":{"fid":496462,"ID_GRID":5068599,"INDEKS":0.3517825400287455,"STATUS":"CUKUP","ID_PROV":"31","PROVINSI":"DKI JAKARTA","ID_KABKOT":"31.71","KABKOT":"KOTA ADM. JAKARTA PUSAT","ID_KEC":"31.71.07","KECAMATAN":"TANAH ABANG","ID_DESA":"31.71.07.1003","DESA":"KARET TENGSIN"}},{"type":"Feature","geometry":{"coordinates":[[[106.81297570863904,-6.20966701764615],[106.82195886148025,-6.20966701764615],[106.82195886148025,-6.218656868617704],[106.81297570863904,-6.218656868617704],[106.81297570863904,-6.20966701764615]]],"type":"Polygon"},"properties":{"fid":496463,"ID_GRID":5068600,"INDEKS":0.27826069908420137,"STATUS":"CUKUP","ID_PROV":"31","PROVINSI":"DKI JAKARTA","ID_KABKOT":"31.71","KABKOT":"KOTA ADM. JAKARTA PUSAT","ID_KEC":"31.71.07","KECAMATAN":"TANAH ABANG","ID_DESA":"31.71.07.1003","DESA":"KARET TENGSIN"}},{"type":"Feature","geometry":{"coordinates":[[[106.82195886148025,-6.137742630226345],[106.83094201432145,-6.137742630226345],[106.83094201432145,-6.146733719051968],[106.82195886148025,-6.146733719051968],[106.82195886148025,-6.137742630226345]]],"type":"Polygon"},"properties":{"fid":496625,"ID_GRID":5071592,"INDEKS":0.20113371599968471,"STATUS":"CUKUP","ID_PROV":"31","PROVINSI":"DKI JAKARTA","ID_KABKOT":"31.71","KABKOT":"KOTA ADM. JAKARTA PUSAT","ID_KEC":"31.71.02","KECAMATAN":"SAWAH BESAR","ID_DESA":"31.71.02.1005","DESA":"MANGGA DUA SELATAN"}},{"type":"Feature","geometry":{"coordinates":[[[106.82195886148025,-6.155724653921241],[106.83094201432145,-6.155724653921241],[106.83094201432145,-6.164715434612578],[106.82195886148025,-6.164715434612578],[106.82195886148025,-6.155724653921241]]],"type":"Polygon"},"properties":{"fid":496627,"ID_GRID":5071594,"INDEKS":0.1909984534792773,"STATUS":"BURUK","ID_PROV":"31","PROVINSI":"DKI JAKARTA","ID_KABKOT":"31.71","KABKOT":"KOTA ADM. JAKARTA PUSAT","ID_KEC":"31.71.01","KECAMATAN":"GAMBIR","ID_DESA":"31.71.01.1005","DESA":"KEBON KELAPA"}},{"type":"Feature","geometry":{"coordinates":[[[106.82195886148025,-6.164715434612578],[106.83094201432145,-6.164715434612578],[106.83094201432145,-6.173706060904413],[106.82195886148025,-6.173706060904413],[106.82195886148025,-6.164715434612578]]],"type":"Polygon"},"properties":{"fid":496628,"ID_GRID":5071595,"INDEKS":0.3096476012722848,"STATUS":"CUKUP","ID_PROV":"31","PROVINSI":"DKI JAKARTA","ID_KABKOT":"31.71","KABKOT":"KOTA ADM. JAKARTA PUSAT","ID_KEC":"31.71.01","KECAMATAN":"GAMBIR","ID_DESA":"31.71.01.1001","DESA":"GAMBIR"}},{"type":"Feature","geometry":{"coordinates":[[[106.82195886148025,-6.173706060904413],[106.83094201432145,-6.173706060904413],[106.83094201432145,-6.182696532575203],[106.82195886148025,-6.182696532575203],[106.82195886148025,-6.173706060904413]]],"type":"Polygon"},"properties":{"fid":496629,"ID_GRID":5071596,"INDEKS":0.35649117045834955,"STATUS":"CUKUP","ID_PROV":"31","PROVINSI":"DKI JAKARTA","ID_KABKOT":"31.71","KABKOT":"KOTA ADM. JAKARTA PUSAT","ID_KEC":"31.71.01","KECAMATAN":"GAMBIR","ID_DESA":"31.71.01.1001","DESA":"GAMBIR"}},{"type":"Feature","geometry":{"coordinates":[[[106.82195886148025,-6.182696532575203],[106.83094201432145,-6.182696532575203],[106.83094201432145,-6.191686849403425],[106.82195886148025,-6.191686849403425],[106.82195886148025,-6.182696532575203]]],"type":"Polygon"},"properties":{"fid":496630,"ID_GRID":5071597,"INDEKS":0.2602619695844072,"STATUS":"CUKUP","ID_PROV":"31","PROVINSI":"DKI JAKARTA","ID_KABKOT":"31.71","KABKOT":"KOTA ADM. JAKARTA PUSAT","ID_KEC":"31.71.06","KECAMATAN":"MENTENG","ID_DESA":"31.71.06.1004","DESA":"GONDANGDIA"}},{"type":"Feature","geometry":{"coordinates":[[[106.82195886148025,-6.191686849403425],[106.83094201432145,-6.191686849403425],[106.83094201432145,-6.200677011167568],[106.82195886148025,-6.200677011167568],[106.82195886148025,-6.191686849403425]]],"type":"Polygon"},"properties":{"fid":496631,"ID_GRID":5071598,"INDEKS":0.3051213428059364,"STATUS":"CUKUP","ID_PROV":"31","PROVINSI":"DKI JAKARTA","ID_KABKOT":"31.71","KABKOT":"KOTA ADM. JAKARTA PUSAT","ID_KEC":"31.71.06","KECAMATAN":"MENTENG","ID_DESA":"31.71.06.1001","DESA":"MENTENG"}},{"type":"Feature","geometry":{"coordinates":[[[106.83094201432145,-6.146733719051968],[106.83992516716265,-6.146733719051968],[106.83992516716265,-6.155724653921241],[106.83094201432145,-6.155724653921241],[106.83094201432145,-6.146733719051968]]],"type":"Polygon"},"properties":{"fid":496795,"ID_GRID":5074593,"INDEKS":0.2290868865564517,"STATUS":"CUKUP","ID_PROV":"31","PROVINSI":"DKI JAKARTA","ID_KABKOT":"31.71","KABKOT":"KOTA ADM. JAKARTA PUSAT","ID_KEC":"31.71.02","KECAMATAN":"SAWAH BESAR","ID_DESA":"31.71.02.1004","DESA":"GUNUNG SAHARI UTARA"}},{"type":"Feature","geometry":{"coordinates":[[[106.83094201432145,-6.155724653921241],[106.83992516716265,-6.155724653921241],[106.83992516716265,-6.164715434612578],[106.83094201432145,-6.164715434612578],[106.83094201432145,-6.155724653921241]]],"type":"Polygon"},"properties":{"fid":496796,"ID_GRID":5074594,"INDEKS":0.2171014033045467,"STATUS":"CUKUP","ID_PROV":"31","PROVINSI":"DKI JAKARTA","ID_KABKOT":"31.71","KABKOT":"KOTA ADM. JAKARTA PUSAT","ID_KEC":"31.71.02","KECAMATAN":"SAWAH BESAR","ID_DESA":"31.71.02.1001","DESA":"PASAR BARU"}},{"type":"Feature","geometry":{"coordinates":[[[106.83094201432145,-6.164715434612578],[106.83992516716265,-6.164715434612578],[106.83992516716265,-6.173706060904413],[106.83094201432145,-6.173706060904413],[106.83094201432145,-6.164715434612578]]],"type":"Polygon"},"properties":{"fid":496797,"ID_GRID":5074595,"INDEKS":0.30499488209605,"STATUS":"CUKUP","ID_PROV":"31","PROVINSI":"DKI JAKARTA","ID_KABKOT":"31.71","KABKOT":"KOTA ADM. JAKARTA PUSAT","ID_KEC":"31.71.02","KECAMATAN":"SAWAH BESAR","ID_DESA":"31.71.02.1001","DESA":"PASAR BARU"}},{"type":"Feature","geometry":{"coordinates":[[[106.83094201432145,-6.173706060904413],[106.83992516716265,-6.173706060904413],[106.83992516716265,-6.182696532575203],[106.83094201432145,-6.182696532575203],[106.83094201432145,-6.173706060904413]]],"type":"Polygon"},"properties":{"fid":496798,"ID_GRID":5074596,"INDEKS":0.28342360900038255,"STATUS":"CUKUP","ID_PROV":"31","PROVINSI":"DKI JAKARTA","ID_KABKOT":"31.71","KABKOT":"KOTA ADM. JAKARTA PUSAT","ID_KEC":"31.71.01","KECAMATAN":"GAMBIR","ID_DESA":"31.71.01.1001","DESA":"GAMBIR"}},{"type":"Feature","geometry":{"coordinates":[[[106.83094201432145,-6.182696532575203],[106.83992516716265,-6.182696532575203],[106.83992516716265,-6.191686849403425],[106.83094201432145,-6.191686849403425],[106.83094201432145,-6.182696532575203]]],"type":"Polygon"},"properties":{"fid":496799,"ID_GRID":5074597,"INDEKS":0.265943687163466,"STATUS":"CUKUP","ID_PROV":"31","PROVINSI":"DKI JAKARTA","ID_KABKOT":"31.71","KABKOT":"KOTA ADM. JAKARTA PUSAT","ID_KEC":"31.71.06","KECAMATAN":"MENTENG","ID_DESA":"31.71.06.1005","DESA":"KEBON SIRIH"}},{"type":"Feature","geometry":{"coordinates":[[[106.83094201432145,-6.191686849403425],[106.83992516716265,-6.191686849403425],[106.83992516716265,-6.200677011167568],[106.83094201432145,-6.200677011167568],[106.83094201432145,-6.191686849403425]]],"type":"Polygon"},"properties":{"fid":496800,"ID_GRID":5074598,"INDEKS":0.33249946696535526,"STATUS":"CUKUP","ID_PROV":"31","PROVINSI":"DKI JAKARTA","ID_KABKOT":"31.71","KABKOT":"KOTA ADM. JAKARTA PUSAT","ID_KEC":"31.71.06","KECAMATAN":"MENTENG","ID_DESA":"31.71.06.1001","DESA":"MENTENG"}},{"type":"Feature","geometry":{"coordinates":[[[106.83094201432145,-6.200677011167568],[106.83992516716265,-6.200677011167568],[106.83992516716265,-6.20966701764615],[106.83094201432145,-6.20966701764615],[106.83094201432145,-6.200677011167568]]],"type":"Polygon"},"properties":{"fid":496801,"ID_GRID":5074599,"INDEKS":0.319058260795745,"STATUS":"CUKUP","ID_PROV":"31","PROVINSI":"DKI JAKARTA","ID_KABKOT":"31.71","KABKOT":"KOTA ADM. JAKARTA PUSAT","ID_KEC":"31.71.06","KECAMATAN":"MENTENG","ID_DESA":"31.71.06.1001","DESA":"MENTENG"}},{"type":"Feature","geometry":{"coordinates":[[[106.83992516716265,-6.155724653921241],[106.84890832000384,-6.155724653921241],[106.84890832000384,-6.164715434612578],[106.83992516716265,-6.164715434612578],[106.83992516716265,-6.155724653921241]]],"type":"Polygon"},"properties":{"fid":496968,"ID_GRID":5077594,"INDEKS":0.241105105060848,"STATUS":"CUKUP","ID_PROV":"31","PROVINSI":"DKI JAKARTA","ID_KABKOT":"31.71","KABKOT":"KOTA ADM. JAKARTA PUSAT","ID_KEC":"31.71.03","KECAMATAN":"KEMAYORAN","ID_DESA":"31.71.03.1005","DESA":"GUNUNG SAHARI SELATAN"}},{"type":"Feature","geometry":{"coordinates":[[[106.83992516716265,-6.164715434612578],[106.84890832000384,-6.164715434612578],[106.84890832000384,-6.173706060904413],[106.83992516716265,-6.173706060904413],[106.83992516716265,-6.164715434612578]]],"type":"Polygon"},"properties":{"fid":496969,"ID_GRID":5077595,"INDEKS":0.21164261741962206,"STATUS":"CUKUP","ID_PROV":"31","PROVINSI":"DKI JAKARTA","ID_KABKOT":"31.71","KABKOT":"KOTA ADM. JAKARTA PUSAT","ID_KEC":"31.71.04","KECAMATAN":"SENEN","ID_DESA":"31.71.04.1006","DESA":"BUNGUR"}},{"type":"Feature","geometry":{"coordinates":[[[106.83992516716265,-6.173706060904413],[106.84890832000384,-6.173706060904413],[106.84890832000384,-6.182696532575203],[106.83992516716265,-6.182696532575203],[106.83992516716265,-6.173706060904413]]],"type":"Polygon"},"properties":{"fid":496970,"ID_GRID":5077596,"INDEKS":0.2210170711239604,"STATUS":"CUKUP","ID_PROV":"31","PROVINSI":"DKI JAKARTA","ID_KABKOT":"31.71","KABKOT":"KOTA ADM. JAKARTA PUSAT","ID_KEC":"31.71.04","KECAMATAN":"SENEN","ID_DESA":"31.71.04.1004","DESA":"KRAMAT"}},{"type":"Feature","geometry":{"coordinates":[[[106.83992516716265,-6.182696532575203],[106.84890832000384,-6.182696532575203],[106.84890832000384,-6.191686849403425],[106.83992516716265,-6.191686849403425],[106.83992516716265,-6.182696532575203]]],"type":"Polygon"},"properties":{"fid":496971,"ID_GRID":5077597,"INDEKS":0.22090236509442876,"STATUS":"CUKUP","ID_PROV":"31","PROVINSI":"DKI JAKARTA","ID_KABKOT":"31.71","KABKOT":"KOTA ADM. JAKARTA PUSAT","ID_KEC":"31.71.04","KECAMATAN":"SENEN","ID_DESA":"31.71.04.1004","DESA":"KRAMAT"}},{"type":"Feature","geometry":{"coordinates":[[[106.83992516716265,-6.191686849403425],[106.84890832000384,-6.191686849403425],[106.84890832000384,-6.200677011167568],[106.83992516716265,-6.200677011167568],[106.83992516716265,-6.191686849403425]]],"type":"Polygon"},"properties":{"fid":496972,"ID_GRID":5077598,"INDEKS":0.2867412790257663,"STATUS":"CUKUP","ID_PROV":"31","PROVINSI":"DKI JAKARTA","ID_KABKOT":"31.71","KABKOT":"KOTA ADM. JAKARTA PUSAT","ID_KEC":"31.71.04","KECAMATAN":"SENEN","ID_DESA":"31.71.04.1002","DESA":"KENARI"}},{"type":"Feature","geometry":{"coordinates":[[[106.83992516716265,-6.200677011167568],[106.84890832000384,-6.200677011167568],[106.84890832000384,-6.20966701764615],[106.83992516716265,-6.20966701764615],[106.83992516716265,-6.200677011167568]]],"type":"Polygon"},"properties":{"fid":496973,"ID_GRID":5077599,"INDEKS":0.2665185111175446,"STATUS":"CUKUP","ID_PROV":"31","PROVINSI":"DKI JAKARTA","ID_KABKOT":"31.71","KABKOT":"KOTA ADM. JAKARTA PUSAT","ID_KEC":"31.71.06","KECAMATAN":"MENTENG","ID_DESA":"31.71.06.1001","DESA":"MENTENG"}},{"type":"Feature","geometry":{"coordinates":[[[106.84890832000384,-6.155724653921241],[106.85789147284504,-6.155724653921241],[106.85789147284504,-6.164715434612578],[106.84890832000384,-6.164715434612578],[106.84890832000384,-6.155724653921241]]],"type":"Polygon"},"properties":{"fid":497135,"ID_GRID":5080594,"INDEKS":0.25275525280348854,"STATUS":"CUKUP","ID_PROV":"31","PROVINSI":"DKI JAKARTA","ID_KABKOT":"31.71","KABKOT":"KOTA ADM. JAKARTA PUSAT","ID_KEC":"31.71.03","KECAMATAN":"KEMAYORAN","ID_DESA":"31.71.03.1002","DESA":"KEBON KOSONG"}},{"type":"Feature","geometry":{"coordinates":[[[106.84890832000384,-6.164715434612578],[106.85789147284504,-6.164715434612578],[106.85789147284504,-6.173706060904413],[106.84890832000384,-6.173706060904413],[106.84890832000384,-6.164715434612578]]],"type":"Polygon"},"properties":{"fid":497136,"ID_GRID":5080595,"INDEKS":0.19234191940343084,"STATUS":"BURUK","ID_PROV":"31","PROVINSI":"DKI JAKARTA","ID_KABKOT":"31.71","KABKOT":"KOTA ADM. JAKARTA PUSAT","ID_KEC":"31.71.03","KECAMATAN":"KEMAYORAN","ID_DESA":"31.71.03.1003","DESA":"HARAPAN MULIA"}},{"type":"Feature","geometry":{"coordinates":[[[106.84890832000384,-6.173706060904413],[106.85789147284504,-6.173706060904413],[106.85789147284504,-6.182696532575203],[106.84890832000384,-6.182696532575203],[106.84890832000384,-6.173706060904413]]],"type":"Polygon"},"properties":{"fid":497137,"ID_GRID":5080596,"INDEKS":0.18903866578922765,"STATUS":"BURUK","ID_PROV":"31","PROVINSI":"DKI JAKARTA","ID_KABKOT":"31.71","KABKOT":"KOTA ADM. JAKARTA PUSAT","ID_KEC":"31.71.08","KECAMATAN":"JOHAR BARU","ID_DESA":"31.71.08.1004","DESA":"TANAH TINGGI"}},{"type":"Feature","geometry":{"coordinates":[[[106.84890832000384,-6.182696532575203],[106.85789147284504,-6.182696532575203],[106.85789147284504,-6.191686849403425],[106.84890832000384,-6.191686849403425],[106.84890832000384,-6.182696532575203]]],"type":"Polygon"},"properties":{"fid":497138,"ID_GRID":5080597,"INDEKS":0.23219010060100626,"STATUS":"CUKUP","ID_PROV":"31","PROVINSI":"DKI JAKARTA","ID_KABKOT":"31.71","KABKOT":"KOTA ADM. JAKARTA PUSAT","ID_KEC":"31.71.08","KECAMATAN":"JOHAR BARU","ID_DESA":"31.71.08.1001","DESA":"JOHAR BARU"}},{"type":"Feature","geometry":{"coordinates":[[[106.84890832000384,-6.191686849403425],[106.85789147284504,-6.191686849403425],[106.85789147284504,-6.200677011167568],[106.84890832000384,-6.200677011167568],[106.84890832000384,-6.191686849403425]]],"type":"Polygon"},"properties":{"fid":497139,"ID_GRID":5080598,"INDEKS":0.23839660218639594,"STATUS":"CUKUP","ID_PROV":"31","PROVINSI":"DKI JAKARTA","ID_KABKOT":"31.71","KABKOT":"KOTA ADM. JAKARTA PUSAT","ID_KEC":"31.71.04","KECAMATAN":"SENEN","ID_DESA":"31.71.04.1003","DESA":"PASEBAN"}},{"type":"Feature","geometry":{"coordinates":[[[106.85789147284504,-6.155724653921241],[106.86687462568622,-6.155724653921241],[106.86687462568622,-6.164715434612578],[106.85789147284504,-6.164715434612578],[106.85789147284504,-6.155724653921241]]],"type":"Polygon"},"properties":{"fid":497298,"ID_GRID":5083594,"INDEKS":0.18221778190178456,"STATUS":"BURUK","ID_PROV":"31","PROVINSI":"DKI JAKARTA","ID_KABKOT":"31.71","KABKOT":"KOTA ADM. JAKARTA PUSAT","ID_KEC":"31.71.03","KECAMATAN":"KEMAYORAN","ID_DESA":"31.71.03.1004","DESA":"SERDANG"}},{"type":"Feature","geometry":{"coordinates":[[[106.85789147284504,-6.164715434612578],[106.86687462568622,-6.164715434612578],[106.86687462568622,-6.173706060904413],[106.85789147284504,-6.173706060904413],[106.85789147284504,-6.164715434612578]]],"type":"Polygon"},"properties":{"fid":497299,"ID_GRID":5083595,"INDEKS":0.2060940105886383,"STATUS":"CUKUP","ID_PROV":"31","PROVINSI":"DKI JAKARTA","ID_KABKOT":"31.71","KABKOT":"KOTA ADM. JAKARTA PUSAT","ID_KEC":"31.71.03","KECAMATAN":"KEMAYORAN","ID_DESA":"31.71.03.1006","DESA":"CEMPAKA BARU"}},{"type":"Feature","geometry":{"coordinates":[[[106.85789147284504,-6.173706060904413],[106.86687462568622,-6.173706060904413],[106.86687462568622,-6.182696532575203],[106.85789147284504,-6.182696532575203],[106.85789147284504,-6.173706060904413]]],"type":"Polygon"},"properties":{"fid":497300,"ID_GRID":5083596,"INDEKS":0.22063620030158118,"STATUS":"CUKUP","ID_PROV":"31","PROVINSI":"DKI JAKARTA","ID_KABKOT":"31.71","KABKOT":"KOTA ADM. JAKARTA PUSAT","ID_KEC":"31.71.05","KECAMATAN":"CEMPAKA PUTIH","ID_DESA":"31.71.05.1002","DESA":"CEMPAKA PUTIH BARAT"}},{"type":"Feature","geometry":{"coordinates":[[[106.85789147284504,-6.182696532575203],[106.86687462568622,-6.182696532575203],[106.86687462568622,-6.191686849403425],[106.85789147284504,-6.191686849403425],[106.85789147284504,-6.182696532575203]]],"type":"Polygon"},"properties":{"fid":497301,"ID_GRID":5083597,"INDEKS":0.21762602749727203,"STATUS":"CUKUP","ID_PROV":"31","PROVINSI":"DKI JAKARTA","ID_KABKOT":"31.71","KABKOT":"KOTA ADM. JAKARTA PUSAT","ID_KEC":"31.71.08","KECAMATAN":"JOHAR BARU","ID_DESA":"31.71.08.1001","DESA":"JOHAR BARU"}},{"type":"Feature","geometry":{"coordinates":[[[106.86687462568622,-6.155724653921241],[106.87585777852742,-6.155724653921241],[106.87585777852742,-6.164715434612578],[106.86687462568622,-6.164715434612578],[106.86687462568622,-6.155724653921241]]],"type":"Polygon"},"properties":{"fid":497460,"ID_GRID":5086594,"INDEKS":0.21807193969563676,"STATUS":"CUKUP","ID_PROV":"31","PROVINSI":"DKI JAKARTA","ID_KABKOT":"31.71","KABKOT":"KOTA ADM. JAKARTA PUSAT","ID_KEC":"31.71.03","KECAMATAN":"KEMAYORAN","ID_DESA":"31.71.03.1007","DESA":"SUMUR BATU"}},{"type":"Feature","geometry":{"coordinates":[[[106.86687462568622,-6.164715434612578],[106.87585777852742,-6.164715434612578],[106.87585777852742,-6.173706060904413],[106.86687462568622,-6.173706060904413],[106.86687462568622,-6.164715434612578]]],"type":"Polygon"},"properties":{"fid":497461,"ID_GRID":5086595,"INDEKS":0.24293591547329782,"STATUS":"CUKUP","ID_PROV":"31","PROVINSI":"DKI JAKARTA","ID_KABKOT":"31.71","KABKOT":"KOTA ADM. JAKARTA PUSAT","ID_KEC":"31.71.05","KECAMATAN":"CEMPAKA PUTIH","ID_DESA":"31.71.05.1001","DESA":"CEMPAKA PUTIH TIMUR"}},{"type":"Feature","geometry":{"coordinates":[[[106.86687462568622,-6.173706060904413],[106.87585777852742,-6.173706060904413],[106.87585777852742,-6.182696532575203],[106.86687462568622,-6.182696532575203],[106.86687462568622,-6.173706060904413]]],"type":"Polygon"},"properties":{"fid":497462,"ID_GRID":5086596,"INDEKS":0.25829020644572964,"STATUS":"CUKUP","ID_PROV":"31","PROVINSI":"DKI JAKARTA","ID_KABKOT":"31.71","KABKOT":"KOTA ADM. JAKARTA PUSAT","ID_KEC":"31.71.05","KECAMATAN":"CEMPAKA PUTIH","ID_DESA":"31.71.05.1001","DESA":"CEMPAKA PUTIH TIMUR"}},{"type":"Feature","geometry":{"coordinates":[[[106.86687462568622,-6.182696532575203],[106.87585777852742,-6.182696532575203],[106.87585777852742,-6.191686849403425],[106.86687462568622,-6.191686849403425],[106.86687462568622,-6.182696532575203]]],"type":"Polygon"},"properties":{"fid":497463,"ID_GRID":5086597,"INDEKS":0.2732237467697939,"STATUS":"CUKUP","ID_PROV":"31","PROVINSI":"DKI JAKARTA","ID_KABKOT":"31.71","KABKOT":"KOTA ADM. JAKARTA PUSAT","ID_KEC":"31.71.05","KECAMATAN":"CEMPAKA PUTIH","ID_DESA":"31.71.05.1003","DESA":"RAWASARI"}}]}