{"type":"FeatureCollection","features":[{"type":"Feature","geometry":{"coordinates":[[[106.64229580465636,-6.227646563860785],[106.65127895749755,-6.227646563860785],[106.65127895749755,-6.236636103153963],[106.64229580465636,-6.236636103153963],[106.64229580465636,-6.227646563860785]]],"type":"Polygon"},"properties":{"fid":493027,"ID_GRID":5011602,"INDEKS":0.375427600348272,"STATUS":"CUKUP","ID_PROV":"36","PROVINSI":"BANTEN","ID_KABKOT":"36.74","KABKOT":"KOTA TANGERANG SELATAN","ID_KEC":"36.74.02","KECAMATAN":"SERPONG UTARA","ID_DESA":"36.74.02.1002","DESA":"PAKUALAM"}},{"type":"Feature","geometry":{"coordinates":[[[106.64229580465636,-6.236636103153963],[106.65127895749755,-6.236636103153963],[106.65127895749755,-6.245625486275833],[106.64229580465636,-6.245625486275833],[106.64229580465636,-6.236636103153963]]],"type":"Polygon"},"properties":{"fid":493028,"ID_GRID":5011603,"INDEKS":0.32950826300683295,"STATUS":"CUKUP","ID_PROV":"36","PROVINSI":"BANTEN","ID_KABKOT":"36.74","KABKOT":"KOTA TANGERANG SELATAN","ID_KEC":"36.74.02","KECAMATAN":"SERPONG UTARA","ID_DESA":"36.74.02.1001","DESA":"PAKULONAN"}},{"type":"Feature","geometry":{"coordinates":[[[106.64229580465636,-6.245625486275833],[106.65127895749755,-6.245625486275833],[106.65127895749755,-6.254614713005012],[106.64229580465636,-6.254614713005012],[106.64229580465636,-6.245625486275833]]],"type":"Polygon"},"properties":{"fid":493029,"ID_GRID":5011604,"INDEKS":0.39484945330833277,"STATUS":"CUKUP","ID_PROV":"36","PROVINSI":"BANTEN","ID_KABKOT":"36.74","KABKOT":"KOTA TANGERANG SELATAN","ID_KEC":"36.74.02","KECAMATAN":"SERPONG UTARA","ID_DESA":"36.74.02.1001","DESA":"PAKULONAN"}},{"type":"Feature","geometry":{"coordinates":[[[106.64229580465636,-6.27259269639983],[106.65127895749755,-6.27259269639983],[106.65127895749755,-6.281581452622801],[106.64229580465636,-6.281581452622801],[106.64229580465636,-6.27259269639983]]],"type":"Polygon"},"properties":{"fid":493032,"ID_GRID":5011607,"INDEKS":0.5513377270716078,"STATUS":"SEDANG","ID_PROV":"36","PROVINSI":"BANTEN","ID_KABKOT":"36.74","KABKOT":"KOTA TANGERANG SELATAN","ID_KEC":"36.74.02","KECAMATAN":"SERPONG UTARA","ID_DESA":"36.74.02.1007","DESA":"LENGKONG KARYA"}},{"type":"Feature","geometry":{"coordinates":[[[106.65127895749755,-6.227646563860785],[106.66026211033873,-6.227646563860785],[106.66026211033873,-6.236636103153963],[106.65127895749755,-6.236636103153963],[106.65127895749755,-6.227646563860785]]],"type":"Polygon"},"properties":{"fid":493224,"ID_GRID":5014602,"INDEKS":0.3994203879403017,"STATUS":"CUKUP","ID_PROV":"36","PROVINSI":"BANTEN","ID_KABKOT":"36.74","KABKOT":"KOTA TANGERANG SELATAN","ID_KEC":"36.74.02","KECAMATAN":"SERPONG UTARA","ID_DESA":"36.74.02.1002","DESA":"PAKUALAM"}},{"type":"Feature","geometry":{"coordinates":[[[106.65127895749755,-6.236636103153963],[106.66026211033873,-6.236636103153963],[106.66026211033873,-6.245625486275833],[106.65127895749755,-6.245625486275833],[106.65127895749755,-6.236636103153963]]],"type":"Polygon"},"properties":{"fid":493225,"ID_GRID":5014603,"INDEKS":0.39004269487218535,"STATUS":"CUKUP","ID_PROV":"36","PROVINSI":"BANTEN","ID_KABKOT":"36.74","KABKOT":"KOTA TANGERANG SELATAN","ID_KEC":"36.74.02","KECAMATAN":"SERPONG UTARA","ID_DESA":"36.74.02.1001","DESA":"PAKULONAN"}},{"type":"Feature","geometry":{"coordinates":[[[106.65127895749755,-6.245625486275833],[106.66026211033873,-6.245625486275833],[106.66026211033873,-6.254614713005012],[106.65127895749755,-6.254614713005012],[106.65127895749755,-6.245625486275833]]],"type":"Polygon"},"properties":{"fid":493226,"ID_GRID":5014604,"INDEKS":0.396917606539586,"STATUS":"CUKUP","ID_PROV":"36","PROVINSI":"BANTEN","ID_KABKOT":"36.74","KABKOT":"KOTA TANGERANG SELATAN","ID_KEC":"36.74.02","KECAMATAN":"SERPONG UTARA","ID_DESA":"36.74.02.1001","DESA":"PAKULONAN"}},{"type":"Feature","geometry":{"coordinates":[[[106.65127895749755,-6.254614713005012],[106.66026211033873,-6.254614713005012],[106.66026211033873,-6.263603783120125],[106.65127895749755,-6.263603783120125],[106.65127895749755,-6.254614713005012]]],"type":"Polygon"},"properties":{"fid":493227,"ID_GRID":5014605,"INDEKS":0.3369928856334958,"STATUS":"CUKUP","ID_PROV":"36","PROVINSI":"BANTEN","ID_KABKOT":"36.74","KABKOT":"KOTA TANGERANG SELATAN","ID_KEC":"36.74.02","KECAMATAN":"SERPONG UTARA","ID_DESA":"36.74.02.1004","DESA":"PONDOK JAGUNG"}},{"type":"Feature","geometry":{"coordinates":[[[106.65127895749755,-6.263603783120125],[106.66026211033873,-6.263603783120125],[106.66026211033873,-6.27259269639983],[106.65127895749755,-6.27259269639983],[106.65127895749755,-6.263603783120125]]],"type":"Polygon"},"properties":{"fid":493228,"ID_GRID":5014606,"INDEKS":0.3563028705213133,"STATUS":"CUKUP","ID_PROV":"36","PROVINSI":"BANTEN","ID_KABKOT":"36.74","KABKOT":"KOTA TANGERANG SELATAN","ID_KEC":"36.74.02","KECAMATAN":"SERPONG UTARA","ID_DESA":"36.74.02.1007","DESA":"LENGKONG KARYA"}},{"type":"Feature","geometry":{"coordinates":[[[106.65127895749755,-6.27259269639983],[106.66026211033873,-6.27259269639983],[106.66026211033873,-6.281581452622801],[106.65127895749755,-6.281581452622801],[106.65127895749755,-6.27259269639983]]],"type":"Polygon"},"properties":{"fid":493229,"ID_GRID":5014607,"INDEKS":0.4935851371622978,"STATUS":"SEDANG","ID_PROV":"36","PROVINSI":"BANTEN","ID_KABKOT":"36.74","KABKOT":"KOTA TANGERANG SELATAN","ID_KEC":"36.74.02","KECAMATAN":"SERPONG UTARA","ID_DESA":"36.74.02.1007","DESA":"LENGKONG KARYA"}},{"type":"Feature","geometry":{"coordinates":[[[106.65127895749755,-6.290570051567724],[106.66026211033873,-6.290570051567724],[106.66026211033873,-6.299558493013317],[106.65127895749755,-6.299558493013317],[106.65127895749755,-6.290570051567724]]],"type":"Polygon"},"properties":{"fid":493231,"ID_GRID":5014609,"INDEKS":0.5032221764408196,"STATUS":"SEDANG","ID_PROV":"36","PROVINSI":"BANTEN","ID_KABKOT":"36.74","KABKOT":"KOTA TANGERANG SELATAN","ID_KEC":"36.74.01","KECAMATAN":"SERPONG","ID_DESA":"36.74.01.1004","DESA":"LENGKONG GUDANG"}},{"type":"Feature","geometry":{"coordinates":[[[106.65127895749755,-6.335510679377327],[106.66026211033873,-6.335510679377327],[106.66026211033873,-6.344498330007653],[106.65127895749755,-6.344498330007653],[106.65127895749755,-6.335510679377327]]],"type":"Polygon"},"properties":{"fid":493236,"ID_GRID":5014614,"INDEKS":0.5031544343252813,"STATUS":"SEDANG","ID_PROV":"36","PROVINSI":"BANTEN","ID_KABKOT":"36.74","KABKOT":"KOTA TANGERANG SELATAN","ID_KEC":"36.74.07","KECAMATAN":"SETU","ID_DESA":"36.74.07.1003","DESA":"KERANGGAN"}},{"type":"Feature","geometry":{"coordinates":[[[106.65127895749755,-6.344498330007653],[106.66026211033873,-6.344498330007653],[106.66026211033873,-6.353485821811341],[106.65127895749755,-6.353485821811341],[106.65127895749755,-6.344498330007653]]],"type":"Polygon"},"properties":{"fid":493237,"ID_GRID":5014615,"INDEKS":0.47352089336450726,"STATUS":"SEDANG","ID_PROV":"36","PROVINSI":"BANTEN","ID_KABKOT":"36.74","KABKOT":"KOTA TANGERANG SELATAN","ID_KEC":"36.74.07","KECAMATAN":"SETU","ID_DESA":"36.74.07.1003","DESA":"KERANGGAN"}},{"type":"Feature","geometry":{"coordinates":[[[106.66026211033873,-6.227646563860785],[106.66924526317993,-6.227646563860785],[106.66924526317993,-6.236636103153963],[106.66026211033873,-6.236636103153963],[106.66026211033873,-6.227646563860785]]],"type":"Polygon"},"properties":{"fid":493420,"ID_GRID":5017602,"INDEKS":0.3292693986982463,"STATUS":"CUKUP","ID_PROV":"36","PROVINSI":"BANTEN","ID_KABKOT":"36.74","KABKOT":"KOTA TANGERANG SELATAN","ID_KEC":"36.74.02","KECAMATAN":"SERPONG UTARA","ID_DESA":"36.74.02.1002","DESA":"PAKUALAM"}},{"type":"Feature","geometry":{"coordinates":[[[106.66026211033873,-6.236636103153963],[106.66924526317993,-6.236636103153963],[106.66924526317993,-6.245625486275833],[106.66026211033873,-6.245625486275833],[106.66026211033873,-6.236636103153963]]],"type":"Polygon"},"properties":{"fid":493421,"ID_GRID":5017603,"INDEKS":0.36994194935176,"STATUS":"CUKUP","ID_PROV":"36","PROVINSI":"BANTEN","ID_KABKOT":"36.74","KABKOT":"KOTA TANGERANG SELATAN","ID_KEC":"36.74.02","KECAMATAN":"SERPONG UTARA","ID_DESA":"36.74.02.1005","DESA":"PONDOK JAGUNG TIMUR"}},{"type":"Feature","geometry":{"coordinates":[[[106.66026211033873,-6.245625486275833],[106.66924526317993,-6.245625486275833],[106.66924526317993,-6.254614713005012],[106.66026211033873,-6.254614713005012],[106.66026211033873,-6.245625486275833]]],"type":"Polygon"},"properties":{"fid":493422,"ID_GRID":5017604,"INDEKS":0.32394928192975475,"STATUS":"CUKUP","ID_PROV":"36","PROVINSI":"BANTEN","ID_KABKOT":"36.74","KABKOT":"KOTA TANGERANG SELATAN","ID_KEC":"36.74.02","KECAMATAN":"SERPONG UTARA","ID_DESA":"36.74.02.1005","DESA":"PONDOK JAGUNG TIMUR"}},{"type":"Feature","geometry":{"coordinates":[[[106.66026211033873,-6.254614713005012],[106.66924526317993,-6.254614713005012],[106.66924526317993,-6.263603783120125],[106.66026211033873,-6.263603783120125],[106.66026211033873,-6.254614713005012]]],"type":"Polygon"},"properties":{"fid":493423,"ID_GRID":5017605,"INDEKS":0.3231861786326758,"STATUS":"CUKUP","ID_PROV":"36","PROVINSI":"BANTEN","ID_KABKOT":"36.74","KABKOT":"KOTA TANGERANG SELATAN","ID_KEC":"36.74.02","KECAMATAN":"SERPONG UTARA","ID_DESA":"36.74.02.1006","DESA":"JELUPANG"}},{"type":"Feature","geometry":{"coordinates":[[[106.66026211033873,-6.263603783120125],[106.66924526317993,-6.263603783120125],[106.66924526317993,-6.27259269639983],[106.66026211033873,-6.27259269639983],[106.66026211033873,-6.263603783120125]]],"type":"Polygon"},"properties":{"fid":493424,"ID_GRID":5017606,"INDEKS":0.3138662441757647,"STATUS":"CUKUP","ID_PROV":"36","PROVINSI":"BANTEN","ID_KABKOT":"36.74","KABKOT":"KOTA TANGERANG SELATAN","ID_KEC":"36.74.02","KECAMATAN":"SERPONG UTARA","ID_DESA":"36.74.02.1006","DESA":"JELUPANG"}},{"type":"Feature","geometry":{"coordinates":[[[106.66026211033873,-6.27259269639983],[106.66924526317993,-6.27259269639983],[106.66924526317993,-6.281581452622801],[106.66026211033873,-6.281581452622801],[106.66026211033873,-6.27259269639983]]],"type":"Polygon"},"properties":{"fid":493425,"ID_GRID":5017607,"INDEKS":0.371986437170582,"STATUS":"CUKUP","ID_PROV":"36","PROVINSI":"BANTEN","ID_KABKOT":"36.74","KABKOT":"KOTA TANGERANG SELATAN","ID_KEC":"36.74.02","KECAMATAN":"SERPONG UTARA","ID_DESA":"36.74.02.1006","DESA":"JELUPANG"}},{"type":"Feature","geometry":{"coordinates":[[[106.66026211033873,-6.281581452622801],[106.66924526317993,-6.281581452622801],[106.66924526317993,-6.290570051567724],[106.66026211033873,-6.290570051567724],[106.66026211033873,-6.281581452622801]]],"type":"Polygon"},"properties":{"fid":493426,"ID_GRID":5017608,"INDEKS":0.43296845825141017,"STATUS":"SEDANG","ID_PROV":"36","PROVINSI":"BANTEN","ID_KABKOT":"36.74","KABKOT":"KOTA TANGERANG SELATAN","ID_KEC":"36.74.01","KECAMATAN":"SERPONG","ID_DESA":"36.74.01.1005","DESA":"LENGKONG WETAN"}},{"type":"Feature","geometry":{"coordinates":[[[106.66026211033873,-6.290570051567724],[106.66924526317993,-6.290570051567724],[106.66924526317993,-6.299558493013317],[106.66026211033873,-6.299558493013317],[106.66026211033873,-6.290570051567724]]],"type":"Polygon"},"properties":{"fid":493427,"ID_GRID":5017609,"INDEKS":0.3900155453806738,"STATUS":"CUKUP","ID_PROV":"36","PROVINSI":"BANTEN","ID_KABKOT":"36.74","KABKOT":"KOTA TANGERANG SELATAN","ID_KEC":"36.74.01","KECAMATAN":"SERPONG","ID_DESA":"36.74.01.1004","DESA":"LENGKONG GUDANG"}},{"type":"Feature","geometry":{"coordinates":[[[106.66026211033873,-6.299558493013317],[106.66924526317993,-6.299558493013317],[106.66924526317993,-6.308546776738313],[106.66026211033873,-6.308546776738313],[106.66026211033873,-6.299558493013317]]],"type":"Polygon"},"properties":{"fid":493428,"ID_GRID":5017610,"INDEKS":0.42530463290618276,"STATUS":"SEDANG","ID_PROV":"36","PROVINSI":"BANTEN","ID_KABKOT":"36.74","KABKOT":"KOTA TANGERANG SELATAN","ID_KEC":"36.74.01","KECAMATAN":"SERPONG","ID_DESA":"36.74.01.1008","DESA":"CILENGGANG"}},{"type":"Feature","geometry":{"coordinates":[[[106.66026211033873,-6.308546776738313],[106.66924526317993,-6.308546776738313],[106.66924526317993,-6.31753490252146],[106.66026211033873,-6.31753490252146],[106.66026211033873,-6.308546776738313]]],"type":"Polygon"},"properties":{"fid":493429,"ID_GRID":5017611,"INDEKS":0.4304220051366983,"STATUS":"SEDANG","ID_PROV":"36","PROVINSI":"BANTEN","ID_KABKOT":"36.74","KABKOT":"KOTA TANGERANG SELATAN","ID_KEC":"36.74.01","KECAMATAN":"SERPONG","ID_DESA":"36.74.01.1009","DESA":"SERPONG"}},{"type":"Feature","geometry":{"coordinates":[[[106.66026211033873,-6.31753490252146],[106.66924526317993,-6.31753490252146],[106.66924526317993,-6.326522870141535],[106.66026211033873,-6.326522870141535],[106.66026211033873,-6.31753490252146]]],"type":"Polygon"},"properties":{"fid":493430,"ID_GRID":5017612,"INDEKS":0.36789329409758675,"STATUS":"CUKUP","ID_PROV":"36","PROVINSI":"BANTEN","ID_KABKOT":"36.74","KABKOT":"KOTA TANGERANG SELATAN","ID_KEC":"36.74.01","KECAMATAN":"SERPONG","ID_DESA":"36.74.01.1009","DESA":"SERPONG"}},{"type":"Feature","geometry":{"coordinates":[[[106.66026211033873,-6.326522870141535],[106.66924526317993,-6.326522870141535],[106.66924526317993,-6.335510679377327],[106.66026211033873,-6.335510679377327],[106.66026211033873,-6.326522870141535]]],"type":"Polygon"},"properties":{"fid":493431,"ID_GRID":5017613,"INDEKS":0.4237416449684523,"STATUS":"SEDANG","ID_PROV":"36","PROVINSI":"BANTEN","ID_KABKOT":"36.74","KABKOT":"KOTA TANGERANG SELATAN","ID_KEC":"36.74.07","KECAMATAN":"SETU","ID_DESA":"36.74.07.1004","DESA":"KADEMANGAN"}},{"type":"Feature","geometry":{"coordinates":[[[106.66026211033873,-6.335510679377327],[106.66924526317993,-6.335510679377327],[106.66924526317993,-6.344498330007653],[106.66026211033873,-6.344498330007653],[106.66026211033873,-6.335510679377327]]],"type":"Polygon"},"properties":{"fid":493432,"ID_GRID":5017614,"INDEKS":0.396153393623148,"STATUS":"CUKUP","ID_PROV":"36","PROVINSI":"BANTEN","ID_KABKOT":"36.74","KABKOT":"KOTA TANGERANG SELATAN","ID_KEC":"36.74.07","KECAMATAN":"SETU","ID_DESA":"36.74.07.1004","DESA":"KADEMANGAN"}},{"type":"Feature","geometry":{"coordinates":[[[106.66026211033873,-6.344498330007653],[106.66924526317993,-6.344498330007653],[106.66924526317993,-6.353485821811341],[106.66026211033873,-6.353485821811341],[106.66026211033873,-6.344498330007653]]],"type":"Polygon"},"properties":{"fid":493433,"ID_GRID":5017615,"INDEKS":0.4577545161606369,"STATUS":"SEDANG","ID_PROV":"36","PROVINSI":"BANTEN","ID_KABKOT":"36.74","KABKOT":"KOTA TANGERANG SELATAN","ID_KEC":"36.74.07","KECAMATAN":"SETU","ID_DESA":"36.74.07.1001","DESA":"MUNCUL"}},{"type":"Feature","geometry":{"coordinates":[[[106.66026211033873,-6.353485821811341],[106.66924526317993,-6.353485821811341],[106.66924526317993,-6.362473154567247],[106.66026211033873,-6.362473154567247],[106.66026211033873,-6.353485821811341]]],"type":"Polygon"},"properties":{"fid":493434,"ID_GRID":5017616,"INDEKS":0.5794390164404642,"STATUS":"SEDANG","ID_PROV":"36","PROVINSI":"BANTEN","ID_KABKOT":"36.74","KABKOT":"KOTA TANGERANG SELATAN","ID_KEC":"36.74.07","KECAMATAN":"SETU","ID_DESA":"36.74.07.1001","DESA":"MUNCUL"}},{"type":"Feature","geometry":{"coordinates":[[[106.66924526317993,-6.227646563860785],[106.67822841602113,-6.227646563860785],[106.67822841602113,-6.236636103153963],[106.66924526317993,-6.236636103153963],[106.66924526317993,-6.227646563860785]]],"type":"Polygon"},"properties":{"fid":493614,"ID_GRID":5020602,"INDEKS":0.2944358462159009,"STATUS":"CUKUP","ID_PROV":"36","PROVINSI":"BANTEN","ID_KABKOT":"36.74","KABKOT":"KOTA TANGERANG SELATAN","ID_KEC":"36.74.02","KECAMATAN":"SERPONG UTARA","ID_DESA":"36.74.02.1003","DESA":"PAKUJAYA"}},{"type":"Feature","geometry":{"coordinates":[[[106.66924526317993,-6.236636103153963],[106.67822841602113,-6.236636103153963],[106.67822841602113,-6.245625486275833],[106.66924526317993,-6.245625486275833],[106.66924526317993,-6.236636103153963]]],"type":"Polygon"},"properties":{"fid":493615,"ID_GRID":5020603,"INDEKS":0.36210053999793723,"STATUS":"CUKUP","ID_PROV":"36","PROVINSI":"BANTEN","ID_KABKOT":"36.74","KABKOT":"KOTA TANGERANG SELATAN","ID_KEC":"36.74.02","KECAMATAN":"SERPONG UTARA","ID_DESA":"36.74.02.1003","DESA":"PAKUJAYA"}},{"type":"Feature","geometry":{"coordinates":[[[106.66924526317993,-6.245625486275833],[106.67822841602113,-6.245625486275833],[106.67822841602113,-6.254614713005012],[106.66924526317993,-6.254614713005012],[106.66924526317993,-6.245625486275833]]],"type":"Polygon"},"properties":{"fid":493616,"ID_GRID":5020604,"INDEKS":0.3683296034827983,"STATUS":"CUKUP","ID_PROV":"36","PROVINSI":"BANTEN","ID_KABKOT":"36.74","KABKOT":"KOTA TANGERANG SELATAN","ID_KEC":"36.74.02","KECAMATAN":"SERPONG UTARA","ID_DESA":"36.74.02.1005","DESA":"PONDOK JAGUNG TIMUR"}},{"type":"Feature","geometry":{"coordinates":[[[106.66924526317993,-6.254614713005012],[106.67822841602113,-6.254614713005012],[106.67822841602113,-6.263603783120125],[106.66924526317993,-6.263603783120125],[106.66924526317993,-6.254614713005012]]],"type":"Polygon"},"properties":{"fid":493617,"ID_GRID":5020605,"INDEKS":0.3900960061745635,"STATUS":"CUKUP","ID_PROV":"36","PROVINSI":"BANTEN","ID_KABKOT":"36.74","KABKOT":"KOTA TANGERANG SELATAN","ID_KEC":"36.74.02","KECAMATAN":"SERPONG UTARA","ID_DESA":"36.74.02.1006","DESA":"JELUPANG"}},{"type":"Feature","geometry":{"coordinates":[[[106.66924526317993,-6.263603783120125],[106.67822841602113,-6.263603783120125],[106.67822841602113,-6.27259269639983],[106.66924526317993,-6.27259269639983],[106.66924526317993,-6.263603783120125]]],"type":"Polygon"},"properties":{"fid":493618,"ID_GRID":5020606,"INDEKS":0.39524976824162905,"STATUS":"CUKUP","ID_PROV":"36","PROVINSI":"BANTEN","ID_KABKOT":"36.74","KABKOT":"KOTA TANGERANG SELATAN","ID_KEC":"36.74.02","KECAMATAN":"SERPONG UTARA","ID_DESA":"36.74.02.1006","DESA":"JELUPANG"}},{"type":"Feature","geometry":{"coordinates":[[[106.66924526317993,-6.27259269639983],[106.67822841602113,-6.27259269639983],[106.67822841602113,-6.281581452622801],[106.66924526317993,-6.281581452622801],[106.66924526317993,-6.27259269639983]]],"type":"Polygon"},"properties":{"fid":493619,"ID_GRID":5020607,"INDEKS":0.36220749784067635,"STATUS":"CUKUP","ID_PROV":"36","PROVINSI":"BANTEN","ID_KABKOT":"36.74","KABKOT":"KOTA TANGERANG SELATAN","ID_KEC":"36.74.02","KECAMATAN":"SERPONG UTARA","ID_DESA":"36.74.02.1006","DESA":"JELUPANG"}},{"type":"Feature","geometry":{"coordinates":[[[106.66924526317993,-6.281581452622801],[106.67822841602113,-6.281581452622801],[106.67822841602113,-6.290570051567724],[106.66924526317993,-6.290570051567724],[106.66924526317993,-6.281581452622801]]],"type":"Polygon"},"properties":{"fid":493620,"ID_GRID":5020608,"INDEKS":0.3789079809252591,"STATUS":"CUKUP","ID_PROV":"36","PROVINSI":"BANTEN","ID_KABKOT":"36.74","KABKOT":"KOTA TANGERANG SELATAN","ID_KEC":"36.74.01","KECAMATAN":"SERPONG","ID_DESA":"36.74.01.1005","DESA":"LENGKONG WETAN"}},{"type":"Feature","geometry":{"coordinates":[[[106.66924526317993,-6.290570051567724],[106.67822841602113,-6.290570051567724],[106.67822841602113,-6.299558493013317],[106.66924526317993,-6.299558493013317],[106.66924526317993,-6.290570051567724]]],"type":"Polygon"},"properties":{"fid":493621,"ID_GRID":5020609,"INDEKS":0.3723204206150696,"STATUS":"CUKUP","ID_PROV":"36","PROVINSI":"BANTEN","ID_KABKOT":"36.74","KABKOT":"KOTA TANGERANG SELATAN","ID_KEC":"36.74.01","KECAMATAN":"SERPONG","ID_DESA":"36.74.01.1004","DESA":"LENGKONG GUDANG"}},{"type":"Feature","geometry":{"coordinates":[[[106.66924526317993,-6.299558493013317],[106.67822841602113,-6.299558493013317],[106.67822841602113,-6.308546776738313],[106.66924526317993,-6.308546776738313],[106.66924526317993,-6.299558493013317]]],"type":"Polygon"},"properties":{"fid":493622,"ID_GRID":5020610,"INDEKS":0.34485504398554256,"STATUS":"CUKUP","ID_PROV":"36","PROVINSI":"BANTEN","ID_KABKOT":"36.74","KABKOT":"KOTA TANGERANG SELATAN","ID_KEC":"36.74.01","KECAMATAN":"SERPONG","ID_DESA":"36.74.01.1002","DESA":"RAWABUNTU"}},{"type":"Feature","geometry":{"coordinates":[[[106.66924526317993,-6.308546776738313],[106.67822841602113,-6.308546776738313],[106.67822841602113,-6.31753490252146],[106.66924526317993,-6.31753490252146],[106.66924526317993,-6.308546776738313]]],"type":"Polygon"},"properties":{"fid":493623,"ID_GRID":5020611,"INDEKS":0.41350592571890077,"STATUS":"SEDANG","ID_PROV":"36","PROVINSI":"BANTEN","ID_KABKOT":"36.74","KABKOT":"KOTA TANGERANG SELATAN","ID_KEC":"36.74.01","KECAMATAN":"SERPONG","ID_DESA":"36.74.01.1008","DESA":"CILENGGANG"}},{"type":"Feature","geometry":{"coordinates":[[[106.66924526317993,-6.31753490252146],[106.67822841602113,-6.31753490252146],[106.67822841602113,-6.326522870141535],[106.66924526317993,-6.326522870141535],[106.66924526317993,-6.31753490252146]]],"type":"Polygon"},"properties":{"fid":493624,"ID_GRID":5020612,"INDEKS":0.4192865555751489,"STATUS":"SEDANG","ID_PROV":"36","PROVINSI":"BANTEN","ID_KABKOT":"36.74","KABKOT":"KOTA TANGERANG SELATAN","ID_KEC":"36.74.01","KECAMATAN":"SERPONG","ID_DESA":"36.74.01.1009","DESA":"SERPONG"}},{"type":"Feature","geometry":{"coordinates":[[[106.66924526317993,-6.326522870141535],[106.67822841602113,-6.326522870141535],[106.67822841602113,-6.335510679377327],[106.66924526317993,-6.335510679377327],[106.66924526317993,-6.326522870141535]]],"type":"Polygon"},"properties":{"fid":493625,"ID_GRID":5020613,"INDEKS":0.36531581733634766,"STATUS":"CUKUP","ID_PROV":"36","PROVINSI":"BANTEN","ID_KABKOT":"36.74","KABKOT":"KOTA TANGERANG SELATAN","ID_KEC":"36.74.07","KECAMATAN":"SETU","ID_DESA":"36.74.07.1002","DESA":"SETU"}},{"type":"Feature","geometry":{"coordinates":[[[106.66924526317993,-6.335510679377327],[106.67822841602113,-6.335510679377327],[106.67822841602113,-6.344498330007653],[106.66924526317993,-6.344498330007653],[106.66924526317993,-6.335510679377327]]],"type":"Polygon"},"properties":{"fid":493626,"ID_GRID":5020614,"INDEKS":0.3519717319245963,"STATUS":"CUKUP","ID_PROV":"36","PROVINSI":"BANTEN","ID_KABKOT":"36.74","KABKOT":"KOTA TANGERANG SELATAN","ID_KEC":"36.74.07","KECAMATAN":"SETU","ID_DESA":"36.74.07.1002","DESA":"SETU"}},{"type":"Feature","geometry":{"coordinates":[[[106.66924526317993,-6.344498330007653],[106.67822841602113,-6.344498330007653],[106.67822841602113,-6.353485821811341],[106.66924526317993,-6.353485821811341],[106.66924526317993,-6.344498330007653]]],"type":"Polygon"},"properties":{"fid":493627,"ID_GRID":5020615,"INDEKS":0.4634334767901155,"STATUS":"SEDANG","ID_PROV":"36","PROVINSI":"BANTEN","ID_KABKOT":"36.74","KABKOT":"KOTA TANGERANG SELATAN","ID_KEC":"36.74.07","KECAMATAN":"SETU","ID_DESA":"36.74.07.1002","DESA":"SETU"}},{"type":"Feature","geometry":{"coordinates":[[[106.66924526317993,-6.353485821811341],[106.67822841602113,-6.353485821811341],[106.67822841602113,-6.362473154567247],[106.66924526317993,-6.362473154567247],[106.66924526317993,-6.353485821811341]]],"type":"Polygon"},"properties":{"fid":493628,"ID_GRID":5020616,"INDEKS":0.5587002566339923,"STATUS":"SEDANG","ID_PROV":"36","PROVINSI":"BANTEN","ID_KABKOT":"36.74","KABKOT":"KOTA TANGERANG SELATAN","ID_KEC":"36.74.07","KECAMATAN":"SETU","ID_DESA":"36.74.07.1001","DESA":"MUNCUL"}},{"type":"Feature","geometry":{"coordinates":[[[106.67822841602113,-6.227646563860785],[106.68721156886232,-6.227646563860785],[106.68721156886232,-6.236636103153963],[106.67822841602113,-6.236636103153963],[106.67822841602113,-6.227646563860785]]],"type":"Polygon"},"properties":{"fid":493804,"ID_GRID":5023602,"INDEKS":0.29351984814178844,"STATUS":"CUKUP","ID_PROV":"36","PROVINSI":"BANTEN","ID_KABKOT":"36.74","KABKOT":"KOTA TANGERANG SELATAN","ID_KEC":"36.74.02","KECAMATAN":"SERPONG UTARA","ID_DESA":"36.74.02.1003","DESA":"PAKUJAYA"}},{"type":"Feature","geometry":{"coordinates":[[[106.67822841602113,-6.236636103153963],[106.68721156886232,-6.236636103153963],[106.68721156886232,-6.245625486275833],[106.67822841602113,-6.245625486275833],[106.67822841602113,-6.236636103153963]]],"type":"Polygon"},"properties":{"fid":493805,"ID_GRID":5023603,"INDEKS":0.3915565082028549,"STATUS":"CUKUP","ID_PROV":"36","PROVINSI":"BANTEN","ID_KABKOT":"36.74","KABKOT":"KOTA TANGERANG SELATAN","ID_KEC":"36.74.02","KECAMATAN":"SERPONG UTARA","ID_DESA":"36.74.02.1003","DESA":"PAKUJAYA"}},{"type":"Feature","geometry":{"coordinates":[[[106.67822841602113,-6.245625486275833],[106.68721156886232,-6.245625486275833],[106.68721156886232,-6.254614713005012],[106.67822841602113,-6.254614713005012],[106.67822841602113,-6.245625486275833]]],"type":"Polygon"},"properties":{"fid":493806,"ID_GRID":5023604,"INDEKS":0.38068912979115777,"STATUS":"CUKUP","ID_PROV":"36","PROVINSI":"BANTEN","ID_KABKOT":"36.74","KABKOT":"KOTA TANGERANG SELATAN","ID_KEC":"36.74.03","KECAMATAN":"PONDOK AREN","ID_DESA":"36.74.03.1006","DESA":"PONDOK KACANG BARAT"}},{"type":"Feature","geometry":{"coordinates":[[[106.67822841602113,-6.254614713005012],[106.68721156886232,-6.254614713005012],[106.68721156886232,-6.263603783120125],[106.67822841602113,-6.263603783120125],[106.67822841602113,-6.254614713005012]]],"type":"Polygon"},"properties":{"fid":493807,"ID_GRID":5023605,"INDEKS":0.3982104418664158,"STATUS":"CUKUP","ID_PROV":"36","PROVINSI":"BANTEN","ID_KABKOT":"36.74","KABKOT":"KOTA TANGERANG SELATAN","ID_KEC":"36.74.03","KECAMATAN":"PONDOK AREN","ID_DESA":"36.74.03.1006","DESA":"PONDOK KACANG BARAT"}},{"type":"Feature","geometry":{"coordinates":[[[106.67822841602113,-6.263603783120125],[106.68721156886232,-6.263603783120125],[106.68721156886232,-6.27259269639983],[106.67822841602113,-6.27259269639983],[106.67822841602113,-6.263603783120125]]],"type":"Polygon"},"properties":{"fid":493808,"ID_GRID":5023606,"INDEKS":0.4771807976032858,"STATUS":"SEDANG","ID_PROV":"36","PROVINSI":"BANTEN","ID_KABKOT":"36.74","KABKOT":"KOTA TANGERANG SELATAN","ID_KEC":"36.74.03","KECAMATAN":"PONDOK AREN","ID_DESA":"36.74.03.1009","DESA":"PARIGI BARU"}},{"type":"Feature","geometry":{"coordinates":[[[106.67822841602113,-6.27259269639983],[106.68721156886232,-6.27259269639983],[106.68721156886232,-6.281581452622801],[106.67822841602113,-6.281581452622801],[106.67822841602113,-6.27259269639983]]],"type":"Polygon"},"properties":{"fid":493809,"ID_GRID":5023607,"INDEKS":0.498434883202036,"STATUS":"SEDANG","ID_PROV":"36","PROVINSI":"BANTEN","ID_KABKOT":"36.74","KABKOT":"KOTA TANGERANG SELATAN","ID_KEC":"36.74.03","KECAMATAN":"PONDOK AREN","ID_DESA":"36.74.03.1009","DESA":"PARIGI BARU"}},{"type":"Feature","geometry":{"coordinates":[[[106.67822841602113,-6.281581452622801],[106.68721156886232,-6.281581452622801],[106.68721156886232,-6.290570051567724],[106.67822841602113,-6.290570051567724],[106.67822841602113,-6.281581452622801]]],"type":"Polygon"},"properties":{"fid":493810,"ID_GRID":5023608,"INDEKS":0.4302816690245936,"STATUS":"SEDANG","ID_PROV":"36","PROVINSI":"BANTEN","ID_KABKOT":"36.74","KABKOT":"KOTA TANGERANG SELATAN","ID_KEC":"36.74.01","KECAMATAN":"SERPONG","ID_DESA":"36.74.01.1005","DESA":"LENGKONG WETAN"}},{"type":"Feature","geometry":{"coordinates":[[[106.67822841602113,-6.290570051567724],[106.68721156886232,-6.290570051567724],[106.68721156886232,-6.299558493013317],[106.67822841602113,-6.299558493013317],[106.67822841602113,-6.290570051567724]]],"type":"Polygon"},"properties":{"fid":493811,"ID_GRID":5023609,"INDEKS":0.37030528689656816,"STATUS":"CUKUP","ID_PROV":"36","PROVINSI":"BANTEN","ID_KABKOT":"36.74","KABKOT":"KOTA TANGERANG SELATAN","ID_KEC":"36.74.01","KECAMATAN":"SERPONG","ID_DESA":"36.74.01.1007","DESA":"LENGKONG GUDANG TIMUR"}},{"type":"Feature","geometry":{"coordinates":[[[106.67822841602113,-6.299558493013317],[106.68721156886232,-6.299558493013317],[106.68721156886232,-6.308546776738313],[106.67822841602113,-6.308546776738313],[106.67822841602113,-6.299558493013317]]],"type":"Polygon"},"properties":{"fid":493812,"ID_GRID":5023610,"INDEKS":0.30602447537177385,"STATUS":"CUKUP","ID_PROV":"36","PROVINSI":"BANTEN","ID_KABKOT":"36.74","KABKOT":"KOTA TANGERANG SELATAN","ID_KEC":"36.74.01","KECAMATAN":"SERPONG","ID_DESA":"36.74.01.1002","DESA":"RAWABUNTU"}},{"type":"Feature","geometry":{"coordinates":[[[106.67822841602113,-6.308546776738313],[106.68721156886232,-6.308546776738313],[106.68721156886232,-6.31753490252146],[106.67822841602113,-6.31753490252146],[106.67822841602113,-6.308546776738313]]],"type":"Polygon"},"properties":{"fid":493813,"ID_GRID":5023611,"INDEKS":0.37425590992740143,"STATUS":"CUKUP","ID_PROV":"36","PROVINSI":"BANTEN","ID_KABKOT":"36.74","KABKOT":"KOTA TANGERANG SELATAN","ID_KEC":"36.74.01","KECAMATAN":"SERPONG","ID_DESA":"36.74.01.1002","DESA":"RAWABUNTU"}},{"type":"Feature","geometry":{"coordinates":[[[106.67822841602113,-6.31753490252146],[106.68721156886232,-6.31753490252146],[106.68721156886232,-6.326522870141535],[106.67822841602113,-6.326522870141535],[106.67822841602113,-6.31753490252146]]],"type":"Polygon"},"properties":{"fid":493814,"ID_GRID":5023612,"INDEKS":0.3812252498645196,"STATUS":"CUKUP","ID_PROV":"36","PROVINSI":"BANTEN","ID_KABKOT":"36.74","KABKOT":"KOTA TANGERANG SELATAN","ID_KEC":"36.74.01","KECAMATAN":"SERPONG","ID_DESA":"36.74.01.1002","DESA":"RAWABUNTU"}},{"type":"Feature","geometry":{"coordinates":[[[106.67822841602113,-6.326522870141535],[106.68721156886232,-6.326522870141535],[106.68721156886232,-6.335510679377327],[106.67822841602113,-6.335510679377327],[106.67822841602113,-6.326522870141535]]],"type":"Polygon"},"properties":{"fid":493815,"ID_GRID":5023613,"INDEKS":0.418993947632385,"STATUS":"SEDANG","ID_PROV":"36","PROVINSI":"BANTEN","ID_KABKOT":"36.74","KABKOT":"KOTA TANGERANG SELATAN","ID_KEC":"36.74.07","KECAMATAN":"SETU","ID_DESA":"36.74.07.1002","DESA":"SETU"}},{"type":"Feature","geometry":{"coordinates":[[[106.67822841602113,-6.335510679377327],[106.68721156886232,-6.335510679377327],[106.68721156886232,-6.344498330007653],[106.67822841602113,-6.344498330007653],[106.67822841602113,-6.335510679377327]]],"type":"Polygon"},"properties":{"fid":493816,"ID_GRID":5023614,"INDEKS":0.43047690886877565,"STATUS":"SEDANG","ID_PROV":"36","PROVINSI":"BANTEN","ID_KABKOT":"36.74","KABKOT":"KOTA TANGERANG SELATAN","ID_KEC":"36.74.07","KECAMATAN":"SETU","ID_DESA":"36.74.07.1002","DESA":"SETU"}},{"type":"Feature","geometry":{"coordinates":[[[106.67822841602113,-6.344498330007653],[106.68721156886232,-6.344498330007653],[106.68721156886232,-6.353485821811341],[106.67822841602113,-6.353485821811341],[106.67822841602113,-6.344498330007653]]],"type":"Polygon"},"properties":{"fid":493817,"ID_GRID":5023615,"INDEKS":0.44133919299498814,"STATUS":"SEDANG","ID_PROV":"36","PROVINSI":"BANTEN","ID_KABKOT":"36.74","KABKOT":"KOTA TANGERANG SELATAN","ID_KEC":"36.74.07","KECAMATAN":"SETU","ID_DESA":"36.74.07.1002","DESA":"SETU"}},{"type":"Feature","geometry":{"coordinates":[[[106.67822841602113,-6.353485821811341],[106.68721156886232,-6.353485821811341],[106.68721156886232,-6.362473154567247],[106.67822841602113,-6.362473154567247],[106.67822841602113,-6.353485821811341]]],"type":"Polygon"},"properties":{"fid":493818,"ID_GRID":5023616,"INDEKS":0.5101618717524631,"STATUS":"SEDANG","ID_PROV":"36","PROVINSI":"BANTEN","ID_KABKOT":"36.74","KABKOT":"KOTA TANGERANG SELATAN","ID_KEC":"36.74.07","KECAMATAN":"SETU","ID_DESA":"36.74.07.1002","DESA":"SETU"}},{"type":"Feature","geometry":{"coordinates":[[[106.68721156886232,-6.245625486275833],[106.69619472170352,-6.245625486275833],[106.69619472170352,-6.254614713005012],[106.68721156886232,-6.254614713005012],[106.68721156886232,-6.245625486275833]]],"type":"Polygon"},"properties":{"fid":493998,"ID_GRID":5026604,"INDEKS":0.3078778435786565,"STATUS":"CUKUP","ID_PROV":"36","PROVINSI":"BANTEN","ID_KABKOT":"36.74","KABKOT":"KOTA TANGERANG SELATAN","ID_KEC":"36.74.03","KECAMATAN":"PONDOK AREN","ID_DESA":"36.74.03.1007","DESA":"PONDOK KACANG TIMUR"}},{"type":"Feature","geometry":{"coordinates":[[[106.68721156886232,-6.254614713005012],[106.69619472170352,-6.254614713005012],[106.69619472170352,-6.263603783120125],[106.68721156886232,-6.263603783120125],[106.68721156886232,-6.254614713005012]]],"type":"Polygon"},"properties":{"fid":493999,"ID_GRID":5026605,"INDEKS":0.3575884990729357,"STATUS":"CUKUP","ID_PROV":"36","PROVINSI":"BANTEN","ID_KABKOT":"36.74","KABKOT":"KOTA TANGERANG SELATAN","ID_KEC":"36.74.03","KECAMATAN":"PONDOK AREN","ID_DESA":"36.74.03.1007","DESA":"PONDOK KACANG TIMUR"}},{"type":"Feature","geometry":{"coordinates":[[[106.68721156886232,-6.263603783120125],[106.69619472170352,-6.263603783120125],[106.69619472170352,-6.27259269639983],[106.68721156886232,-6.27259269639983],[106.68721156886232,-6.263603783120125]]],"type":"Polygon"},"properties":{"fid":494000,"ID_GRID":5026606,"INDEKS":0.463793312564588,"STATUS":"SEDANG","ID_PROV":"36","PROVINSI":"BANTEN","ID_KABKOT":"36.74","KABKOT":"KOTA TANGERANG SELATAN","ID_KEC":"36.74.03","KECAMATAN":"PONDOK AREN","ID_DESA":"36.74.03.1008","DESA":"PARIGI"}},{"type":"Feature","geometry":{"coordinates":[[[106.68721156886232,-6.27259269639983],[106.69619472170352,-6.27259269639983],[106.69619472170352,-6.281581452622801],[106.68721156886232,-6.281581452622801],[106.68721156886232,-6.27259269639983]]],"type":"Polygon"},"properties":{"fid":494001,"ID_GRID":5026607,"INDEKS":0.43314615850886345,"STATUS":"SEDANG","ID_PROV":"36","PROVINSI":"BANTEN","ID_KABKOT":"36.74","KABKOT":"KOTA TANGERANG SELATAN","ID_KEC":"36.74.03","KECAMATAN":"PONDOK AREN","ID_DESA":"36.74.03.1009","DESA":"PARIGI BARU"}},{"type":"Feature","geometry":{"coordinates":[[[106.68721156886232,-6.281581452622801],[106.69619472170352,-6.281581452622801],[106.69619472170352,-6.290570051567724],[106.68721156886232,-6.290570051567724],[106.68721156886232,-6.281581452622801]]],"type":"Polygon"},"properties":{"fid":494002,"ID_GRID":5026608,"INDEKS":0.45894371053841926,"STATUS":"SEDANG","ID_PROV":"36","PROVINSI":"BANTEN","ID_KABKOT":"36.74","KABKOT":"KOTA TANGERANG SELATAN","ID_KEC":"36.74.03","KECAMATAN":"PONDOK AREN","ID_DESA":"36.74.03.1008","DESA":"PARIGI"}},{"type":"Feature","geometry":{"coordinates":[[[106.68721156886232,-6.290570051567724],[106.69619472170352,-6.290570051567724],[106.69619472170352,-6.299558493013317],[106.68721156886232,-6.299558493013317],[106.68721156886232,-6.290570051567724]]],"type":"Polygon"},"properties":{"fid":494003,"ID_GRID":5026609,"INDEKS":0.43271284692051,"STATUS":"SEDANG","ID_PROV":"36","PROVINSI":"BANTEN","ID_KABKOT":"36.74","KABKOT":"KOTA TANGERANG SELATAN","ID_KEC":"36.74.01","KECAMATAN":"SERPONG","ID_DESA":"36.74.01.1007","DESA":"LENGKONG GUDANG TIMUR"}},{"type":"Feature","geometry":{"coordinates":[[[106.68721156886232,-6.299558493013317],[106.69619472170352,-6.299558493013317],[106.69619472170352,-6.308546776738313],[106.68721156886232,-6.308546776738313],[106.68721156886232,-6.299558493013317]]],"type":"Polygon"},"properties":{"fid":494004,"ID_GRID":5026610,"INDEKS":0.3654695685136127,"STATUS":"CUKUP","ID_PROV":"36","PROVINSI":"BANTEN","ID_KABKOT":"36.74","KABKOT":"KOTA TANGERANG SELATAN","ID_KEC":"36.74.01","KECAMATAN":"SERPONG","ID_DESA":"36.74.01.1003","DESA":"RAWA MEKAR JAYA"}},{"type":"Feature","geometry":{"coordinates":[[[106.68721156886232,-6.308546776738313],[106.69619472170352,-6.308546776738313],[106.69619472170352,-6.31753490252146],[106.68721156886232,-6.31753490252146],[106.68721156886232,-6.308546776738313]]],"type":"Polygon"},"properties":{"fid":494005,"ID_GRID":5026611,"INDEKS":0.3795841672586891,"STATUS":"CUKUP","ID_PROV":"36","PROVINSI":"BANTEN","ID_KABKOT":"36.74","KABKOT":"KOTA TANGERANG SELATAN","ID_KEC":"36.74.01","KECAMATAN":"SERPONG","ID_DESA":"36.74.01.1003","DESA":"RAWA MEKAR JAYA"}},{"type":"Feature","geometry":{"coordinates":[[[106.68721156886232,-6.31753490252146],[106.69619472170352,-6.31753490252146],[106.69619472170352,-6.326522870141535],[106.68721156886232,-6.326522870141535],[106.68721156886232,-6.31753490252146]]],"type":"Polygon"},"properties":{"fid":494006,"ID_GRID":5026612,"INDEKS":0.42290775614679393,"STATUS":"SEDANG","ID_PROV":"36","PROVINSI":"BANTEN","ID_KABKOT":"36.74","KABKOT":"KOTA TANGERANG SELATAN","ID_KEC":"36.74.01","KECAMATAN":"SERPONG","ID_DESA":"36.74.01.1001","DESA":"CIATER"}},{"type":"Feature","geometry":{"coordinates":[[[106.68721156886232,-6.326522870141535],[106.69619472170352,-6.326522870141535],[106.69619472170352,-6.335510679377327],[106.68721156886232,-6.335510679377327],[106.68721156886232,-6.326522870141535]]],"type":"Polygon"},"properties":{"fid":494007,"ID_GRID":5026613,"INDEKS":0.48144862044831827,"STATUS":"SEDANG","ID_PROV":"36","PROVINSI":"BANTEN","ID_KABKOT":"36.74","KABKOT":"KOTA TANGERANG SELATAN","ID_KEC":"36.74.01","KECAMATAN":"SERPONG","ID_DESA":"36.74.01.1001","DESA":"CIATER"}},{"type":"Feature","geometry":{"coordinates":[[[106.68721156886232,-6.335510679377327],[106.69619472170352,-6.335510679377327],[106.69619472170352,-6.344498330007653],[106.68721156886232,-6.344498330007653],[106.68721156886232,-6.335510679377327]]],"type":"Polygon"},"properties":{"fid":494008,"ID_GRID":5026614,"INDEKS":0.40763158391548804,"STATUS":"SEDANG","ID_PROV":"36","PROVINSI":"BANTEN","ID_KABKOT":"36.74","KABKOT":"KOTA TANGERANG SELATAN","ID_KEC":"36.74.01","KECAMATAN":"SERPONG","ID_DESA":"36.74.01.1006","DESA":"BUARAN"}},{"type":"Feature","geometry":{"coordinates":[[[106.68721156886232,-6.344498330007653],[106.69619472170352,-6.344498330007653],[106.69619472170352,-6.353485821811341],[106.68721156886232,-6.353485821811341],[106.68721156886232,-6.344498330007653]]],"type":"Polygon"},"properties":{"fid":494009,"ID_GRID":5026615,"INDEKS":0.43829323619657234,"STATUS":"SEDANG","ID_PROV":"36","PROVINSI":"BANTEN","ID_KABKOT":"36.74","KABKOT":"KOTA TANGERANG SELATAN","ID_KEC":"36.74.07","KECAMATAN":"SETU","ID_DESA":"36.74.07.1005","DESA":"BABAKAN"}},{"type":"Feature","geometry":{"coordinates":[[[106.68721156886232,-6.353485821811341],[106.69619472170352,-6.353485821811341],[106.69619472170352,-6.362473154567247],[106.68721156886232,-6.362473154567247],[106.68721156886232,-6.353485821811341]]],"type":"Polygon"},"properties":{"fid":494010,"ID_GRID":5026616,"INDEKS":0.4570900637475146,"STATUS":"SEDANG","ID_PROV":"36","PROVINSI":"BANTEN","ID_KABKOT":"36.74","KABKOT":"KOTA TANGERANG SELATAN","ID_KEC":"36.74.07","KECAMATAN":"SETU","ID_DESA":"36.74.07.1005","DESA":"BABAKAN"}},{"type":"Feature","geometry":{"coordinates":[[[106.69619472170352,-6.254614713005012],[106.7051778745447,-6.254614713005012],[106.7051778745447,-6.263603783120125],[106.69619472170352,-6.263603783120125],[106.69619472170352,-6.254614713005012]]],"type":"Polygon"},"properties":{"fid":494188,"ID_GRID":5029605,"INDEKS":0.30293112026391394,"STATUS":"CUKUP","ID_PROV":"36","PROVINSI":"BANTEN","ID_KABKOT":"36.74","KABKOT":"KOTA TANGERANG SELATAN","ID_KEC":"36.74.03","KECAMATAN":"PONDOK AREN","ID_DESA":"36.74.03.1007","DESA":"PONDOK KACANG TIMUR"}},{"type":"Feature","geometry":{"coordinates":[[[106.69619472170352,-6.263603783120125],[106.7051778745447,-6.263603783120125],[106.7051778745447,-6.27259269639983],[106.69619472170352,-6.27259269639983],[106.69619472170352,-6.263603783120125]]],"type":"Polygon"},"properties":{"fid":494189,"ID_GRID":5029606,"INDEKS":0.364589473249228,"STATUS":"CUKUP","ID_PROV":"36","PROVINSI":"BANTEN","ID_KABKOT":"36.74","KABKOT":"KOTA TANGERANG SELATAN","ID_KEC":"36.74.03","KECAMATAN":"PONDOK AREN","ID_DESA":"36.74.03.1008","DESA":"PARIGI"}},{"type":"Feature","geometry":{"coordinates":[[[106.69619472170352,-6.27259269639983],[106.7051778745447,-6.27259269639983],[106.7051778745447,-6.281581452622801],[106.69619472170352,-6.281581452622801],[106.69619472170352,-6.27259269639983]]],"type":"Polygon"},"properties":{"fid":494190,"ID_GRID":5029607,"INDEKS":0.36915538207366805,"STATUS":"CUKUP","ID_PROV":"36","PROVINSI":"BANTEN","ID_KABKOT":"36.74","KABKOT":"KOTA TANGERANG SELATAN","ID_KEC":"36.74.03","KECAMATAN":"PONDOK AREN","ID_DESA":"36.74.03.1008","DESA":"PARIGI"}},{"type":"Feature","geometry":{"coordinates":[[[106.69619472170352,-6.281581452622801],[106.7051778745447,-6.281581452622801],[106.7051778745447,-6.290570051567724],[106.69619472170352,-6.290570051567724],[106.69619472170352,-6.281581452622801]]],"type":"Polygon"},"properties":{"fid":494191,"ID_GRID":5029608,"INDEKS":0.341287591466398,"STATUS":"CUKUP","ID_PROV":"36","PROVINSI":"BANTEN","ID_KABKOT":"36.74","KABKOT":"KOTA TANGERANG SELATAN","ID_KEC":"36.74.03","KECAMATAN":"PONDOK AREN","ID_DESA":"36.74.03.1008","DESA":"PARIGI"}},{"type":"Feature","geometry":{"coordinates":[[[106.69619472170352,-6.290570051567724],[106.7051778745447,-6.290570051567724],[106.7051778745447,-6.299558493013317],[106.69619472170352,-6.299558493013317],[106.69619472170352,-6.290570051567724]]],"type":"Polygon"},"properties":{"fid":494192,"ID_GRID":5029609,"INDEKS":0.3159167788484517,"STATUS":"CUKUP","ID_PROV":"36","PROVINSI":"BANTEN","ID_KABKOT":"36.74","KABKOT":"KOTA TANGERANG SELATAN","ID_KEC":"36.74.04","KECAMATAN":"CIPUTAT","ID_DESA":"36.74.04.1006","DESA":"JOMBANG"}},{"type":"Feature","geometry":{"coordinates":[[[106.69619472170352,-6.299558493013317],[106.7051778745447,-6.299558493013317],[106.7051778745447,-6.308546776738313],[106.69619472170352,-6.308546776738313],[106.69619472170352,-6.299558493013317]]],"type":"Polygon"},"properties":{"fid":494193,"ID_GRID":5029610,"INDEKS":0.38422803111554843,"STATUS":"CUKUP","ID_PROV":"36","PROVINSI":"BANTEN","ID_KABKOT":"36.74","KABKOT":"KOTA TANGERANG SELATAN","ID_KEC":"36.74.04","KECAMATAN":"CIPUTAT","ID_DESA":"36.74.04.1006","DESA":"JOMBANG"}},{"type":"Feature","geometry":{"coordinates":[[[106.69619472170352,-6.308546776738313],[106.7051778745447,-6.308546776738313],[106.7051778745447,-6.31753490252146],[106.69619472170352,-6.31753490252146],[106.69619472170352,-6.308546776738313]]],"type":"Polygon"},"properties":{"fid":494194,"ID_GRID":5029611,"INDEKS":0.34209626177309244,"STATUS":"CUKUP","ID_PROV":"36","PROVINSI":"BANTEN","ID_KABKOT":"36.74","KABKOT":"KOTA TANGERANG SELATAN","ID_KEC":"36.74.01","KECAMATAN":"SERPONG","ID_DESA":"36.74.01.1001","DESA":"CIATER"}},{"type":"Feature","geometry":{"coordinates":[[[106.69619472170352,-6.31753490252146],[106.7051778745447,-6.31753490252146],[106.7051778745447,-6.326522870141535],[106.69619472170352,-6.326522870141535],[106.69619472170352,-6.31753490252146]]],"type":"Polygon"},"properties":{"fid":494195,"ID_GRID":5029612,"INDEKS":0.4048659531689639,"STATUS":"SEDANG","ID_PROV":"36","PROVINSI":"BANTEN","ID_KABKOT":"36.74","KABKOT":"KOTA TANGERANG SELATAN","ID_KEC":"36.74.01","KECAMATAN":"SERPONG","ID_DESA":"36.74.01.1001","DESA":"CIATER"}},{"type":"Feature","geometry":{"coordinates":[[[106.69619472170352,-6.326522870141535],[106.7051778745447,-6.326522870141535],[106.7051778745447,-6.335510679377327],[106.69619472170352,-6.335510679377327],[106.69619472170352,-6.326522870141535]]],"type":"Polygon"},"properties":{"fid":494196,"ID_GRID":5029613,"INDEKS":0.48519129671302497,"STATUS":"SEDANG","ID_PROV":"36","PROVINSI":"BANTEN","ID_KABKOT":"36.74","KABKOT":"KOTA TANGERANG SELATAN","ID_KEC":"36.74.06","KECAMATAN":"PAMULANG","ID_DESA":"36.74.06.1003","DESA":"PONDOK BENDA"}},{"type":"Feature","geometry":{"coordinates":[[[106.69619472170352,-6.335510679377327],[106.7051778745447,-6.335510679377327],[106.7051778745447,-6.344498330007653],[106.69619472170352,-6.344498330007653],[106.69619472170352,-6.335510679377327]]],"type":"Polygon"},"properties":{"fid":494197,"ID_GRID":5029614,"INDEKS":0.4617412515555686,"STATUS":"SEDANG","ID_PROV":"36","PROVINSI":"BANTEN","ID_KABKOT":"36.74","KABKOT":"KOTA TANGERANG SELATAN","ID_KEC":"36.74.01","KECAMATAN":"SERPONG","ID_DESA":"36.74.01.1006","DESA":"BUARAN"}},{"type":"Feature","geometry":{"coordinates":[[[106.69619472170352,-6.344498330007653],[106.7051778745447,-6.344498330007653],[106.7051778745447,-6.353485821811341],[106.69619472170352,-6.353485821811341],[106.69619472170352,-6.344498330007653]]],"type":"Polygon"},"properties":{"fid":494198,"ID_GRID":5029615,"INDEKS":0.39067166797481606,"STATUS":"CUKUP","ID_PROV":"36","PROVINSI":"BANTEN","ID_KABKOT":"36.74","KABKOT":"KOTA TANGERANG SELATAN","ID_KEC":"36.74.07","KECAMATAN":"SETU","ID_DESA":"36.74.07.1006","DESA":"BAKTI JAYA"}},{"type":"Feature","geometry":{"coordinates":[[[106.69619472170352,-6.353485821811341],[106.7051778745447,-6.353485821811341],[106.7051778745447,-6.362473154567247],[106.69619472170352,-6.362473154567247],[106.69619472170352,-6.353485821811341]]],"type":"Polygon"},"properties":{"fid":494199,"ID_GRID":5029616,"INDEKS":0.384343003459049,"STATUS":"CUKUP","ID_PROV":"36","PROVINSI":"BANTEN","ID_KABKOT":"36.74","KABKOT":"KOTA TANGERANG SELATAN","ID_KEC":"36.74.07","KECAMATAN":"SETU","ID_DESA":"36.74.07.1006","DESA":"BAKTI JAYA"}},{"type":"Feature","geometry":{"coordinates":[[[106.7051778745447,-6.254614713005012],[106.7141610273859,-6.254614713005012],[106.7141610273859,-6.263603783120125],[106.7051778745447,-6.263603783120125],[106.7051778745447,-6.254614713005012]]],"type":"Polygon"},"properties":{"fid":494377,"ID_GRID":5032605,"INDEKS":0.32537248155959053,"STATUS":"CUKUP","ID_PROV":"36","PROVINSI":"BANTEN","ID_KABKOT":"36.74","KABKOT":"KOTA TANGERANG SELATAN","ID_KEC":"36.74.03","KECAMATAN":"PONDOK AREN","ID_DESA":"36.74.03.1005","DESA":"PONDOK AREN"}},{"type":"Feature","geometry":{"coordinates":[[[106.7051778745447,-6.263603783120125],[106.7141610273859,-6.263603783120125],[106.7141610273859,-6.27259269639983],[106.7051778745447,-6.27259269639983],[106.7051778745447,-6.263603783120125]]],"type":"Polygon"},"properties":{"fid":494378,"ID_GRID":5032606,"INDEKS":0.3535055605176395,"STATUS":"CUKUP","ID_PROV":"36","PROVINSI":"BANTEN","ID_KABKOT":"36.74","KABKOT":"KOTA TANGERANG SELATAN","ID_KEC":"36.74.03","KECAMATAN":"PONDOK AREN","ID_DESA":"36.74.03.1004","DESA":"PONDOK JAYA"}},{"type":"Feature","geometry":{"coordinates":[[[106.7051778745447,-6.27259269639983],[106.7141610273859,-6.27259269639983],[106.7141610273859,-6.281581452622801],[106.7051778745447,-6.281581452622801],[106.7051778745447,-6.27259269639983]]],"type":"Polygon"},"properties":{"fid":494379,"ID_GRID":5032607,"INDEKS":0.3382148944412536,"STATUS":"CUKUP","ID_PROV":"36","PROVINSI":"BANTEN","ID_KABKOT":"36.74","KABKOT":"KOTA TANGERANG SELATAN","ID_KEC":"36.74.03","KECAMATAN":"PONDOK AREN","ID_DESA":"36.74.03.1002","DESA":"PONDOK PUCUNG"}},{"type":"Feature","geometry":{"coordinates":[[[106.7051778745447,-6.281581452622801],[106.7141610273859,-6.281581452622801],[106.7141610273859,-6.290570051567724],[106.7051778745447,-6.290570051567724],[106.7051778745447,-6.281581452622801]]],"type":"Polygon"},"properties":{"fid":494380,"ID_GRID":5032608,"INDEKS":0.31525802445367895,"STATUS":"CUKUP","ID_PROV":"36","PROVINSI":"BANTEN","ID_KABKOT":"36.74","KABKOT":"KOTA TANGERANG SELATAN","ID_KEC":"36.74.03","KECAMATAN":"PONDOK AREN","ID_DESA":"36.74.03.1002","DESA":"PONDOK PUCUNG"}},{"type":"Feature","geometry":{"coordinates":[[[106.7051778745447,-6.290570051567724],[106.7141610273859,-6.290570051567724],[106.7141610273859,-6.299558493013317],[106.7051778745447,-6.299558493013317],[106.7051778745447,-6.290570051567724]]],"type":"Polygon"},"properties":{"fid":494381,"ID_GRID":5032609,"INDEKS":0.2946521805666038,"STATUS":"CUKUP","ID_PROV":"36","PROVINSI":"BANTEN","ID_KABKOT":"36.74","KABKOT":"KOTA TANGERANG SELATAN","ID_KEC":"36.74.04","KECAMATAN":"CIPUTAT","ID_DESA":"36.74.04.1006","DESA":"JOMBANG"}},{"type":"Feature","geometry":{"coordinates":[[[106.7051778745447,-6.299558493013317],[106.7141610273859,-6.299558493013317],[106.7141610273859,-6.308546776738313],[106.7051778745447,-6.308546776738313],[106.7051778745447,-6.299558493013317]]],"type":"Polygon"},"properties":{"fid":494382,"ID_GRID":5032610,"INDEKS":0.34730496683860207,"STATUS":"CUKUP","ID_PROV":"36","PROVINSI":"BANTEN","ID_KABKOT":"36.74","KABKOT":"KOTA TANGERANG SELATAN","ID_KEC":"36.74.04","KECAMATAN":"CIPUTAT","ID_DESA":"36.74.04.1006","DESA":"JOMBANG"}},{"type":"Feature","geometry":{"coordinates":[[[106.7051778745447,-6.308546776738313],[106.7141610273859,-6.308546776738313],[106.7141610273859,-6.31753490252146],[106.7051778745447,-6.31753490252146],[106.7051778745447,-6.308546776738313]]],"type":"Polygon"},"properties":{"fid":494383,"ID_GRID":5032611,"INDEKS":0.3484763910017285,"STATUS":"CUKUP","ID_PROV":"36","PROVINSI":"BANTEN","ID_KABKOT":"36.74","KABKOT":"KOTA TANGERANG SELATAN","ID_KEC":"36.74.04","KECAMATAN":"CIPUTAT","ID_DESA":"36.74.04.1002","DESA":"SERUA"}},{"type":"Feature","geometry":{"coordinates":[[[106.7051778745447,-6.31753490252146],[106.7141610273859,-6.31753490252146],[106.7141610273859,-6.326522870141535],[106.7051778745447,-6.326522870141535],[106.7051778745447,-6.31753490252146]]],"type":"Polygon"},"properties":{"fid":494384,"ID_GRID":5032612,"INDEKS":0.35736653175530375,"STATUS":"CUKUP","ID_PROV":"36","PROVINSI":"BANTEN","ID_KABKOT":"36.74","KABKOT":"KOTA TANGERANG SELATAN","ID_KEC":"36.74.04","KECAMATAN":"CIPUTAT","ID_DESA":"36.74.04.1002","DESA":"SERUA"}},{"type":"Feature","geometry":{"coordinates":[[[106.7051778745447,-6.326522870141535],[106.7141610273859,-6.326522870141535],[106.7141610273859,-6.335510679377327],[106.7051778745447,-6.335510679377327],[106.7051778745447,-6.326522870141535]]],"type":"Polygon"},"properties":{"fid":494385,"ID_GRID":5032613,"INDEKS":0.3054030101380291,"STATUS":"CUKUP","ID_PROV":"36","PROVINSI":"BANTEN","ID_KABKOT":"36.74","KABKOT":"KOTA TANGERANG SELATAN","ID_KEC":"36.74.06","KECAMATAN":"PAMULANG","ID_DESA":"36.74.06.1002","DESA":"BENDA BARU"}},{"type":"Feature","geometry":{"coordinates":[[[106.7051778745447,-6.335510679377327],[106.7141610273859,-6.335510679377327],[106.7141610273859,-6.344498330007653],[106.7051778745447,-6.344498330007653],[106.7051778745447,-6.335510679377327]]],"type":"Polygon"},"properties":{"fid":494386,"ID_GRID":5032614,"INDEKS":0.35305524125517346,"STATUS":"CUKUP","ID_PROV":"36","PROVINSI":"BANTEN","ID_KABKOT":"36.74","KABKOT":"KOTA TANGERANG SELATAN","ID_KEC":"36.74.06","KECAMATAN":"PAMULANG","ID_DESA":"36.74.06.1003","DESA":"PONDOK BENDA"}},{"type":"Feature","geometry":{"coordinates":[[[106.7051778745447,-6.344498330007653],[106.7141610273859,-6.344498330007653],[106.7141610273859,-6.353485821811341],[106.7051778745447,-6.353485821811341],[106.7051778745447,-6.344498330007653]]],"type":"Polygon"},"properties":{"fid":494387,"ID_GRID":5032615,"INDEKS":0.3968544894839353,"STATUS":"CUKUP","ID_PROV":"36","PROVINSI":"BANTEN","ID_KABKOT":"36.74","KABKOT":"KOTA TANGERANG SELATAN","ID_KEC":"36.74.07","KECAMATAN":"SETU","ID_DESA":"36.74.07.1006","DESA":"BAKTI JAYA"}},{"type":"Feature","geometry":{"coordinates":[[[106.7051778745447,-6.353485821811341],[106.7141610273859,-6.353485821811341],[106.7141610273859,-6.362473154567247],[106.7051778745447,-6.362473154567247],[106.7051778745447,-6.353485821811341]]],"type":"Polygon"},"properties":{"fid":494388,"ID_GRID":5032616,"INDEKS":0.4506685496662821,"STATUS":"SEDANG","ID_PROV":"36","PROVINSI":"BANTEN","ID_KABKOT":"36.74","KABKOT":"KOTA TANGERANG SELATAN","ID_KEC":"36.74.07","KECAMATAN":"SETU","ID_DESA":"36.74.07.1006","DESA":"BAKTI JAYA"}},{"type":"Feature","geometry":{"coordinates":[[[106.7141610273859,-6.245625486275833],[106.72314418022711,-6.245625486275833],[106.72314418022711,-6.254614713005012],[106.7141610273859,-6.254614713005012],[106.7141610273859,-6.245625486275833]]],"type":"Polygon"},"properties":{"fid":494558,"ID_GRID":5035604,"INDEKS":0.2548563939630454,"STATUS":"CUKUP","ID_PROV":"36","PROVINSI":"BANTEN","ID_KABKOT":"36.74","KABKOT":"KOTA TANGERANG SELATAN","ID_KEC":"36.74.03","KECAMATAN":"PONDOK AREN","ID_DESA":"36.74.03.1010","DESA":"JURANGMANGU BARAT"}},{"type":"Feature","geometry":{"coordinates":[[[106.7141610273859,-6.254614713005012],[106.72314418022711,-6.254614713005012],[106.72314418022711,-6.263603783120125],[106.7141610273859,-6.263603783120125],[106.7141610273859,-6.254614713005012]]],"type":"Polygon"},"properties":{"fid":494559,"ID_GRID":5035605,"INDEKS":0.26581765854982636,"STATUS":"CUKUP","ID_PROV":"36","PROVINSI":"BANTEN","ID_KABKOT":"36.74","KABKOT":"KOTA TANGERANG SELATAN","ID_KEC":"36.74.03","KECAMATAN":"PONDOK AREN","ID_DESA":"36.74.03.1010","DESA":"JURANGMANGU BARAT"}},{"type":"Feature","geometry":{"coordinates":[[[106.7141610273859,-6.263603783120125],[106.72314418022711,-6.263603783120125],[106.72314418022711,-6.27259269639983],[106.7141610273859,-6.27259269639983],[106.7141610273859,-6.263603783120125]]],"type":"Polygon"},"properties":{"fid":494560,"ID_GRID":5035606,"INDEKS":0.3309532479751646,"STATUS":"CUKUP","ID_PROV":"36","PROVINSI":"BANTEN","ID_KABKOT":"36.74","KABKOT":"KOTA TANGERANG SELATAN","ID_KEC":"36.74.03","KECAMATAN":"PONDOK AREN","ID_DESA":"36.74.03.1004","DESA":"PONDOK JAYA"}},{"type":"Feature","geometry":{"coordinates":[[[106.7141610273859,-6.27259269639983],[106.72314418022711,-6.27259269639983],[106.72314418022711,-6.281581452622801],[106.7141610273859,-6.281581452622801],[106.7141610273859,-6.27259269639983]]],"type":"Polygon"},"properties":{"fid":494561,"ID_GRID":5035607,"INDEKS":0.35277054735099145,"STATUS":"CUKUP","ID_PROV":"36","PROVINSI":"BANTEN","ID_KABKOT":"36.74","KABKOT":"KOTA TANGERANG SELATAN","ID_KEC":"36.74.03","KECAMATAN":"PONDOK AREN","ID_DESA":"36.74.03.1004","DESA":"PONDOK JAYA"}},{"type":"Feature","geometry":{"coordinates":[[[106.7141610273859,-6.281581452622801],[106.72314418022711,-6.281581452622801],[106.72314418022711,-6.290570051567724],[106.7141610273859,-6.290570051567724],[106.7141610273859,-6.281581452622801]]],"type":"Polygon"},"properties":{"fid":494562,"ID_GRID":5035608,"INDEKS":0.366632622327139,"STATUS":"CUKUP","ID_PROV":"36","PROVINSI":"BANTEN","ID_KABKOT":"36.74","KABKOT":"KOTA TANGERANG SELATAN","ID_KEC":"36.74.04","KECAMATAN":"CIPUTAT","ID_DESA":"36.74.04.1001","DESA":"SAWAH BARU"}},{"type":"Feature","geometry":{"coordinates":[[[106.7141610273859,-6.290570051567724],[106.72314418022711,-6.290570051567724],[106.72314418022711,-6.299558493013317],[106.7141610273859,-6.299558493013317],[106.7141610273859,-6.290570051567724]]],"type":"Polygon"},"properties":{"fid":494563,"ID_GRID":5035609,"INDEKS":0.3082298307352049,"STATUS":"CUKUP","ID_PROV":"36","PROVINSI":"BANTEN","ID_KABKOT":"36.74","KABKOT":"KOTA TANGERANG SELATAN","ID_KEC":"36.74.04","KECAMATAN":"CIPUTAT","ID_DESA":"36.74.04.1001","DESA":"SAWAH BARU"}},{"type":"Feature","geometry":{"coordinates":[[[106.7141610273859,-6.299558493013317],[106.72314418022711,-6.299558493013317],[106.72314418022711,-6.308546776738313],[106.7141610273859,-6.308546776738313],[106.7141610273859,-6.299558493013317]]],"type":"Polygon"},"properties":{"fid":494564,"ID_GRID":5035610,"INDEKS":0.3473198737371414,"STATUS":"CUKUP","ID_PROV":"36","PROVINSI":"BANTEN","ID_KABKOT":"36.74","KABKOT":"KOTA TANGERANG SELATAN","ID_KEC":"36.74.04","KECAMATAN":"CIPUTAT","ID_DESA":"36.74.04.1001","DESA":"SAWAH BARU"}},{"type":"Feature","geometry":{"coordinates":[[[106.7141610273859,-6.308546776738313],[106.72314418022711,-6.308546776738313],[106.72314418022711,-6.31753490252146],[106.7141610273859,-6.31753490252146],[106.7141610273859,-6.308546776738313]]],"type":"Polygon"},"properties":{"fid":494565,"ID_GRID":5035611,"INDEKS":0.3449094283734033,"STATUS":"CUKUP","ID_PROV":"36","PROVINSI":"BANTEN","ID_KABKOT":"36.74","KABKOT":"KOTA TANGERANG SELATAN","ID_KEC":"36.74.04","KECAMATAN":"CIPUTAT","ID_DESA":"36.74.04.1002","DESA":"SERUA"}},{"type":"Feature","geometry":{"coordinates":[[[106.7141610273859,-6.31753490252146],[106.72314418022711,-6.31753490252146],[106.72314418022711,-6.326522870141535],[106.7141610273859,-6.326522870141535],[106.7141610273859,-6.31753490252146]]],"type":"Polygon"},"properties":{"fid":494566,"ID_GRID":5035612,"INDEKS":0.33379352724913397,"STATUS":"CUKUP","ID_PROV":"36","PROVINSI":"BANTEN","ID_KABKOT":"36.74","KABKOT":"KOTA TANGERANG SELATAN","ID_KEC":"36.74.04","KECAMATAN":"CIPUTAT","ID_DESA":"36.74.04.1002","DESA":"SERUA"}},{"type":"Feature","geometry":{"coordinates":[[[106.7141610273859,-6.326522870141535],[106.72314418022711,-6.326522870141535],[106.72314418022711,-6.335510679377327],[106.7141610273859,-6.335510679377327],[106.7141610273859,-6.326522870141535]]],"type":"Polygon"},"properties":{"fid":494567,"ID_GRID":5035613,"INDEKS":0.3291717344079136,"STATUS":"CUKUP","ID_PROV":"36","PROVINSI":"BANTEN","ID_KABKOT":"36.74","KABKOT":"KOTA TANGERANG SELATAN","ID_KEC":"36.74.06","KECAMATAN":"PAMULANG","ID_DESA":"36.74.06.1002","DESA":"BENDA BARU"}},{"type":"Feature","geometry":{"coordinates":[[[106.7141610273859,-6.335510679377327],[106.72314418022711,-6.335510679377327],[106.72314418022711,-6.344498330007653],[106.7141610273859,-6.344498330007653],[106.7141610273859,-6.335510679377327]]],"type":"Polygon"},"properties":{"fid":494568,"ID_GRID":5035614,"INDEKS":0.33463182526788543,"STATUS":"CUKUP","ID_PROV":"36","PROVINSI":"BANTEN","ID_KABKOT":"36.74","KABKOT":"KOTA TANGERANG SELATAN","ID_KEC":"36.74.06","KECAMATAN":"PAMULANG","ID_DESA":"36.74.06.1002","DESA":"BENDA BARU"}},{"type":"Feature","geometry":{"coordinates":[[[106.7141610273859,-6.344498330007653],[106.72314418022711,-6.344498330007653],[106.72314418022711,-6.353485821811341],[106.7141610273859,-6.353485821811341],[106.7141610273859,-6.344498330007653]]],"type":"Polygon"},"properties":{"fid":494569,"ID_GRID":5035615,"INDEKS":0.3426334210762791,"STATUS":"CUKUP","ID_PROV":"36","PROVINSI":"BANTEN","ID_KABKOT":"36.74","KABKOT":"KOTA TANGERANG SELATAN","ID_KEC":"36.74.06","KECAMATAN":"PAMULANG","ID_DESA":"36.74.06.1003","DESA":"PONDOK BENDA"}},{"type":"Feature","geometry":{"coordinates":[[[106.7141610273859,-6.353485821811341],[106.72314418022711,-6.353485821811341],[106.72314418022711,-6.362473154567247],[106.7141610273859,-6.362473154567247],[106.7141610273859,-6.353485821811341]]],"type":"Polygon"},"properties":{"fid":494570,"ID_GRID":5035616,"INDEKS":0.3669680374220383,"STATUS":"CUKUP","ID_PROV":"36","PROVINSI":"BANTEN","ID_KABKOT":"36.74","KABKOT":"KOTA TANGERANG SELATAN","ID_KEC":"36.74.06","KECAMATAN":"PAMULANG","ID_DESA":"36.74.06.1003","DESA":"PONDOK BENDA"}},{"type":"Feature","geometry":{"coordinates":[[[106.72314418022711,-6.254614713005012],[106.7321273330683,-6.254614713005012],[106.7321273330683,-6.263603783120125],[106.72314418022711,-6.263603783120125],[106.72314418022711,-6.254614713005012]]],"type":"Polygon"},"properties":{"fid":494742,"ID_GRID":5038605,"INDEKS":0.2788786855053137,"STATUS":"CUKUP","ID_PROV":"36","PROVINSI":"BANTEN","ID_KABKOT":"36.74","KABKOT":"KOTA TANGERANG SELATAN","ID_KEC":"36.74.03","KECAMATAN":"PONDOK AREN","ID_DESA":"36.74.03.1010","DESA":"JURANGMANGU BARAT"}},{"type":"Feature","geometry":{"coordinates":[[[106.72314418022711,-6.263603783120125],[106.7321273330683,-6.263603783120125],[106.7321273330683,-6.27259269639983],[106.72314418022711,-6.27259269639983],[106.72314418022711,-6.263603783120125]]],"type":"Polygon"},"properties":{"fid":494743,"ID_GRID":5038606,"INDEKS":0.3188129575946327,"STATUS":"CUKUP","ID_PROV":"36","PROVINSI":"BANTEN","ID_KABKOT":"36.74","KABKOT":"KOTA TANGERANG SELATAN","ID_KEC":"36.74.03","KECAMATAN":"PONDOK AREN","ID_DESA":"36.74.03.1010","DESA":"JURANGMANGU BARAT"}},{"type":"Feature","geometry":{"coordinates":[[[106.72314418022711,-6.27259269639983],[106.7321273330683,-6.27259269639983],[106.7321273330683,-6.281581452622801],[106.72314418022711,-6.281581452622801],[106.72314418022711,-6.27259269639983]]],"type":"Polygon"},"properties":{"fid":494744,"ID_GRID":5038607,"INDEKS":0.40010831517950474,"STATUS":"SEDANG","ID_PROV":"36","PROVINSI":"BANTEN","ID_KABKOT":"36.74","KABKOT":"KOTA TANGERANG SELATAN","ID_KEC":"36.74.03","KECAMATAN":"PONDOK AREN","ID_DESA":"36.74.03.1004","DESA":"PONDOK JAYA"}},{"type":"Feature","geometry":{"coordinates":[[[106.72314418022711,-6.281581452622801],[106.7321273330683,-6.281581452622801],[106.7321273330683,-6.290570051567724],[106.72314418022711,-6.290570051567724],[106.72314418022711,-6.281581452622801]]],"type":"Polygon"},"properties":{"fid":494745,"ID_GRID":5038608,"INDEKS":0.4172904707504679,"STATUS":"SEDANG","ID_PROV":"36","PROVINSI":"BANTEN","ID_KABKOT":"36.74","KABKOT":"KOTA TANGERANG SELATAN","ID_KEC":"36.74.04","KECAMATAN":"CIPUTAT","ID_DESA":"36.74.04.1001","DESA":"SAWAH BARU"}},{"type":"Feature","geometry":{"coordinates":[[[106.72314418022711,-6.290570051567724],[106.7321273330683,-6.290570051567724],[106.7321273330683,-6.299558493013317],[106.72314418022711,-6.299558493013317],[106.72314418022711,-6.290570051567724]]],"type":"Polygon"},"properties":{"fid":494746,"ID_GRID":5038609,"INDEKS":0.3981341398362595,"STATUS":"CUKUP","ID_PROV":"36","PROVINSI":"BANTEN","ID_KABKOT":"36.74","KABKOT":"KOTA TANGERANG SELATAN","ID_KEC":"36.74.04","KECAMATAN":"CIPUTAT","ID_DESA":"36.74.04.1004","DESA":"SAWAH"}},{"type":"Feature","geometry":{"coordinates":[[[106.72314418022711,-6.299558493013317],[106.7321273330683,-6.299558493013317],[106.7321273330683,-6.308546776738313],[106.72314418022711,-6.308546776738313],[106.72314418022711,-6.299558493013317]]],"type":"Polygon"},"properties":{"fid":494747,"ID_GRID":5038610,"INDEKS":0.3330932930240788,"STATUS":"CUKUP","ID_PROV":"36","PROVINSI":"BANTEN","ID_KABKOT":"36.74","KABKOT":"KOTA TANGERANG SELATAN","ID_KEC":"36.74.04","KECAMATAN":"CIPUTAT","ID_DESA":"36.74.04.1005","DESA":"SERUA INDAH"}},{"type":"Feature","geometry":{"coordinates":[[[106.72314418022711,-6.308546776738313],[106.7321273330683,-6.308546776738313],[106.7321273330683,-6.31753490252146],[106.72314418022711,-6.31753490252146],[106.72314418022711,-6.308546776738313]]],"type":"Polygon"},"properties":{"fid":494748,"ID_GRID":5038611,"INDEKS":0.33709640672128255,"STATUS":"CUKUP","ID_PROV":"36","PROVINSI":"BANTEN","ID_KABKOT":"36.74","KABKOT":"KOTA TANGERANG SELATAN","ID_KEC":"36.74.04","KECAMATAN":"CIPUTAT","ID_DESA":"36.74.04.1005","DESA":"SERUA INDAH"}},{"type":"Feature","geometry":{"coordinates":[[[106.72314418022711,-6.31753490252146],[106.7321273330683,-6.31753490252146],[106.7321273330683,-6.326522870141535],[106.72314418022711,-6.326522870141535],[106.72314418022711,-6.31753490252146]]],"type":"Polygon"},"properties":{"fid":494749,"ID_GRID":5038612,"INDEKS":0.3527481560321415,"STATUS":"CUKUP","ID_PROV":"36","PROVINSI":"BANTEN","ID_KABKOT":"36.74","KABKOT":"KOTA TANGERANG SELATAN","ID_KEC":"36.74.06","KECAMATAN":"PAMULANG","ID_DESA":"36.74.06.1007","DESA":"BAMBU APUS"}},{"type":"Feature","geometry":{"coordinates":[[[106.72314418022711,-6.326522870141535],[106.7321273330683,-6.326522870141535],[106.7321273330683,-6.335510679377327],[106.72314418022711,-6.335510679377327],[106.72314418022711,-6.326522870141535]]],"type":"Polygon"},"properties":{"fid":494750,"ID_GRID":5038613,"INDEKS":0.3398074438254251,"STATUS":"CUKUP","ID_PROV":"36","PROVINSI":"BANTEN","ID_KABKOT":"36.74","KABKOT":"KOTA TANGERANG SELATAN","ID_KEC":"36.74.06","KECAMATAN":"PAMULANG","ID_DESA":"36.74.06.1007","DESA":"BAMBU APUS"}},{"type":"Feature","geometry":{"coordinates":[[[106.72314418022711,-6.335510679377327],[106.7321273330683,-6.335510679377327],[106.7321273330683,-6.344498330007653],[106.72314418022711,-6.344498330007653],[106.72314418022711,-6.335510679377327]]],"type":"Polygon"},"properties":{"fid":494751,"ID_GRID":5038614,"INDEKS":0.3206659454898826,"STATUS":"CUKUP","ID_PROV":"36","PROVINSI":"BANTEN","ID_KABKOT":"36.74","KABKOT":"KOTA TANGERANG SELATAN","ID_KEC":"36.74.06","KECAMATAN":"PAMULANG","ID_DESA":"36.74.06.1001","DESA":"PAMULANG BARAT"}},{"type":"Feature","geometry":{"coordinates":[[[106.72314418022711,-6.344498330007653],[106.7321273330683,-6.344498330007653],[106.7321273330683,-6.353485821811341],[106.72314418022711,-6.353485821811341],[106.72314418022711,-6.344498330007653]]],"type":"Polygon"},"properties":{"fid":494752,"ID_GRID":5038615,"INDEKS":0.3591969350939391,"STATUS":"CUKUP","ID_PROV":"36","PROVINSI":"BANTEN","ID_KABKOT":"36.74","KABKOT":"KOTA TANGERANG SELATAN","ID_KEC":"36.74.06","KECAMATAN":"PAMULANG","ID_DESA":"36.74.06.1003","DESA":"PONDOK BENDA"}},{"type":"Feature","geometry":{"coordinates":[[[106.72314418022711,-6.353485821811341],[106.7321273330683,-6.353485821811341],[106.7321273330683,-6.362473154567247],[106.72314418022711,-6.362473154567247],[106.72314418022711,-6.353485821811341]]],"type":"Polygon"},"properties":{"fid":494753,"ID_GRID":5038616,"INDEKS":0.3130772586334198,"STATUS":"CUKUP","ID_PROV":"36","PROVINSI":"BANTEN","ID_KABKOT":"36.74","KABKOT":"KOTA TANGERANG SELATAN","ID_KEC":"36.74.06","KECAMATAN":"PAMULANG","ID_DESA":"36.74.06.1003","DESA":"PONDOK BENDA"}},{"type":"Feature","geometry":{"coordinates":[[[106.7321273330683,-6.254614713005012],[106.7411104859095,-6.254614713005012],[106.7411104859095,-6.263603783120125],[106.7321273330683,-6.263603783120125],[106.7321273330683,-6.254614713005012]]],"type":"Polygon"},"properties":{"fid":494928,"ID_GRID":5041605,"INDEKS":0.2916563604133079,"STATUS":"CUKUP","ID_PROV":"36","PROVINSI":"BANTEN","ID_KABKOT":"36.74","KABKOT":"KOTA TANGERANG SELATAN","ID_KEC":"36.74.03","KECAMATAN":"PONDOK AREN","ID_DESA":"36.74.03.1011","DESA":"JURANGMANGU TIMUR"}},{"type":"Feature","geometry":{"coordinates":[[[106.7321273330683,-6.263603783120125],[106.7411104859095,-6.263603783120125],[106.7411104859095,-6.27259269639983],[106.7321273330683,-6.27259269639983],[106.7321273330683,-6.263603783120125]]],"type":"Polygon"},"properties":{"fid":494929,"ID_GRID":5041606,"INDEKS":0.2876278603016728,"STATUS":"CUKUP","ID_PROV":"36","PROVINSI":"BANTEN","ID_KABKOT":"36.74","KABKOT":"KOTA TANGERANG SELATAN","ID_KEC":"36.74.03","KECAMATAN":"PONDOK AREN","ID_DESA":"36.74.03.1011","DESA":"JURANGMANGU TIMUR"}},{"type":"Feature","geometry":{"coordinates":[[[106.7321273330683,-6.27259269639983],[106.7411104859095,-6.27259269639983],[106.7411104859095,-6.281581452622801],[106.7321273330683,-6.281581452622801],[106.7321273330683,-6.27259269639983]]],"type":"Polygon"},"properties":{"fid":494930,"ID_GRID":5041607,"INDEKS":0.3380707243122094,"STATUS":"CUKUP","ID_PROV":"36","PROVINSI":"BANTEN","ID_KABKOT":"36.74","KABKOT":"KOTA TANGERANG SELATAN","ID_KEC":"36.74.05","KECAMATAN":"CIPUTAT TIMUR","ID_DESA":"36.74.05.1002","DESA":"PONDOK RANJI"}},{"type":"Feature","geometry":{"coordinates":[[[106.7321273330683,-6.281581452622801],[106.7411104859095,-6.281581452622801],[106.7411104859095,-6.290570051567724],[106.7321273330683,-6.290570051567724],[106.7321273330683,-6.281581452622801]]],"type":"Polygon"},"properties":{"fid":494931,"ID_GRID":5041608,"INDEKS":0.3459574516565018,"STATUS":"CUKUP","ID_PROV":"36","PROVINSI":"BANTEN","ID_KABKOT":"36.74","KABKOT":"KOTA TANGERANG SELATAN","ID_KEC":"36.74.05","KECAMATAN":"CIPUTAT TIMUR","ID_DESA":"36.74.05.1002","DESA":"PONDOK RANJI"}},{"type":"Feature","geometry":{"coordinates":[[[106.7321273330683,-6.290570051567724],[106.7411104859095,-6.290570051567724],[106.7411104859095,-6.299558493013317],[106.7321273330683,-6.299558493013317],[106.7321273330683,-6.290570051567724]]],"type":"Polygon"},"properties":{"fid":494932,"ID_GRID":5041609,"INDEKS":0.3355560315596718,"STATUS":"CUKUP","ID_PROV":"36","PROVINSI":"BANTEN","ID_KABKOT":"36.74","KABKOT":"KOTA TANGERANG SELATAN","ID_KEC":"36.74.04","KECAMATAN":"CIPUTAT","ID_DESA":"36.74.04.1004","DESA":"SAWAH"}},{"type":"Feature","geometry":{"coordinates":[[[106.7321273330683,-6.299558493013317],[106.7411104859095,-6.299558493013317],[106.7411104859095,-6.308546776738313],[106.7321273330683,-6.308546776738313],[106.7321273330683,-6.299558493013317]]],"type":"Polygon"},"properties":{"fid":494933,"ID_GRID":5041610,"INDEKS":0.30567054457152376,"STATUS":"CUKUP","ID_PROV":"36","PROVINSI":"BANTEN","ID_KABKOT":"36.74","KABKOT":"KOTA TANGERANG SELATAN","ID_KEC":"36.74.04","KECAMATAN":"CIPUTAT","ID_DESA":"36.74.04.1004","DESA":"SAWAH"}},{"type":"Feature","geometry":{"coordinates":[[[106.7321273330683,-6.308546776738313],[106.7411104859095,-6.308546776738313],[106.7411104859095,-6.31753490252146],[106.7321273330683,-6.31753490252146],[106.7321273330683,-6.308546776738313]]],"type":"Polygon"},"properties":{"fid":494934,"ID_GRID":5041611,"INDEKS":0.2662103124530738,"STATUS":"CUKUP","ID_PROV":"36","PROVINSI":"BANTEN","ID_KABKOT":"36.74","KABKOT":"KOTA TANGERANG SELATAN","ID_KEC":"36.74.06","KECAMATAN":"PAMULANG","ID_DESA":"36.74.06.1006","DESA":"KEDAUNG"}},{"type":"Feature","geometry":{"coordinates":[[[106.7321273330683,-6.31753490252146],[106.7411104859095,-6.31753490252146],[106.7411104859095,-6.326522870141535],[106.7321273330683,-6.326522870141535],[106.7321273330683,-6.31753490252146]]],"type":"Polygon"},"properties":{"fid":494935,"ID_GRID":5041612,"INDEKS":0.3316090822007354,"STATUS":"CUKUP","ID_PROV":"36","PROVINSI":"BANTEN","ID_KABKOT":"36.74","KABKOT":"KOTA TANGERANG SELATAN","ID_KEC":"36.74.06","KECAMATAN":"PAMULANG","ID_DESA":"36.74.06.1007","DESA":"BAMBU APUS"}},{"type":"Feature","geometry":{"coordinates":[[[106.7321273330683,-6.326522870141535],[106.7411104859095,-6.326522870141535],[106.7411104859095,-6.335510679377327],[106.7321273330683,-6.335510679377327],[106.7321273330683,-6.326522870141535]]],"type":"Polygon"},"properties":{"fid":494936,"ID_GRID":5041613,"INDEKS":0.37173493689523035,"STATUS":"CUKUP","ID_PROV":"36","PROVINSI":"BANTEN","ID_KABKOT":"36.74","KABKOT":"KOTA TANGERANG SELATAN","ID_KEC":"36.74.06","KECAMATAN":"PAMULANG","ID_DESA":"36.74.06.1007","DESA":"BAMBU APUS"}},{"type":"Feature","geometry":{"coordinates":[[[106.7321273330683,-6.335510679377327],[106.7411104859095,-6.335510679377327],[106.7411104859095,-6.344498330007653],[106.7321273330683,-6.344498330007653],[106.7321273330683,-6.335510679377327]]],"type":"Polygon"},"properties":{"fid":494937,"ID_GRID":5041614,"INDEKS":0.31376740939853603,"STATUS":"CUKUP","ID_PROV":"36","PROVINSI":"BANTEN","ID_KABKOT":"36.74","KABKOT":"KOTA TANGERANG SELATAN","ID_KEC":"36.74.06","KECAMATAN":"PAMULANG","ID_DESA":"36.74.06.1001","DESA":"PAMULANG BARAT"}},{"type":"Feature","geometry":{"coordinates":[[[106.7321273330683,-6.344498330007653],[106.7411104859095,-6.344498330007653],[106.7411104859095,-6.353485821811341],[106.7321273330683,-6.353485821811341],[106.7321273330683,-6.344498330007653]]],"type":"Polygon"},"properties":{"fid":494938,"ID_GRID":5041615,"INDEKS":0.30457325231901466,"STATUS":"CUKUP","ID_PROV":"36","PROVINSI":"BANTEN","ID_KABKOT":"36.74","KABKOT":"KOTA TANGERANG SELATAN","ID_KEC":"36.74.06","KECAMATAN":"PAMULANG","ID_DESA":"36.74.06.1001","DESA":"PAMULANG BARAT"}},{"type":"Feature","geometry":{"coordinates":[[[106.7321273330683,-6.353485821811341],[106.7411104859095,-6.353485821811341],[106.7411104859095,-6.362473154567247],[106.7321273330683,-6.362473154567247],[106.7321273330683,-6.353485821811341]]],"type":"Polygon"},"properties":{"fid":494939,"ID_GRID":5041616,"INDEKS":0.31648934776899024,"STATUS":"CUKUP","ID_PROV":"36","PROVINSI":"BANTEN","ID_KABKOT":"36.74","KABKOT":"KOTA TANGERANG SELATAN","ID_KEC":"36.74.06","KECAMATAN":"PAMULANG","ID_DESA":"36.74.06.1008","DESA":"PAMULANG TIMUR"}},{"type":"Feature","geometry":{"coordinates":[[[106.7411104859095,-6.254614713005012],[106.7500936387507,-6.254614713005012],[106.7500936387507,-6.263603783120125],[106.7411104859095,-6.263603783120125],[106.7411104859095,-6.254614713005012]]],"type":"Polygon"},"properties":{"fid":495106,"ID_GRID":5044605,"INDEKS":0.2710589497761512,"STATUS":"CUKUP","ID_PROV":"36","PROVINSI":"BANTEN","ID_KABKOT":"36.74","KABKOT":"KOTA TANGERANG SELATAN","ID_KEC":"36.74.03","KECAMATAN":"PONDOK AREN","ID_DESA":"36.74.03.1003","DESA":"PONDOK KARYA"}},{"type":"Feature","geometry":{"coordinates":[[[106.7411104859095,-6.263603783120125],[106.7500936387507,-6.263603783120125],[106.7500936387507,-6.27259269639983],[106.7411104859095,-6.27259269639983],[106.7411104859095,-6.263603783120125]]],"type":"Polygon"},"properties":{"fid":495107,"ID_GRID":5044606,"INDEKS":0.29126826109308185,"STATUS":"CUKUP","ID_PROV":"36","PROVINSI":"BANTEN","ID_KABKOT":"36.74","KABKOT":"KOTA TANGERANG SELATAN","ID_KEC":"36.74.03","KECAMATAN":"PONDOK AREN","ID_DESA":"36.74.03.1001","DESA":"PONDOK BETUNG"}},{"type":"Feature","geometry":{"coordinates":[[[106.7411104859095,-6.27259269639983],[106.7500936387507,-6.27259269639983],[106.7500936387507,-6.281581452622801],[106.7411104859095,-6.281581452622801],[106.7411104859095,-6.27259269639983]]],"type":"Polygon"},"properties":{"fid":495108,"ID_GRID":5044607,"INDEKS":0.3017425633130226,"STATUS":"CUKUP","ID_PROV":"36","PROVINSI":"BANTEN","ID_KABKOT":"36.74","KABKOT":"KOTA TANGERANG SELATAN","ID_KEC":"36.74.05","KECAMATAN":"CIPUTAT TIMUR","ID_DESA":"36.74.05.1002","DESA":"PONDOK RANJI"}},{"type":"Feature","geometry":{"coordinates":[[[106.7411104859095,-6.281581452622801],[106.7500936387507,-6.281581452622801],[106.7500936387507,-6.290570051567724],[106.7411104859095,-6.290570051567724],[106.7411104859095,-6.281581452622801]]],"type":"Polygon"},"properties":{"fid":495109,"ID_GRID":5044608,"INDEKS":0.35962996761852495,"STATUS":"CUKUP","ID_PROV":"36","PROVINSI":"BANTEN","ID_KABKOT":"36.74","KABKOT":"KOTA TANGERANG SELATAN","ID_KEC":"36.74.05","KECAMATAN":"CIPUTAT TIMUR","ID_DESA":"36.74.05.1002","DESA":"PONDOK RANJI"}},{"type":"Feature","geometry":{"coordinates":[[[106.7411104859095,-6.290570051567724],[106.7500936387507,-6.290570051567724],[106.7500936387507,-6.299558493013317],[106.7411104859095,-6.299558493013317],[106.7411104859095,-6.290570051567724]]],"type":"Polygon"},"properties":{"fid":495110,"ID_GRID":5044609,"INDEKS":0.3239926952660029,"STATUS":"CUKUP","ID_PROV":"36","PROVINSI":"BANTEN","ID_KABKOT":"36.74","KABKOT":"KOTA TANGERANG SELATAN","ID_KEC":"36.74.05","KECAMATAN":"CIPUTAT TIMUR","ID_DESA":"36.74.05.1001","DESA":"CEMPAKA PUTIH"}},{"type":"Feature","geometry":{"coordinates":[[[106.7411104859095,-6.299558493013317],[106.7500936387507,-6.299558493013317],[106.7500936387507,-6.308546776738313],[106.7411104859095,-6.308546776738313],[106.7411104859095,-6.299558493013317]]],"type":"Polygon"},"properties":{"fid":495111,"ID_GRID":5044610,"INDEKS":0.3323027803404871,"STATUS":"CUKUP","ID_PROV":"36","PROVINSI":"BANTEN","ID_KABKOT":"36.74","KABKOT":"KOTA TANGERANG SELATAN","ID_KEC":"36.74.04","KECAMATAN":"CIPUTAT","ID_DESA":"36.74.04.1004","DESA":"SAWAH"}},{"type":"Feature","geometry":{"coordinates":[[[106.7411104859095,-6.308546776738313],[106.7500936387507,-6.308546776738313],[106.7500936387507,-6.31753490252146],[106.7411104859095,-6.31753490252146],[106.7411104859095,-6.308546776738313]]],"type":"Polygon"},"properties":{"fid":495112,"ID_GRID":5044611,"INDEKS":0.29133011009355986,"STATUS":"CUKUP","ID_PROV":"36","PROVINSI":"BANTEN","ID_KABKOT":"36.74","KABKOT":"KOTA TANGERANG SELATAN","ID_KEC":"36.74.04","KECAMATAN":"CIPUTAT","ID_DESA":"36.74.04.1003","DESA":"CIPUTAT"}},{"type":"Feature","geometry":{"coordinates":[[[106.7411104859095,-6.31753490252146],[106.7500936387507,-6.31753490252146],[106.7500936387507,-6.326522870141535],[106.7411104859095,-6.326522870141535],[106.7411104859095,-6.31753490252146]]],"type":"Polygon"},"properties":{"fid":495113,"ID_GRID":5044612,"INDEKS":0.3550271894417557,"STATUS":"CUKUP","ID_PROV":"36","PROVINSI":"BANTEN","ID_KABKOT":"36.74","KABKOT":"KOTA TANGERANG SELATAN","ID_KEC":"36.74.04","KECAMATAN":"CIPUTAT","ID_DESA":"36.74.04.1003","DESA":"CIPUTAT"}},{"type":"Feature","geometry":{"coordinates":[[[106.7411104859095,-6.326522870141535],[106.7500936387507,-6.326522870141535],[106.7500936387507,-6.335510679377327],[106.7411104859095,-6.335510679377327],[106.7411104859095,-6.326522870141535]]],"type":"Polygon"},"properties":{"fid":495114,"ID_GRID":5044613,"INDEKS":0.3767880710770604,"STATUS":"CUKUP","ID_PROV":"36","PROVINSI":"BANTEN","ID_KABKOT":"36.74","KABKOT":"KOTA TANGERANG SELATAN","ID_KEC":"36.74.04","KECAMATAN":"CIPUTAT","ID_DESA":"36.74.04.1003","DESA":"CIPUTAT"}},{"type":"Feature","geometry":{"coordinates":[[[106.7411104859095,-6.335510679377327],[106.7500936387507,-6.335510679377327],[106.7500936387507,-6.344498330007653],[106.7411104859095,-6.344498330007653],[106.7411104859095,-6.335510679377327]]],"type":"Polygon"},"properties":{"fid":495115,"ID_GRID":5044614,"INDEKS":0.33850664662537605,"STATUS":"CUKUP","ID_PROV":"36","PROVINSI":"BANTEN","ID_KABKOT":"36.74","KABKOT":"KOTA TANGERANG SELATAN","ID_KEC":"36.74.06","KECAMATAN":"PAMULANG","ID_DESA":"36.74.06.1008","DESA":"PAMULANG TIMUR"}},{"type":"Feature","geometry":{"coordinates":[[[106.7411104859095,-6.344498330007653],[106.7500936387507,-6.344498330007653],[106.7500936387507,-6.353485821811341],[106.7411104859095,-6.353485821811341],[106.7411104859095,-6.344498330007653]]],"type":"Polygon"},"properties":{"fid":495116,"ID_GRID":5044615,"INDEKS":0.34526701812066285,"STATUS":"CUKUP","ID_PROV":"36","PROVINSI":"BANTEN","ID_KABKOT":"36.74","KABKOT":"KOTA TANGERANG SELATAN","ID_KEC":"36.74.06","KECAMATAN":"PAMULANG","ID_DESA":"36.74.06.1008","DESA":"PAMULANG TIMUR"}},{"type":"Feature","geometry":{"coordinates":[[[106.7411104859095,-6.353485821811341],[106.7500936387507,-6.353485821811341],[106.7500936387507,-6.362473154567247],[106.7411104859095,-6.362473154567247],[106.7411104859095,-6.353485821811341]]],"type":"Polygon"},"properties":{"fid":495117,"ID_GRID":5044616,"INDEKS":0.3369412992912438,"STATUS":"CUKUP","ID_PROV":"36","PROVINSI":"BANTEN","ID_KABKOT":"36.74","KABKOT":"KOTA TANGERANG SELATAN","ID_KEC":"36.74.06","KECAMATAN":"PAMULANG","ID_DESA":"36.74.06.1008","DESA":"PAMULANG TIMUR"}},{"type":"Feature","geometry":{"coordinates":[[[106.7500936387507,-6.27259269639983],[106.75907679159188,-6.27259269639983],[106.75907679159188,-6.281581452622801],[106.7500936387507,-6.281581452622801],[106.7500936387507,-6.27259269639983]]],"type":"Polygon"},"properties":{"fid":495277,"ID_GRID":5047607,"INDEKS":0.3175352604537687,"STATUS":"CUKUP","ID_PROV":"36","PROVINSI":"BANTEN","ID_KABKOT":"36.74","KABKOT":"KOTA TANGERANG SELATAN","ID_KEC":"36.74.05","KECAMATAN":"CIPUTAT TIMUR","ID_DESA":"36.74.05.1006","DESA":"RENGAS"}},{"type":"Feature","geometry":{"coordinates":[[[106.7500936387507,-6.281581452622801],[106.75907679159188,-6.281581452622801],[106.75907679159188,-6.290570051567724],[106.7500936387507,-6.290570051567724],[106.7500936387507,-6.281581452622801]]],"type":"Polygon"},"properties":{"fid":495278,"ID_GRID":5047608,"INDEKS":0.32285719362225335,"STATUS":"CUKUP","ID_PROV":"36","PROVINSI":"BANTEN","ID_KABKOT":"36.74","KABKOT":"KOTA TANGERANG SELATAN","ID_KEC":"36.74.05","KECAMATAN":"CIPUTAT TIMUR","ID_DESA":"36.74.05.1005","DESA":"REMPOA"}},{"type":"Feature","geometry":{"coordinates":[[[106.7500936387507,-6.290570051567724],[106.75907679159188,-6.290570051567724],[106.75907679159188,-6.299558493013317],[106.7500936387507,-6.299558493013317],[106.7500936387507,-6.290570051567724]]],"type":"Polygon"},"properties":{"fid":495279,"ID_GRID":5047609,"INDEKS":0.3382843498558922,"STATUS":"CUKUP","ID_PROV":"36","PROVINSI":"BANTEN","ID_KABKOT":"36.74","KABKOT":"KOTA TANGERANG SELATAN","ID_KEC":"36.74.05","KECAMATAN":"CIPUTAT TIMUR","ID_DESA":"36.74.05.1005","DESA":"REMPOA"}},{"type":"Feature","geometry":{"coordinates":[[[106.7500936387507,-6.299558493013317],[106.75907679159188,-6.299558493013317],[106.75907679159188,-6.308546776738313],[106.7500936387507,-6.308546776738313],[106.7500936387507,-6.299558493013317]]],"type":"Polygon"},"properties":{"fid":495280,"ID_GRID":5047610,"INDEKS":0.3173893579897377,"STATUS":"CUKUP","ID_PROV":"36","PROVINSI":"BANTEN","ID_KABKOT":"36.74","KABKOT":"KOTA TANGERANG SELATAN","ID_KEC":"36.74.04","KECAMATAN":"CIPUTAT","ID_DESA":"36.74.04.1003","DESA":"CIPUTAT"}},{"type":"Feature","geometry":{"coordinates":[[[106.7500936387507,-6.308546776738313],[106.75907679159188,-6.308546776738313],[106.75907679159188,-6.31753490252146],[106.7500936387507,-6.31753490252146],[106.7500936387507,-6.308546776738313]]],"type":"Polygon"},"properties":{"fid":495281,"ID_GRID":5047611,"INDEKS":0.31211858926716124,"STATUS":"CUKUP","ID_PROV":"36","PROVINSI":"BANTEN","ID_KABKOT":"36.74","KABKOT":"KOTA TANGERANG SELATAN","ID_KEC":"36.74.05","KECAMATAN":"CIPUTAT TIMUR","ID_DESA":"36.74.05.1003","DESA":"PISANGAN"}},{"type":"Feature","geometry":{"coordinates":[[[106.7500936387507,-6.31753490252146],[106.75907679159188,-6.31753490252146],[106.75907679159188,-6.326522870141535],[106.7500936387507,-6.326522870141535],[106.7500936387507,-6.31753490252146]]],"type":"Polygon"},"properties":{"fid":495282,"ID_GRID":5047612,"INDEKS":0.35616147027038375,"STATUS":"CUKUP","ID_PROV":"36","PROVINSI":"BANTEN","ID_KABKOT":"36.74","KABKOT":"KOTA TANGERANG SELATAN","ID_KEC":"36.74.05","KECAMATAN":"CIPUTAT TIMUR","ID_DESA":"36.74.05.1003","DESA":"PISANGAN"}},{"type":"Feature","geometry":{"coordinates":[[[106.7500936387507,-6.326522870141535],[106.75907679159188,-6.326522870141535],[106.75907679159188,-6.335510679377327],[106.7500936387507,-6.335510679377327],[106.7500936387507,-6.326522870141535]]],"type":"Polygon"},"properties":{"fid":495283,"ID_GRID":5047613,"INDEKS":0.36082530246114564,"STATUS":"CUKUP","ID_PROV":"36","PROVINSI":"BANTEN","ID_KABKOT":"36.74","KABKOT":"KOTA TANGERANG SELATAN","ID_KEC":"36.74.04","KECAMATAN":"CIPUTAT","ID_DESA":"36.74.04.1007","DESA":"CIPAYUNG"}},{"type":"Feature","geometry":{"coordinates":[[[106.7500936387507,-6.335510679377327],[106.75907679159188,-6.335510679377327],[106.75907679159188,-6.344498330007653],[106.7500936387507,-6.344498330007653],[106.7500936387507,-6.335510679377327]]],"type":"Polygon"},"properties":{"fid":495284,"ID_GRID":5047614,"INDEKS":0.3598837124087488,"STATUS":"CUKUP","ID_PROV":"36","PROVINSI":"BANTEN","ID_KABKOT":"36.74","KABKOT":"KOTA TANGERANG SELATAN","ID_KEC":"36.74.04","KECAMATAN":"CIPUTAT","ID_DESA":"36.74.04.1007","DESA":"CIPAYUNG"}},{"type":"Feature","geometry":{"coordinates":[[[106.7500936387507,-6.344498330007653],[106.75907679159188,-6.344498330007653],[106.75907679159188,-6.353485821811341],[106.7500936387507,-6.353485821811341],[106.7500936387507,-6.344498330007653]]],"type":"Polygon"},"properties":{"fid":495285,"ID_GRID":5047615,"INDEKS":0.38555692463700747,"STATUS":"CUKUP","ID_PROV":"36","PROVINSI":"BANTEN","ID_KABKOT":"36.74","KABKOT":"KOTA TANGERANG SELATAN","ID_KEC":"36.74.06","KECAMATAN":"PAMULANG","ID_DESA":"36.74.06.1004","DESA":"PONDOK CABE UDIK"}},{"type":"Feature","geometry":{"coordinates":[[[106.7500936387507,-6.353485821811341],[106.75907679159188,-6.353485821811341],[106.75907679159188,-6.362473154567247],[106.7500936387507,-6.362473154567247],[106.7500936387507,-6.353485821811341]]],"type":"Polygon"},"properties":{"fid":495286,"ID_GRID":5047616,"INDEKS":0.3991472726677828,"STATUS":"CUKUP","ID_PROV":"36","PROVINSI":"BANTEN","ID_KABKOT":"36.74","KABKOT":"KOTA TANGERANG SELATAN","ID_KEC":"36.74.06","KECAMATAN":"PAMULANG","ID_DESA":"36.74.06.1004","DESA":"PONDOK CABE UDIK"}},{"type":"Feature","geometry":{"coordinates":[[[106.75907679159188,-6.290570051567724],[106.76805994443308,-6.290570051567724],[106.76805994443308,-6.299558493013317],[106.75907679159188,-6.299558493013317],[106.75907679159188,-6.290570051567724]]],"type":"Polygon"},"properties":{"fid":495449,"ID_GRID":5050609,"INDEKS":0.3167456304731448,"STATUS":"CUKUP","ID_PROV":"36","PROVINSI":"BANTEN","ID_KABKOT":"36.74","KABKOT":"KOTA TANGERANG SELATAN","ID_KEC":"36.74.05","KECAMATAN":"CIPUTAT TIMUR","ID_DESA":"36.74.05.1005","DESA":"REMPOA"}},{"type":"Feature","geometry":{"coordinates":[[[106.75907679159188,-6.299558493013317],[106.76805994443308,-6.299558493013317],[106.76805994443308,-6.308546776738313],[106.75907679159188,-6.308546776738313],[106.75907679159188,-6.299558493013317]]],"type":"Polygon"},"properties":{"fid":495450,"ID_GRID":5050610,"INDEKS":0.3463859193080143,"STATUS":"CUKUP","ID_PROV":"36","PROVINSI":"BANTEN","ID_KABKOT":"36.74","KABKOT":"KOTA TANGERANG SELATAN","ID_KEC":"36.74.05","KECAMATAN":"CIPUTAT TIMUR","ID_DESA":"36.74.05.1004","DESA":"CIREUNDEU"}},{"type":"Feature","geometry":{"coordinates":[[[106.75907679159188,-6.308546776738313],[106.76805994443308,-6.308546776738313],[106.76805994443308,-6.31753490252146],[106.75907679159188,-6.31753490252146],[106.75907679159188,-6.308546776738313]]],"type":"Polygon"},"properties":{"fid":495451,"ID_GRID":5050611,"INDEKS":0.33624275381735863,"STATUS":"CUKUP","ID_PROV":"36","PROVINSI":"BANTEN","ID_KABKOT":"36.74","KABKOT":"KOTA TANGERANG SELATAN","ID_KEC":"36.74.05","KECAMATAN":"CIPUTAT TIMUR","ID_DESA":"36.74.05.1004","DESA":"CIREUNDEU"}},{"type":"Feature","geometry":{"coordinates":[[[106.75907679159188,-6.31753490252146],[106.76805994443308,-6.31753490252146],[106.76805994443308,-6.326522870141535],[106.75907679159188,-6.326522870141535],[106.75907679159188,-6.31753490252146]]],"type":"Polygon"},"properties":{"fid":495452,"ID_GRID":5050612,"INDEKS":0.3330605348934039,"STATUS":"CUKUP","ID_PROV":"36","PROVINSI":"BANTEN","ID_KABKOT":"36.74","KABKOT":"KOTA TANGERANG SELATAN","ID_KEC":"36.74.05","KECAMATAN":"CIPUTAT TIMUR","ID_DESA":"36.74.05.1003","DESA":"PISANGAN"}},{"type":"Feature","geometry":{"coordinates":[[[106.75907679159188,-6.326522870141535],[106.76805994443308,-6.326522870141535],[106.76805994443308,-6.335510679377327],[106.75907679159188,-6.335510679377327],[106.75907679159188,-6.326522870141535]]],"type":"Polygon"},"properties":{"fid":495453,"ID_GRID":5050613,"INDEKS":0.36309970632072325,"STATUS":"CUKUP","ID_PROV":"36","PROVINSI":"BANTEN","ID_KABKOT":"36.74","KABKOT":"KOTA TANGERANG SELATAN","ID_KEC":"36.74.06","KECAMATAN":"PAMULANG","ID_DESA":"36.74.06.1005","DESA":"PONDOK CABE ILIR"}},{"type":"Feature","geometry":{"coordinates":[[[106.75907679159188,-6.335510679377327],[106.76805994443308,-6.335510679377327],[106.76805994443308,-6.344498330007653],[106.75907679159188,-6.344498330007653],[106.75907679159188,-6.335510679377327]]],"type":"Polygon"},"properties":{"fid":495454,"ID_GRID":5050614,"INDEKS":0.42816382127961944,"STATUS":"SEDANG","ID_PROV":"36","PROVINSI":"BANTEN","ID_KABKOT":"36.74","KABKOT":"KOTA TANGERANG SELATAN","ID_KEC":"36.74.06","KECAMATAN":"PAMULANG","ID_DESA":"36.74.06.1005","DESA":"PONDOK CABE ILIR"}},{"type":"Feature","geometry":{"coordinates":[[[106.75907679159188,-6.344498330007653],[106.76805994443308,-6.344498330007653],[106.76805994443308,-6.353485821811341],[106.75907679159188,-6.353485821811341],[106.75907679159188,-6.344498330007653]]],"type":"Polygon"},"properties":{"fid":495455,"ID_GRID":5050615,"INDEKS":0.5177340872731864,"STATUS":"SEDANG","ID_PROV":"36","PROVINSI":"BANTEN","ID_KABKOT":"36.74","KABKOT":"KOTA TANGERANG SELATAN","ID_KEC":"36.74.06","KECAMATAN":"PAMULANG","ID_DESA":"36.74.06.1004","DESA":"PONDOK CABE UDIK"}},{"type":"Feature","geometry":{"coordinates":[[[106.75907679159188,-6.353485821811341],[106.76805994443308,-6.353485821811341],[106.76805994443308,-6.362473154567247],[106.75907679159188,-6.362473154567247],[106.75907679159188,-6.353485821811341]]],"type":"Polygon"},"properties":{"fid":495456,"ID_GRID":5050616,"INDEKS":0.4501390870253464,"STATUS":"SEDANG","ID_PROV":"36","PROVINSI":"BANTEN","ID_KABKOT":"36.74","KABKOT":"KOTA TANGERANG SELATAN","ID_KEC":"36.74.06","KECAMATAN":"PAMULANG","ID_DESA":"36.74.06.1004","DESA":"PONDOK CABE UDIK"}},{"type":"Feature","geometry":{"coordinates":[[[106.76805994443308,-6.299558493013317],[106.77704309727427,-6.299558493013317],[106.77704309727427,-6.308546776738313],[106.76805994443308,-6.308546776738313],[106.76805994443308,-6.299558493013317]]],"type":"Polygon"},"properties":{"fid":495620,"ID_GRID":5053610,"INDEKS":0.3829960088625736,"STATUS":"CUKUP","ID_PROV":"36","PROVINSI":"BANTEN","ID_KABKOT":"36.74","KABKOT":"KOTA TANGERANG SELATAN","ID_KEC":"36.74.05","KECAMATAN":"CIPUTAT TIMUR","ID_DESA":"36.74.05.1004","DESA":"CIREUNDEU"}},{"type":"Feature","geometry":{"coordinates":[[[106.76805994443308,-6.308546776738313],[106.77704309727427,-6.308546776738313],[106.77704309727427,-6.31753490252146],[106.76805994443308,-6.31753490252146],[106.76805994443308,-6.308546776738313]]],"type":"Polygon"},"properties":{"fid":495621,"ID_GRID":5053611,"INDEKS":0.38362199337631325,"STATUS":"CUKUP","ID_PROV":"36","PROVINSI":"BANTEN","ID_KABKOT":"36.74","KABKOT":"KOTA TANGERANG SELATAN","ID_KEC":"36.74.05","KECAMATAN":"CIPUTAT TIMUR","ID_DESA":"36.74.05.1004","DESA":"CIREUNDEU"}},{"type":"Feature","geometry":{"coordinates":[[[106.76805994443308,-6.31753490252146],[106.77704309727427,-6.31753490252146],[106.77704309727427,-6.326522870141535],[106.76805994443308,-6.326522870141535],[106.76805994443308,-6.31753490252146]]],"type":"Polygon"},"properties":{"fid":495622,"ID_GRID":5053612,"INDEKS":0.37818369214919373,"STATUS":"CUKUP","ID_PROV":"36","PROVINSI":"BANTEN","ID_KABKOT":"36.74","KABKOT":"KOTA TANGERANG SELATAN","ID_KEC":"36.74.05","KECAMATAN":"CIPUTAT TIMUR","ID_DESA":"36.74.05.1003","DESA":"PISANGAN"}},{"type":"Feature","geometry":{"coordinates":[[[106.76805994443308,-6.326522870141535],[106.77704309727427,-6.326522870141535],[106.77704309727427,-6.335510679377327],[106.76805994443308,-6.335510679377327],[106.76805994443308,-6.326522870141535]]],"type":"Polygon"},"properties":{"fid":495623,"ID_GRID":5053613,"INDEKS":0.3584745047944089,"STATUS":"CUKUP","ID_PROV":"36","PROVINSI":"BANTEN","ID_KABKOT":"36.74","KABKOT":"KOTA TANGERANG SELATAN","ID_KEC":"36.74.06","KECAMATAN":"PAMULANG","ID_DESA":"36.74.06.1005","DESA":"PONDOK CABE ILIR"}},{"type":"Feature","geometry":{"coordinates":[[[106.76805994443308,-6.335510679377327],[106.77704309727427,-6.335510679377327],[106.77704309727427,-6.344498330007653],[106.76805994443308,-6.344498330007653],[106.76805994443308,-6.335510679377327]]],"type":"Polygon"},"properties":{"fid":495624,"ID_GRID":5053614,"INDEKS":0.459252443811125,"STATUS":"SEDANG","ID_PROV":"36","PROVINSI":"BANTEN","ID_KABKOT":"36.74","KABKOT":"KOTA TANGERANG SELATAN","ID_KEC":"36.74.06","KECAMATAN":"PAMULANG","ID_DESA":"36.74.06.1005","DESA":"PONDOK CABE ILIR"}},{"type":"Feature","geometry":{"coordinates":[[[106.76805994443308,-6.344498330007653],[106.77704309727427,-6.344498330007653],[106.77704309727427,-6.353485821811341],[106.76805994443308,-6.353485821811341],[106.76805994443308,-6.344498330007653]]],"type":"Polygon"},"properties":{"fid":495625,"ID_GRID":5053615,"INDEKS":0.49334100206214904,"STATUS":"SEDANG","ID_PROV":"36","PROVINSI":"BANTEN","ID_KABKOT":"36.74","KABKOT":"KOTA TANGERANG SELATAN","ID_KEC":"36.74.06","KECAMATAN":"PAMULANG","ID_DESA":"36.74.06.1004","DESA":"PONDOK CABE UDIK"}}]}