{"type":"FeatureCollection","features":[{"type":"Feature","geometry":{"coordinates":[[[106.65127895749755,-6.218656868617704],[106.66026211033873,-6.218656868617704],[106.66026211033873,-6.227646563860785],[106.65127895749755,-6.227646563860785],[106.65127895749755,-6.218656868617704]]],"type":"Polygon"},"properties":{"fid":493223,"ID_GRID":5014601,"INDEKS":0.418947818923124,"STATUS":"SEDANG","ID_PROV":"36","PROVINSI":"BANTEN","ID_KABKOT":"36.71","KABKOT":"KOTA TANGERANG","ID_KEC":"36.71.11","KECAMATAN":"PINANG","ID_DESA":"36.71.11.1011","DESA":"PANUNGGANGAN TIMUR"}},{"type":"Feature","geometry":{"coordinates":[[[106.66026211033873,-6.119759991592472],[106.66924526317993,-6.119759991592472],[106.66924526317993,-6.128751387665971],[106.66026211033873,-6.128751387665971],[106.66026211033873,-6.119759991592472]]],"type":"Polygon"},"properties":{"fid":493408,"ID_GRID":5017590,"INDEKS":0.4070900215397119,"STATUS":"SEDANG","ID_PROV":"36","PROVINSI":"BANTEN","ID_KABKOT":"36.71","KABKOT":"KOTA TANGERANG","ID_KEC":"36.71.04","KECAMATAN":"BENDA","ID_DESA":"36.71.04.1004","DESA":"PAJANG"}},{"type":"Feature","geometry":{"coordinates":[[[106.66026211033873,-6.128751387665971],[106.66924526317993,-6.128751387665971],[106.66924526317993,-6.137742630226345],[106.66026211033873,-6.137742630226345],[106.66026211033873,-6.128751387665971]]],"type":"Polygon"},"properties":{"fid":493409,"ID_GRID":5017591,"INDEKS":0.400445793176376,"STATUS":"SEDANG","ID_PROV":"36","PROVINSI":"BANTEN","ID_KABKOT":"36.71","KABKOT":"KOTA TANGERANG","ID_KEC":"36.71.04","KECAMATAN":"BENDA","ID_DESA":"36.71.04.1004","DESA":"PAJANG"}},{"type":"Feature","geometry":{"coordinates":[[[106.66026211033873,-6.137742630226345],[106.66924526317993,-6.137742630226345],[106.66924526317993,-6.146733719051968],[106.66026211033873,-6.146733719051968],[106.66026211033873,-6.137742630226345]]],"type":"Polygon"},"properties":{"fid":493410,"ID_GRID":5017592,"INDEKS":0.39233363170050173,"STATUS":"CUKUP","ID_PROV":"36","PROVINSI":"BANTEN","ID_KABKOT":"36.71","KABKOT":"KOTA TANGERANG","ID_KEC":"36.71.04","KECAMATAN":"BENDA","ID_DESA":"36.71.04.1001","DESA":"BELENDUNG"}},{"type":"Feature","geometry":{"coordinates":[[[106.66026211033873,-6.146733719051968],[106.66924526317993,-6.146733719051968],[106.66924526317993,-6.155724653921241],[106.66026211033873,-6.155724653921241],[106.66026211033873,-6.146733719051968]]],"type":"Polygon"},"properties":{"fid":493411,"ID_GRID":5017593,"INDEKS":0.3348487063498633,"STATUS":"CUKUP","ID_PROV":"36","PROVINSI":"BANTEN","ID_KABKOT":"36.71","KABKOT":"KOTA TANGERANG","ID_KEC":"36.71.04","KECAMATAN":"BENDA","ID_DESA":"36.71.04.1001","DESA":"BELENDUNG"}},{"type":"Feature","geometry":{"coordinates":[[[106.66026211033873,-6.155724653921241],[106.66924526317993,-6.155724653921241],[106.66924526317993,-6.164715434612578],[106.66026211033873,-6.164715434612578],[106.66026211033873,-6.155724653921241]]],"type":"Polygon"},"properties":{"fid":493412,"ID_GRID":5017594,"INDEKS":0.3012730838701854,"STATUS":"CUKUP","ID_PROV":"36","PROVINSI":"BANTEN","ID_KABKOT":"36.71","KABKOT":"KOTA TANGERANG","ID_KEC":"36.71.03","KECAMATAN":"BATUCEPER","ID_DESA":"36.71.03.1001","DESA":"BATUCEPER"}},{"type":"Feature","geometry":{"coordinates":[[[106.66026211033873,-6.164715434612578],[106.66924526317993,-6.164715434612578],[106.66924526317993,-6.173706060904413],[106.66026211033873,-6.173706060904413],[106.66026211033873,-6.164715434612578]]],"type":"Polygon"},"properties":{"fid":493413,"ID_GRID":5017595,"INDEKS":0.2830585904480997,"STATUS":"CUKUP","ID_PROV":"36","PROVINSI":"BANTEN","ID_KABKOT":"36.71","KABKOT":"KOTA TANGERANG","ID_KEC":"36.71.05","KECAMATAN":"CIPONDOH","ID_DESA":"36.71.05.1008","DESA":"PORIS PLAWAD"}},{"type":"Feature","geometry":{"coordinates":[[[106.66026211033873,-6.173706060904413],[106.66924526317993,-6.173706060904413],[106.66924526317993,-6.182696532575203],[106.66026211033873,-6.182696532575203],[106.66026211033873,-6.173706060904413]]],"type":"Polygon"},"properties":{"fid":493414,"ID_GRID":5017596,"INDEKS":0.2713703545949251,"STATUS":"CUKUP","ID_PROV":"36","PROVINSI":"BANTEN","ID_KABKOT":"36.71","KABKOT":"KOTA TANGERANG","ID_KEC":"36.71.05","KECAMATAN":"CIPONDOH","ID_DESA":"36.71.05.1009","DESA":"PORIS PLAWAD UTARA"}},{"type":"Feature","geometry":{"coordinates":[[[106.66026211033873,-6.182696532575203],[106.66924526317993,-6.182696532575203],[106.66924526317993,-6.191686849403425],[106.66026211033873,-6.191686849403425],[106.66026211033873,-6.182696532575203]]],"type":"Polygon"},"properties":{"fid":493415,"ID_GRID":5017597,"INDEKS":0.2867636206612005,"STATUS":"CUKUP","ID_PROV":"36","PROVINSI":"BANTEN","ID_KABKOT":"36.71","KABKOT":"KOTA TANGERANG","ID_KEC":"36.71.05","KECAMATAN":"CIPONDOH","ID_DESA":"36.71.05.1009","DESA":"PORIS PLAWAD UTARA"}},{"type":"Feature","geometry":{"coordinates":[[[106.66026211033873,-6.191686849403425],[106.66924526317993,-6.191686849403425],[106.66924526317993,-6.200677011167568],[106.66026211033873,-6.200677011167568],[106.66026211033873,-6.191686849403425]]],"type":"Polygon"},"properties":{"fid":493416,"ID_GRID":5017598,"INDEKS":0.3418233076811049,"STATUS":"CUKUP","ID_PROV":"36","PROVINSI":"BANTEN","ID_KABKOT":"36.71","KABKOT":"KOTA TANGERANG","ID_KEC":"36.71.05","KECAMATAN":"CIPONDOH","ID_DESA":"36.71.05.1010","DESA":"PORIS PLAWAD INDAH"}},{"type":"Feature","geometry":{"coordinates":[[[106.66026211033873,-6.200677011167568],[106.66924526317993,-6.200677011167568],[106.66924526317993,-6.20966701764615],[106.66026211033873,-6.20966701764615],[106.66026211033873,-6.200677011167568]]],"type":"Polygon"},"properties":{"fid":493417,"ID_GRID":5017599,"INDEKS":0.49639243432094027,"STATUS":"SEDANG","ID_PROV":"36","PROVINSI":"BANTEN","ID_KABKOT":"36.71","KABKOT":"KOTA TANGERANG","ID_KEC":"36.71.11","KECAMATAN":"PINANG","ID_DESA":"36.71.11.1007","DESA":"CIPETE"}},{"type":"Feature","geometry":{"coordinates":[[[106.66026211033873,-6.20966701764615],[106.66924526317993,-6.20966701764615],[106.66924526317993,-6.218656868617704],[106.66026211033873,-6.218656868617704],[106.66026211033873,-6.20966701764615]]],"type":"Polygon"},"properties":{"fid":493418,"ID_GRID":5017600,"INDEKS":0.45207624624528614,"STATUS":"SEDANG","ID_PROV":"36","PROVINSI":"BANTEN","ID_KABKOT":"36.71","KABKOT":"KOTA TANGERANG","ID_KEC":"36.71.11","KECAMATAN":"PINANG","ID_DESA":"36.71.11.1006","DESA":"KUNCIRAN JAYA"}},{"type":"Feature","geometry":{"coordinates":[[[106.66026211033873,-6.218656868617704],[106.66924526317993,-6.218656868617704],[106.66924526317993,-6.227646563860785],[106.66026211033873,-6.227646563860785],[106.66026211033873,-6.218656868617704]]],"type":"Polygon"},"properties":{"fid":493419,"ID_GRID":5017601,"INDEKS":0.4052165102565565,"STATUS":"SEDANG","ID_PROV":"36","PROVINSI":"BANTEN","ID_KABKOT":"36.71","KABKOT":"KOTA TANGERANG","ID_KEC":"36.71.11","KECAMATAN":"PINANG","ID_DESA":"36.71.11.1004","DESA":"KUNCIRAN"}},{"type":"Feature","geometry":{"coordinates":[[[106.66924526317993,-6.101776739792688],[106.67822841602113,-6.101776739792688],[106.67822841602113,-6.110768442227489],[106.66924526317993,-6.110768442227489],[106.66924526317993,-6.101776739792688]]],"type":"Polygon"},"properties":{"fid":493600,"ID_GRID":5020588,"INDEKS":0.4573654122318601,"STATUS":"SEDANG","ID_PROV":"36","PROVINSI":"BANTEN","ID_KABKOT":"36.71","KABKOT":"KOTA TANGERANG","ID_KEC":"36.71.04","KECAMATAN":"BENDA","ID_DESA":"36.71.04.1004","DESA":"PAJANG"}},{"type":"Feature","geometry":{"coordinates":[[[106.66924526317993,-6.110768442227489],[106.67822841602113,-6.110768442227489],[106.67822841602113,-6.119759991592472],[106.66924526317993,-6.119759991592472],[106.66924526317993,-6.110768442227489]]],"type":"Polygon"},"properties":{"fid":493601,"ID_GRID":5020589,"INDEKS":0.3611934081835543,"STATUS":"CUKUP","ID_PROV":"36","PROVINSI":"BANTEN","ID_KABKOT":"36.71","KABKOT":"KOTA TANGERANG","ID_KEC":"36.71.04","KECAMATAN":"BENDA","ID_DESA":"36.71.04.1004","DESA":"PAJANG"}},{"type":"Feature","geometry":{"coordinates":[[[106.66924526317993,-6.119759991592472],[106.67822841602113,-6.119759991592472],[106.67822841602113,-6.128751387665971],[106.66924526317993,-6.128751387665971],[106.66924526317993,-6.119759991592472]]],"type":"Polygon"},"properties":{"fid":493602,"ID_GRID":5020590,"INDEKS":0.49138334807923717,"STATUS":"SEDANG","ID_PROV":"36","PROVINSI":"BANTEN","ID_KABKOT":"36.71","KABKOT":"KOTA TANGERANG","ID_KEC":"36.71.04","KECAMATAN":"BENDA","ID_DESA":"36.71.04.1004","DESA":"PAJANG"}},{"type":"Feature","geometry":{"coordinates":[[[106.66924526317993,-6.128751387665971],[106.67822841602113,-6.128751387665971],[106.67822841602113,-6.137742630226345],[106.66924526317993,-6.137742630226345],[106.66924526317993,-6.128751387665971]]],"type":"Polygon"},"properties":{"fid":493603,"ID_GRID":5020591,"INDEKS":0.4022005678498171,"STATUS":"SEDANG","ID_PROV":"36","PROVINSI":"BANTEN","ID_KABKOT":"36.71","KABKOT":"KOTA TANGERANG","ID_KEC":"36.71.04","KECAMATAN":"BENDA","ID_DESA":"36.71.04.1004","DESA":"PAJANG"}},{"type":"Feature","geometry":{"coordinates":[[[106.66924526317993,-6.137742630226345],[106.67822841602113,-6.137742630226345],[106.67822841602113,-6.146733719051968],[106.66924526317993,-6.146733719051968],[106.66924526317993,-6.137742630226345]]],"type":"Polygon"},"properties":{"fid":493604,"ID_GRID":5020592,"INDEKS":0.34142813696102664,"STATUS":"CUKUP","ID_PROV":"36","PROVINSI":"BANTEN","ID_KABKOT":"36.71","KABKOT":"KOTA TANGERANG","ID_KEC":"36.71.04","KECAMATAN":"BENDA","ID_DESA":"36.71.04.1002","DESA":"JURUMUDI"}},{"type":"Feature","geometry":{"coordinates":[[[106.66924526317993,-6.146733719051968],[106.67822841602113,-6.146733719051968],[106.67822841602113,-6.155724653921241],[106.66924526317993,-6.155724653921241],[106.66924526317993,-6.146733719051968]]],"type":"Polygon"},"properties":{"fid":493605,"ID_GRID":5020593,"INDEKS":0.2847209254788899,"STATUS":"CUKUP","ID_PROV":"36","PROVINSI":"BANTEN","ID_KABKOT":"36.71","KABKOT":"KOTA TANGERANG","ID_KEC":"36.71.04","KECAMATAN":"BENDA","ID_DESA":"36.71.04.1005","DESA":"JURUMUDI BARU"}},{"type":"Feature","geometry":{"coordinates":[[[106.66924526317993,-6.155724653921241],[106.67822841602113,-6.155724653921241],[106.67822841602113,-6.164715434612578],[106.66924526317993,-6.164715434612578],[106.66924526317993,-6.155724653921241]]],"type":"Polygon"},"properties":{"fid":493606,"ID_GRID":5020594,"INDEKS":0.28538735844394103,"STATUS":"CUKUP","ID_PROV":"36","PROVINSI":"BANTEN","ID_KABKOT":"36.71","KABKOT":"KOTA TANGERANG","ID_KEC":"36.71.03","KECAMATAN":"BATUCEPER","ID_DESA":"36.71.03.1001","DESA":"BATUCEPER"}},{"type":"Feature","geometry":{"coordinates":[[[106.66924526317993,-6.164715434612578],[106.67822841602113,-6.164715434612578],[106.67822841602113,-6.173706060904413],[106.66924526317993,-6.173706060904413],[106.66924526317993,-6.164715434612578]]],"type":"Polygon"},"properties":{"fid":493607,"ID_GRID":5020595,"INDEKS":0.34223729678149106,"STATUS":"CUKUP","ID_PROV":"36","PROVINSI":"BANTEN","ID_KABKOT":"36.71","KABKOT":"KOTA TANGERANG","ID_KEC":"36.71.03","KECAMATAN":"BATUCEPER","ID_DESA":"36.71.03.1004","DESA":"PORIS GAGA BARU"}},{"type":"Feature","geometry":{"coordinates":[[[106.66924526317993,-6.173706060904413],[106.67822841602113,-6.173706060904413],[106.67822841602113,-6.182696532575203],[106.66924526317993,-6.182696532575203],[106.66924526317993,-6.173706060904413]]],"type":"Polygon"},"properties":{"fid":493608,"ID_GRID":5020596,"INDEKS":0.28003181867739735,"STATUS":"CUKUP","ID_PROV":"36","PROVINSI":"BANTEN","ID_KABKOT":"36.71","KABKOT":"KOTA TANGERANG","ID_KEC":"36.71.03","KECAMATAN":"BATUCEPER","ID_DESA":"36.71.03.1007","DESA":"PORIS JAYA"}},{"type":"Feature","geometry":{"coordinates":[[[106.66924526317993,-6.182696532575203],[106.67822841602113,-6.182696532575203],[106.67822841602113,-6.191686849403425],[106.66924526317993,-6.191686849403425],[106.66924526317993,-6.182696532575203]]],"type":"Polygon"},"properties":{"fid":493609,"ID_GRID":5020597,"INDEKS":0.28775196450757473,"STATUS":"CUKUP","ID_PROV":"36","PROVINSI":"BANTEN","ID_KABKOT":"36.71","KABKOT":"KOTA TANGERANG","ID_KEC":"36.71.05","KECAMATAN":"CIPONDOH","ID_DESA":"36.71.05.1001","DESA":"CIPONDOH"}},{"type":"Feature","geometry":{"coordinates":[[[106.66924526317993,-6.191686849403425],[106.67822841602113,-6.191686849403425],[106.67822841602113,-6.200677011167568],[106.66924526317993,-6.200677011167568],[106.66924526317993,-6.191686849403425]]],"type":"Polygon"},"properties":{"fid":493610,"ID_GRID":5020598,"INDEKS":0.266466727557634,"STATUS":"CUKUP","ID_PROV":"36","PROVINSI":"BANTEN","ID_KABKOT":"36.71","KABKOT":"KOTA TANGERANG","ID_KEC":"36.71.11","KECAMATAN":"PINANG","ID_DESA":"36.71.11.1006","DESA":"KUNCIRAN JAYA"}},{"type":"Feature","geometry":{"coordinates":[[[106.66924526317993,-6.200677011167568],[106.67822841602113,-6.200677011167568],[106.67822841602113,-6.20966701764615],[106.66924526317993,-6.20966701764615],[106.66924526317993,-6.200677011167568]]],"type":"Polygon"},"properties":{"fid":493611,"ID_GRID":5020599,"INDEKS":0.4756049734412455,"STATUS":"SEDANG","ID_PROV":"36","PROVINSI":"BANTEN","ID_KABKOT":"36.71","KABKOT":"KOTA TANGERANG","ID_KEC":"36.71.11","KECAMATAN":"PINANG","ID_DESA":"36.71.11.1006","DESA":"KUNCIRAN JAYA"}},{"type":"Feature","geometry":{"coordinates":[[[106.66924526317993,-6.20966701764615],[106.67822841602113,-6.20966701764615],[106.67822841602113,-6.218656868617704],[106.66924526317993,-6.218656868617704],[106.66924526317993,-6.20966701764615]]],"type":"Polygon"},"properties":{"fid":493612,"ID_GRID":5020600,"INDEKS":0.4108286493336666,"STATUS":"SEDANG","ID_PROV":"36","PROVINSI":"BANTEN","ID_KABKOT":"36.71","KABKOT":"KOTA TANGERANG","ID_KEC":"36.71.11","KECAMATAN":"PINANG","ID_DESA":"36.71.11.1006","DESA":"KUNCIRAN JAYA"}},{"type":"Feature","geometry":{"coordinates":[[[106.66924526317993,-6.218656868617704],[106.67822841602113,-6.218656868617704],[106.67822841602113,-6.227646563860785],[106.66924526317993,-6.227646563860785],[106.66924526317993,-6.218656868617704]]],"type":"Polygon"},"properties":{"fid":493613,"ID_GRID":5020601,"INDEKS":0.31067090208245807,"STATUS":"CUKUP","ID_PROV":"36","PROVINSI":"BANTEN","ID_KABKOT":"36.71","KABKOT":"KOTA TANGERANG","ID_KEC":"36.71.11","KECAMATAN":"PINANG","ID_DESA":"36.71.11.1005","DESA":"KUNCIRAN INDAH"}},{"type":"Feature","geometry":{"coordinates":[[[106.67822841602113,-6.101776739792688],[106.68721156886232,-6.101776739792688],[106.68721156886232,-6.110768442227489],[106.67822841602113,-6.110768442227489],[106.67822841602113,-6.101776739792688]]],"type":"Polygon"},"properties":{"fid":493790,"ID_GRID":5023588,"INDEKS":0.4004226018246212,"STATUS":"SEDANG","ID_PROV":"36","PROVINSI":"BANTEN","ID_KABKOT":"36.71","KABKOT":"KOTA TANGERANG","ID_KEC":"36.71.04","KECAMATAN":"BENDA","ID_DESA":"36.71.04.1003","DESA":"BENDA"}},{"type":"Feature","geometry":{"coordinates":[[[106.67822841602113,-6.110768442227489],[106.68721156886232,-6.110768442227489],[106.68721156886232,-6.119759991592472],[106.67822841602113,-6.119759991592472],[106.67822841602113,-6.110768442227489]]],"type":"Polygon"},"properties":{"fid":493791,"ID_GRID":5023589,"INDEKS":0.3333374345666559,"STATUS":"CUKUP","ID_PROV":"36","PROVINSI":"BANTEN","ID_KABKOT":"36.71","KABKOT":"KOTA TANGERANG","ID_KEC":"36.71.04","KECAMATAN":"BENDA","ID_DESA":"36.71.04.1003","DESA":"BENDA"}},{"type":"Feature","geometry":{"coordinates":[[[106.67822841602113,-6.119759991592472],[106.68721156886232,-6.119759991592472],[106.68721156886232,-6.128751387665971],[106.67822841602113,-6.128751387665971],[106.67822841602113,-6.119759991592472]]],"type":"Polygon"},"properties":{"fid":493792,"ID_GRID":5023590,"INDEKS":0.46063464171454016,"STATUS":"SEDANG","ID_PROV":"36","PROVINSI":"BANTEN","ID_KABKOT":"36.71","KABKOT":"KOTA TANGERANG","ID_KEC":"36.71.04","KECAMATAN":"BENDA","ID_DESA":"36.71.04.1004","DESA":"PAJANG"}},{"type":"Feature","geometry":{"coordinates":[[[106.67822841602113,-6.128751387665971],[106.68721156886232,-6.128751387665971],[106.68721156886232,-6.137742630226345],[106.67822841602113,-6.137742630226345],[106.67822841602113,-6.128751387665971]]],"type":"Polygon"},"properties":{"fid":493793,"ID_GRID":5023591,"INDEKS":0.3519014459106767,"STATUS":"CUKUP","ID_PROV":"36","PROVINSI":"BANTEN","ID_KABKOT":"36.71","KABKOT":"KOTA TANGERANG","ID_KEC":"36.71.04","KECAMATAN":"BENDA","ID_DESA":"36.71.04.1002","DESA":"JURUMUDI"}},{"type":"Feature","geometry":{"coordinates":[[[106.67822841602113,-6.137742630226345],[106.68721156886232,-6.137742630226345],[106.68721156886232,-6.146733719051968],[106.67822841602113,-6.146733719051968],[106.67822841602113,-6.137742630226345]]],"type":"Polygon"},"properties":{"fid":493794,"ID_GRID":5023592,"INDEKS":0.2607034848262346,"STATUS":"CUKUP","ID_PROV":"36","PROVINSI":"BANTEN","ID_KABKOT":"36.71","KABKOT":"KOTA TANGERANG","ID_KEC":"36.71.04","KECAMATAN":"BENDA","ID_DESA":"36.71.04.1002","DESA":"JURUMUDI"}},{"type":"Feature","geometry":{"coordinates":[[[106.67822841602113,-6.146733719051968],[106.68721156886232,-6.146733719051968],[106.68721156886232,-6.155724653921241],[106.67822841602113,-6.155724653921241],[106.67822841602113,-6.146733719051968]]],"type":"Polygon"},"properties":{"fid":493795,"ID_GRID":5023593,"INDEKS":0.24828524901506735,"STATUS":"CUKUP","ID_PROV":"36","PROVINSI":"BANTEN","ID_KABKOT":"36.71","KABKOT":"KOTA TANGERANG","ID_KEC":"36.71.04","KECAMATAN":"BENDA","ID_DESA":"36.71.04.1005","DESA":"JURUMUDI BARU"}},{"type":"Feature","geometry":{"coordinates":[[[106.67822841602113,-6.155724653921241],[106.68721156886232,-6.155724653921241],[106.68721156886232,-6.164715434612578],[106.67822841602113,-6.164715434612578],[106.67822841602113,-6.155724653921241]]],"type":"Polygon"},"properties":{"fid":493796,"ID_GRID":5023594,"INDEKS":0.25870085320853664,"STATUS":"CUKUP","ID_PROV":"36","PROVINSI":"BANTEN","ID_KABKOT":"36.71","KABKOT":"KOTA TANGERANG","ID_KEC":"36.71.03","KECAMATAN":"BATUCEPER","ID_DESA":"36.71.03.1005","DESA":"KEBON BESAR"}},{"type":"Feature","geometry":{"coordinates":[[[106.67822841602113,-6.164715434612578],[106.68721156886232,-6.164715434612578],[106.68721156886232,-6.173706060904413],[106.67822841602113,-6.173706060904413],[106.67822841602113,-6.164715434612578]]],"type":"Polygon"},"properties":{"fid":493797,"ID_GRID":5023595,"INDEKS":0.32129404409912554,"STATUS":"CUKUP","ID_PROV":"36","PROVINSI":"BANTEN","ID_KABKOT":"36.71","KABKOT":"KOTA TANGERANG","ID_KEC":"36.71.03","KECAMATAN":"BATUCEPER","ID_DESA":"36.71.03.1003","DESA":"PORIS GAGA"}},{"type":"Feature","geometry":{"coordinates":[[[106.67822841602113,-6.173706060904413],[106.68721156886232,-6.173706060904413],[106.68721156886232,-6.182696532575203],[106.67822841602113,-6.182696532575203],[106.67822841602113,-6.173706060904413]]],"type":"Polygon"},"properties":{"fid":493798,"ID_GRID":5023596,"INDEKS":0.2475689556350045,"STATUS":"CUKUP","ID_PROV":"36","PROVINSI":"BANTEN","ID_KABKOT":"36.71","KABKOT":"KOTA TANGERANG","ID_KEC":"36.71.05","KECAMATAN":"CIPONDOH","ID_DESA":"36.71.05.1002","DESA":"CIPONDOH MAKMUR"}},{"type":"Feature","geometry":{"coordinates":[[[106.67822841602113,-6.182696532575203],[106.68721156886232,-6.182696532575203],[106.68721156886232,-6.191686849403425],[106.67822841602113,-6.191686849403425],[106.67822841602113,-6.182696532575203]]],"type":"Polygon"},"properties":{"fid":493799,"ID_GRID":5023597,"INDEKS":0.2729255064049371,"STATUS":"CUKUP","ID_PROV":"36","PROVINSI":"BANTEN","ID_KABKOT":"36.71","KABKOT":"KOTA TANGERANG","ID_KEC":"36.71.05","KECAMATAN":"CIPONDOH","ID_DESA":"36.71.05.1001","DESA":"CIPONDOH"}},{"type":"Feature","geometry":{"coordinates":[[[106.67822841602113,-6.191686849403425],[106.68721156886232,-6.191686849403425],[106.68721156886232,-6.200677011167568],[106.67822841602113,-6.200677011167568],[106.67822841602113,-6.191686849403425]]],"type":"Polygon"},"properties":{"fid":493800,"ID_GRID":5023598,"INDEKS":0.283913979901137,"STATUS":"CUKUP","ID_PROV":"36","PROVINSI":"BANTEN","ID_KABKOT":"36.71","KABKOT":"KOTA TANGERANG","ID_KEC":"36.71.05","KECAMATAN":"CIPONDOH","ID_DESA":"36.71.05.1005","DESA":"KENANGA"}},{"type":"Feature","geometry":{"coordinates":[[[106.67822841602113,-6.200677011167568],[106.68721156886232,-6.200677011167568],[106.68721156886232,-6.20966701764615],[106.67822841602113,-6.20966701764615],[106.67822841602113,-6.200677011167568]]],"type":"Polygon"},"properties":{"fid":493801,"ID_GRID":5023599,"INDEKS":0.30717262148145585,"STATUS":"CUKUP","ID_PROV":"36","PROVINSI":"BANTEN","ID_KABKOT":"36.71","KABKOT":"KOTA TANGERANG","ID_KEC":"36.71.11","KECAMATAN":"PINANG","ID_DESA":"36.71.11.1003","DESA":"NEROKTOG"}},{"type":"Feature","geometry":{"coordinates":[[[106.67822841602113,-6.20966701764615],[106.68721156886232,-6.20966701764615],[106.68721156886232,-6.218656868617704],[106.67822841602113,-6.218656868617704],[106.67822841602113,-6.20966701764615]]],"type":"Polygon"},"properties":{"fid":493802,"ID_GRID":5023600,"INDEKS":0.3354682961908144,"STATUS":"CUKUP","ID_PROV":"36","PROVINSI":"BANTEN","ID_KABKOT":"36.71","KABKOT":"KOTA TANGERANG","ID_KEC":"36.71.11","KECAMATAN":"PINANG","ID_DESA":"36.71.11.1001","DESA":"PINANG"}},{"type":"Feature","geometry":{"coordinates":[[[106.67822841602113,-6.218656868617704],[106.68721156886232,-6.218656868617704],[106.68721156886232,-6.227646563860785],[106.67822841602113,-6.227646563860785],[106.67822841602113,-6.218656868617704]]],"type":"Polygon"},"properties":{"fid":493803,"ID_GRID":5023601,"INDEKS":0.2620594173191703,"STATUS":"CUKUP","ID_PROV":"36","PROVINSI":"BANTEN","ID_KABKOT":"36.71","KABKOT":"KOTA TANGERANG","ID_KEC":"36.71.11","KECAMATAN":"PINANG","ID_DESA":"36.71.11.1005","DESA":"KUNCIRAN INDAH"}},{"type":"Feature","geometry":{"coordinates":[[[106.68721156886232,-6.110768442227489],[106.69619472170352,-6.110768442227489],[106.69619472170352,-6.119759991592472],[106.68721156886232,-6.119759991592472],[106.68721156886232,-6.110768442227489]]],"type":"Polygon"},"properties":{"fid":493983,"ID_GRID":5026589,"INDEKS":0.35733942427527915,"STATUS":"CUKUP","ID_PROV":"36","PROVINSI":"BANTEN","ID_KABKOT":"36.71","KABKOT":"KOTA TANGERANG","ID_KEC":"36.71.04","KECAMATAN":"BENDA","ID_DESA":"36.71.04.1003","DESA":"BENDA"}},{"type":"Feature","geometry":{"coordinates":[[[106.68721156886232,-6.173706060904413],[106.69619472170352,-6.173706060904413],[106.69619472170352,-6.182696532575203],[106.68721156886232,-6.182696532575203],[106.68721156886232,-6.173706060904413]]],"type":"Polygon"},"properties":{"fid":493990,"ID_GRID":5026596,"INDEKS":0.26735518317596585,"STATUS":"CUKUP","ID_PROV":"36","PROVINSI":"BANTEN","ID_KABKOT":"36.71","KABKOT":"KOTA TANGERANG","ID_KEC":"36.71.05","KECAMATAN":"CIPONDOH","ID_DESA":"36.71.05.1003","DESA":"CIPONDOH INDAH"}},{"type":"Feature","geometry":{"coordinates":[[[106.68721156886232,-6.182696532575203],[106.69619472170352,-6.182696532575203],[106.69619472170352,-6.191686849403425],[106.68721156886232,-6.191686849403425],[106.68721156886232,-6.182696532575203]]],"type":"Polygon"},"properties":{"fid":493991,"ID_GRID":5026597,"INDEKS":0.2954236822625275,"STATUS":"CUKUP","ID_PROV":"36","PROVINSI":"BANTEN","ID_KABKOT":"36.71","KABKOT":"KOTA TANGERANG","ID_KEC":"36.71.05","KECAMATAN":"CIPONDOH","ID_DESA":"36.71.05.1005","DESA":"KENANGA"}},{"type":"Feature","geometry":{"coordinates":[[[106.68721156886232,-6.191686849403425],[106.69619472170352,-6.191686849403425],[106.69619472170352,-6.200677011167568],[106.68721156886232,-6.200677011167568],[106.68721156886232,-6.191686849403425]]],"type":"Polygon"},"properties":{"fid":493992,"ID_GRID":5026598,"INDEKS":0.29851754100033734,"STATUS":"CUKUP","ID_PROV":"36","PROVINSI":"BANTEN","ID_KABKOT":"36.71","KABKOT":"KOTA TANGERANG","ID_KEC":"36.71.05","KECAMATAN":"CIPONDOH","ID_DESA":"36.71.05.1004","DESA":"GONDRONG"}},{"type":"Feature","geometry":{"coordinates":[[[106.68721156886232,-6.200677011167568],[106.69619472170352,-6.200677011167568],[106.69619472170352,-6.20966701764615],[106.68721156886232,-6.20966701764615],[106.68721156886232,-6.200677011167568]]],"type":"Polygon"},"properties":{"fid":493993,"ID_GRID":5026599,"INDEKS":0.3359451112777843,"STATUS":"CUKUP","ID_PROV":"36","PROVINSI":"BANTEN","ID_KABKOT":"36.71","KABKOT":"KOTA TANGERANG","ID_KEC":"36.71.11","KECAMATAN":"PINANG","ID_DESA":"36.71.11.1003","DESA":"NEROKTOG"}},{"type":"Feature","geometry":{"coordinates":[[[106.68721156886232,-6.20966701764615],[106.69619472170352,-6.20966701764615],[106.69619472170352,-6.218656868617704],[106.68721156886232,-6.218656868617704],[106.68721156886232,-6.20966701764615]]],"type":"Polygon"},"properties":{"fid":493994,"ID_GRID":5026600,"INDEKS":0.3335338729280633,"STATUS":"CUKUP","ID_PROV":"36","PROVINSI":"BANTEN","ID_KABKOT":"36.71","KABKOT":"KOTA TANGERANG","ID_KEC":"36.71.11","KECAMATAN":"PINANG","ID_DESA":"36.71.11.1001","DESA":"PINANG"}},{"type":"Feature","geometry":{"coordinates":[[[106.68721156886232,-6.218656868617704],[106.69619472170352,-6.218656868617704],[106.69619472170352,-6.227646563860785],[106.68721156886232,-6.227646563860785],[106.68721156886232,-6.218656868617704]]],"type":"Polygon"},"properties":{"fid":493995,"ID_GRID":5026601,"INDEKS":0.3149652658379014,"STATUS":"CUKUP","ID_PROV":"36","PROVINSI":"BANTEN","ID_KABKOT":"36.71","KABKOT":"KOTA TANGERANG","ID_KEC":"36.71.11","KECAMATAN":"PINANG","ID_DESA":"36.71.11.1002","DESA":"SUDIMARA PINANG"}},{"type":"Feature","geometry":{"coordinates":[[[106.68721156886232,-6.227646563860785],[106.69619472170352,-6.227646563860785],[106.69619472170352,-6.236636103153963],[106.68721156886232,-6.236636103153963],[106.68721156886232,-6.227646563860785]]],"type":"Polygon"},"properties":{"fid":493996,"ID_GRID":5026602,"INDEKS":0.36678305769098035,"STATUS":"CUKUP","ID_PROV":"36","PROVINSI":"BANTEN","ID_KABKOT":"36.71","KABKOT":"KOTA TANGERANG","ID_KEC":"36.71.06","KECAMATAN":"CILEDUG","ID_DESA":"36.71.06.1004","DESA":"TAJUR"}},{"type":"Feature","geometry":{"coordinates":[[[106.68721156886232,-6.236636103153963],[106.69619472170352,-6.236636103153963],[106.69619472170352,-6.245625486275833],[106.68721156886232,-6.245625486275833],[106.68721156886232,-6.236636103153963]]],"type":"Polygon"},"properties":{"fid":493997,"ID_GRID":5026603,"INDEKS":0.3120033382767379,"STATUS":"CUKUP","ID_PROV":"36","PROVINSI":"BANTEN","ID_KABKOT":"36.71","KABKOT":"KOTA TANGERANG","ID_KEC":"36.71.06","KECAMATAN":"CILEDUG","ID_DESA":"36.71.06.1004","DESA":"TAJUR"}},{"type":"Feature","geometry":{"coordinates":[[[106.69619472170352,-6.173706060904413],[106.7051778745447,-6.173706060904413],[106.7051778745447,-6.182696532575203],[106.69619472170352,-6.182696532575203],[106.69619472170352,-6.173706060904413]]],"type":"Polygon"},"properties":{"fid":494179,"ID_GRID":5029596,"INDEKS":0.31897158541790754,"STATUS":"CUKUP","ID_PROV":"36","PROVINSI":"BANTEN","ID_KABKOT":"36.71","KABKOT":"KOTA TANGERANG","ID_KEC":"36.71.05","KECAMATAN":"CIPONDOH","ID_DESA":"36.71.05.1007","DESA":"KETAPANG"}},{"type":"Feature","geometry":{"coordinates":[[[106.69619472170352,-6.182696532575203],[106.7051778745447,-6.182696532575203],[106.7051778745447,-6.191686849403425],[106.69619472170352,-6.191686849403425],[106.69619472170352,-6.182696532575203]]],"type":"Polygon"},"properties":{"fid":494180,"ID_GRID":5029597,"INDEKS":0.3236483613464072,"STATUS":"CUKUP","ID_PROV":"36","PROVINSI":"BANTEN","ID_KABKOT":"36.71","KABKOT":"KOTA TANGERANG","ID_KEC":"36.71.05","KECAMATAN":"CIPONDOH","ID_DESA":"36.71.05.1004","DESA":"GONDRONG"}},{"type":"Feature","geometry":{"coordinates":[[[106.69619472170352,-6.191686849403425],[106.7051778745447,-6.191686849403425],[106.7051778745447,-6.200677011167568],[106.69619472170352,-6.200677011167568],[106.69619472170352,-6.191686849403425]]],"type":"Polygon"},"properties":{"fid":494181,"ID_GRID":5029598,"INDEKS":0.3570576956863016,"STATUS":"CUKUP","ID_PROV":"36","PROVINSI":"BANTEN","ID_KABKOT":"36.71","KABKOT":"KOTA TANGERANG","ID_KEC":"36.71.05","KECAMATAN":"CIPONDOH","ID_DESA":"36.71.05.1004","DESA":"GONDRONG"}},{"type":"Feature","geometry":{"coordinates":[[[106.69619472170352,-6.200677011167568],[106.7051778745447,-6.200677011167568],[106.7051778745447,-6.20966701764615],[106.69619472170352,-6.20966701764615],[106.69619472170352,-6.200677011167568]]],"type":"Polygon"},"properties":{"fid":494182,"ID_GRID":5029599,"INDEKS":0.3522955167394483,"STATUS":"CUKUP","ID_PROV":"36","PROVINSI":"BANTEN","ID_KABKOT":"36.71","KABKOT":"KOTA TANGERANG","ID_KEC":"36.71.12","KECAMATAN":"KARANG TENGAH","ID_DESA":"36.71.12.1003","DESA":"PONDOK BAHAR"}},{"type":"Feature","geometry":{"coordinates":[[[106.69619472170352,-6.20966701764615],[106.7051778745447,-6.20966701764615],[106.7051778745447,-6.218656868617704],[106.69619472170352,-6.218656868617704],[106.69619472170352,-6.20966701764615]]],"type":"Polygon"},"properties":{"fid":494183,"ID_GRID":5029600,"INDEKS":0.2858911325720117,"STATUS":"CUKUP","ID_PROV":"36","PROVINSI":"BANTEN","ID_KABKOT":"36.71","KABKOT":"KOTA TANGERANG","ID_KEC":"36.71.12","KECAMATAN":"KARANG TENGAH","ID_DESA":"36.71.12.1004","DESA":"PONDOK PUCUNG"}},{"type":"Feature","geometry":{"coordinates":[[[106.69619472170352,-6.218656868617704],[106.7051778745447,-6.218656868617704],[106.7051778745447,-6.227646563860785],[106.69619472170352,-6.227646563860785],[106.69619472170352,-6.218656868617704]]],"type":"Polygon"},"properties":{"fid":494184,"ID_GRID":5029601,"INDEKS":0.27005865797400475,"STATUS":"CUKUP","ID_PROV":"36","PROVINSI":"BANTEN","ID_KABKOT":"36.71","KABKOT":"KOTA TANGERANG","ID_KEC":"36.71.12","KECAMATAN":"KARANG TENGAH","ID_DESA":"36.71.12.1006","DESA":"PADURENAN"}},{"type":"Feature","geometry":{"coordinates":[[[106.69619472170352,-6.227646563860785],[106.7051778745447,-6.227646563860785],[106.7051778745447,-6.236636103153963],[106.69619472170352,-6.236636103153963],[106.69619472170352,-6.227646563860785]]],"type":"Polygon"},"properties":{"fid":494185,"ID_GRID":5029602,"INDEKS":0.2937798868871415,"STATUS":"CUKUP","ID_PROV":"36","PROVINSI":"BANTEN","ID_KABKOT":"36.71","KABKOT":"KOTA TANGERANG","ID_KEC":"36.71.06","KECAMATAN":"CILEDUG","ID_DESA":"36.71.06.1007","DESA":"SUDIMARA SELATAN"}},{"type":"Feature","geometry":{"coordinates":[[[106.69619472170352,-6.236636103153963],[106.7051778745447,-6.236636103153963],[106.7051778745447,-6.245625486275833],[106.69619472170352,-6.245625486275833],[106.69619472170352,-6.236636103153963]]],"type":"Polygon"},"properties":{"fid":494186,"ID_GRID":5029603,"INDEKS":0.34326935503731437,"STATUS":"CUKUP","ID_PROV":"36","PROVINSI":"BANTEN","ID_KABKOT":"36.71","KABKOT":"KOTA TANGERANG","ID_KEC":"36.71.06","KECAMATAN":"CILEDUG","ID_DESA":"36.71.06.1007","DESA":"SUDIMARA SELATAN"}},{"type":"Feature","geometry":{"coordinates":[[[106.69619472170352,-6.245625486275833],[106.7051778745447,-6.245625486275833],[106.7051778745447,-6.254614713005012],[106.69619472170352,-6.254614713005012],[106.69619472170352,-6.245625486275833]]],"type":"Polygon"},"properties":{"fid":494187,"ID_GRID":5029604,"INDEKS":0.2897042959258218,"STATUS":"CUKUP","ID_PROV":"36","PROVINSI":"BANTEN","ID_KABKOT":"36.71","KABKOT":"KOTA TANGERANG","ID_KEC":"36.71.06","KECAMATAN":"CILEDUG","ID_DESA":"36.71.06.1005","DESA":"PARUNG SERAB"}},{"type":"Feature","geometry":{"coordinates":[[[106.7051778745447,-6.182696532575203],[106.7141610273859,-6.182696532575203],[106.7141610273859,-6.191686849403425],[106.7051778745447,-6.191686849403425],[106.7051778745447,-6.182696532575203]]],"type":"Polygon"},"properties":{"fid":494369,"ID_GRID":5032597,"INDEKS":0.2840928425473615,"STATUS":"CUKUP","ID_PROV":"36","PROVINSI":"BANTEN","ID_KABKOT":"36.71","KABKOT":"KOTA TANGERANG","ID_KEC":"36.71.05","KECAMATAN":"CIPONDOH","ID_DESA":"36.71.05.1006","DESA":"PETIR"}},{"type":"Feature","geometry":{"coordinates":[[[106.7051778745447,-6.191686849403425],[106.7141610273859,-6.191686849403425],[106.7141610273859,-6.200677011167568],[106.7051778745447,-6.200677011167568],[106.7051778745447,-6.191686849403425]]],"type":"Polygon"},"properties":{"fid":494370,"ID_GRID":5032598,"INDEKS":0.3684692471097232,"STATUS":"CUKUP","ID_PROV":"36","PROVINSI":"BANTEN","ID_KABKOT":"36.71","KABKOT":"KOTA TANGERANG","ID_KEC":"36.71.12","KECAMATAN":"KARANG TENGAH","ID_DESA":"36.71.12.1007","DESA":"PARUNG JAYA"}},{"type":"Feature","geometry":{"coordinates":[[[106.7051778745447,-6.200677011167568],[106.7141610273859,-6.200677011167568],[106.7141610273859,-6.20966701764615],[106.7051778745447,-6.20966701764615],[106.7051778745447,-6.200677011167568]]],"type":"Polygon"},"properties":{"fid":494371,"ID_GRID":5032599,"INDEKS":0.31717727193052997,"STATUS":"CUKUP","ID_PROV":"36","PROVINSI":"BANTEN","ID_KABKOT":"36.71","KABKOT":"KOTA TANGERANG","ID_KEC":"36.71.12","KECAMATAN":"KARANG TENGAH","ID_DESA":"36.71.12.1002","DESA":"KARANG MULYA"}},{"type":"Feature","geometry":{"coordinates":[[[106.7051778745447,-6.20966701764615],[106.7141610273859,-6.20966701764615],[106.7141610273859,-6.218656868617704],[106.7051778745447,-6.218656868617704],[106.7051778745447,-6.20966701764615]]],"type":"Polygon"},"properties":{"fid":494372,"ID_GRID":5032600,"INDEKS":0.26611527461213075,"STATUS":"CUKUP","ID_PROV":"36","PROVINSI":"BANTEN","ID_KABKOT":"36.71","KABKOT":"KOTA TANGERANG","ID_KEC":"36.71.12","KECAMATAN":"KARANG TENGAH","ID_DESA":"36.71.12.1001","DESA":"KARANG TENGAH"}},{"type":"Feature","geometry":{"coordinates":[[[106.7051778745447,-6.218656868617704],[106.7141610273859,-6.218656868617704],[106.7141610273859,-6.227646563860785],[106.7051778745447,-6.227646563860785],[106.7051778745447,-6.218656868617704]]],"type":"Polygon"},"properties":{"fid":494373,"ID_GRID":5032601,"INDEKS":0.26919624927900265,"STATUS":"CUKUP","ID_PROV":"36","PROVINSI":"BANTEN","ID_KABKOT":"36.71","KABKOT":"KOTA TANGERANG","ID_KEC":"36.71.12","KECAMATAN":"KARANG TENGAH","ID_DESA":"36.71.12.1001","DESA":"KARANG TENGAH"}},{"type":"Feature","geometry":{"coordinates":[[[106.7051778745447,-6.227646563860785],[106.7141610273859,-6.227646563860785],[106.7141610273859,-6.236636103153963],[106.7051778745447,-6.236636103153963],[106.7051778745447,-6.227646563860785]]],"type":"Polygon"},"properties":{"fid":494374,"ID_GRID":5032602,"INDEKS":0.24356845127977944,"STATUS":"CUKUP","ID_PROV":"36","PROVINSI":"BANTEN","ID_KABKOT":"36.71","KABKOT":"KOTA TANGERANG","ID_KEC":"36.71.06","KECAMATAN":"CILEDUG","ID_DESA":"36.71.06.1006","DESA":"SUDIMARA JAYA"}},{"type":"Feature","geometry":{"coordinates":[[[106.7051778745447,-6.236636103153963],[106.7141610273859,-6.236636103153963],[106.7141610273859,-6.245625486275833],[106.7051778745447,-6.245625486275833],[106.7051778745447,-6.236636103153963]]],"type":"Polygon"},"properties":{"fid":494375,"ID_GRID":5032603,"INDEKS":0.28434198945623895,"STATUS":"CUKUP","ID_PROV":"36","PROVINSI":"BANTEN","ID_KABKOT":"36.71","KABKOT":"KOTA TANGERANG","ID_KEC":"36.71.06","KECAMATAN":"CILEDUG","ID_DESA":"36.71.06.1008","DESA":"PANINGGILAN UTARA"}},{"type":"Feature","geometry":{"coordinates":[[[106.7051778745447,-6.245625486275833],[106.7141610273859,-6.245625486275833],[106.7141610273859,-6.254614713005012],[106.7051778745447,-6.254614713005012],[106.7051778745447,-6.245625486275833]]],"type":"Polygon"},"properties":{"fid":494376,"ID_GRID":5032604,"INDEKS":0.2777894258685078,"STATUS":"CUKUP","ID_PROV":"36","PROVINSI":"BANTEN","ID_KABKOT":"36.71","KABKOT":"KOTA TANGERANG","ID_KEC":"36.71.06","KECAMATAN":"CILEDUG","ID_DESA":"36.71.06.1001","DESA":"PANINGGILAN"}},{"type":"Feature","geometry":{"coordinates":[[[106.7141610273859,-6.182696532575203],[106.72314418022711,-6.182696532575203],[106.72314418022711,-6.191686849403425],[106.7141610273859,-6.191686849403425],[106.7141610273859,-6.182696532575203]]],"type":"Polygon"},"properties":{"fid":494551,"ID_GRID":5035597,"INDEKS":0.36780432749221476,"STATUS":"CUKUP","ID_PROV":"36","PROVINSI":"BANTEN","ID_KABKOT":"36.71","KABKOT":"KOTA TANGERANG","ID_KEC":"36.71.05","KECAMATAN":"CIPONDOH","ID_DESA":"36.71.05.1006","DESA":"PETIR"}},{"type":"Feature","geometry":{"coordinates":[[[106.7141610273859,-6.191686849403425],[106.72314418022711,-6.191686849403425],[106.72314418022711,-6.200677011167568],[106.7141610273859,-6.200677011167568],[106.7141610273859,-6.191686849403425]]],"type":"Polygon"},"properties":{"fid":494552,"ID_GRID":5035598,"INDEKS":0.347922627872218,"STATUS":"CUKUP","ID_PROV":"36","PROVINSI":"BANTEN","ID_KABKOT":"36.71","KABKOT":"KOTA TANGERANG","ID_KEC":"36.71.12","KECAMATAN":"KARANG TENGAH","ID_DESA":"36.71.12.1002","DESA":"KARANG MULYA"}},{"type":"Feature","geometry":{"coordinates":[[[106.7141610273859,-6.200677011167568],[106.72314418022711,-6.200677011167568],[106.72314418022711,-6.20966701764615],[106.7141610273859,-6.20966701764615],[106.7141610273859,-6.200677011167568]]],"type":"Polygon"},"properties":{"fid":494553,"ID_GRID":5035599,"INDEKS":0.3231896031493983,"STATUS":"CUKUP","ID_PROV":"36","PROVINSI":"BANTEN","ID_KABKOT":"36.71","KABKOT":"KOTA TANGERANG","ID_KEC":"36.71.12","KECAMATAN":"KARANG TENGAH","ID_DESA":"36.71.12.1002","DESA":"KARANG MULYA"}},{"type":"Feature","geometry":{"coordinates":[[[106.7141610273859,-6.20966701764615],[106.72314418022711,-6.20966701764615],[106.72314418022711,-6.218656868617704],[106.7141610273859,-6.218656868617704],[106.7141610273859,-6.20966701764615]]],"type":"Polygon"},"properties":{"fid":494554,"ID_GRID":5035600,"INDEKS":0.3346990972511039,"STATUS":"CUKUP","ID_PROV":"36","PROVINSI":"BANTEN","ID_KABKOT":"36.71","KABKOT":"KOTA TANGERANG","ID_KEC":"36.71.12","KECAMATAN":"KARANG TENGAH","ID_DESA":"36.71.12.1005","DESA":"KARANG TIMUR"}},{"type":"Feature","geometry":{"coordinates":[[[106.7141610273859,-6.218656868617704],[106.72314418022711,-6.218656868617704],[106.72314418022711,-6.227646563860785],[106.7141610273859,-6.227646563860785],[106.7141610273859,-6.218656868617704]]],"type":"Polygon"},"properties":{"fid":494555,"ID_GRID":5035601,"INDEKS":0.29830953991455617,"STATUS":"CUKUP","ID_PROV":"36","PROVINSI":"BANTEN","ID_KABKOT":"36.71","KABKOT":"KOTA TANGERANG","ID_KEC":"36.71.12","KECAMATAN":"KARANG TENGAH","ID_DESA":"36.71.12.1005","DESA":"KARANG TIMUR"}},{"type":"Feature","geometry":{"coordinates":[[[106.7141610273859,-6.227646563860785],[106.72314418022711,-6.227646563860785],[106.72314418022711,-6.236636103153963],[106.7141610273859,-6.236636103153963],[106.7141610273859,-6.227646563860785]]],"type":"Polygon"},"properties":{"fid":494556,"ID_GRID":5035602,"INDEKS":0.2907911464503536,"STATUS":"CUKUP","ID_PROV":"36","PROVINSI":"BANTEN","ID_KABKOT":"36.71","KABKOT":"KOTA TANGERANG","ID_KEC":"36.71.06","KECAMATAN":"CILEDUG","ID_DESA":"36.71.06.1003","DESA":"SUDIMARA TIMUR"}},{"type":"Feature","geometry":{"coordinates":[[[106.7141610273859,-6.236636103153963],[106.72314418022711,-6.236636103153963],[106.72314418022711,-6.245625486275833],[106.7141610273859,-6.245625486275833],[106.7141610273859,-6.236636103153963]]],"type":"Polygon"},"properties":{"fid":494557,"ID_GRID":5035603,"INDEKS":0.24832553768836652,"STATUS":"CUKUP","ID_PROV":"36","PROVINSI":"BANTEN","ID_KABKOT":"36.71","KABKOT":"KOTA TANGERANG","ID_KEC":"36.71.06","KECAMATAN":"CILEDUG","ID_DESA":"36.71.06.1008","DESA":"PANINGGILAN UTARA"}},{"type":"Feature","geometry":{"coordinates":[[[106.72314418022711,-6.227646563860785],[106.7321273330683,-6.227646563860785],[106.7321273330683,-6.236636103153963],[106.72314418022711,-6.236636103153963],[106.72314418022711,-6.227646563860785]]],"type":"Polygon"},"properties":{"fid":494739,"ID_GRID":5038602,"INDEKS":0.24576740952311565,"STATUS":"CUKUP","ID_PROV":"36","PROVINSI":"BANTEN","ID_KABKOT":"36.71","KABKOT":"KOTA TANGERANG","ID_KEC":"36.71.13","KECAMATAN":"LARANGAN","ID_DESA":"36.71.13.1001","DESA":"LARANGAN UTARA"}},{"type":"Feature","geometry":{"coordinates":[[[106.72314418022711,-6.236636103153963],[106.7321273330683,-6.236636103153963],[106.7321273330683,-6.245625486275833],[106.72314418022711,-6.245625486275833],[106.72314418022711,-6.236636103153963]]],"type":"Polygon"},"properties":{"fid":494740,"ID_GRID":5038603,"INDEKS":0.24438888704447398,"STATUS":"CUKUP","ID_PROV":"36","PROVINSI":"BANTEN","ID_KABKOT":"36.71","KABKOT":"KOTA TANGERANG","ID_KEC":"36.71.13","KECAMATAN":"LARANGAN","ID_DESA":"36.71.13.1006","DESA":"GAGA"}},{"type":"Feature","geometry":{"coordinates":[[[106.72314418022711,-6.245625486275833],[106.7321273330683,-6.245625486275833],[106.7321273330683,-6.254614713005012],[106.72314418022711,-6.254614713005012],[106.72314418022711,-6.245625486275833]]],"type":"Polygon"},"properties":{"fid":494741,"ID_GRID":5038604,"INDEKS":0.2511693100383744,"STATUS":"CUKUP","ID_PROV":"36","PROVINSI":"BANTEN","ID_KABKOT":"36.71","KABKOT":"KOTA TANGERANG","ID_KEC":"36.71.13","KECAMATAN":"LARANGAN","ID_DESA":"36.71.13.1002","DESA":"LARANGAN SELATAN"}},{"type":"Feature","geometry":{"coordinates":[[[106.7321273330683,-6.227646563860785],[106.7411104859095,-6.227646563860785],[106.7411104859095,-6.236636103153963],[106.7321273330683,-6.236636103153963],[106.7321273330683,-6.227646563860785]]],"type":"Polygon"},"properties":{"fid":494925,"ID_GRID":5041602,"INDEKS":0.24913752328046865,"STATUS":"CUKUP","ID_PROV":"36","PROVINSI":"BANTEN","ID_KABKOT":"36.71","KABKOT":"KOTA TANGERANG","ID_KEC":"36.71.13","KECAMATAN":"LARANGAN","ID_DESA":"36.71.13.1004","DESA":"KREO"}},{"type":"Feature","geometry":{"coordinates":[[[106.7321273330683,-6.236636103153963],[106.7411104859095,-6.236636103153963],[106.7411104859095,-6.245625486275833],[106.7321273330683,-6.245625486275833],[106.7321273330683,-6.236636103153963]]],"type":"Polygon"},"properties":{"fid":494926,"ID_GRID":5041603,"INDEKS":0.2563147720554972,"STATUS":"CUKUP","ID_PROV":"36","PROVINSI":"BANTEN","ID_KABKOT":"36.71","KABKOT":"KOTA TANGERANG","ID_KEC":"36.71.13","KECAMATAN":"LARANGAN","ID_DESA":"36.71.13.1003","DESA":"CIPADU"}},{"type":"Feature","geometry":{"coordinates":[[[106.7321273330683,-6.245625486275833],[106.7411104859095,-6.245625486275833],[106.7411104859095,-6.254614713005012],[106.7321273330683,-6.254614713005012],[106.7321273330683,-6.245625486275833]]],"type":"Polygon"},"properties":{"fid":494927,"ID_GRID":5041604,"INDEKS":0.2579416121470737,"STATUS":"CUKUP","ID_PROV":"36","PROVINSI":"BANTEN","ID_KABKOT":"36.71","KABKOT":"KOTA TANGERANG","ID_KEC":"36.71.13","KECAMATAN":"LARANGAN","ID_DESA":"36.71.13.1007","DESA":"CIPADU JAYA"}},{"type":"Feature","geometry":{"coordinates":[[[106.7411104859095,-6.236636103153963],[106.7500936387507,-6.236636103153963],[106.7500936387507,-6.245625486275833],[106.7411104859095,-6.245625486275833],[106.7411104859095,-6.236636103153963]]],"type":"Polygon"},"properties":{"fid":495104,"ID_GRID":5044603,"INDEKS":0.2831012800376934,"STATUS":"CUKUP","ID_PROV":"36","PROVINSI":"BANTEN","ID_KABKOT":"36.71","KABKOT":"KOTA TANGERANG","ID_KEC":"36.71.13","KECAMATAN":"LARANGAN","ID_DESA":"36.71.13.1008","DESA":"KREO SELATAN"}},{"type":"Feature","geometry":{"coordinates":[[[106.7411104859095,-6.245625486275833],[106.7500936387507,-6.245625486275833],[106.7500936387507,-6.254614713005012],[106.7411104859095,-6.254614713005012],[106.7411104859095,-6.245625486275833]]],"type":"Polygon"},"properties":{"fid":495105,"ID_GRID":5044604,"INDEKS":0.34122798909265517,"STATUS":"CUKUP","ID_PROV":"36","PROVINSI":"BANTEN","ID_KABKOT":"36.71","KABKOT":"KOTA TANGERANG","ID_KEC":"36.71.13","KECAMATAN":"LARANGAN","ID_DESA":"36.71.13.1007","DESA":"CIPADU JAYA"}},{"type":"Feature","geometry":{"coordinates":[[[106.5524642762444,-6.182696532575203],[106.56144742908559,-6.182696532575203],[106.56144742908559,-6.191686849403425],[106.5524642762444,-6.191686849403425],[106.5524642762444,-6.182696532575203]]],"type":"Polygon"},"properties":{"fid":490848,"ID_GRID":4981597,"INDEKS":0.270618061402503,"STATUS":"CUKUP","ID_PROV":"36","PROVINSI":"BANTEN","ID_KABKOT":"36.71","KABKOT":"KOTA TANGERANG","ID_KEC":"36.71.02","KECAMATAN":"JATIUWUNG","ID_DESA":"36.71.02.1003","DESA":"PASIR JAYA"}},{"type":"Feature","geometry":{"coordinates":[[[106.5524642762444,-6.191686849403425],[106.56144742908559,-6.191686849403425],[106.56144742908559,-6.200677011167568],[106.5524642762444,-6.200677011167568],[106.5524642762444,-6.191686849403425]]],"type":"Polygon"},"properties":{"fid":490849,"ID_GRID":4981598,"INDEKS":0.2580328353293864,"STATUS":"CUKUP","ID_PROV":"36","PROVINSI":"BANTEN","ID_KABKOT":"36.71","KABKOT":"KOTA TANGERANG","ID_KEC":"36.71.02","KECAMATAN":"JATIUWUNG","ID_DESA":"36.71.02.1003","DESA":"PASIR JAYA"}},{"type":"Feature","geometry":{"coordinates":[[[106.56144742908559,-6.173706060904413],[106.57043058192679,-6.173706060904413],[106.57043058192679,-6.182696532575203],[106.56144742908559,-6.182696532575203],[106.56144742908559,-6.173706060904413]]],"type":"Polygon"},"properties":{"fid":491082,"ID_GRID":4984596,"INDEKS":0.2629410448809602,"STATUS":"CUKUP","ID_PROV":"36","PROVINSI":"BANTEN","ID_KABKOT":"36.71","KABKOT":"KOTA TANGERANG","ID_KEC":"36.71.02","KECAMATAN":"JATIUWUNG","ID_DESA":"36.71.02.1003","DESA":"PASIR JAYA"}},{"type":"Feature","geometry":{"coordinates":[[[106.56144742908559,-6.182696532575203],[106.57043058192679,-6.182696532575203],[106.57043058192679,-6.191686849403425],[106.56144742908559,-6.191686849403425],[106.56144742908559,-6.182696532575203]]],"type":"Polygon"},"properties":{"fid":491083,"ID_GRID":4984597,"INDEKS":0.23456367941941808,"STATUS":"CUKUP","ID_PROV":"36","PROVINSI":"BANTEN","ID_KABKOT":"36.71","KABKOT":"KOTA TANGERANG","ID_KEC":"36.71.02","KECAMATAN":"JATIUWUNG","ID_DESA":"36.71.02.1003","DESA":"PASIR JAYA"}},{"type":"Feature","geometry":{"coordinates":[[[106.56144742908559,-6.191686849403425],[106.57043058192679,-6.191686849403425],[106.57043058192679,-6.200677011167568],[106.56144742908559,-6.200677011167568],[106.56144742908559,-6.191686849403425]]],"type":"Polygon"},"properties":{"fid":491084,"ID_GRID":4984598,"INDEKS":0.255448873132261,"STATUS":"CUKUP","ID_PROV":"36","PROVINSI":"BANTEN","ID_KABKOT":"36.71","KABKOT":"KOTA TANGERANG","ID_KEC":"36.71.02","KECAMATAN":"JATIUWUNG","ID_DESA":"36.71.02.1003","DESA":"PASIR JAYA"}},{"type":"Feature","geometry":{"coordinates":[[[106.57043058192679,-6.173706060904413],[106.57941373476798,-6.173706060904413],[106.57941373476798,-6.182696532575203],[106.57043058192679,-6.182696532575203],[106.57043058192679,-6.173706060904413]]],"type":"Polygon"},"properties":{"fid":491313,"ID_GRID":4987596,"INDEKS":0.31487832011226663,"STATUS":"CUKUP","ID_PROV":"36","PROVINSI":"BANTEN","ID_KABKOT":"36.71","KABKOT":"KOTA TANGERANG","ID_KEC":"36.71.08","KECAMATAN":"PERIUK","ID_DESA":"36.71.08.1002","DESA":"GEMBOR"}},{"type":"Feature","geometry":{"coordinates":[[[106.57043058192679,-6.182696532575203],[106.57941373476798,-6.182696532575203],[106.57941373476798,-6.191686849403425],[106.57043058192679,-6.191686849403425],[106.57043058192679,-6.182696532575203]]],"type":"Polygon"},"properties":{"fid":491314,"ID_GRID":4987597,"INDEKS":0.30234379993531,"STATUS":"CUKUP","ID_PROV":"36","PROVINSI":"BANTEN","ID_KABKOT":"36.71","KABKOT":"KOTA TANGERANG","ID_KEC":"36.71.02","KECAMATAN":"JATIUWUNG","ID_DESA":"36.71.02.1003","DESA":"PASIR JAYA"}},{"type":"Feature","geometry":{"coordinates":[[[106.57043058192679,-6.191686849403425],[106.57941373476798,-6.191686849403425],[106.57941373476798,-6.200677011167568],[106.57043058192679,-6.200677011167568],[106.57043058192679,-6.191686849403425]]],"type":"Polygon"},"properties":{"fid":491315,"ID_GRID":4987598,"INDEKS":0.30195382037556956,"STATUS":"CUKUP","ID_PROV":"36","PROVINSI":"BANTEN","ID_KABKOT":"36.71","KABKOT":"KOTA TANGERANG","ID_KEC":"36.71.02","KECAMATAN":"JATIUWUNG","ID_DESA":"36.71.02.1006","DESA":"ALAM JAYA"}},{"type":"Feature","geometry":{"coordinates":[[[106.57043058192679,-6.200677011167568],[106.57941373476798,-6.200677011167568],[106.57941373476798,-6.20966701764615],[106.57043058192679,-6.20966701764615],[106.57043058192679,-6.200677011167568]]],"type":"Polygon"},"properties":{"fid":491316,"ID_GRID":4987599,"INDEKS":0.2790095714306591,"STATUS":"CUKUP","ID_PROV":"36","PROVINSI":"BANTEN","ID_KABKOT":"36.71","KABKOT":"KOTA TANGERANG","ID_KEC":"36.71.02","KECAMATAN":"JATIUWUNG","ID_DESA":"36.71.02.1005","DESA":"MANIS JAYA"}},{"type":"Feature","geometry":{"coordinates":[[[106.57043058192679,-6.20966701764615],[106.57941373476798,-6.20966701764615],[106.57941373476798,-6.218656868617704],[106.57043058192679,-6.218656868617704],[106.57043058192679,-6.20966701764615]]],"type":"Polygon"},"properties":{"fid":491317,"ID_GRID":4987600,"INDEKS":0.24937347852931974,"STATUS":"CUKUP","ID_PROV":"36","PROVINSI":"BANTEN","ID_KABKOT":"36.71","KABKOT":"KOTA TANGERANG","ID_KEC":"36.71.02","KECAMATAN":"JATIUWUNG","ID_DESA":"36.71.02.1005","DESA":"MANIS JAYA"}},{"type":"Feature","geometry":{"coordinates":[[[106.57941373476798,-6.164715434612578],[106.58839688760918,-6.164715434612578],[106.58839688760918,-6.173706060904413],[106.57941373476798,-6.173706060904413],[106.57941373476798,-6.164715434612578]]],"type":"Polygon"},"properties":{"fid":491546,"ID_GRID":4990595,"INDEKS":0.27357237989252264,"STATUS":"CUKUP","ID_PROV":"36","PROVINSI":"BANTEN","ID_KABKOT":"36.71","KABKOT":"KOTA TANGERANG","ID_KEC":"36.71.08","KECAMATAN":"PERIUK","ID_DESA":"36.71.08.1002","DESA":"GEMBOR"}},{"type":"Feature","geometry":{"coordinates":[[[106.57941373476798,-6.173706060904413],[106.58839688760918,-6.173706060904413],[106.58839688760918,-6.182696532575203],[106.57941373476798,-6.182696532575203],[106.57941373476798,-6.173706060904413]]],"type":"Polygon"},"properties":{"fid":491547,"ID_GRID":4990596,"INDEKS":0.33282033154830576,"STATUS":"CUKUP","ID_PROV":"36","PROVINSI":"BANTEN","ID_KABKOT":"36.71","KABKOT":"KOTA TANGERANG","ID_KEC":"36.71.02","KECAMATAN":"JATIUWUNG","ID_DESA":"36.71.02.1001","DESA":"KERONCONG"}},{"type":"Feature","geometry":{"coordinates":[[[106.57941373476798,-6.182696532575203],[106.58839688760918,-6.182696532575203],[106.58839688760918,-6.191686849403425],[106.57941373476798,-6.191686849403425],[106.57941373476798,-6.182696532575203]]],"type":"Polygon"},"properties":{"fid":491548,"ID_GRID":4990597,"INDEKS":0.2485235686815037,"STATUS":"CUKUP","ID_PROV":"36","PROVINSI":"BANTEN","ID_KABKOT":"36.71","KABKOT":"KOTA TANGERANG","ID_KEC":"36.71.02","KECAMATAN":"JATIUWUNG","ID_DESA":"36.71.02.1001","DESA":"KERONCONG"}},{"type":"Feature","geometry":{"coordinates":[[[106.57941373476798,-6.191686849403425],[106.58839688760918,-6.191686849403425],[106.58839688760918,-6.200677011167568],[106.57941373476798,-6.200677011167568],[106.57941373476798,-6.191686849403425]]],"type":"Polygon"},"properties":{"fid":491549,"ID_GRID":4990598,"INDEKS":0.2991285575437567,"STATUS":"CUKUP","ID_PROV":"36","PROVINSI":"BANTEN","ID_KABKOT":"36.71","KABKOT":"KOTA TANGERANG","ID_KEC":"36.71.02","KECAMATAN":"JATIUWUNG","ID_DESA":"36.71.02.1004","DESA":"GANDASARI"}},{"type":"Feature","geometry":{"coordinates":[[[106.57941373476798,-6.200677011167568],[106.58839688760918,-6.200677011167568],[106.58839688760918,-6.20966701764615],[106.57941373476798,-6.20966701764615],[106.57941373476798,-6.200677011167568]]],"type":"Polygon"},"properties":{"fid":491550,"ID_GRID":4990599,"INDEKS":0.3032642447682999,"STATUS":"CUKUP","ID_PROV":"36","PROVINSI":"BANTEN","ID_KABKOT":"36.71","KABKOT":"KOTA TANGERANG","ID_KEC":"36.71.02","KECAMATAN":"JATIUWUNG","ID_DESA":"36.71.02.1004","DESA":"GANDASARI"}},{"type":"Feature","geometry":{"coordinates":[[[106.57941373476798,-6.20966701764615],[106.58839688760918,-6.20966701764615],[106.58839688760918,-6.218656868617704],[106.57941373476798,-6.218656868617704],[106.57941373476798,-6.20966701764615]]],"type":"Polygon"},"properties":{"fid":491551,"ID_GRID":4990600,"INDEKS":0.29493245242302085,"STATUS":"CUKUP","ID_PROV":"36","PROVINSI":"BANTEN","ID_KABKOT":"36.71","KABKOT":"KOTA TANGERANG","ID_KEC":"36.71.02","KECAMATAN":"JATIUWUNG","ID_DESA":"36.71.02.1004","DESA":"GANDASARI"}},{"type":"Feature","geometry":{"coordinates":[[[106.58839688760918,-6.146733719051968],[106.59738004045037,-6.146733719051968],[106.59738004045037,-6.155724653921241],[106.58839688760918,-6.155724653921241],[106.58839688760918,-6.146733719051968]]],"type":"Polygon"},"properties":{"fid":491768,"ID_GRID":4993593,"INDEKS":0.32835843435981693,"STATUS":"CUKUP","ID_PROV":"36","PROVINSI":"BANTEN","ID_KABKOT":"36.71","KABKOT":"KOTA TANGERANG","ID_KEC":"36.71.08","KECAMATAN":"PERIUK","ID_DESA":"36.71.08.1001","DESA":"PERIUK"}},{"type":"Feature","geometry":{"coordinates":[[[106.58839688760918,-6.155724653921241],[106.59738004045037,-6.155724653921241],[106.59738004045037,-6.164715434612578],[106.58839688760918,-6.164715434612578],[106.58839688760918,-6.155724653921241]]],"type":"Polygon"},"properties":{"fid":491769,"ID_GRID":4993594,"INDEKS":0.3747776696282487,"STATUS":"CUKUP","ID_PROV":"36","PROVINSI":"BANTEN","ID_KABKOT":"36.71","KABKOT":"KOTA TANGERANG","ID_KEC":"36.71.08","KECAMATAN":"PERIUK","ID_DESA":"36.71.08.1001","DESA":"PERIUK"}},{"type":"Feature","geometry":{"coordinates":[[[106.58839688760918,-6.164715434612578],[106.59738004045037,-6.164715434612578],[106.59738004045037,-6.173706060904413],[106.58839688760918,-6.173706060904413],[106.58839688760918,-6.164715434612578]]],"type":"Polygon"},"properties":{"fid":491770,"ID_GRID":4993595,"INDEKS":0.28954012390498385,"STATUS":"CUKUP","ID_PROV":"36","PROVINSI":"BANTEN","ID_KABKOT":"36.71","KABKOT":"KOTA TANGERANG","ID_KEC":"36.71.08","KECAMATAN":"PERIUK","ID_DESA":"36.71.08.1003","DESA":"GEBANG RAYA"}},{"type":"Feature","geometry":{"coordinates":[[[106.58839688760918,-6.173706060904413],[106.59738004045037,-6.173706060904413],[106.59738004045037,-6.182696532575203],[106.58839688760918,-6.182696532575203],[106.58839688760918,-6.173706060904413]]],"type":"Polygon"},"properties":{"fid":491771,"ID_GRID":4993596,"INDEKS":0.2744777996840671,"STATUS":"CUKUP","ID_PROV":"36","PROVINSI":"BANTEN","ID_KABKOT":"36.71","KABKOT":"KOTA TANGERANG","ID_KEC":"36.71.08","KECAMATAN":"PERIUK","ID_DESA":"36.71.08.1003","DESA":"GEBANG RAYA"}},{"type":"Feature","geometry":{"coordinates":[[[106.58839688760918,-6.182696532575203],[106.59738004045037,-6.182696532575203],[106.59738004045037,-6.191686849403425],[106.58839688760918,-6.191686849403425],[106.58839688760918,-6.182696532575203]]],"type":"Polygon"},"properties":{"fid":491772,"ID_GRID":4993597,"INDEKS":0.2631490552223515,"STATUS":"CUKUP","ID_PROV":"36","PROVINSI":"BANTEN","ID_KABKOT":"36.71","KABKOT":"KOTA TANGERANG","ID_KEC":"36.71.08","KECAMATAN":"PERIUK","ID_DESA":"36.71.08.1004","DESA":"SANGIANG JAYA"}},{"type":"Feature","geometry":{"coordinates":[[[106.58839688760918,-6.191686849403425],[106.59738004045037,-6.191686849403425],[106.59738004045037,-6.200677011167568],[106.58839688760918,-6.200677011167568],[106.58839688760918,-6.191686849403425]]],"type":"Polygon"},"properties":{"fid":491773,"ID_GRID":4993598,"INDEKS":0.2850691397516476,"STATUS":"CUKUP","ID_PROV":"36","PROVINSI":"BANTEN","ID_KABKOT":"36.71","KABKOT":"KOTA TANGERANG","ID_KEC":"36.71.09","KECAMATAN":"CIBODAS","ID_DESA":"36.71.09.1006","DESA":"JATIUWUNG"}},{"type":"Feature","geometry":{"coordinates":[[[106.58839688760918,-6.200677011167568],[106.59738004045037,-6.200677011167568],[106.59738004045037,-6.20966701764615],[106.58839688760918,-6.20966701764615],[106.58839688760918,-6.200677011167568]]],"type":"Polygon"},"properties":{"fid":491774,"ID_GRID":4993599,"INDEKS":0.3391012828564686,"STATUS":"CUKUP","ID_PROV":"36","PROVINSI":"BANTEN","ID_KABKOT":"36.71","KABKOT":"KOTA TANGERANG","ID_KEC":"36.71.02","KECAMATAN":"JATIUWUNG","ID_DESA":"36.71.02.1004","DESA":"GANDASARI"}},{"type":"Feature","geometry":{"coordinates":[[[106.58839688760918,-6.20966701764615],[106.59738004045037,-6.20966701764615],[106.59738004045037,-6.218656868617704],[106.58839688760918,-6.218656868617704],[106.58839688760918,-6.20966701764615]]],"type":"Polygon"},"properties":{"fid":491775,"ID_GRID":4993600,"INDEKS":0.27098745713923494,"STATUS":"CUKUP","ID_PROV":"36","PROVINSI":"BANTEN","ID_KABKOT":"36.71","KABKOT":"KOTA TANGERANG","ID_KEC":"36.71.02","KECAMATAN":"JATIUWUNG","ID_DESA":"36.71.02.1004","DESA":"GANDASARI"}},{"type":"Feature","geometry":{"coordinates":[[[106.59738004045037,-6.146733719051968],[106.60636319329156,-6.146733719051968],[106.60636319329156,-6.155724653921241],[106.59738004045037,-6.155724653921241],[106.59738004045037,-6.146733719051968]]],"type":"Polygon"},"properties":{"fid":491986,"ID_GRID":4996593,"INDEKS":0.38462695180572926,"STATUS":"CUKUP","ID_PROV":"36","PROVINSI":"BANTEN","ID_KABKOT":"36.71","KABKOT":"KOTA TANGERANG","ID_KEC":"36.71.08","KECAMATAN":"PERIUK","ID_DESA":"36.71.08.1001","DESA":"PERIUK"}},{"type":"Feature","geometry":{"coordinates":[[[106.59738004045037,-6.155724653921241],[106.60636319329156,-6.155724653921241],[106.60636319329156,-6.164715434612578],[106.59738004045037,-6.164715434612578],[106.59738004045037,-6.155724653921241]]],"type":"Polygon"},"properties":{"fid":491987,"ID_GRID":4996594,"INDEKS":0.33717708613918507,"STATUS":"CUKUP","ID_PROV":"36","PROVINSI":"BANTEN","ID_KABKOT":"36.71","KABKOT":"KOTA TANGERANG","ID_KEC":"36.71.08","KECAMATAN":"PERIUK","ID_DESA":"36.71.08.1005","DESA":"PERIUK JAYA"}},{"type":"Feature","geometry":{"coordinates":[[[106.59738004045037,-6.164715434612578],[106.60636319329156,-6.164715434612578],[106.60636319329156,-6.173706060904413],[106.59738004045037,-6.173706060904413],[106.59738004045037,-6.164715434612578]]],"type":"Polygon"},"properties":{"fid":491988,"ID_GRID":4996595,"INDEKS":0.3056122734663791,"STATUS":"CUKUP","ID_PROV":"36","PROVINSI":"BANTEN","ID_KABKOT":"36.71","KABKOT":"KOTA TANGERANG","ID_KEC":"36.71.08","KECAMATAN":"PERIUK","ID_DESA":"36.71.08.1005","DESA":"PERIUK JAYA"}},{"type":"Feature","geometry":{"coordinates":[[[106.59738004045037,-6.173706060904413],[106.60636319329156,-6.173706060904413],[106.60636319329156,-6.182696532575203],[106.59738004045037,-6.182696532575203],[106.59738004045037,-6.173706060904413]]],"type":"Polygon"},"properties":{"fid":491989,"ID_GRID":4996596,"INDEKS":0.2873448920759925,"STATUS":"CUKUP","ID_PROV":"36","PROVINSI":"BANTEN","ID_KABKOT":"36.71","KABKOT":"KOTA TANGERANG","ID_KEC":"36.71.08","KECAMATAN":"PERIUK","ID_DESA":"36.71.08.1004","DESA":"SANGIANG JAYA"}},{"type":"Feature","geometry":{"coordinates":[[[106.59738004045037,-6.182696532575203],[106.60636319329156,-6.182696532575203],[106.60636319329156,-6.191686849403425],[106.59738004045037,-6.191686849403425],[106.59738004045037,-6.182696532575203]]],"type":"Polygon"},"properties":{"fid":491990,"ID_GRID":4996597,"INDEKS":0.26372304930940915,"STATUS":"CUKUP","ID_PROV":"36","PROVINSI":"BANTEN","ID_KABKOT":"36.71","KABKOT":"KOTA TANGERANG","ID_KEC":"36.71.09","KECAMATAN":"CIBODAS","ID_DESA":"36.71.09.1005","DESA":"UWUNG JAYA"}},{"type":"Feature","geometry":{"coordinates":[[[106.59738004045037,-6.191686849403425],[106.60636319329156,-6.191686849403425],[106.60636319329156,-6.200677011167568],[106.59738004045037,-6.200677011167568],[106.59738004045037,-6.191686849403425]]],"type":"Polygon"},"properties":{"fid":491991,"ID_GRID":4996598,"INDEKS":0.2569362418643081,"STATUS":"CUKUP","ID_PROV":"36","PROVINSI":"BANTEN","ID_KABKOT":"36.71","KABKOT":"KOTA TANGERANG","ID_KEC":"36.71.09","KECAMATAN":"CIBODAS","ID_DESA":"36.71.09.1005","DESA":"UWUNG JAYA"}},{"type":"Feature","geometry":{"coordinates":[[[106.59738004045037,-6.200677011167568],[106.60636319329156,-6.200677011167568],[106.60636319329156,-6.20966701764615],[106.59738004045037,-6.20966701764615],[106.59738004045037,-6.200677011167568]]],"type":"Polygon"},"properties":{"fid":491992,"ID_GRID":4996599,"INDEKS":0.23929709992461295,"STATUS":"CUKUP","ID_PROV":"36","PROVINSI":"BANTEN","ID_KABKOT":"36.71","KABKOT":"KOTA TANGERANG","ID_KEC":"36.71.09","KECAMATAN":"CIBODAS","ID_DESA":"36.71.09.1003","DESA":"CIBODAS BARU"}},{"type":"Feature","geometry":{"coordinates":[[[106.60636319329156,-6.146733719051968],[106.61534634613275,-6.146733719051968],[106.61534634613275,-6.155724653921241],[106.60636319329156,-6.155724653921241],[106.60636319329156,-6.146733719051968]]],"type":"Polygon"},"properties":{"fid":492200,"ID_GRID":4999593,"INDEKS":0.3833028402531423,"STATUS":"CUKUP","ID_PROV":"36","PROVINSI":"BANTEN","ID_KABKOT":"36.71","KABKOT":"KOTA TANGERANG","ID_KEC":"36.71.08","KECAMATAN":"PERIUK","ID_DESA":"36.71.08.1005","DESA":"PERIUK JAYA"}},{"type":"Feature","geometry":{"coordinates":[[[106.60636319329156,-6.155724653921241],[106.61534634613275,-6.155724653921241],[106.61534634613275,-6.164715434612578],[106.60636319329156,-6.164715434612578],[106.60636319329156,-6.155724653921241]]],"type":"Polygon"},"properties":{"fid":492201,"ID_GRID":4999594,"INDEKS":0.30560469742320456,"STATUS":"CUKUP","ID_PROV":"36","PROVINSI":"BANTEN","ID_KABKOT":"36.71","KABKOT":"KOTA TANGERANG","ID_KEC":"36.71.08","KECAMATAN":"PERIUK","ID_DESA":"36.71.08.1005","DESA":"PERIUK JAYA"}},{"type":"Feature","geometry":{"coordinates":[[[106.60636319329156,-6.164715434612578],[106.61534634613275,-6.164715434612578],[106.61534634613275,-6.173706060904413],[106.60636319329156,-6.173706060904413],[106.60636319329156,-6.164715434612578]]],"type":"Polygon"},"properties":{"fid":492202,"ID_GRID":4999595,"INDEKS":0.2976077914757943,"STATUS":"CUKUP","ID_PROV":"36","PROVINSI":"BANTEN","ID_KABKOT":"36.71","KABKOT":"KOTA TANGERANG","ID_KEC":"36.71.07","KECAMATAN":"KARAWACI","ID_DESA":"36.71.07.1011","DESA":"PABUARAN TUMPENG"}},{"type":"Feature","geometry":{"coordinates":[[[106.60636319329156,-6.173706060904413],[106.61534634613275,-6.173706060904413],[106.61534634613275,-6.182696532575203],[106.60636319329156,-6.182696532575203],[106.60636319329156,-6.173706060904413]]],"type":"Polygon"},"properties":{"fid":492203,"ID_GRID":4999596,"INDEKS":0.28674495936024424,"STATUS":"CUKUP","ID_PROV":"36","PROVINSI":"BANTEN","ID_KABKOT":"36.71","KABKOT":"KOTA TANGERANG","ID_KEC":"36.71.07","KECAMATAN":"KARAWACI","ID_DESA":"36.71.07.1010","DESA":"MARGA SARI"}},{"type":"Feature","geometry":{"coordinates":[[[106.60636319329156,-6.182696532575203],[106.61534634613275,-6.182696532575203],[106.61534634613275,-6.191686849403425],[106.60636319329156,-6.191686849403425],[106.60636319329156,-6.182696532575203]]],"type":"Polygon"},"properties":{"fid":492204,"ID_GRID":4999597,"INDEKS":0.2856164933263544,"STATUS":"CUKUP","ID_PROV":"36","PROVINSI":"BANTEN","ID_KABKOT":"36.71","KABKOT":"KOTA TANGERANG","ID_KEC":"36.71.07","KECAMATAN":"KARAWACI","ID_DESA":"36.71.07.1005","DESA":"CIMONE"}},{"type":"Feature","geometry":{"coordinates":[[[106.60636319329156,-6.191686849403425],[106.61534634613275,-6.191686849403425],[106.61534634613275,-6.200677011167568],[106.60636319329156,-6.200677011167568],[106.60636319329156,-6.191686849403425]]],"type":"Polygon"},"properties":{"fid":492205,"ID_GRID":4999598,"INDEKS":0.24455771168922996,"STATUS":"CUKUP","ID_PROV":"36","PROVINSI":"BANTEN","ID_KABKOT":"36.71","KABKOT":"KOTA TANGERANG","ID_KEC":"36.71.07","KECAMATAN":"KARAWACI","ID_DESA":"36.71.07.1005","DESA":"CIMONE"}},{"type":"Feature","geometry":{"coordinates":[[[106.60636319329156,-6.200677011167568],[106.61534634613275,-6.200677011167568],[106.61534634613275,-6.20966701764615],[106.60636319329156,-6.20966701764615],[106.60636319329156,-6.200677011167568]]],"type":"Polygon"},"properties":{"fid":492206,"ID_GRID":4999599,"INDEKS":0.2685390578239089,"STATUS":"CUKUP","ID_PROV":"36","PROVINSI":"BANTEN","ID_KABKOT":"36.71","KABKOT":"KOTA TANGERANG","ID_KEC":"36.71.07","KECAMATAN":"KARAWACI","ID_DESA":"36.71.07.1003","DESA":"KARAWACI BARU"}},{"type":"Feature","geometry":{"coordinates":[[[106.60636319329156,-6.20966701764615],[106.61534634613275,-6.20966701764615],[106.61534634613275,-6.218656868617704],[106.60636319329156,-6.218656868617704],[106.60636319329156,-6.20966701764615]]],"type":"Polygon"},"properties":{"fid":492207,"ID_GRID":4999600,"INDEKS":0.24957439957461958,"STATUS":"CUKUP","ID_PROV":"36","PROVINSI":"BANTEN","ID_KABKOT":"36.71","KABKOT":"KOTA TANGERANG","ID_KEC":"36.71.09","KECAMATAN":"CIBODAS","ID_DESA":"36.71.09.1002","DESA":"CIBODAS SARI"}},{"type":"Feature","geometry":{"coordinates":[[[106.61534634613275,-6.119759991592472],[106.62432949897396,-6.119759991592472],[106.62432949897396,-6.128751387665971],[106.61534634613275,-6.128751387665971],[106.61534634613275,-6.119759991592472]]],"type":"Polygon"},"properties":{"fid":492408,"ID_GRID":5002590,"INDEKS":0.3334996337296641,"STATUS":"CUKUP","ID_PROV":"36","PROVINSI":"BANTEN","ID_KABKOT":"36.71","KABKOT":"KOTA TANGERANG","ID_KEC":"36.71.10","KECAMATAN":"NEGLASARI","ID_DESA":"36.71.10.1007","DESA":"KEDAUNG BARU"}},{"type":"Feature","geometry":{"coordinates":[[[106.61534634613275,-6.128751387665971],[106.62432949897396,-6.128751387665971],[106.62432949897396,-6.137742630226345],[106.61534634613275,-6.137742630226345],[106.61534634613275,-6.128751387665971]]],"type":"Polygon"},"properties":{"fid":492409,"ID_GRID":5002591,"INDEKS":0.3875324663418925,"STATUS":"CUKUP","ID_PROV":"36","PROVINSI":"BANTEN","ID_KABKOT":"36.71","KABKOT":"KOTA TANGERANG","ID_KEC":"36.71.10","KECAMATAN":"NEGLASARI","ID_DESA":"36.71.10.1004","DESA":"KEDAUNG WETAN"}},{"type":"Feature","geometry":{"coordinates":[[[106.61534634613275,-6.137742630226345],[106.62432949897396,-6.137742630226345],[106.62432949897396,-6.146733719051968],[106.61534634613275,-6.146733719051968],[106.61534634613275,-6.137742630226345]]],"type":"Polygon"},"properties":{"fid":492410,"ID_GRID":5002592,"INDEKS":0.4128923565149307,"STATUS":"SEDANG","ID_PROV":"36","PROVINSI":"BANTEN","ID_KABKOT":"36.71","KABKOT":"KOTA TANGERANG","ID_KEC":"36.71.10","KECAMATAN":"NEGLASARI","ID_DESA":"36.71.10.1001","DESA":"NEGLASARI"}},{"type":"Feature","geometry":{"coordinates":[[[106.61534634613275,-6.146733719051968],[106.62432949897396,-6.146733719051968],[106.62432949897396,-6.155724653921241],[106.61534634613275,-6.155724653921241],[106.61534634613275,-6.146733719051968]]],"type":"Polygon"},"properties":{"fid":492411,"ID_GRID":5002593,"INDEKS":0.3798984461318972,"STATUS":"CUKUP","ID_PROV":"36","PROVINSI":"BANTEN","ID_KABKOT":"36.71","KABKOT":"KOTA TANGERANG","ID_KEC":"36.71.10","KECAMATAN":"NEGLASARI","ID_DESA":"36.71.10.1005","DESA":"MEKAR SARI"}},{"type":"Feature","geometry":{"coordinates":[[[106.61534634613275,-6.155724653921241],[106.62432949897396,-6.155724653921241],[106.62432949897396,-6.164715434612578],[106.61534634613275,-6.164715434612578],[106.61534634613275,-6.155724653921241]]],"type":"Polygon"},"properties":{"fid":492412,"ID_GRID":5002594,"INDEKS":0.3353001840625111,"STATUS":"CUKUP","ID_PROV":"36","PROVINSI":"BANTEN","ID_KABKOT":"36.71","KABKOT":"KOTA TANGERANG","ID_KEC":"36.71.07","KECAMATAN":"KARAWACI","ID_DESA":"36.71.07.1016","DESA":"KOANG JAYA"}},{"type":"Feature","geometry":{"coordinates":[[[106.61534634613275,-6.164715434612578],[106.62432949897396,-6.164715434612578],[106.62432949897396,-6.173706060904413],[106.61534634613275,-6.173706060904413],[106.61534634613275,-6.164715434612578]]],"type":"Polygon"},"properties":{"fid":492413,"ID_GRID":5002595,"INDEKS":0.32474618376549763,"STATUS":"CUKUP","ID_PROV":"36","PROVINSI":"BANTEN","ID_KABKOT":"36.71","KABKOT":"KOTA TANGERANG","ID_KEC":"36.71.07","KECAMATAN":"KARAWACI","ID_DESA":"36.71.07.1015","DESA":"PASAR BARU"}},{"type":"Feature","geometry":{"coordinates":[[[106.61534634613275,-6.173706060904413],[106.62432949897396,-6.173706060904413],[106.62432949897396,-6.182696532575203],[106.61534634613275,-6.182696532575203],[106.61534634613275,-6.173706060904413]]],"type":"Polygon"},"properties":{"fid":492414,"ID_GRID":5002596,"INDEKS":0.3319885824584631,"STATUS":"CUKUP","ID_PROV":"36","PROVINSI":"BANTEN","ID_KABKOT":"36.71","KABKOT":"KOTA TANGERANG","ID_KEC":"36.71.07","KECAMATAN":"KARAWACI","ID_DESA":"36.71.07.1007","DESA":"PABUARAN"}},{"type":"Feature","geometry":{"coordinates":[[[106.61534634613275,-6.182696532575203],[106.62432949897396,-6.182696532575203],[106.62432949897396,-6.191686849403425],[106.61534634613275,-6.191686849403425],[106.61534634613275,-6.182696532575203]]],"type":"Polygon"},"properties":{"fid":492415,"ID_GRID":5002597,"INDEKS":0.3490707506550187,"STATUS":"CUKUP","ID_PROV":"36","PROVINSI":"BANTEN","ID_KABKOT":"36.71","KABKOT":"KOTA TANGERANG","ID_KEC":"36.71.07","KECAMATAN":"KARAWACI","ID_DESA":"36.71.07.1001","DESA":"KARAWACI"}},{"type":"Feature","geometry":{"coordinates":[[[106.61534634613275,-6.191686849403425],[106.62432949897396,-6.191686849403425],[106.62432949897396,-6.200677011167568],[106.61534634613275,-6.200677011167568],[106.61534634613275,-6.191686849403425]]],"type":"Polygon"},"properties":{"fid":492416,"ID_GRID":5002598,"INDEKS":0.3050707997593088,"STATUS":"CUKUP","ID_PROV":"36","PROVINSI":"BANTEN","ID_KABKOT":"36.71","KABKOT":"KOTA TANGERANG","ID_KEC":"36.71.07","KECAMATAN":"KARAWACI","ID_DESA":"36.71.07.1004","DESA":"NUSA JAYA"}},{"type":"Feature","geometry":{"coordinates":[[[106.61534634613275,-6.200677011167568],[106.62432949897396,-6.200677011167568],[106.62432949897396,-6.20966701764615],[106.61534634613275,-6.20966701764615],[106.61534634613275,-6.200677011167568]]],"type":"Polygon"},"properties":{"fid":492417,"ID_GRID":5002599,"INDEKS":0.2719557637692414,"STATUS":"CUKUP","ID_PROV":"36","PROVINSI":"BANTEN","ID_KABKOT":"36.71","KABKOT":"KOTA TANGERANG","ID_KEC":"36.71.07","KECAMATAN":"KARAWACI","ID_DESA":"36.71.07.1002","DESA":"BOJONG JAYA"}},{"type":"Feature","geometry":{"coordinates":[[[106.61534634613275,-6.20966701764615],[106.62432949897396,-6.20966701764615],[106.62432949897396,-6.218656868617704],[106.61534634613275,-6.218656868617704],[106.61534634613275,-6.20966701764615]]],"type":"Polygon"},"properties":{"fid":492418,"ID_GRID":5002600,"INDEKS":0.34306635616642694,"STATUS":"CUKUP","ID_PROV":"36","PROVINSI":"BANTEN","ID_KABKOT":"36.71","KABKOT":"KOTA TANGERANG","ID_KEC":"36.71.09","KECAMATAN":"CIBODAS","ID_DESA":"36.71.09.1004","DESA":"PANUNGGANGAN BARAT"}},{"type":"Feature","geometry":{"coordinates":[[[106.61534634613275,-6.218656868617704],[106.62432949897396,-6.218656868617704],[106.62432949897396,-6.227646563860785],[106.61534634613275,-6.227646563860785],[106.61534634613275,-6.218656868617704]]],"type":"Polygon"},"properties":{"fid":492419,"ID_GRID":5002601,"INDEKS":0.3411983314734017,"STATUS":"CUKUP","ID_PROV":"36","PROVINSI":"BANTEN","ID_KABKOT":"36.71","KABKOT":"KOTA TANGERANG","ID_KEC":"36.71.09","KECAMATAN":"CIBODAS","ID_DESA":"36.71.09.1004","DESA":"PANUNGGANGAN BARAT"}},{"type":"Feature","geometry":{"coordinates":[[[106.62432949897396,-6.119759991592472],[106.63331265181516,-6.119759991592472],[106.63331265181516,-6.128751387665971],[106.62432949897396,-6.128751387665971],[106.62432949897396,-6.119759991592472]]],"type":"Polygon"},"properties":{"fid":492615,"ID_GRID":5005590,"INDEKS":0.36899950198576836,"STATUS":"CUKUP","ID_PROV":"36","PROVINSI":"BANTEN","ID_KABKOT":"36.71","KABKOT":"KOTA TANGERANG","ID_KEC":"36.71.10","KECAMATAN":"NEGLASARI","ID_DESA":"36.71.10.1003","DESA":"SELAPAJANG JAYA"}},{"type":"Feature","geometry":{"coordinates":[[[106.62432949897396,-6.128751387665971],[106.63331265181516,-6.128751387665971],[106.63331265181516,-6.137742630226345],[106.62432949897396,-6.137742630226345],[106.62432949897396,-6.128751387665971]]],"type":"Polygon"},"properties":{"fid":492616,"ID_GRID":5005591,"INDEKS":0.2869236559031533,"STATUS":"CUKUP","ID_PROV":"36","PROVINSI":"BANTEN","ID_KABKOT":"36.71","KABKOT":"KOTA TANGERANG","ID_KEC":"36.71.10","KECAMATAN":"NEGLASARI","ID_DESA":"36.71.10.1003","DESA":"SELAPAJANG JAYA"}},{"type":"Feature","geometry":{"coordinates":[[[106.62432949897396,-6.137742630226345],[106.63331265181516,-6.137742630226345],[106.63331265181516,-6.146733719051968],[106.62432949897396,-6.146733719051968],[106.62432949897396,-6.137742630226345]]],"type":"Polygon"},"properties":{"fid":492617,"ID_GRID":5005592,"INDEKS":0.40132976155745204,"STATUS":"SEDANG","ID_PROV":"36","PROVINSI":"BANTEN","ID_KABKOT":"36.71","KABKOT":"KOTA TANGERANG","ID_KEC":"36.71.10","KECAMATAN":"NEGLASARI","ID_DESA":"36.71.10.1001","DESA":"NEGLASARI"}},{"type":"Feature","geometry":{"coordinates":[[[106.62432949897396,-6.146733719051968],[106.63331265181516,-6.146733719051968],[106.63331265181516,-6.155724653921241],[106.62432949897396,-6.155724653921241],[106.62432949897396,-6.146733719051968]]],"type":"Polygon"},"properties":{"fid":492618,"ID_GRID":5005593,"INDEKS":0.37836552093240455,"STATUS":"CUKUP","ID_PROV":"36","PROVINSI":"BANTEN","ID_KABKOT":"36.71","KABKOT":"KOTA TANGERANG","ID_KEC":"36.71.10","KECAMATAN":"NEGLASARI","ID_DESA":"36.71.10.1001","DESA":"NEGLASARI"}},{"type":"Feature","geometry":{"coordinates":[[[106.62432949897396,-6.155724653921241],[106.63331265181516,-6.155724653921241],[106.63331265181516,-6.164715434612578],[106.62432949897396,-6.164715434612578],[106.62432949897396,-6.155724653921241]]],"type":"Polygon"},"properties":{"fid":492619,"ID_GRID":5005594,"INDEKS":0.3173519412245468,"STATUS":"CUKUP","ID_PROV":"36","PROVINSI":"BANTEN","ID_KABKOT":"36.71","KABKOT":"KOTA TANGERANG","ID_KEC":"36.71.10","KECAMATAN":"NEGLASARI","ID_DESA":"36.71.10.1005","DESA":"MEKAR SARI"}},{"type":"Feature","geometry":{"coordinates":[[[106.62432949897396,-6.164715434612578],[106.63331265181516,-6.164715434612578],[106.63331265181516,-6.173706060904413],[106.62432949897396,-6.173706060904413],[106.62432949897396,-6.164715434612578]]],"type":"Polygon"},"properties":{"fid":492620,"ID_GRID":5005595,"INDEKS":0.2666240678022593,"STATUS":"CUKUP","ID_PROV":"36","PROVINSI":"BANTEN","ID_KABKOT":"36.71","KABKOT":"KOTA TANGERANG","ID_KEC":"36.71.01","KECAMATAN":"TANGERANG","ID_DESA":"36.71.01.1001","DESA":"SUKARASA"}},{"type":"Feature","geometry":{"coordinates":[[[106.62432949897396,-6.173706060904413],[106.63331265181516,-6.173706060904413],[106.63331265181516,-6.182696532575203],[106.62432949897396,-6.182696532575203],[106.62432949897396,-6.173706060904413]]],"type":"Polygon"},"properties":{"fid":492621,"ID_GRID":5005596,"INDEKS":0.2642612068969076,"STATUS":"CUKUP","ID_PROV":"36","PROVINSI":"BANTEN","ID_KABKOT":"36.71","KABKOT":"KOTA TANGERANG","ID_KEC":"36.71.07","KECAMATAN":"KARAWACI","ID_DESA":"36.71.07.1014","DESA":"SUKAJADI"}},{"type":"Feature","geometry":{"coordinates":[[[106.62432949897396,-6.182696532575203],[106.63331265181516,-6.182696532575203],[106.63331265181516,-6.191686849403425],[106.62432949897396,-6.191686849403425],[106.62432949897396,-6.182696532575203]]],"type":"Polygon"},"properties":{"fid":492622,"ID_GRID":5005597,"INDEKS":0.32542871773290843,"STATUS":"CUKUP","ID_PROV":"36","PROVINSI":"BANTEN","ID_KABKOT":"36.71","KABKOT":"KOTA TANGERANG","ID_KEC":"36.71.07","KECAMATAN":"KARAWACI","ID_DESA":"36.71.07.1001","DESA":"KARAWACI"}},{"type":"Feature","geometry":{"coordinates":[[[106.62432949897396,-6.191686849403425],[106.63331265181516,-6.191686849403425],[106.63331265181516,-6.200677011167568],[106.62432949897396,-6.200677011167568],[106.62432949897396,-6.191686849403425]]],"type":"Polygon"},"properties":{"fid":492623,"ID_GRID":5005598,"INDEKS":0.3625989542102006,"STATUS":"CUKUP","ID_PROV":"36","PROVINSI":"BANTEN","ID_KABKOT":"36.71","KABKOT":"KOTA TANGERANG","ID_KEC":"36.71.01","KECAMATAN":"TANGERANG","ID_DESA":"36.71.01.1008","DESA":"BABAKAN"}},{"type":"Feature","geometry":{"coordinates":[[[106.62432949897396,-6.200677011167568],[106.63331265181516,-6.200677011167568],[106.63331265181516,-6.20966701764615],[106.62432949897396,-6.20966701764615],[106.62432949897396,-6.200677011167568]]],"type":"Polygon"},"properties":{"fid":492624,"ID_GRID":5005599,"INDEKS":0.3462406032067904,"STATUS":"CUKUP","ID_PROV":"36","PROVINSI":"BANTEN","ID_KABKOT":"36.71","KABKOT":"KOTA TANGERANG","ID_KEC":"36.71.01","KECAMATAN":"TANGERANG","ID_DESA":"36.71.01.1005","DESA":"CIKOKOL"}},{"type":"Feature","geometry":{"coordinates":[[[106.62432949897396,-6.20966701764615],[106.63331265181516,-6.20966701764615],[106.63331265181516,-6.218656868617704],[106.62432949897396,-6.218656868617704],[106.62432949897396,-6.20966701764615]]],"type":"Polygon"},"properties":{"fid":492625,"ID_GRID":5005600,"INDEKS":0.3117756218717008,"STATUS":"CUKUP","ID_PROV":"36","PROVINSI":"BANTEN","ID_KABKOT":"36.71","KABKOT":"KOTA TANGERANG","ID_KEC":"36.71.01","KECAMATAN":"TANGERANG","ID_DESA":"36.71.01.1005","DESA":"CIKOKOL"}},{"type":"Feature","geometry":{"coordinates":[[[106.62432949897396,-6.218656868617704],[106.63331265181516,-6.218656868617704],[106.63331265181516,-6.227646563860785],[106.62432949897396,-6.227646563860785],[106.62432949897396,-6.218656868617704]]],"type":"Polygon"},"properties":{"fid":492626,"ID_GRID":5005601,"INDEKS":0.3448470979895768,"STATUS":"CUKUP","ID_PROV":"36","PROVINSI":"BANTEN","ID_KABKOT":"36.71","KABKOT":"KOTA TANGERANG","ID_KEC":"36.71.09","KECAMATAN":"CIBODAS","ID_DESA":"36.71.09.1004","DESA":"PANUNGGANGAN BARAT"}},{"type":"Feature","geometry":{"coordinates":[[[106.63331265181516,-6.101776739792688],[106.64229580465636,-6.101776739792688],[106.64229580465636,-6.110768442227489],[106.63331265181516,-6.110768442227489],[106.63331265181516,-6.101776739792688]]],"type":"Polygon"},"properties":{"fid":492815,"ID_GRID":5008588,"INDEKS":0.42981585296498626,"STATUS":"SEDANG","ID_PROV":"36","PROVINSI":"BANTEN","ID_KABKOT":"36.71","KABKOT":"KOTA TANGERANG","ID_KEC":"36.71.10","KECAMATAN":"NEGLASARI","ID_DESA":"36.71.10.1003","DESA":"SELAPAJANG JAYA"}},{"type":"Feature","geometry":{"coordinates":[[[106.63331265181516,-6.110768442227489],[106.64229580465636,-6.110768442227489],[106.64229580465636,-6.119759991592472],[106.63331265181516,-6.119759991592472],[106.63331265181516,-6.110768442227489]]],"type":"Polygon"},"properties":{"fid":492816,"ID_GRID":5008589,"INDEKS":0.4377011322477085,"STATUS":"SEDANG","ID_PROV":"36","PROVINSI":"BANTEN","ID_KABKOT":"36.71","KABKOT":"KOTA TANGERANG","ID_KEC":"36.71.10","KECAMATAN":"NEGLASARI","ID_DESA":"36.71.10.1003","DESA":"SELAPAJANG JAYA"}},{"type":"Feature","geometry":{"coordinates":[[[106.63331265181516,-6.119759991592472],[106.64229580465636,-6.119759991592472],[106.64229580465636,-6.128751387665971],[106.63331265181516,-6.128751387665971],[106.63331265181516,-6.119759991592472]]],"type":"Polygon"},"properties":{"fid":492817,"ID_GRID":5008590,"INDEKS":0.498448452807684,"STATUS":"SEDANG","ID_PROV":"36","PROVINSI":"BANTEN","ID_KABKOT":"36.71","KABKOT":"KOTA TANGERANG","ID_KEC":"36.71.04","KECAMATAN":"BENDA","ID_DESA":"36.71.04.1004","DESA":"PAJANG"}},{"type":"Feature","geometry":{"coordinates":[[[106.63331265181516,-6.128751387665971],[106.64229580465636,-6.128751387665971],[106.64229580465636,-6.137742630226345],[106.63331265181516,-6.137742630226345],[106.63331265181516,-6.128751387665971]]],"type":"Polygon"},"properties":{"fid":492818,"ID_GRID":5008591,"INDEKS":0.4941180995892121,"STATUS":"SEDANG","ID_PROV":"36","PROVINSI":"BANTEN","ID_KABKOT":"36.71","KABKOT":"KOTA TANGERANG","ID_KEC":"36.71.04","KECAMATAN":"BENDA","ID_DESA":"36.71.04.1004","DESA":"PAJANG"}},{"type":"Feature","geometry":{"coordinates":[[[106.63331265181516,-6.137742630226345],[106.64229580465636,-6.137742630226345],[106.64229580465636,-6.146733719051968],[106.63331265181516,-6.146733719051968],[106.63331265181516,-6.137742630226345]]],"type":"Polygon"},"properties":{"fid":492819,"ID_GRID":5008592,"INDEKS":0.48443554748188367,"STATUS":"SEDANG","ID_PROV":"36","PROVINSI":"BANTEN","ID_KABKOT":"36.71","KABKOT":"KOTA TANGERANG","ID_KEC":"36.71.04","KECAMATAN":"BENDA","ID_DESA":"36.71.04.1004","DESA":"PAJANG"}},{"type":"Feature","geometry":{"coordinates":[[[106.63331265181516,-6.146733719051968],[106.64229580465636,-6.146733719051968],[106.64229580465636,-6.155724653921241],[106.63331265181516,-6.155724653921241],[106.63331265181516,-6.146733719051968]]],"type":"Polygon"},"properties":{"fid":492820,"ID_GRID":5008593,"INDEKS":0.41034773356030546,"STATUS":"SEDANG","ID_PROV":"36","PROVINSI":"BANTEN","ID_KABKOT":"36.71","KABKOT":"KOTA TANGERANG","ID_KEC":"36.71.10","KECAMATAN":"NEGLASARI","ID_DESA":"36.71.10.1002","DESA":"KARANG SARI"}},{"type":"Feature","geometry":{"coordinates":[[[106.63331265181516,-6.155724653921241],[106.64229580465636,-6.155724653921241],[106.64229580465636,-6.164715434612578],[106.63331265181516,-6.164715434612578],[106.63331265181516,-6.155724653921241]]],"type":"Polygon"},"properties":{"fid":492821,"ID_GRID":5008594,"INDEKS":0.3446247311936703,"STATUS":"CUKUP","ID_PROV":"36","PROVINSI":"BANTEN","ID_KABKOT":"36.71","KABKOT":"KOTA TANGERANG","ID_KEC":"36.71.10","KECAMATAN":"NEGLASARI","ID_DESA":"36.71.10.1002","DESA":"KARANG SARI"}},{"type":"Feature","geometry":{"coordinates":[[[106.63331265181516,-6.164715434612578],[106.64229580465636,-6.164715434612578],[106.64229580465636,-6.173706060904413],[106.63331265181516,-6.173706060904413],[106.63331265181516,-6.164715434612578]]],"type":"Polygon"},"properties":{"fid":492822,"ID_GRID":5008595,"INDEKS":0.3609297388636048,"STATUS":"CUKUP","ID_PROV":"36","PROVINSI":"BANTEN","ID_KABKOT":"36.71","KABKOT":"KOTA TANGERANG","ID_KEC":"36.71.01","KECAMATAN":"TANGERANG","ID_DESA":"36.71.01.1002","DESA":"SUKAASIH"}},{"type":"Feature","geometry":{"coordinates":[[[106.63331265181516,-6.173706060904413],[106.64229580465636,-6.173706060904413],[106.64229580465636,-6.182696532575203],[106.63331265181516,-6.182696532575203],[106.63331265181516,-6.173706060904413]]],"type":"Polygon"},"properties":{"fid":492823,"ID_GRID":5008596,"INDEKS":0.27957390422755174,"STATUS":"CUKUP","ID_PROV":"36","PROVINSI":"BANTEN","ID_KABKOT":"36.71","KABKOT":"KOTA TANGERANG","ID_KEC":"36.71.01","KECAMATAN":"TANGERANG","ID_DESA":"36.71.01.1007","DESA":"SUKASARI"}},{"type":"Feature","geometry":{"coordinates":[[[106.63331265181516,-6.182696532575203],[106.64229580465636,-6.182696532575203],[106.64229580465636,-6.191686849403425],[106.63331265181516,-6.191686849403425],[106.63331265181516,-6.182696532575203]]],"type":"Polygon"},"properties":{"fid":492824,"ID_GRID":5008597,"INDEKS":0.27606503179688535,"STATUS":"CUKUP","ID_PROV":"36","PROVINSI":"BANTEN","ID_KABKOT":"36.71","KABKOT":"KOTA TANGERANG","ID_KEC":"36.71.01","KECAMATAN":"TANGERANG","ID_DESA":"36.71.01.1008","DESA":"BABAKAN"}},{"type":"Feature","geometry":{"coordinates":[[[106.63331265181516,-6.191686849403425],[106.64229580465636,-6.191686849403425],[106.64229580465636,-6.200677011167568],[106.63331265181516,-6.200677011167568],[106.63331265181516,-6.191686849403425]]],"type":"Polygon"},"properties":{"fid":492825,"ID_GRID":5008598,"INDEKS":0.3244367807426236,"STATUS":"CUKUP","ID_PROV":"36","PROVINSI":"BANTEN","ID_KABKOT":"36.71","KABKOT":"KOTA TANGERANG","ID_KEC":"36.71.01","KECAMATAN":"TANGERANG","ID_DESA":"36.71.01.1008","DESA":"BABAKAN"}},{"type":"Feature","geometry":{"coordinates":[[[106.63331265181516,-6.200677011167568],[106.64229580465636,-6.200677011167568],[106.64229580465636,-6.20966701764615],[106.63331265181516,-6.20966701764615],[106.63331265181516,-6.200677011167568]]],"type":"Polygon"},"properties":{"fid":492826,"ID_GRID":5008599,"INDEKS":0.3217175450480455,"STATUS":"CUKUP","ID_PROV":"36","PROVINSI":"BANTEN","ID_KABKOT":"36.71","KABKOT":"KOTA TANGERANG","ID_KEC":"36.71.01","KECAMATAN":"TANGERANG","ID_DESA":"36.71.01.1006","DESA":"KELAPA INDAH"}},{"type":"Feature","geometry":{"coordinates":[[[106.63331265181516,-6.20966701764615],[106.64229580465636,-6.20966701764615],[106.64229580465636,-6.218656868617704],[106.63331265181516,-6.218656868617704],[106.63331265181516,-6.20966701764615]]],"type":"Polygon"},"properties":{"fid":492827,"ID_GRID":5008600,"INDEKS":0.31430836310618726,"STATUS":"CUKUP","ID_PROV":"36","PROVINSI":"BANTEN","ID_KABKOT":"36.71","KABKOT":"KOTA TANGERANG","ID_KEC":"36.71.01","KECAMATAN":"TANGERANG","ID_DESA":"36.71.01.1005","DESA":"CIKOKOL"}},{"type":"Feature","geometry":{"coordinates":[[[106.63331265181516,-6.218656868617704],[106.64229580465636,-6.218656868617704],[106.64229580465636,-6.227646563860785],[106.63331265181516,-6.227646563860785],[106.63331265181516,-6.218656868617704]]],"type":"Polygon"},"properties":{"fid":492828,"ID_GRID":5008601,"INDEKS":0.37643393129110336,"STATUS":"CUKUP","ID_PROV":"36","PROVINSI":"BANTEN","ID_KABKOT":"36.71","KABKOT":"KOTA TANGERANG","ID_KEC":"36.71.11","KECAMATAN":"PINANG","ID_DESA":"36.71.11.1009","DESA":"PANUNGGANGAN"}},{"type":"Feature","geometry":{"coordinates":[[[106.64229580465636,-6.119759991592472],[106.65127895749755,-6.119759991592472],[106.65127895749755,-6.128751387665971],[106.64229580465636,-6.128751387665971],[106.64229580465636,-6.119759991592472]]],"type":"Polygon"},"properties":{"fid":493015,"ID_GRID":5011590,"INDEKS":0.3361638638103916,"STATUS":"CUKUP","ID_PROV":"36","PROVINSI":"BANTEN","ID_KABKOT":"36.71","KABKOT":"KOTA TANGERANG","ID_KEC":"36.71.04","KECAMATAN":"BENDA","ID_DESA":"36.71.04.1004","DESA":"PAJANG"}},{"type":"Feature","geometry":{"coordinates":[[[106.64229580465636,-6.128751387665971],[106.65127895749755,-6.128751387665971],[106.65127895749755,-6.137742630226345],[106.64229580465636,-6.137742630226345],[106.64229580465636,-6.128751387665971]]],"type":"Polygon"},"properties":{"fid":493016,"ID_GRID":5011591,"INDEKS":0.3021063682110233,"STATUS":"CUKUP","ID_PROV":"36","PROVINSI":"BANTEN","ID_KABKOT":"36.71","KABKOT":"KOTA TANGERANG","ID_KEC":"36.71.04","KECAMATAN":"BENDA","ID_DESA":"36.71.04.1004","DESA":"PAJANG"}},{"type":"Feature","geometry":{"coordinates":[[[106.64229580465636,-6.137742630226345],[106.65127895749755,-6.137742630226345],[106.65127895749755,-6.146733719051968],[106.64229580465636,-6.146733719051968],[106.64229580465636,-6.137742630226345]]],"type":"Polygon"},"properties":{"fid":493017,"ID_GRID":5011592,"INDEKS":0.4250325546757635,"STATUS":"SEDANG","ID_PROV":"36","PROVINSI":"BANTEN","ID_KABKOT":"36.71","KABKOT":"KOTA TANGERANG","ID_KEC":"36.71.04","KECAMATAN":"BENDA","ID_DESA":"36.71.04.1004","DESA":"PAJANG"}},{"type":"Feature","geometry":{"coordinates":[[[106.64229580465636,-6.146733719051968],[106.65127895749755,-6.146733719051968],[106.65127895749755,-6.155724653921241],[106.64229580465636,-6.155724653921241],[106.64229580465636,-6.146733719051968]]],"type":"Polygon"},"properties":{"fid":493018,"ID_GRID":5011593,"INDEKS":0.38805771947783585,"STATUS":"CUKUP","ID_PROV":"36","PROVINSI":"BANTEN","ID_KABKOT":"36.71","KABKOT":"KOTA TANGERANG","ID_KEC":"36.71.10","KECAMATAN":"NEGLASARI","ID_DESA":"36.71.10.1006","DESA":"KARANG ANYAR"}},{"type":"Feature","geometry":{"coordinates":[[[106.64229580465636,-6.155724653921241],[106.65127895749755,-6.155724653921241],[106.65127895749755,-6.164715434612578],[106.64229580465636,-6.164715434612578],[106.64229580465636,-6.155724653921241]]],"type":"Polygon"},"properties":{"fid":493019,"ID_GRID":5011594,"INDEKS":0.29091190213400625,"STATUS":"CUKUP","ID_PROV":"36","PROVINSI":"BANTEN","ID_KABKOT":"36.71","KABKOT":"KOTA TANGERANG","ID_KEC":"36.71.10","KECAMATAN":"NEGLASARI","ID_DESA":"36.71.10.1006","DESA":"KARANG ANYAR"}},{"type":"Feature","geometry":{"coordinates":[[[106.64229580465636,-6.164715434612578],[106.65127895749755,-6.164715434612578],[106.65127895749755,-6.173706060904413],[106.64229580465636,-6.173706060904413],[106.64229580465636,-6.164715434612578]]],"type":"Polygon"},"properties":{"fid":493020,"ID_GRID":5011595,"INDEKS":0.3310354787477835,"STATUS":"CUKUP","ID_PROV":"36","PROVINSI":"BANTEN","ID_KABKOT":"36.71","KABKOT":"KOTA TANGERANG","ID_KEC":"36.71.01","KECAMATAN":"TANGERANG","ID_DESA":"36.71.01.1003","DESA":"TANAH TINGGI"}},{"type":"Feature","geometry":{"coordinates":[[[106.64229580465636,-6.173706060904413],[106.65127895749755,-6.173706060904413],[106.65127895749755,-6.182696532575203],[106.64229580465636,-6.182696532575203],[106.64229580465636,-6.173706060904413]]],"type":"Polygon"},"properties":{"fid":493021,"ID_GRID":5011596,"INDEKS":0.3498630159789097,"STATUS":"CUKUP","ID_PROV":"36","PROVINSI":"BANTEN","ID_KABKOT":"36.71","KABKOT":"KOTA TANGERANG","ID_KEC":"36.71.01","KECAMATAN":"TANGERANG","ID_DESA":"36.71.01.1004","DESA":"BUARAN INDAH"}},{"type":"Feature","geometry":{"coordinates":[[[106.64229580465636,-6.182696532575203],[106.65127895749755,-6.182696532575203],[106.65127895749755,-6.191686849403425],[106.64229580465636,-6.191686849403425],[106.64229580465636,-6.182696532575203]]],"type":"Polygon"},"properties":{"fid":493022,"ID_GRID":5011597,"INDEKS":0.3856091102097124,"STATUS":"CUKUP","ID_PROV":"36","PROVINSI":"BANTEN","ID_KABKOT":"36.71","KABKOT":"KOTA TANGERANG","ID_KEC":"36.71.01","KECAMATAN":"TANGERANG","ID_DESA":"36.71.01.1004","DESA":"BUARAN INDAH"}},{"type":"Feature","geometry":{"coordinates":[[[106.64229580465636,-6.191686849403425],[106.65127895749755,-6.191686849403425],[106.65127895749755,-6.200677011167568],[106.64229580465636,-6.200677011167568],[106.64229580465636,-6.191686849403425]]],"type":"Polygon"},"properties":{"fid":493023,"ID_GRID":5011598,"INDEKS":0.48543257177340116,"STATUS":"SEDANG","ID_PROV":"36","PROVINSI":"BANTEN","ID_KABKOT":"36.71","KABKOT":"KOTA TANGERANG","ID_KEC":"36.71.01","KECAMATAN":"TANGERANG","ID_DESA":"36.71.01.1006","DESA":"KELAPA INDAH"}},{"type":"Feature","geometry":{"coordinates":[[[106.64229580465636,-6.200677011167568],[106.65127895749755,-6.200677011167568],[106.65127895749755,-6.20966701764615],[106.64229580465636,-6.20966701764615],[106.64229580465636,-6.200677011167568]]],"type":"Polygon"},"properties":{"fid":493024,"ID_GRID":5011599,"INDEKS":0.41566177153438594,"STATUS":"SEDANG","ID_PROV":"36","PROVINSI":"BANTEN","ID_KABKOT":"36.71","KABKOT":"KOTA TANGERANG","ID_KEC":"36.71.01","KECAMATAN":"TANGERANG","ID_DESA":"36.71.01.1006","DESA":"KELAPA INDAH"}},{"type":"Feature","geometry":{"coordinates":[[[106.64229580465636,-6.20966701764615],[106.65127895749755,-6.20966701764615],[106.65127895749755,-6.218656868617704],[106.64229580465636,-6.218656868617704],[106.64229580465636,-6.20966701764615]]],"type":"Polygon"},"properties":{"fid":493025,"ID_GRID":5011600,"INDEKS":0.4061636860995369,"STATUS":"SEDANG","ID_PROV":"36","PROVINSI":"BANTEN","ID_KABKOT":"36.71","KABKOT":"KOTA TANGERANG","ID_KEC":"36.71.11","KECAMATAN":"PINANG","ID_DESA":"36.71.11.1010","DESA":"PANUNGGANGAN UTARA"}},{"type":"Feature","geometry":{"coordinates":[[[106.64229580465636,-6.218656868617704],[106.65127895749755,-6.218656868617704],[106.65127895749755,-6.227646563860785],[106.64229580465636,-6.227646563860785],[106.64229580465636,-6.218656868617704]]],"type":"Polygon"},"properties":{"fid":493026,"ID_GRID":5011601,"INDEKS":0.3932047004982262,"STATUS":"CUKUP","ID_PROV":"36","PROVINSI":"BANTEN","ID_KABKOT":"36.71","KABKOT":"KOTA TANGERANG","ID_KEC":"36.71.11","KECAMATAN":"PINANG","ID_DESA":"36.71.11.1009","DESA":"PANUNGGANGAN"}},{"type":"Feature","geometry":{"coordinates":[[[106.65127895749755,-6.119759991592472],[106.66026211033873,-6.119759991592472],[106.66026211033873,-6.128751387665971],[106.65127895749755,-6.128751387665971],[106.65127895749755,-6.119759991592472]]],"type":"Polygon"},"properties":{"fid":493212,"ID_GRID":5014590,"INDEKS":0.30371780211434646,"STATUS":"CUKUP","ID_PROV":"36","PROVINSI":"BANTEN","ID_KABKOT":"36.71","KABKOT":"KOTA TANGERANG","ID_KEC":"36.71.04","KECAMATAN":"BENDA","ID_DESA":"36.71.04.1004","DESA":"PAJANG"}},{"type":"Feature","geometry":{"coordinates":[[[106.65127895749755,-6.128751387665971],[106.66026211033873,-6.128751387665971],[106.66026211033873,-6.137742630226345],[106.65127895749755,-6.137742630226345],[106.65127895749755,-6.128751387665971]]],"type":"Polygon"},"properties":{"fid":493213,"ID_GRID":5014591,"INDEKS":0.3028315958268496,"STATUS":"CUKUP","ID_PROV":"36","PROVINSI":"BANTEN","ID_KABKOT":"36.71","KABKOT":"KOTA TANGERANG","ID_KEC":"36.71.04","KECAMATAN":"BENDA","ID_DESA":"36.71.04.1004","DESA":"PAJANG"}},{"type":"Feature","geometry":{"coordinates":[[[106.65127895749755,-6.137742630226345],[106.66026211033873,-6.137742630226345],[106.66026211033873,-6.146733719051968],[106.65127895749755,-6.146733719051968],[106.65127895749755,-6.137742630226345]]],"type":"Polygon"},"properties":{"fid":493214,"ID_GRID":5014592,"INDEKS":0.4129511724517803,"STATUS":"SEDANG","ID_PROV":"36","PROVINSI":"BANTEN","ID_KABKOT":"36.71","KABKOT":"KOTA TANGERANG","ID_KEC":"36.71.04","KECAMATAN":"BENDA","ID_DESA":"36.71.04.1001","DESA":"BELENDUNG"}},{"type":"Feature","geometry":{"coordinates":[[[106.65127895749755,-6.146733719051968],[106.66026211033873,-6.146733719051968],[106.66026211033873,-6.155724653921241],[106.65127895749755,-6.155724653921241],[106.65127895749755,-6.146733719051968]]],"type":"Polygon"},"properties":{"fid":493215,"ID_GRID":5014593,"INDEKS":0.3468056278778057,"STATUS":"CUKUP","ID_PROV":"36","PROVINSI":"BANTEN","ID_KABKOT":"36.71","KABKOT":"KOTA TANGERANG","ID_KEC":"36.71.03","KECAMATAN":"BATUCEPER","ID_DESA":"36.71.03.1006","DESA":"BATU SARI"}},{"type":"Feature","geometry":{"coordinates":[[[106.65127895749755,-6.155724653921241],[106.66026211033873,-6.155724653921241],[106.66026211033873,-6.164715434612578],[106.65127895749755,-6.164715434612578],[106.65127895749755,-6.155724653921241]]],"type":"Polygon"},"properties":{"fid":493216,"ID_GRID":5014594,"INDEKS":0.2973202365913229,"STATUS":"CUKUP","ID_PROV":"36","PROVINSI":"BANTEN","ID_KABKOT":"36.71","KABKOT":"KOTA TANGERANG","ID_KEC":"36.71.03","KECAMATAN":"BATUCEPER","ID_DESA":"36.71.03.1006","DESA":"BATU SARI"}},{"type":"Feature","geometry":{"coordinates":[[[106.65127895749755,-6.164715434612578],[106.66026211033873,-6.164715434612578],[106.66026211033873,-6.173706060904413],[106.65127895749755,-6.173706060904413],[106.65127895749755,-6.164715434612578]]],"type":"Polygon"},"properties":{"fid":493217,"ID_GRID":5014595,"INDEKS":0.29108830751411624,"STATUS":"CUKUP","ID_PROV":"36","PROVINSI":"BANTEN","ID_KABKOT":"36.71","KABKOT":"KOTA TANGERANG","ID_KEC":"36.71.01","KECAMATAN":"TANGERANG","ID_DESA":"36.71.01.1003","DESA":"TANAH TINGGI"}},{"type":"Feature","geometry":{"coordinates":[[[106.65127895749755,-6.173706060904413],[106.66026211033873,-6.173706060904413],[106.66026211033873,-6.182696532575203],[106.65127895749755,-6.182696532575203],[106.65127895749755,-6.173706060904413]]],"type":"Polygon"},"properties":{"fid":493218,"ID_GRID":5014596,"INDEKS":0.28884131247559547,"STATUS":"CUKUP","ID_PROV":"36","PROVINSI":"BANTEN","ID_KABKOT":"36.71","KABKOT":"KOTA TANGERANG","ID_KEC":"36.71.01","KECAMATAN":"TANGERANG","ID_DESA":"36.71.01.1003","DESA":"TANAH TINGGI"}},{"type":"Feature","geometry":{"coordinates":[[[106.65127895749755,-6.182696532575203],[106.66026211033873,-6.182696532575203],[106.66026211033873,-6.191686849403425],[106.65127895749755,-6.191686849403425],[106.65127895749755,-6.182696532575203]]],"type":"Polygon"},"properties":{"fid":493219,"ID_GRID":5014597,"INDEKS":0.29362003650273394,"STATUS":"CUKUP","ID_PROV":"36","PROVINSI":"BANTEN","ID_KABKOT":"36.71","KABKOT":"KOTA TANGERANG","ID_KEC":"36.71.05","KECAMATAN":"CIPONDOH","ID_DESA":"36.71.05.1010","DESA":"PORIS PLAWAD INDAH"}},{"type":"Feature","geometry":{"coordinates":[[[106.65127895749755,-6.191686849403425],[106.66026211033873,-6.191686849403425],[106.66026211033873,-6.200677011167568],[106.65127895749755,-6.200677011167568],[106.65127895749755,-6.191686849403425]]],"type":"Polygon"},"properties":{"fid":493220,"ID_GRID":5014598,"INDEKS":0.3231088668240795,"STATUS":"CUKUP","ID_PROV":"36","PROVINSI":"BANTEN","ID_KABKOT":"36.71","KABKOT":"KOTA TANGERANG","ID_KEC":"36.71.05","KECAMATAN":"CIPONDOH","ID_DESA":"36.71.05.1010","DESA":"PORIS PLAWAD INDAH"}},{"type":"Feature","geometry":{"coordinates":[[[106.65127895749755,-6.200677011167568],[106.66026211033873,-6.200677011167568],[106.66026211033873,-6.20966701764615],[106.65127895749755,-6.20966701764615],[106.65127895749755,-6.200677011167568]]],"type":"Polygon"},"properties":{"fid":493221,"ID_GRID":5014599,"INDEKS":0.4127606623100512,"STATUS":"SEDANG","ID_PROV":"36","PROVINSI":"BANTEN","ID_KABKOT":"36.71","KABKOT":"KOTA TANGERANG","ID_KEC":"36.71.11","KECAMATAN":"PINANG","ID_DESA":"36.71.11.1007","DESA":"CIPETE"}},{"type":"Feature","geometry":{"coordinates":[[[106.65127895749755,-6.20966701764615],[106.66026211033873,-6.20966701764615],[106.66026211033873,-6.218656868617704],[106.65127895749755,-6.218656868617704],[106.65127895749755,-6.20966701764615]]],"type":"Polygon"},"properties":{"fid":493222,"ID_GRID":5014600,"INDEKS":0.5183328099213574,"STATUS":"SEDANG","ID_PROV":"36","PROVINSI":"BANTEN","ID_KABKOT":"36.71","KABKOT":"KOTA TANGERANG","ID_KEC":"36.71.11","KECAMATAN":"PINANG","ID_DESA":"36.71.11.1011","DESA":"PANUNGGANGAN TIMUR"}}]}