{"type":"FeatureCollection","features":[{"type":"Feature","geometry":{"coordinates":[[[106.7411104859095,-6.218656868617704],[106.7500936387507,-6.218656868617704],[106.7500936387507,-6.227646563860785],[106.7411104859095,-6.227646563860785],[106.7411104859095,-6.218656868617704]]],"type":"Polygon"},"properties":{"fid":495102,"ID_GRID":5044601,"INDEKS":0.38119164228758073,"STATUS":"CUKUP","ID_PROV":"31","PROVINSI":"DKI JAKARTA","ID_KABKOT":"31.74","KABKOT":"KOTA ADM. JAKARTA SELATAN","ID_KEC":"31.74.10","KECAMATAN":"PESANGGRAHAN","ID_DESA":"31.74.10.1003","DESA":"PETUKANGAN UTARA"}},{"type":"Feature","geometry":{"coordinates":[[[106.7411104859095,-6.227646563860785],[106.7500936387507,-6.227646563860785],[106.7500936387507,-6.236636103153963],[106.7411104859095,-6.236636103153963],[106.7411104859095,-6.227646563860785]]],"type":"Polygon"},"properties":{"fid":495103,"ID_GRID":5044602,"INDEKS":0.24456441559793754,"STATUS":"CUKUP","ID_PROV":"31","PROVINSI":"DKI JAKARTA","ID_KABKOT":"31.74","KABKOT":"KOTA ADM. JAKARTA SELATAN","ID_KEC":"31.74.10","KECAMATAN":"PESANGGRAHAN","ID_DESA":"31.74.10.1003","DESA":"PETUKANGAN UTARA"}},{"type":"Feature","geometry":{"coordinates":[[[106.7500936387507,-6.218656868617704],[106.75907679159188,-6.218656868617704],[106.75907679159188,-6.227646563860785],[106.7500936387507,-6.227646563860785],[106.7500936387507,-6.218656868617704]]],"type":"Polygon"},"properties":{"fid":495271,"ID_GRID":5047601,"INDEKS":0.32649307848827647,"STATUS":"CUKUP","ID_PROV":"31","PROVINSI":"DKI JAKARTA","ID_KABKOT":"31.74","KABKOT":"KOTA ADM. JAKARTA SELATAN","ID_KEC":"31.74.10","KECAMATAN":"PESANGGRAHAN","ID_DESA":"31.74.10.1003","DESA":"PETUKANGAN UTARA"}},{"type":"Feature","geometry":{"coordinates":[[[106.7500936387507,-6.227646563860785],[106.75907679159188,-6.227646563860785],[106.75907679159188,-6.236636103153963],[106.7500936387507,-6.236636103153963],[106.7500936387507,-6.227646563860785]]],"type":"Polygon"},"properties":{"fid":495272,"ID_GRID":5047602,"INDEKS":0.28291900366969713,"STATUS":"CUKUP","ID_PROV":"31","PROVINSI":"DKI JAKARTA","ID_KABKOT":"31.74","KABKOT":"KOTA ADM. JAKARTA SELATAN","ID_KEC":"31.74.10","KECAMATAN":"PESANGGRAHAN","ID_DESA":"31.74.10.1003","DESA":"PETUKANGAN UTARA"}},{"type":"Feature","geometry":{"coordinates":[[[106.7500936387507,-6.236636103153963],[106.75907679159188,-6.236636103153963],[106.75907679159188,-6.245625486275833],[106.7500936387507,-6.245625486275833],[106.7500936387507,-6.236636103153963]]],"type":"Polygon"},"properties":{"fid":495273,"ID_GRID":5047603,"INDEKS":0.2772986187521574,"STATUS":"CUKUP","ID_PROV":"31","PROVINSI":"DKI JAKARTA","ID_KABKOT":"31.74","KABKOT":"KOTA ADM. JAKARTA SELATAN","ID_KEC":"31.74.10","KECAMATAN":"PESANGGRAHAN","ID_DESA":"31.74.10.1004","DESA":"PETUKANGAN SELATAN"}},{"type":"Feature","geometry":{"coordinates":[[[106.7500936387507,-6.245625486275833],[106.75907679159188,-6.245625486275833],[106.75907679159188,-6.254614713005012],[106.7500936387507,-6.254614713005012],[106.7500936387507,-6.245625486275833]]],"type":"Polygon"},"properties":{"fid":495274,"ID_GRID":5047604,"INDEKS":0.3050280426561214,"STATUS":"CUKUP","ID_PROV":"31","PROVINSI":"DKI JAKARTA","ID_KABKOT":"31.74","KABKOT":"KOTA ADM. JAKARTA SELATAN","ID_KEC":"31.74.10","KECAMATAN":"PESANGGRAHAN","ID_DESA":"31.74.10.1004","DESA":"PETUKANGAN SELATAN"}},{"type":"Feature","geometry":{"coordinates":[[[106.7500936387507,-6.254614713005012],[106.75907679159188,-6.254614713005012],[106.75907679159188,-6.263603783120125],[106.7500936387507,-6.263603783120125],[106.7500936387507,-6.254614713005012]]],"type":"Polygon"},"properties":{"fid":495275,"ID_GRID":5047605,"INDEKS":0.3206734102810343,"STATUS":"CUKUP","ID_PROV":"31","PROVINSI":"DKI JAKARTA","ID_KABKOT":"31.74","KABKOT":"KOTA ADM. JAKARTA SELATAN","ID_KEC":"31.74.10","KECAMATAN":"PESANGGRAHAN","ID_DESA":"31.74.10.1001","DESA":"PESANGGRAHAN"}},{"type":"Feature","geometry":{"coordinates":[[[106.7500936387507,-6.263603783120125],[106.75907679159188,-6.263603783120125],[106.75907679159188,-6.27259269639983],[106.7500936387507,-6.27259269639983],[106.7500936387507,-6.263603783120125]]],"type":"Polygon"},"properties":{"fid":495276,"ID_GRID":5047606,"INDEKS":0.30796567034540756,"STATUS":"CUKUP","ID_PROV":"31","PROVINSI":"DKI JAKARTA","ID_KABKOT":"31.74","KABKOT":"KOTA ADM. JAKARTA SELATAN","ID_KEC":"31.74.10","KECAMATAN":"PESANGGRAHAN","ID_DESA":"31.74.10.1002","DESA":"BINTARO"}},{"type":"Feature","geometry":{"coordinates":[[[106.75907679159188,-6.218656868617704],[106.76805994443308,-6.218656868617704],[106.76805994443308,-6.227646563860785],[106.75907679159188,-6.227646563860785],[106.75907679159188,-6.218656868617704]]],"type":"Polygon"},"properties":{"fid":495441,"ID_GRID":5050601,"INDEKS":0.3254978327402669,"STATUS":"CUKUP","ID_PROV":"31","PROVINSI":"DKI JAKARTA","ID_KABKOT":"31.74","KABKOT":"KOTA ADM. JAKARTA SELATAN","ID_KEC":"31.74.10","KECAMATAN":"PESANGGRAHAN","ID_DESA":"31.74.10.1005","DESA":"ULUJAMI"}},{"type":"Feature","geometry":{"coordinates":[[[106.75907679159188,-6.227646563860785],[106.76805994443308,-6.227646563860785],[106.76805994443308,-6.236636103153963],[106.75907679159188,-6.236636103153963],[106.75907679159188,-6.227646563860785]]],"type":"Polygon"},"properties":{"fid":495442,"ID_GRID":5050602,"INDEKS":0.3329985564432635,"STATUS":"CUKUP","ID_PROV":"31","PROVINSI":"DKI JAKARTA","ID_KABKOT":"31.74","KABKOT":"KOTA ADM. JAKARTA SELATAN","ID_KEC":"31.74.10","KECAMATAN":"PESANGGRAHAN","ID_DESA":"31.74.10.1005","DESA":"ULUJAMI"}},{"type":"Feature","geometry":{"coordinates":[[[106.75907679159188,-6.236636103153963],[106.76805994443308,-6.236636103153963],[106.76805994443308,-6.245625486275833],[106.75907679159188,-6.245625486275833],[106.75907679159188,-6.236636103153963]]],"type":"Polygon"},"properties":{"fid":495443,"ID_GRID":5050603,"INDEKS":0.30945448851070895,"STATUS":"CUKUP","ID_PROV":"31","PROVINSI":"DKI JAKARTA","ID_KABKOT":"31.74","KABKOT":"KOTA ADM. JAKARTA SELATAN","ID_KEC":"31.74.10","KECAMATAN":"PESANGGRAHAN","ID_DESA":"31.74.10.1005","DESA":"ULUJAMI"}},{"type":"Feature","geometry":{"coordinates":[[[106.75907679159188,-6.245625486275833],[106.76805994443308,-6.245625486275833],[106.76805994443308,-6.254614713005012],[106.75907679159188,-6.254614713005012],[106.75907679159188,-6.245625486275833]]],"type":"Polygon"},"properties":{"fid":495444,"ID_GRID":5050604,"INDEKS":0.36273024049247227,"STATUS":"CUKUP","ID_PROV":"31","PROVINSI":"DKI JAKARTA","ID_KABKOT":"31.74","KABKOT":"KOTA ADM. JAKARTA SELATAN","ID_KEC":"31.74.10","KECAMATAN":"PESANGGRAHAN","ID_DESA":"31.74.10.1001","DESA":"PESANGGRAHAN"}},{"type":"Feature","geometry":{"coordinates":[[[106.75907679159188,-6.254614713005012],[106.76805994443308,-6.254614713005012],[106.76805994443308,-6.263603783120125],[106.75907679159188,-6.263603783120125],[106.75907679159188,-6.254614713005012]]],"type":"Polygon"},"properties":{"fid":495445,"ID_GRID":5050605,"INDEKS":0.314458116054316,"STATUS":"CUKUP","ID_PROV":"31","PROVINSI":"DKI JAKARTA","ID_KABKOT":"31.74","KABKOT":"KOTA ADM. JAKARTA SELATAN","ID_KEC":"31.74.10","KECAMATAN":"PESANGGRAHAN","ID_DESA":"31.74.10.1002","DESA":"BINTARO"}},{"type":"Feature","geometry":{"coordinates":[[[106.75907679159188,-6.263603783120125],[106.76805994443308,-6.263603783120125],[106.76805994443308,-6.27259269639983],[106.75907679159188,-6.27259269639983],[106.75907679159188,-6.263603783120125]]],"type":"Polygon"},"properties":{"fid":495446,"ID_GRID":5050606,"INDEKS":0.3162815957796256,"STATUS":"CUKUP","ID_PROV":"31","PROVINSI":"DKI JAKARTA","ID_KABKOT":"31.74","KABKOT":"KOTA ADM. JAKARTA SELATAN","ID_KEC":"31.74.10","KECAMATAN":"PESANGGRAHAN","ID_DESA":"31.74.10.1002","DESA":"BINTARO"}},{"type":"Feature","geometry":{"coordinates":[[[106.75907679159188,-6.27259269639983],[106.76805994443308,-6.27259269639983],[106.76805994443308,-6.281581452622801],[106.75907679159188,-6.281581452622801],[106.75907679159188,-6.27259269639983]]],"type":"Polygon"},"properties":{"fid":495447,"ID_GRID":5050607,"INDEKS":0.3707896574083284,"STATUS":"CUKUP","ID_PROV":"31","PROVINSI":"DKI JAKARTA","ID_KABKOT":"31.74","KABKOT":"KOTA ADM. JAKARTA SELATAN","ID_KEC":"31.74.10","KECAMATAN":"PESANGGRAHAN","ID_DESA":"31.74.10.1002","DESA":"BINTARO"}},{"type":"Feature","geometry":{"coordinates":[[[106.75907679159188,-6.281581452622801],[106.76805994443308,-6.281581452622801],[106.76805994443308,-6.290570051567724],[106.75907679159188,-6.290570051567724],[106.75907679159188,-6.281581452622801]]],"type":"Polygon"},"properties":{"fid":495448,"ID_GRID":5050608,"INDEKS":0.34098274313440224,"STATUS":"CUKUP","ID_PROV":"31","PROVINSI":"DKI JAKARTA","ID_KABKOT":"31.74","KABKOT":"KOTA ADM. JAKARTA SELATAN","ID_KEC":"31.74.10","KECAMATAN":"PESANGGRAHAN","ID_DESA":"31.74.10.1002","DESA":"BINTARO"}},{"type":"Feature","geometry":{"coordinates":[[[106.76805994443308,-6.227646563860785],[106.77704309727427,-6.227646563860785],[106.77704309727427,-6.236636103153963],[106.76805994443308,-6.236636103153963],[106.76805994443308,-6.227646563860785]]],"type":"Polygon"},"properties":{"fid":495612,"ID_GRID":5053602,"INDEKS":0.2532966726000316,"STATUS":"CUKUP","ID_PROV":"31","PROVINSI":"DKI JAKARTA","ID_KABKOT":"31.74","KABKOT":"KOTA ADM. JAKARTA SELATAN","ID_KEC":"31.74.05","KECAMATAN":"KEBAYORAN LAMA","ID_DESA":"31.74.05.1005","DESA":"GROGOL SELATAN"}},{"type":"Feature","geometry":{"coordinates":[[[106.76805994443308,-6.236636103153963],[106.77704309727427,-6.236636103153963],[106.77704309727427,-6.245625486275833],[106.76805994443308,-6.245625486275833],[106.76805994443308,-6.236636103153963]]],"type":"Polygon"},"properties":{"fid":495613,"ID_GRID":5053603,"INDEKS":0.28121768801556035,"STATUS":"CUKUP","ID_PROV":"31","PROVINSI":"DKI JAKARTA","ID_KABKOT":"31.74","KABKOT":"KOTA ADM. JAKARTA SELATAN","ID_KEC":"31.74.05","KECAMATAN":"KEBAYORAN LAMA","ID_DESA":"31.74.05.1003","DESA":"CIPULIR"}},{"type":"Feature","geometry":{"coordinates":[[[106.76805994443308,-6.245625486275833],[106.77704309727427,-6.245625486275833],[106.77704309727427,-6.254614713005012],[106.76805994443308,-6.254614713005012],[106.76805994443308,-6.245625486275833]]],"type":"Polygon"},"properties":{"fid":495614,"ID_GRID":5053604,"INDEKS":0.3480262444246687,"STATUS":"CUKUP","ID_PROV":"31","PROVINSI":"DKI JAKARTA","ID_KABKOT":"31.74","KABKOT":"KOTA ADM. JAKARTA SELATAN","ID_KEC":"31.74.05","KECAMATAN":"KEBAYORAN LAMA","ID_DESA":"31.74.05.1001","DESA":"KEBAYORAN LAMA UTARA"}},{"type":"Feature","geometry":{"coordinates":[[[106.76805994443308,-6.254614713005012],[106.77704309727427,-6.254614713005012],[106.77704309727427,-6.263603783120125],[106.76805994443308,-6.263603783120125],[106.76805994443308,-6.254614713005012]]],"type":"Polygon"},"properties":{"fid":495615,"ID_GRID":5053605,"INDEKS":0.34948400637225563,"STATUS":"CUKUP","ID_PROV":"31","PROVINSI":"DKI JAKARTA","ID_KABKOT":"31.74","KABKOT":"KOTA ADM. JAKARTA SELATAN","ID_KEC":"31.74.05","KECAMATAN":"KEBAYORAN LAMA","ID_DESA":"31.74.05.1006","DESA":"KEBAYORAN LAMA SELATAN"}},{"type":"Feature","geometry":{"coordinates":[[[106.76805994443308,-6.263603783120125],[106.77704309727427,-6.263603783120125],[106.77704309727427,-6.27259269639983],[106.76805994443308,-6.27259269639983],[106.76805994443308,-6.263603783120125]]],"type":"Polygon"},"properties":{"fid":495616,"ID_GRID":5053606,"INDEKS":0.3170119871148503,"STATUS":"CUKUP","ID_PROV":"31","PROVINSI":"DKI JAKARTA","ID_KABKOT":"31.74","KABKOT":"KOTA ADM. JAKARTA SELATAN","ID_KEC":"31.74.05","KECAMATAN":"KEBAYORAN LAMA","ID_DESA":"31.74.05.1002","DESA":"PONDOK PINANG"}},{"type":"Feature","geometry":{"coordinates":[[[106.76805994443308,-6.27259269639983],[106.77704309727427,-6.27259269639983],[106.77704309727427,-6.281581452622801],[106.76805994443308,-6.281581452622801],[106.76805994443308,-6.27259269639983]]],"type":"Polygon"},"properties":{"fid":495617,"ID_GRID":5053607,"INDEKS":0.3333927503855046,"STATUS":"CUKUP","ID_PROV":"31","PROVINSI":"DKI JAKARTA","ID_KABKOT":"31.74","KABKOT":"KOTA ADM. JAKARTA SELATAN","ID_KEC":"31.74.05","KECAMATAN":"KEBAYORAN LAMA","ID_DESA":"31.74.05.1002","DESA":"PONDOK PINANG"}},{"type":"Feature","geometry":{"coordinates":[[[106.76805994443308,-6.281581452622801],[106.77704309727427,-6.281581452622801],[106.77704309727427,-6.290570051567724],[106.76805994443308,-6.290570051567724],[106.76805994443308,-6.281581452622801]]],"type":"Polygon"},"properties":{"fid":495618,"ID_GRID":5053608,"INDEKS":0.3171423050353459,"STATUS":"CUKUP","ID_PROV":"31","PROVINSI":"DKI JAKARTA","ID_KABKOT":"31.74","KABKOT":"KOTA ADM. JAKARTA SELATAN","ID_KEC":"31.74.05","KECAMATAN":"KEBAYORAN LAMA","ID_DESA":"31.74.05.1002","DESA":"PONDOK PINANG"}},{"type":"Feature","geometry":{"coordinates":[[[106.76805994443308,-6.290570051567724],[106.77704309727427,-6.290570051567724],[106.77704309727427,-6.299558493013317],[106.76805994443308,-6.299558493013317],[106.76805994443308,-6.290570051567724]]],"type":"Polygon"},"properties":{"fid":495619,"ID_GRID":5053609,"INDEKS":0.36013385096583705,"STATUS":"CUKUP","ID_PROV":"31","PROVINSI":"DKI JAKARTA","ID_KABKOT":"31.74","KABKOT":"KOTA ADM. JAKARTA SELATAN","ID_KEC":"31.74.06","KECAMATAN":"CILANDAK","ID_DESA":"31.74.06.1002","DESA":"LEBAK BULUS"}},{"type":"Feature","geometry":{"coordinates":[[[106.77704309727427,-6.20966701764615],[106.78602625011547,-6.20966701764615],[106.78602625011547,-6.218656868617704],[106.77704309727427,-6.218656868617704],[106.77704309727427,-6.20966701764615]]],"type":"Polygon"},"properties":{"fid":495781,"ID_GRID":5056600,"INDEKS":0.28319741870523985,"STATUS":"CUKUP","ID_PROV":"31","PROVINSI":"DKI JAKARTA","ID_KABKOT":"31.74","KABKOT":"KOTA ADM. JAKARTA SELATAN","ID_KEC":"31.74.05","KECAMATAN":"KEBAYORAN LAMA","ID_DESA":"31.74.05.1004","DESA":"GROGOL UTARA"}},{"type":"Feature","geometry":{"coordinates":[[[106.77704309727427,-6.218656868617704],[106.78602625011547,-6.218656868617704],[106.78602625011547,-6.227646563860785],[106.77704309727427,-6.227646563860785],[106.77704309727427,-6.218656868617704]]],"type":"Polygon"},"properties":{"fid":495782,"ID_GRID":5056601,"INDEKS":0.3141285689438091,"STATUS":"CUKUP","ID_PROV":"31","PROVINSI":"DKI JAKARTA","ID_KABKOT":"31.74","KABKOT":"KOTA ADM. JAKARTA SELATAN","ID_KEC":"31.74.05","KECAMATAN":"KEBAYORAN LAMA","ID_DESA":"31.74.05.1004","DESA":"GROGOL UTARA"}},{"type":"Feature","geometry":{"coordinates":[[[106.77704309727427,-6.227646563860785],[106.78602625011547,-6.227646563860785],[106.78602625011547,-6.236636103153963],[106.77704309727427,-6.236636103153963],[106.77704309727427,-6.227646563860785]]],"type":"Polygon"},"properties":{"fid":495783,"ID_GRID":5056602,"INDEKS":0.25683631831630666,"STATUS":"CUKUP","ID_PROV":"31","PROVINSI":"DKI JAKARTA","ID_KABKOT":"31.74","KABKOT":"KOTA ADM. JAKARTA SELATAN","ID_KEC":"31.74.05","KECAMATAN":"KEBAYORAN LAMA","ID_DESA":"31.74.05.1005","DESA":"GROGOL SELATAN"}},{"type":"Feature","geometry":{"coordinates":[[[106.77704309727427,-6.236636103153963],[106.78602625011547,-6.236636103153963],[106.78602625011547,-6.245625486275833],[106.77704309727427,-6.245625486275833],[106.77704309727427,-6.236636103153963]]],"type":"Polygon"},"properties":{"fid":495784,"ID_GRID":5056603,"INDEKS":0.26007774749143237,"STATUS":"CUKUP","ID_PROV":"31","PROVINSI":"DKI JAKARTA","ID_KABKOT":"31.74","KABKOT":"KOTA ADM. JAKARTA SELATAN","ID_KEC":"31.74.05","KECAMATAN":"KEBAYORAN LAMA","ID_DESA":"31.74.05.1001","DESA":"KEBAYORAN LAMA UTARA"}},{"type":"Feature","geometry":{"coordinates":[[[106.77704309727427,-6.245625486275833],[106.78602625011547,-6.245625486275833],[106.78602625011547,-6.254614713005012],[106.77704309727427,-6.254614713005012],[106.77704309727427,-6.245625486275833]]],"type":"Polygon"},"properties":{"fid":495785,"ID_GRID":5056604,"INDEKS":0.27044163997507426,"STATUS":"CUKUP","ID_PROV":"31","PROVINSI":"DKI JAKARTA","ID_KABKOT":"31.74","KABKOT":"KOTA ADM. JAKARTA SELATAN","ID_KEC":"31.74.05","KECAMATAN":"KEBAYORAN LAMA","ID_DESA":"31.74.05.1006","DESA":"KEBAYORAN LAMA SELATAN"}},{"type":"Feature","geometry":{"coordinates":[[[106.77704309727427,-6.254614713005012],[106.78602625011547,-6.254614713005012],[106.78602625011547,-6.263603783120125],[106.77704309727427,-6.263603783120125],[106.77704309727427,-6.254614713005012]]],"type":"Polygon"},"properties":{"fid":495786,"ID_GRID":5056605,"INDEKS":0.29111304605602156,"STATUS":"CUKUP","ID_PROV":"31","PROVINSI":"DKI JAKARTA","ID_KABKOT":"31.74","KABKOT":"KOTA ADM. JAKARTA SELATAN","ID_KEC":"31.74.05","KECAMATAN":"KEBAYORAN LAMA","ID_DESA":"31.74.05.1006","DESA":"KEBAYORAN LAMA SELATAN"}},{"type":"Feature","geometry":{"coordinates":[[[106.77704309727427,-6.263603783120125],[106.78602625011547,-6.263603783120125],[106.78602625011547,-6.27259269639983],[106.77704309727427,-6.27259269639983],[106.77704309727427,-6.263603783120125]]],"type":"Polygon"},"properties":{"fid":495787,"ID_GRID":5056606,"INDEKS":0.3190567334864866,"STATUS":"CUKUP","ID_PROV":"31","PROVINSI":"DKI JAKARTA","ID_KABKOT":"31.74","KABKOT":"KOTA ADM. JAKARTA SELATAN","ID_KEC":"31.74.05","KECAMATAN":"KEBAYORAN LAMA","ID_DESA":"31.74.05.1002","DESA":"PONDOK PINANG"}},{"type":"Feature","geometry":{"coordinates":[[[106.77704309727427,-6.27259269639983],[106.78602625011547,-6.27259269639983],[106.78602625011547,-6.281581452622801],[106.77704309727427,-6.281581452622801],[106.77704309727427,-6.27259269639983]]],"type":"Polygon"},"properties":{"fid":495788,"ID_GRID":5056607,"INDEKS":0.3651512189668355,"STATUS":"CUKUP","ID_PROV":"31","PROVINSI":"DKI JAKARTA","ID_KABKOT":"31.74","KABKOT":"KOTA ADM. JAKARTA SELATAN","ID_KEC":"31.74.05","KECAMATAN":"KEBAYORAN LAMA","ID_DESA":"31.74.05.1002","DESA":"PONDOK PINANG"}},{"type":"Feature","geometry":{"coordinates":[[[106.77704309727427,-6.281581452622801],[106.78602625011547,-6.281581452622801],[106.78602625011547,-6.290570051567724],[106.77704309727427,-6.290570051567724],[106.77704309727427,-6.281581452622801]]],"type":"Polygon"},"properties":{"fid":495789,"ID_GRID":5056608,"INDEKS":0.3727477870735468,"STATUS":"CUKUP","ID_PROV":"31","PROVINSI":"DKI JAKARTA","ID_KABKOT":"31.74","KABKOT":"KOTA ADM. JAKARTA SELATAN","ID_KEC":"31.74.05","KECAMATAN":"KEBAYORAN LAMA","ID_DESA":"31.74.05.1002","DESA":"PONDOK PINANG"}},{"type":"Feature","geometry":{"coordinates":[[[106.77704309727427,-6.290570051567724],[106.78602625011547,-6.290570051567724],[106.78602625011547,-6.299558493013317],[106.77704309727427,-6.299558493013317],[106.77704309727427,-6.290570051567724]]],"type":"Polygon"},"properties":{"fid":495790,"ID_GRID":5056609,"INDEKS":0.35176406790122206,"STATUS":"CUKUP","ID_PROV":"31","PROVINSI":"DKI JAKARTA","ID_KABKOT":"31.74","KABKOT":"KOTA ADM. JAKARTA SELATAN","ID_KEC":"31.74.06","KECAMATAN":"CILANDAK","ID_DESA":"31.74.06.1002","DESA":"LEBAK BULUS"}},{"type":"Feature","geometry":{"coordinates":[[[106.77704309727427,-6.299558493013317],[106.78602625011547,-6.299558493013317],[106.78602625011547,-6.308546776738313],[106.77704309727427,-6.308546776738313],[106.77704309727427,-6.299558493013317]]],"type":"Polygon"},"properties":{"fid":495791,"ID_GRID":5056610,"INDEKS":0.33757665424662475,"STATUS":"CUKUP","ID_PROV":"31","PROVINSI":"DKI JAKARTA","ID_KABKOT":"31.74","KABKOT":"KOTA ADM. JAKARTA SELATAN","ID_KEC":"31.74.06","KECAMATAN":"CILANDAK","ID_DESA":"31.74.06.1002","DESA":"LEBAK BULUS"}},{"type":"Feature","geometry":{"coordinates":[[[106.77704309727427,-6.308546776738313],[106.78602625011547,-6.308546776738313],[106.78602625011547,-6.31753490252146],[106.77704309727427,-6.31753490252146],[106.77704309727427,-6.308546776738313]]],"type":"Polygon"},"properties":{"fid":495792,"ID_GRID":5056611,"INDEKS":0.38745579504658617,"STATUS":"CUKUP","ID_PROV":"31","PROVINSI":"DKI JAKARTA","ID_KABKOT":"31.74","KABKOT":"KOTA ADM. JAKARTA SELATAN","ID_KEC":"31.74.06","KECAMATAN":"CILANDAK","ID_DESA":"31.74.06.1002","DESA":"LEBAK BULUS"}},{"type":"Feature","geometry":{"coordinates":[[[106.78602625011547,-6.20966701764615],[106.79500940295667,-6.20966701764615],[106.79500940295667,-6.218656868617704],[106.78602625011547,-6.218656868617704],[106.78602625011547,-6.20966701764615]]],"type":"Polygon"},"properties":{"fid":495953,"ID_GRID":5059600,"INDEKS":0.28409812923031624,"STATUS":"CUKUP","ID_PROV":"31","PROVINSI":"DKI JAKARTA","ID_KABKOT":"31.74","KABKOT":"KOTA ADM. JAKARTA SELATAN","ID_KEC":"31.74.05","KECAMATAN":"KEBAYORAN LAMA","ID_DESA":"31.74.05.1004","DESA":"GROGOL UTARA"}},{"type":"Feature","geometry":{"coordinates":[[[106.78602625011547,-6.218656868617704],[106.79500940295667,-6.218656868617704],[106.79500940295667,-6.227646563860785],[106.78602625011547,-6.227646563860785],[106.78602625011547,-6.218656868617704]]],"type":"Polygon"},"properties":{"fid":495954,"ID_GRID":5059601,"INDEKS":0.34574226204989855,"STATUS":"CUKUP","ID_PROV":"31","PROVINSI":"DKI JAKARTA","ID_KABKOT":"31.74","KABKOT":"KOTA ADM. JAKARTA SELATAN","ID_KEC":"31.74.05","KECAMATAN":"KEBAYORAN LAMA","ID_DESA":"31.74.05.1004","DESA":"GROGOL UTARA"}},{"type":"Feature","geometry":{"coordinates":[[[106.78602625011547,-6.227646563860785],[106.79500940295667,-6.227646563860785],[106.79500940295667,-6.236636103153963],[106.78602625011547,-6.236636103153963],[106.78602625011547,-6.227646563860785]]],"type":"Polygon"},"properties":{"fid":495955,"ID_GRID":5059602,"INDEKS":0.3478933624218537,"STATUS":"CUKUP","ID_PROV":"31","PROVINSI":"DKI JAKARTA","ID_KABKOT":"31.74","KABKOT":"KOTA ADM. JAKARTA SELATAN","ID_KEC":"31.74.05","KECAMATAN":"KEBAYORAN LAMA","ID_DESA":"31.74.05.1005","DESA":"GROGOL SELATAN"}},{"type":"Feature","geometry":{"coordinates":[[[106.78602625011547,-6.236636103153963],[106.79500940295667,-6.236636103153963],[106.79500940295667,-6.245625486275833],[106.78602625011547,-6.245625486275833],[106.78602625011547,-6.236636103153963]]],"type":"Polygon"},"properties":{"fid":495956,"ID_GRID":5059603,"INDEKS":0.3071885105390085,"STATUS":"CUKUP","ID_PROV":"31","PROVINSI":"DKI JAKARTA","ID_KABKOT":"31.74","KABKOT":"KOTA ADM. JAKARTA SELATAN","ID_KEC":"31.74.07","KECAMATAN":"KEBAYORAN BARU","ID_DESA":"31.74.07.1003","DESA":"KRAMAT PELA"}},{"type":"Feature","geometry":{"coordinates":[[[106.78602625011547,-6.245625486275833],[106.79500940295667,-6.245625486275833],[106.79500940295667,-6.254614713005012],[106.78602625011547,-6.254614713005012],[106.78602625011547,-6.245625486275833]]],"type":"Polygon"},"properties":{"fid":495957,"ID_GRID":5059604,"INDEKS":0.25610611312848364,"STATUS":"CUKUP","ID_PROV":"31","PROVINSI":"DKI JAKARTA","ID_KABKOT":"31.74","KABKOT":"KOTA ADM. JAKARTA SELATAN","ID_KEC":"31.74.07","KECAMATAN":"KEBAYORAN BARU","ID_DESA":"31.74.07.1009","DESA":"GANDARIA UTARA"}},{"type":"Feature","geometry":{"coordinates":[[[106.78602625011547,-6.254614713005012],[106.79500940295667,-6.254614713005012],[106.79500940295667,-6.263603783120125],[106.78602625011547,-6.263603783120125],[106.78602625011547,-6.254614713005012]]],"type":"Polygon"},"properties":{"fid":495958,"ID_GRID":5059605,"INDEKS":0.2626411559742673,"STATUS":"CUKUP","ID_PROV":"31","PROVINSI":"DKI JAKARTA","ID_KABKOT":"31.74","KABKOT":"KOTA ADM. JAKARTA SELATAN","ID_KEC":"31.74.07","KECAMATAN":"KEBAYORAN BARU","ID_DESA":"31.74.07.1009","DESA":"GANDARIA UTARA"}},{"type":"Feature","geometry":{"coordinates":[[[106.78602625011547,-6.263603783120125],[106.79500940295667,-6.263603783120125],[106.79500940295667,-6.27259269639983],[106.78602625011547,-6.27259269639983],[106.78602625011547,-6.263603783120125]]],"type":"Polygon"},"properties":{"fid":495959,"ID_GRID":5059606,"INDEKS":0.3900217329476053,"STATUS":"CUKUP","ID_PROV":"31","PROVINSI":"DKI JAKARTA","ID_KABKOT":"31.74","KABKOT":"KOTA ADM. JAKARTA SELATAN","ID_KEC":"31.74.06","KECAMATAN":"CILANDAK","ID_DESA":"31.74.06.1004","DESA":"GANDARIA SELATAN"}},{"type":"Feature","geometry":{"coordinates":[[[106.78602625011547,-6.27259269639983],[106.79500940295667,-6.27259269639983],[106.79500940295667,-6.281581452622801],[106.78602625011547,-6.281581452622801],[106.78602625011547,-6.27259269639983]]],"type":"Polygon"},"properties":{"fid":495960,"ID_GRID":5059607,"INDEKS":0.40959381555172214,"STATUS":"SEDANG","ID_PROV":"31","PROVINSI":"DKI JAKARTA","ID_KABKOT":"31.74","KABKOT":"KOTA ADM. JAKARTA SELATAN","ID_KEC":"31.74.05","KECAMATAN":"KEBAYORAN LAMA","ID_DESA":"31.74.05.1002","DESA":"PONDOK PINANG"}},{"type":"Feature","geometry":{"coordinates":[[[106.78602625011547,-6.281581452622801],[106.79500940295667,-6.281581452622801],[106.79500940295667,-6.290570051567724],[106.78602625011547,-6.290570051567724],[106.78602625011547,-6.281581452622801]]],"type":"Polygon"},"properties":{"fid":495961,"ID_GRID":5059608,"INDEKS":0.32389534206648724,"STATUS":"CUKUP","ID_PROV":"31","PROVINSI":"DKI JAKARTA","ID_KABKOT":"31.74","KABKOT":"KOTA ADM. JAKARTA SELATAN","ID_KEC":"31.74.06","KECAMATAN":"CILANDAK","ID_DESA":"31.74.06.1001","DESA":"CILANDAK BARAT"}},{"type":"Feature","geometry":{"coordinates":[[[106.78602625011547,-6.290570051567724],[106.79500940295667,-6.290570051567724],[106.79500940295667,-6.299558493013317],[106.78602625011547,-6.299558493013317],[106.78602625011547,-6.290570051567724]]],"type":"Polygon"},"properties":{"fid":495962,"ID_GRID":5059609,"INDEKS":0.3525900923133006,"STATUS":"CUKUP","ID_PROV":"31","PROVINSI":"DKI JAKARTA","ID_KABKOT":"31.74","KABKOT":"KOTA ADM. JAKARTA SELATAN","ID_KEC":"31.74.06","KECAMATAN":"CILANDAK","ID_DESA":"31.74.06.1001","DESA":"CILANDAK BARAT"}},{"type":"Feature","geometry":{"coordinates":[[[106.78602625011547,-6.299558493013317],[106.79500940295667,-6.299558493013317],[106.79500940295667,-6.308546776738313],[106.78602625011547,-6.308546776738313],[106.78602625011547,-6.299558493013317]]],"type":"Polygon"},"properties":{"fid":495963,"ID_GRID":5059610,"INDEKS":0.37286757125308384,"STATUS":"CUKUP","ID_PROV":"31","PROVINSI":"DKI JAKARTA","ID_KABKOT":"31.74","KABKOT":"KOTA ADM. JAKARTA SELATAN","ID_KEC":"31.74.06","KECAMATAN":"CILANDAK","ID_DESA":"31.74.06.1003","DESA":"PONDOK LABU"}},{"type":"Feature","geometry":{"coordinates":[[[106.78602625011547,-6.308546776738313],[106.79500940295667,-6.308546776738313],[106.79500940295667,-6.31753490252146],[106.78602625011547,-6.31753490252146],[106.78602625011547,-6.308546776738313]]],"type":"Polygon"},"properties":{"fid":495964,"ID_GRID":5059611,"INDEKS":0.37428002043039676,"STATUS":"CUKUP","ID_PROV":"31","PROVINSI":"DKI JAKARTA","ID_KABKOT":"31.74","KABKOT":"KOTA ADM. JAKARTA SELATAN","ID_KEC":"31.74.06","KECAMATAN":"CILANDAK","ID_DESA":"31.74.06.1003","DESA":"PONDOK LABU"}},{"type":"Feature","geometry":{"coordinates":[[[106.79500940295667,-6.227646563860785],[106.80399255579786,-6.227646563860785],[106.80399255579786,-6.236636103153963],[106.79500940295667,-6.236636103153963],[106.79500940295667,-6.227646563860785]]],"type":"Polygon"},"properties":{"fid":496126,"ID_GRID":5062602,"INDEKS":0.34817493049456943,"STATUS":"CUKUP","ID_PROV":"31","PROVINSI":"DKI JAKARTA","ID_KABKOT":"31.74","KABKOT":"KOTA ADM. JAKARTA SELATAN","ID_KEC":"31.74.07","KECAMATAN":"KEBAYORAN BARU","ID_DESA":"31.74.07.1004","DESA":"SELONG"}},{"type":"Feature","geometry":{"coordinates":[[[106.79500940295667,-6.236636103153963],[106.80399255579786,-6.236636103153963],[106.80399255579786,-6.245625486275833],[106.79500940295667,-6.245625486275833],[106.79500940295667,-6.236636103153963]]],"type":"Polygon"},"properties":{"fid":496127,"ID_GRID":5062603,"INDEKS":0.2831386241401632,"STATUS":"CUKUP","ID_PROV":"31","PROVINSI":"DKI JAKARTA","ID_KABKOT":"31.74","KABKOT":"KOTA ADM. JAKARTA SELATAN","ID_KEC":"31.74.07","KECAMATAN":"KEBAYORAN BARU","ID_DESA":"31.74.07.1001","DESA":"MELAWAI"}},{"type":"Feature","geometry":{"coordinates":[[[106.79500940295667,-6.245625486275833],[106.80399255579786,-6.245625486275833],[106.80399255579786,-6.254614713005012],[106.79500940295667,-6.254614713005012],[106.79500940295667,-6.245625486275833]]],"type":"Polygon"},"properties":{"fid":496128,"ID_GRID":5062604,"INDEKS":0.3010704004722058,"STATUS":"CUKUP","ID_PROV":"31","PROVINSI":"DKI JAKARTA","ID_KABKOT":"31.74","KABKOT":"KOTA ADM. JAKARTA SELATAN","ID_KEC":"31.74.07","KECAMATAN":"KEBAYORAN BARU","ID_DESA":"31.74.07.1001","DESA":"MELAWAI"}},{"type":"Feature","geometry":{"coordinates":[[[106.79500940295667,-6.254614713005012],[106.80399255579786,-6.254614713005012],[106.80399255579786,-6.263603783120125],[106.79500940295667,-6.263603783120125],[106.79500940295667,-6.254614713005012]]],"type":"Polygon"},"properties":{"fid":496129,"ID_GRID":5062605,"INDEKS":0.25598540930872776,"STATUS":"CUKUP","ID_PROV":"31","PROVINSI":"DKI JAKARTA","ID_KABKOT":"31.74","KABKOT":"KOTA ADM. JAKARTA SELATAN","ID_KEC":"31.74.07","KECAMATAN":"KEBAYORAN BARU","ID_DESA":"31.74.07.1010","DESA":"CIPETE UTARA"}},{"type":"Feature","geometry":{"coordinates":[[[106.79500940295667,-6.263603783120125],[106.80399255579786,-6.263603783120125],[106.80399255579786,-6.27259269639983],[106.79500940295667,-6.27259269639983],[106.79500940295667,-6.263603783120125]]],"type":"Polygon"},"properties":{"fid":496130,"ID_GRID":5062606,"INDEKS":0.27483602281389596,"STATUS":"CUKUP","ID_PROV":"31","PROVINSI":"DKI JAKARTA","ID_KABKOT":"31.74","KABKOT":"KOTA ADM. JAKARTA SELATAN","ID_KEC":"31.74.06","KECAMATAN":"CILANDAK","ID_DESA":"31.74.06.1005","DESA":"CIPETE SELATAN"}},{"type":"Feature","geometry":{"coordinates":[[[106.79500940295667,-6.27259269639983],[106.80399255579786,-6.27259269639983],[106.80399255579786,-6.281581452622801],[106.79500940295667,-6.281581452622801],[106.79500940295667,-6.27259269639983]]],"type":"Polygon"},"properties":{"fid":496131,"ID_GRID":5062607,"INDEKS":0.2783408627020271,"STATUS":"CUKUP","ID_PROV":"31","PROVINSI":"DKI JAKARTA","ID_KABKOT":"31.74","KABKOT":"KOTA ADM. JAKARTA SELATAN","ID_KEC":"31.74.06","KECAMATAN":"CILANDAK","ID_DESA":"31.74.06.1005","DESA":"CIPETE SELATAN"}},{"type":"Feature","geometry":{"coordinates":[[[106.79500940295667,-6.281581452622801],[106.80399255579786,-6.281581452622801],[106.80399255579786,-6.290570051567724],[106.79500940295667,-6.290570051567724],[106.79500940295667,-6.281581452622801]]],"type":"Polygon"},"properties":{"fid":496132,"ID_GRID":5062608,"INDEKS":0.3222266948885388,"STATUS":"CUKUP","ID_PROV":"31","PROVINSI":"DKI JAKARTA","ID_KABKOT":"31.74","KABKOT":"KOTA ADM. JAKARTA SELATAN","ID_KEC":"31.74.06","KECAMATAN":"CILANDAK","ID_DESA":"31.74.06.1001","DESA":"CILANDAK BARAT"}},{"type":"Feature","geometry":{"coordinates":[[[106.79500940295667,-6.290570051567724],[106.80399255579786,-6.290570051567724],[106.80399255579786,-6.299558493013317],[106.79500940295667,-6.299558493013317],[106.79500940295667,-6.290570051567724]]],"type":"Polygon"},"properties":{"fid":496133,"ID_GRID":5062609,"INDEKS":0.3379051503755282,"STATUS":"CUKUP","ID_PROV":"31","PROVINSI":"DKI JAKARTA","ID_KABKOT":"31.74","KABKOT":"KOTA ADM. JAKARTA SELATAN","ID_KEC":"31.74.06","KECAMATAN":"CILANDAK","ID_DESA":"31.74.06.1001","DESA":"CILANDAK BARAT"}},{"type":"Feature","geometry":{"coordinates":[[[106.79500940295667,-6.299558493013317],[106.80399255579786,-6.299558493013317],[106.80399255579786,-6.308546776738313],[106.79500940295667,-6.308546776738313],[106.79500940295667,-6.299558493013317]]],"type":"Polygon"},"properties":{"fid":496134,"ID_GRID":5062610,"INDEKS":0.3312428097328613,"STATUS":"CUKUP","ID_PROV":"31","PROVINSI":"DKI JAKARTA","ID_KABKOT":"31.74","KABKOT":"KOTA ADM. JAKARTA SELATAN","ID_KEC":"31.74.06","KECAMATAN":"CILANDAK","ID_DESA":"31.74.06.1003","DESA":"PONDOK LABU"}},{"type":"Feature","geometry":{"coordinates":[[[106.79500940295667,-6.308546776738313],[106.80399255579786,-6.308546776738313],[106.80399255579786,-6.31753490252146],[106.79500940295667,-6.31753490252146],[106.79500940295667,-6.308546776738313]]],"type":"Polygon"},"properties":{"fid":496135,"ID_GRID":5062611,"INDEKS":0.37260095932485865,"STATUS":"CUKUP","ID_PROV":"31","PROVINSI":"DKI JAKARTA","ID_KABKOT":"31.74","KABKOT":"KOTA ADM. JAKARTA SELATAN","ID_KEC":"31.74.06","KECAMATAN":"CILANDAK","ID_DESA":"31.74.06.1003","DESA":"PONDOK LABU"}},{"type":"Feature","geometry":{"coordinates":[[[106.79500940295667,-6.335510679377327],[106.80399255579786,-6.335510679377327],[106.80399255579786,-6.344498330007653],[106.79500940295667,-6.344498330007653],[106.79500940295667,-6.335510679377327]]],"type":"Polygon"},"properties":{"fid":496138,"ID_GRID":5062614,"INDEKS":0.35247491233057665,"STATUS":"CUKUP","ID_PROV":"31","PROVINSI":"DKI JAKARTA","ID_KABKOT":"31.74","KABKOT":"KOTA ADM. JAKARTA SELATAN","ID_KEC":"31.74.09","KECAMATAN":"JAGAKARSA","ID_DESA":"31.74.09.1003","DESA":"CIGANJUR"}},{"type":"Feature","geometry":{"coordinates":[[[106.79500940295667,-6.344498330007653],[106.80399255579786,-6.344498330007653],[106.80399255579786,-6.353485821811341],[106.79500940295667,-6.353485821811341],[106.79500940295667,-6.344498330007653]]],"type":"Polygon"},"properties":{"fid":496139,"ID_GRID":5062615,"INDEKS":0.34376935143548326,"STATUS":"CUKUP","ID_PROV":"31","PROVINSI":"DKI JAKARTA","ID_KABKOT":"31.74","KABKOT":"KOTA ADM. JAKARTA SELATAN","ID_KEC":"31.74.09","KECAMATAN":"JAGAKARSA","ID_DESA":"31.74.09.1006","DESA":"CIPEDAK"}},{"type":"Feature","geometry":{"coordinates":[[[106.79500940295667,-6.353485821811341],[106.80399255579786,-6.353485821811341],[106.80399255579786,-6.362473154567247],[106.79500940295667,-6.362473154567247],[106.79500940295667,-6.353485821811341]]],"type":"Polygon"},"properties":{"fid":496140,"ID_GRID":5062616,"INDEKS":0.47020488614823647,"STATUS":"SEDANG","ID_PROV":"31","PROVINSI":"DKI JAKARTA","ID_KABKOT":"31.74","KABKOT":"KOTA ADM. JAKARTA SELATAN","ID_KEC":"31.74.09","KECAMATAN":"JAGAKARSA","ID_DESA":"31.74.09.1006","DESA":"CIPEDAK"}},{"type":"Feature","geometry":{"coordinates":[[[106.80399255579786,-6.218656868617704],[106.81297570863904,-6.218656868617704],[106.81297570863904,-6.227646563860785],[106.80399255579786,-6.227646563860785],[106.80399255579786,-6.218656868617704]]],"type":"Polygon"},"properties":{"fid":496295,"ID_GRID":5065601,"INDEKS":0.34790327140874516,"STATUS":"CUKUP","ID_PROV":"31","PROVINSI":"DKI JAKARTA","ID_KABKOT":"31.74","KABKOT":"KOTA ADM. JAKARTA SELATAN","ID_KEC":"31.74.07","KECAMATAN":"KEBAYORAN BARU","ID_DESA":"31.74.07.1006","DESA":"SENAYAN"}},{"type":"Feature","geometry":{"coordinates":[[[106.80399255579786,-6.227646563860785],[106.81297570863904,-6.227646563860785],[106.81297570863904,-6.236636103153963],[106.80399255579786,-6.236636103153963],[106.80399255579786,-6.227646563860785]]],"type":"Polygon"},"properties":{"fid":496296,"ID_GRID":5065602,"INDEKS":0.3342182585660787,"STATUS":"CUKUP","ID_PROV":"31","PROVINSI":"DKI JAKARTA","ID_KABKOT":"31.74","KABKOT":"KOTA ADM. JAKARTA SELATAN","ID_KEC":"31.74.07","KECAMATAN":"KEBAYORAN BARU","ID_DESA":"31.74.07.1004","DESA":"SELONG"}},{"type":"Feature","geometry":{"coordinates":[[[106.80399255579786,-6.236636103153963],[106.81297570863904,-6.236636103153963],[106.81297570863904,-6.245625486275833],[106.80399255579786,-6.245625486275833],[106.80399255579786,-6.236636103153963]]],"type":"Polygon"},"properties":{"fid":496297,"ID_GRID":5065603,"INDEKS":0.300738210041149,"STATUS":"CUKUP","ID_PROV":"31","PROVINSI":"DKI JAKARTA","ID_KABKOT":"31.74","KABKOT":"KOTA ADM. JAKARTA SELATAN","ID_KEC":"31.74.07","KECAMATAN":"KEBAYORAN BARU","ID_DESA":"31.74.07.1008","DESA":"PETOGOGAN"}},{"type":"Feature","geometry":{"coordinates":[[[106.80399255579786,-6.245625486275833],[106.81297570863904,-6.245625486275833],[106.81297570863904,-6.254614713005012],[106.80399255579786,-6.254614713005012],[106.80399255579786,-6.245625486275833]]],"type":"Polygon"},"properties":{"fid":496298,"ID_GRID":5065604,"INDEKS":0.3383576294671499,"STATUS":"CUKUP","ID_PROV":"31","PROVINSI":"DKI JAKARTA","ID_KABKOT":"31.74","KABKOT":"KOTA ADM. JAKARTA SELATAN","ID_KEC":"31.74.07","KECAMATAN":"KEBAYORAN BARU","ID_DESA":"31.74.07.1007","DESA":"PULO"}},{"type":"Feature","geometry":{"coordinates":[[[106.80399255579786,-6.254614713005012],[106.81297570863904,-6.254614713005012],[106.81297570863904,-6.263603783120125],[106.80399255579786,-6.263603783120125],[106.80399255579786,-6.254614713005012]]],"type":"Polygon"},"properties":{"fid":496299,"ID_GRID":5065605,"INDEKS":0.3217844289068445,"STATUS":"CUKUP","ID_PROV":"31","PROVINSI":"DKI JAKARTA","ID_KABKOT":"31.74","KABKOT":"KOTA ADM. JAKARTA SELATAN","ID_KEC":"31.74.07","KECAMATAN":"KEBAYORAN BARU","ID_DESA":"31.74.07.1010","DESA":"CIPETE UTARA"}},{"type":"Feature","geometry":{"coordinates":[[[106.80399255579786,-6.263603783120125],[106.81297570863904,-6.263603783120125],[106.81297570863904,-6.27259269639983],[106.80399255579786,-6.27259269639983],[106.80399255579786,-6.263603783120125]]],"type":"Polygon"},"properties":{"fid":496300,"ID_GRID":5065606,"INDEKS":0.31874900146548546,"STATUS":"CUKUP","ID_PROV":"31","PROVINSI":"DKI JAKARTA","ID_KABKOT":"31.74","KABKOT":"KOTA ADM. JAKARTA SELATAN","ID_KEC":"31.74.06","KECAMATAN":"CILANDAK","ID_DESA":"31.74.06.1005","DESA":"CIPETE SELATAN"}},{"type":"Feature","geometry":{"coordinates":[[[106.80399255579786,-6.27259269639983],[106.81297570863904,-6.27259269639983],[106.81297570863904,-6.281581452622801],[106.80399255579786,-6.281581452622801],[106.80399255579786,-6.27259269639983]]],"type":"Polygon"},"properties":{"fid":496301,"ID_GRID":5065607,"INDEKS":0.3304231091173669,"STATUS":"CUKUP","ID_PROV":"31","PROVINSI":"DKI JAKARTA","ID_KABKOT":"31.74","KABKOT":"KOTA ADM. JAKARTA SELATAN","ID_KEC":"31.74.06","KECAMATAN":"CILANDAK","ID_DESA":"31.74.06.1005","DESA":"CIPETE SELATAN"}},{"type":"Feature","geometry":{"coordinates":[[[106.80399255579786,-6.281581452622801],[106.81297570863904,-6.281581452622801],[106.81297570863904,-6.290570051567724],[106.80399255579786,-6.290570051567724],[106.80399255579786,-6.281581452622801]]],"type":"Polygon"},"properties":{"fid":496302,"ID_GRID":5065608,"INDEKS":0.3418954619191547,"STATUS":"CUKUP","ID_PROV":"31","PROVINSI":"DKI JAKARTA","ID_KABKOT":"31.74","KABKOT":"KOTA ADM. JAKARTA SELATAN","ID_KEC":"31.74.06","KECAMATAN":"CILANDAK","ID_DESA":"31.74.06.1001","DESA":"CILANDAK BARAT"}},{"type":"Feature","geometry":{"coordinates":[[[106.80399255579786,-6.290570051567724],[106.81297570863904,-6.290570051567724],[106.81297570863904,-6.299558493013317],[106.80399255579786,-6.299558493013317],[106.80399255579786,-6.290570051567724]]],"type":"Polygon"},"properties":{"fid":496303,"ID_GRID":5065609,"INDEKS":0.3387830530072491,"STATUS":"CUKUP","ID_PROV":"31","PROVINSI":"DKI JAKARTA","ID_KABKOT":"31.74","KABKOT":"KOTA ADM. JAKARTA SELATAN","ID_KEC":"31.74.04","KECAMATAN":"PASAR MINGGU","ID_DESA":"31.74.04.1003","DESA":"CILANDAK TIMUR"}},{"type":"Feature","geometry":{"coordinates":[[[106.80399255579786,-6.299558493013317],[106.81297570863904,-6.299558493013317],[106.81297570863904,-6.308546776738313],[106.80399255579786,-6.308546776738313],[106.80399255579786,-6.299558493013317]]],"type":"Polygon"},"properties":{"fid":496304,"ID_GRID":5065610,"INDEKS":0.3689152796117905,"STATUS":"CUKUP","ID_PROV":"31","PROVINSI":"DKI JAKARTA","ID_KABKOT":"31.74","KABKOT":"KOTA ADM. JAKARTA SELATAN","ID_KEC":"31.74.04","KECAMATAN":"PASAR MINGGU","ID_DESA":"31.74.04.1003","DESA":"CILANDAK TIMUR"}},{"type":"Feature","geometry":{"coordinates":[[[106.80399255579786,-6.308546776738313],[106.81297570863904,-6.308546776738313],[106.81297570863904,-6.31753490252146],[106.80399255579786,-6.31753490252146],[106.80399255579786,-6.308546776738313]]],"type":"Polygon"},"properties":{"fid":496305,"ID_GRID":5065611,"INDEKS":0.3828521854976282,"STATUS":"CUKUP","ID_PROV":"31","PROVINSI":"DKI JAKARTA","ID_KABKOT":"31.74","KABKOT":"KOTA ADM. JAKARTA SELATAN","ID_KEC":"31.74.09","KECAMATAN":"JAGAKARSA","ID_DESA":"31.74.09.1001","DESA":"JAGAKARSA"}},{"type":"Feature","geometry":{"coordinates":[[[106.80399255579786,-6.31753490252146],[106.81297570863904,-6.31753490252146],[106.81297570863904,-6.326522870141535],[106.80399255579786,-6.326522870141535],[106.80399255579786,-6.31753490252146]]],"type":"Polygon"},"properties":{"fid":496306,"ID_GRID":5065612,"INDEKS":0.3807570997586919,"STATUS":"CUKUP","ID_PROV":"31","PROVINSI":"DKI JAKARTA","ID_KABKOT":"31.74","KABKOT":"KOTA ADM. JAKARTA SELATAN","ID_KEC":"31.74.09","KECAMATAN":"JAGAKARSA","ID_DESA":"31.74.09.1001","DESA":"JAGAKARSA"}},{"type":"Feature","geometry":{"coordinates":[[[106.80399255579786,-6.326522870141535],[106.81297570863904,-6.326522870141535],[106.81297570863904,-6.335510679377327],[106.80399255579786,-6.335510679377327],[106.80399255579786,-6.326522870141535]]],"type":"Polygon"},"properties":{"fid":496307,"ID_GRID":5065613,"INDEKS":0.38542780306675006,"STATUS":"CUKUP","ID_PROV":"31","PROVINSI":"DKI JAKARTA","ID_KABKOT":"31.74","KABKOT":"KOTA ADM. JAKARTA SELATAN","ID_KEC":"31.74.09","KECAMATAN":"JAGAKARSA","ID_DESA":"31.74.09.1003","DESA":"CIGANJUR"}},{"type":"Feature","geometry":{"coordinates":[[[106.80399255579786,-6.335510679377327],[106.81297570863904,-6.335510679377327],[106.81297570863904,-6.344498330007653],[106.80399255579786,-6.344498330007653],[106.80399255579786,-6.335510679377327]]],"type":"Polygon"},"properties":{"fid":496308,"ID_GRID":5065614,"INDEKS":0.3435226723206447,"STATUS":"CUKUP","ID_PROV":"31","PROVINSI":"DKI JAKARTA","ID_KABKOT":"31.74","KABKOT":"KOTA ADM. JAKARTA SELATAN","ID_KEC":"31.74.09","KECAMATAN":"JAGAKARSA","ID_DESA":"31.74.09.1003","DESA":"CIGANJUR"}},{"type":"Feature","geometry":{"coordinates":[[[106.80399255579786,-6.344498330007653],[106.81297570863904,-6.344498330007653],[106.81297570863904,-6.353485821811341],[106.80399255579786,-6.353485821811341],[106.80399255579786,-6.344498330007653]]],"type":"Polygon"},"properties":{"fid":496309,"ID_GRID":5065615,"INDEKS":0.321836341649397,"STATUS":"CUKUP","ID_PROV":"31","PROVINSI":"DKI JAKARTA","ID_KABKOT":"31.74","KABKOT":"KOTA ADM. JAKARTA SELATAN","ID_KEC":"31.74.09","KECAMATAN":"JAGAKARSA","ID_DESA":"31.74.09.1006","DESA":"CIPEDAK"}},{"type":"Feature","geometry":{"coordinates":[[[106.80399255579786,-6.353485821811341],[106.81297570863904,-6.353485821811341],[106.81297570863904,-6.362473154567247],[106.80399255579786,-6.362473154567247],[106.80399255579786,-6.353485821811341]]],"type":"Polygon"},"properties":{"fid":496310,"ID_GRID":5065616,"INDEKS":0.3327276013897808,"STATUS":"CUKUP","ID_PROV":"31","PROVINSI":"DKI JAKARTA","ID_KABKOT":"31.74","KABKOT":"KOTA ADM. JAKARTA SELATAN","ID_KEC":"31.74.09","KECAMATAN":"JAGAKARSA","ID_DESA":"31.74.09.1006","DESA":"CIPEDAK"}},{"type":"Feature","geometry":{"coordinates":[[[106.81297570863904,-6.218656868617704],[106.82195886148025,-6.218656868617704],[106.82195886148025,-6.227646563860785],[106.81297570863904,-6.227646563860785],[106.81297570863904,-6.218656868617704]]],"type":"Polygon"},"properties":{"fid":496464,"ID_GRID":5068601,"INDEKS":0.28889692213499185,"STATUS":"CUKUP","ID_PROV":"31","PROVINSI":"DKI JAKARTA","ID_KABKOT":"31.74","KABKOT":"KOTA ADM. JAKARTA SELATAN","ID_KEC":"31.74.02","KECAMATAN":"SETIABUDI","ID_DESA":"31.74.02.1002","DESA":"KARET SEMANGGI"}},{"type":"Feature","geometry":{"coordinates":[[[106.81297570863904,-6.227646563860785],[106.82195886148025,-6.227646563860785],[106.82195886148025,-6.236636103153963],[106.81297570863904,-6.236636103153963],[106.81297570863904,-6.227646563860785]]],"type":"Polygon"},"properties":{"fid":496465,"ID_GRID":5068602,"INDEKS":0.30857646324363075,"STATUS":"CUKUP","ID_PROV":"31","PROVINSI":"DKI JAKARTA","ID_KABKOT":"31.74","KABKOT":"KOTA ADM. JAKARTA SELATAN","ID_KEC":"31.74.03","KECAMATAN":"MAMPANG PRAPATAN","ID_DESA":"31.74.03.1005","DESA":"KUNINGAN BARAT"}},{"type":"Feature","geometry":{"coordinates":[[[106.81297570863904,-6.236636103153963],[106.82195886148025,-6.236636103153963],[106.82195886148025,-6.245625486275833],[106.81297570863904,-6.245625486275833],[106.81297570863904,-6.236636103153963]]],"type":"Polygon"},"properties":{"fid":496466,"ID_GRID":5068603,"INDEKS":0.2719249832071877,"STATUS":"CUKUP","ID_PROV":"31","PROVINSI":"DKI JAKARTA","ID_KABKOT":"31.74","KABKOT":"KOTA ADM. JAKARTA SELATAN","ID_KEC":"31.74.03","KECAMATAN":"MAMPANG PRAPATAN","ID_DESA":"31.74.03.1003","DESA":"PELA MAMPANG"}},{"type":"Feature","geometry":{"coordinates":[[[106.81297570863904,-6.245625486275833],[106.82195886148025,-6.245625486275833],[106.82195886148025,-6.254614713005012],[106.81297570863904,-6.254614713005012],[106.81297570863904,-6.245625486275833]]],"type":"Polygon"},"properties":{"fid":496467,"ID_GRID":5068604,"INDEKS":0.2766321617412695,"STATUS":"CUKUP","ID_PROV":"31","PROVINSI":"DKI JAKARTA","ID_KABKOT":"31.74","KABKOT":"KOTA ADM. JAKARTA SELATAN","ID_KEC":"31.74.03","KECAMATAN":"MAMPANG PRAPATAN","ID_DESA":"31.74.03.1003","DESA":"PELA MAMPANG"}},{"type":"Feature","geometry":{"coordinates":[[[106.81297570863904,-6.254614713005012],[106.82195886148025,-6.254614713005012],[106.82195886148025,-6.263603783120125],[106.81297570863904,-6.263603783120125],[106.81297570863904,-6.254614713005012]]],"type":"Polygon"},"properties":{"fid":496468,"ID_GRID":5068605,"INDEKS":0.3176942336739916,"STATUS":"CUKUP","ID_PROV":"31","PROVINSI":"DKI JAKARTA","ID_KABKOT":"31.74","KABKOT":"KOTA ADM. JAKARTA SELATAN","ID_KEC":"31.74.03","KECAMATAN":"MAMPANG PRAPATAN","ID_DESA":"31.74.03.1002","DESA":"BANGKA"}},{"type":"Feature","geometry":{"coordinates":[[[106.81297570863904,-6.263603783120125],[106.82195886148025,-6.263603783120125],[106.82195886148025,-6.27259269639983],[106.81297570863904,-6.27259269639983],[106.81297570863904,-6.263603783120125]]],"type":"Polygon"},"properties":{"fid":496469,"ID_GRID":5068606,"INDEKS":0.37139541456686237,"STATUS":"CUKUP","ID_PROV":"31","PROVINSI":"DKI JAKARTA","ID_KABKOT":"31.74","KABKOT":"KOTA ADM. JAKARTA SELATAN","ID_KEC":"31.74.03","KECAMATAN":"MAMPANG PRAPATAN","ID_DESA":"31.74.03.1002","DESA":"BANGKA"}},{"type":"Feature","geometry":{"coordinates":[[[106.81297570863904,-6.27259269639983],[106.82195886148025,-6.27259269639983],[106.82195886148025,-6.281581452622801],[106.81297570863904,-6.281581452622801],[106.81297570863904,-6.27259269639983]]],"type":"Polygon"},"properties":{"fid":496470,"ID_GRID":5068607,"INDEKS":0.3456868886044531,"STATUS":"CUKUP","ID_PROV":"31","PROVINSI":"DKI JAKARTA","ID_KABKOT":"31.74","KABKOT":"KOTA ADM. JAKARTA SELATAN","ID_KEC":"31.74.04","KECAMATAN":"PASAR MINGGU","ID_DESA":"31.74.04.1003","DESA":"CILANDAK TIMUR"}},{"type":"Feature","geometry":{"coordinates":[[[106.81297570863904,-6.281581452622801],[106.82195886148025,-6.281581452622801],[106.82195886148025,-6.290570051567724],[106.81297570863904,-6.290570051567724],[106.81297570863904,-6.281581452622801]]],"type":"Polygon"},"properties":{"fid":496471,"ID_GRID":5068608,"INDEKS":0.3393301948617641,"STATUS":"CUKUP","ID_PROV":"31","PROVINSI":"DKI JAKARTA","ID_KABKOT":"31.74","KABKOT":"KOTA ADM. JAKARTA SELATAN","ID_KEC":"31.74.04","KECAMATAN":"PASAR MINGGU","ID_DESA":"31.74.04.1003","DESA":"CILANDAK TIMUR"}},{"type":"Feature","geometry":{"coordinates":[[[106.81297570863904,-6.290570051567724],[106.82195886148025,-6.290570051567724],[106.82195886148025,-6.299558493013317],[106.81297570863904,-6.299558493013317],[106.81297570863904,-6.290570051567724]]],"type":"Polygon"},"properties":{"fid":496472,"ID_GRID":5068609,"INDEKS":0.3772825892087623,"STATUS":"CUKUP","ID_PROV":"31","PROVINSI":"DKI JAKARTA","ID_KABKOT":"31.74","KABKOT":"KOTA ADM. JAKARTA SELATAN","ID_KEC":"31.74.04","KECAMATAN":"PASAR MINGGU","ID_DESA":"31.74.04.1004","DESA":"RAGUNAN"}},{"type":"Feature","geometry":{"coordinates":[[[106.81297570863904,-6.299558493013317],[106.82195886148025,-6.299558493013317],[106.82195886148025,-6.308546776738313],[106.81297570863904,-6.308546776738313],[106.81297570863904,-6.299558493013317]]],"type":"Polygon"},"properties":{"fid":496473,"ID_GRID":5068610,"INDEKS":0.3487845184729699,"STATUS":"CUKUP","ID_PROV":"31","PROVINSI":"DKI JAKARTA","ID_KABKOT":"31.74","KABKOT":"KOTA ADM. JAKARTA SELATAN","ID_KEC":"31.74.04","KECAMATAN":"PASAR MINGGU","ID_DESA":"31.74.04.1004","DESA":"RAGUNAN"}},{"type":"Feature","geometry":{"coordinates":[[[106.81297570863904,-6.308546776738313],[106.82195886148025,-6.308546776738313],[106.82195886148025,-6.31753490252146],[106.81297570863904,-6.31753490252146],[106.81297570863904,-6.308546776738313]]],"type":"Polygon"},"properties":{"fid":496474,"ID_GRID":5068611,"INDEKS":0.4745213358472311,"STATUS":"SEDANG","ID_PROV":"31","PROVINSI":"DKI JAKARTA","ID_KABKOT":"31.74","KABKOT":"KOTA ADM. JAKARTA SELATAN","ID_KEC":"31.74.04","KECAMATAN":"PASAR MINGGU","ID_DESA":"31.74.04.1004","DESA":"RAGUNAN"}},{"type":"Feature","geometry":{"coordinates":[[[106.81297570863904,-6.31753490252146],[106.82195886148025,-6.31753490252146],[106.82195886148025,-6.326522870141535],[106.81297570863904,-6.326522870141535],[106.81297570863904,-6.31753490252146]]],"type":"Polygon"},"properties":{"fid":496475,"ID_GRID":5068612,"INDEKS":0.3366000680734342,"STATUS":"CUKUP","ID_PROV":"31","PROVINSI":"DKI JAKARTA","ID_KABKOT":"31.74","KABKOT":"KOTA ADM. JAKARTA SELATAN","ID_KEC":"31.74.09","KECAMATAN":"JAGAKARSA","ID_DESA":"31.74.09.1001","DESA":"JAGAKARSA"}},{"type":"Feature","geometry":{"coordinates":[[[106.81297570863904,-6.326522870141535],[106.82195886148025,-6.326522870141535],[106.82195886148025,-6.335510679377327],[106.81297570863904,-6.335510679377327],[106.81297570863904,-6.326522870141535]]],"type":"Polygon"},"properties":{"fid":496476,"ID_GRID":5068613,"INDEKS":0.3163591390142099,"STATUS":"CUKUP","ID_PROV":"31","PROVINSI":"DKI JAKARTA","ID_KABKOT":"31.74","KABKOT":"KOTA ADM. JAKARTA SELATAN","ID_KEC":"31.74.09","KECAMATAN":"JAGAKARSA","ID_DESA":"31.74.09.1001","DESA":"JAGAKARSA"}},{"type":"Feature","geometry":{"coordinates":[[[106.81297570863904,-6.335510679377327],[106.82195886148025,-6.335510679377327],[106.82195886148025,-6.344498330007653],[106.81297570863904,-6.344498330007653],[106.81297570863904,-6.335510679377327]]],"type":"Polygon"},"properties":{"fid":496477,"ID_GRID":5068614,"INDEKS":0.33601167927349895,"STATUS":"CUKUP","ID_PROV":"31","PROVINSI":"DKI JAKARTA","ID_KABKOT":"31.74","KABKOT":"KOTA ADM. JAKARTA SELATAN","ID_KEC":"31.74.09","KECAMATAN":"JAGAKARSA","ID_DESA":"31.74.09.1003","DESA":"CIGANJUR"}},{"type":"Feature","geometry":{"coordinates":[[[106.81297570863904,-6.344498330007653],[106.82195886148025,-6.344498330007653],[106.82195886148025,-6.353485821811341],[106.81297570863904,-6.353485821811341],[106.81297570863904,-6.344498330007653]]],"type":"Polygon"},"properties":{"fid":496478,"ID_GRID":5068615,"INDEKS":0.3376441716113578,"STATUS":"CUKUP","ID_PROV":"31","PROVINSI":"DKI JAKARTA","ID_KABKOT":"31.74","KABKOT":"KOTA ADM. JAKARTA SELATAN","ID_KEC":"31.74.09","KECAMATAN":"JAGAKARSA","ID_DESA":"31.74.09.1002","DESA":"SRENGSENG SAWAH"}},{"type":"Feature","geometry":{"coordinates":[[[106.82195886148025,-6.200677011167568],[106.83094201432145,-6.200677011167568],[106.83094201432145,-6.20966701764615],[106.82195886148025,-6.20966701764615],[106.82195886148025,-6.200677011167568]]],"type":"Polygon"},"properties":{"fid":496632,"ID_GRID":5071599,"INDEKS":0.3212834150556909,"STATUS":"CUKUP","ID_PROV":"31","PROVINSI":"DKI JAKARTA","ID_KABKOT":"31.74","KABKOT":"KOTA ADM. JAKARTA SELATAN","ID_KEC":"31.74.02","KECAMATAN":"SETIABUDI","ID_DESA":"31.74.02.1001","DESA":"SETIA BUDI"}},{"type":"Feature","geometry":{"coordinates":[[[106.82195886148025,-6.20966701764615],[106.83094201432145,-6.20966701764615],[106.83094201432145,-6.218656868617704],[106.82195886148025,-6.218656868617704],[106.82195886148025,-6.20966701764615]]],"type":"Polygon"},"properties":{"fid":496633,"ID_GRID":5071600,"INDEKS":0.2541058018352046,"STATUS":"CUKUP","ID_PROV":"31","PROVINSI":"DKI JAKARTA","ID_KABKOT":"31.74","KABKOT":"KOTA ADM. JAKARTA SELATAN","ID_KEC":"31.74.02","KECAMATAN":"SETIABUDI","ID_DESA":"31.74.02.1004","DESA":"KARET"}},{"type":"Feature","geometry":{"coordinates":[[[106.82195886148025,-6.218656868617704],[106.83094201432145,-6.218656868617704],[106.83094201432145,-6.227646563860785],[106.82195886148025,-6.227646563860785],[106.82195886148025,-6.218656868617704]]],"type":"Polygon"},"properties":{"fid":496634,"ID_GRID":5071601,"INDEKS":0.2682107423370747,"STATUS":"CUKUP","ID_PROV":"31","PROVINSI":"DKI JAKARTA","ID_KABKOT":"31.74","KABKOT":"KOTA ADM. JAKARTA SELATAN","ID_KEC":"31.74.02","KECAMATAN":"SETIABUDI","ID_DESA":"31.74.02.1003","DESA":"KARET KUNINGAN"}},{"type":"Feature","geometry":{"coordinates":[[[106.82195886148025,-6.227646563860785],[106.83094201432145,-6.227646563860785],[106.83094201432145,-6.236636103153963],[106.82195886148025,-6.236636103153963],[106.82195886148025,-6.227646563860785]]],"type":"Polygon"},"properties":{"fid":496635,"ID_GRID":5071602,"INDEKS":0.32422940987200777,"STATUS":"CUKUP","ID_PROV":"31","PROVINSI":"DKI JAKARTA","ID_KABKOT":"31.74","KABKOT":"KOTA ADM. JAKARTA SELATAN","ID_KEC":"31.74.02","KECAMATAN":"SETIABUDI","ID_DESA":"31.74.02.1008","DESA":"KUNINGAN TIMUR"}},{"type":"Feature","geometry":{"coordinates":[[[106.82195886148025,-6.236636103153963],[106.83094201432145,-6.236636103153963],[106.83094201432145,-6.245625486275833],[106.82195886148025,-6.245625486275833],[106.82195886148025,-6.236636103153963]]],"type":"Polygon"},"properties":{"fid":496636,"ID_GRID":5071603,"INDEKS":0.271490938667314,"STATUS":"CUKUP","ID_PROV":"31","PROVINSI":"DKI JAKARTA","ID_KABKOT":"31.74","KABKOT":"KOTA ADM. JAKARTA SELATAN","ID_KEC":"31.74.03","KECAMATAN":"MAMPANG PRAPATAN","ID_DESA":"31.74.03.1001","DESA":"MAMPANG PRAPATAN"}},{"type":"Feature","geometry":{"coordinates":[[[106.82195886148025,-6.245625486275833],[106.83094201432145,-6.245625486275833],[106.83094201432145,-6.254614713005012],[106.82195886148025,-6.254614713005012],[106.82195886148025,-6.245625486275833]]],"type":"Polygon"},"properties":{"fid":496637,"ID_GRID":5071604,"INDEKS":0.24331614008561814,"STATUS":"CUKUP","ID_PROV":"31","PROVINSI":"DKI JAKARTA","ID_KABKOT":"31.74","KABKOT":"KOTA ADM. JAKARTA SELATAN","ID_KEC":"31.74.03","KECAMATAN":"MAMPANG PRAPATAN","ID_DESA":"31.74.03.1004","DESA":"TEGAL PARANG"}},{"type":"Feature","geometry":{"coordinates":[[[106.82195886148025,-6.254614713005012],[106.83094201432145,-6.254614713005012],[106.83094201432145,-6.263603783120125],[106.82195886148025,-6.263603783120125],[106.82195886148025,-6.254614713005012]]],"type":"Polygon"},"properties":{"fid":496638,"ID_GRID":5071605,"INDEKS":0.3249883919516433,"STATUS":"CUKUP","ID_PROV":"31","PROVINSI":"DKI JAKARTA","ID_KABKOT":"31.74","KABKOT":"KOTA ADM. JAKARTA SELATAN","ID_KEC":"31.74.08","KECAMATAN":"PANCORAN","ID_DESA":"31.74.08.1004","DESA":"DUREN TIGA"}},{"type":"Feature","geometry":{"coordinates":[[[106.82195886148025,-6.263603783120125],[106.83094201432145,-6.263603783120125],[106.83094201432145,-6.27259269639983],[106.82195886148025,-6.27259269639983],[106.82195886148025,-6.263603783120125]]],"type":"Polygon"},"properties":{"fid":496639,"ID_GRID":5071606,"INDEKS":0.3277139856357767,"STATUS":"CUKUP","ID_PROV":"31","PROVINSI":"DKI JAKARTA","ID_KABKOT":"31.74","KABKOT":"KOTA ADM. JAKARTA SELATAN","ID_KEC":"31.74.03","KECAMATAN":"MAMPANG PRAPATAN","ID_DESA":"31.74.03.1002","DESA":"BANGKA"}},{"type":"Feature","geometry":{"coordinates":[[[106.82195886148025,-6.27259269639983],[106.83094201432145,-6.27259269639983],[106.83094201432145,-6.281581452622801],[106.82195886148025,-6.281581452622801],[106.82195886148025,-6.27259269639983]]],"type":"Polygon"},"properties":{"fid":496640,"ID_GRID":5071607,"INDEKS":0.3501006674798415,"STATUS":"CUKUP","ID_PROV":"31","PROVINSI":"DKI JAKARTA","ID_KABKOT":"31.74","KABKOT":"KOTA ADM. JAKARTA SELATAN","ID_KEC":"31.74.04","KECAMATAN":"PASAR MINGGU","ID_DESA":"31.74.04.1006","DESA":"PEJATEN BARAT"}},{"type":"Feature","geometry":{"coordinates":[[[106.82195886148025,-6.281581452622801],[106.83094201432145,-6.281581452622801],[106.83094201432145,-6.290570051567724],[106.82195886148025,-6.290570051567724],[106.82195886148025,-6.281581452622801]]],"type":"Polygon"},"properties":{"fid":496641,"ID_GRID":5071608,"INDEKS":0.3109849874610962,"STATUS":"CUKUP","ID_PROV":"31","PROVINSI":"DKI JAKARTA","ID_KABKOT":"31.74","KABKOT":"KOTA ADM. JAKARTA SELATAN","ID_KEC":"31.74.04","KECAMATAN":"PASAR MINGGU","ID_DESA":"31.74.04.1002","DESA":"JATI PADANG"}},{"type":"Feature","geometry":{"coordinates":[[[106.82195886148025,-6.290570051567724],[106.83094201432145,-6.290570051567724],[106.83094201432145,-6.299558493013317],[106.82195886148025,-6.299558493013317],[106.82195886148025,-6.290570051567724]]],"type":"Polygon"},"properties":{"fid":496642,"ID_GRID":5071609,"INDEKS":0.37695764296639395,"STATUS":"CUKUP","ID_PROV":"31","PROVINSI":"DKI JAKARTA","ID_KABKOT":"31.74","KABKOT":"KOTA ADM. JAKARTA SELATAN","ID_KEC":"31.74.04","KECAMATAN":"PASAR MINGGU","ID_DESA":"31.74.04.1002","DESA":"JATI PADANG"}},{"type":"Feature","geometry":{"coordinates":[[[106.82195886148025,-6.299558493013317],[106.83094201432145,-6.299558493013317],[106.83094201432145,-6.308546776738313],[106.82195886148025,-6.308546776738313],[106.82195886148025,-6.299558493013317]]],"type":"Polygon"},"properties":{"fid":496643,"ID_GRID":5071610,"INDEKS":0.3646671393232125,"STATUS":"CUKUP","ID_PROV":"31","PROVINSI":"DKI JAKARTA","ID_KABKOT":"31.74","KABKOT":"KOTA ADM. JAKARTA SELATAN","ID_KEC":"31.74.04","KECAMATAN":"PASAR MINGGU","ID_DESA":"31.74.04.1004","DESA":"RAGUNAN"}},{"type":"Feature","geometry":{"coordinates":[[[106.82195886148025,-6.308546776738313],[106.83094201432145,-6.308546776738313],[106.83094201432145,-6.31753490252146],[106.82195886148025,-6.31753490252146],[106.82195886148025,-6.308546776738313]]],"type":"Polygon"},"properties":{"fid":496644,"ID_GRID":5071611,"INDEKS":0.4080981979192781,"STATUS":"SEDANG","ID_PROV":"31","PROVINSI":"DKI JAKARTA","ID_KABKOT":"31.74","KABKOT":"KOTA ADM. JAKARTA SELATAN","ID_KEC":"31.74.04","KECAMATAN":"PASAR MINGGU","ID_DESA":"31.74.04.1007","DESA":"KEBAGUSAN"}},{"type":"Feature","geometry":{"coordinates":[[[106.82195886148025,-6.31753490252146],[106.83094201432145,-6.31753490252146],[106.83094201432145,-6.326522870141535],[106.82195886148025,-6.326522870141535],[106.82195886148025,-6.31753490252146]]],"type":"Polygon"},"properties":{"fid":496645,"ID_GRID":5071612,"INDEKS":0.34185496035053553,"STATUS":"CUKUP","ID_PROV":"31","PROVINSI":"DKI JAKARTA","ID_KABKOT":"31.74","KABKOT":"KOTA ADM. JAKARTA SELATAN","ID_KEC":"31.74.09","KECAMATAN":"JAGAKARSA","ID_DESA":"31.74.09.1001","DESA":"JAGAKARSA"}},{"type":"Feature","geometry":{"coordinates":[[[106.82195886148025,-6.326522870141535],[106.83094201432145,-6.326522870141535],[106.83094201432145,-6.335510679377327],[106.82195886148025,-6.335510679377327],[106.82195886148025,-6.326522870141535]]],"type":"Polygon"},"properties":{"fid":496646,"ID_GRID":5071613,"INDEKS":0.301168223550497,"STATUS":"CUKUP","ID_PROV":"31","PROVINSI":"DKI JAKARTA","ID_KABKOT":"31.74","KABKOT":"KOTA ADM. JAKARTA SELATAN","ID_KEC":"31.74.09","KECAMATAN":"JAGAKARSA","ID_DESA":"31.74.09.1001","DESA":"JAGAKARSA"}},{"type":"Feature","geometry":{"coordinates":[[[106.82195886148025,-6.335510679377327],[106.83094201432145,-6.335510679377327],[106.83094201432145,-6.344498330007653],[106.82195886148025,-6.344498330007653],[106.82195886148025,-6.335510679377327]]],"type":"Polygon"},"properties":{"fid":496647,"ID_GRID":5071614,"INDEKS":0.31321257351460646,"STATUS":"CUKUP","ID_PROV":"31","PROVINSI":"DKI JAKARTA","ID_KABKOT":"31.74","KABKOT":"KOTA ADM. JAKARTA SELATAN","ID_KEC":"31.74.09","KECAMATAN":"JAGAKARSA","ID_DESA":"31.74.09.1002","DESA":"SRENGSENG SAWAH"}},{"type":"Feature","geometry":{"coordinates":[[[106.82195886148025,-6.344498330007653],[106.83094201432145,-6.344498330007653],[106.83094201432145,-6.353485821811341],[106.82195886148025,-6.353485821811341],[106.82195886148025,-6.344498330007653]]],"type":"Polygon"},"properties":{"fid":496648,"ID_GRID":5071615,"INDEKS":0.40085426632324467,"STATUS":"SEDANG","ID_PROV":"31","PROVINSI":"DKI JAKARTA","ID_KABKOT":"31.74","KABKOT":"KOTA ADM. JAKARTA SELATAN","ID_KEC":"31.74.09","KECAMATAN":"JAGAKARSA","ID_DESA":"31.74.09.1002","DESA":"SRENGSENG SAWAH"}},{"type":"Feature","geometry":{"coordinates":[[[106.83094201432145,-6.20966701764615],[106.83992516716265,-6.20966701764615],[106.83992516716265,-6.218656868617704],[106.83094201432145,-6.218656868617704],[106.83094201432145,-6.20966701764615]]],"type":"Polygon"},"properties":{"fid":496802,"ID_GRID":5074600,"INDEKS":0.34566080467958077,"STATUS":"CUKUP","ID_PROV":"31","PROVINSI":"DKI JAKARTA","ID_KABKOT":"31.74","KABKOT":"KOTA ADM. JAKARTA SELATAN","ID_KEC":"31.74.02","KECAMATAN":"SETIABUDI","ID_DESA":"31.74.02.1005","DESA":"MENTENG ATAS"}},{"type":"Feature","geometry":{"coordinates":[[[106.83094201432145,-6.218656868617704],[106.83992516716265,-6.218656868617704],[106.83992516716265,-6.227646563860785],[106.83094201432145,-6.227646563860785],[106.83094201432145,-6.218656868617704]]],"type":"Polygon"},"properties":{"fid":496803,"ID_GRID":5074601,"INDEKS":0.35147600550088504,"STATUS":"CUKUP","ID_PROV":"31","PROVINSI":"DKI JAKARTA","ID_KABKOT":"31.74","KABKOT":"KOTA ADM. JAKARTA SELATAN","ID_KEC":"31.74.02","KECAMATAN":"SETIABUDI","ID_DESA":"31.74.02.1003","DESA":"KARET KUNINGAN"}},{"type":"Feature","geometry":{"coordinates":[[[106.83094201432145,-6.227646563860785],[106.83992516716265,-6.227646563860785],[106.83992516716265,-6.236636103153963],[106.83094201432145,-6.236636103153963],[106.83094201432145,-6.227646563860785]]],"type":"Polygon"},"properties":{"fid":496804,"ID_GRID":5074602,"INDEKS":0.33346107324548796,"STATUS":"CUKUP","ID_PROV":"31","PROVINSI":"DKI JAKARTA","ID_KABKOT":"31.74","KABKOT":"KOTA ADM. JAKARTA SELATAN","ID_KEC":"31.74.02","KECAMATAN":"SETIABUDI","ID_DESA":"31.74.02.1008","DESA":"KUNINGAN TIMUR"}},{"type":"Feature","geometry":{"coordinates":[[[106.83094201432145,-6.236636103153963],[106.83992516716265,-6.236636103153963],[106.83992516716265,-6.245625486275833],[106.83094201432145,-6.245625486275833],[106.83094201432145,-6.236636103153963]]],"type":"Polygon"},"properties":{"fid":496805,"ID_GRID":5074603,"INDEKS":0.3023508301605728,"STATUS":"CUKUP","ID_PROV":"31","PROVINSI":"DKI JAKARTA","ID_KABKOT":"31.74","KABKOT":"KOTA ADM. JAKARTA SELATAN","ID_KEC":"31.74.01","KECAMATAN":"TEBET","ID_DESA":"31.74.01.1003","DESA":"MENTENG DALAM"}},{"type":"Feature","geometry":{"coordinates":[[[106.83094201432145,-6.245625486275833],[106.83992516716265,-6.245625486275833],[106.83992516716265,-6.254614713005012],[106.83094201432145,-6.254614713005012],[106.83094201432145,-6.245625486275833]]],"type":"Polygon"},"properties":{"fid":496806,"ID_GRID":5074604,"INDEKS":0.25065943215906,"STATUS":"CUKUP","ID_PROV":"31","PROVINSI":"DKI JAKARTA","ID_KABKOT":"31.74","KABKOT":"KOTA ADM. JAKARTA SELATAN","ID_KEC":"31.74.08","KECAMATAN":"PANCORAN","ID_DESA":"31.74.08.1001","DESA":"PANCORAN"}},{"type":"Feature","geometry":{"coordinates":[[[106.83094201432145,-6.254614713005012],[106.83992516716265,-6.254614713005012],[106.83992516716265,-6.263603783120125],[106.83094201432145,-6.263603783120125],[106.83094201432145,-6.254614713005012]]],"type":"Polygon"},"properties":{"fid":496807,"ID_GRID":5074605,"INDEKS":0.29066943292258685,"STATUS":"CUKUP","ID_PROV":"31","PROVINSI":"DKI JAKARTA","ID_KABKOT":"31.74","KABKOT":"KOTA ADM. JAKARTA SELATAN","ID_KEC":"31.74.08","KECAMATAN":"PANCORAN","ID_DESA":"31.74.08.1004","DESA":"DUREN TIGA"}},{"type":"Feature","geometry":{"coordinates":[[[106.83094201432145,-6.263603783120125],[106.83992516716265,-6.263603783120125],[106.83992516716265,-6.27259269639983],[106.83094201432145,-6.27259269639983],[106.83094201432145,-6.263603783120125]]],"type":"Polygon"},"properties":{"fid":496808,"ID_GRID":5074606,"INDEKS":0.2879485006638389,"STATUS":"CUKUP","ID_PROV":"31","PROVINSI":"DKI JAKARTA","ID_KABKOT":"31.74","KABKOT":"KOTA ADM. JAKARTA SELATAN","ID_KEC":"31.74.04","KECAMATAN":"PASAR MINGGU","ID_DESA":"31.74.04.1006","DESA":"PEJATEN BARAT"}},{"type":"Feature","geometry":{"coordinates":[[[106.83094201432145,-6.27259269639983],[106.83992516716265,-6.27259269639983],[106.83992516716265,-6.281581452622801],[106.83094201432145,-6.281581452622801],[106.83094201432145,-6.27259269639983]]],"type":"Polygon"},"properties":{"fid":496809,"ID_GRID":5074607,"INDEKS":0.3096802732214383,"STATUS":"CUKUP","ID_PROV":"31","PROVINSI":"DKI JAKARTA","ID_KABKOT":"31.74","KABKOT":"KOTA ADM. JAKARTA SELATAN","ID_KEC":"31.74.04","KECAMATAN":"PASAR MINGGU","ID_DESA":"31.74.04.1006","DESA":"PEJATEN BARAT"}},{"type":"Feature","geometry":{"coordinates":[[[106.83094201432145,-6.281581452622801],[106.83992516716265,-6.281581452622801],[106.83992516716265,-6.290570051567724],[106.83094201432145,-6.290570051567724],[106.83094201432145,-6.281581452622801]]],"type":"Polygon"},"properties":{"fid":496810,"ID_GRID":5074608,"INDEKS":0.29089086286311905,"STATUS":"CUKUP","ID_PROV":"31","PROVINSI":"DKI JAKARTA","ID_KABKOT":"31.74","KABKOT":"KOTA ADM. JAKARTA SELATAN","ID_KEC":"31.74.04","KECAMATAN":"PASAR MINGGU","ID_DESA":"31.74.04.1002","DESA":"JATI PADANG"}},{"type":"Feature","geometry":{"coordinates":[[[106.83094201432145,-6.290570051567724],[106.83992516716265,-6.290570051567724],[106.83992516716265,-6.299558493013317],[106.83094201432145,-6.299558493013317],[106.83094201432145,-6.290570051567724]]],"type":"Polygon"},"properties":{"fid":496811,"ID_GRID":5074609,"INDEKS":0.3201312257139653,"STATUS":"CUKUP","ID_PROV":"31","PROVINSI":"DKI JAKARTA","ID_KABKOT":"31.74","KABKOT":"KOTA ADM. JAKARTA SELATAN","ID_KEC":"31.74.04","KECAMATAN":"PASAR MINGGU","ID_DESA":"31.74.04.1001","DESA":"PASAR MINGGU"}},{"type":"Feature","geometry":{"coordinates":[[[106.83094201432145,-6.299558493013317],[106.83992516716265,-6.299558493013317],[106.83992516716265,-6.308546776738313],[106.83094201432145,-6.308546776738313],[106.83094201432145,-6.299558493013317]]],"type":"Polygon"},"properties":{"fid":496812,"ID_GRID":5074610,"INDEKS":0.35798492224622763,"STATUS":"CUKUP","ID_PROV":"31","PROVINSI":"DKI JAKARTA","ID_KABKOT":"31.74","KABKOT":"KOTA ADM. JAKARTA SELATAN","ID_KEC":"31.74.04","KECAMATAN":"PASAR MINGGU","ID_DESA":"31.74.04.1007","DESA":"KEBAGUSAN"}},{"type":"Feature","geometry":{"coordinates":[[[106.83094201432145,-6.308546776738313],[106.83992516716265,-6.308546776738313],[106.83992516716265,-6.31753490252146],[106.83094201432145,-6.31753490252146],[106.83094201432145,-6.308546776738313]]],"type":"Polygon"},"properties":{"fid":496813,"ID_GRID":5074611,"INDEKS":0.3138992882826749,"STATUS":"CUKUP","ID_PROV":"31","PROVINSI":"DKI JAKARTA","ID_KABKOT":"31.74","KABKOT":"KOTA ADM. JAKARTA SELATAN","ID_KEC":"31.74.04","KECAMATAN":"PASAR MINGGU","ID_DESA":"31.74.04.1007","DESA":"KEBAGUSAN"}},{"type":"Feature","geometry":{"coordinates":[[[106.83094201432145,-6.31753490252146],[106.83992516716265,-6.31753490252146],[106.83992516716265,-6.326522870141535],[106.83094201432145,-6.326522870141535],[106.83094201432145,-6.31753490252146]]],"type":"Polygon"},"properties":{"fid":496814,"ID_GRID":5074612,"INDEKS":0.3452677260762061,"STATUS":"CUKUP","ID_PROV":"31","PROVINSI":"DKI JAKARTA","ID_KABKOT":"31.74","KABKOT":"KOTA ADM. JAKARTA SELATAN","ID_KEC":"31.74.09","KECAMATAN":"JAGAKARSA","ID_DESA":"31.74.09.1004","DESA":"LENTENG AGUNG"}},{"type":"Feature","geometry":{"coordinates":[[[106.83094201432145,-6.326522870141535],[106.83992516716265,-6.326522870141535],[106.83992516716265,-6.335510679377327],[106.83094201432145,-6.335510679377327],[106.83094201432145,-6.326522870141535]]],"type":"Polygon"},"properties":{"fid":496815,"ID_GRID":5074613,"INDEKS":0.3109953004382086,"STATUS":"CUKUP","ID_PROV":"31","PROVINSI":"DKI JAKARTA","ID_KABKOT":"31.74","KABKOT":"KOTA ADM. JAKARTA SELATAN","ID_KEC":"31.74.09","KECAMATAN":"JAGAKARSA","ID_DESA":"31.74.09.1004","DESA":"LENTENG AGUNG"}},{"type":"Feature","geometry":{"coordinates":[[[106.83094201432145,-6.335510679377327],[106.83992516716265,-6.335510679377327],[106.83992516716265,-6.344498330007653],[106.83094201432145,-6.344498330007653],[106.83094201432145,-6.335510679377327]]],"type":"Polygon"},"properties":{"fid":496816,"ID_GRID":5074614,"INDEKS":0.3596658798303196,"STATUS":"CUKUP","ID_PROV":"31","PROVINSI":"DKI JAKARTA","ID_KABKOT":"31.74","KABKOT":"KOTA ADM. JAKARTA SELATAN","ID_KEC":"31.74.09","KECAMATAN":"JAGAKARSA","ID_DESA":"31.74.09.1004","DESA":"LENTENG AGUNG"}},{"type":"Feature","geometry":{"coordinates":[[[106.83094201432145,-6.344498330007653],[106.83992516716265,-6.344498330007653],[106.83992516716265,-6.353485821811341],[106.83094201432145,-6.353485821811341],[106.83094201432145,-6.344498330007653]]],"type":"Polygon"},"properties":{"fid":496817,"ID_GRID":5074615,"INDEKS":0.388859403071519,"STATUS":"CUKUP","ID_PROV":"31","PROVINSI":"DKI JAKARTA","ID_KABKOT":"31.74","KABKOT":"KOTA ADM. JAKARTA SELATAN","ID_KEC":"31.74.09","KECAMATAN":"JAGAKARSA","ID_DESA":"31.74.09.1002","DESA":"SRENGSENG SAWAH"}},{"type":"Feature","geometry":{"coordinates":[[[106.83992516716265,-6.20966701764615],[106.84890832000384,-6.20966701764615],[106.84890832000384,-6.218656868617704],[106.83992516716265,-6.218656868617704],[106.83992516716265,-6.20966701764615]]],"type":"Polygon"},"properties":{"fid":496974,"ID_GRID":5077600,"INDEKS":0.2134807693564202,"STATUS":"CUKUP","ID_PROV":"31","PROVINSI":"DKI JAKARTA","ID_KABKOT":"31.74","KABKOT":"KOTA ADM. JAKARTA SELATAN","ID_KEC":"31.74.02","KECAMATAN":"SETIABUDI","ID_DESA":"31.74.02.1006","DESA":"PASAR MANGGIS"}},{"type":"Feature","geometry":{"coordinates":[[[106.83992516716265,-6.218656868617704],[106.84890832000384,-6.218656868617704],[106.84890832000384,-6.227646563860785],[106.83992516716265,-6.227646563860785],[106.83992516716265,-6.218656868617704]]],"type":"Polygon"},"properties":{"fid":496975,"ID_GRID":5077601,"INDEKS":0.27692670092225713,"STATUS":"CUKUP","ID_PROV":"31","PROVINSI":"DKI JAKARTA","ID_KABKOT":"31.74","KABKOT":"KOTA ADM. JAKARTA SELATAN","ID_KEC":"31.74.01","KECAMATAN":"TEBET","ID_DESA":"31.74.01.1003","DESA":"MENTENG DALAM"}},{"type":"Feature","geometry":{"coordinates":[[[106.83992516716265,-6.227646563860785],[106.84890832000384,-6.227646563860785],[106.84890832000384,-6.236636103153963],[106.83992516716265,-6.236636103153963],[106.83992516716265,-6.227646563860785]]],"type":"Polygon"},"properties":{"fid":496976,"ID_GRID":5077602,"INDEKS":0.2515983236449043,"STATUS":"CUKUP","ID_PROV":"31","PROVINSI":"DKI JAKARTA","ID_KABKOT":"31.74","KABKOT":"KOTA ADM. JAKARTA SELATAN","ID_KEC":"31.74.01","KECAMATAN":"TEBET","ID_DESA":"31.74.01.1003","DESA":"MENTENG DALAM"}},{"type":"Feature","geometry":{"coordinates":[[[106.83992516716265,-6.236636103153963],[106.84890832000384,-6.236636103153963],[106.84890832000384,-6.245625486275833],[106.83992516716265,-6.245625486275833],[106.83992516716265,-6.236636103153963]]],"type":"Polygon"},"properties":{"fid":496977,"ID_GRID":5077603,"INDEKS":0.27411892325972287,"STATUS":"CUKUP","ID_PROV":"31","PROVINSI":"DKI JAKARTA","ID_KABKOT":"31.74","KABKOT":"KOTA ADM. JAKARTA SELATAN","ID_KEC":"31.74.01","KECAMATAN":"TEBET","ID_DESA":"31.74.01.1003","DESA":"MENTENG DALAM"}},{"type":"Feature","geometry":{"coordinates":[[[106.83992516716265,-6.245625486275833],[106.84890832000384,-6.245625486275833],[106.84890832000384,-6.254614713005012],[106.83992516716265,-6.254614713005012],[106.83992516716265,-6.245625486275833]]],"type":"Polygon"},"properties":{"fid":496978,"ID_GRID":5077604,"INDEKS":0.30464370936527185,"STATUS":"CUKUP","ID_PROV":"31","PROVINSI":"DKI JAKARTA","ID_KABKOT":"31.74","KABKOT":"KOTA ADM. JAKARTA SELATAN","ID_KEC":"31.74.08","KECAMATAN":"PANCORAN","ID_DESA":"31.74.08.1001","DESA":"PANCORAN"}},{"type":"Feature","geometry":{"coordinates":[[[106.83992516716265,-6.254614713005012],[106.84890832000384,-6.254614713005012],[106.84890832000384,-6.263603783120125],[106.83992516716265,-6.263603783120125],[106.83992516716265,-6.254614713005012]]],"type":"Polygon"},"properties":{"fid":496979,"ID_GRID":5077605,"INDEKS":0.3112849689424859,"STATUS":"CUKUP","ID_PROV":"31","PROVINSI":"DKI JAKARTA","ID_KABKOT":"31.74","KABKOT":"KOTA ADM. JAKARTA SELATAN","ID_KEC":"31.74.08","KECAMATAN":"PANCORAN","ID_DESA":"31.74.08.1002","DESA":"KALIBATA"}},{"type":"Feature","geometry":{"coordinates":[[[106.83992516716265,-6.263603783120125],[106.84890832000384,-6.263603783120125],[106.84890832000384,-6.27259269639983],[106.83992516716265,-6.27259269639983],[106.83992516716265,-6.263603783120125]]],"type":"Polygon"},"properties":{"fid":496980,"ID_GRID":5077606,"INDEKS":0.2664407756046159,"STATUS":"CUKUP","ID_PROV":"31","PROVINSI":"DKI JAKARTA","ID_KABKOT":"31.74","KABKOT":"KOTA ADM. JAKARTA SELATAN","ID_KEC":"31.74.04","KECAMATAN":"PASAR MINGGU","ID_DESA":"31.74.04.1006","DESA":"PEJATEN BARAT"}},{"type":"Feature","geometry":{"coordinates":[[[106.83992516716265,-6.27259269639983],[106.84890832000384,-6.27259269639983],[106.84890832000384,-6.281581452622801],[106.83992516716265,-6.281581452622801],[106.83992516716265,-6.27259269639983]]],"type":"Polygon"},"properties":{"fid":496981,"ID_GRID":5077607,"INDEKS":0.2971403768780822,"STATUS":"CUKUP","ID_PROV":"31","PROVINSI":"DKI JAKARTA","ID_KABKOT":"31.74","KABKOT":"KOTA ADM. JAKARTA SELATAN","ID_KEC":"31.74.04","KECAMATAN":"PASAR MINGGU","ID_DESA":"31.74.04.1006","DESA":"PEJATEN BARAT"}},{"type":"Feature","geometry":{"coordinates":[[[106.83992516716265,-6.281581452622801],[106.84890832000384,-6.281581452622801],[106.84890832000384,-6.290570051567724],[106.83992516716265,-6.290570051567724],[106.83992516716265,-6.281581452622801]]],"type":"Polygon"},"properties":{"fid":496982,"ID_GRID":5077608,"INDEKS":0.2853091300300111,"STATUS":"CUKUP","ID_PROV":"31","PROVINSI":"DKI JAKARTA","ID_KABKOT":"31.74","KABKOT":"KOTA ADM. JAKARTA SELATAN","ID_KEC":"31.74.04","KECAMATAN":"PASAR MINGGU","ID_DESA":"31.74.04.1005","DESA":"PEJATEN TIMUR"}},{"type":"Feature","geometry":{"coordinates":[[[106.83992516716265,-6.290570051567724],[106.84890832000384,-6.290570051567724],[106.84890832000384,-6.299558493013317],[106.83992516716265,-6.299558493013317],[106.83992516716265,-6.290570051567724]]],"type":"Polygon"},"properties":{"fid":496983,"ID_GRID":5077609,"INDEKS":0.2680513546541265,"STATUS":"CUKUP","ID_PROV":"31","PROVINSI":"DKI JAKARTA","ID_KABKOT":"31.74","KABKOT":"KOTA ADM. JAKARTA SELATAN","ID_KEC":"31.74.04","KECAMATAN":"PASAR MINGGU","ID_DESA":"31.74.04.1005","DESA":"PEJATEN TIMUR"}},{"type":"Feature","geometry":{"coordinates":[[[106.83992516716265,-6.299558493013317],[106.84890832000384,-6.299558493013317],[106.84890832000384,-6.308546776738313],[106.83992516716265,-6.308546776738313],[106.83992516716265,-6.299558493013317]]],"type":"Polygon"},"properties":{"fid":496984,"ID_GRID":5077610,"INDEKS":0.31559073141445665,"STATUS":"CUKUP","ID_PROV":"31","PROVINSI":"DKI JAKARTA","ID_KABKOT":"31.74","KABKOT":"KOTA ADM. JAKARTA SELATAN","ID_KEC":"31.74.09","KECAMATAN":"JAGAKARSA","ID_DESA":"31.74.09.1005","DESA":"TANJUNG BARAT"}},{"type":"Feature","geometry":{"coordinates":[[[106.83992516716265,-6.308546776738313],[106.84890832000384,-6.308546776738313],[106.84890832000384,-6.31753490252146],[106.83992516716265,-6.31753490252146],[106.83992516716265,-6.308546776738313]]],"type":"Polygon"},"properties":{"fid":496985,"ID_GRID":5077611,"INDEKS":0.3513333526661464,"STATUS":"CUKUP","ID_PROV":"31","PROVINSI":"DKI JAKARTA","ID_KABKOT":"31.74","KABKOT":"KOTA ADM. JAKARTA SELATAN","ID_KEC":"31.74.09","KECAMATAN":"JAGAKARSA","ID_DESA":"31.74.09.1005","DESA":"TANJUNG BARAT"}},{"type":"Feature","geometry":{"coordinates":[[[106.84890832000384,-6.20966701764615],[106.85789147284504,-6.20966701764615],[106.85789147284504,-6.218656868617704],[106.84890832000384,-6.218656868617704],[106.84890832000384,-6.20966701764615]]],"type":"Polygon"},"properties":{"fid":497141,"ID_GRID":5080600,"INDEKS":0.2642580009825849,"STATUS":"CUKUP","ID_PROV":"31","PROVINSI":"DKI JAKARTA","ID_KABKOT":"31.74","KABKOT":"KOTA ADM. JAKARTA SELATAN","ID_KEC":"31.74.01","KECAMATAN":"TEBET","ID_DESA":"31.74.01.1007","DESA":"MANGGARAI"}},{"type":"Feature","geometry":{"coordinates":[[[106.84890832000384,-6.218656868617704],[106.85789147284504,-6.218656868617704],[106.85789147284504,-6.227646563860785],[106.84890832000384,-6.227646563860785],[106.84890832000384,-6.218656868617704]]],"type":"Polygon"},"properties":{"fid":497142,"ID_GRID":5080601,"INDEKS":0.21714938184953628,"STATUS":"CUKUP","ID_PROV":"31","PROVINSI":"DKI JAKARTA","ID_KABKOT":"31.74","KABKOT":"KOTA ADM. JAKARTA SELATAN","ID_KEC":"31.74.01","KECAMATAN":"TEBET","ID_DESA":"31.74.01.1005","DESA":"BUKIT DURI"}},{"type":"Feature","geometry":{"coordinates":[[[106.84890832000384,-6.227646563860785],[106.85789147284504,-6.227646563860785],[106.85789147284504,-6.236636103153963],[106.84890832000384,-6.236636103153963],[106.84890832000384,-6.227646563860785]]],"type":"Polygon"},"properties":{"fid":497143,"ID_GRID":5080602,"INDEKS":0.24427626419494303,"STATUS":"CUKUP","ID_PROV":"31","PROVINSI":"DKI JAKARTA","ID_KABKOT":"31.74","KABKOT":"KOTA ADM. JAKARTA SELATAN","ID_KEC":"31.74.01","KECAMATAN":"TEBET","ID_DESA":"31.74.01.1001","DESA":"TEBET TIMUR"}},{"type":"Feature","geometry":{"coordinates":[[[106.84890832000384,-6.236636103153963],[106.85789147284504,-6.236636103153963],[106.85789147284504,-6.245625486275833],[106.84890832000384,-6.245625486275833],[106.84890832000384,-6.236636103153963]]],"type":"Polygon"},"properties":{"fid":497144,"ID_GRID":5080603,"INDEKS":0.2685964468343199,"STATUS":"CUKUP","ID_PROV":"31","PROVINSI":"DKI JAKARTA","ID_KABKOT":"31.74","KABKOT":"KOTA ADM. JAKARTA SELATAN","ID_KEC":"31.74.01","KECAMATAN":"TEBET","ID_DESA":"31.74.01.1001","DESA":"TEBET TIMUR"}},{"type":"Feature","geometry":{"coordinates":[[[106.84890832000384,-6.245625486275833],[106.85789147284504,-6.245625486275833],[106.85789147284504,-6.254614713005012],[106.84890832000384,-6.254614713005012],[106.84890832000384,-6.245625486275833]]],"type":"Polygon"},"properties":{"fid":497145,"ID_GRID":5080604,"INDEKS":0.2920987453451131,"STATUS":"CUKUP","ID_PROV":"31","PROVINSI":"DKI JAKARTA","ID_KABKOT":"31.74","KABKOT":"KOTA ADM. JAKARTA SELATAN","ID_KEC":"31.74.08","KECAMATAN":"PANCORAN","ID_DESA":"31.74.08.1005","DESA":"PENGADEGAN"}},{"type":"Feature","geometry":{"coordinates":[[[106.84890832000384,-6.254614713005012],[106.85789147284504,-6.254614713005012],[106.85789147284504,-6.263603783120125],[106.84890832000384,-6.263603783120125],[106.84890832000384,-6.254614713005012]]],"type":"Polygon"},"properties":{"fid":497146,"ID_GRID":5080605,"INDEKS":0.30702480062144516,"STATUS":"CUKUP","ID_PROV":"31","PROVINSI":"DKI JAKARTA","ID_KABKOT":"31.74","KABKOT":"KOTA ADM. JAKARTA SELATAN","ID_KEC":"31.74.08","KECAMATAN":"PANCORAN","ID_DESA":"31.74.08.1003","DESA":"RAWAJATI"}},{"type":"Feature","geometry":{"coordinates":[[[106.84890832000384,-6.263603783120125],[106.85789147284504,-6.263603783120125],[106.85789147284504,-6.27259269639983],[106.84890832000384,-6.27259269639983],[106.84890832000384,-6.263603783120125]]],"type":"Polygon"},"properties":{"fid":497147,"ID_GRID":5080606,"INDEKS":0.3452597655650122,"STATUS":"CUKUP","ID_PROV":"31","PROVINSI":"DKI JAKARTA","ID_KABKOT":"31.74","KABKOT":"KOTA ADM. JAKARTA SELATAN","ID_KEC":"31.74.04","KECAMATAN":"PASAR MINGGU","ID_DESA":"31.74.04.1005","DESA":"PEJATEN TIMUR"}},{"type":"Feature","geometry":{"coordinates":[[[106.84890832000384,-6.299558493013317],[106.85789147284504,-6.299558493013317],[106.85789147284504,-6.308546776738313],[106.84890832000384,-6.308546776738313],[106.84890832000384,-6.299558493013317]]],"type":"Polygon"},"properties":{"fid":497151,"ID_GRID":5080610,"INDEKS":0.3525482490924378,"STATUS":"CUKUP","ID_PROV":"31","PROVINSI":"DKI JAKARTA","ID_KABKOT":"31.74","KABKOT":"KOTA ADM. JAKARTA SELATAN","ID_KEC":"31.74.09","KECAMATAN":"JAGAKARSA","ID_DESA":"31.74.09.1005","DESA":"TANJUNG BARAT"}},{"type":"Feature","geometry":{"coordinates":[[[106.84890832000384,-6.308546776738313],[106.85789147284504,-6.308546776738313],[106.85789147284504,-6.31753490252146],[106.84890832000384,-6.31753490252146],[106.84890832000384,-6.308546776738313]]],"type":"Polygon"},"properties":{"fid":497152,"ID_GRID":5080611,"INDEKS":0.4001646519008309,"STATUS":"SEDANG","ID_PROV":"31","PROVINSI":"DKI JAKARTA","ID_KABKOT":"31.74","KABKOT":"KOTA ADM. JAKARTA SELATAN","ID_KEC":"31.74.09","KECAMATAN":"JAGAKARSA","ID_DESA":"31.74.09.1005","DESA":"TANJUNG BARAT"}},{"type":"Feature","geometry":{"coordinates":[[[106.85789147284504,-6.218656868617704],[106.86687462568622,-6.218656868617704],[106.86687462568622,-6.227646563860785],[106.85789147284504,-6.227646563860785],[106.85789147284504,-6.218656868617704]]],"type":"Polygon"},"properties":{"fid":497305,"ID_GRID":5083601,"INDEKS":0.2183324985889312,"STATUS":"CUKUP","ID_PROV":"31","PROVINSI":"DKI JAKARTA","ID_KABKOT":"31.74","KABKOT":"KOTA ADM. JAKARTA SELATAN","ID_KEC":"31.74.01","KECAMATAN":"TEBET","ID_DESA":"31.74.01.1005","DESA":"BUKIT DURI"}},{"type":"Feature","geometry":{"coordinates":[[[106.85789147284504,-6.227646563860785],[106.86687462568622,-6.227646563860785],[106.86687462568622,-6.236636103153963],[106.85789147284504,-6.236636103153963],[106.85789147284504,-6.227646563860785]]],"type":"Polygon"},"properties":{"fid":497306,"ID_GRID":5083602,"INDEKS":0.2274145547519712,"STATUS":"CUKUP","ID_PROV":"31","PROVINSI":"DKI JAKARTA","ID_KABKOT":"31.74","KABKOT":"KOTA ADM. JAKARTA SELATAN","ID_KEC":"31.74.01","KECAMATAN":"TEBET","ID_DESA":"31.74.01.1004","DESA":"KEBON BARU"}},{"type":"Feature","geometry":{"coordinates":[[[106.85789147284504,-6.236636103153963],[106.86687462568622,-6.236636103153963],[106.86687462568622,-6.245625486275833],[106.85789147284504,-6.245625486275833],[106.85789147284504,-6.236636103153963]]],"type":"Polygon"},"properties":{"fid":497307,"ID_GRID":5083603,"INDEKS":0.2703262352635304,"STATUS":"CUKUP","ID_PROV":"31","PROVINSI":"DKI JAKARTA","ID_KABKOT":"31.74","KABKOT":"KOTA ADM. JAKARTA SELATAN","ID_KEC":"31.74.01","KECAMATAN":"TEBET","ID_DESA":"31.74.01.1004","DESA":"KEBON BARU"}}]}