{"type":"FeatureCollection","features":[{"type":"Feature","geometry":{"coordinates":[[[106.7321273330683,-6.551170010967593],[106.7411104859095,-6.551170010967593],[106.7411104859095,-6.5601537887632],[106.7321273330683,-6.5601537887632],[106.7321273330683,-6.551170010967593]]],"type":"Polygon"},"properties":{"fid":494961,"ID_GRID":5041638,"INDEKS":0.4321216896682622,"STATUS":"SEDANG","ID_PROV":"32","PROVINSI":"JAWA BARAT","ID_KABKOT":"32.71","KABKOT":"KOTA BOGOR","ID_KEC":"32.71.04","KECAMATAN":"BOGOR BARAT","ID_DESA":"32.71.04.1005","DESA":"BALUMBANG JAYA"}},{"type":"Feature","geometry":{"coordinates":[[[106.7321273330683,-6.5601537887632],[106.7411104859095,-6.5601537887632],[106.7411104859095,-6.569137402430269],[106.7321273330683,-6.569137402430269],[106.7321273330683,-6.5601537887632]]],"type":"Polygon"},"properties":{"fid":494962,"ID_GRID":5041639,"INDEKS":0.4171588828724123,"STATUS":"SEDANG","ID_PROV":"32","PROVINSI":"JAWA BARAT","ID_KABKOT":"32.71","KABKOT":"KOTA BOGOR","ID_KEC":"32.71.04","KECAMATAN":"BOGOR BARAT","ID_DESA":"32.71.04.1005","DESA":"BALUMBANG JAYA"}},{"type":"Feature","geometry":{"coordinates":[[[106.7411104859095,-6.54218606926412],[106.7500936387507,-6.54218606926412],[106.7500936387507,-6.551170010967593],[106.7411104859095,-6.551170010967593],[106.7411104859095,-6.54218606926412]]],"type":"Polygon"},"properties":{"fid":495138,"ID_GRID":5044637,"INDEKS":0.47267594843199756,"STATUS":"SEDANG","ID_PROV":"32","PROVINSI":"JAWA BARAT","ID_KABKOT":"32.71","KABKOT":"KOTA BOGOR","ID_KEC":"32.71.04","KECAMATAN":"BOGOR BARAT","ID_DESA":"32.71.04.1006","DESA":"SITU GEDE"}},{"type":"Feature","geometry":{"coordinates":[[[106.7411104859095,-6.551170010967593],[106.7500936387507,-6.551170010967593],[106.7500936387507,-6.5601537887632],[106.7411104859095,-6.5601537887632],[106.7411104859095,-6.551170010967593]]],"type":"Polygon"},"properties":{"fid":495139,"ID_GRID":5044638,"INDEKS":0.4054654569829463,"STATUS":"SEDANG","ID_PROV":"32","PROVINSI":"JAWA BARAT","ID_KABKOT":"32.71","KABKOT":"KOTA BOGOR","ID_KEC":"32.71.04","KECAMATAN":"BOGOR BARAT","ID_DESA":"32.71.04.1006","DESA":"SITU GEDE"}},{"type":"Feature","geometry":{"coordinates":[[[106.7411104859095,-6.5601537887632],[106.7500936387507,-6.5601537887632],[106.7500936387507,-6.569137402430269],[106.7411104859095,-6.569137402430269],[106.7411104859095,-6.5601537887632]]],"type":"Polygon"},"properties":{"fid":495140,"ID_GRID":5044639,"INDEKS":0.44032659418814535,"STATUS":"SEDANG","ID_PROV":"32","PROVINSI":"JAWA BARAT","ID_KABKOT":"32.71","KABKOT":"KOTA BOGOR","ID_KEC":"32.71.04","KECAMATAN":"BOGOR BARAT","ID_DESA":"32.71.04.1004","DESA":"MARGA JAYA"}},{"type":"Feature","geometry":{"coordinates":[[[106.7411104859095,-6.569137402430269],[106.7500936387507,-6.569137402430269],[106.7500936387507,-6.578120851748139],[106.7411104859095,-6.578120851748139],[106.7411104859095,-6.569137402430269]]],"type":"Polygon"},"properties":{"fid":495141,"ID_GRID":5044640,"INDEKS":0.37943456657880814,"STATUS":"CUKUP","ID_PROV":"32","PROVINSI":"JAWA BARAT","ID_KABKOT":"32.71","KABKOT":"KOTA BOGOR","ID_KEC":"32.71.04","KECAMATAN":"BOGOR BARAT","ID_DESA":"32.71.04.1004","DESA":"MARGA JAYA"}},{"type":"Feature","geometry":{"coordinates":[[[106.7500936387507,-6.551170010967593],[106.75907679159188,-6.551170010967593],[106.75907679159188,-6.5601537887632],[106.7500936387507,-6.5601537887632],[106.7500936387507,-6.551170010967593]]],"type":"Polygon"},"properties":{"fid":495308,"ID_GRID":5047638,"INDEKS":0.48293277019644804,"STATUS":"SEDANG","ID_PROV":"32","PROVINSI":"JAWA BARAT","ID_KABKOT":"32.71","KABKOT":"KOTA BOGOR","ID_KEC":"32.71.04","KECAMATAN":"BOGOR BARAT","ID_DESA":"32.71.04.1003","DESA":"BUBULAK"}},{"type":"Feature","geometry":{"coordinates":[[[106.7500936387507,-6.5601537887632],[106.75907679159188,-6.5601537887632],[106.75907679159188,-6.569137402430269],[106.7500936387507,-6.569137402430269],[106.7500936387507,-6.5601537887632]]],"type":"Polygon"},"properties":{"fid":495309,"ID_GRID":5047639,"INDEKS":0.3869907084375517,"STATUS":"CUKUP","ID_PROV":"32","PROVINSI":"JAWA BARAT","ID_KABKOT":"32.71","KABKOT":"KOTA BOGOR","ID_KEC":"32.71.04","KECAMATAN":"BOGOR BARAT","ID_DESA":"32.71.04.1003","DESA":"BUBULAK"}},{"type":"Feature","geometry":{"coordinates":[[[106.7500936387507,-6.569137402430269],[106.75907679159188,-6.569137402430269],[106.75907679159188,-6.578120851748139],[106.7500936387507,-6.578120851748139],[106.7500936387507,-6.569137402430269]]],"type":"Polygon"},"properties":{"fid":495310,"ID_GRID":5047640,"INDEKS":0.34405181910211813,"STATUS":"CUKUP","ID_PROV":"32","PROVINSI":"JAWA BARAT","ID_KABKOT":"32.71","KABKOT":"KOTA BOGOR","ID_KEC":"32.71.04","KECAMATAN":"BOGOR BARAT","ID_DESA":"32.71.04.1002","DESA":"SINDANG BARANG"}},{"type":"Feature","geometry":{"coordinates":[[[106.75907679159188,-6.54218606926412],[106.76805994443308,-6.54218606926412],[106.76805994443308,-6.551170010967593],[106.75907679159188,-6.551170010967593],[106.75907679159188,-6.54218606926412]]],"type":"Polygon"},"properties":{"fid":495477,"ID_GRID":5050637,"INDEKS":0.39938652100806066,"STATUS":"CUKUP","ID_PROV":"32","PROVINSI":"JAWA BARAT","ID_KABKOT":"32.71","KABKOT":"KOTA BOGOR","ID_KEC":"32.71.04","KECAMATAN":"BOGOR BARAT","ID_DESA":"32.71.04.1011","DESA":"CURUG"}},{"type":"Feature","geometry":{"coordinates":[[[106.75907679159188,-6.551170010967593],[106.76805994443308,-6.551170010967593],[106.76805994443308,-6.5601537887632],[106.75907679159188,-6.5601537887632],[106.75907679159188,-6.551170010967593]]],"type":"Polygon"},"properties":{"fid":495478,"ID_GRID":5050638,"INDEKS":0.3406420512906557,"STATUS":"CUKUP","ID_PROV":"32","PROVINSI":"JAWA BARAT","ID_KABKOT":"32.71","KABKOT":"KOTA BOGOR","ID_KEC":"32.71.04","KECAMATAN":"BOGOR BARAT","ID_DESA":"32.71.04.1007","DESA":"SEMPLAK"}},{"type":"Feature","geometry":{"coordinates":[[[106.75907679159188,-6.5601537887632],[106.76805994443308,-6.5601537887632],[106.76805994443308,-6.569137402430269],[106.75907679159188,-6.569137402430269],[106.75907679159188,-6.5601537887632]]],"type":"Polygon"},"properties":{"fid":495479,"ID_GRID":5050639,"INDEKS":0.378509403935197,"STATUS":"CUKUP","ID_PROV":"32","PROVINSI":"JAWA BARAT","ID_KABKOT":"32.71","KABKOT":"KOTA BOGOR","ID_KEC":"32.71.04","KECAMATAN":"BOGOR BARAT","ID_DESA":"32.71.04.1008","DESA":"CILENDEK BARAT"}},{"type":"Feature","geometry":{"coordinates":[[[106.75907679159188,-6.569137402430269],[106.76805994443308,-6.569137402430269],[106.76805994443308,-6.578120851748139],[106.75907679159188,-6.578120851748139],[106.75907679159188,-6.569137402430269]]],"type":"Polygon"},"properties":{"fid":495480,"ID_GRID":5050640,"INDEKS":0.41802185630174377,"STATUS":"SEDANG","ID_PROV":"32","PROVINSI":"JAWA BARAT","ID_KABKOT":"32.71","KABKOT":"KOTA BOGOR","ID_KEC":"32.71.04","KECAMATAN":"BOGOR BARAT","ID_DESA":"32.71.04.1002","DESA":"SINDANG BARANG"}},{"type":"Feature","geometry":{"coordinates":[[[106.75907679159188,-6.578120851748139],[106.76805994443308,-6.578120851748139],[106.76805994443308,-6.587104136496179],[106.75907679159188,-6.587104136496179],[106.75907679159188,-6.578120851748139]]],"type":"Polygon"},"properties":{"fid":495481,"ID_GRID":5050641,"INDEKS":0.35145876410907295,"STATUS":"CUKUP","ID_PROV":"32","PROVINSI":"JAWA BARAT","ID_KABKOT":"32.71","KABKOT":"KOTA BOGOR","ID_KEC":"32.71.04","KECAMATAN":"BOGOR BARAT","ID_DESA":"32.71.04.1002","DESA":"SINDANG BARANG"}},{"type":"Feature","geometry":{"coordinates":[[[106.76805994443308,-6.515233262913579],[106.77704309727427,-6.515233262913579],[106.77704309727427,-6.524217695016383],[106.76805994443308,-6.524217695016383],[106.76805994443308,-6.515233262913579]]],"type":"Polygon"},"properties":{"fid":495644,"ID_GRID":5053634,"INDEKS":0.42156818944232194,"STATUS":"SEDANG","ID_PROV":"32","PROVINSI":"JAWA BARAT","ID_KABKOT":"32.71","KABKOT":"KOTA BOGOR","ID_KEC":"32.71.06","KECAMATAN":"TANAH SAREAL","ID_DESA":"32.71.06.1010","DESA":"KAYU MANIS"}},{"type":"Feature","geometry":{"coordinates":[[[106.76805994443308,-6.524217695016383],[106.77704309727427,-6.524217695016383],[106.77704309727427,-6.533201963873478],[106.76805994443308,-6.533201963873478],[106.76805994443308,-6.524217695016383]]],"type":"Polygon"},"properties":{"fid":495645,"ID_GRID":5053635,"INDEKS":0.464796893798068,"STATUS":"SEDANG","ID_PROV":"32","PROVINSI":"JAWA BARAT","ID_KABKOT":"32.71","KABKOT":"KOTA BOGOR","ID_KEC":"32.71.06","KECAMATAN":"TANAH SAREAL","ID_DESA":"32.71.06.1010","DESA":"KAYU MANIS"}},{"type":"Feature","geometry":{"coordinates":[[[106.76805994443308,-6.533201963873478],[106.77704309727427,-6.533201963873478],[106.77704309727427,-6.54218606926412],[106.76805994443308,-6.54218606926412],[106.76805994443308,-6.533201963873478]]],"type":"Polygon"},"properties":{"fid":495646,"ID_GRID":5053636,"INDEKS":0.39264791429627177,"STATUS":"CUKUP","ID_PROV":"32","PROVINSI":"JAWA BARAT","ID_KABKOT":"32.71","KABKOT":"KOTA BOGOR","ID_KEC":"32.71.06","KECAMATAN":"TANAH SAREAL","ID_DESA":"32.71.06.1011","DESA":"CIBADAK"}},{"type":"Feature","geometry":{"coordinates":[[[106.76805994443308,-6.54218606926412],[106.77704309727427,-6.54218606926412],[106.77704309727427,-6.551170010967593],[106.76805994443308,-6.551170010967593],[106.76805994443308,-6.54218606926412]]],"type":"Polygon"},"properties":{"fid":495647,"ID_GRID":5053637,"INDEKS":0.39693191547641193,"STATUS":"CUKUP","ID_PROV":"32","PROVINSI":"JAWA BARAT","ID_KABKOT":"32.71","KABKOT":"KOTA BOGOR","ID_KEC":"32.71.06","KECAMATAN":"TANAH SAREAL","ID_DESA":"32.71.06.1011","DESA":"CIBADAK"}},{"type":"Feature","geometry":{"coordinates":[[[106.76805994443308,-6.551170010967593],[106.77704309727427,-6.551170010967593],[106.77704309727427,-6.5601537887632],[106.76805994443308,-6.5601537887632],[106.76805994443308,-6.551170010967593]]],"type":"Polygon"},"properties":{"fid":495648,"ID_GRID":5053638,"INDEKS":0.3422013203604053,"STATUS":"CUKUP","ID_PROV":"32","PROVINSI":"JAWA BARAT","ID_KABKOT":"32.71","KABKOT":"KOTA BOGOR","ID_KEC":"32.71.04","KECAMATAN":"BOGOR BARAT","ID_DESA":"32.71.04.1010","DESA":"CURUG MEKAR"}},{"type":"Feature","geometry":{"coordinates":[[[106.76805994443308,-6.5601537887632],[106.77704309727427,-6.5601537887632],[106.77704309727427,-6.569137402430269],[106.76805994443308,-6.569137402430269],[106.76805994443308,-6.5601537887632]]],"type":"Polygon"},"properties":{"fid":495649,"ID_GRID":5053639,"INDEKS":0.30874090046753006,"STATUS":"CUKUP","ID_PROV":"32","PROVINSI":"JAWA BARAT","ID_KABKOT":"32.71","KABKOT":"KOTA BOGOR","ID_KEC":"32.71.04","KECAMATAN":"BOGOR BARAT","ID_DESA":"32.71.04.1009","DESA":"CILENDEK TIMUR"}},{"type":"Feature","geometry":{"coordinates":[[[106.76805994443308,-6.569137402430269],[106.77704309727427,-6.569137402430269],[106.77704309727427,-6.578120851748139],[106.76805994443308,-6.578120851748139],[106.76805994443308,-6.569137402430269]]],"type":"Polygon"},"properties":{"fid":495650,"ID_GRID":5053640,"INDEKS":0.3085003989458741,"STATUS":"CUKUP","ID_PROV":"32","PROVINSI":"JAWA BARAT","ID_KABKOT":"32.71","KABKOT":"KOTA BOGOR","ID_KEC":"32.71.04","KECAMATAN":"BOGOR BARAT","ID_DESA":"32.71.04.1008","DESA":"CILENDEK BARAT"}},{"type":"Feature","geometry":{"coordinates":[[[106.76805994443308,-6.578120851748139],[106.77704309727427,-6.578120851748139],[106.77704309727427,-6.587104136496179],[106.76805994443308,-6.587104136496179],[106.76805994443308,-6.578120851748139]]],"type":"Polygon"},"properties":{"fid":495651,"ID_GRID":5053641,"INDEKS":0.36596012322097005,"STATUS":"CUKUP","ID_PROV":"32","PROVINSI":"JAWA BARAT","ID_KABKOT":"32.71","KABKOT":"KOTA BOGOR","ID_KEC":"32.71.04","KECAMATAN":"BOGOR BARAT","ID_DESA":"32.71.04.1016","DESA":"LOJI"}},{"type":"Feature","geometry":{"coordinates":[[[106.76805994443308,-6.587104136496179],[106.77704309727427,-6.587104136496179],[106.77704309727427,-6.596087256453773],[106.76805994443308,-6.596087256453773],[106.76805994443308,-6.587104136496179]]],"type":"Polygon"},"properties":{"fid":495652,"ID_GRID":5053642,"INDEKS":0.3680705089991955,"STATUS":"CUKUP","ID_PROV":"32","PROVINSI":"JAWA BARAT","ID_KABKOT":"32.71","KABKOT":"KOTA BOGOR","ID_KEC":"32.71.04","KECAMATAN":"BOGOR BARAT","ID_DESA":"32.71.04.1015","DESA":"GUNUNG BATU"}},{"type":"Feature","geometry":{"coordinates":[[[106.76805994443308,-6.596087256453773],[106.77704309727427,-6.596087256453773],[106.77704309727427,-6.60507021140033],[106.76805994443308,-6.60507021140033],[106.76805994443308,-6.596087256453773]]],"type":"Polygon"},"properties":{"fid":495653,"ID_GRID":5053643,"INDEKS":0.32116931477087807,"STATUS":"CUKUP","ID_PROV":"32","PROVINSI":"JAWA BARAT","ID_KABKOT":"32.71","KABKOT":"KOTA BOGOR","ID_KEC":"32.71.04","KECAMATAN":"BOGOR BARAT","ID_DESA":"32.71.04.1014","DESA":"PASIR MULYA"}},{"type":"Feature","geometry":{"coordinates":[[[106.77704309727427,-6.515233262913579],[106.78602625011547,-6.515233262913579],[106.78602625011547,-6.524217695016383],[106.77704309727427,-6.524217695016383],[106.77704309727427,-6.515233262913579]]],"type":"Polygon"},"properties":{"fid":495815,"ID_GRID":5056634,"INDEKS":0.4524235526853492,"STATUS":"SEDANG","ID_PROV":"32","PROVINSI":"JAWA BARAT","ID_KABKOT":"32.71","KABKOT":"KOTA BOGOR","ID_KEC":"32.71.06","KECAMATAN":"TANAH SAREAL","ID_DESA":"32.71.06.1008","DESA":"MEKAR WANGI"}},{"type":"Feature","geometry":{"coordinates":[[[106.77704309727427,-6.524217695016383],[106.78602625011547,-6.524217695016383],[106.78602625011547,-6.533201963873478],[106.77704309727427,-6.533201963873478],[106.77704309727427,-6.524217695016383]]],"type":"Polygon"},"properties":{"fid":495816,"ID_GRID":5056635,"INDEKS":0.4415452846204746,"STATUS":"SEDANG","ID_PROV":"32","PROVINSI":"JAWA BARAT","ID_KABKOT":"32.71","KABKOT":"KOTA BOGOR","ID_KEC":"32.71.06","KECAMATAN":"TANAH SAREAL","ID_DESA":"32.71.06.1008","DESA":"MEKAR WANGI"}},{"type":"Feature","geometry":{"coordinates":[[[106.77704309727427,-6.533201963873478],[106.78602625011547,-6.533201963873478],[106.78602625011547,-6.54218606926412],[106.77704309727427,-6.54218606926412],[106.77704309727427,-6.533201963873478]]],"type":"Polygon"},"properties":{"fid":495817,"ID_GRID":5056636,"INDEKS":0.318227343312803,"STATUS":"CUKUP","ID_PROV":"32","PROVINSI":"JAWA BARAT","ID_KABKOT":"32.71","KABKOT":"KOTA BOGOR","ID_KEC":"32.71.06","KECAMATAN":"TANAH SAREAL","ID_DESA":"32.71.06.1008","DESA":"MEKAR WANGI"}},{"type":"Feature","geometry":{"coordinates":[[[106.77704309727427,-6.54218606926412],[106.78602625011547,-6.54218606926412],[106.78602625011547,-6.551170010967593],[106.77704309727427,-6.551170010967593],[106.77704309727427,-6.54218606926412]]],"type":"Polygon"},"properties":{"fid":495818,"ID_GRID":5056637,"INDEKS":0.34277146955065546,"STATUS":"CUKUP","ID_PROV":"32","PROVINSI":"JAWA BARAT","ID_KABKOT":"32.71","KABKOT":"KOTA BOGOR","ID_KEC":"32.71.06","KECAMATAN":"TANAH SAREAL","ID_DESA":"32.71.06.1011","DESA":"CIBADAK"}},{"type":"Feature","geometry":{"coordinates":[[[106.77704309727427,-6.551170010967593],[106.78602625011547,-6.551170010967593],[106.78602625011547,-6.5601537887632],[106.77704309727427,-6.5601537887632],[106.77704309727427,-6.551170010967593]]],"type":"Polygon"},"properties":{"fid":495819,"ID_GRID":5056638,"INDEKS":0.3235205437410324,"STATUS":"CUKUP","ID_PROV":"32","PROVINSI":"JAWA BARAT","ID_KABKOT":"32.71","KABKOT":"KOTA BOGOR","ID_KEC":"32.71.06","KECAMATAN":"TANAH SAREAL","ID_DESA":"32.71.06.1011","DESA":"CIBADAK"}},{"type":"Feature","geometry":{"coordinates":[[[106.77704309727427,-6.5601537887632],[106.78602625011547,-6.5601537887632],[106.78602625011547,-6.569137402430269],[106.77704309727427,-6.569137402430269],[106.77704309727427,-6.5601537887632]]],"type":"Polygon"},"properties":{"fid":495820,"ID_GRID":5056639,"INDEKS":0.30339684342533657,"STATUS":"CUKUP","ID_PROV":"32","PROVINSI":"JAWA BARAT","ID_KABKOT":"32.71","KABKOT":"KOTA BOGOR","ID_KEC":"32.71.06","KECAMATAN":"TANAH SAREAL","ID_DESA":"32.71.06.1005","DESA":"KEDUNG WARINGIN"}},{"type":"Feature","geometry":{"coordinates":[[[106.77704309727427,-6.569137402430269],[106.78602625011547,-6.569137402430269],[106.78602625011547,-6.578120851748139],[106.77704309727427,-6.578120851748139],[106.77704309727427,-6.569137402430269]]],"type":"Polygon"},"properties":{"fid":495821,"ID_GRID":5056640,"INDEKS":0.3354111698832954,"STATUS":"CUKUP","ID_PROV":"32","PROVINSI":"JAWA BARAT","ID_KABKOT":"32.71","KABKOT":"KOTA BOGOR","ID_KEC":"32.71.04","KECAMATAN":"BOGOR BARAT","ID_DESA":"32.71.04.1009","DESA":"CILENDEK TIMUR"}},{"type":"Feature","geometry":{"coordinates":[[[106.77704309727427,-6.578120851748139],[106.78602625011547,-6.578120851748139],[106.78602625011547,-6.587104136496179],[106.77704309727427,-6.587104136496179],[106.77704309727427,-6.578120851748139]]],"type":"Polygon"},"properties":{"fid":495822,"ID_GRID":5056641,"INDEKS":0.45233402872680556,"STATUS":"SEDANG","ID_PROV":"32","PROVINSI":"JAWA BARAT","ID_KABKOT":"32.71","KABKOT":"KOTA BOGOR","ID_KEC":"32.71.04","KECAMATAN":"BOGOR BARAT","ID_DESA":"32.71.04.1001","DESA":"MENTENG"}},{"type":"Feature","geometry":{"coordinates":[[[106.77704309727427,-6.587104136496179],[106.78602625011547,-6.587104136496179],[106.78602625011547,-6.596087256453773],[106.77704309727427,-6.596087256453773],[106.77704309727427,-6.587104136496179]]],"type":"Polygon"},"properties":{"fid":495823,"ID_GRID":5056642,"INDEKS":0.3082867562513038,"STATUS":"CUKUP","ID_PROV":"32","PROVINSI":"JAWA BARAT","ID_KABKOT":"32.71","KABKOT":"KOTA BOGOR","ID_KEC":"32.71.04","KECAMATAN":"BOGOR BARAT","ID_DESA":"32.71.04.1015","DESA":"GUNUNG BATU"}},{"type":"Feature","geometry":{"coordinates":[[[106.77704309727427,-6.596087256453773],[106.78602625011547,-6.596087256453773],[106.78602625011547,-6.60507021140033],[106.77704309727427,-6.60507021140033],[106.77704309727427,-6.596087256453773]]],"type":"Polygon"},"properties":{"fid":495824,"ID_GRID":5056643,"INDEKS":0.36851378470499885,"STATUS":"CUKUP","ID_PROV":"32","PROVINSI":"JAWA BARAT","ID_KABKOT":"32.71","KABKOT":"KOTA BOGOR","ID_KEC":"32.71.04","KECAMATAN":"BOGOR BARAT","ID_DESA":"32.71.04.1013","DESA":"PASIR KUDA"}},{"type":"Feature","geometry":{"coordinates":[[[106.77704309727427,-6.60507021140033],[106.78602625011547,-6.60507021140033],[106.78602625011547,-6.614053001115276],[106.77704309727427,-6.614053001115276],[106.77704309727427,-6.60507021140033]]],"type":"Polygon"},"properties":{"fid":495825,"ID_GRID":5056644,"INDEKS":0.3991421127887758,"STATUS":"CUKUP","ID_PROV":"32","PROVINSI":"JAWA BARAT","ID_KABKOT":"32.71","KABKOT":"KOTA BOGOR","ID_KEC":"32.71.04","KECAMATAN":"BOGOR BARAT","ID_DESA":"32.71.04.1013","DESA":"PASIR KUDA"}},{"type":"Feature","geometry":{"coordinates":[[[106.77704309727427,-6.649982503248262],[106.78602625011547,-6.649982503248262],[106.78602625011547,-6.658964463497317],[106.77704309727427,-6.658964463497317],[106.77704309727427,-6.649982503248262]]],"type":"Polygon"},"properties":{"fid":495830,"ID_GRID":5056649,"INDEKS":0.5445840339476837,"STATUS":"SEDANG","ID_PROV":"32","PROVINSI":"JAWA BARAT","ID_KABKOT":"32.71","KABKOT":"KOTA BOGOR","ID_KEC":"32.71.01","KECAMATAN":"BOGOR SELATAN","ID_DESA":"32.71.01.1007","DESA":"MULYA HARJA"}},{"type":"Feature","geometry":{"coordinates":[[[106.78602625011547,-6.524217695016383],[106.79500940295667,-6.524217695016383],[106.79500940295667,-6.533201963873478],[106.78602625011547,-6.533201963873478],[106.78602625011547,-6.524217695016383]]],"type":"Polygon"},"properties":{"fid":495988,"ID_GRID":5059635,"INDEKS":0.38315529571256035,"STATUS":"CUKUP","ID_PROV":"32","PROVINSI":"JAWA BARAT","ID_KABKOT":"32.71","KABKOT":"KOTA BOGOR","ID_KEC":"32.71.06","KECAMATAN":"TANAH SAREAL","ID_DESA":"32.71.06.1009","DESA":"KENCANA"}},{"type":"Feature","geometry":{"coordinates":[[[106.78602625011547,-6.533201963873478],[106.79500940295667,-6.533201963873478],[106.79500940295667,-6.54218606926412],[106.78602625011547,-6.54218606926412],[106.78602625011547,-6.533201963873478]]],"type":"Polygon"},"properties":{"fid":495989,"ID_GRID":5059636,"INDEKS":0.35031850558976224,"STATUS":"CUKUP","ID_PROV":"32","PROVINSI":"JAWA BARAT","ID_KABKOT":"32.71","KABKOT":"KOTA BOGOR","ID_KEC":"32.71.06","KECAMATAN":"TANAH SAREAL","ID_DESA":"32.71.06.1009","DESA":"KENCANA"}},{"type":"Feature","geometry":{"coordinates":[[[106.78602625011547,-6.54218606926412],[106.79500940295667,-6.54218606926412],[106.79500940295667,-6.551170010967593],[106.78602625011547,-6.551170010967593],[106.78602625011547,-6.54218606926412]]],"type":"Polygon"},"properties":{"fid":495990,"ID_GRID":5059637,"INDEKS":0.39646267328544754,"STATUS":"CUKUP","ID_PROV":"32","PROVINSI":"JAWA BARAT","ID_KABKOT":"32.71","KABKOT":"KOTA BOGOR","ID_KEC":"32.71.06","KECAMATAN":"TANAH SAREAL","ID_DESA":"32.71.06.1007","DESA":"SUKADAMAI"}},{"type":"Feature","geometry":{"coordinates":[[[106.78602625011547,-6.551170010967593],[106.79500940295667,-6.551170010967593],[106.79500940295667,-6.5601537887632],[106.78602625011547,-6.5601537887632],[106.78602625011547,-6.551170010967593]]],"type":"Polygon"},"properties":{"fid":495991,"ID_GRID":5059638,"INDEKS":0.33272987017125794,"STATUS":"CUKUP","ID_PROV":"32","PROVINSI":"JAWA BARAT","ID_KABKOT":"32.71","KABKOT":"KOTA BOGOR","ID_KEC":"32.71.06","KECAMATAN":"TANAH SAREAL","ID_DESA":"32.71.06.1007","DESA":"SUKADAMAI"}},{"type":"Feature","geometry":{"coordinates":[[[106.78602625011547,-6.5601537887632],[106.79500940295667,-6.5601537887632],[106.79500940295667,-6.569137402430269],[106.78602625011547,-6.569137402430269],[106.78602625011547,-6.5601537887632]]],"type":"Polygon"},"properties":{"fid":495992,"ID_GRID":5059639,"INDEKS":0.3065208166625198,"STATUS":"CUKUP","ID_PROV":"32","PROVINSI":"JAWA BARAT","ID_KABKOT":"32.71","KABKOT":"KOTA BOGOR","ID_KEC":"32.71.06","KECAMATAN":"TANAH SAREAL","ID_DESA":"32.71.06.1003","DESA":"KEDUNG BADAK"}},{"type":"Feature","geometry":{"coordinates":[[[106.78602625011547,-6.569137402430269],[106.79500940295667,-6.569137402430269],[106.79500940295667,-6.578120851748139],[106.78602625011547,-6.578120851748139],[106.78602625011547,-6.569137402430269]]],"type":"Polygon"},"properties":{"fid":495993,"ID_GRID":5059640,"INDEKS":0.29984112349368763,"STATUS":"CUKUP","ID_PROV":"32","PROVINSI":"JAWA BARAT","ID_KABKOT":"32.71","KABKOT":"KOTA BOGOR","ID_KEC":"32.71.06","KECAMATAN":"TANAH SAREAL","ID_DESA":"32.71.06.1002","DESA":"KEBON PEDES"}},{"type":"Feature","geometry":{"coordinates":[[[106.78602625011547,-6.578120851748139],[106.79500940295667,-6.578120851748139],[106.79500940295667,-6.587104136496179],[106.78602625011547,-6.587104136496179],[106.78602625011547,-6.578120851748139]]],"type":"Polygon"},"properties":{"fid":495994,"ID_GRID":5059641,"INDEKS":0.33701188201418264,"STATUS":"CUKUP","ID_PROV":"32","PROVINSI":"JAWA BARAT","ID_KABKOT":"32.71","KABKOT":"KOTA BOGOR","ID_KEC":"32.71.03","KECAMATAN":"BOGOR TENGAH","ID_DESA":"32.71.03.1010","DESA":"CIWARINGIN"}},{"type":"Feature","geometry":{"coordinates":[[[106.78602625011547,-6.587104136496179],[106.79500940295667,-6.587104136496179],[106.79500940295667,-6.596087256453773],[106.78602625011547,-6.596087256453773],[106.78602625011547,-6.587104136496179]]],"type":"Polygon"},"properties":{"fid":495995,"ID_GRID":5059642,"INDEKS":0.2666703686516553,"STATUS":"CUKUP","ID_PROV":"32","PROVINSI":"JAWA BARAT","ID_KABKOT":"32.71","KABKOT":"KOTA BOGOR","ID_KEC":"32.71.03","KECAMATAN":"BOGOR TENGAH","ID_DESA":"32.71.03.1004","DESA":"CIBOGOR"}},{"type":"Feature","geometry":{"coordinates":[[[106.78602625011547,-6.596087256453773],[106.79500940295667,-6.596087256453773],[106.79500940295667,-6.60507021140033],[106.78602625011547,-6.60507021140033],[106.78602625011547,-6.596087256453773]]],"type":"Polygon"},"properties":{"fid":495996,"ID_GRID":5059643,"INDEKS":0.3202995654636835,"STATUS":"CUKUP","ID_PROV":"32","PROVINSI":"JAWA BARAT","ID_KABKOT":"32.71","KABKOT":"KOTA BOGOR","ID_KEC":"32.71.03","KECAMATAN":"BOGOR TENGAH","ID_DESA":"32.71.03.1002","DESA":"PALEDANG"}},{"type":"Feature","geometry":{"coordinates":[[[106.78602625011547,-6.60507021140033],[106.79500940295667,-6.60507021140033],[106.79500940295667,-6.614053001115276],[106.78602625011547,-6.614053001115276],[106.78602625011547,-6.60507021140033]]],"type":"Polygon"},"properties":{"fid":495997,"ID_GRID":5059644,"INDEKS":0.3451953585010751,"STATUS":"CUKUP","ID_PROV":"32","PROVINSI":"JAWA BARAT","ID_KABKOT":"32.71","KABKOT":"KOTA BOGOR","ID_KEC":"32.71.04","KECAMATAN":"BOGOR BARAT","ID_DESA":"32.71.04.1012","DESA":"PASIR JAYA"}},{"type":"Feature","geometry":{"coordinates":[[[106.78602625011547,-6.614053001115276],[106.79500940295667,-6.614053001115276],[106.79500940295667,-6.623035625378064],[106.78602625011547,-6.623035625378064],[106.78602625011547,-6.614053001115276]]],"type":"Polygon"},"properties":{"fid":495998,"ID_GRID":5059645,"INDEKS":0.40265053853312915,"STATUS":"SEDANG","ID_PROV":"32","PROVINSI":"JAWA BARAT","ID_KABKOT":"32.71","KABKOT":"KOTA BOGOR","ID_KEC":"32.71.01","KECAMATAN":"BOGOR SELATAN","ID_DESA":"32.71.01.1008","DESA":"CIKARET"}},{"type":"Feature","geometry":{"coordinates":[[[106.78602625011547,-6.623035625378064],[106.79500940295667,-6.623035625378064],[106.79500940295667,-6.632018083968159],[106.78602625011547,-6.632018083968159],[106.78602625011547,-6.623035625378064]]],"type":"Polygon"},"properties":{"fid":495999,"ID_GRID":5059646,"INDEKS":0.4708519608220231,"STATUS":"SEDANG","ID_PROV":"32","PROVINSI":"JAWA BARAT","ID_KABKOT":"32.71","KABKOT":"KOTA BOGOR","ID_KEC":"32.71.01","KECAMATAN":"BOGOR SELATAN","ID_DESA":"32.71.01.1007","DESA":"MULYA HARJA"}},{"type":"Feature","geometry":{"coordinates":[[[106.78602625011547,-6.632018083968159],[106.79500940295667,-6.632018083968159],[106.79500940295667,-6.641000376665055],[106.78602625011547,-6.641000376665055],[106.78602625011547,-6.632018083968159]]],"type":"Polygon"},"properties":{"fid":496000,"ID_GRID":5059647,"INDEKS":0.49675594849034777,"STATUS":"SEDANG","ID_PROV":"32","PROVINSI":"JAWA BARAT","ID_KABKOT":"32.71","KABKOT":"KOTA BOGOR","ID_KEC":"32.71.01","KECAMATAN":"BOGOR SELATAN","ID_DESA":"32.71.01.1007","DESA":"MULYA HARJA"}},{"type":"Feature","geometry":{"coordinates":[[[106.78602625011547,-6.641000376665055],[106.79500940295667,-6.641000376665055],[106.79500940295667,-6.649982503248262],[106.78602625011547,-6.649982503248262],[106.78602625011547,-6.641000376665055]]],"type":"Polygon"},"properties":{"fid":496001,"ID_GRID":5059648,"INDEKS":0.5558372658416761,"STATUS":"SEDANG","ID_PROV":"32","PROVINSI":"JAWA BARAT","ID_KABKOT":"32.71","KABKOT":"KOTA BOGOR","ID_KEC":"32.71.01","KECAMATAN":"BOGOR SELATAN","ID_DESA":"32.71.01.1007","DESA":"MULYA HARJA"}},{"type":"Feature","geometry":{"coordinates":[[[106.78602625011547,-6.649982503248262],[106.79500940295667,-6.649982503248262],[106.79500940295667,-6.658964463497317],[106.78602625011547,-6.658964463497317],[106.78602625011547,-6.649982503248262]]],"type":"Polygon"},"properties":{"fid":496002,"ID_GRID":5059649,"INDEKS":0.5687357128980074,"STATUS":"SEDANG","ID_PROV":"32","PROVINSI":"JAWA BARAT","ID_KABKOT":"32.71","KABKOT":"KOTA BOGOR","ID_KEC":"32.71.01","KECAMATAN":"BOGOR SELATAN","ID_DESA":"32.71.01.1007","DESA":"MULYA HARJA"}},{"type":"Feature","geometry":{"coordinates":[[[106.79500940295667,-6.54218606926412],[106.80399255579786,-6.54218606926412],[106.80399255579786,-6.551170010967593],[106.79500940295667,-6.551170010967593],[106.79500940295667,-6.54218606926412]]],"type":"Polygon"},"properties":{"fid":496161,"ID_GRID":5062637,"INDEKS":0.3800326356299981,"STATUS":"CUKUP","ID_PROV":"32","PROVINSI":"JAWA BARAT","ID_KABKOT":"32.71","KABKOT":"KOTA BOGOR","ID_KEC":"32.71.06","KECAMATAN":"TANAH SAREAL","ID_DESA":"32.71.06.1004","DESA":"SUKARESMI"}},{"type":"Feature","geometry":{"coordinates":[[[106.79500940295667,-6.551170010967593],[106.80399255579786,-6.551170010967593],[106.80399255579786,-6.5601537887632],[106.79500940295667,-6.5601537887632],[106.79500940295667,-6.551170010967593]]],"type":"Polygon"},"properties":{"fid":496162,"ID_GRID":5062638,"INDEKS":0.40336481275856223,"STATUS":"SEDANG","ID_PROV":"32","PROVINSI":"JAWA BARAT","ID_KABKOT":"32.71","KABKOT":"KOTA BOGOR","ID_KEC":"32.71.06","KECAMATAN":"TANAH SAREAL","ID_DESA":"32.71.06.1004","DESA":"SUKARESMI"}},{"type":"Feature","geometry":{"coordinates":[[[106.79500940295667,-6.5601537887632],[106.80399255579786,-6.5601537887632],[106.80399255579786,-6.569137402430269],[106.79500940295667,-6.569137402430269],[106.79500940295667,-6.5601537887632]]],"type":"Polygon"},"properties":{"fid":496163,"ID_GRID":5062639,"INDEKS":0.30514183597981187,"STATUS":"CUKUP","ID_PROV":"32","PROVINSI":"JAWA BARAT","ID_KABKOT":"32.71","KABKOT":"KOTA BOGOR","ID_KEC":"32.71.06","KECAMATAN":"TANAH SAREAL","ID_DESA":"32.71.06.1003","DESA":"KEDUNG BADAK"}},{"type":"Feature","geometry":{"coordinates":[[[106.79500940295667,-6.569137402430269],[106.80399255579786,-6.569137402430269],[106.80399255579786,-6.578120851748139],[106.79500940295667,-6.578120851748139],[106.79500940295667,-6.569137402430269]]],"type":"Polygon"},"properties":{"fid":496164,"ID_GRID":5062640,"INDEKS":0.346666117741823,"STATUS":"CUKUP","ID_PROV":"32","PROVINSI":"JAWA BARAT","ID_KABKOT":"32.71","KABKOT":"KOTA BOGOR","ID_KEC":"32.71.06","KECAMATAN":"TANAH SAREAL","ID_DESA":"32.71.06.1001","DESA":"TANAH SAREAL"}},{"type":"Feature","geometry":{"coordinates":[[[106.79500940295667,-6.578120851748139],[106.80399255579786,-6.578120851748139],[106.80399255579786,-6.587104136496179],[106.79500940295667,-6.587104136496179],[106.79500940295667,-6.578120851748139]]],"type":"Polygon"},"properties":{"fid":496165,"ID_GRID":5062641,"INDEKS":0.36526965923928906,"STATUS":"CUKUP","ID_PROV":"32","PROVINSI":"JAWA BARAT","ID_KABKOT":"32.71","KABKOT":"KOTA BOGOR","ID_KEC":"32.71.03","KECAMATAN":"BOGOR TENGAH","ID_DESA":"32.71.03.1006","DESA":"SEMPUR"}},{"type":"Feature","geometry":{"coordinates":[[[106.79500940295667,-6.587104136496179],[106.80399255579786,-6.587104136496179],[106.80399255579786,-6.596087256453773],[106.79500940295667,-6.596087256453773],[106.79500940295667,-6.587104136496179]]],"type":"Polygon"},"properties":{"fid":496166,"ID_GRID":5062642,"INDEKS":0.4053851239741805,"STATUS":"SEDANG","ID_PROV":"32","PROVINSI":"JAWA BARAT","ID_KABKOT":"32.71","KABKOT":"KOTA BOGOR","ID_KEC":"32.71.03","KECAMATAN":"BOGOR TENGAH","ID_DESA":"32.71.03.1002","DESA":"PALEDANG"}},{"type":"Feature","geometry":{"coordinates":[[[106.79500940295667,-6.596087256453773],[106.80399255579786,-6.596087256453773],[106.80399255579786,-6.60507021140033],[106.79500940295667,-6.60507021140033],[106.79500940295667,-6.596087256453773]]],"type":"Polygon"},"properties":{"fid":496167,"ID_GRID":5062643,"INDEKS":0.44386638245306725,"STATUS":"SEDANG","ID_PROV":"32","PROVINSI":"JAWA BARAT","ID_KABKOT":"32.71","KABKOT":"KOTA BOGOR","ID_KEC":"32.71.03","KECAMATAN":"BOGOR TENGAH","ID_DESA":"32.71.03.1002","DESA":"PALEDANG"}},{"type":"Feature","geometry":{"coordinates":[[[106.79500940295667,-6.60507021140033],[106.80399255579786,-6.60507021140033],[106.80399255579786,-6.614053001115276],[106.79500940295667,-6.614053001115276],[106.79500940295667,-6.60507021140033]]],"type":"Polygon"},"properties":{"fid":496168,"ID_GRID":5062644,"INDEKS":0.2612513908355251,"STATUS":"CUKUP","ID_PROV":"32","PROVINSI":"JAWA BARAT","ID_KABKOT":"32.71","KABKOT":"KOTA BOGOR","ID_KEC":"32.71.01","KECAMATAN":"BOGOR SELATAN","ID_DESA":"32.71.01.1003","DESA":"EMPANG"}},{"type":"Feature","geometry":{"coordinates":[[[106.79500940295667,-6.614053001115276],[106.80399255579786,-6.614053001115276],[106.80399255579786,-6.623035625378064],[106.79500940295667,-6.623035625378064],[106.79500940295667,-6.614053001115276]]],"type":"Polygon"},"properties":{"fid":496169,"ID_GRID":5062645,"INDEKS":0.3892668462399918,"STATUS":"CUKUP","ID_PROV":"32","PROVINSI":"JAWA BARAT","ID_KABKOT":"32.71","KABKOT":"KOTA BOGOR","ID_KEC":"32.71.01","KECAMATAN":"BOGOR SELATAN","ID_DESA":"32.71.01.1006","DESA":"RANGGA MEKAR"}},{"type":"Feature","geometry":{"coordinates":[[[106.79500940295667,-6.623035625378064],[106.80399255579786,-6.623035625378064],[106.80399255579786,-6.632018083968159],[106.79500940295667,-6.632018083968159],[106.79500940295667,-6.623035625378064]]],"type":"Polygon"},"properties":{"fid":496170,"ID_GRID":5062646,"INDEKS":0.4533704499020502,"STATUS":"SEDANG","ID_PROV":"32","PROVINSI":"JAWA BARAT","ID_KABKOT":"32.71","KABKOT":"KOTA BOGOR","ID_KEC":"32.71.01","KECAMATAN":"BOGOR SELATAN","ID_DESA":"32.71.01.1006","DESA":"RANGGA MEKAR"}},{"type":"Feature","geometry":{"coordinates":[[[106.79500940295667,-6.632018083968159],[106.80399255579786,-6.632018083968159],[106.80399255579786,-6.641000376665055],[106.79500940295667,-6.641000376665055],[106.79500940295667,-6.632018083968159]]],"type":"Polygon"},"properties":{"fid":496171,"ID_GRID":5062647,"INDEKS":0.4579824567853693,"STATUS":"SEDANG","ID_PROV":"32","PROVINSI":"JAWA BARAT","ID_KABKOT":"32.71","KABKOT":"KOTA BOGOR","ID_KEC":"32.71.01","KECAMATAN":"BOGOR SELATAN","ID_DESA":"32.71.01.1005","DESA":"PAMOYANAN"}},{"type":"Feature","geometry":{"coordinates":[[[106.79500940295667,-6.641000376665055],[106.80399255579786,-6.641000376665055],[106.80399255579786,-6.649982503248262],[106.79500940295667,-6.649982503248262],[106.79500940295667,-6.641000376665055]]],"type":"Polygon"},"properties":{"fid":496172,"ID_GRID":5062648,"INDEKS":0.5950969659230289,"STATUS":"SEDANG","ID_PROV":"32","PROVINSI":"JAWA BARAT","ID_KABKOT":"32.71","KABKOT":"KOTA BOGOR","ID_KEC":"32.71.01","KECAMATAN":"BOGOR SELATAN","ID_DESA":"32.71.01.1005","DESA":"PAMOYANAN"}},{"type":"Feature","geometry":{"coordinates":[[[106.80399255579786,-6.54218606926412],[106.81297570863904,-6.54218606926412],[106.81297570863904,-6.551170010967593],[106.80399255579786,-6.551170010967593],[106.80399255579786,-6.54218606926412]]],"type":"Polygon"},"properties":{"fid":496331,"ID_GRID":5065637,"INDEKS":0.35249290251423754,"STATUS":"CUKUP","ID_PROV":"32","PROVINSI":"JAWA BARAT","ID_KABKOT":"32.71","KABKOT":"KOTA BOGOR","ID_KEC":"32.71.05","KECAMATAN":"BOGOR UTARA","ID_DESA":"32.71.05.1003","DESA":"KEDUNG HALANG"}},{"type":"Feature","geometry":{"coordinates":[[[106.80399255579786,-6.551170010967593],[106.81297570863904,-6.551170010967593],[106.81297570863904,-6.5601537887632],[106.80399255579786,-6.5601537887632],[106.80399255579786,-6.551170010967593]]],"type":"Polygon"},"properties":{"fid":496332,"ID_GRID":5065638,"INDEKS":0.3193348337781621,"STATUS":"CUKUP","ID_PROV":"32","PROVINSI":"JAWA BARAT","ID_KABKOT":"32.71","KABKOT":"KOTA BOGOR","ID_KEC":"32.71.05","KECAMATAN":"BOGOR UTARA","ID_DESA":"32.71.05.1003","DESA":"KEDUNG HALANG"}},{"type":"Feature","geometry":{"coordinates":[[[106.80399255579786,-6.5601537887632],[106.81297570863904,-6.5601537887632],[106.81297570863904,-6.569137402430269],[106.80399255579786,-6.569137402430269],[106.80399255579786,-6.5601537887632]]],"type":"Polygon"},"properties":{"fid":496333,"ID_GRID":5065639,"INDEKS":0.3208015268752319,"STATUS":"CUKUP","ID_PROV":"32","PROVINSI":"JAWA BARAT","ID_KABKOT":"32.71","KABKOT":"KOTA BOGOR","ID_KEC":"32.71.05","KECAMATAN":"BOGOR UTARA","ID_DESA":"32.71.05.1005","DESA":"CIBULUH"}},{"type":"Feature","geometry":{"coordinates":[[[106.80399255579786,-6.569137402430269],[106.81297570863904,-6.569137402430269],[106.81297570863904,-6.578120851748139],[106.80399255579786,-6.578120851748139],[106.80399255579786,-6.569137402430269]]],"type":"Polygon"},"properties":{"fid":496334,"ID_GRID":5065640,"INDEKS":0.3100619688231677,"STATUS":"CUKUP","ID_PROV":"32","PROVINSI":"JAWA BARAT","ID_KABKOT":"32.71","KABKOT":"KOTA BOGOR","ID_KEC":"32.71.05","KECAMATAN":"BOGOR UTARA","ID_DESA":"32.71.05.1001","DESA":"BANTARJATI"}},{"type":"Feature","geometry":{"coordinates":[[[106.80399255579786,-6.578120851748139],[106.81297570863904,-6.578120851748139],[106.81297570863904,-6.587104136496179],[106.80399255579786,-6.587104136496179],[106.80399255579786,-6.578120851748139]]],"type":"Polygon"},"properties":{"fid":496335,"ID_GRID":5065641,"INDEKS":0.3449136823575127,"STATUS":"CUKUP","ID_PROV":"32","PROVINSI":"JAWA BARAT","ID_KABKOT":"32.71","KABKOT":"KOTA BOGOR","ID_KEC":"32.71.03","KECAMATAN":"BOGOR TENGAH","ID_DESA":"32.71.03.1005","DESA":"BABAKAN"}},{"type":"Feature","geometry":{"coordinates":[[[106.80399255579786,-6.587104136496179],[106.81297570863904,-6.587104136496179],[106.81297570863904,-6.596087256453773],[106.80399255579786,-6.596087256453773],[106.80399255579786,-6.587104136496179]]],"type":"Polygon"},"properties":{"fid":496336,"ID_GRID":5065642,"INDEKS":0.3044208065448748,"STATUS":"CUKUP","ID_PROV":"32","PROVINSI":"JAWA BARAT","ID_KABKOT":"32.71","KABKOT":"KOTA BOGOR","ID_KEC":"32.71.03","KECAMATAN":"BOGOR TENGAH","ID_DESA":"32.71.03.1005","DESA":"BABAKAN"}},{"type":"Feature","geometry":{"coordinates":[[[106.80399255579786,-6.596087256453773],[106.81297570863904,-6.596087256453773],[106.81297570863904,-6.60507021140033],[106.80399255579786,-6.60507021140033],[106.80399255579786,-6.596087256453773]]],"type":"Polygon"},"properties":{"fid":496337,"ID_GRID":5065643,"INDEKS":0.34262075672281406,"STATUS":"CUKUP","ID_PROV":"32","PROVINSI":"JAWA BARAT","ID_KABKOT":"32.71","KABKOT":"KOTA BOGOR","ID_KEC":"32.71.03","KECAMATAN":"BOGOR TENGAH","ID_DESA":"32.71.03.1007","DESA":"TEGALLEGA"}},{"type":"Feature","geometry":{"coordinates":[[[106.80399255579786,-6.60507021140033],[106.81297570863904,-6.60507021140033],[106.81297570863904,-6.614053001115276],[106.80399255579786,-6.614053001115276],[106.80399255579786,-6.60507021140033]]],"type":"Polygon"},"properties":{"fid":496338,"ID_GRID":5065644,"INDEKS":0.30023167825531405,"STATUS":"CUKUP","ID_PROV":"32","PROVINSI":"JAWA BARAT","ID_KABKOT":"32.71","KABKOT":"KOTA BOGOR","ID_KEC":"32.71.02","KECAMATAN":"BOGOR TIMUR","ID_DESA":"32.71.02.1002","DESA":"BARANANGSIANG"}},{"type":"Feature","geometry":{"coordinates":[[[106.80399255579786,-6.614053001115276],[106.81297570863904,-6.614053001115276],[106.81297570863904,-6.623035625378064],[106.80399255579786,-6.623035625378064],[106.80399255579786,-6.614053001115276]]],"type":"Polygon"},"properties":{"fid":496339,"ID_GRID":5065645,"INDEKS":0.3104756687957935,"STATUS":"CUKUP","ID_PROV":"32","PROVINSI":"JAWA BARAT","ID_KABKOT":"32.71","KABKOT":"KOTA BOGOR","ID_KEC":"32.71.01","KECAMATAN":"BOGOR SELATAN","ID_DESA":"32.71.01.1001","DESA":"BATU TULIS"}},{"type":"Feature","geometry":{"coordinates":[[[106.80399255579786,-6.623035625378064],[106.81297570863904,-6.623035625378064],[106.81297570863904,-6.632018083968159],[106.80399255579786,-6.632018083968159],[106.80399255579786,-6.623035625378064]]],"type":"Polygon"},"properties":{"fid":496340,"ID_GRID":5065646,"INDEKS":0.36936152285486196,"STATUS":"CUKUP","ID_PROV":"32","PROVINSI":"JAWA BARAT","ID_KABKOT":"32.71","KABKOT":"KOTA BOGOR","ID_KEC":"32.71.01","KECAMATAN":"BOGOR SELATAN","ID_DESA":"32.71.01.1006","DESA":"RANGGA MEKAR"}},{"type":"Feature","geometry":{"coordinates":[[[106.80399255579786,-6.632018083968159],[106.81297570863904,-6.632018083968159],[106.81297570863904,-6.641000376665055],[106.80399255579786,-6.641000376665055],[106.80399255579786,-6.632018083968159]]],"type":"Polygon"},"properties":{"fid":496341,"ID_GRID":5065647,"INDEKS":0.4155641030154976,"STATUS":"SEDANG","ID_PROV":"32","PROVINSI":"JAWA BARAT","ID_KABKOT":"32.71","KABKOT":"KOTA BOGOR","ID_KEC":"32.71.01","KECAMATAN":"BOGOR SELATAN","ID_DESA":"32.71.01.1005","DESA":"PAMOYANAN"}},{"type":"Feature","geometry":{"coordinates":[[[106.80399255579786,-6.641000376665055],[106.81297570863904,-6.641000376665055],[106.81297570863904,-6.649982503248262],[106.80399255579786,-6.649982503248262],[106.80399255579786,-6.641000376665055]]],"type":"Polygon"},"properties":{"fid":496342,"ID_GRID":5065648,"INDEKS":0.48570357123873226,"STATUS":"SEDANG","ID_PROV":"32","PROVINSI":"JAWA BARAT","ID_KABKOT":"32.71","KABKOT":"KOTA BOGOR","ID_KEC":"32.71.01","KECAMATAN":"BOGOR SELATAN","ID_DESA":"32.71.01.1005","DESA":"PAMOYANAN"}},{"type":"Feature","geometry":{"coordinates":[[[106.81297570863904,-6.54218606926412],[106.82195886148025,-6.54218606926412],[106.82195886148025,-6.551170010967593],[106.81297570863904,-6.551170010967593],[106.81297570863904,-6.54218606926412]]],"type":"Polygon"},"properties":{"fid":496500,"ID_GRID":5068637,"INDEKS":0.32637336472506034,"STATUS":"CUKUP","ID_PROV":"32","PROVINSI":"JAWA BARAT","ID_KABKOT":"32.71","KABKOT":"KOTA BOGOR","ID_KEC":"32.71.05","KECAMATAN":"BOGOR UTARA","ID_DESA":"32.71.05.1004","DESA":"CIPARIGI"}},{"type":"Feature","geometry":{"coordinates":[[[106.81297570863904,-6.551170010967593],[106.82195886148025,-6.551170010967593],[106.82195886148025,-6.5601537887632],[106.81297570863904,-6.5601537887632],[106.81297570863904,-6.551170010967593]]],"type":"Polygon"},"properties":{"fid":496501,"ID_GRID":5068638,"INDEKS":0.3359209917300989,"STATUS":"CUKUP","ID_PROV":"32","PROVINSI":"JAWA BARAT","ID_KABKOT":"32.71","KABKOT":"KOTA BOGOR","ID_KEC":"32.71.05","KECAMATAN":"BOGOR UTARA","ID_DESA":"32.71.05.1005","DESA":"CIBULUH"}},{"type":"Feature","geometry":{"coordinates":[[[106.81297570863904,-6.5601537887632],[106.82195886148025,-6.5601537887632],[106.82195886148025,-6.569137402430269],[106.81297570863904,-6.569137402430269],[106.81297570863904,-6.5601537887632]]],"type":"Polygon"},"properties":{"fid":496502,"ID_GRID":5068639,"INDEKS":0.39574332382536614,"STATUS":"CUKUP","ID_PROV":"32","PROVINSI":"JAWA BARAT","ID_KABKOT":"32.71","KABKOT":"KOTA BOGOR","ID_KEC":"32.71.05","KECAMATAN":"BOGOR UTARA","ID_DESA":"32.71.05.1005","DESA":"CIBULUH"}},{"type":"Feature","geometry":{"coordinates":[[[106.81297570863904,-6.569137402430269],[106.82195886148025,-6.569137402430269],[106.82195886148025,-6.578120851748139],[106.81297570863904,-6.578120851748139],[106.81297570863904,-6.569137402430269]]],"type":"Polygon"},"properties":{"fid":496503,"ID_GRID":5068640,"INDEKS":0.3698416952833985,"STATUS":"CUKUP","ID_PROV":"32","PROVINSI":"JAWA BARAT","ID_KABKOT":"32.71","KABKOT":"KOTA BOGOR","ID_KEC":"32.71.05","KECAMATAN":"BOGOR UTARA","ID_DESA":"32.71.05.1002","DESA":"TEGAL GUNDIL"}},{"type":"Feature","geometry":{"coordinates":[[[106.81297570863904,-6.578120851748139],[106.82195886148025,-6.578120851748139],[106.82195886148025,-6.587104136496179],[106.81297570863904,-6.587104136496179],[106.81297570863904,-6.578120851748139]]],"type":"Polygon"},"properties":{"fid":496504,"ID_GRID":5068641,"INDEKS":0.3450194861195961,"STATUS":"CUKUP","ID_PROV":"32","PROVINSI":"JAWA BARAT","ID_KABKOT":"32.71","KABKOT":"KOTA BOGOR","ID_KEC":"32.71.05","KECAMATAN":"BOGOR UTARA","ID_DESA":"32.71.05.1002","DESA":"TEGAL GUNDIL"}},{"type":"Feature","geometry":{"coordinates":[[[106.81297570863904,-6.587104136496179],[106.82195886148025,-6.587104136496179],[106.82195886148025,-6.596087256453773],[106.81297570863904,-6.596087256453773],[106.81297570863904,-6.587104136496179]]],"type":"Polygon"},"properties":{"fid":496505,"ID_GRID":5068642,"INDEKS":0.3765460162584582,"STATUS":"CUKUP","ID_PROV":"32","PROVINSI":"JAWA BARAT","ID_KABKOT":"32.71","KABKOT":"KOTA BOGOR","ID_KEC":"32.71.05","KECAMATAN":"BOGOR UTARA","ID_DESA":"32.71.05.1007","DESA":"TANAH BARU"}},{"type":"Feature","geometry":{"coordinates":[[[106.81297570863904,-6.596087256453773],[106.82195886148025,-6.596087256453773],[106.82195886148025,-6.60507021140033],[106.81297570863904,-6.60507021140033],[106.81297570863904,-6.596087256453773]]],"type":"Polygon"},"properties":{"fid":496506,"ID_GRID":5068643,"INDEKS":0.3818838097449286,"STATUS":"CUKUP","ID_PROV":"32","PROVINSI":"JAWA BARAT","ID_KABKOT":"32.71","KABKOT":"KOTA BOGOR","ID_KEC":"32.71.02","KECAMATAN":"BOGOR TIMUR","ID_DESA":"32.71.02.1002","DESA":"BARANANGSIANG"}},{"type":"Feature","geometry":{"coordinates":[[[106.81297570863904,-6.60507021140033],[106.82195886148025,-6.60507021140033],[106.82195886148025,-6.614053001115276],[106.81297570863904,-6.614053001115276],[106.81297570863904,-6.60507021140033]]],"type":"Polygon"},"properties":{"fid":496507,"ID_GRID":5068644,"INDEKS":0.36955885211462486,"STATUS":"CUKUP","ID_PROV":"32","PROVINSI":"JAWA BARAT","ID_KABKOT":"32.71","KABKOT":"KOTA BOGOR","ID_KEC":"32.71.02","KECAMATAN":"BOGOR TIMUR","ID_DESA":"32.71.02.1002","DESA":"BARANANGSIANG"}},{"type":"Feature","geometry":{"coordinates":[[[106.81297570863904,-6.614053001115276],[106.82195886148025,-6.614053001115276],[106.82195886148025,-6.623035625378064],[106.81297570863904,-6.623035625378064],[106.81297570863904,-6.614053001115276]]],"type":"Polygon"},"properties":{"fid":496508,"ID_GRID":5068645,"INDEKS":0.30430332146279526,"STATUS":"CUKUP","ID_PROV":"32","PROVINSI":"JAWA BARAT","ID_KABKOT":"32.71","KABKOT":"KOTA BOGOR","ID_KEC":"32.71.02","KECAMATAN":"BOGOR TIMUR","ID_DESA":"32.71.02.1002","DESA":"BARANANGSIANG"}},{"type":"Feature","geometry":{"coordinates":[[[106.81297570863904,-6.623035625378064],[106.82195886148025,-6.623035625378064],[106.82195886148025,-6.632018083968159],[106.81297570863904,-6.632018083968159],[106.81297570863904,-6.623035625378064]]],"type":"Polygon"},"properties":{"fid":496509,"ID_GRID":5068646,"INDEKS":0.37679906363220145,"STATUS":"CUKUP","ID_PROV":"32","PROVINSI":"JAWA BARAT","ID_KABKOT":"32.71","KABKOT":"KOTA BOGOR","ID_KEC":"32.71.01","KECAMATAN":"BOGOR SELATAN","ID_DESA":"32.71.01.1015","DESA":"PAKUAN"}},{"type":"Feature","geometry":{"coordinates":[[[106.81297570863904,-6.632018083968159],[106.82195886148025,-6.632018083968159],[106.82195886148025,-6.641000376665055],[106.81297570863904,-6.641000376665055],[106.81297570863904,-6.632018083968159]]],"type":"Polygon"},"properties":{"fid":496510,"ID_GRID":5068647,"INDEKS":0.3998927448297226,"STATUS":"CUKUP","ID_PROV":"32","PROVINSI":"JAWA BARAT","ID_KABKOT":"32.71","KABKOT":"KOTA BOGOR","ID_KEC":"32.71.01","KECAMATAN":"BOGOR SELATAN","ID_DESA":"32.71.01.1016","DESA":"CIPAKU"}},{"type":"Feature","geometry":{"coordinates":[[[106.81297570863904,-6.641000376665055],[106.82195886148025,-6.641000376665055],[106.82195886148025,-6.649982503248262],[106.81297570863904,-6.649982503248262],[106.81297570863904,-6.641000376665055]]],"type":"Polygon"},"properties":{"fid":496511,"ID_GRID":5068648,"INDEKS":0.4805875840777807,"STATUS":"SEDANG","ID_PROV":"32","PROVINSI":"JAWA BARAT","ID_KABKOT":"32.71","KABKOT":"KOTA BOGOR","ID_KEC":"32.71.01","KECAMATAN":"BOGOR SELATAN","ID_DESA":"32.71.01.1014","DESA":"GENTENG"}},{"type":"Feature","geometry":{"coordinates":[[[106.81297570863904,-6.649982503248262],[106.82195886148025,-6.649982503248262],[106.82195886148025,-6.658964463497317],[106.81297570863904,-6.658964463497317],[106.81297570863904,-6.649982503248262]]],"type":"Polygon"},"properties":{"fid":496512,"ID_GRID":5068649,"INDEKS":0.5250131198580491,"STATUS":"SEDANG","ID_PROV":"32","PROVINSI":"JAWA BARAT","ID_KABKOT":"32.71","KABKOT":"KOTA BOGOR","ID_KEC":"32.71.01","KECAMATAN":"BOGOR SELATAN","ID_DESA":"32.71.01.1011","DESA":"KERTAMAYA"}},{"type":"Feature","geometry":{"coordinates":[[[106.81297570863904,-6.658964463497317],[106.82195886148025,-6.658964463497317],[106.82195886148025,-6.66794625719177],[106.81297570863904,-6.66794625719177],[106.81297570863904,-6.658964463497317]]],"type":"Polygon"},"properties":{"fid":496513,"ID_GRID":5068650,"INDEKS":0.5657976602774568,"STATUS":"SEDANG","ID_PROV":"32","PROVINSI":"JAWA BARAT","ID_KABKOT":"32.71","KABKOT":"KOTA BOGOR","ID_KEC":"32.71.01","KECAMATAN":"BOGOR SELATAN","ID_DESA":"32.71.01.1011","DESA":"KERTAMAYA"}},{"type":"Feature","geometry":{"coordinates":[[[106.82195886148025,-6.551170010967593],[106.83094201432145,-6.551170010967593],[106.83094201432145,-6.5601537887632],[106.82195886148025,-6.5601537887632],[106.82195886148025,-6.551170010967593]]],"type":"Polygon"},"properties":{"fid":496671,"ID_GRID":5071638,"INDEKS":0.3618674250208423,"STATUS":"CUKUP","ID_PROV":"32","PROVINSI":"JAWA BARAT","ID_KABKOT":"32.71","KABKOT":"KOTA BOGOR","ID_KEC":"32.71.05","KECAMATAN":"BOGOR UTARA","ID_DESA":"32.71.05.1006","DESA":"CILUAR"}},{"type":"Feature","geometry":{"coordinates":[[[106.82195886148025,-6.5601537887632],[106.83094201432145,-6.5601537887632],[106.83094201432145,-6.569137402430269],[106.82195886148025,-6.569137402430269],[106.82195886148025,-6.5601537887632]]],"type":"Polygon"},"properties":{"fid":496672,"ID_GRID":5071639,"INDEKS":0.45807040863921084,"STATUS":"SEDANG","ID_PROV":"32","PROVINSI":"JAWA BARAT","ID_KABKOT":"32.71","KABKOT":"KOTA BOGOR","ID_KEC":"32.71.05","KECAMATAN":"BOGOR UTARA","ID_DESA":"32.71.05.1006","DESA":"CILUAR"}},{"type":"Feature","geometry":{"coordinates":[[[106.82195886148025,-6.569137402430269],[106.83094201432145,-6.569137402430269],[106.83094201432145,-6.578120851748139],[106.82195886148025,-6.578120851748139],[106.82195886148025,-6.569137402430269]]],"type":"Polygon"},"properties":{"fid":496673,"ID_GRID":5071640,"INDEKS":0.5288036917742509,"STATUS":"SEDANG","ID_PROV":"32","PROVINSI":"JAWA BARAT","ID_KABKOT":"32.71","KABKOT":"KOTA BOGOR","ID_KEC":"32.71.05","KECAMATAN":"BOGOR UTARA","ID_DESA":"32.71.05.1008","DESA":"CIMAHPAR"}},{"type":"Feature","geometry":{"coordinates":[[[106.82195886148025,-6.578120851748139],[106.83094201432145,-6.578120851748139],[106.83094201432145,-6.587104136496179],[106.82195886148025,-6.587104136496179],[106.82195886148025,-6.578120851748139]]],"type":"Polygon"},"properties":{"fid":496674,"ID_GRID":5071641,"INDEKS":0.4835691957762747,"STATUS":"SEDANG","ID_PROV":"32","PROVINSI":"JAWA BARAT","ID_KABKOT":"32.71","KABKOT":"KOTA BOGOR","ID_KEC":"32.71.05","KECAMATAN":"BOGOR UTARA","ID_DESA":"32.71.05.1008","DESA":"CIMAHPAR"}},{"type":"Feature","geometry":{"coordinates":[[[106.82195886148025,-6.587104136496179],[106.83094201432145,-6.587104136496179],[106.83094201432145,-6.596087256453773],[106.82195886148025,-6.596087256453773],[106.82195886148025,-6.587104136496179]]],"type":"Polygon"},"properties":{"fid":496675,"ID_GRID":5071642,"INDEKS":0.44132495967674595,"STATUS":"SEDANG","ID_PROV":"32","PROVINSI":"JAWA BARAT","ID_KABKOT":"32.71","KABKOT":"KOTA BOGOR","ID_KEC":"32.71.05","KECAMATAN":"BOGOR UTARA","ID_DESA":"32.71.05.1008","DESA":"CIMAHPAR"}},{"type":"Feature","geometry":{"coordinates":[[[106.82195886148025,-6.596087256453773],[106.83094201432145,-6.596087256453773],[106.83094201432145,-6.60507021140033],[106.82195886148025,-6.60507021140033],[106.82195886148025,-6.596087256453773]]],"type":"Polygon"},"properties":{"fid":496676,"ID_GRID":5071643,"INDEKS":0.46924634819680994,"STATUS":"SEDANG","ID_PROV":"32","PROVINSI":"JAWA BARAT","ID_KABKOT":"32.71","KABKOT":"KOTA BOGOR","ID_KEC":"32.71.02","KECAMATAN":"BOGOR TIMUR","ID_DESA":"32.71.02.1003","DESA":"KATULAMPA"}},{"type":"Feature","geometry":{"coordinates":[[[106.82195886148025,-6.60507021140033],[106.83094201432145,-6.60507021140033],[106.83094201432145,-6.614053001115276],[106.82195886148025,-6.614053001115276],[106.82195886148025,-6.60507021140033]]],"type":"Polygon"},"properties":{"fid":496677,"ID_GRID":5071644,"INDEKS":0.43616750190518555,"STATUS":"SEDANG","ID_PROV":"32","PROVINSI":"JAWA BARAT","ID_KABKOT":"32.71","KABKOT":"KOTA BOGOR","ID_KEC":"32.71.02","KECAMATAN":"BOGOR TIMUR","ID_DESA":"32.71.02.1003","DESA":"KATULAMPA"}},{"type":"Feature","geometry":{"coordinates":[[[106.82195886148025,-6.614053001115276],[106.83094201432145,-6.614053001115276],[106.83094201432145,-6.623035625378064],[106.82195886148025,-6.623035625378064],[106.82195886148025,-6.614053001115276]]],"type":"Polygon"},"properties":{"fid":496678,"ID_GRID":5071645,"INDEKS":0.4072649251277859,"STATUS":"SEDANG","ID_PROV":"32","PROVINSI":"JAWA BARAT","ID_KABKOT":"32.71","KABKOT":"KOTA BOGOR","ID_KEC":"32.71.02","KECAMATAN":"BOGOR TIMUR","ID_DESA":"32.71.02.1003","DESA":"KATULAMPA"}},{"type":"Feature","geometry":{"coordinates":[[[106.82195886148025,-6.623035625378064],[106.83094201432145,-6.623035625378064],[106.83094201432145,-6.632018083968159],[106.82195886148025,-6.632018083968159],[106.82195886148025,-6.623035625378064]]],"type":"Polygon"},"properties":{"fid":496679,"ID_GRID":5071646,"INDEKS":0.36209262420378,"STATUS":"CUKUP","ID_PROV":"32","PROVINSI":"JAWA BARAT","ID_KABKOT":"32.71","KABKOT":"KOTA BOGOR","ID_KEC":"32.71.02","KECAMATAN":"BOGOR TIMUR","ID_DESA":"32.71.02.1003","DESA":"KATULAMPA"}},{"type":"Feature","geometry":{"coordinates":[[[106.82195886148025,-6.632018083968159],[106.83094201432145,-6.632018083968159],[106.83094201432145,-6.641000376665055],[106.82195886148025,-6.641000376665055],[106.82195886148025,-6.632018083968159]]],"type":"Polygon"},"properties":{"fid":496680,"ID_GRID":5071647,"INDEKS":0.43603726637210183,"STATUS":"SEDANG","ID_PROV":"32","PROVINSI":"JAWA BARAT","ID_KABKOT":"32.71","KABKOT":"KOTA BOGOR","ID_KEC":"32.71.01","KECAMATAN":"BOGOR SELATAN","ID_DESA":"32.71.01.1015","DESA":"PAKUAN"}},{"type":"Feature","geometry":{"coordinates":[[[106.82195886148025,-6.641000376665055],[106.83094201432145,-6.641000376665055],[106.83094201432145,-6.649982503248262],[106.82195886148025,-6.649982503248262],[106.82195886148025,-6.641000376665055]]],"type":"Polygon"},"properties":{"fid":496681,"ID_GRID":5071648,"INDEKS":0.5112391611737152,"STATUS":"SEDANG","ID_PROV":"32","PROVINSI":"JAWA BARAT","ID_KABKOT":"32.71","KABKOT":"KOTA BOGOR","ID_KEC":"32.71.01","KECAMATAN":"BOGOR SELATAN","ID_DESA":"32.71.01.1013","DESA":"MUARA SARI"}},{"type":"Feature","geometry":{"coordinates":[[[106.82195886148025,-6.649982503248262],[106.83094201432145,-6.649982503248262],[106.83094201432145,-6.658964463497317],[106.82195886148025,-6.658964463497317],[106.82195886148025,-6.649982503248262]]],"type":"Polygon"},"properties":{"fid":496682,"ID_GRID":5071649,"INDEKS":0.4948758056970558,"STATUS":"SEDANG","ID_PROV":"32","PROVINSI":"JAWA BARAT","ID_KABKOT":"32.71","KABKOT":"KOTA BOGOR","ID_KEC":"32.71.01","KECAMATAN":"BOGOR SELATAN","ID_DESA":"32.71.01.1011","DESA":"KERTAMAYA"}},{"type":"Feature","geometry":{"coordinates":[[[106.82195886148025,-6.658964463497317],[106.83094201432145,-6.658964463497317],[106.83094201432145,-6.66794625719177],[106.82195886148025,-6.66794625719177],[106.82195886148025,-6.658964463497317]]],"type":"Polygon"},"properties":{"fid":496683,"ID_GRID":5071650,"INDEKS":0.5345918136085251,"STATUS":"SEDANG","ID_PROV":"32","PROVINSI":"JAWA BARAT","ID_KABKOT":"32.71","KABKOT":"KOTA BOGOR","ID_KEC":"32.71.01","KECAMATAN":"BOGOR SELATAN","ID_DESA":"32.71.01.1011","DESA":"KERTAMAYA"}},{"type":"Feature","geometry":{"coordinates":[[[106.82195886148025,-6.66794625719177],[106.83094201432145,-6.66794625719177],[106.83094201432145,-6.676927884111197],[106.82195886148025,-6.676927884111197],[106.82195886148025,-6.66794625719177]]],"type":"Polygon"},"properties":{"fid":496684,"ID_GRID":5071651,"INDEKS":0.5777459348055556,"STATUS":"SEDANG","ID_PROV":"32","PROVINSI":"JAWA BARAT","ID_KABKOT":"32.71","KABKOT":"KOTA BOGOR","ID_KEC":"32.71.01","KECAMATAN":"BOGOR SELATAN","ID_DESA":"32.71.01.1010","DESA":"RANCAMAYA"}},{"type":"Feature","geometry":{"coordinates":[[[106.83094201432145,-6.569137402430269],[106.83992516716265,-6.569137402430269],[106.83992516716265,-6.578120851748139],[106.83094201432145,-6.578120851748139],[106.83094201432145,-6.569137402430269]]],"type":"Polygon"},"properties":{"fid":496842,"ID_GRID":5074640,"INDEKS":0.5501805498080458,"STATUS":"SEDANG","ID_PROV":"32","PROVINSI":"JAWA BARAT","ID_KABKOT":"32.71","KABKOT":"KOTA BOGOR","ID_KEC":"32.71.05","KECAMATAN":"BOGOR UTARA","ID_DESA":"32.71.05.1006","DESA":"CILUAR"}},{"type":"Feature","geometry":{"coordinates":[[[106.83094201432145,-6.578120851748139],[106.83992516716265,-6.578120851748139],[106.83992516716265,-6.587104136496179],[106.83094201432145,-6.587104136496179],[106.83094201432145,-6.578120851748139]]],"type":"Polygon"},"properties":{"fid":496843,"ID_GRID":5074641,"INDEKS":0.5059923888740268,"STATUS":"SEDANG","ID_PROV":"32","PROVINSI":"JAWA BARAT","ID_KABKOT":"32.71","KABKOT":"KOTA BOGOR","ID_KEC":"32.71.05","KECAMATAN":"BOGOR UTARA","ID_DESA":"32.71.05.1008","DESA":"CIMAHPAR"}},{"type":"Feature","geometry":{"coordinates":[[[106.83094201432145,-6.623035625378064],[106.83992516716265,-6.623035625378064],[106.83992516716265,-6.632018083968159],[106.83094201432145,-6.632018083968159],[106.83094201432145,-6.623035625378064]]],"type":"Polygon"},"properties":{"fid":496848,"ID_GRID":5074646,"INDEKS":0.5044327723974638,"STATUS":"SEDANG","ID_PROV":"32","PROVINSI":"JAWA BARAT","ID_KABKOT":"32.71","KABKOT":"KOTA BOGOR","ID_KEC":"32.71.02","KECAMATAN":"BOGOR TIMUR","ID_DESA":"32.71.02.1003","DESA":"KATULAMPA"}},{"type":"Feature","geometry":{"coordinates":[[[106.83094201432145,-6.632018083968159],[106.83992516716265,-6.632018083968159],[106.83992516716265,-6.641000376665055],[106.83094201432145,-6.641000376665055],[106.83094201432145,-6.632018083968159]]],"type":"Polygon"},"properties":{"fid":496849,"ID_GRID":5074647,"INDEKS":0.36559761156213477,"STATUS":"CUKUP","ID_PROV":"32","PROVINSI":"JAWA BARAT","ID_KABKOT":"32.71","KABKOT":"KOTA BOGOR","ID_KEC":"32.71.02","KECAMATAN":"BOGOR TIMUR","ID_DESA":"32.71.02.1005","DESA":"SINDANGRASA"}},{"type":"Feature","geometry":{"coordinates":[[[106.83094201432145,-6.641000376665055],[106.83992516716265,-6.641000376665055],[106.83992516716265,-6.649982503248262],[106.83094201432145,-6.649982503248262],[106.83094201432145,-6.641000376665055]]],"type":"Polygon"},"properties":{"fid":496850,"ID_GRID":5074648,"INDEKS":0.42085763082475397,"STATUS":"SEDANG","ID_PROV":"32","PROVINSI":"JAWA BARAT","ID_KABKOT":"32.71","KABKOT":"KOTA BOGOR","ID_KEC":"32.71.01","KECAMATAN":"BOGOR SELATAN","ID_DESA":"32.71.01.1013","DESA":"MUARA SARI"}},{"type":"Feature","geometry":{"coordinates":[[[106.83094201432145,-6.649982503248262],[106.83992516716265,-6.649982503248262],[106.83992516716265,-6.658964463497317],[106.83094201432145,-6.658964463497317],[106.83094201432145,-6.649982503248262]]],"type":"Polygon"},"properties":{"fid":496851,"ID_GRID":5074649,"INDEKS":0.5364331552582841,"STATUS":"SEDANG","ID_PROV":"32","PROVINSI":"JAWA BARAT","ID_KABKOT":"32.71","KABKOT":"KOTA BOGOR","ID_KEC":"32.71.01","KECAMATAN":"BOGOR SELATAN","ID_DESA":"32.71.01.1011","DESA":"KERTAMAYA"}},{"type":"Feature","geometry":{"coordinates":[[[106.83094201432145,-6.658964463497317],[106.83992516716265,-6.658964463497317],[106.83992516716265,-6.66794625719177],[106.83094201432145,-6.66794625719177],[106.83094201432145,-6.658964463497317]]],"type":"Polygon"},"properties":{"fid":496852,"ID_GRID":5074650,"INDEKS":0.4912976437047416,"STATUS":"SEDANG","ID_PROV":"32","PROVINSI":"JAWA BARAT","ID_KABKOT":"32.71","KABKOT":"KOTA BOGOR","ID_KEC":"32.71.01","KECAMATAN":"BOGOR SELATAN","ID_DESA":"32.71.01.1009","DESA":"BOJONG KERTA"}},{"type":"Feature","geometry":{"coordinates":[[[106.83094201432145,-6.66794625719177],[106.83992516716265,-6.66794625719177],[106.83992516716265,-6.676927884111197],[106.83094201432145,-6.676927884111197],[106.83094201432145,-6.66794625719177]]],"type":"Polygon"},"properties":{"fid":496853,"ID_GRID":5074651,"INDEKS":0.524112319850901,"STATUS":"SEDANG","ID_PROV":"32","PROVINSI":"JAWA BARAT","ID_KABKOT":"32.71","KABKOT":"KOTA BOGOR","ID_KEC":"32.71.01","KECAMATAN":"BOGOR SELATAN","ID_DESA":"32.71.01.1009","DESA":"BOJONG KERTA"}},{"type":"Feature","geometry":{"coordinates":[[[106.83992516716265,-6.641000376665055],[106.84890832000384,-6.641000376665055],[106.84890832000384,-6.649982503248262],[106.83992516716265,-6.649982503248262],[106.83992516716265,-6.641000376665055]]],"type":"Polygon"},"properties":{"fid":497022,"ID_GRID":5077648,"INDEKS":0.4039030338698955,"STATUS":"SEDANG","ID_PROV":"32","PROVINSI":"JAWA BARAT","ID_KABKOT":"32.71","KABKOT":"KOTA BOGOR","ID_KEC":"32.71.02","KECAMATAN":"BOGOR TIMUR","ID_DESA":"32.71.02.1004","DESA":"SINDANGSARI"}},{"type":"Feature","geometry":{"coordinates":[[[106.83992516716265,-6.649982503248262],[106.84890832000384,-6.649982503248262],[106.84890832000384,-6.658964463497317],[106.83992516716265,-6.658964463497317],[106.83992516716265,-6.649982503248262]]],"type":"Polygon"},"properties":{"fid":497023,"ID_GRID":5077649,"INDEKS":0.3981684352467102,"STATUS":"CUKUP","ID_PROV":"32","PROVINSI":"JAWA BARAT","ID_KABKOT":"32.71","KABKOT":"KOTA BOGOR","ID_KEC":"32.71.01","KECAMATAN":"BOGOR SELATAN","ID_DESA":"32.71.01.1012","DESA":"HARJASARI"}},{"type":"Feature","geometry":{"coordinates":[[[106.83992516716265,-6.66794625719177],[106.84890832000384,-6.66794625719177],[106.84890832000384,-6.676927884111197],[106.83992516716265,-6.676927884111197],[106.83992516716265,-6.66794625719177]]],"type":"Polygon"},"properties":{"fid":497025,"ID_GRID":5077651,"INDEKS":0.45117246348962003,"STATUS":"SEDANG","ID_PROV":"32","PROVINSI":"JAWA BARAT","ID_KABKOT":"32.71","KABKOT":"KOTA BOGOR","ID_KEC":"32.71.01","KECAMATAN":"BOGOR SELATAN","ID_DESA":"32.71.01.1009","DESA":"BOJONG KERTA"}}]}