{"type":"FeatureCollection","features":[{"type":"Feature","geometry":{"coordinates":[106.81527709999999,-6.2151483],"type":"Point"},"properties":{"NAMA":"PASAR BENDUNGAN HILIR","TIPE_1":"PERDAGANGAN DAN RETAIL","TIPE_2":"PASAR","TIPE_3":"PASAR TRADISIONAL","TELEPON":"","ALAMAT":"JL. BENDUNGAN HILIR NO.4 14, RT.14/RW.1, BEND. HILIR, KECAMATAN TANAH ABANG, KOTA JAKARTA PUSAT, DAERAH KHUSUS IBUKOTA JAKARTA 10210","ID_PROV":"31","PROVINSI":"DKI JAKARTA","ID_KABKOT":"31.71","KABKOT":"KOTA ADM. JAKARTA PUSAT","ID_KEC":"31.71.07","KECAMATAN":"TANAH ABANG","ID_DESA":"31.71.07.1002","DESA":"BENDUNGAN HILIR","LATITUDE":-6.2151483,"LONGITUDE":106.8152771,"STATUS":"BUKA","TANGGAL PENGUMPULAN":"Q2 2025","TANGGAL UPDATE":"17/06/2025"}},{"type":"Feature","geometry":{"coordinates":[106.8624776,-6.1723159],"type":"Point"},"properties":{"NAMA":"PASAR CEMPAKA PUTIH","TIPE_1":"PERDAGANGAN DAN RETAIL","TIPE_2":"PASAR","TIPE_3":"PASAR TRADISIONAL","TELEPON":"","ALAMAT":"CEMP. PUTIH BAR., KEC. CEMP. PUTIH, KOTA JAKARTA PUSAT, DAERAH KHUSUS IBUKOTA JAKARTA","ID_PROV":"31","PROVINSI":"DKI JAKARTA","ID_KABKOT":"31.71","KABKOT":"KOTA ADM. JAKARTA PUSAT","ID_KEC":"31.71.05","KECAMATAN":"CEMPAKA PUTIH","ID_DESA":"31.71.05.1002","DESA":"CEMPAKA PUTIH BARAT","LATITUDE":-6.1723159,"LONGITUDE":106.8624776,"STATUS":"BUKA","TANGGAL PENGUMPULAN":"Q2 2025","TANGGAL UPDATE":"17/06/2025"}},{"type":"Feature","geometry":{"coordinates":[106.84104149999999,-6.1973333],"type":"Point"},"properties":{"NAMA":"PASAR CIKINI","TIPE_1":"PERDAGANGAN DAN RETAIL","TIPE_2":"PASAR","TIPE_3":"PASAR TRADISIONAL","TELEPON":"0852-2230-8405","ALAMAT":"JL. PEGANGSAAN TIMUR NO.2002 1, RT.1/RW.1, PEGANGSAAN, KEC. MENTENG, KOTA JAKARTA PUSAT, DAERAH KHUSUS IBUKOTA JAKARTA 10310","ID_PROV":"31","PROVINSI":"DKI JAKARTA","ID_KABKOT":"31.71","KABKOT":"KOTA ADM. JAKARTA PUSAT","ID_KEC":"31.71.06","KECAMATAN":"MENTENG","ID_DESA":"31.71.06.1002","DESA":"PEGANGSAAN","LATITUDE":-6.1973333,"LONGITUDE":106.8410415,"STATUS":"BUKA","TANGGAL PENGUMPULAN":"Q2 2025","TANGGAL UPDATE":"17/06/2025"}},{"type":"Feature","geometry":{"coordinates":[106.8184704,-6.1882894],"type":"Point"},"properties":{"NAMA":"PASAR GANDARIA","TIPE_1":"PERDAGANGAN DAN RETAIL","TIPE_2":"PASAR","TIPE_3":"PASAR TRADISIONAL","TELEPON":"","ALAMAT":"JALAN KEBON KACANG NO. 2 RT. 05 / RW. 06 RT.5, RT.5/RW.5, KB. KACANG, KECAMATAN TANAH ABANG, KOTA JAKARTA PUSAT, DAERAH KHUSUS IBUKOTA JAKARTA 10240","ID_PROV":"31","PROVINSI":"DKI JAKARTA","ID_KABKOT":"31.71","KABKOT":"KOTA ADM. JAKARTA PUSAT","ID_KEC":"31.71.07","KECAMATAN":"TANAH ABANG","ID_DESA":"31.71.07.1006","DESA":"KEBON KACANG","LATITUDE":-6.1882894,"LONGITUDE":106.8184704,"STATUS":"BUKA","TANGGAL PENGUMPULAN":"Q2 2025","TANGGAL UPDATE":"17/06/2025"}},{"type":"Feature","geometry":{"coordinates":[106.8476592,-6.1821742],"type":"Point"},"properties":{"NAMA":"PASAR GAPLOK","TIPE_1":"PERDAGANGAN DAN RETAIL","TIPE_2":"PASAR","TIPE_3":"PASAR TRADISIONAL","TELEPON":"","ALAMAT":"JALAN KRAMAT PULO DALAM 1 .. KECAMATAN:SENEN, KELURAHAN:KRAMAT, RT.9/RW.3, KEC. SENEN, KOTA JAKARTA PUSAT, DAERAH KHUSUS IBUKOTA JAKARTA 10450","ID_PROV":"31","PROVINSI":"DKI JAKARTA","ID_KABKOT":"31.71","KABKOT":"KOTA ADM. JAKARTA PUSAT","ID_KEC":"31.71.04","KECAMATAN":"SENEN","ID_DESA":"31.71.04.1004","DESA":"KRAMAT","LATITUDE":-6.1821742,"LONGITUDE":106.8476592,"STATUS":"BUKA","TANGGAL PENGUMPULAN":"Q2 2025","TANGGAL UPDATE":"17/06/2025"}},{"type":"Feature","geometry":{"coordinates":[106.8472735,-6.1649328],"type":"Point"},"properties":{"NAMA":"PASAR GARDU ASEM","TIPE_1":"PERDAGANGAN DAN RETAIL","TIPE_2":"PASAR","TIPE_3":"PASAR TRADISIONAL","TELEPON":"","ALAMAT":"JL. MANTRI RAYA NO.80C, RT.7/RW.7, KEMAYORAN, CENTRAL JAKARTA CITY, JAKARTA 10620","ID_PROV":"31","PROVINSI":"DKI JAKARTA","ID_KABKOT":"31.71","KABKOT":"KOTA ADM. JAKARTA PUSAT","ID_KEC":"31.71.03","KECAMATAN":"KEMAYORAN","ID_DESA":"31.71.03.1001","DESA":"KEMAYORAN","LATITUDE":-6.1649328,"LONGITUDE":106.8472735,"STATUS":"BUKA","TANGGAL PENGUMPULAN":"Q2 2025","TANGGAL UPDATE":"17/06/2025"}},{"type":"Feature","geometry":{"coordinates":[106.8597701,-6.1800342],"type":"Point"},"properties":{"NAMA":"PASAR GEMBRONG BARU","TIPE_1":"PERDAGANGAN DAN RETAIL","TIPE_2":"PASAR","TIPE_3":"PASAR TRADISIONAL","TELEPON":"","ALAMAT":"JL. PANGKALAN ASEM NO.35 7, RT.8/RW.11, CEMP. PUTIH BAR., KEC. CEMP. PUTIH, KOTA JAKARTA PUSAT, DAERAH KHUSUS IBUKOTA JAKARTA 10520","ID_PROV":"31","PROVINSI":"DKI JAKARTA","ID_KABKOT":"31.71","KABKOT":"KOTA ADM. JAKARTA PUSAT","ID_KEC":"31.71.05","KECAMATAN":"CEMPAKA PUTIH","ID_DESA":"31.71.05.1002","DESA":"CEMPAKA PUTIH BARAT","LATITUDE":-6.1800342,"LONGITUDE":106.8597701,"STATUS":"BUKA","TANGGAL PENGUMPULAN":"Q2 2025","TANGGAL UPDATE":"17/06/2025"}},{"type":"Feature","geometry":{"coordinates":[106.8324144,-6.1864643],"type":"Point"},"properties":{"NAMA":"PASAR GONDANGDIA - PASAR JAKARTA","TIPE_1":"PERDAGANGAN DAN RETAIL","TIPE_2":"PASAR","TIPE_3":"PASAR TRADISIONAL","TELEPON":"0822-1060-0036","ALAMAT":"JALAN SRIKAYA NO.RAYA 16, RT.16/RW.6, KB. SIRIH, KEC. MENTENG, KOTA JAKARTA PUSAT, DAERAH KHUSUS IBUKOTA JAKARTA 10340","ID_PROV":"31","PROVINSI":"DKI JAKARTA","ID_KABKOT":"31.71","KABKOT":"KOTA ADM. JAKARTA PUSAT","ID_KEC":"31.71.06","KECAMATAN":"MENTENG","ID_DESA":"31.71.06.1005","DESA":"KEBON SIRIH","LATITUDE":-6.1864643,"LONGITUDE":106.8324144,"STATUS":"BUKA","TANGGAL PENGUMPULAN":"Q2 2025","TANGGAL UPDATE":"17/06/2025"}},{"type":"Feature","geometry":{"coordinates":[106.8306892,-6.1515853],"type":"Point"},"properties":{"NAMA":"PASAR GOTONG ROYONG","TIPE_1":"PERDAGANGAN DAN RETAIL","TIPE_2":"PASAR","TIPE_3":"PASAR TRADISIONAL","TELEPON":"","ALAMAT":"JL. GOTONG ROYONG NO.12, RT.12/RW.7, KARTINI, SAWAH BESAR, CENTRAL JAKARTA CITY, JAKARTA 10750","ID_PROV":"31","PROVINSI":"DKI JAKARTA","ID_KABKOT":"31.71","KABKOT":"KOTA ADM. JAKARTA PUSAT","ID_KEC":"31.71.02","KECAMATAN":"SAWAH BESAR","ID_DESA":"31.71.02.1002","DESA":"KARANG ANYAR","LATITUDE":-6.1515853,"LONGITUDE":106.8306892,"STATUS":"BUKA","TANGGAL PENGUMPULAN":"Q2 2025","TANGGAL UPDATE":"17/06/2025"}},{"type":"Feature","geometry":{"coordinates":[106.8429565,-6.1739816],"type":"Point"},"properties":{"NAMA":"PASAR INDUK SENEN","TIPE_1":"PERDAGANGAN DAN RETAIL","TIPE_2":"PASAR","TIPE_3":"PASAR TRADISIONAL","TELEPON":"","ALAMAT":"JL. PASAR SENEN, RW.1, JOHAR BARU, SENEN, CENTRAL JAKARTA CITY, JAKARTA 10410","ID_PROV":"31","PROVINSI":"DKI JAKARTA","ID_KABKOT":"31.71","KABKOT":"KOTA ADM. JAKARTA PUSAT","ID_KEC":"31.71.04","KECAMATAN":"SENEN","ID_DESA":"31.71.04.1001","DESA":"SENEN","LATITUDE":-6.1739816,"LONGITUDE":106.8429565,"STATUS":"BUKA","TANGGAL PENGUMPULAN":"Q2 2025","TANGGAL UPDATE":"17/06/2025"}},{"type":"Feature","geometry":{"coordinates":[106.81304689999999,-6.1932576],"type":"Point"},"properties":{"NAMA":"PASAR INPRES KEBON MELATI","TIPE_1":"PERDAGANGAN DAN RETAIL","TIPE_2":"PASAR","TIPE_3":"PASAR TRADISIONAL","TELEPON":"","ALAMAT":"JL. SABENI RAYA NO.20, RT.20/RW.12, KEBON MELATI, TANAH ABANG, CENTRAL JAKARTA CITY, JAKARTA 10230","ID_PROV":"31","PROVINSI":"DKI JAKARTA","ID_KABKOT":"31.71","KABKOT":"KOTA ADM. JAKARTA PUSAT","ID_KEC":"31.71.07","KECAMATAN":"TANAH ABANG","ID_DESA":"31.71.07.1005","DESA":"KEBON MELATI","LATITUDE":-6.1932576,"LONGITUDE":106.8130469,"STATUS":"BUKA","TANGGAL PENGUMPULAN":"Q2 2025","TANGGAL UPDATE":"17/06/2025"}},{"type":"Feature","geometry":{"coordinates":[106.8472411,-6.165036],"type":"Point"},"properties":{"NAMA":"PASAR JAMBLANG","TIPE_1":"PERDAGANGAN DAN RETAIL","TIPE_2":"PASAR","TIPE_3":"PASAR TRADISIONAL","TELEPON":"","ALAMAT":"JL. KEPU SEL. NO.2 13, RT.13/RW.9, KEMAYORAN, KEC. SENEN, KOTA JAKARTA PUSAT, DAERAH KHUSUS IBUKOTA JAKARTA 10460","ID_PROV":"31","PROVINSI":"DKI JAKARTA","ID_KABKOT":"31.71","KABKOT":"KOTA ADM. JAKARTA PUSAT","ID_KEC":"31.71.03","KECAMATAN":"KEMAYORAN","ID_DESA":"31.71.03.1001","DESA":"KEMAYORAN","LATITUDE":-6.165036,"LONGITUDE":106.8472411,"STATUS":"BUKA","TANGGAL PENGUMPULAN":"Q2 2025","TANGGAL UPDATE":"17/06/2025"}},{"type":"Feature","geometry":{"coordinates":[106.863641,-6.1837165],"type":"Point"},"properties":{"NAMA":"PASAR JATIRAWASARI","TIPE_1":"PERDAGANGAN DAN RETAIL","TIPE_2":"PASAR","TIPE_3":"PASAR TRADISIONAL","TELEPON":"0878-8195-2369","ALAMAT":"JL. JATI RAWASARI NO.14, RT.5/RW.5, CEMP. PUTIH BAR., KEC. CEMP. PUTIH, KOTA JAKARTA PUSAT, DAERAH KHUSUS IBUKOTA JAKARTA 10520","ID_PROV":"31","PROVINSI":"DKI JAKARTA","ID_KABKOT":"31.71","KABKOT":"KOTA ADM. JAKARTA PUSAT","ID_KEC":"31.71.05","KECAMATAN":"CEMPAKA PUTIH","ID_DESA":"31.71.05.1002","DESA":"CEMPAKA PUTIH BARAT","LATITUDE":-6.1837165,"LONGITUDE":106.863641,"STATUS":"BUKA","TANGGAL PENGUMPULAN":"Q2 2025","TANGGAL UPDATE":"17/06/2025"}},{"type":"Feature","geometry":{"coordinates":[106.8327021,-6.1613695],"type":"Point"},"properties":{"NAMA":"PASAR JAYA PASAR BARU METRO ATOM","TIPE_1":"PERDAGANGAN DAN RETAIL","TIPE_2":"PASAR","TIPE_3":"PASAR MODERN","TELEPON":"(021) 3845177","ALAMAT":"JAKARTA PUSAT, RT.1/RW.3, PS. BARU, KECAMATAN SAWAH BESAR, KOTA JAKARTA PUSAT, DAERAH KHUSUS IBUKOTA JAKARTA 10710","ID_PROV":"31","PROVINSI":"DKI JAKARTA","ID_KABKOT":"31.71","KABKOT":"KOTA ADM. JAKARTA PUSAT","ID_KEC":"31.71.02","KECAMATAN":"SAWAH BESAR","ID_DESA":"31.71.02.1001","DESA":"PASAR BARU","LATITUDE":-6.1613695,"LONGITUDE":106.8327021,"STATUS":"BUKA","TANGGAL PENGUMPULAN":"Q2 2025","TANGGAL UPDATE":"17/06/2025"}},{"type":"Feature","geometry":{"coordinates":[106.8626672,-6.1730157],"type":"Point"},"properties":{"NAMA":"PASAR JAYA PASAR CEMPAKA PUTIH","TIPE_1":"PERDAGANGAN DAN RETAIL","TIPE_2":"PASAR","TIPE_3":"PASAR MODERN","TELEPON":"(021) 21241955","ALAMAT":"JL. CEMP. PUTIH BAR. XI NO.003, RT.13/RW.8, CEMP. PUTIH BAR., KEC. CEMP. PUTIH, KOTA JAKARTA PUSAT, DAERAH KHUSUS IBUKOTA JAKARTA 10520","ID_PROV":"31","PROVINSI":"DKI JAKARTA","ID_KABKOT":"31.71","KABKOT":"KOTA ADM. JAKARTA PUSAT","ID_KEC":"31.71.05","KECAMATAN":"CEMPAKA PUTIH","ID_DESA":"31.71.05.1002","DESA":"CEMPAKA PUTIH BARAT","LATITUDE":-6.1730157,"LONGITUDE":106.8626672,"STATUS":"BUKA","TANGGAL PENGUMPULAN":"Q2 2025","TANGGAL UPDATE":"17/06/2025"}},{"type":"Feature","geometry":{"coordinates":[106.839223,-6.1974231],"type":"Point"},"properties":{"NAMA":"PASAR JL. SURABAYA","TIPE_1":"PERDAGANGAN DAN RETAIL","TIPE_2":"PASAR","TIPE_3":"PASAR TRADISIONAL","TELEPON":"","ALAMAT":"JL. SURABAYA NO.20-21, RT.16/RW.5, MENTENG, KEC. MENTENG, KOTA JAKARTA PUSAT, DAERAH KHUSUS IBUKOTA JAKARTA 10310","ID_PROV":"31","PROVINSI":"DKI JAKARTA","ID_KABKOT":"31.71","KABKOT":"KOTA ADM. JAKARTA PUSAT","ID_KEC":"31.71.06","KECAMATAN":"MENTENG","ID_DESA":"31.71.06.1001","DESA":"MENTENG","LATITUDE":-6.1974231,"LONGITUDE":106.839223,"STATUS":"BUKA","TANGGAL PENGUMPULAN":"Q2 2025","TANGGAL UPDATE":"17/06/2025"}},{"type":"Feature","geometry":{"coordinates":[106.8201503,-6.1775202],"type":"Point"},"properties":{"NAMA":"PASAR JUMAT","TIPE_1":"PERDAGANGAN DAN RETAIL","TIPE_2":"PASAR","TIPE_3":"PASAR TRADISIONAL","TELEPON":"","ALAMAT":"JL. TANAH ABANG TIMUR NO.3 8, RT.3/RW.3, GAMBIR, CENTRAL JAKARTA CITY, JAKARTA 10110","ID_PROV":"31","PROVINSI":"DKI JAKARTA","ID_KABKOT":"31.71","KABKOT":"KOTA ADM. JAKARTA PUSAT","ID_KEC":"31.71.01","KECAMATAN":"GAMBIR","ID_DESA":"31.71.01.1001","DESA":"GAMBIR","LATITUDE":-6.1775202,"LONGITUDE":106.8201503,"STATUS":"BUKA","TANGGAL PENGUMPULAN":"Q2 2025","TANGGAL UPDATE":"17/06/2025"}},{"type":"Feature","geometry":{"coordinates":[106.8112981,-6.2046168],"type":"Point"},"properties":{"NAMA":"PASAR KALIMATI","TIPE_1":"PERDAGANGAN DAN RETAIL","TIPE_2":"PASAR","TIPE_3":"PASAR TRADISIONAL","TELEPON":"","ALAMAT":"JL. KARET PS. BARU BARAT VII NO.42, RT.1/RW.7, KARET TENGSIN, KECAMATAN TANAH ABANG, KOTA JAKARTA PUSAT, DAERAH KHUSUS IBUKOTA JAKARTA 10250","ID_PROV":"31","PROVINSI":"DKI JAKARTA","ID_KABKOT":"31.71","KABKOT":"KOTA ADM. JAKARTA PUSAT","ID_KEC":"31.71.07","KECAMATAN":"TANAH ABANG","ID_DESA":"31.71.07.1003","DESA":"KARET TENGSIN","LATITUDE":-6.2046168,"LONGITUDE":106.8112981,"STATUS":"BUKA","TANGGAL PENGUMPULAN":"Q2 2025","TANGGAL UPDATE":"17/06/2025"}},{"type":"Feature","geometry":{"coordinates":[106.8276145,-6.1566834],"type":"Point"},"properties":{"NAMA":"PASAR KARANG ANYAR","TIPE_1":"PERDAGANGAN DAN RETAIL","TIPE_2":"PASAR","TIPE_3":"PASAR TRADISIONAL","TELEPON":"0821-1308-0318","ALAMAT":"PASAR, KARANG ANYAR, KECAMATAN SAWAH BESAR, KOTA JAKARTA PUSAT, DAERAH KHUSUS IBUKOTA JAKARTA 10740","ID_PROV":"31","PROVINSI":"DKI JAKARTA","ID_KABKOT":"31.71","KABKOT":"KOTA ADM. JAKARTA PUSAT","ID_KEC":"31.71.02","KECAMATAN":"SAWAH BESAR","ID_DESA":"31.71.02.1002","DESA":"KARANG ANYAR","LATITUDE":-6.1566834,"LONGITUDE":106.8276145,"STATUS":"BUKA","TANGGAL PENGUMPULAN":"Q2 2025","TANGGAL UPDATE":"17/06/2025"}},{"type":"Feature","geometry":{"coordinates":[106.8286959,-6.156827],"type":"Point"},"properties":{"NAMA":"PASAR KARANG ANYAR SAWAH BESAR JAKARTA PUSAT","TIPE_1":"PERDAGANGAN DAN RETAIL","TIPE_2":"PASAR","TIPE_3":"PASAR TRADISIONAL","TELEPON":"0812-3443-6751","ALAMAT":"PS. KARANG ANYAR, GG. 10, RT.9/RW.2, KARANG ANYAR, KECAMATAN SAWAH BESAR, KOTA JAKARTA PUSAT, DAERAH KHUSUS IBUKOTA JAKARTA","ID_PROV":"31","PROVINSI":"DKI JAKARTA","ID_KABKOT":"31.71","KABKOT":"KOTA ADM. JAKARTA PUSAT","ID_KEC":"31.71.02","KECAMATAN":"SAWAH BESAR","ID_DESA":"31.71.02.1002","DESA":"KARANG ANYAR","LATITUDE":-6.156827,"LONGITUDE":106.8286959,"STATUS":"BUKA","TANGGAL PENGUMPULAN":"Q2 2025","TANGGAL UPDATE":"17/06/2025"}},{"type":"Feature","geometry":{"coordinates":[106.8550864,-6.1610343],"type":"Point"},"properties":{"NAMA":"PASAR KEMAYORAN","TIPE_1":"PERDAGANGAN DAN RETAIL","TIPE_2":"PASAR","TIPE_3":"PASAR TRADISIONAL","TELEPON":"","ALAMAT":"UTAN PANJANG, KEC. KEMAYORAN, KOTA JAKARTA PUSAT, DAERAH KHUSUS IBUKOTA JAKARTA","ID_PROV":"31","PROVINSI":"DKI JAKARTA","ID_KABKOT":"31.71","KABKOT":"KOTA ADM. JAKARTA PUSAT","ID_KEC":"31.71.03","KECAMATAN":"KEMAYORAN","ID_DESA":"31.71.03.1008","DESA":"UTAN PANJANG","LATITUDE":-6.1610343,"LONGITUDE":106.8550864,"STATUS":"BUKA","TANGGAL PENGUMPULAN":"Q2 2025","TANGGAL UPDATE":"17/06/2025"}},{"type":"Feature","geometry":{"coordinates":[106.8480559,-6.1928162],"type":"Point"},"properties":{"NAMA":"PASAR KENARI LAMA","TIPE_1":"PERDAGANGAN DAN RETAIL","TIPE_2":"PASAR","TIPE_3":"PASAR TRADISIONAL","TELEPON":"","ALAMAT":"JL. SALEMBA RAYA, RW.5, KENARI, SENEN, CENTRAL JAKARTA CITY, JAKARTA 10430","ID_PROV":"31","PROVINSI":"DKI JAKARTA","ID_KABKOT":"31.71","KABKOT":"KOTA ADM. JAKARTA PUSAT","ID_KEC":"31.71.04","KECAMATAN":"SENEN","ID_DESA":"31.71.04.1002","DESA":"KENARI","LATITUDE":-6.1928162,"LONGITUDE":106.8480559,"STATUS":"BUKA","TANGGAL PENGUMPULAN":"Q2 2025","TANGGAL UPDATE":"17/06/2025"}},{"type":"Feature","geometry":{"coordinates":[106.8407292,-6.1613845],"type":"Point"},"properties":{"NAMA":"PASAR KOMBONGAN","TIPE_1":"PERDAGANGAN DAN RETAIL","TIPE_2":"PASAR","TIPE_3":"PASAR TRADISIONAL","TELEPON":"","ALAMAT":"RT.14/RW.1, GN. SAHARI SEL., KEC. KEMAYORAN, KOTA JAKARTA PUSAT, DAERAH KHUSUS IBUKOTA JAKARTA 10610","ID_PROV":"31","PROVINSI":"DKI JAKARTA","ID_KABKOT":"31.71","KABKOT":"KOTA ADM. JAKARTA PUSAT","ID_KEC":"31.71.03","KECAMATAN":"KEMAYORAN","ID_DESA":"31.71.03.1005","DESA":"GUNUNG SAHARI SELATAN","LATITUDE":-6.1613845,"LONGITUDE":106.8407292,"STATUS":"BUKA","TANGGAL PENGUMPULAN":"Q2 2025","TANGGAL UPDATE":"17/06/2025"}},{"type":"Feature","geometry":{"coordinates":[106.8409608,-6.1848278],"type":"Point"},"properties":{"NAMA":"PASAR KWITANG","TIPE_1":"PERDAGANGAN DAN RETAIL","TIPE_2":"PASAR","TIPE_3":"PASAR TRADISIONAL","TELEPON":"","ALAMAT":"JL. KRAMAT KWITANG III NO.184A 8, RT.8/RW.6, KWITANG, KEC. SENEN, KOTA JAKARTA PUSAT, DAERAH KHUSUS IBUKOTA JAKARTA 10420","ID_PROV":"31","PROVINSI":"DKI JAKARTA","ID_KABKOT":"31.71","KABKOT":"KOTA ADM. JAKARTA PUSAT","ID_KEC":"31.71.04","KECAMATAN":"SENEN","ID_DESA":"31.71.04.1005","DESA":"KWITANG","LATITUDE":-6.1848278,"LONGITUDE":106.8409608,"STATUS":"BUKA","TANGGAL PENGUMPULAN":"Q2 2025","TANGGAL UPDATE":"17/06/2025"}},{"type":"Feature","geometry":{"coordinates":[106.8122812,-6.192557],"type":"Point"},"properties":{"NAMA":"PASAR LONTAR KEBON MELATI","TIPE_1":"PERDAGANGAN DAN RETAIL","TIPE_2":"PASAR","TIPE_3":"PASAR TRADISIONAL","TELEPON":"(021) 3103992","ALAMAT":"JL. SABENI RAYA A NO.33 11, RT.20/RW.12, KB. MELATI, KECAMATAN TANAH ABANG, KOTA JAKARTA PUSAT, DAERAH KHUSUS IBUKOTA JAKARTA 10230","ID_PROV":"31","PROVINSI":"DKI JAKARTA","ID_KABKOT":"31.71","KABKOT":"KOTA ADM. JAKARTA PUSAT","ID_KEC":"31.71.07","KECAMATAN":"TANAH ABANG","ID_DESA":"31.71.07.1005","DESA":"KEBON MELATI","LATITUDE":-6.192557,"LONGITUDE":106.8122812,"STATUS":"BUKA","TANGGAL PENGUMPULAN":"Q2 2025","TANGGAL UPDATE":"17/06/2025"}},{"type":"Feature","geometry":{"coordinates":[106.8530333,-6.1621865],"type":"Point"},"properties":{"NAMA":"PASAR MALAM JIUNG","TIPE_1":"PERDAGANGAN DAN RETAIL","TIPE_2":"PASAR","TIPE_3":"PASAR TRADISIONAL","TELEPON":"","ALAMAT":"JL. KEMAYORAN GEMPOL NO.KEL 2, RT.16/RW.5, KB. KOSONG, KEC. KEMAYORAN, KOTA JAKARTA PUSAT, DAERAH KHUSUS IBUKOTA JAKARTA 10630","ID_PROV":"31","PROVINSI":"DKI JAKARTA","ID_KABKOT":"31.71","KABKOT":"KOTA ADM. JAKARTA PUSAT","ID_KEC":"31.71.03","KECAMATAN":"KEMAYORAN","ID_DESA":"31.71.03.1002","DESA":"KEBON KOSONG","LATITUDE":-6.1621865,"LONGITUDE":106.8530333,"STATUS":"BUKA","TANGGAL PENGUMPULAN":"Q2 2025","TANGGAL UPDATE":"17/06/2025"}},{"type":"Feature","geometry":{"coordinates":[106.8537559,-6.1560011],"type":"Point"},"properties":{"NAMA":"PASAR MALAM KEMAYORAN","TIPE_1":"PERDAGANGAN DAN RETAIL","TIPE_2":"PASAR","TIPE_3":"PASAR TRADISIONAL","TELEPON":"","ALAMAT":"RT.13/RW.6, KB. KOSONG, KEC. KEMAYORAN, KOTA JAKARTA PUSAT, DAERAH KHUSUS IBUKOTA JAKARTA 10630","ID_PROV":"31","PROVINSI":"DKI JAKARTA","ID_KABKOT":"31.71","KABKOT":"KOTA ADM. JAKARTA PUSAT","ID_KEC":"31.71.03","KECAMATAN":"KEMAYORAN","ID_DESA":"31.71.03.1002","DESA":"KEBON KOSONG","LATITUDE":-6.1560011,"LONGITUDE":106.8537559,"STATUS":"BUKA","TANGGAL PENGUMPULAN":"Q2 2025","TANGGAL UPDATE":"17/06/2025"}},{"type":"Feature","geometry":{"coordinates":[106.82226879999999,-6.1388543],"type":"Point"},"properties":{"NAMA":"PASAR MALAM PECAH KULIT","TIPE_1":"PERDAGANGAN DAN RETAIL","TIPE_2":"PASAR","TIPE_3":"PASAR TRADISIONAL","TELEPON":"","ALAMAT":"GG. PD. TUAK JL. GG. BURUNG DALAM NO.28 3, RT.3/RW.2, PINANGSIA, KECAMATAN SAWAH BESAR, KOTA JAKARTA BARAT, DAERAH KHUSUS IBUKOTA JAKARTA 11110","ID_PROV":"31","PROVINSI":"DKI JAKARTA","ID_KABKOT":"31.71","KABKOT":"KOTA ADM. JAKARTA PUSAT","ID_KEC":"31.71.02","KECAMATAN":"SAWAH BESAR","ID_DESA":"31.71.02.1005","DESA":"MANGGA DUA SELATAN","LATITUDE":-6.1388543,"LONGITUDE":106.8222688,"STATUS":"BUKA","TANGGAL PENGUMPULAN":"Q2 2025","TANGGAL UPDATE":"17/06/2025"}},{"type":"Feature","geometry":{"coordinates":[106.8417393,-6.197792],"type":"Point"},"properties":{"NAMA":"PASAR MODERN CIKINI","TIPE_1":"PERDAGANGAN DAN RETAIL","TIPE_2":"PASAR","TIPE_3":"PASAR MODERN","TELEPON":"","ALAMAT":"JL. CIKINI AMPIUN NO.10, RT.1/RW.1, PEGANGSAAN, KEC. MENTENG, KOTA JAKARTA PUSAT, DAERAH KHUSUS IBUKOTA JAKARTA 10320","ID_PROV":"31","PROVINSI":"DKI JAKARTA","ID_KABKOT":"31.71","KABKOT":"KOTA ADM. JAKARTA PUSAT","ID_KEC":"31.71.06","KECAMATAN":"MENTENG","ID_DESA":"31.71.06.1002","DESA":"PEGANGSAAN","LATITUDE":-6.197792,"LONGITUDE":106.8417393,"STATUS":"BUKA","TANGGAL PENGUMPULAN":"Q2 2025","TANGGAL UPDATE":"17/06/2025"}},{"type":"Feature","geometry":{"coordinates":[106.84953139999999,-6.1678752],"type":"Point"},"properties":{"NAMA":"PASAR NANGKA BUNGUR","TIPE_1":"PERDAGANGAN DAN RETAIL","TIPE_2":"PASAR","TIPE_3":"PASAR TRADISIONAL","TELEPON":"(021) 42880259","ALAMAT":"JL. KALIBARU TIMUR NO.6, RT.6/RW.9, UTAN PANJANG, KEC. KEMAYORAN, KOTA JAKARTA PUSAT, DAERAH KHUSUS IBUKOTA JAKARTA 10650","ID_PROV":"31","PROVINSI":"DKI JAKARTA","ID_KABKOT":"31.71","KABKOT":"KOTA ADM. JAKARTA PUSAT","ID_KEC":"31.71.03","KECAMATAN":"KEMAYORAN","ID_DESA":"31.71.03.1008","DESA":"UTAN PANJANG","LATITUDE":-6.1678752,"LONGITUDE":106.8495314,"STATUS":"BUKA","TANGGAL PENGUMPULAN":"Q2 2025","TANGGAL UPDATE":"17/06/2025"}},{"type":"Feature","geometry":{"coordinates":[106.7961438,-6.2083165],"type":"Point"},"properties":{"NAMA":"PASAR PALMERAH","TIPE_1":"PERDAGANGAN DAN RETAIL","TIPE_2":"PASAR","TIPE_3":"PASAR TRADISIONAL","TELEPON":"","ALAMAT":"JL. PALMERAH TIMUR JL. PALMERAH SEL. NO.4, RT.4/RW.2, GELORA, KECAMATAN TANAH ABANG, KOTA JAKARTA PUSAT, DAERAH KHUSUS IBUKOTA JAKARTA 10350","ID_PROV":"31","PROVINSI":"DKI JAKARTA","ID_KABKOT":"31.71","KABKOT":"KOTA ADM. JAKARTA PUSAT","ID_KEC":"31.71.07","KECAMATAN":"TANAH ABANG","ID_DESA":"31.71.07.1001","DESA":"GELORA","LATITUDE":-6.2083165,"LONGITUDE":106.7961438,"STATUS":"BUKA","TANGGAL PENGUMPULAN":"Q2 2025","TANGGAL UPDATE":"17/06/2025"}},{"type":"Feature","geometry":{"coordinates":[106.8485873,-6.1921769],"type":"Point"},"properties":{"NAMA":"PASAR PASEBAN","TIPE_1":"PERDAGANGAN DAN RETAIL","TIPE_2":"PASAR","TIPE_3":"PASAR TRADISIONAL","TELEPON":"(021) 31927382","ALAMAT":"JL. KRAMAT RAYA NO.3 15, RT.15/RW.1, PASEBAN, KEC. SENEN, KOTA JAKARTA PUSAT, DAERAH KHUSUS IBUKOTA JAKARTA 10440","ID_PROV":"31","PROVINSI":"DKI JAKARTA","ID_KABKOT":"31.71","KABKOT":"KOTA ADM. JAKARTA PUSAT","ID_KEC":"31.71.04","KECAMATAN":"SENEN","ID_DESA":"31.71.04.1003","DESA":"PASEBAN","LATITUDE":-6.1921769,"LONGITUDE":106.8485873,"STATUS":"BUKA","TANGGAL PENGUMPULAN":"Q2 2025","TANGGAL UPDATE":"17/06/2025"}},{"type":"Feature","geometry":{"coordinates":[106.809475,-6.1981723],"type":"Point"},"properties":{"NAMA":"PASAR PINTU AIR PETAMBURAN","TIPE_1":"PERDAGANGAN DAN RETAIL","TIPE_2":"PASAR","TIPE_3":"PASAR TRADISIONAL","TELEPON":"0812-1378-5545","ALAMAT":"RT.1/RW.9, 9, PETAMBURAN, TANAH ABANG, CENTRAL JAKARTA CITY, JAKARTA 10260","ID_PROV":"31","PROVINSI":"DKI JAKARTA","ID_KABKOT":"31.71","KABKOT":"KOTA ADM. JAKARTA PUSAT","ID_KEC":"31.71.07","KECAMATAN":"TANAH ABANG","ID_DESA":"31.71.07.1004","DESA":"PETAMBURAN","LATITUDE":-6.1981723,"LONGITUDE":106.809475,"STATUS":"BUKA","TANGGAL PENGUMPULAN":"Q2 2025","TANGGAL UPDATE":"17/06/2025"}},{"type":"Feature","geometry":{"coordinates":[106.8720749,-6.1854948],"type":"Point"},"properties":{"NAMA":"PASAR RAWASARI","TIPE_1":"PERDAGANGAN DAN RETAIL","TIPE_2":"PASAR","TIPE_3":"PASAR TRADISIONAL","TELEPON":"","ALAMAT":"JL. RAWASARI SEL. NO.1 15, RT.16/RW.2, CEMP. PUTIH TIM., KEC. CEMP. PUTIH, KOTA JAKARTA PUSAT, DAERAH KHUSUS IBUKOTA JAKARTA 10510","ID_PROV":"31","PROVINSI":"DKI JAKARTA","ID_KABKOT":"31.71","KABKOT":"KOTA ADM. JAKARTA PUSAT","ID_KEC":"31.71.05","KECAMATAN":"CEMPAKA PUTIH","ID_DESA":"31.71.05.1001","DESA":"CEMPAKA PUTIH TIMUR","LATITUDE":-6.1854948,"LONGITUDE":106.8720749,"STATUS":"BUKA","TANGGAL PENGUMPULAN":"Q2 2025","TANGGAL UPDATE":"17/06/2025"}},{"type":"Feature","geometry":{"coordinates":[106.8429414,-6.1748586],"type":"Point"},"properties":{"NAMA":"PASAR SENEN","TIPE_1":"PERDAGANGAN DAN RETAIL","TIPE_2":"PASAR","TIPE_3":"PASAR TRADISIONAL","TELEPON":"","ALAMAT":"JL., RT.10/RW.2, SENEN, KEC. SENEN, KOTA JAKARTA PUSAT, DAERAH KHUSUS IBUKOTA JAKARTA 10410","ID_PROV":"31","PROVINSI":"DKI JAKARTA","ID_KABKOT":"31.71","KABKOT":"KOTA ADM. JAKARTA PUSAT","ID_KEC":"31.71.04","KECAMATAN":"SENEN","ID_DESA":"31.71.04.1001","DESA":"SENEN","LATITUDE":-6.1748586,"LONGITUDE":106.8429414,"STATUS":"BUKA","TANGGAL PENGUMPULAN":"Q2 2025","TANGGAL UPDATE":"17/06/2025"}},{"type":"Feature","geometry":{"coordinates":[106.8427246,-6.1761556],"type":"Point"},"properties":{"NAMA":"PASAR SENEN BLOK 2 DAN 3","TIPE_1":"PERDAGANGAN DAN RETAIL","TIPE_2":"PASAR","TIPE_3":"PASAR MODERN","TELEPON":"(021) 4201212","ALAMAT":"JL. PASAR SENEN NO.3, RW.3, SENEN, KEC. SENEN, KOTA JAKARTA PUSAT, DAERAH KHUSUS IBUKOTA JAKARTA 10410","ID_PROV":"31","PROVINSI":"DKI JAKARTA","ID_KABKOT":"31.71","KABKOT":"KOTA ADM. JAKARTA PUSAT","ID_KEC":"31.71.04","KECAMATAN":"SENEN","ID_DESA":"31.71.04.1001","DESA":"SENEN","LATITUDE":-6.1761556,"LONGITUDE":106.8427246,"STATUS":"BUKA","TANGGAL PENGUMPULAN":"Q2 2025","TANGGAL UPDATE":"17/06/2025"}},{"type":"Feature","geometry":{"coordinates":[106.8646028,-6.1566058],"type":"Point"},"properties":{"NAMA":"PASAR SERDANG","TIPE_1":"PERDAGANGAN DAN RETAIL","TIPE_2":"PASAR","TIPE_3":"PASAR TRADISIONAL","TELEPON":"","ALAMAT":"PS. SERDANG, JL. KP. IRIAN 2, RT.10/RW.11, SERDANG, KEC. KEMAYORAN, KOTA JAKARTA PUSAT, DAERAH KHUSUS IBUKOTA JAKARTA 10650","ID_PROV":"31","PROVINSI":"DKI JAKARTA","ID_KABKOT":"31.71","KABKOT":"KOTA ADM. JAKARTA PUSAT","ID_KEC":"31.71.03","KECAMATAN":"KEMAYORAN","ID_DESA":"31.71.03.1004","DESA":"SERDANG","LATITUDE":-6.1566058,"LONGITUDE":106.8646028,"STATUS":"BUKA","TANGGAL PENGUMPULAN":"Q2 2025","TANGGAL UPDATE":"17/06/2025"}},{"type":"Feature","geometry":{"coordinates":[106.8643999,-6.1644517],"type":"Point"},"properties":{"NAMA":"PASAR SUMUR BATU","TIPE_1":"PERDAGANGAN DAN RETAIL","TIPE_2":"PASAR","TIPE_3":"PASAR TRADISIONAL","TELEPON":"","ALAMAT":"JL. SERDANG RAYA, RT.1/RW.1, SUMUR BATU, KEC. KEMAYORAN, KOTA JAKARTA PUSAT, DAERAH KHUSUS IBUKOTA JAKARTA 10640","ID_PROV":"31","PROVINSI":"DKI JAKARTA","ID_KABKOT":"31.71","KABKOT":"KOTA ADM. JAKARTA PUSAT","ID_KEC":"31.71.03","KECAMATAN":"KEMAYORAN","ID_DESA":"31.71.03.1007","DESA":"SUMUR BATU","LATITUDE":-6.1644517,"LONGITUDE":106.8643999,"STATUS":"BUKA","TANGGAL PENGUMPULAN":"Q2 2025","TANGGAL UPDATE":"17/06/2025"}},{"type":"Feature","geometry":{"coordinates":[106.8146008,-6.188576],"type":"Point"},"properties":{"NAMA":"PASAR TANAH ABANG BLOK C","TIPE_1":"PERDAGANGAN DAN RETAIL","TIPE_2":"PASAR","TIPE_3":"PASAR TRADISIONAL","TELEPON":"","ALAMAT":"PASAR TANAH ABANG BLOK C JAKARTA, RT.13/RW.7, KB. KACANG, KECAMATAN TANAH ABANG, KOTA JAKARTA PUSAT, DAERAH KHUSUS IBUKOTA JAKARTA 10110","ID_PROV":"31","PROVINSI":"DKI JAKARTA","ID_KABKOT":"31.71","KABKOT":"KOTA ADM. JAKARTA PUSAT","ID_KEC":"31.71.07","KECAMATAN":"TANAH ABANG","ID_DESA":"31.71.07.1006","DESA":"KEBON KACANG","LATITUDE":-6.188576,"LONGITUDE":106.8146008,"STATUS":"BUKA","TANGGAL PENGUMPULAN":"Q2 2025","TANGGAL UPDATE":"17/06/2025"}},{"type":"Feature","geometry":{"coordinates":[106.8122113,-6.1892383],"type":"Point"},"properties":{"NAMA":"PASAR TANAH ABANG BLOK G","TIPE_1":"PERDAGANGAN DAN RETAIL","TIPE_2":"PASAR","TIPE_3":"PASAR TRADISIONAL","TELEPON":"(021) 21390099","ALAMAT":"JL. KB. JATI, RT.00/RW.00, KP. BALI, KECAMATAN TANAH ABANG, KOTA JAKARTA PUSAT, DAERAH KHUSUS IBUKOTA JAKARTA 10250","ID_PROV":"31","PROVINSI":"DKI JAKARTA","ID_KABKOT":"31.71","KABKOT":"KOTA ADM. JAKARTA PUSAT","ID_KEC":"31.71.07","KECAMATAN":"TANAH ABANG","ID_DESA":"31.71.07.1006","DESA":"KEBON KACANG","LATITUDE":-6.1892383,"LONGITUDE":106.8122113,"STATUS":"BUKA","TANGGAL PENGUMPULAN":"Q2 2025","TANGGAL UPDATE":"17/06/2025"}},{"type":"Feature","geometry":{"coordinates":[106.8132837,-6.1797663],"type":"Point"},"properties":{"NAMA":"PASAR THOMAS","TIPE_1":"PERDAGANGAN DAN RETAIL","TIPE_2":"PASAR","TIPE_3":"PASAR TRADISIONAL","TELEPON":"","ALAMAT":"JL. CIDENG TIM. RAYA NO.87, RT.14/RW.2, PETOJO SEL., KECAMATAN GAMBIR, KOTA JAKARTA PUSAT, DAERAH KHUSUS IBUKOTA JAKARTA 10160","ID_PROV":"31","PROVINSI":"DKI JAKARTA","ID_KABKOT":"31.71","KABKOT":"KOTA ADM. JAKARTA PUSAT","ID_KEC":"31.71.01","KECAMATAN":"GAMBIR","ID_DESA":"31.71.01.1004","DESA":"PETOJO SELATAN","LATITUDE":-6.1797663,"LONGITUDE":106.8132837,"STATUS":"BUKA","TANGGAL PENGUMPULAN":"Q2 2025","TANGGAL UPDATE":"17/06/2025"}},{"type":"Feature","geometry":{"coordinates":[106.8306201,-6.1513505],"type":"Point"},"properties":{"NAMA":"PASAR TIMBUL KARTINI","TIPE_1":"PERDAGANGAN DAN RETAIL","TIPE_2":"PASAR","TIPE_3":"PASAR TRADISIONAL","TELEPON":"","ALAMAT":"JL. DWI WARNA RT.08/01 12 C, RT.6/RW.9, KARTINI, KECAMATAN SAWAH BESAR, KOTA JAKARTA PUSAT, DAERAH KHUSUS IBUKOTA JAKARTA 10750","ID_PROV":"31","PROVINSI":"DKI JAKARTA","ID_KABKOT":"31.71","KABKOT":"KOTA ADM. JAKARTA PUSAT","ID_KEC":"31.71.02","KECAMATAN":"SAWAH BESAR","ID_DESA":"31.71.02.1002","DESA":"KARANG ANYAR","LATITUDE":-6.1513505,"LONGITUDE":106.8306201,"STATUS":"BUKA","TANGGAL PENGUMPULAN":"Q2 2025","TANGGAL UPDATE":"17/06/2025"}},{"type":"Feature","geometry":{"coordinates":[106.8152124,-6.1616828],"type":"Point"},"properties":{"NAMA":"PASAR TRADISIONAL","TIPE_1":"PERDAGANGAN DAN RETAIL","TIPE_2":"PASAR","TIPE_3":"PASAR TRADISIONAL","TELEPON":"","ALAMAT":"JL. PEMBANGUNAN I NO.56 9, RT.9/RW.1, PETOJO UTARA, KECAMATAN GAMBIR, KOTA JAKARTA PUSAT, DAERAH KHUSUS IBUKOTA JAKARTA 10130","ID_PROV":"31","PROVINSI":"DKI JAKARTA","ID_KABKOT":"31.71","KABKOT":"KOTA ADM. JAKARTA PUSAT","ID_KEC":"31.71.01","KECAMATAN":"GAMBIR","ID_DESA":"31.71.01.1003","DESA":"PETOJO UTARA","LATITUDE":-6.1616828,"LONGITUDE":106.8152124,"STATUS":"BUKA","TANGGAL PENGUMPULAN":"Q2 2025","TANGGAL UPDATE":"17/06/2025"}}]}