{"type":"FeatureCollection","features":[{"type":"Feature","geometry":{"coordinates":[106.6371159,-6.1951239],"type":"Point"},"properties":{"NAMA":"PASAR METRO POLIS","TIPE_1":"PERDAGANGAN DAN RETAIL","TIPE_2":"PASAR","TIPE_3":"PASAR MODERN","TELEPON":"","ALAMAT":"RT.003/RW.006, BABAKAN, KEC. TANGERANG, KOTA TANGERANG, BANTEN 15117","ID_PROV":"36","PROVINSI":"BANTEN","ID_KABKOT":"36.71","KABKOT":"KOTA TANGERANG","ID_KEC":"36.71.01","KECAMATAN":"TANGERANG","ID_DESA":"36.71.01.1008","DESA":"BABAKAN","LATITUDE":-6.1951239,"LONGITUDE":106.6371159,"STATUS":"BUKA","TANGGAL PENGUMPULAN":"Q2 2025","TANGGAL UPDATE":"17/06/2025"}},{"type":"Feature","geometry":{"coordinates":[106.6536517,-6.2052956],"type":"Point"},"properties":{"NAMA":"PASAR MODERN BANJAR WIJAYA","TIPE_1":"PERDAGANGAN DAN RETAIL","TIPE_2":"PASAR","TIPE_3":"PASAR MODERN","TELEPON":"(021) 59730132","ALAMAT":"JL. HR. RASUNA SAID, RT.002/RW.012, CIPETE, KEC. PINANG, KOTA TANGERANG, BANTEN 15142","ID_PROV":"36","PROVINSI":"BANTEN","ID_KABKOT":"36.71","KABKOT":"KOTA TANGERANG","ID_KEC":"36.71.11","KECAMATAN":"PINANG","ID_DESA":"36.71.11.1007","DESA":"CIPETE","LATITUDE":-6.2052956,"LONGITUDE":106.6536517,"STATUS":"BUKA","TANGGAL PENGUMPULAN":"Q2 2025","TANGGAL UPDATE":"17/06/2025"}},{"type":"Feature","geometry":{"coordinates":[106.6824748,-6.2283647],"type":"Point"},"properties":{"NAMA":"PASAR MODERN GRAHA RAYA","TIPE_1":"PERDAGANGAN DAN RETAIL","TIPE_2":"PASAR","TIPE_3":"PASAR MODERN","TELEPON":"(021) 53132600","ALAMAT":"JL. BOULEVARD GRAHA RAYA, RT.002/RW.010, SUDIMARA PINANG, KEC. PINANG, KOTA TANGERANG, BANTEN 15144","ID_PROV":"36","PROVINSI":"BANTEN","ID_KABKOT":"36.71","KABKOT":"KOTA TANGERANG","ID_KEC":"36.71.11","KECAMATAN":"PINANG","ID_DESA":"36.71.11.1005","DESA":"KUNCIRAN INDAH","LATITUDE":-6.2283647,"LONGITUDE":106.6824748,"STATUS":"BUKA","TANGGAL PENGUMPULAN":"Q2 2025","TANGGAL UPDATE":"17/06/2025"}},{"type":"Feature","geometry":{"coordinates":[106.579274,-6.197065],"type":"Point"},"properties":{"NAMA":"PASAR INDUK JATIUWUNG","TIPE_1":"PERDAGANGAN DAN RETAIL","TIPE_2":"PASAR","TIPE_3":"PASAR MODERN","TELEPON":"","ALAMAT":"JL. GATOT SUBROTO NO.1, RT.002/RW.006, KERONCONG, KEC. JATIUWUNG, KOTA TANGERANG, BANTEN 15136","ID_PROV":"36","PROVINSI":"BANTEN","ID_KABKOT":"36.71","KABKOT":"KOTA TANGERANG","ID_KEC":"36.71.02","KECAMATAN":"JATIUWUNG","ID_DESA":"36.71.02.1001","DESA":"KERONCONG","LATITUDE":-6.197065,"LONGITUDE":106.579274,"STATUS":"BUKA","TANGGAL PENGUMPULAN":"Q2 2025","TANGGAL UPDATE":"17/06/2025"}},{"type":"Feature","geometry":{"coordinates":[106.6366113,-6.1949223],"type":"Point"},"properties":{"NAMA":"PASAR MODERN TOWN MARKET","TIPE_1":"PERDAGANGAN DAN RETAIL","TIPE_2":"PASAR","TIPE_3":"PASAR MODERN","TELEPON":"0857-1831-0265","ALAMAT":"MODERN TOWN MARKET, BABAKAN, KEC. TANGERANG, KOTA TANGERANG, BANTEN 15117","ID_PROV":"36","PROVINSI":"BANTEN","ID_KABKOT":"36.71","KABKOT":"KOTA TANGERANG","ID_KEC":"36.71.01","KECAMATAN":"TANGERANG","ID_DESA":"36.71.01.1008","DESA":"BABAKAN","LATITUDE":-6.1949223,"LONGITUDE":106.6366113,"STATUS":"BUKA","TANGGAL PENGUMPULAN":"Q2 2025","TANGGAL UPDATE":"17/06/2025"}}]}