{"type":"FeatureCollection","features":[{"type":"Feature","geometry":{"coordinates":[106.90912979999999,-6.4095326],"type":"Point"},"properties":{"NAMA":"PASAR MINGGU PAGI CIKEAS, BOGOR TIMUR","TIPE_1":"PERDAGANGAN DAN RETAIL","TIPE_2":"PASAR","TIPE_3":"PASAR TRADISIONAL","TELEPON":"0896-9821-0251","ALAMAT":"JL. AKSES TOL CIMANGGIS, CIKEAS UDIK, KEC. GN. PUTRI, KABUPATEN BOGOR, JAWA BARAT 16966","ID_PROV":"32","PROVINSI":"JAWA BARAT","ID_KABKOT":"32.76","KABKOT":"KOTA DEPOK","ID_KEC":"32.76.10","KECAMATAN":"TAPOS","ID_DESA":"32.76.10.1002","DESA":"LEUWINANGGUNG","LATITUDE":-6.4095326,"LONGITUDE":106.9091298,"STATUS":"BUKA","TANGGAL PENGUMPULAN":"Q2 2025","TANGGAL UPDATE":"17/06/2025"}},{"type":"Feature","geometry":{"coordinates":[106.786435,-6.33262],"type":"Point"},"properties":{"NAMA":"PASAR MALAM SENGON","TIPE_1":"PERDAGANGAN DAN RETAIL","TIPE_2":"PASAR","TIPE_3":"PASAR TRADISIONAL","TELEPON":"","ALAMAT":"JL. SENGON NO.13, CINERE, KEC. CINERE, KOTA DEPOK, JAWA BARAT 16514","ID_PROV":"32","PROVINSI":"JAWA BARAT","ID_KABKOT":"32.76","KABKOT":"KOTA DEPOK","ID_KEC":"32.76.09","KECAMATAN":"CINERE","ID_DESA":"32.76.09.1001","DESA":"CINERE","LATITUDE":-6.33262,"LONGITUDE":106.786435,"STATUS":"BUKA","TANGGAL PENGUMPULAN":"Q2 2025","TANGGAL UPDATE":"17/06/2025"}},{"type":"Feature","geometry":{"coordinates":[106.8216562,-6.3788381],"type":"Point"},"properties":{"NAMA":"PASAR NEGERI","TIPE_1":"PERDAGANGAN DAN RETAIL","TIPE_2":"PASAR","TIPE_3":"PASAR TRADISIONAL","TELEPON":"","ALAMAT":"BEJI TIM., KECAMATAN BEJI, KOTA DEPOK, JAWA BARAT 16422","ID_PROV":"32","PROVINSI":"JAWA BARAT","ID_KABKOT":"32.76","KABKOT":"KOTA DEPOK","ID_KEC":"32.76.06","KECAMATAN":"BEJI","ID_DESA":"32.76.06.1006","DESA":"BEJI TIMUR","LATITUDE":-6.3788381,"LONGITUDE":106.8216562,"STATUS":"BUKA","TANGGAL PENGUMPULAN":"Q2 2025","TANGGAL UPDATE":"17/06/2025"}},{"type":"Feature","geometry":{"coordinates":[106.8180569,-6.3886625],"type":"Point"},"properties":{"NAMA":"PASAR NEGERI","TIPE_1":"PERDAGANGAN DAN RETAIL","TIPE_2":"PASAR","TIPE_3":"PASAR TRADISIONAL","TELEPON":"0819-4616-8000","ALAMAT":"JL. ARIF RAHMAN HAKIM NO.85A, RW.3, BEJI, DEPOK CITY, WEST JAVA 16421","ID_PROV":"32","PROVINSI":"JAWA BARAT","ID_KABKOT":"32.76","KABKOT":"KOTA DEPOK","ID_KEC":"32.76.06","KECAMATAN":"BEJI","ID_DESA":"32.76.06.1001","DESA":"BEJI","LATITUDE":-6.3886625,"LONGITUDE":106.8180569,"STATUS":"BUKA","TANGGAL PENGUMPULAN":"Q2 2025","TANGGAL UPDATE":"17/06/2025"}},{"type":"Feature","geometry":{"coordinates":[106.8486939,-6.3608496],"type":"Point"},"properties":{"NAMA":"PASAR MURAH","TIPE_1":"PERDAGANGAN DAN RETAIL","TIPE_2":"PASAR","TIPE_3":"PASAR TRADISIONAL","TELEPON":"0815-1650-079","ALAMAT":"RUKO PONDOK NURUL FIKRI, JL. TUGU RAYA BLOK R10, TUGU, KEC. CIMANGGIS, KOTA DEPOK, JAWA BARAT 16451","ID_PROV":"32","PROVINSI":"JAWA BARAT","ID_KABKOT":"32.76","KABKOT":"KOTA DEPOK","ID_KEC":"32.76.02","KECAMATAN":"CIMANGGIS","ID_DESA":"32.76.02.1009","DESA":"TUGU","LATITUDE":-6.3608496,"LONGITUDE":106.8486939,"STATUS":"BUKA","TANGGAL PENGUMPULAN":"Q2 2025","TANGGAL UPDATE":"17/06/2025"}},{"type":"Feature","geometry":{"coordinates":[106.8078958,-6.3768306],"type":"Point"},"properties":{"NAMA":"PASAR MUAMALAH","TIPE_1":"PERDAGANGAN DAN RETAIL","TIPE_2":"PASAR","TIPE_3":"PASAR TRADISIONAL","TELEPON":"","ALAMAT":"JL. M. ALI I NO.1, TANAH BARU, KECAMATAN BEJI, KOTA DEPOK, JAWA BARAT 16426","ID_PROV":"32","PROVINSI":"JAWA BARAT","ID_KABKOT":"32.76","KABKOT":"KOTA DEPOK","ID_KEC":"32.76.06","KECAMATAN":"BEJI","ID_DESA":"32.76.06.1003","DESA":"TANAH BARU","LATITUDE":-6.3768306,"LONGITUDE":106.8078958,"STATUS":"BUKA","TANGGAL PENGUMPULAN":"Q2 2025","TANGGAL UPDATE":"17/06/2025"}},{"type":"Feature","geometry":{"coordinates":[106.8514033,-6.3970245],"type":"Point"},"properties":{"NAMA":"PASAR MINI DEPOK","TIPE_1":"PERDAGANGAN DAN RETAIL","TIPE_2":"PASAR","TIPE_3":"PASAR TRADISIONAL","TELEPON":"","ALAMAT":"JL. BAHAGIA RAYA NO.18, ABADIJAYA, KEC. SUKMAJAYA, KOTA DEPOK, JAWA BARAT 16417","ID_PROV":"32","PROVINSI":"JAWA BARAT","ID_KABKOT":"32.76","KABKOT":"KOTA DEPOK","ID_KEC":"32.76.05","KECAMATAN":"SUKMAJAYA","ID_DESA":"32.76.05.1003","DESA":"ABADIJAYA","LATITUDE":-6.3970245,"LONGITUDE":106.8514033,"STATUS":"BUKA","TANGGAL PENGUMPULAN":"Q2 2025","TANGGAL UPDATE":"17/06/2025"}},{"type":"Feature","geometry":{"coordinates":[106.848883,-6.4106914],"type":"Point"},"properties":{"NAMA":"PASAR MINI KP SIDAMUKTI","TIPE_1":"PERDAGANGAN DAN RETAIL","TIPE_2":"PASAR","TIPE_3":"PASAR TRADISIONAL","TELEPON":"0822-1188-1918","ALAMAT":"KP SUDAMUKTI RT 03/RW 024 KEL, SUKAMAJU, KEC. CILODONG, KOTA DEPOK, JAWA BARAT 16475","ID_PROV":"32","PROVINSI":"JAWA BARAT","ID_KABKOT":"32.76","KABKOT":"KOTA DEPOK","ID_KEC":"32.76.08","KECAMATAN":"CILODONG","ID_DESA":"32.76.08.1001","DESA":"SUKAMAJU","LATITUDE":-6.4106914,"LONGITUDE":106.848883,"STATUS":"BUKA","TANGGAL PENGUMPULAN":"Q2 2025","TANGGAL UPDATE":"17/06/2025"}},{"type":"Feature","geometry":{"coordinates":[106.8325021,-6.3725094],"type":"Point"},"properties":{"NAMA":"PASAR KUE SUBUH DETOS LITA SNACK","TIPE_1":"PERDAGANGAN DAN RETAIL","TIPE_2":"PASAR","TIPE_3":"PASAR TRADISIONAL","TELEPON":"0878-7005-9001","ALAMAT":"JL. MARGONDA, KEMIRI MUKA, KECAMATAN BEJI, KOTA DEPOK, JAWA BARAT 16424","ID_PROV":"32","PROVINSI":"JAWA BARAT","ID_KABKOT":"32.76","KABKOT":"KOTA DEPOK","ID_KEC":"32.76.06","KECAMATAN":"BEJI","ID_DESA":"32.76.06.1005","DESA":"PONDOK CINA","LATITUDE":-6.3725094,"LONGITUDE":106.8325021,"STATUS":"BUKA","TANGGAL PENGUMPULAN":"Q2 2025","TANGGAL UPDATE":"17/06/2025"}},{"type":"Feature","geometry":{"coordinates":[106.7709427,-6.3791763],"type":"Point"},"properties":{"NAMA":"PASAR MALAM MERUYUNG TIGA PUTRA","TIPE_1":"PERDAGANGAN DAN RETAIL","TIPE_2":"PASAR","TIPE_3":"PASAR TRADISIONAL","TELEPON":"","ALAMAT":"JL. TIGA PUTRA, MERUYUNG, KEC. LIMO, KOTA DEPOK, JAWA BARAT","ID_PROV":"32","PROVINSI":"JAWA BARAT","ID_KABKOT":"32.76","KABKOT":"KOTA DEPOK","ID_KEC":"32.76.04","KECAMATAN":"LIMO","ID_DESA":"32.76.04.1001","DESA":"MERUYUNG","LATITUDE":-6.3791763,"LONGITUDE":106.7709427,"STATUS":"BUKA","TANGGAL PENGUMPULAN":"Q2 2025","TANGGAL UPDATE":"17/06/2025"}},{"type":"Feature","geometry":{"coordinates":[106.8196105,-6.3957317],"type":"Point"},"properties":{"NAMA":"PASAR LOAK DAN ANTIK DEPOK","TIPE_1":"PERDAGANGAN DAN RETAIL","TIPE_2":"PASAR","TIPE_3":"PASAR TRADISIONAL","TELEPON":"","ALAMAT":"JL. BARU PLENONGAN, DEPOK, KEC. PANCORAN MAS, KOTA DEPOK, JAWA BARAT 16431","ID_PROV":"32","PROVINSI":"JAWA BARAT","ID_KABKOT":"32.76","KABKOT":"KOTA DEPOK","ID_KEC":"32.76.01","KECAMATAN":"PANCORAN MAS","ID_DESA":"32.76.01.1006","DESA":"DEPOK","LATITUDE":-6.3957317,"LONGITUDE":106.8196105,"STATUS":"BUKA","TANGGAL PENGUMPULAN":"Q2 2025","TANGGAL UPDATE":"17/06/2025"}},{"type":"Feature","geometry":{"coordinates":[106.8186613,-6.3981154],"type":"Point"},"properties":{"NAMA":"PASAR LOAK NDB DEPOK","TIPE_1":"PERDAGANGAN DAN RETAIL","TIPE_2":"PASAR","TIPE_3":"PASAR TRADISIONAL","TELEPON":"0895-3844-99732","ALAMAT":"JL. BARU PLENONGAN NO.43, DEPOK, KEC. PANCORAN MAS, KOTA DEPOK, JAWA BARAT 16431","ID_PROV":"32","PROVINSI":"JAWA BARAT","ID_KABKOT":"32.76","KABKOT":"KOTA DEPOK","ID_KEC":"32.76.01","KECAMATAN":"PANCORAN MAS","ID_DESA":"32.76.01.1006","DESA":"DEPOK","LATITUDE":-6.3981154,"LONGITUDE":106.8186613,"STATUS":"BUKA","TANGGAL PENGUMPULAN":"Q2 2025","TANGGAL UPDATE":"17/06/2025"}},{"type":"Feature","geometry":{"coordinates":[106.8404987,-6.379915],"type":"Point"},"properties":{"NAMA":"PASAR KAGET PESONA","TIPE_1":"PERDAGANGAN DAN RETAIL","TIPE_2":"PASAR","TIPE_3":"PASAR TRADISIONAL","TELEPON":"","ALAMAT":"JL. IR. H. JUANDA, BAKTI JAYA, SUKMAJAYA, DEPOK CITY, WEST JAVA","ID_PROV":"32","PROVINSI":"JAWA BARAT","ID_KABKOT":"32.76","KABKOT":"KOTA DEPOK","ID_KEC":"32.76.05","KECAMATAN":"SUKMAJAYA","ID_DESA":"32.76.05.1004","DESA":"MEKARJAYA","LATITUDE":-6.379915,"LONGITUDE":106.8404987,"STATUS":"BUKA","TANGGAL PENGUMPULAN":"Q2 2025","TANGGAL UPDATE":"17/06/2025"}},{"type":"Feature","geometry":{"coordinates":[106.8226019,-6.3894738],"type":"Point"},"properties":{"NAMA":"PASAR KEMIRI","TIPE_1":"PERDAGANGAN DAN RETAIL","TIPE_2":"PASAR","TIPE_3":"PASAR TRADISIONAL","TELEPON":"","ALAMAT":"JL. PS. KEMIRI MUKA NO.14-74, DEPOK, KEC. PANCORAN MAS, KOTA DEPOK, JAWA BARAT 16423","ID_PROV":"32","PROVINSI":"JAWA BARAT","ID_KABKOT":"32.76","KABKOT":"KOTA DEPOK","ID_KEC":"32.76.06","KECAMATAN":"BEJI","ID_DESA":"32.76.06.1004","DESA":"KEMIRI MUKA","LATITUDE":-6.3894738,"LONGITUDE":106.8226019,"STATUS":"BUKA","TANGGAL PENGUMPULAN":"Q2 2025","TANGGAL UPDATE":"17/06/2025"}},{"type":"Feature","geometry":{"coordinates":[106.82426369999999,-6.3868172],"type":"Point"},"properties":{"NAMA":"PASAR KEMIRI MUKA","TIPE_1":"PERDAGANGAN DAN RETAIL","TIPE_2":"PASAR","TIPE_3":"PASAR TRADISIONAL","TELEPON":"","ALAMAT":"KEMIRI MUKA, BEJI, DEPOK CITY, WEST JAVA 16423","ID_PROV":"32","PROVINSI":"JAWA BARAT","ID_KABKOT":"32.76","KABKOT":"KOTA DEPOK","ID_KEC":"32.76.06","KECAMATAN":"BEJI","ID_DESA":"32.76.06.1004","DESA":"KEMIRI MUKA","LATITUDE":-6.3868172,"LONGITUDE":106.8242637,"STATUS":"BUKA","TANGGAL PENGUMPULAN":"Q2 2025","TANGGAL UPDATE":"17/06/2025"}},{"type":"Feature","geometry":{"coordinates":[106.8215935,-6.3902981],"type":"Point"},"properties":{"NAMA":"PASAR KEMIRI DEPOK","TIPE_1":"PERDAGANGAN DAN RETAIL","TIPE_2":"PASAR","TIPE_3":"PASAR TRADISIONAL","TELEPON":"","ALAMAT":"JL. BARU PLENONGAN, DEPOK, KEC. PANCORAN MAS, KOTA DEPOK, JAWA BARAT 16431","ID_PROV":"32","PROVINSI":"JAWA BARAT","ID_KABKOT":"32.76","KABKOT":"KOTA DEPOK","ID_KEC":"32.76.01","KECAMATAN":"PANCORAN MAS","ID_DESA":"32.76.01.1006","DESA":"DEPOK","LATITUDE":-6.3902981,"LONGITUDE":106.8215935,"STATUS":"BUKA","TANGGAL PENGUMPULAN":"Q2 2025","TANGGAL UPDATE":"17/06/2025"}},{"type":"Feature","geometry":{"coordinates":[106.8479205,-6.3891311],"type":"Point"},"properties":{"NAMA":"PASAR IKAN HIAS MUSI DEPOK","TIPE_1":"PERDAGANGAN DAN RETAIL","TIPE_2":"PASAR","TIPE_3":"PASAR TRADISIONAL","TELEPON":"0838-9821-0951","ALAMAT":"ABADIJAYA, KEC. SUKMAJAYA, KOTA DEPOK, JAWA BARAT 16417","ID_PROV":"32","PROVINSI":"JAWA BARAT","ID_KABKOT":"32.76","KABKOT":"KOTA DEPOK","ID_KEC":"32.76.05","KECAMATAN":"SUKMAJAYA","ID_DESA":"32.76.05.1003","DESA":"ABADIJAYA","LATITUDE":-6.3891311,"LONGITUDE":106.8479205,"STATUS":"BUKA","TANGGAL PENGUMPULAN":"Q2 2025","TANGGAL UPDATE":"17/06/2025"}},{"type":"Feature","geometry":{"coordinates":[106.8097723,-6.3978474],"type":"Point"},"properties":{"NAMA":"PASAR IKAN DEPOK JAYA","TIPE_1":"PERDAGANGAN DAN RETAIL","TIPE_2":"PASAR","TIPE_3":"PASAR TRADISIONAL","TELEPON":"0821-1088-5896","ALAMAT":"JL. JAMBU 5 NO.119, DEPOK JAYA, PANCORAN MAS, DEPOK CITY, WEST JAVA 16436","ID_PROV":"32","PROVINSI":"JAWA BARAT","ID_KABKOT":"32.76","KABKOT":"KOTA DEPOK","ID_KEC":"32.76.01","KECAMATAN":"PANCORAN MAS","ID_DESA":"32.76.01.1007","DESA":"DEPOK JAYA","LATITUDE":-6.3978474,"LONGITUDE":106.8097723,"STATUS":"BUKA","TANGGAL PENGUMPULAN":"Q2 2025","TANGGAL UPDATE":"17/06/2025"}},{"type":"Feature","geometry":{"coordinates":[106.8416003,-6.3800348],"type":"Point"},"properties":{"NAMA":"PASAR KAGET JUANDA DEPOK","TIPE_1":"PERDAGANGAN DAN RETAIL","TIPE_2":"PASAR","TIPE_3":"PASAR TRADISIONAL","TELEPON":"","ALAMAT":"JL. IR. H. JUANDA NO.25, KEMIRI MUKA, BEJI, DEPOK CITY, WEST JAVA 16424","ID_PROV":"32","PROVINSI":"JAWA BARAT","ID_KABKOT":"32.76","KABKOT":"KOTA DEPOK","ID_KEC":"32.76.05","KECAMATAN":"SUKMAJAYA","ID_DESA":"32.76.05.1004","DESA":"MEKARJAYA","LATITUDE":-6.3800348,"LONGITUDE":106.8416003,"STATUS":"BUKA","TANGGAL PENGUMPULAN":"Q2 2025","TANGGAL UPDATE":"17/06/2025"}},{"type":"Feature","geometry":{"coordinates":[106.7362347,-6.3632453],"type":"Point"},"properties":{"NAMA":"PASAR JENGKOL","TIPE_1":"PERDAGANGAN DAN RETAIL","TIPE_2":"PASAR","TIPE_3":"PASAR TRADISIONAL","TELEPON":"","ALAMAT":"SERUA, KEC. BOJONGSARI, KOTA DEPOK, JAWA BARAT 16517","ID_PROV":"32","PROVINSI":"JAWA BARAT","ID_KABKOT":"32.76","KABKOT":"KOTA DEPOK","ID_KEC":"32.76.11","KECAMATAN":"BOJONGSARI","ID_DESA":"32.76.11.1003","DESA":"SERUA","LATITUDE":-6.3632453,"LONGITUDE":106.7362347,"STATUS":"BUKA","TANGGAL PENGUMPULAN":"Q2 2025","TANGGAL UPDATE":"17/06/2025"}},{"type":"Feature","geometry":{"coordinates":[106.7760278,-6.3793656],"type":"Point"},"properties":{"NAMA":"PASAR GALUR TIGA PUTRA","TIPE_1":"PERDAGANGAN DAN RETAIL","TIPE_2":"PASAR","TIPE_3":"PASAR TRADISIONAL","TELEPON":"","ALAMAT":"JL. TIGA PUTRA, MERUYUNG, KEC. LIMO, KOTA DEPOK, JAWA BARAT 16515","ID_PROV":"32","PROVINSI":"JAWA BARAT","ID_KABKOT":"32.76","KABKOT":"KOTA DEPOK","ID_KEC":"32.76.04","KECAMATAN":"LIMO","ID_DESA":"32.76.04.1001","DESA":"MERUYUNG","LATITUDE":-6.3793656,"LONGITUDE":106.7760278,"STATUS":"BUKA","TANGGAL PENGUMPULAN":"Q2 2025","TANGGAL UPDATE":"17/06/2025"}},{"type":"Feature","geometry":{"coordinates":[106.7939936,-6.3386356],"type":"Point"},"properties":{"NAMA":"PASAR GANDUL MODERN","TIPE_1":"PERDAGANGAN DAN RETAIL","TIPE_2":"PASAR","TIPE_3":"PASAR MODERN","TELEPON":"","ALAMAT":"JL. RAYA GANDUL NO.8, RW.2, GANDUL, KEC. CINERE, KOTA DEPOK, JAWA BARAT 16514","ID_PROV":"32","PROVINSI":"JAWA BARAT","ID_KABKOT":"32.76","KABKOT":"KOTA DEPOK","ID_KEC":"32.76.09","KECAMATAN":"CINERE","ID_DESA":"32.76.09.1002","DESA":"GANDUL","LATITUDE":-6.3386356,"LONGITUDE":106.7939936,"STATUS":"BUKA","TANGGAL PENGUMPULAN":"Q2 2025","TANGGAL UPDATE":"17/06/2025"}},{"type":"Feature","geometry":{"coordinates":[106.8144418,-6.3923606],"type":"Point"},"properties":{"NAMA":"PASAR DEPOK JAYA","TIPE_1":"PERDAGANGAN DAN RETAIL","TIPE_2":"PASAR","TIPE_3":"PASAR TRADISIONAL","TELEPON":"","ALAMAT":"JL. NUSANTARA RAYA, DEPOK JAYA, KEC. PANCORAN MAS, KOTA DEPOK, JAWA BARAT 16432","ID_PROV":"32","PROVINSI":"JAWA BARAT","ID_KABKOT":"32.76","KABKOT":"KOTA DEPOK","ID_KEC":"32.76.01","KECAMATAN":"PANCORAN MAS","ID_DESA":"32.76.01.1007","DESA":"DEPOK JAYA","LATITUDE":-6.3923606,"LONGITUDE":106.8144418,"STATUS":"BUKA","TANGGAL PENGUMPULAN":"Q2 2025","TANGGAL UPDATE":"17/06/2025"}},{"type":"Feature","geometry":{"coordinates":[106.8678932,-6.3777424],"type":"Point"},"properties":{"NAMA":"PASAR CISALAK","TIPE_1":"PERDAGANGAN DAN RETAIL","TIPE_2":"PASAR","TIPE_3":"PASAR TRADISIONAL","TELEPON":"","ALAMAT":"JL. RAYA BOGOR NO.31, CISALAK PS., KEC. CIMANGGIS, KOTA DEPOK, JAWA BARAT 16452","ID_PROV":"32","PROVINSI":"JAWA BARAT","ID_KABKOT":"32.76","KABKOT":"KOTA DEPOK","ID_KEC":"32.76.02","KECAMATAN":"CIMANGGIS","ID_DESA":"32.76.02.1012","DESA":"CISALAK PASAR","LATITUDE":-6.3777424,"LONGITUDE":106.8678932,"STATUS":"BUKA","TANGGAL PENGUMPULAN":"Q2 2025","TANGGAL UPDATE":"17/06/2025"}},{"type":"Feature","geometry":{"coordinates":[106.80040179999999,-6.450155],"type":"Point"},"properties":{"NAMA":"PASAR CITAYAM","TIPE_1":"PERDAGANGAN DAN RETAIL","TIPE_2":"PASAR","TIPE_3":"PASAR TRADISIONAL","TELEPON":"","ALAMAT":"JALAN EPON GOJEK NO.65, BOJONG PD. TERONG, KEC. CIPAYUNG, KOTA DEPOK, JAWA BARAT 16436","ID_PROV":"32","PROVINSI":"JAWA BARAT","ID_KABKOT":"32.76","KABKOT":"KOTA DEPOK","ID_KEC":"32.76.07","KECAMATAN":"CIPAYUNG","ID_DESA":"32.76.07.1004","DESA":"BOJONG PONDOK TERONG","LATITUDE":-6.450155,"LONGITUDE":106.8004018,"STATUS":"BUKA","TANGGAL PENGUMPULAN":"Q2 2025","TANGGAL UPDATE":"17/06/2025"}},{"type":"Feature","geometry":{"coordinates":[106.7984025,-6.4428602],"type":"Point"},"properties":{"NAMA":"PASAR CITAYAM SEMENTARA","TIPE_1":"PERDAGANGAN DAN RETAIL","TIPE_2":"PASAR","TIPE_3":"PASAR TRADISIONAL","TELEPON":"","ALAMAT":"JL. RAYA CIPAYUNG, BOJONG PD. TERONG, KEC. CIPAYUNG, KOTA DEPOK, JAWA BARAT 16436","ID_PROV":"32","PROVINSI":"JAWA BARAT","ID_KABKOT":"32.76","KABKOT":"KOTA DEPOK","ID_KEC":"32.76.07","KECAMATAN":"CIPAYUNG","ID_DESA":"32.76.07.1004","DESA":"BOJONG PONDOK TERONG","LATITUDE":-6.4428602,"LONGITUDE":106.7984025,"STATUS":"BUKA","TANGGAL PENGUMPULAN":"Q2 2025","TANGGAL UPDATE":"17/06/2025"}},{"type":"Feature","geometry":{"coordinates":[106.8488032,-6.4108037],"type":"Point"},"properties":{"NAMA":"PASAR BBM SIDAMUKTI","TIPE_1":"PERDAGANGAN DAN RETAIL","TIPE_2":"PASAR","TIPE_3":"PASAR TRADISIONAL","TELEPON":"","ALAMAT":"JL. H. DIMUN I, SUKAMAJU, KEC. SUKMAJAYA, KOTA DEPOK, JAWA BARAT 16412","ID_PROV":"32","PROVINSI":"JAWA BARAT","ID_KABKOT":"32.76","KABKOT":"KOTA DEPOK","ID_KEC":"32.76.08","KECAMATAN":"CILODONG","ID_DESA":"32.76.08.1001","DESA":"SUKAMAJU","LATITUDE":-6.4108037,"LONGITUDE":106.8488032,"STATUS":"BUKA","TANGGAL PENGUMPULAN":"Q2 2025","TANGGAL UPDATE":"17/06/2025"}},{"type":"Feature","geometry":{"coordinates":[106.7270021,-6.3626916],"type":"Point"},"properties":{"NAMA":"PASAR AYAM RENI JAYA PAMULANG","TIPE_1":"PERDAGANGAN DAN RETAIL","TIPE_2":"PASAR","TIPE_3":"PASAR TRADISIONAL","TELEPON":"","ALAMAT":"RENI JAYA BARAT 1D, PD. PETIR, KEC. BOJONGSARI, KOTA DEPOK, JAWA BARAT 16517","ID_PROV":"32","PROVINSI":"JAWA BARAT","ID_KABKOT":"32.76","KABKOT":"KOTA DEPOK","ID_KEC":"32.76.11","KECAMATAN":"BOJONGSARI","ID_DESA":"32.76.11.1004","DESA":"PONDOK PETIR","LATITUDE":-6.3626916,"LONGITUDE":106.7270021,"STATUS":"BUKA","TANGGAL PENGUMPULAN":"Q2 2025","TANGGAL UPDATE":"17/06/2025"}},{"type":"Feature","geometry":{"coordinates":[106.8456057,-6.3925877],"type":"Point"},"properties":{"NAMA":"PASAR AGUNG","TIPE_1":"PERDAGANGAN DAN RETAIL","TIPE_2":"PASAR","TIPE_3":"PASAR TRADISIONAL","TELEPON":"","ALAMAT":"PS. AGUNG, JL. PROKLAMASI, ABADIJAYA, KEC. SUKMAJAYA, KOTA DEPOK, JAWA BARAT 16417","ID_PROV":"32","PROVINSI":"JAWA BARAT","ID_KABKOT":"32.76","KABKOT":"KOTA DEPOK","ID_KEC":"32.76.05","KECAMATAN":"SUKMAJAYA","ID_DESA":"32.76.05.1003","DESA":"ABADIJAYA","LATITUDE":-6.3925877,"LONGITUDE":106.8456057,"STATUS":"BUKA","TANGGAL PENGUMPULAN":"Q2 2025","TANGGAL UPDATE":"17/06/2025"}},{"type":"Feature","geometry":{"coordinates":[106.8144945,-6.3927818],"type":"Point"},"properties":{"NAMA":"PASAR BARU","TIPE_1":"PERDAGANGAN DAN RETAIL","TIPE_2":"PASAR","TIPE_3":"PASAR TRADISIONAL","TELEPON":"","ALAMAT":"JL. NUSANTARA RAYA NO.10-11, DEPOK JAYA, KEC. PANCORAN MAS, KOTA DEPOK, JAWA BARAT 16432","ID_PROV":"32","PROVINSI":"JAWA BARAT","ID_KABKOT":"32.76","KABKOT":"KOTA DEPOK","ID_KEC":"32.76.01","KECAMATAN":"PANCORAN MAS","ID_DESA":"32.76.01.1007","DESA":"DEPOK JAYA","LATITUDE":-6.3927818,"LONGITUDE":106.8144945,"STATUS":"BUKA","TANGGAL PENGUMPULAN":"Q2 2025","TANGGAL UPDATE":"17/06/2025"}},{"type":"Feature","geometry":{"coordinates":[106.8586682,-6.3583197],"type":"Point"},"properties":{"NAMA":"PASAR TRADISIONAL TUGU PASAR PAL","TIPE_1":"PERDAGANGAN DAN RETAIL","TIPE_2":"PASAR","TIPE_3":"PASAR TRADISIONAL","TELEPON":"","ALAMAT":"JL. MENPOR RAYA PALSIGUNUNG, TUGU, CIMANGGIS, DEPOK CITY, WEST JAVA 16451","ID_PROV":"32","PROVINSI":"JAWA BARAT","ID_KABKOT":"32.76","KABKOT":"KOTA DEPOK","ID_KEC":"32.76.02","KECAMATAN":"CIMANGGIS","ID_DESA":"32.76.02.1009","DESA":"TUGU","LATITUDE":-6.3583197,"LONGITUDE":106.8586682,"STATUS":"BUKA","TANGGAL PENGUMPULAN":"Q2 2025","TANGGAL UPDATE":"17/06/2025"}},{"type":"Feature","geometry":{"coordinates":[106.7718727,-6.4029289],"type":"Point"},"properties":{"NAMA":"PASAR RAKYAT JABAR JUARA","TIPE_1":"PERDAGANGAN DAN RETAIL","TIPE_2":"PASAR","TIPE_3":"PASAR TRADISIONAL","TELEPON":"","ALAMAT":"JL. RAYA MUCHTAR, PASAR RAKYAT, KEC. SAWANGAN, KOTA DEPOK, JAWA BARAT 16509","ID_PROV":"32","PROVINSI":"JAWA BARAT","ID_KABKOT":"32.76","KABKOT":"KOTA DEPOK","ID_KEC":"32.76.03","KECAMATAN":"SAWANGAN","ID_DESA":"32.76.03.1011","DESA":"SAWANGAN BARU","LATITUDE":-6.4029289,"LONGITUDE":106.7718727,"STATUS":"BUKA","TANGGAL PENGUMPULAN":"Q2 2025","TANGGAL UPDATE":"17/06/2025"}},{"type":"Feature","geometry":{"coordinates":[106.7719552,-6.4030555],"type":"Point"},"properties":{"NAMA":"PASAR RAKYAT SAWANGAN","TIPE_1":"PERDAGANGAN DAN RETAIL","TIPE_2":"PASAR","TIPE_3":"PASAR TRADISIONAL","TELEPON":"0852-1738-4502","ALAMAT":"TERMINAL, SAWANGAN BARU, KEC. SAWANGAN, KOTA DEPOK, JAWA BARAT","ID_PROV":"32","PROVINSI":"JAWA BARAT","ID_KABKOT":"32.76","KABKOT":"KOTA DEPOK","ID_KEC":"32.76.03","KECAMATAN":"SAWANGAN","ID_DESA":"32.76.03.1011","DESA":"SAWANGAN BARU","LATITUDE":-6.4030555,"LONGITUDE":106.7719552,"STATUS":"BUKA","TANGGAL PENGUMPULAN":"Q2 2025","TANGGAL UPDATE":"17/06/2025"}},{"type":"Feature","geometry":{"coordinates":[106.8433499,-6.341602],"type":"Point"},"properties":{"NAMA":"PASAR RAKYAT PGS BAZAAR UMKM PASIRGUNUNG SELATAN","TIPE_1":"PERDAGANGAN DAN RETAIL","TIPE_2":"PASAR","TIPE_3":"PASAR TRADISIONAL","TELEPON":"","ALAMAT":"DEPAN MASJID AL FALAH BRIGIF PR17, JL. H. HAMBALI, PASIR GN. SEL., KEC. CIMANGGIS, KOTA DEPOK, JAWA BARAT 16451","ID_PROV":"32","PROVINSI":"JAWA BARAT","ID_KABKOT":"32.76","KABKOT":"KOTA DEPOK","ID_KEC":"32.76.02","KECAMATAN":"CIMANGGIS","ID_DESA":"32.76.02.1011","DESA":"PASIR GUNUNG SELATAN","LATITUDE":-6.341602,"LONGITUDE":106.8433499,"STATUS":"BUKA","TANGGAL PENGUMPULAN":"Q2 2025","TANGGAL UPDATE":"17/06/2025"}},{"type":"Feature","geometry":{"coordinates":[106.7826102,-6.3528225],"type":"Point"},"properties":{"NAMA":"PASAR WINDU","TIPE_1":"PERDAGANGAN DAN RETAIL","TIPE_2":"PASAR","TIPE_3":"PASAR TRADISIONAL","TELEPON":"","ALAMAT":"JL. NUSA DUA NO.9, RT.1/RW.6, LIMO, KEC. LIMO, KOTA DEPOK, JAWA BARAT 16514","ID_PROV":"32","PROVINSI":"JAWA BARAT","ID_KABKOT":"32.76","KABKOT":"KOTA DEPOK","ID_KEC":"32.76.04","KECAMATAN":"LIMO","ID_DESA":"32.76.04.1004","DESA":"LIMO","LATITUDE":-6.3528225,"LONGITUDE":106.7826102,"STATUS":"BUKA","TANGGAL PENGUMPULAN":"Q2 2025","TANGGAL UPDATE":"17/06/2025"}},{"type":"Feature","geometry":{"coordinates":[106.783941,-6.3332715],"type":"Point"},"properties":{"NAMA":"PASAR SEGAR CINERE","TIPE_1":"PERDAGANGAN DAN RETAIL","TIPE_2":"PASAR","TIPE_3":"PASAR TRADISIONAL","TELEPON":"(021) 7542544","ALAMAT":"JL. CINERE RAYA NO.66, CINERE, KEC. CINERE, KOTA DEPOK, JAWA BARAT 16514","ID_PROV":"32","PROVINSI":"JAWA BARAT","ID_KABKOT":"32.76","KABKOT":"KOTA DEPOK","ID_KEC":"32.76.09","KECAMATAN":"CINERE","ID_DESA":"32.76.09.1001","DESA":"CINERE","LATITUDE":-6.3332715,"LONGITUDE":106.783941,"STATUS":"BUKA","TANGGAL PENGUMPULAN":"Q2 2025","TANGGAL UPDATE":"17/06/2025"}},{"type":"Feature","geometry":{"coordinates":[106.857888,-6.4527115],"type":"Point"},"properties":{"NAMA":"PASAR SALSABILA","TIPE_1":"PERDAGANGAN DAN RETAIL","TIPE_2":"PASAR","TIPE_3":"PASAR TRADISIONAL","TELEPON":"0813-8124-6357","ALAMAT":"JL. KP. NYENCLE NO.89, RT.02/RW.01, CILANGKAP, KEC. TAPOS, KOTA DEPOK, JAWA BARAT 16458","ID_PROV":"32","PROVINSI":"JAWA BARAT","ID_KABKOT":"32.76","KABKOT":"KOTA DEPOK","ID_KEC":"32.76.10","KECAMATAN":"TAPOS","ID_DESA":"32.76.10.1006","DESA":"CILANGKAP","LATITUDE":-6.4527115,"LONGITUDE":106.857888,"STATUS":"BUKA","TANGGAL PENGUMPULAN":"Q2 2025","TANGGAL UPDATE":"17/06/2025"}},{"type":"Feature","geometry":{"coordinates":[106.8289636,-6.4456015],"type":"Point"},"properties":{"NAMA":"PASAR PUCUNG","TIPE_1":"PERDAGANGAN DAN RETAIL","TIPE_2":"PASAR","TIPE_3":"PASAR TRADISIONAL","TELEPON":"","ALAMAT":"JATIMULYA, KEC. CILODONG, KOTA DEPOK, JAWA BARAT 16413","ID_PROV":"32","PROVINSI":"JAWA BARAT","ID_KABKOT":"32.76","KABKOT":"KOTA DEPOK","ID_KEC":"32.76.08","KECAMATAN":"CILODONG","ID_DESA":"32.76.08.1005","DESA":"JATIMULYA","LATITUDE":-6.4456015,"LONGITUDE":106.8289636,"STATUS":"BUKA","TANGGAL PENGUMPULAN":"Q2 2025","TANGGAL UPDATE":"17/06/2025"}},{"type":"Feature","geometry":{"coordinates":[106.8281604,-6.4456906],"type":"Point"},"properties":{"NAMA":"PASAR PUCUNG RAYA","TIPE_1":"PERDAGANGAN DAN RETAIL","TIPE_2":"PASAR","TIPE_3":"PASAR TRADISIONAL","TELEPON":"","ALAMAT":"TK ASSYFA, JALAN, JATIMULYA, KEC. CILODONG, KOTA DEPOK, JAWA BARAT 16413","ID_PROV":"32","PROVINSI":"JAWA BARAT","ID_KABKOT":"32.76","KABKOT":"KOTA DEPOK","ID_KEC":"32.76.08","KECAMATAN":"CILODONG","ID_DESA":"32.76.08.1005","DESA":"JATIMULYA","LATITUDE":-6.4456906,"LONGITUDE":106.8281604,"STATUS":"BUKA","TANGGAL PENGUMPULAN":"Q2 2025","TANGGAL UPDATE":"17/06/2025"}},{"type":"Feature","geometry":{"coordinates":[106.7264044,-6.3626425],"type":"Point"},"properties":{"NAMA":"PASAR RENI JAYA LAMA DEPOK","TIPE_1":"PERDAGANGAN DAN RETAIL","TIPE_2":"PASAR","TIPE_3":"PASAR TRADISIONAL","TELEPON":"","ALAMAT":"RENI JAYA BARAT 1D NO.5 BLOK C13, PD. PETIR, KEC. BOJONGSARI, KOTA DEPOK, JAWA BARAT 16517","ID_PROV":"32","PROVINSI":"JAWA BARAT","ID_KABKOT":"32.76","KABKOT":"KOTA DEPOK","ID_KEC":"32.76.11","KECAMATAN":"BOJONGSARI","ID_DESA":"32.76.11.1004","DESA":"PONDOK PETIR","LATITUDE":-6.3626425,"LONGITUDE":106.7264044,"STATUS":"BUKA","TANGGAL PENGUMPULAN":"Q2 2025","TANGGAL UPDATE":"17/06/2025"}},{"type":"Feature","geometry":{"coordinates":[106.77187269999999,-6.4029289],"type":"Point"},"properties":{"NAMA":"PASAR RAKYAT JABAR JUARA","TIPE_1":"PERDAGANGAN DAN RETAIL","TIPE_2":"PASAR","TIPE_3":"PASAR TRADISIONAL","TELEPON":"","ALAMAT":"JL. RAYA MUCHTAR, PASAR RAKYAT, KEC. SAWANGAN, KOTA DEPOK, JAWA BARAT 16509","ID_PROV":"32","PROVINSI":"JAWA BARAT","ID_KABKOT":"32.76","KABKOT":"KOTA DEPOK","ID_KEC":"32.76.03","KECAMATAN":"SAWANGAN","ID_DESA":"32.76.03.1011","DESA":"SAWANGAN BARU","LATITUDE":-6.4029289,"LONGITUDE":106.7718727,"STATUS":"BUKA","TANGGAL PENGUMPULAN":"Q2 2025","TANGGAL UPDATE":"17/06/2025"}},{"type":"Feature","geometry":{"coordinates":[106.8502879,-6.3621916],"type":"Point"},"properties":{"NAMA":"PASAR PAL SIGUNUNG","TIPE_1":"PERDAGANGAN DAN RETAIL","TIPE_2":"PASAR","TIPE_3":"PASAR TRADISIONAL","TELEPON":"","ALAMAT":"TUGU, KEC. CIMANGGIS, KOTA DEPOK, JAWA BARAT","ID_PROV":"32","PROVINSI":"JAWA BARAT","ID_KABKOT":"32.76","KABKOT":"KOTA DEPOK","ID_KEC":"32.76.02","KECAMATAN":"CIMANGGIS","ID_DESA":"32.76.02.1009","DESA":"TUGU","LATITUDE":-6.3621916,"LONGITUDE":106.8502879,"STATUS":"BUKA","TANGGAL PENGUMPULAN":"Q2 2025","TANGGAL UPDATE":"17/06/2025"}},{"type":"Feature","geometry":{"coordinates":[106.9087821,-6.4095023],"type":"Point"},"properties":{"NAMA":"PASAR PAGI PORLI CIKEAS, BOGOR TIMUR","TIPE_1":"PERDAGANGAN DAN RETAIL","TIPE_2":"PASAR","TIPE_3":"PASAR TRADISIONAL","TELEPON":"","ALAMAT":"JL. KRAMAT NO.42, LEUWINANGGUNG, KEC. TAPOS, KOTA DEPOK, JAWA BARAT 16456","ID_PROV":"32","PROVINSI":"JAWA BARAT","ID_KABKOT":"32.76","KABKOT":"KOTA DEPOK","ID_KEC":"32.76.10","KECAMATAN":"TAPOS","ID_DESA":"32.76.10.1002","DESA":"LEUWINANGGUNG","LATITUDE":-6.4095023,"LONGITUDE":106.9087821,"STATUS":"BUKA","TANGGAL PENGUMPULAN":"Q2 2025","TANGGAL UPDATE":"17/06/2025"}},{"type":"Feature","geometry":{"coordinates":[106.8252828,-6.3898367],"type":"Point"},"properties":{"NAMA":"PASAR PAGI KUE RAMANDA","TIPE_1":"PERDAGANGAN DAN RETAIL","TIPE_2":"PASAR","TIPE_3":"PASAR TRADISIONAL","TELEPON":"","ALAMAT":"JL. ARIF RAHMAN HAKIM, KEMIRI MUKA, KEC. PANCORAN MAS, KOTA DEPOK, JAWA BARAT 16423","ID_PROV":"32","PROVINSI":"JAWA BARAT","ID_KABKOT":"32.76","KABKOT":"KOTA DEPOK","ID_KEC":"32.76.06","KECAMATAN":"BEJI","ID_DESA":"32.76.06.1004","DESA":"KEMIRI MUKA","LATITUDE":-6.3898367,"LONGITUDE":106.8252828,"STATUS":"BUKA","TANGGAL PENGUMPULAN":"Q2 2025","TANGGAL UPDATE":"17/06/2025"}},{"type":"Feature","geometry":{"coordinates":[106.7826671,-6.387143],"type":"Point"},"properties":{"NAMA":"PASAR PAGI KOLONG TOL","TIPE_1":"PERDAGANGAN DAN RETAIL","TIPE_2":"PASAR","TIPE_3":"PASAR TRADISIONAL","TELEPON":"","ALAMAT":"GG. SWADAYA RAYA NO.104, RANGKAPAN JAYA, PANCORAN MAS, DEPOK CITY, WEST JAVA 16435","ID_PROV":"32","PROVINSI":"JAWA BARAT","ID_KABKOT":"32.76","KABKOT":"KOTA DEPOK","ID_KEC":"32.76.01","KECAMATAN":"PANCORAN MAS","ID_DESA":"32.76.01.1011","DESA":"RANGKAPAN JAYA","LATITUDE":-6.387143,"LONGITUDE":106.7826671,"STATUS":"BUKA","TANGGAL PENGUMPULAN":"Q2 2025","TANGGAL UPDATE":"17/06/2025"}},{"type":"Feature","geometry":{"coordinates":[106.7246462,-6.3814134],"type":"Point"},"properties":{"NAMA":"PASAR PAGI FIRDAUS","TIPE_1":"PERDAGANGAN DAN RETAIL","TIPE_2":"PASAR","TIPE_3":"PASAR TRADISIONAL","TELEPON":"","ALAMAT":"PERUMAHAN JALAN TAMAN FIRDAUS RESIDENCE NO.1, CIBARUSAHKOTA, KEC. BOJONGSARI, KABUPATEN BEKASI, JAWA BARAT","ID_PROV":"32","PROVINSI":"JAWA BARAT","ID_KABKOT":"32.76","KABKOT":"KOTA DEPOK","ID_KEC":"32.76.11","KECAMATAN":"BOJONGSARI","ID_DESA":"32.76.11.1005","DESA":"CURUG","LATITUDE":-6.3814134,"LONGITUDE":106.7246462,"STATUS":"BUKA","TANGGAL PENGUMPULAN":"Q2 2025","TANGGAL UPDATE":"17/06/2025"}}]}