{"type":"FeatureCollection","features":[{"type":"Feature","geometry":{"coordinates":[106.8141165,-6.1425379],"type":"Point"},"properties":{"NAMA":"PASAR GLODOK CITY JAKARTA KOTA","TIPE_1":"PERDAGANGAN DAN RETAIL","TIPE_2":"PASAR","TIPE_3":"PASAR MODERN","TELEPON":"","ALAMAT":"JL. MEDAN GLODOK GLODOK RT.6/RW.6, GLODOK 11120, JALAN TAMAN SARI RAYA, TAMAN SARI, TAMANSARI, RT.6/RW.6, GLODOK, KEC. TAMAN SARI, KOTA JAKARTA BARAT, DAERAH KHUSUS IBUKOTA JAKARTA 11150","ID_PROV":"31","PROVINSI":"DKI JAKARTA","ID_KABKOT":"31.73","KABKOT":"KOTA ADM. JAKARTA BARAT","ID_KEC":"31.73.03","KECAMATAN":"TAMAN SARI","ID_DESA":"31.73.03.1007","DESA":"GLODOK","LATITUDE":-6.1425379,"LONGITUDE":106.8141165,"STATUS":"BUKA","TANGGAL PENGUMPULAN":"Q2 2025","TANGGAL UPDATE":"17/06/2025"}},{"type":"Feature","geometry":{"coordinates":[106.819176,-6.15076],"type":"Point"},"properties":{"NAMA":"PASAR MANGGA BESAR PASAR JAYA","TIPE_1":"PERDAGANGAN DAN RETAIL","TIPE_2":"PASAR","TIPE_3":"PASAR MODERN","TELEPON":"(021) 6258129","ALAMAT":"JL. KEBON JERUK XIX NO.11, RT.12/RW.9, MAPHAR, KEC. TAMAN SARI, KOTA JAKARTA BARAT, DAERAH KHUSUS IBUKOTA JAKARTA 11160","ID_PROV":"31","PROVINSI":"DKI JAKARTA","ID_KABKOT":"31.73","KABKOT":"KOTA ADM. JAKARTA BARAT","ID_KEC":"31.73.03","KECAMATAN":"TAMAN SARI","ID_DESA":"31.73.03.1003","DESA":"MAPHAR","LATITUDE":-6.15076,"LONGITUDE":106.819176,"STATUS":"BUKA","TANGGAL PENGUMPULAN":"Q2 2025","TANGGAL UPDATE":"17/06/2025"}},{"type":"Feature","geometry":{"coordinates":[106.7534285,-6.1855531],"type":"Point"},"properties":{"NAMA":"PASAR PURI INDAH","TIPE_1":"PERDAGANGAN DAN RETAIL","TIPE_2":"PASAR","TIPE_3":"PASAR MODERN","TELEPON":"","ALAMAT":"MALL PURI INDAH, 1, JL. PURI INDAH RAYA NO.1, RT.1/RW.8, KEMBANGAN SEL., KOTA JAKARTA BARAT, DAERAH KHUSUS IBUKOTA JAKARTA 11610","ID_PROV":"31","PROVINSI":"DKI JAKARTA","ID_KABKOT":"31.73","KABKOT":"KOTA ADM. JAKARTA BARAT","ID_KEC":"31.73.08","KECAMATAN":"KEMBANGAN","ID_DESA":"31.73.08.1006","DESA":"KEMBANGAN SELATAN","LATITUDE":-6.1855531,"LONGITUDE":106.7534285,"STATUS":"BUKA","TANGGAL PENGUMPULAN":"Q2 2025","TANGGAL UPDATE":"17/06/2025"}},{"type":"Feature","geometry":{"coordinates":[106.69439279999999,-6.1335069],"type":"Point"},"properties":{"NAMA":"THE MARKET PLACE PASAR MODERN","TIPE_1":"PERDAGANGAN DAN RETAIL","TIPE_2":"PASAR","TIPE_3":"PASAR MODERN","TELEPON":"","ALAMAT":"JL. CITRA DUA EXTENSION, RT.2/RW.8, PEGADUNGAN, KEC. KALIDERES, KOTA JAKARTA BARAT, DAERAH KHUSUS IBUKOTA JAKARTA 11830","ID_PROV":"31","PROVINSI":"DKI JAKARTA","ID_KABKOT":"31.73","KABKOT":"KOTA ADM. JAKARTA BARAT","ID_KEC":"31.73.06","KECAMATAN":"KALIDERES","ID_DESA":"31.73.06.1005","DESA":"PEGADUNGAN","LATITUDE":-6.1335069,"LONGITUDE":106.6943928,"STATUS":"BUKA","TANGGAL PENGUMPULAN":"Q2 2025","TANGGAL UPDATE":"17/06/2025"}}]}