{"type":"FeatureCollection","features":[{"type":"Feature","geometry":{"coordinates":[106.9510396,-6.2715904],"type":"Point"},"properties":{"NAMA":"PASAR MEDITERANIA","TIPE_1":"PERDAGANGAN DAN RETAIL","TIPE_2":"PASAR","TIPE_3":"PASAR TRADISIONAL","TELEPON":"","ALAMAT":"JL. RATNA - JATIBENING, RT.001/RW.001, JATIBENING, KEC. PD. GEDE, KOTA BKS, JAWA BARAT 17412","ID_PROV":"32","PROVINSI":"JAWA BARAT","ID_KABKOT":"32.75","KABKOT":"KOTA BEKASI","ID_KEC":"32.75.09","KECAMATAN":"JATIASIH","ID_DESA":"32.75.09.1003","DESA":"JATIKRAMAT","LATITUDE":-6.2715904,"LONGITUDE":106.9510396,"STATUS":"BUKA","TANGGAL PENGUMPULAN":"Q2 2025","TANGGAL UPDATE":"17/06/2025"}},{"type":"Feature","geometry":{"coordinates":[106.9983253,-6.177263],"type":"Point"},"properties":{"NAMA":"PASAR MARPUNGNGAH","TIPE_1":"PERDAGANGAN DAN RETAIL","TIPE_2":"PASAR","TIPE_3":"PASAR TRADISIONAL","TELEPON":"","ALAMAT":"JL. RAYA KALIABANG TENGAH, RT.004/RW.023, KALIABANG TENGAH, KEC. BEKASI UTARA, KOTA BKS, JAWA BARAT 17125","ID_PROV":"32","PROVINSI":"JAWA BARAT","ID_KABKOT":"32.75","KABKOT":"KOTA BEKASI","ID_KEC":"32.75.06","KECAMATAN":"MEDANSATRIA","ID_DESA":"32.75.06.1003","DESA":"PEJUANG","LATITUDE":-6.177263,"LONGITUDE":106.9983253,"STATUS":"BUKA","TANGGAL PENGUMPULAN":"Q2 2025","TANGGAL UPDATE":"17/06/2025"}},{"type":"Feature","geometry":{"coordinates":[106.9827,-6.2303294],"type":"Point"},"properties":{"NAMA":"PASAR MANGGA PERUMNAS 1 BEKASI","TIPE_1":"PERDAGANGAN DAN RETAIL","TIPE_2":"PASAR","TIPE_3":"PASAR TRADISIONAL","TELEPON":"0858-1122-4376","ALAMAT":"JL. MANGGA RAYA NO.61, RT.004/RW.007, KRANJI, KEC. BEKASI BAR., KOTA BKS, JAWA BARAT 17135","ID_PROV":"32","PROVINSI":"JAWA BARAT","ID_KABKOT":"32.75","KABKOT":"KOTA BEKASI","ID_KEC":"32.75.02","KECAMATAN":"BEKASI BARAT","ID_DESA":"32.75.02.1002","DESA":"KRANJI","LATITUDE":-6.2303294,"LONGITUDE":106.9827,"STATUS":"BUKA","TANGGAL PENGUMPULAN":"Q2 2025","TANGGAL UPDATE":"17/06/2025"}},{"type":"Feature","geometry":{"coordinates":[106.95363,-6.2382424],"type":"Point"},"properties":{"NAMA":"PASAR MALEM BABE BINTARA","TIPE_1":"PERDAGANGAN DAN RETAIL","TIPE_2":"PASAR","TIPE_3":"PASAR TRADISIONAL","TELEPON":"0858-1725-3093","ALAMAT":"JL. BINTARA JAYA VIII NO.13, RT.13/RW.3, BINTARA JAYA, KEC. BEKASI BAR., KOTA BKS, JAWA BARAT 17136","ID_PROV":"32","PROVINSI":"JAWA BARAT","ID_KABKOT":"32.75","KABKOT":"KOTA BEKASI","ID_KEC":"32.75.02","KECAMATAN":"BEKASI BARAT","ID_DESA":"32.75.02.1004","DESA":"BINTARAJAYA","LATITUDE":-6.2382424,"LONGITUDE":106.95363,"STATUS":"BUKA","TANGGAL PENGUMPULAN":"Q2 2025","TANGGAL UPDATE":"17/06/2025"}},{"type":"Feature","geometry":{"coordinates":[106.9592222,-6.2839385],"type":"Point"},"properties":{"NAMA":"PASAR MALEM JEMBATAN","TIPE_1":"PERDAGANGAN DAN RETAIL","TIPE_2":"PASAR","TIPE_3":"PASAR TRADISIONAL","TELEPON":"","ALAMAT":"JL. RAMBUTAN RAYA, RW.011, JATIMEKAR, JATIASIH, BEKASI, WEST JAVA 17422","ID_PROV":"32","PROVINSI":"JAWA BARAT","ID_KABKOT":"32.75","KABKOT":"KOTA BEKASI","ID_KEC":"32.75.09","KECAMATAN":"JATIASIH","ID_DESA":"32.75.09.1001","DESA":"JATIMEKAR","LATITUDE":-6.2839385,"LONGITUDE":106.9592222,"STATUS":"BUKA","TANGGAL PENGUMPULAN":"Q2 2025","TANGGAL UPDATE":"17/06/2025"}},{"type":"Feature","geometry":{"coordinates":[107.0122255,-6.2626947],"type":"Point"},"properties":{"NAMA":"PASAR NOCENG PASAR MURAH SAYUR/BAHAN POKOK","TIPE_1":"PERDAGANGAN DAN RETAIL","TIPE_2":"PASAR","TIPE_3":"PASAR TRADISIONAL","TELEPON":"","ALAMAT":"BLOK C2, JL. PAKIS BARAT II NO.19, RT.002/RW.025, PENGASINAN, KEC. RAWALUMBU, KOTA BKS, JAWA BARAT 17115","ID_PROV":"32","PROVINSI":"JAWA BARAT","ID_KABKOT":"32.75","KABKOT":"KOTA BEKASI","ID_KEC":"32.75.05","KECAMATAN":"RAWALUMBU","ID_DESA":"32.75.05.1002","DESA":"PENGASINAN","LATITUDE":-6.2626947,"LONGITUDE":107.0122255,"STATUS":"BUKA","TANGGAL PENGUMPULAN":"Q2 2025","TANGGAL UPDATE":"17/06/2025"}},{"type":"Feature","geometry":{"coordinates":[107.0130362,-6.2462132],"type":"Point"},"properties":{"NAMA":"PASAR NUSANTARA BEKASI","TIPE_1":"PERDAGANGAN DAN RETAIL","TIPE_2":"PASAR","TIPE_3":"PASAR TRADISIONAL","TELEPON":"","ALAMAT":"JL. KUSUMA, RT.001/RW.001, DUREN JAYA, KEC. BEKASI TIM., KOTA BKS, JAWA BARAT 17111","ID_PROV":"32","PROVINSI":"JAWA BARAT","ID_KABKOT":"32.75","KABKOT":"KOTA BEKASI","ID_KEC":"32.75.01","KECAMATAN":"BEKASI TIMUR","ID_DESA":"32.75.01.1003","DESA":"DURENJAYA","LATITUDE":-6.2462132,"LONGITUDE":107.0130362,"STATUS":"BUKA","TANGGAL PENGUMPULAN":"Q2 2025","TANGGAL UPDATE":"17/06/2025"}},{"type":"Feature","geometry":{"coordinates":[107.0272958,-6.2856114],"type":"Point"},"properties":{"NAMA":"PASAR MUTIARA GADING TIMUR","TIPE_1":"PERDAGANGAN DAN RETAIL","TIPE_2":"PASAR","TIPE_3":"PASAR TRADISIONAL","TELEPON":"","ALAMAT":"MUTIARA GADING TIM., PASAR MUSTIKA JAYA,, RT.010/RW.029, MUSTIKA JAYA, KEC. MUSTIKA JAYA, KOTA BKS, JAWA BARAT 17158","ID_PROV":"32","PROVINSI":"JAWA BARAT","ID_KABKOT":"32.75","KABKOT":"KOTA BEKASI","ID_KEC":"32.75.11","KECAMATAN":"MUSTIKAJAYA","ID_DESA":"32.75.11.1003","DESA":"MUSTIKAJAYA","LATITUDE":-6.2856114,"LONGITUDE":107.0272958,"STATUS":"BUKA","TANGGAL PENGUMPULAN":"Q2 2025","TANGGAL UPDATE":"17/06/2025"}},{"type":"Feature","geometry":{"coordinates":[107.004944,-6.227728],"type":"Point"},"properties":{"NAMA":"PASAR MURAH","TIPE_1":"PERDAGANGAN DAN RETAIL","TIPE_2":"PASAR","TIPE_3":"PASAR TRADISIONAL","TELEPON":"0821-1121-2620","ALAMAT":"BLOK UB, RUKO EMERALD, JL. BULEVAR SELATAN NO.50, RT.004/RW.011, MARGA MULYA, BEKASI UTARA, BEKASI, WEST JAVA 17142","ID_PROV":"32","PROVINSI":"JAWA BARAT","ID_KABKOT":"32.75","KABKOT":"KOTA BEKASI","ID_KEC":"32.75.03","KECAMATAN":"BEKASI UTARA","ID_DESA":"32.75.03.1005","DESA":"MARGAMULYA","LATITUDE":-6.227728,"LONGITUDE":107.004944,"STATUS":"BUKA","TANGGAL PENGUMPULAN":"Q2 2025","TANGGAL UPDATE":"17/06/2025"}},{"type":"Feature","geometry":{"coordinates":[107.0002424,-6.2290211],"type":"Point"},"properties":{"NAMA":"PASAR MODERN SINPASA SUMMARECON BEKASI","TIPE_1":"PERDAGANGAN DAN RETAIL","TIPE_2":"PASAR","TIPE_3":"PASAR MODERN","TELEPON":"","ALAMAT":"JL. AL-IKHLAS II NO.5, RT.003/RW.005, MARGA MULYA, KEC. BEKASI UTARA, KOTA BKS, JAWA BARAT 17124","ID_PROV":"32","PROVINSI":"JAWA BARAT","ID_KABKOT":"32.75","KABKOT":"KOTA BEKASI","ID_KEC":"32.75.03","KECAMATAN":"BEKASI UTARA","ID_DESA":"32.75.03.1005","DESA":"MARGAMULYA","LATITUDE":-6.2290211,"LONGITUDE":107.0002424,"STATUS":"BUKA","TANGGAL PENGUMPULAN":"Q2 2025","TANGGAL UPDATE":"17/06/2025"}},{"type":"Feature","geometry":{"coordinates":[106.955014,-6.3106115],"type":"Point"},"properties":{"NAMA":"PASAR MITRA TANI","TIPE_1":"PERDAGANGAN DAN RETAIL","TIPE_2":"PASAR","TIPE_3":"PASAR TRADISIONAL","TELEPON":"","ALAMAT":"JL. PARPOSTEL NO.10, RT.002/RW.001, JATIASIH, BEKASI, WEST JAVA 17423","ID_PROV":"32","PROVINSI":"JAWA BARAT","ID_KABKOT":"32.75","KABKOT":"KOTA BEKASI","ID_KEC":"32.75.09","KECAMATAN":"JATIASIH","ID_DESA":"32.75.09.1002","DESA":"JATIASIH","LATITUDE":-6.3106115,"LONGITUDE":106.955014,"STATUS":"BUKA","TANGGAL PENGUMPULAN":"Q2 2025","TANGGAL UPDATE":"17/06/2025"}},{"type":"Feature","geometry":{"coordinates":[106.9425488,-6.2743955],"type":"Point"},"properties":{"NAMA":"PASAR KULINER GG NAWAN RT03","TIPE_1":"PERDAGANGAN DAN RETAIL","TIPE_2":"PASAR","TIPE_3":"PASAR TRADISIONAL","TELEPON":"","ALAMAT":"JL. JATI KRAMAT BARU NO.76, RT.003/RW.005, JATIKRAMAT, KEC. JATIASIH, KOTA BKS, JAWA BARAT 17421","ID_PROV":"32","PROVINSI":"JAWA BARAT","ID_KABKOT":"32.75","KABKOT":"KOTA BEKASI","ID_KEC":"32.75.09","KECAMATAN":"JATIASIH","ID_DESA":"32.75.09.1003","DESA":"JATIKRAMAT","LATITUDE":-6.2743955,"LONGITUDE":106.9425488,"STATUS":"BUKA","TANGGAL PENGUMPULAN":"Q2 2025","TANGGAL UPDATE":"17/06/2025"}},{"type":"Feature","geometry":{"coordinates":[106.9234,-6.36411],"type":"Point"},"properties":{"NAMA":"PASAR KRANGGAN","TIPE_1":"PERDAGANGAN DAN RETAIL","TIPE_2":"PASAR","TIPE_3":"PASAR TRADISIONAL","TELEPON":"","ALAMAT":"JATISAMPURNA, KEC. JATISAMPURNA, KOTA BKS, JAWA BARAT","ID_PROV":"32","PROVINSI":"JAWA BARAT","ID_KABKOT":"32.75","KABKOT":"KOTA BEKASI","ID_KEC":"32.75.10","KECAMATAN":"JATISAMPURNA","ID_DESA":"32.75.10.1001","DESA":"JATISAMPURNA","LATITUDE":-6.36411,"LONGITUDE":106.9234,"STATUS":"BUKA","TANGGAL PENGUMPULAN":"Q2 2025","TANGGAL UPDATE":"17/06/2025"}},{"type":"Feature","geometry":{"coordinates":[106.9234639,-6.364436],"type":"Point"},"properties":{"NAMA":"PASAR KRANGGAN","TIPE_1":"PERDAGANGAN DAN RETAIL","TIPE_2":"PASAR","TIPE_3":"PASAR TRADISIONAL","TELEPON":"","ALAMAT":"PS. KRANGGAN MAS LANTAI, RT.004, RT.004/RW.004, JATISAMPURNA, KEC. JATISAMPURNA, KOTA BKS, JAWA BARAT 17433","ID_PROV":"32","PROVINSI":"JAWA BARAT","ID_KABKOT":"32.75","KABKOT":"KOTA BEKASI","ID_KEC":"32.75.10","KECAMATAN":"JATISAMPURNA","ID_DESA":"32.75.10.1001","DESA":"JATISAMPURNA","LATITUDE":-6.364436,"LONGITUDE":106.9234639,"STATUS":"BUKA","TANGGAL PENGUMPULAN":"Q2 2025","TANGGAL UPDATE":"17/06/2025"}},{"type":"Feature","geometry":{"coordinates":[106.9252737,-6.3688842],"type":"Point"},"properties":{"NAMA":"PASAR KRANGGAN","TIPE_1":"PERDAGANGAN DAN RETAIL","TIPE_2":"PASAR","TIPE_3":"PASAR TRADISIONAL","TELEPON":"","ALAMAT":"GG. SUKA JEMBAR, RT.001/RW.002, JATISAMPURNA, KEC. JATISAMPURNA, KOTA BKS, JAWA BARAT 17433","ID_PROV":"32","PROVINSI":"JAWA BARAT","ID_KABKOT":"32.75","KABKOT":"KOTA BEKASI","ID_KEC":"32.75.10","KECAMATAN":"JATISAMPURNA","ID_DESA":"32.75.10.1001","DESA":"JATISAMPURNA","LATITUDE":-6.3688842,"LONGITUDE":106.9252737,"STATUS":"BUKA","TANGGAL PENGUMPULAN":"Q2 2025","TANGGAL UPDATE":"17/06/2025"}},{"type":"Feature","geometry":{"coordinates":[106.9722056,-6.2353557],"type":"Point"},"properties":{"NAMA":"PASAR KRANJI BARU 2","TIPE_1":"PERDAGANGAN DAN RETAIL","TIPE_2":"PASAR","TIPE_3":"PASAR TRADISIONAL","TELEPON":"","ALAMAT":"JL. BINTARA, BINTARA, KEC. BEKASI BAR., KOTA BKS, JAWA BARAT","ID_PROV":"32","PROVINSI":"JAWA BARAT","ID_KABKOT":"32.75","KABKOT":"KOTA BEKASI","ID_KEC":"32.75.02","KECAMATAN":"BEKASI BARAT","ID_DESA":"32.75.02.1005","DESA":"JAKASAMPURNA","LATITUDE":-6.2353557,"LONGITUDE":106.9722056,"STATUS":"BUKA","TANGGAL PENGUMPULAN":"Q2 2025","TANGGAL UPDATE":"17/06/2025"}},{"type":"Feature","geometry":{"coordinates":[106.9736,-6.2347151],"type":"Point"},"properties":{"NAMA":"PASAR KRANJI BARU","TIPE_1":"PERDAGANGAN DAN RETAIL","TIPE_2":"PASAR","TIPE_3":"PASAR TRADISIONAL","TELEPON":"","ALAMAT":"PS. BARU KRANJI, JL. PATRIOT, RT.0.10/RW.006B, JAKASAMPURNA, KEC. BEKASI BAR., KOTA BKS, JAWA BARAT 17145","ID_PROV":"32","PROVINSI":"JAWA BARAT","ID_KABKOT":"32.75","KABKOT":"KOTA BEKASI","ID_KEC":"32.75.02","KECAMATAN":"BEKASI BARAT","ID_DESA":"32.75.02.1005","DESA":"JAKASAMPURNA","LATITUDE":-6.2347151,"LONGITUDE":106.9736,"STATUS":"BUKA","TANGGAL PENGUMPULAN":"Q2 2025","TANGGAL UPDATE":"17/06/2025"}},{"type":"Feature","geometry":{"coordinates":[106.9795897,-6.2261355],"type":"Point"},"properties":{"NAMA":"PASAR KRANJI BEKASI","TIPE_1":"PERDAGANGAN DAN RETAIL","TIPE_2":"PASAR","TIPE_3":"PASAR TRADISIONAL","TELEPON":"","ALAMAT":"RT.001/RW.013, KRANJI, KEC. BEKASI BAR., KOTA BKS, JAWA BARAT 17135","ID_PROV":"32","PROVINSI":"JAWA BARAT","ID_KABKOT":"32.75","KABKOT":"KOTA BEKASI","ID_KEC":"32.75.02","KECAMATAN":"BEKASI BARAT","ID_DESA":"32.75.02.1002","DESA":"KRANJI","LATITUDE":-6.2261355,"LONGITUDE":106.9795897,"STATUS":"BUKA","TANGGAL PENGUMPULAN":"Q2 2025","TANGGAL UPDATE":"17/06/2025"}},{"type":"Feature","geometry":{"coordinates":[106.965658,-6.2074714],"type":"Point"},"properties":{"NAMA":"PASAR KOTA BARU","TIPE_1":"PERDAGANGAN DAN RETAIL","TIPE_2":"PASAR","TIPE_3":"PASAR TRADISIONAL","TELEPON":"","ALAMAT":"JL. H.NASIR 1 NO.4, RT.4/RW.1, KOTA BARU, KEC. BEKASI BAR., KOTA BKS, JAWA BARAT 17133","ID_PROV":"32","PROVINSI":"JAWA BARAT","ID_KABKOT":"32.75","KABKOT":"KOTA BEKASI","ID_KEC":"32.75.02","KECAMATAN":"BEKASI BARAT","ID_DESA":"32.75.02.1003","DESA":"KOTABARU","LATITUDE":-6.2074714,"LONGITUDE":106.965658,"STATUS":"BUKA","TANGGAL PENGUMPULAN":"Q2 2025","TANGGAL UPDATE":"17/06/2025"}},{"type":"Feature","geometry":{"coordinates":[106.9635192,-6.308436],"type":"Point"},"properties":{"NAMA":"PASAR KOTA","TIPE_1":"PERDAGANGAN DAN RETAIL","TIPE_2":"PASAR","TIPE_3":"PASAR TRADISIONAL","TELEPON":"0811-9050-331","ALAMAT":"JL. BANGO, RT.010/RW.012, JATIRASA, JATIASIH, BEKASI, WEST JAVA 17146","ID_PROV":"32","PROVINSI":"JAWA BARAT","ID_KABKOT":"32.75","KABKOT":"KOTA BEKASI","ID_KEC":"32.75.09","KECAMATAN":"JATIASIH","ID_DESA":"32.75.09.1004","DESA":"JATIRASA","LATITUDE":-6.308436,"LONGITUDE":106.9635192,"STATUS":"BUKA","TANGGAL PENGUMPULAN":"Q2 2025","TANGGAL UPDATE":"17/06/2025"}},{"type":"Feature","geometry":{"coordinates":[106.9631478,-6.2143149],"type":"Point"},"properties":{"NAMA":"PASAR MALAM HARAPAN BARU","TIPE_1":"PERDAGANGAN DAN RETAIL","TIPE_2":"PASAR","TIPE_3":"PASAR TRADISIONAL","TELEPON":"","ALAMAT":"JL. KORMA NO.14, RT.003/RW.1, KOTA BARU, KEC. BEKASI BAR., KOTA BKS, JAWA BARAT 17133","ID_PROV":"32","PROVINSI":"JAWA BARAT","ID_KABKOT":"32.75","KABKOT":"KOTA BEKASI","ID_KEC":"32.75.02","KECAMATAN":"BEKASI BARAT","ID_DESA":"32.75.02.1003","DESA":"KOTABARU","LATITUDE":-6.2143149,"LONGITUDE":106.9631478,"STATUS":"BUKA","TANGGAL PENGUMPULAN":"Q2 2025","TANGGAL UPDATE":"17/06/2025"}},{"type":"Feature","geometry":{"coordinates":[106.96643,-6.261173],"type":"Point"},"properties":{"NAMA":"PASAR MALAM BABESADEWA","TIPE_1":"PERDAGANGAN DAN RETAIL","TIPE_2":"PASAR","TIPE_3":"PASAR TRADISIONAL","TELEPON":"","ALAMAT":"JL. SADEWA I NO.C/353, RT.004/RW.007, JAKA SETIA, KEC. BEKASI SEL., KOTA BKS, JAWA BARAT 17147","ID_PROV":"32","PROVINSI":"JAWA BARAT","ID_KABKOT":"32.75","KABKOT":"KOTA BEKASI","ID_KEC":"32.75.04","KECAMATAN":"BEKASI SELATAN","ID_DESA":"32.75.04.1004","DESA":"JAKASETIA","LATITUDE":-6.261173,"LONGITUDE":106.96643,"STATUS":"BUKA","TANGGAL PENGUMPULAN":"Q2 2025","TANGGAL UPDATE":"17/06/2025"}},{"type":"Feature","geometry":{"coordinates":[107.0067071,-6.2528364],"type":"Point"},"properties":{"NAMA":"PASAR MALAM","TIPE_1":"PERDAGANGAN DAN RETAIL","TIPE_2":"PASAR","TIPE_3":"PASAR TRADISIONAL","TELEPON":"","ALAMAT":"JL. MARUNDA MAKMUR NO.17, RT.001/RW.5, MARGAHAYU, KEC. BEKASI TIM., KOTA BKS, JAWA BARAT 17113","ID_PROV":"32","PROVINSI":"JAWA BARAT","ID_KABKOT":"32.75","KABKOT":"KOTA BEKASI","ID_KEC":"32.75.01","KECAMATAN":"BEKASI TIMUR","ID_DESA":"32.75.01.1002","DESA":"MARGAHAYU","LATITUDE":-6.2528364,"LONGITUDE":107.0067071,"STATUS":"BUKA","TANGGAL PENGUMPULAN":"Q2 2025","TANGGAL UPDATE":"17/06/2025"}},{"type":"Feature","geometry":{"coordinates":[107.0092593,-6.1765617],"type":"Point"},"properties":{"NAMA":"PASAR LOKAL BLOK AM BEKASI","TIPE_1":"PERDAGANGAN DAN RETAIL","TIPE_2":"PASAR","TIPE_3":"PASAR TRADISIONAL","TELEPON":"","ALAMAT":"JL. RAYA PD. UNGU PERMAI NO.01 - 12 BLOK AM 10, RT.013/RW.012, KALIABANG TENGAH, KEC. BEKASI UTARA, KOTA BKS, JAWA BARAT 17125","ID_PROV":"32","PROVINSI":"JAWA BARAT","ID_KABKOT":"32.75","KABKOT":"KOTA BEKASI","ID_KEC":"32.75.03","KECAMATAN":"BEKASI UTARA","ID_DESA":"32.75.03.1001","DESA":"KALIABANG TENGAH","LATITUDE":-6.1765617,"LONGITUDE":107.0092593,"STATUS":"BUKA","TANGGAL PENGUMPULAN":"Q2 2025","TANGGAL UPDATE":"17/06/2025"}},{"type":"Feature","geometry":{"coordinates":[107.0148155,-6.246192],"type":"Point"},"properties":{"NAMA":"PASAR LINGKUNGAN HJ UMYANG","TIPE_1":"PERDAGANGAN DAN RETAIL","TIPE_2":"PASAR","TIPE_3":"PASAR TRADISIONAL","TELEPON":"","ALAMAT":"JL. PROF. MOH. YAMIN NO.34, RT.002/RW.001, DUREN JAYA, KEC. BEKASI TIM., KOTA BKS, JAWA BARAT 17111","ID_PROV":"32","PROVINSI":"JAWA BARAT","ID_KABKOT":"32.75","KABKOT":"KOTA BEKASI","ID_KEC":"32.75.01","KECAMATAN":"BEKASI TIMUR","ID_DESA":"32.75.01.1003","DESA":"DURENJAYA","LATITUDE":-6.246192,"LONGITUDE":107.0148155,"STATUS":"BUKA","TANGGAL PENGUMPULAN":"Q2 2025","TANGGAL UPDATE":"17/06/2025"}},{"type":"Feature","geometry":{"coordinates":[106.9905864,-6.2124724],"type":"Point"},"properties":{"NAMA":"PASAR KAGET RAWA BUGEL","TIPE_1":"PERDAGANGAN DAN RETAIL","TIPE_2":"PASAR","TIPE_3":"PASAR TRADISIONAL","TELEPON":"(021) 88964037","ALAMAT":"JL. GN. SALAHATU NO.23, RT.005/RW.013, HARAPAN JAYA, BEKASI UTARA, BEKASI, WEST JAVA 17124","ID_PROV":"32","PROVINSI":"JAWA BARAT","ID_KABKOT":"32.75","KABKOT":"KOTA BEKASI","ID_KEC":"32.75.03","KECAMATAN":"BEKASI UTARA","ID_DESA":"32.75.03.1006","DESA":"HARAPANJAYA","LATITUDE":-6.2124724,"LONGITUDE":106.9905864,"STATUS":"BUKA","TANGGAL PENGUMPULAN":"Q2 2025","TANGGAL UPDATE":"17/06/2025"}},{"type":"Feature","geometry":{"coordinates":[107.0293507,-6.2041903],"type":"Point"},"properties":{"NAMA":"PASAR KAGET TAMAN WISMA ASRI 2","TIPE_1":"PERDAGANGAN DAN RETAIL","TIPE_2":"PASAR","TIPE_3":"PASAR TRADISIONAL","TELEPON":"","ALAMAT":"PASAR KAGET, JL. TAMAN WISMA ASRI II JL. JALUR 2, TLK. PUCUNG, KEC. BEKASI UTARA, KOTA BKS, JAWA BARAT 17121","ID_PROV":"32","PROVINSI":"JAWA BARAT","ID_KABKOT":"32.75","KABKOT":"KOTA BEKASI","ID_KEC":"32.75.03","KECAMATAN":"BEKASI UTARA","ID_DESA":"32.75.03.1004","DESA":"TELUK PUCUNG","LATITUDE":-6.2041903,"LONGITUDE":107.0293507,"STATUS":"BUKA","TANGGAL PENGUMPULAN":"Q2 2025","TANGGAL UPDATE":"17/06/2025"}},{"type":"Feature","geometry":{"coordinates":[107.0230648,-6.2006317],"type":"Point"},"properties":{"NAMA":"PASAR KAGET VILLA INDAH PERMAI","TIPE_1":"PERDAGANGAN DAN RETAIL","TIPE_2":"PASAR","TIPE_3":"PASAR TRADISIONAL","TELEPON":"","ALAMAT":"RT.001/RW.037, TLK. PUCUNG, KEC. BEKASI UTARA, KOTA BKS, JAWA BARAT 17121","ID_PROV":"32","PROVINSI":"JAWA BARAT","ID_KABKOT":"32.75","KABKOT":"KOTA BEKASI","ID_KEC":"32.75.03","KECAMATAN":"BEKASI UTARA","ID_DESA":"32.75.03.1004","DESA":"TELUK PUCUNG","LATITUDE":-6.2006317,"LONGITUDE":107.0230648,"STATUS":"BUKA","TANGGAL PENGUMPULAN":"Q2 2025","TANGGAL UPDATE":"17/06/2025"}},{"type":"Feature","geometry":{"coordinates":[107.012464,-6.217712],"type":"Point"},"properties":{"NAMA":"PASAR KAGET PHR","TIPE_1":"PERDAGANGAN DAN RETAIL","TIPE_2":"PASAR","TIPE_3":"PASAR TRADISIONAL","TELEPON":"","ALAMAT":"JL. PERUM. PRIMA HARAPAN REGENCY, RT.014/RW.009, HARAPAN BARU, KEC. BEKASI UTARA, KOTA BKS, JAWA BARAT 17142","ID_PROV":"32","PROVINSI":"JAWA BARAT","ID_KABKOT":"32.75","KABKOT":"KOTA BEKASI","ID_KEC":"32.75.03","KECAMATAN":"BEKASI UTARA","ID_DESA":"32.75.03.1003","DESA":"HARAPANBARU","LATITUDE":-6.217712,"LONGITUDE":107.012464,"STATUS":"BUKA","TANGGAL PENGUMPULAN":"Q2 2025","TANGGAL UPDATE":"17/06/2025"}},{"type":"Feature","geometry":{"coordinates":[106.9758221,-6.2216823],"type":"Point"},"properties":{"NAMA":"PASAR KOLONG KRANJI - KOTA BEKASI","TIPE_1":"PERDAGANGAN DAN RETAIL","TIPE_2":"PASAR","TIPE_3":"PASAR TRADISIONAL","TELEPON":"0896-6881-6731","ALAMAT":"JL. SULTAN AGUNG NO.4, RT.001/RW.002, KALI BARU, KECAMATAN MEDAN SATRIA, KOTA BKS, JAWA BARAT 17132","ID_PROV":"32","PROVINSI":"JAWA BARAT","ID_KABKOT":"32.75","KABKOT":"KOTA BEKASI","ID_KEC":"32.75.06","KECAMATAN":"MEDANSATRIA","ID_DESA":"32.75.06.1004","DESA":"KALIBARU","LATITUDE":-6.2216823,"LONGITUDE":106.9758221,"STATUS":"BUKA","TANGGAL PENGUMPULAN":"Q2 2025","TANGGAL UPDATE":"17/06/2025"}},{"type":"Feature","geometry":{"coordinates":[106.9333239,-6.3051677],"type":"Point"},"properties":{"NAMA":"PASAR KECAPI","TIPE_1":"PERDAGANGAN DAN RETAIL","TIPE_2":"PASAR","TIPE_3":"PASAR TRADISIONAL","TELEPON":"","ALAMAT":"JL.  NO.82, RT.003/RW.003, JATIWARNA, KEC. PD. MELATI, KOTA BKS, JAWA BARAT 17415","ID_PROV":"32","PROVINSI":"JAWA BARAT","ID_KABKOT":"32.75","KABKOT":"KOTA BEKASI","ID_KEC":"32.75.12","KECAMATAN":"PONDOKMELATI","ID_DESA":"32.75.12.1002","DESA":"JATIWARNA","LATITUDE":-6.3051677,"LONGITUDE":106.9333239,"STATUS":"BUKA","TANGGAL PENGUMPULAN":"Q2 2025","TANGGAL UPDATE":"17/06/2025"}},{"type":"Feature","geometry":{"coordinates":[107.0239348,-6.2007277],"type":"Point"},"properties":{"NAMA":"PASAR ILEGAL RW.36","TIPE_1":"PERDAGANGAN DAN RETAIL","TIPE_2":"PASAR","TIPE_3":"PASAR TRADISIONAL","TELEPON":"","ALAMAT":"JL. NUSANTARA 3, RT.001/RW.036, TLK. PUCUNG, KEC. BEKASI UTARA, KOTA BKS, JAWA BARAT 17121","ID_PROV":"32","PROVINSI":"JAWA BARAT","ID_KABKOT":"32.75","KABKOT":"KOTA BEKASI","ID_KEC":"32.75.03","KECAMATAN":"BEKASI UTARA","ID_DESA":"32.75.03.1004","DESA":"TELUK PUCUNG","LATITUDE":-6.2007277,"LONGITUDE":107.0239348,"STATUS":"BUKA","TANGGAL PENGUMPULAN":"Q2 2025","TANGGAL UPDATE":"17/06/2025"}},{"type":"Feature","geometry":{"coordinates":[107.0142895,-6.2454647],"type":"Point"},"properties":{"NAMA":"PASAR IKAN BASAH","TIPE_1":"PERDAGANGAN DAN RETAIL","TIPE_2":"PASAR","TIPE_3":"PASAR TRADISIONAL","TELEPON":"0857-0514-9003","ALAMAT":"JL. KUSUMA BARAT RAYA, RT.002/RW.001, DUREN JAYA, KEC. BEKASI TIM., KOTA BKS, JAWA BARAT 17111","ID_PROV":"32","PROVINSI":"JAWA BARAT","ID_KABKOT":"32.75","KABKOT":"KOTA BEKASI","ID_KEC":"32.75.01","KECAMATAN":"BEKASI TIMUR","ID_DESA":"32.75.01.1003","DESA":"DURENJAYA","LATITUDE":-6.2454647,"LONGITUDE":107.0142895,"STATUS":"BUKA","TANGGAL PENGUMPULAN":"Q2 2025","TANGGAL UPDATE":"17/06/2025"}},{"type":"Feature","geometry":{"coordinates":[106.9468345,-6.3491987],"type":"Point"},"properties":{"NAMA":"PASAR KAGET AURI","TIPE_1":"PERDAGANGAN DAN RETAIL","TIPE_2":"PASAR","TIPE_3":"PASAR TRADISIONAL","TELEPON":"","ALAMAT":"JL. ZAMRUD S NO.3, RT.001/RW.008, JATISARI, KEC. JATIASIH, KOTA BKS, JAWA BARAT 17426","ID_PROV":"32","PROVINSI":"JAWA BARAT","ID_KABKOT":"32.75","KABKOT":"KOTA BEKASI","ID_KEC":"32.75.09","KECAMATAN":"JATIASIH","ID_DESA":"32.75.09.1006","DESA":"JATISARI","LATITUDE":-6.3491987,"LONGITUDE":106.9468345,"STATUS":"BUKA","TANGGAL PENGUMPULAN":"Q2 2025","TANGGAL UPDATE":"17/06/2025"}},{"type":"Feature","geometry":{"coordinates":[106.990213,-6.2082636],"type":"Point"},"properties":{"NAMA":"PASAR KAGET BULAK MACAN","TIPE_1":"PERDAGANGAN DAN RETAIL","TIPE_2":"PASAR","TIPE_3":"PASAR TRADISIONAL","TELEPON":"","ALAMAT":"JL. LOMBOK KAMPUNG BULAK MACAN, RT.005/RW.003, HARAPAN JAYA, KEC. BEKASI UTARA, KOTA BKS, JAWA BARAT 17124","ID_PROV":"32","PROVINSI":"JAWA BARAT","ID_KABKOT":"32.75","KABKOT":"KOTA BEKASI","ID_KEC":"32.75.03","KECAMATAN":"BEKASI UTARA","ID_DESA":"32.75.03.1006","DESA":"HARAPANJAYA","LATITUDE":-6.2082636,"LONGITUDE":106.990213,"STATUS":"BUKA","TANGGAL PENGUMPULAN":"Q2 2025","TANGGAL UPDATE":"17/06/2025"}},{"type":"Feature","geometry":{"coordinates":[106.96645,-6.29053],"type":"Point"},"properties":{"NAMA":"PASAR JATIASIH","TIPE_1":"PERDAGANGAN DAN RETAIL","TIPE_2":"PASAR","TIPE_3":"PASAR TRADISIONAL","TELEPON":"","ALAMAT":"JATIRASA, KEC. JATIASIH, KOTA BKS, JAWA BARAT","ID_PROV":"32","PROVINSI":"JAWA BARAT","ID_KABKOT":"32.75","KABKOT":"KOTA BEKASI","ID_KEC":"32.75.09","KECAMATAN":"JATIASIH","ID_DESA":"32.75.09.1004","DESA":"JATIRASA","LATITUDE":-6.29053,"LONGITUDE":106.96645,"STATUS":"BUKA","TANGGAL PENGUMPULAN":"Q2 2025","TANGGAL UPDATE":"17/06/2025"}},{"type":"Feature","geometry":{"coordinates":[106.96644,-6.29025],"type":"Point"},"properties":{"NAMA":"PASAR JATIASIH UTARA","TIPE_1":"PERDAGANGAN DAN RETAIL","TIPE_2":"PASAR","TIPE_3":"PASAR TRADISIONAL","TELEPON":"","ALAMAT":"JATIRASA, KEC. JATIASIH, KOTA BKS, JAWA BARAT","ID_PROV":"32","PROVINSI":"JAWA BARAT","ID_KABKOT":"32.75","KABKOT":"KOTA BEKASI","ID_KEC":"32.75.09","KECAMATAN":"JATIASIH","ID_DESA":"32.75.09.1004","DESA":"JATIRASA","LATITUDE":-6.29025,"LONGITUDE":106.96644,"STATUS":"BUKA","TANGGAL PENGUMPULAN":"Q2 2025","TANGGAL UPDATE":"17/06/2025"}},{"type":"Feature","geometry":{"coordinates":[106.9213093,-6.2591233],"type":"Point"},"properties":{"NAMA":"PASAR FAJAR JAYA","TIPE_1":"PERDAGANGAN DAN RETAIL","TIPE_2":"PASAR","TIPE_3":"PASAR TRADISIONAL","TELEPON":"","ALAMAT":"JL. H.BASYAR RAYA NO.2, RT.001/RW.003, JATICEMPAKA, KEC. PD. GEDE, KOTA BKS, JAWA BARAT 17411","ID_PROV":"32","PROVINSI":"JAWA BARAT","ID_KABKOT":"32.75","KABKOT":"KOTA BEKASI","ID_KEC":"32.75.08","KECAMATAN":"PONDOKGEDE","ID_DESA":"32.75.08.1007","DESA":"JATICEMPAKA","LATITUDE":-6.2591233,"LONGITUDE":106.9213093,"STATUS":"BUKA","TANGGAL PENGUMPULAN":"Q2 2025","TANGGAL UPDATE":"17/06/2025"}},{"type":"Feature","geometry":{"coordinates":[106.9518446,-6.2723686],"type":"Point"},"properties":{"NAMA":"PASAR CIKUNIR","TIPE_1":"PERDAGANGAN DAN RETAIL","TIPE_2":"PASAR","TIPE_3":"PASAR TRADISIONAL","TELEPON":"","ALAMAT":"JL. ANTILOPE, RT.001/RW.001, JATIKRAMAT, KEC. JATIASIH, KOTA BKS, JAWA BARAT 17421","ID_PROV":"32","PROVINSI":"JAWA BARAT","ID_KABKOT":"32.75","KABKOT":"KOTA BEKASI","ID_KEC":"32.75.09","KECAMATAN":"JATIASIH","ID_DESA":"32.75.09.1003","DESA":"JATIKRAMAT","LATITUDE":-6.2723686,"LONGITUDE":106.9518446,"STATUS":"BUKA","TANGGAL PENGUMPULAN":"Q2 2025","TANGGAL UPDATE":"17/06/2025"}},{"type":"Feature","geometry":{"coordinates":[107.0000536,-6.1725407],"type":"Point"},"properties":{"NAMA":"PASAR BLOK A TATING BEKASI","TIPE_1":"PERDAGANGAN DAN RETAIL","TIPE_2":"PASAR","TIPE_3":"PASAR TRADISIONAL","TELEPON":"0812-1952-8499","ALAMAT":"RT.010/RW.009, KALIABANG TENGAH, KEC. BEKASI UTARA, KOTA BKS, JAWA BARAT 17125","ID_PROV":"32","PROVINSI":"JAWA BARAT","ID_KABKOT":"32.75","KABKOT":"KOTA BEKASI","ID_KEC":"32.75.03","KECAMATAN":"BEKASI UTARA","ID_DESA":"32.75.03.1001","DESA":"KALIABANG TENGAH","LATITUDE":-6.1725407,"LONGITUDE":107.0000536,"STATUS":"BUKA","TANGGAL PENGUMPULAN":"Q2 2025","TANGGAL UPDATE":"17/06/2025"}},{"type":"Feature","geometry":{"coordinates":[107.0059049,-6.1749353],"type":"Point"},"properties":{"NAMA":"PASAR BLOK F PUP","TIPE_1":"PERDAGANGAN DAN RETAIL","TIPE_2":"PASAR","TIPE_3":"PASAR TRADISIONAL","TELEPON":"","ALAMAT":"F3 JL. RAYA PD. UNGU PERMAI NO.45, KALIABANG TENGAH, KEC. BEKASI UTARA, KOTA BKS, JAWA BARAT 17125","ID_PROV":"32","PROVINSI":"JAWA BARAT","ID_KABKOT":"32.75","KABKOT":"KOTA BEKASI","ID_KEC":"32.75.03","KECAMATAN":"BEKASI UTARA","ID_DESA":"32.75.03.1001","DESA":"KALIABANG TENGAH","LATITUDE":-6.1749353,"LONGITUDE":107.0059049,"STATUS":"BUKA","TANGGAL PENGUMPULAN":"Q2 2025","TANGGAL UPDATE":"17/06/2025"}},{"type":"Feature","geometry":{"coordinates":[106.9966906,-6.2568509],"type":"Point"},"properties":{"NAMA":"PASAR BESI BEKASI KOTA","TIPE_1":"PERDAGANGAN DAN RETAIL","TIPE_2":"PASAR","TIPE_3":"PASAR TRADISIONAL","TELEPON":"","ALAMAT":"JL. RA KARTINI NO.5, RT.005/RW.001, SEPANJANG JAYA, KEC. RAWALUMBU, KOTA BKS, JAWA BARAT 17114","ID_PROV":"32","PROVINSI":"JAWA BARAT","ID_KABKOT":"32.75","KABKOT":"KOTA BEKASI","ID_KEC":"32.75.05","KECAMATAN":"RAWALUMBU","ID_DESA":"32.75.05.1003","DESA":"SEPANJANGJAYA","LATITUDE":-6.2568509,"LONGITUDE":106.9966906,"STATUS":"BUKA","TANGGAL PENGUMPULAN":"Q2 2025","TANGGAL UPDATE":"17/06/2025"}},{"type":"Feature","geometry":{"coordinates":[106.925962,-6.2599669],"type":"Point"},"properties":{"NAMA":"PASAR BERSIH KEMANG CEMPAKA","TIPE_1":"PERDAGANGAN DAN RETAIL","TIPE_2":"PASAR","TIPE_3":"PASAR TRADISIONAL","TELEPON":"","ALAMAT":"JL. KEMANG RAYA NO.44, RT.006, JATIBENING BARU, PONDOK GEDE, BEKASI, WEST JAVA 17411","ID_PROV":"32","PROVINSI":"JAWA BARAT","ID_KABKOT":"32.75","KABKOT":"KOTA BEKASI","ID_KEC":"32.75.08","KECAMATAN":"PONDOKGEDE","ID_DESA":"32.75.08.1007","DESA":"JATICEMPAKA","LATITUDE":-6.2599669,"LONGITUDE":106.925962,"STATUS":"BUKA","TANGGAL PENGUMPULAN":"Q2 2025","TANGGAL UPDATE":"17/06/2025"}},{"type":"Feature","geometry":{"coordinates":[107.0136056,-6.2486979],"type":"Point"},"properties":{"NAMA":"PASAR BEKASI","TIPE_1":"PERDAGANGAN DAN RETAIL","TIPE_2":"PASAR","TIPE_3":"PASAR TRADISIONAL","TELEPON":"","ALAMAT":"JL. PROF. MOCH YAMIN NO.1-65, RT.003/RW.001, DUREN JAYA, KEC. BEKASI TIM., KOTA BKS, JAWA BARAT 17111","ID_PROV":"32","PROVINSI":"JAWA BARAT","ID_KABKOT":"32.75","KABKOT":"KOTA BEKASI","ID_KEC":"32.75.01","KECAMATAN":"BEKASI TIMUR","ID_DESA":"32.75.01.1003","DESA":"DURENJAYA","LATITUDE":-6.2486979,"LONGITUDE":107.0136056,"STATUS":"BUKA","TANGGAL PENGUMPULAN":"Q2 2025","TANGGAL UPDATE":"17/06/2025"}},{"type":"Feature","geometry":{"coordinates":[106.9332634,-6.2784765],"type":"Point"},"properties":{"NAMA":"PASAR BARU WAHDI","TIPE_1":"PERDAGANGAN DAN RETAIL","TIPE_2":"PASAR","TIPE_3":"PASAR TRADISIONAL","TELEPON":"0813-1459-4636","ALAMAT":"SAMPING POS DAN GIRO, JL. KH. ABDUL MADJID NO.RT 02/011, JATIMAKMUR, PONDOK GEDE, BEKASI, WEST JAVA","ID_PROV":"32","PROVINSI":"JAWA BARAT","ID_KABKOT":"32.75","KABKOT":"KOTA BEKASI","ID_KEC":"32.75.08","KECAMATAN":"PONDOKGEDE","ID_DESA":"32.75.08.1003","DESA":"JATIMAKMUR","LATITUDE":-6.2784765,"LONGITUDE":106.9332634,"STATUS":"BUKA","TANGGAL PENGUMPULAN":"Q2 2025","TANGGAL UPDATE":"17/06/2025"}},{"type":"Feature","geometry":{"coordinates":[107.02477119999999,-6.2092376],"type":"Point"},"properties":{"NAMA":"PASAR AYAM WISMA ASRI 2","TIPE_1":"PERDAGANGAN DAN RETAIL","TIPE_2":"PASAR","TIPE_3":"PASAR TRADISIONAL","TELEPON":"","ALAMAT":"RT.003/RW.018, TLK. PUCUNG, KEC. BEKASI UTARA, KOTA BKS, JAWA BARAT","ID_PROV":"32","PROVINSI":"JAWA BARAT","ID_KABKOT":"32.75","KABKOT":"KOTA BEKASI","ID_KEC":"32.75.03","KECAMATAN":"BEKASI UTARA","ID_DESA":"32.75.03.1004","DESA":"TELUK PUCUNG","LATITUDE":-6.2092376,"LONGITUDE":107.0247712,"STATUS":"BUKA","TANGGAL PENGUMPULAN":"Q2 2025","TANGGAL UPDATE":"17/06/2025"}},{"type":"Feature","geometry":{"coordinates":[107.0140393,-6.2006445],"type":"Point"},"properties":{"NAMA":"PASAR AMPERA BULAK PERWIRA BEKASI","TIPE_1":"PERDAGANGAN DAN RETAIL","TIPE_2":"PASAR","TIPE_3":"PASAR TRADISIONAL","TELEPON":"","ALAMAT":"JL. SWADAYA NO.RAYA, PERWIRA, KEC. BEKASI UTARA, KOTA BKS, JAWA BARAT 17124","ID_PROV":"32","PROVINSI":"JAWA BARAT","ID_KABKOT":"32.75","KABKOT":"KOTA BEKASI","ID_KEC":"32.75.03","KECAMATAN":"BEKASI UTARA","ID_DESA":"32.75.03.1002","DESA":"PERWIRA","LATITUDE":-6.2006445,"LONGITUDE":107.0140393,"STATUS":"BUKA","TANGGAL PENGUMPULAN":"Q2 2025","TANGGAL UPDATE":"17/06/2025"}},{"type":"Feature","geometry":{"coordinates":[107.0076029,-6.2026178],"type":"Point"},"properties":{"NAMA":"PASAR ALINDA 1","TIPE_1":"PERDAGANGAN DAN RETAIL","TIPE_2":"PASAR","TIPE_3":"PASAR TRADISIONAL","TELEPON":"","ALAMAT":"JL. SIDOMAKMUR 8 NO.13, RT.005/RW.021, KALIABANG TENGAH, KEC. BEKASI UTARA, KOTA BKS, JAWA BARAT 17125","ID_PROV":"32","PROVINSI":"JAWA BARAT","ID_KABKOT":"32.75","KABKOT":"KOTA BEKASI","ID_KEC":"32.75.03","KECAMATAN":"BEKASI UTARA","ID_DESA":"32.75.03.1001","DESA":"KALIABANG TENGAH","LATITUDE":-6.2026178,"LONGITUDE":107.0076029,"STATUS":"BUKA","TANGGAL PENGUMPULAN":"Q2 2025","TANGGAL UPDATE":"17/06/2025"}},{"type":"Feature","geometry":{"coordinates":[107.0016897,-6.189444],"type":"Point"},"properties":{"NAMA":"PASAR ABDUL GOPUR KALIABANG TENGAH","TIPE_1":"PERDAGANGAN DAN RETAIL","TIPE_2":"PASAR","TIPE_3":"PASAR TRADISIONAL","TELEPON":"","ALAMAT":"JL. UJUNG HARAPAN NO.D7, RT.001/RW.015, KALIABANG TENGAH, KEC. BEKASI UTARA, KOTA BKS, JAWA BARAT 17125","ID_PROV":"32","PROVINSI":"JAWA BARAT","ID_KABKOT":"32.75","KABKOT":"KOTA BEKASI","ID_KEC":"32.75.03","KECAMATAN":"BEKASI UTARA","ID_DESA":"32.75.03.1001","DESA":"KALIABANG TENGAH","LATITUDE":-6.189444,"LONGITUDE":107.0016897,"STATUS":"BUKA","TANGGAL PENGUMPULAN":"Q2 2025","TANGGAL UPDATE":"17/06/2025"}},{"type":"Feature","geometry":{"coordinates":[107.0044528,-6.3565769],"type":"Point"},"properties":{"NAMA":"PASAR ABAH SALAM SUMUR BATU","TIPE_1":"PERDAGANGAN DAN RETAIL","TIPE_2":"PASAR","TIPE_3":"PASAR TRADISIONAL","TELEPON":"","ALAMAT":"RT.002/RW.003, SUMUR BATU, KEC. BANTAR GEBANG, KOTA BKS, JAWA BARAT 17154","ID_PROV":"32","PROVINSI":"JAWA BARAT","ID_KABKOT":"32.75","KABKOT":"KOTA BEKASI","ID_KEC":"32.75.07","KECAMATAN":"BANTARGEBANG","ID_DESA":"32.75.07.1008","DESA":"SUMURBATU","LATITUDE":-6.3565769,"LONGITUDE":107.0044528,"STATUS":"BUKA","TANGGAL PENGUMPULAN":"Q2 2025","TANGGAL UPDATE":"17/06/2025"}},{"type":"Feature","geometry":{"coordinates":[106.9666694,-6.290792],"type":"Point"},"properties":{"NAMA":"PASAR BARU JATIASIH","TIPE_1":"PERDAGANGAN DAN RETAIL","TIPE_2":"PASAR","TIPE_3":"PASAR TRADISIONAL","TELEPON":"0812-2156-7809","ALAMAT":"JL. RAYA JATIASIH NO.26, RT.004/RW.04, JATIRASA, KEC. JATIASIH, KOTA BKS, JAWA BARAT 17424","ID_PROV":"32","PROVINSI":"JAWA BARAT","ID_KABKOT":"32.75","KABKOT":"KOTA BEKASI","ID_KEC":"32.75.09","KECAMATAN":"JATIASIH","ID_DESA":"32.75.09.1004","DESA":"JATIRASA","LATITUDE":-6.290792,"LONGITUDE":106.9666694,"STATUS":"BUKA","TANGGAL PENGUMPULAN":"Q2 2025","TANGGAL UPDATE":"17/06/2025"}},{"type":"Feature","geometry":{"coordinates":[107.0137477,-6.2480397],"type":"Point"},"properties":{"NAMA":"PASAR BARU BEKASI","TIPE_1":"PERDAGANGAN DAN RETAIL","TIPE_2":"PASAR","TIPE_3":"PASAR MODERN","TELEPON":"","ALAMAT":"JL. INSINYUR H. JUANDA NO.47, RT.006/RW.001, DUREN JAYA, KEC. BEKASI TIM., KOTA BKS, JAWA BARAT 17111","ID_PROV":"32","PROVINSI":"JAWA BARAT","ID_KABKOT":"32.75","KABKOT":"KOTA BEKASI","ID_KEC":"32.75.01","KECAMATAN":"BEKASI TIMUR","ID_DESA":"32.75.01.1003","DESA":"DURENJAYA","LATITUDE":-6.2480397,"LONGITUDE":107.0137477,"STATUS":"BUKA","TANGGAL PENGUMPULAN":"Q2 2025","TANGGAL UPDATE":"17/06/2025"}},{"type":"Feature","geometry":{"coordinates":[107.0149083,-6.2460073],"type":"Point"},"properties":{"NAMA":"PASAR BARU BEKASI REL KERETA API","TIPE_1":"PERDAGANGAN DAN RETAIL","TIPE_2":"PASAR","TIPE_3":"PASAR TRADISIONAL","TELEPON":"","ALAMAT":"PASAR BARU BEKASI, JL. PROF. MOH. YAMIN, RT.002/RW.001, DUREN JAYA, KEC. BEKASI TIM., KOTA BKS, JAWA BARAT 17111","ID_PROV":"32","PROVINSI":"JAWA BARAT","ID_KABKOT":"32.75","KABKOT":"KOTA BEKASI","ID_KEC":"32.75.01","KECAMATAN":"BEKASI TIMUR","ID_DESA":"32.75.01.1003","DESA":"DURENJAYA","LATITUDE":-6.2460073,"LONGITUDE":107.0149083,"STATUS":"BUKA","TANGGAL PENGUMPULAN":"Q2 2025","TANGGAL UPDATE":"17/06/2025"}},{"type":"Feature","geometry":{"coordinates":[106.9883599,-6.3130018],"type":"Point"},"properties":{"NAMA":"PASAR BANTAR GEBANG","TIPE_1":"PERDAGANGAN DAN RETAIL","TIPE_2":"PASAR","TIPE_3":"PASAR TRADISIONAL","TELEPON":"","ALAMAT":"BLK. CD5 JL. PS. LAMA NO.11, RT.001/RW.009, BANTARGEBANG, KEC. BANTAR GEBANG, KOTA BKS, JAWA BARAT 17151","ID_PROV":"32","PROVINSI":"JAWA BARAT","ID_KABKOT":"32.75","KABKOT":"KOTA BEKASI","ID_KEC":"32.75.07","KECAMATAN":"BANTARGEBANG","ID_DESA":"32.75.07.1003","DESA":"BANTARGEBANG","LATITUDE":-6.3130018,"LONGITUDE":106.9883599,"STATUS":"BUKA","TANGGAL PENGUMPULAN":"Q2 2025","TANGGAL UPDATE":"17/06/2025"}},{"type":"Feature","geometry":{"coordinates":[106.9874634,-6.3133553],"type":"Point"},"properties":{"NAMA":"PASAR BANTAR GEBANG","TIPE_1":"PERDAGANGAN DAN RETAIL","TIPE_2":"PASAR","TIPE_3":"PASAR TRADISIONAL","TELEPON":"","ALAMAT":"TOKO RAYSA HIJAB,PASAR BARU BANTARGEBANG,LANTAI DASAR BLOK E NO 9, RT.003/RW.009, BANTARGEBANG, KEC. BANTAR GEBANG, KOTA BKS, JAWA BARAT 17151","ID_PROV":"32","PROVINSI":"JAWA BARAT","ID_KABKOT":"32.75","KABKOT":"KOTA BEKASI","ID_KEC":"32.75.07","KECAMATAN":"BANTARGEBANG","ID_DESA":"32.75.07.1003","DESA":"BANTARGEBANG","LATITUDE":-6.3133553,"LONGITUDE":106.9874634,"STATUS":"BUKA","TANGGAL PENGUMPULAN":"Q2 2025","TANGGAL UPDATE":"17/06/2025"}},{"type":"Feature","geometry":{"coordinates":[106.9885,-6.31247],"type":"Point"},"properties":{"NAMA":"PASAR BANTAR GEBANG","TIPE_1":"PERDAGANGAN DAN RETAIL","TIPE_2":"PASAR","TIPE_3":"PASAR TRADISIONAL","TELEPON":"","ALAMAT":"BANTARGEBANG, KEC. BANTAR GEBANG, KOTA BKS, JAWA BARAT","ID_PROV":"32","PROVINSI":"JAWA BARAT","ID_KABKOT":"32.75","KABKOT":"KOTA BEKASI","ID_KEC":"32.75.07","KECAMATAN":"BANTARGEBANG","ID_DESA":"32.75.07.1003","DESA":"BANTARGEBANG","LATITUDE":-6.31247,"LONGITUDE":106.9885,"STATUS":"BUKA","TANGGAL PENGUMPULAN":"Q2 2025","TANGGAL UPDATE":"17/06/2025"}},{"type":"Feature","geometry":{"coordinates":[106.9881232,-6.3136429],"type":"Point"},"properties":{"NAMA":"PASAR BANTARGEBANG TOKO ANUGRAH","TIPE_1":"PERDAGANGAN DAN RETAIL","TIPE_2":"PASAR","TIPE_3":"PASAR TRADISIONAL","TELEPON":"","ALAMAT":"JALAN KAMPUNG BANTAR GEBANG NO.76, BANTARGEBANG, RT.003/RW.009, BANTARGEBANG, KEC. BANTAR GEBANG, KOTA BKS, JAWA BARAT 17151","ID_PROV":"32","PROVINSI":"JAWA BARAT","ID_KABKOT":"32.75","KABKOT":"KOTA BEKASI","ID_KEC":"32.75.07","KECAMATAN":"BANTARGEBANG","ID_DESA":"32.75.07.1003","DESA":"BANTARGEBANG","LATITUDE":-6.3136429,"LONGITUDE":106.9881232,"STATUS":"BUKA","TANGGAL PENGUMPULAN":"Q2 2025","TANGGAL UPDATE":"17/06/2025"}},{"type":"Feature","geometry":{"coordinates":[106.9555786,-6.3136193],"type":"Point"},"properties":{"NAMA":"PASAR BANGUNAN BEKASI","TIPE_1":"PERDAGANGAN DAN RETAIL","TIPE_2":"PASAR","TIPE_3":"PASAR TRADISIONAL","TELEPON":"0813-8006-4196","ALAMAT":"JL. PARPOSTEL NO.99, RT.001/RW.008, JATIASIH, KEC. JATIASIH, KOTA BKS, JAWA BARAT 17423","ID_PROV":"32","PROVINSI":"JAWA BARAT","ID_KABKOT":"32.75","KABKOT":"KOTA BEKASI","ID_KEC":"32.75.09","KECAMATAN":"JATIASIH","ID_DESA":"32.75.09.1005","DESA":"JATILUHUR","LATITUDE":-6.3136193,"LONGITUDE":106.9555786,"STATUS":"BUKA","TANGGAL PENGUMPULAN":"Q2 2025","TANGGAL UPDATE":"17/06/2025"}},{"type":"Feature","geometry":{"coordinates":[106.985795,-6.2461843],"type":"Point"},"properties":{"NAMA":"PASAR BAMBU KUNING","TIPE_1":"PERDAGANGAN DAN RETAIL","TIPE_2":"PASAR","TIPE_3":"PASAR TRADISIONAL","TELEPON":"0821-2582-0470","ALAMAT":"JL. GURAME VII NO.102, RT.011/RW.012, KAYURINGIN JAYA, KEC. BEKASI SEL., KOTA BKS, JAWA BARAT 17144","ID_PROV":"32","PROVINSI":"JAWA BARAT","ID_KABKOT":"32.75","KABKOT":"KOTA BEKASI","ID_KEC":"32.75.04","KECAMATAN":"BEKASI SELATAN","ID_DESA":"32.75.04.1005","DESA":"KAYURINGINJAYA","LATITUDE":-6.2461843,"LONGITUDE":106.985795,"STATUS":"BUKA","TANGGAL PENGUMPULAN":"Q2 2025","TANGGAL UPDATE":"17/06/2025"}},{"type":"Feature","geometry":{"coordinates":[106.9708461,-6.2654832],"type":"Point"},"properties":{"NAMA":"PASAR TRADISIONAL PULO GALAXY","TIPE_1":"PERDAGANGAN DAN RETAIL","TIPE_2":"PASAR","TIPE_3":"PASAR TRADISIONAL","TELEPON":"","ALAMAT":"JL. PULO SIRIH BAR. RAYA, RT.006/RW.003, JAKA SETIA, KEC. BEKASI SEL., KOTA BKS, JAWA BARAT 17147","ID_PROV":"32","PROVINSI":"JAWA BARAT","ID_KABKOT":"32.75","KABKOT":"KOTA BEKASI","ID_KEC":"32.75.04","KECAMATAN":"BEKASI SELATAN","ID_DESA":"32.75.04.1004","DESA":"JAKASETIA","LATITUDE":-6.2654832,"LONGITUDE":106.9708461,"STATUS":"BUKA","TANGGAL PENGUMPULAN":"Q2 2025","TANGGAL UPDATE":"17/06/2025"}},{"type":"Feature","geometry":{"coordinates":[107.0267973,-6.2117104],"type":"Point"},"properties":{"NAMA":"PASAR TRADISIONAL WISMA ASRI","TIPE_1":"PERDAGANGAN DAN RETAIL","TIPE_2":"PASAR","TIPE_3":"PASAR TRADISIONAL","TELEPON":"","ALAMAT":"RT.005/RW.005, TLK. PUCUNG, KEC. BEKASI UTARA, KOTA BKS, JAWA BARAT 17121","ID_PROV":"32","PROVINSI":"JAWA BARAT","ID_KABKOT":"32.75","KABKOT":"KOTA BEKASI","ID_KEC":"32.75.03","KECAMATAN":"BEKASI UTARA","ID_DESA":"32.75.03.1004","DESA":"TELUK PUCUNG","LATITUDE":-6.2117104,"LONGITUDE":107.0267973,"STATUS":"BUKA","TANGGAL PENGUMPULAN":"Q2 2025","TANGGAL UPDATE":"17/06/2025"}},{"type":"Feature","geometry":{"coordinates":[106.9758631,-6.2218453],"type":"Point"},"properties":{"NAMA":"PASAR TRADISIONAL","TIPE_1":"PERDAGANGAN DAN RETAIL","TIPE_2":"PASAR","TIPE_3":"PASAR TRADISIONAL","TELEPON":"","ALAMAT":"JL. MELATI RAYA, RT.003/RW.002, KALI BARU, KECAMATAN MEDAN SATRIA, KOTA BKS, JAWA BARAT 17132","ID_PROV":"32","PROVINSI":"JAWA BARAT","ID_KABKOT":"32.75","KABKOT":"KOTA BEKASI","ID_KEC":"32.75.06","KECAMATAN":"MEDANSATRIA","ID_DESA":"32.75.06.1004","DESA":"KALIBARU","LATITUDE":-6.2218453,"LONGITUDE":106.9758631,"STATUS":"BUKA","TANGGAL PENGUMPULAN":"Q2 2025","TANGGAL UPDATE":"17/06/2025"}},{"type":"Feature","geometry":{"coordinates":[107.0206529,-6.3126461],"type":"Point"},"properties":{"NAMA":"PASAR TRADISIONAL MUSTIKA JAYA","TIPE_1":"PERDAGANGAN DAN RETAIL","TIPE_2":"PASAR","TIPE_3":"PASAR TRADISIONAL","TELEPON":"0897-4096-118","ALAMAT":"JL. PULAU UTAMA NO.1, RT.003/RW.009, PADURENAN, KEC. MUSTIKA JAYA, KOTA BKS, JAWA BARAT 17156","ID_PROV":"32","PROVINSI":"JAWA BARAT","ID_KABKOT":"32.75","KABKOT":"KOTA BEKASI","ID_KEC":"32.75.11","KECAMATAN":"MUSTIKAJAYA","ID_DESA":"32.75.11.1001","DESA":"PADURENAN","LATITUDE":-6.3126461,"LONGITUDE":107.0206529,"STATUS":"BUKA","TANGGAL PENGUMPULAN":"Q2 2025","TANGGAL UPDATE":"17/06/2025"}},{"type":"Feature","geometry":{"coordinates":[106.9805036,-6.2367464],"type":"Point"},"properties":{"NAMA":"PASAR TRADISIONAL PULO KECIL","TIPE_1":"PERDAGANGAN DAN RETAIL","TIPE_2":"PASAR","TIPE_3":"PASAR TRADISIONAL","TELEPON":"","ALAMAT":"JALAN KP. PULO, RT.003/RW.023, KAYURINGIN JAYA, KEC. BEKASI SEL., KOTA BKS, JAWA BARAT 17144","ID_PROV":"32","PROVINSI":"JAWA BARAT","ID_KABKOT":"32.75","KABKOT":"KOTA BEKASI","ID_KEC":"32.75.04","KECAMATAN":"BEKASI SELATAN","ID_DESA":"32.75.04.1005","DESA":"KAYURINGINJAYA","LATITUDE":-6.2367464,"LONGITUDE":106.9805036,"STATUS":"BUKA","TANGGAL PENGUMPULAN":"Q2 2025","TANGGAL UPDATE":"17/06/2025"}},{"type":"Feature","geometry":{"coordinates":[106.9899903,-6.202634],"type":"Point"},"properties":{"NAMA":"PASAR RAKYAT JABAR JUARA","TIPE_1":"PERDAGANGAN DAN RETAIL","TIPE_2":"PASAR","TIPE_3":"PASAR TRADISIONAL","TELEPON":"","ALAMAT":"JL. KOMP. PASAR HA NO.127, RT.005/RW.009, HARAPAN JAYA, KEC. BEKASI UTARA, KOTA BKS, JAWA BARAT 17124","ID_PROV":"32","PROVINSI":"JAWA BARAT","ID_KABKOT":"32.75","KABKOT":"KOTA BEKASI","ID_KEC":"32.75.03","KECAMATAN":"BEKASI UTARA","ID_DESA":"32.75.03.1006","DESA":"HARAPANJAYA","LATITUDE":-6.202634,"LONGITUDE":106.9899903,"STATUS":"BUKA","TANGGAL PENGUMPULAN":"Q2 2025","TANGGAL UPDATE":"17/06/2025"}},{"type":"Feature","geometry":{"coordinates":[106.9993439,-6.2329729],"type":"Point"},"properties":{"NAMA":"PASAR RAKYAT JAYA","TIPE_1":"PERDAGANGAN DAN RETAIL","TIPE_2":"PASAR","TIPE_3":"PASAR TRADISIONAL","TELEPON":"(021) 99039287","ALAMAT":"JL. KIYAI HAJI MUHAMMAD HUIN, KAMPUNG PULO YAMAN SUMBER JAYA, RT.004/RW.001, MARGA MULYA, KEC. BEKASI UTARA, KOTA BKS, JAWA BARAT 17143","ID_PROV":"32","PROVINSI":"JAWA BARAT","ID_KABKOT":"32.75","KABKOT":"KOTA BEKASI","ID_KEC":"32.75.06","KECAMATAN":"MEDANSATRIA","ID_DESA":"32.75.06.1002","DESA":"HARAPANMULYA","LATITUDE":-6.2329729,"LONGITUDE":106.9993439,"STATUS":"BUKA","TANGGAL PENGUMPULAN":"Q2 2025","TANGGAL UPDATE":"17/06/2025"}},{"type":"Feature","geometry":{"coordinates":[107.0017203,-6.2436717],"type":"Point"},"properties":{"NAMA":"PASAR TRADISIONAL KARTINI","TIPE_1":"PERDAGANGAN DAN RETAIL","TIPE_2":"PASAR","TIPE_3":"PASAR TRADISIONAL","TELEPON":"","ALAMAT":"JL. MAYOR OKING NO.9-1, RT.003/RW.001, MARGAHAYU, KEC. BEKASI TIM., KOTA BKS, JAWA BARAT 17113","ID_PROV":"32","PROVINSI":"JAWA BARAT","ID_KABKOT":"32.75","KABKOT":"KOTA BEKASI","ID_KEC":"32.75.01","KECAMATAN":"BEKASI TIMUR","ID_DESA":"32.75.01.1002","DESA":"MARGAHAYU","LATITUDE":-6.2436717,"LONGITUDE":107.0017203,"STATUS":"BUKA","TANGGAL PENGUMPULAN":"Q2 2025","TANGGAL UPDATE":"17/06/2025"}},{"type":"Feature","geometry":{"coordinates":[107.0061107,-6.2177795],"type":"Point"},"properties":{"NAMA":"PASAR TYTYAN KENCANA BEKASI","TIPE_1":"PERDAGANGAN DAN RETAIL","TIPE_2":"PASAR","TIPE_3":"PASAR TRADISIONAL","TELEPON":"","ALAMAT":"JL. CUT MEUTIA BLOK G. 2 NO NO.G. 2 13, RT.008/RW.006, MARGA MULYA, BEKASI UTARA, BEKASI, WEST JAVA 17142","ID_PROV":"32","PROVINSI":"JAWA BARAT","ID_KABKOT":"32.75","KABKOT":"KOTA BEKASI","ID_KEC":"32.75.03","KECAMATAN":"BEKASI UTARA","ID_DESA":"32.75.03.1005","DESA":"MARGAMULYA","LATITUDE":-6.2177795,"LONGITUDE":107.0061107,"STATUS":"BUKA","TANGGAL PENGUMPULAN":"Q2 2025","TANGGAL UPDATE":"17/06/2025"}},{"type":"Feature","geometry":{"coordinates":[107.0216712,-6.3078162],"type":"Point"},"properties":{"NAMA":"PASAR ZAMRUD","TIPE_1":"PERDAGANGAN DAN RETAIL","TIPE_2":"PASAR","TIPE_3":"PASAR TRADISIONAL","TELEPON":"0877-1126-2702","ALAMAT":"BLOK P-3, JL. PERUM ZAMRUD NO.7, RT.15/RW.009, PADURENAN, KEC. MUSTIKA JAYA, KOTA BKS, JAWA BARAT 16340","ID_PROV":"32","PROVINSI":"JAWA BARAT","ID_KABKOT":"32.75","KABKOT":"KOTA BEKASI","ID_KEC":"32.75.11","KECAMATAN":"MUSTIKAJAYA","ID_DESA":"32.75.11.1001","DESA":"PADURENAN","LATITUDE":-6.3078162,"LONGITUDE":107.0216712,"STATUS":"BUKA","TANGGAL PENGUMPULAN":"Q2 2025","TANGGAL UPDATE":"17/06/2025"}},{"type":"Feature","geometry":{"coordinates":[106.9865088,-6.2199971],"type":"Point"},"properties":{"NAMA":"PASAR TITYAN INDAH","TIPE_1":"PERDAGANGAN DAN RETAIL","TIPE_2":"PASAR","TIPE_3":"PASAR TRADISIONAL","TELEPON":"","ALAMAT":"JL. TITYAN INDAH UTAMA III NO.25, RT.001/RW.009, KALI BARU, KECAMATAN MEDAN SATRIA, KOTA BKS, JAWA BARAT 17132","ID_PROV":"32","PROVINSI":"JAWA BARAT","ID_KABKOT":"32.75","KABKOT":"KOTA BEKASI","ID_KEC":"32.75.06","KECAMATAN":"MEDANSATRIA","ID_DESA":"32.75.06.1004","DESA":"KALIBARU","LATITUDE":-6.2199971,"LONGITUDE":106.9865088,"STATUS":"BUKA","TANGGAL PENGUMPULAN":"Q2 2025","TANGGAL UPDATE":"17/06/2025"}},{"type":"Feature","geometry":{"coordinates":[106.97084609999999,-6.2654832],"type":"Point"},"properties":{"NAMA":"PASAR TRADISIONAL PULO GALAXY","TIPE_1":"PERDAGANGAN DAN RETAIL","TIPE_2":"PASAR","TIPE_3":"PASAR TRADISIONAL","TELEPON":"","ALAMAT":"JL. PULO SIRIH BAR. RAYA, RT.006/RW.003, JAKA SETIA, KEC. BEKASI SEL., KOTA BKS, JAWA BARAT 17147","ID_PROV":"32","PROVINSI":"JAWA BARAT","ID_KABKOT":"32.75","KABKOT":"KOTA BEKASI","ID_KEC":"32.75.04","KECAMATAN":"BEKASI SELATAN","ID_DESA":"32.75.04.1004","DESA":"JAKASETIA","LATITUDE":-6.2654832,"LONGITUDE":106.9708461,"STATUS":"BUKA","TANGGAL PENGUMPULAN":"Q2 2025","TANGGAL UPDATE":"17/06/2025"}},{"type":"Feature","geometry":{"coordinates":[107.00172029999999,-6.2436717],"type":"Point"},"properties":{"NAMA":"PASAR TRADISIONAL KARTINI","TIPE_1":"PERDAGANGAN DAN RETAIL","TIPE_2":"PASAR","TIPE_3":"PASAR TRADISIONAL","TELEPON":"","ALAMAT":"JL. MAYOR OKING NO.9-1, RT.003/RW.001, MARGAHAYU, KEC. BEKASI TIM., KOTA BKS, JAWA BARAT 17113","ID_PROV":"32","PROVINSI":"JAWA BARAT","ID_KABKOT":"32.75","KABKOT":"KOTA BEKASI","ID_KEC":"32.75.01","KECAMATAN":"BEKASI TIMUR","ID_DESA":"32.75.01.1002","DESA":"MARGAHAYU","LATITUDE":-6.2436717,"LONGITUDE":107.0017203,"STATUS":"BUKA","TANGGAL PENGUMPULAN":"Q2 2025","TANGGAL UPDATE":"17/06/2025"}},{"type":"Feature","geometry":{"coordinates":[107.0214756,-6.2090768],"type":"Point"},"properties":{"NAMA":"PASAR TELAGA MAS BEKASI PEMOTONGAN","TIPE_1":"PERDAGANGAN DAN RETAIL","TIPE_2":"PASAR","TIPE_3":"PASAR TRADISIONAL","TELEPON":"","ALAMAT":"JALAN NUSANTARA RAYA, HARAPAN BARU, BEKASI UTARA, RT.001/RW.011, HARAPAN BARU, KEC. BEKASI UTARA, KOTA BKS, JAWA BARAT 17121","ID_PROV":"32","PROVINSI":"JAWA BARAT","ID_KABKOT":"32.75","KABKOT":"KOTA BEKASI","ID_KEC":"32.75.03","KECAMATAN":"BEKASI UTARA","ID_DESA":"32.75.03.1003","DESA":"HARAPANBARU","LATITUDE":-6.2090768,"LONGITUDE":107.0214756,"STATUS":"BUKA","TANGGAL PENGUMPULAN":"Q2 2025","TANGGAL UPDATE":"17/06/2025"}},{"type":"Feature","geometry":{"coordinates":[107.0037532,-6.2302248],"type":"Point"},"properties":{"NAMA":"PASAR TELUK BUYUNG","TIPE_1":"PERDAGANGAN DAN RETAIL","TIPE_2":"PASAR","TIPE_3":"PASAR TRADISIONAL","TELEPON":"0811-1851-288","ALAMAT":"JL. RAYA PERJUANGAN NO.48, RT.003/RW.008, MARGA MULYA, KEC. BEKASI UTARA, KOTA BKS, JAWA BARAT 17142","ID_PROV":"32","PROVINSI":"JAWA BARAT","ID_KABKOT":"32.75","KABKOT":"KOTA BEKASI","ID_KEC":"32.75.03","KECAMATAN":"BEKASI UTARA","ID_DESA":"32.75.03.1005","DESA":"MARGAMULYA","LATITUDE":-6.2302248,"LONGITUDE":107.0037532,"STATUS":"BUKA","TANGGAL PENGUMPULAN":"Q2 2025","TANGGAL UPDATE":"17/06/2025"}},{"type":"Feature","geometry":{"coordinates":[107.0080842,-6.2811911],"type":"Point"},"properties":{"NAMA":"PASAR TANAH MERAH-GERBANG UTAMA JEMBATAN 3 ATAS","TIPE_1":"PERDAGANGAN DAN RETAIL","TIPE_2":"PASAR","TIPE_3":"PASAR TRADISIONAL","TELEPON":"","ALAMAT":"RT.006/RW.023, PENGASINAN, KEC. RAWALUMBU, KOTA BKS, JAWA BARAT 17115","ID_PROV":"32","PROVINSI":"JAWA BARAT","ID_KABKOT":"32.75","KABKOT":"KOTA BEKASI","ID_KEC":"32.75.05","KECAMATAN":"RAWALUMBU","ID_DESA":"32.75.05.1002","DESA":"PENGASINAN","LATITUDE":-6.2811911,"LONGITUDE":107.0080842,"STATUS":"BUKA","TANGGAL PENGUMPULAN":"Q2 2025","TANGGAL UPDATE":"17/06/2025"}},{"type":"Feature","geometry":{"coordinates":[107.0081058,-6.2807582],"type":"Point"},"properties":{"NAMA":"PASAR TANAH MERAH NAROGONG","TIPE_1":"PERDAGANGAN DAN RETAIL","TIPE_2":"PASAR","TIPE_3":"PASAR TRADISIONAL","TELEPON":"","ALAMAT":"JL. TANAH MERAH, RT.006/RW.023, PENGASINAN, KEC. RAWALUMBU, KOTA BKS, JAWA BARAT 17116","ID_PROV":"32","PROVINSI":"JAWA BARAT","ID_KABKOT":"32.75","KABKOT":"KOTA BEKASI","ID_KEC":"32.75.05","KECAMATAN":"RAWALUMBU","ID_DESA":"32.75.05.1002","DESA":"PENGASINAN","LATITUDE":-6.2807582,"LONGITUDE":107.0081058,"STATUS":"BUKA","TANGGAL PENGUMPULAN":"Q2 2025","TANGGAL UPDATE":"17/06/2025"}},{"type":"Feature","geometry":{"coordinates":[106.974798,-6.2350944],"type":"Point"},"properties":{"NAMA":"PASAR SEGAR IMAM SAYUR","TIPE_1":"PERDAGANGAN DAN RETAIL","TIPE_2":"PASAR","TIPE_3":"PASAR MODERN","TELEPON":"","ALAMAT":"RT.010/RW.006B, JAKASAMPURNA, KEC. BEKASI BAR., KOTA BKS, JAWA BARAT 17145","ID_PROV":"32","PROVINSI":"JAWA BARAT","ID_KABKOT":"32.75","KABKOT":"KOTA BEKASI","ID_KEC":"32.75.02","KECAMATAN":"BEKASI BARAT","ID_DESA":"32.75.02.1005","DESA":"JAKASAMPURNA","LATITUDE":-6.2350944,"LONGITUDE":106.974798,"STATUS":"BUKA","TANGGAL PENGUMPULAN":"Q2 2025","TANGGAL UPDATE":"17/06/2025"}},{"type":"Feature","geometry":{"coordinates":[106.9423208,-6.3145714],"type":"Point"},"properties":{"NAMA":"PASAR SAYUR PURI HIDAYAH","TIPE_1":"PERDAGANGAN DAN RETAIL","TIPE_2":"PASAR","TIPE_3":"PASAR TRADISIONAL","TELEPON":"","ALAMAT":"JL. PURI HIDAYAH NO.35, RT.13/RW.003, JATILUHUR, KEC. JATIASIH, KOTA BKS, JAWA BARAT 17425","ID_PROV":"32","PROVINSI":"JAWA BARAT","ID_KABKOT":"32.75","KABKOT":"KOTA BEKASI","ID_KEC":"32.75.09","KECAMATAN":"JATIASIH","ID_DESA":"32.75.09.1005","DESA":"JATILUHUR","LATITUDE":-6.3145714,"LONGITUDE":106.9423208,"STATUS":"BUKA","TANGGAL PENGUMPULAN":"Q2 2025","TANGGAL UPDATE":"17/06/2025"}},{"type":"Feature","geometry":{"coordinates":[106.9891308,-6.2031638],"type":"Point"},"properties":{"NAMA":"PASAR SEROJA","TIPE_1":"PERDAGANGAN DAN RETAIL","TIPE_2":"PASAR","TIPE_3":"PASAR TRADISIONAL","TELEPON":"","ALAMAT":"BEKASI, JL. MERPATI II NO.44, RT.003/RW.009, HARAPAN JAYA, KEC. BEKASI UTARA, KOTA BKS, JAWA BARAT 17124","ID_PROV":"32","PROVINSI":"JAWA BARAT","ID_KABKOT":"32.75","KABKOT":"KOTA BEKASI","ID_KEC":"32.75.03","KECAMATAN":"BEKASI UTARA","ID_DESA":"32.75.03.1006","DESA":"HARAPANJAYA","LATITUDE":-6.2031638,"LONGITUDE":106.9891308,"STATUS":"BUKA","TANGGAL PENGUMPULAN":"Q2 2025","TANGGAL UPDATE":"17/06/2025"}},{"type":"Feature","geometry":{"coordinates":[106.9887696,-6.2046278],"type":"Point"},"properties":{"NAMA":"PASAR SEROJA NO. 17-BEKASI","TIPE_1":"PERDAGANGAN DAN RETAIL","TIPE_2":"PASAR","TIPE_3":"PASAR TRADISIONAL","TELEPON":"0822-6980-6391","ALAMAT":"JL. RAYA SEROJA, RT.005/RW.005, HARAPAN JAYA, KEC. BEKASI UTARA, KOTA BKS, JAWA BARAT 17124","ID_PROV":"32","PROVINSI":"JAWA BARAT","ID_KABKOT":"32.75","KABKOT":"KOTA BEKASI","ID_KEC":"32.75.03","KECAMATAN":"BEKASI UTARA","ID_DESA":"32.75.03.1006","DESA":"HARAPANJAYA","LATITUDE":-6.2046278,"LONGITUDE":106.9887696,"STATUS":"BUKA","TANGGAL PENGUMPULAN":"Q2 2025","TANGGAL UPDATE":"17/06/2025"}},{"type":"Feature","geometry":{"coordinates":[106.99924,-6.227807],"type":"Point"},"properties":{"NAMA":"PASAR SENGGOL @ SUMMARECON MALL BEKASI","TIPE_1":"PERDAGANGAN DAN RETAIL","TIPE_2":"PASAR","TIPE_3":"PASAR TRADISIONAL","TELEPON":"","ALAMAT":"SUMARECON MAL BKS, JL. BULEVAR AHMAD YANI, RT.006/RW.002, MARGA MULYA, KEC. BEKASI UTARA, KOTA BKS, JAWA BARAT 17142","ID_PROV":"32","PROVINSI":"JAWA BARAT","ID_KABKOT":"32.75","KABKOT":"KOTA BEKASI","ID_KEC":"32.75.03","KECAMATAN":"BEKASI UTARA","ID_DESA":"32.75.03.1005","DESA":"MARGAMULYA","LATITUDE":-6.227807,"LONGITUDE":106.99924,"STATUS":"BUKA","TANGGAL PENGUMPULAN":"Q2 2025","TANGGAL UPDATE":"17/06/2025"}},{"type":"Feature","geometry":{"coordinates":[107.00036809999999,-6.2253289],"type":"Point"},"properties":{"NAMA":"PASAR SENGGOL ANNUAL EVENT SMB","TIPE_1":"PERDAGANGAN DAN RETAIL","TIPE_2":"PASAR","TIPE_3":"PASAR TRADISIONAL","TELEPON":"","ALAMAT":"SUMARECON MAL BKS, RT.006/RW.002, MARGA MULYA, KEC. BEKASI UTARA, KOTA BKS, JAWA BARAT 17142","ID_PROV":"32","PROVINSI":"JAWA BARAT","ID_KABKOT":"32.75","KABKOT":"KOTA BEKASI","ID_KEC":"32.75.03","KECAMATAN":"BEKASI UTARA","ID_DESA":"32.75.03.1005","DESA":"MARGAMULYA","LATITUDE":-6.2253289,"LONGITUDE":107.0003681,"STATUS":"BUKA","TANGGAL PENGUMPULAN":"Q2 2025","TANGGAL UPDATE":"17/06/2025"}},{"type":"Feature","geometry":{"coordinates":[107.0203482,-6.2327827],"type":"Point"},"properties":{"NAMA":"PASAR PUAS","TIPE_1":"PERDAGANGAN DAN RETAIL","TIPE_2":"PASAR","TIPE_3":"PASAR TRADISIONAL","TELEPON":"","ALAMAT":"JL. DELIMA RAYA, DUREN JAYA, KEC. BEKASI TIM., KOTA BKS, JAWA BARAT 17111","ID_PROV":"32","PROVINSI":"JAWA BARAT","ID_KABKOT":"32.75","KABKOT":"KOTA BEKASI","ID_KEC":"32.75.01","KECAMATAN":"BEKASI TIMUR","ID_DESA":"32.75.01.1003","DESA":"DURENJAYA","LATITUDE":-6.2327827,"LONGITUDE":107.0203482,"STATUS":"BUKA","TANGGAL PENGUMPULAN":"Q2 2025","TANGGAL UPDATE":"17/06/2025"}},{"type":"Feature","geometry":{"coordinates":[107.0035429,-6.1963561],"type":"Point"},"properties":{"NAMA":"PASAR PONCOL","TIPE_1":"PERDAGANGAN DAN RETAIL","TIPE_2":"PASAR","TIPE_3":"PASAR TRADISIONAL","TELEPON":"","ALAMAT":"GANG BARU JALAN NUSA INDAH NO.RT014 RW025, RT.006/RW.018, KALIABANG TENGAH, KEC. BEKASI UTARA, KOTA BKS, JAWA BARAT 17125","ID_PROV":"32","PROVINSI":"JAWA BARAT","ID_KABKOT":"32.75","KABKOT":"KOTA BEKASI","ID_KEC":"32.75.03","KECAMATAN":"BEKASI UTARA","ID_DESA":"32.75.03.1001","DESA":"KALIABANG TENGAH","LATITUDE":-6.1963561,"LONGITUDE":107.0035429,"STATUS":"BUKA","TANGGAL PENGUMPULAN":"Q2 2025","TANGGAL UPDATE":"17/06/2025"}},{"type":"Feature","geometry":{"coordinates":[106.98477709999999,-6.2380524],"type":"Point"},"properties":{"NAMA":"PASAR PONCOL","TIPE_1":"PERDAGANGAN DAN RETAIL","TIPE_2":"PASAR","TIPE_3":"PASAR TRADISIONAL","TELEPON":"","ALAMAT":"JL. KASUARI RAYA, KAYURINGIN JAYA, , KOTA BKS, JAWA BARAT 17144","ID_PROV":"32","PROVINSI":"JAWA BARAT","ID_KABKOT":"32.75","KABKOT":"KOTA BEKASI","ID_KEC":"32.75.04","KECAMATAN":"BEKASI SELATAN","ID_DESA":"32.75.04.1005","DESA":"KAYURINGINJAYA","LATITUDE":-6.2380524,"LONGITUDE":106.9847771,"STATUS":"BUKA","TANGGAL PENGUMPULAN":"Q2 2025","TANGGAL UPDATE":"17/06/2025"}},{"type":"Feature","geometry":{"coordinates":[106.9124904,-6.2846906],"type":"Point"},"properties":{"NAMA":"PASAR PONDOK GEDE","TIPE_1":"PERDAGANGAN DAN RETAIL","TIPE_2":"PASAR","TIPE_3":"PASAR TRADISIONAL","TELEPON":"","ALAMAT":"JALAN JATI MAKMUR NO.15 JATIWARINGIN PONDOKGEDE, RT NO.003, RT.001/RW.002, JATIRAHAYU, KEC. PD. MELATI, KOTA BKS, JAWA BARAT 17411","ID_PROV":"32","PROVINSI":"JAWA BARAT","ID_KABKOT":"32.75","KABKOT":"KOTA BEKASI","ID_KEC":"32.75.08","KECAMATAN":"PONDOKGEDE","ID_DESA":"32.75.08.1001","DESA":"JATIWARINGIN","LATITUDE":-6.2846906,"LONGITUDE":106.9124904,"STATUS":"BUKA","TANGGAL PENGUMPULAN":"Q2 2025","TANGGAL UPDATE":"17/06/2025"}},{"type":"Feature","geometry":{"coordinates":[107.01671119999999,-6.2895603],"type":"Point"},"properties":{"NAMA":"PASAR PONDOK TIMUR JEMBATAN 6","TIPE_1":"PERDAGANGAN DAN RETAIL","TIPE_2":"PASAR","TIPE_3":"PASAR TRADISIONAL","TELEPON":"","ALAMAT":"JL. PD. TIMUR INDAH NO.I, RT.009/RW.007, MUSTIKA JAYA, KEC. MUSTIKA JAYA, KOTA BKS, JAWA BARAT 17158","ID_PROV":"32","PROVINSI":"JAWA BARAT","ID_KABKOT":"32.75","KABKOT":"KOTA BEKASI","ID_KEC":"32.75.11","KECAMATAN":"MUSTIKAJAYA","ID_DESA":"32.75.11.1004","DESA":"MUSTIKASARI","LATITUDE":-6.2895603,"LONGITUDE":107.0167112,"STATUS":"BUKA","TANGGAL PENGUMPULAN":"Q2 2025","TANGGAL UPDATE":"17/06/2025"}},{"type":"Feature","geometry":{"coordinates":[107.0192871,-6.3004299],"type":"Point"},"properties":{"NAMA":"PASAR PONDOK TIMUR","TIPE_1":"PERDAGANGAN DAN RETAIL","TIPE_2":"PASAR","TIPE_3":"PASAR TRADISIONAL","TELEPON":"","ALAMAT":"JL. KLP. DUA NO.26, RT.002/RW.006, MUSTIKA JAYA, KEC. MUSTIKA JAYA, KOTA BKS, JAWA BARAT 17158","ID_PROV":"32","PROVINSI":"JAWA BARAT","ID_KABKOT":"32.75","KABKOT":"KOTA BEKASI","ID_KEC":"32.75.11","KECAMATAN":"MUSTIKAJAYA","ID_DESA":"32.75.11.1003","DESA":"MUSTIKAJAYA","LATITUDE":-6.3004299,"LONGITUDE":107.0192871,"STATUS":"BUKA","TANGGAL PENGUMPULAN":"Q2 2025","TANGGAL UPDATE":"17/06/2025"}},{"type":"Feature","geometry":{"coordinates":[107.00830769999999,-6.1759893],"type":"Point"},"properties":{"NAMA":"PASAR PONDOK UNGU PERMAI","TIPE_1":"PERDAGANGAN DAN RETAIL","TIPE_2":"PASAR","TIPE_3":"PASAR TRADISIONAL","TELEPON":"","ALAMAT":"JL. PD. UNGU PERMAI, BAHAGIA, KEC. BABELAN, KOTA BKS, JAWA BARAT 17125","ID_PROV":"32","PROVINSI":"JAWA BARAT","ID_KABKOT":"32.75","KABKOT":"KOTA BEKASI","ID_KEC":"32.75.03","KECAMATAN":"BEKASI UTARA","ID_DESA":"32.75.03.1001","DESA":"KALIABANG TENGAH","LATITUDE":-6.1759893,"LONGITUDE":107.0083077,"STATUS":"BUKA","TANGGAL PENGUMPULAN":"Q2 2025","TANGGAL UPDATE":"17/06/2025"}},{"type":"Feature","geometry":{"coordinates":[107.0021027,-6.2719274],"type":"Point"},"properties":{"NAMA":"PASAR RAWALUMBU","TIPE_1":"PERDAGANGAN DAN RETAIL","TIPE_2":"PASAR","TIPE_3":"PASAR TRADISIONAL","TELEPON":"","ALAMAT":"RT.001/RW.017, PENGASINAN, KEC. RAWALUMBU, KOTA BKS, JAWA BARAT 17115","ID_PROV":"32","PROVINSI":"JAWA BARAT","ID_KABKOT":"32.75","KABKOT":"KOTA BEKASI","ID_KEC":"32.75.05","KECAMATAN":"RAWALUMBU","ID_DESA":"32.75.05.1002","DESA":"PENGASINAN","LATITUDE":-6.2719274,"LONGITUDE":107.0021027,"STATUS":"BUKA","TANGGAL PENGUMPULAN":"Q2 2025","TANGGAL UPDATE":"17/06/2025"}},{"type":"Feature","geometry":{"coordinates":[106.9670047,-6.2189581],"type":"Point"},"properties":{"NAMA":"PASAR RAWA BEBEK","TIPE_1":"PERDAGANGAN DAN RETAIL","TIPE_2":"PASAR","TIPE_3":"PASAR TRADISIONAL","TELEPON":"","ALAMAT":"JL. KALI BARU BARAT NO.6, RT.004/RW.015, KOTA BARU, KEC. BEKASI BAR., KOTA BKS, JAWA BARAT 17133","ID_PROV":"32","PROVINSI":"JAWA BARAT","ID_KABKOT":"32.75","KABKOT":"KOTA BEKASI","ID_KEC":"32.75.02","KECAMATAN":"BEKASI BARAT","ID_DESA":"32.75.02.1003","DESA":"KOTABARU","LATITUDE":-6.2189581,"LONGITUDE":106.9670047,"STATUS":"BUKA","TANGGAL PENGUMPULAN":"Q2 2025","TANGGAL UPDATE":"17/06/2025"}},{"type":"Feature","geometry":{"coordinates":[106.98166769999999,-6.2124608],"type":"Point"},"properties":{"NAMA":"PASAR RAWABAMBU","TIPE_1":"PERDAGANGAN DAN RETAIL","TIPE_2":"PASAR","TIPE_3":"PASAR TRADISIONAL","TELEPON":"0812-8529-1774","ALAMAT":"JL. SEJATI, HARAPAN JAYA, BEKASI UTARA, BEKASI, WEST JAVA 17124","ID_PROV":"32","PROVINSI":"JAWA BARAT","ID_KABKOT":"32.75","KABKOT":"KOTA BEKASI","ID_KEC":"32.75.03","KECAMATAN":"BEKASI UTARA","ID_DESA":"32.75.03.1006","DESA":"HARAPANJAYA","LATITUDE":-6.2124608,"LONGITUDE":106.9816677,"STATUS":"BUKA","TANGGAL PENGUMPULAN":"Q2 2025","TANGGAL UPDATE":"17/06/2025"}},{"type":"Feature","geometry":{"coordinates":[107.031536,-6.234401],"type":"Point"},"properties":{"NAMA":"PASAR RAMA","TIPE_1":"PERDAGANGAN DAN RETAIL","TIPE_2":"PASAR","TIPE_3":"PASAR TRADISIONAL","TELEPON":"","ALAMAT":"JL. KUSUMA RAYA, RT.007/RW.017, DUREN JAYA, KEC. BEKASI TIM., KOTA BKS, JAWA BARAT 17111","ID_PROV":"32","PROVINSI":"JAWA BARAT","ID_KABKOT":"32.75","KABKOT":"KOTA BEKASI","ID_KEC":"32.75.01","KECAMATAN":"BEKASI TIMUR","ID_DESA":"32.75.01.1003","DESA":"DURENJAYA","LATITUDE":-6.234401,"LONGITUDE":107.031536,"STATUS":"BUKA","TANGGAL PENGUMPULAN":"Q2 2025","TANGGAL UPDATE":"17/06/2025"}},{"type":"Feature","geometry":{"coordinates":[106.98999029999999,-6.202634],"type":"Point"},"properties":{"NAMA":"PASAR RAKYAT JABAR JUARA","TIPE_1":"PERDAGANGAN DAN RETAIL","TIPE_2":"PASAR","TIPE_3":"PASAR TRADISIONAL","TELEPON":"","ALAMAT":"JL. KOMP. PASAR HA NO.127, RT.005/RW.009, HARAPAN JAYA, KEC. BEKASI UTARA, KOTA BKS, JAWA BARAT 17124","ID_PROV":"32","PROVINSI":"JAWA BARAT","ID_KABKOT":"32.75","KABKOT":"KOTA BEKASI","ID_KEC":"32.75.03","KECAMATAN":"BEKASI UTARA","ID_DESA":"32.75.03.1006","DESA":"HARAPANJAYA","LATITUDE":-6.202634,"LONGITUDE":106.9899903,"STATUS":"BUKA","TANGGAL PENGUMPULAN":"Q2 2025","TANGGAL UPDATE":"17/06/2025"}},{"type":"Feature","geometry":{"coordinates":[106.9968414,-6.3258089],"type":"Point"},"properties":{"NAMA":"PASAR PAGI VIDA","TIPE_1":"PERDAGANGAN DAN RETAIL","TIPE_2":"PASAR","TIPE_3":"PASAR TRADISIONAL","TELEPON":"","ALAMAT":"JL. ALUN-ALUN SEL. NO.21, RT.005/RW.010, PADURENAN, KEC. MUSTIKA JAYA, KOTA BKS, JAWA BARAT 17156","ID_PROV":"32","PROVINSI":"JAWA BARAT","ID_KABKOT":"32.75","KABKOT":"KOTA BEKASI","ID_KEC":"32.75.11","KECAMATAN":"MUSTIKAJAYA","ID_DESA":"32.75.11.1001","DESA":"PADURENAN","LATITUDE":-6.3258089,"LONGITUDE":106.9968414,"STATUS":"BUKA","TANGGAL PENGUMPULAN":"Q2 2025","TANGGAL UPDATE":"17/06/2025"}},{"type":"Feature","geometry":{"coordinates":[107.0206356,-6.1997169],"type":"Point"},"properties":{"NAMA":"PASAR PAGI VIP","TIPE_1":"PERDAGANGAN DAN RETAIL","TIPE_2":"PASAR","TIPE_3":"PASAR TRADISIONAL","TELEPON":"","ALAMAT":"JL. PERUMAHAN VILLA INDAH PERMAI BLOK H11 NO.11, RT.017/RW.036, TLK. PUCUNG, KEC. BEKASI UTARA, KOTA BKS, JAWA BARAT 17121","ID_PROV":"32","PROVINSI":"JAWA BARAT","ID_KABKOT":"32.75","KABKOT":"KOTA BEKASI","ID_KEC":"32.75.03","KECAMATAN":"BEKASI UTARA","ID_DESA":"32.75.03.1004","DESA":"TELUK PUCUNG","LATITUDE":-6.1997169,"LONGITUDE":107.0206356,"STATUS":"BUKA","TANGGAL PENGUMPULAN":"Q2 2025","TANGGAL UPDATE":"17/06/2025"}},{"type":"Feature","geometry":{"coordinates":[107.0225514,-6.1991544],"type":"Point"},"properties":{"NAMA":"PASAR PAGI VIP","TIPE_1":"PERDAGANGAN DAN RETAIL","TIPE_2":"PASAR","TIPE_3":"PASAR TRADISIONAL","TELEPON":"","ALAMAT":"JL. PERUMAHAN VILLA INDAH PERMAI BLOK H11 NO.11, RT.017/RW.036, TLK. PUCUNG, KEC. BEKASI UTARA, KOTA BKS, JAWA BARAT 17121","ID_PROV":"32","PROVINSI":"JAWA BARAT","ID_KABKOT":"32.75","KABKOT":"KOTA BEKASI","ID_KEC":"32.75.03","KECAMATAN":"BEKASI UTARA","ID_DESA":"32.75.03.1004","DESA":"TELUK PUCUNG","LATITUDE":-6.1991544,"LONGITUDE":107.0225514,"STATUS":"BUKA","TANGGAL PENGUMPULAN":"Q2 2025","TANGGAL UPDATE":"17/06/2025"}},{"type":"Feature","geometry":{"coordinates":[106.9937608,-6.2198857],"type":"Point"},"properties":{"NAMA":"PASAR PAGI PONCOL","TIPE_1":"PERDAGANGAN DAN RETAIL","TIPE_2":"PASAR","TIPE_3":"PASAR TRADISIONAL","TELEPON":"","ALAMAT":"JL. SUNGAI KAPUAS, RT.004/RW.010, MARGA MULYA, KEC. BEKASI UTARA, KOTA BKS, JAWA BARAT 17124","ID_PROV":"32","PROVINSI":"JAWA BARAT","ID_KABKOT":"32.75","KABKOT":"KOTA BEKASI","ID_KEC":"32.75.03","KECAMATAN":"BEKASI UTARA","ID_DESA":"32.75.03.1005","DESA":"MARGAMULYA","LATITUDE":-6.2198857,"LONGITUDE":106.9937608,"STATUS":"BUKA","TANGGAL PENGUMPULAN":"Q2 2025","TANGGAL UPDATE":"17/06/2025"}},{"type":"Feature","geometry":{"coordinates":[106.982035,-6.21259],"type":"Point"},"properties":{"NAMA":"PASAR PAGI RAWA BAMBU","TIPE_1":"PERDAGANGAN DAN RETAIL","TIPE_2":"PASAR","TIPE_3":"PASAR TRADISIONAL","TELEPON":"0812-9615-2929","ALAMAT":"JL. PALEM I NO.27, RT.005/RW.016, HARAPAN JAYA, KEC. BEKASI UTARA, KOTA BKS, JAWA BARAT 17124","ID_PROV":"32","PROVINSI":"JAWA BARAT","ID_KABKOT":"32.75","KABKOT":"KOTA BEKASI","ID_KEC":"32.75.03","KECAMATAN":"BEKASI UTARA","ID_DESA":"32.75.03.1006","DESA":"HARAPANJAYA","LATITUDE":-6.21259,"LONGITUDE":106.982035,"STATUS":"BUKA","TANGGAL PENGUMPULAN":"Q2 2025","TANGGAL UPDATE":"17/06/2025"}},{"type":"Feature","geometry":{"coordinates":[106.97798069999999,-6.2599265],"type":"Point"},"properties":{"NAMA":"PASAR PAGI PEKAYON","TIPE_1":"PERDAGANGAN DAN RETAIL","TIPE_2":"PASAR","TIPE_3":"PASAR TRADISIONAL","TELEPON":"0877-7278-0777","ALAMAT":"PASAR PAGI, JL. CAMAR NO.17, RT.003/RW.009, PEKAYON JAYA, KEC. BEKASI SEL., KOTA BKS, JAWA BARAT 17148","ID_PROV":"32","PROVINSI":"JAWA BARAT","ID_KABKOT":"32.75","KABKOT":"KOTA BEKASI","ID_KEC":"32.75.04","KECAMATAN":"BEKASI SELATAN","ID_DESA":"32.75.04.1001","DESA":"PEKAYONJAYA","LATITUDE":-6.2599265,"LONGITUDE":106.9779807,"STATUS":"BUKA","TANGGAL PENGUMPULAN":"Q2 2025","TANGGAL UPDATE":"17/06/2025"}},{"type":"Feature","geometry":{"coordinates":[106.963844,-6.2509943],"type":"Point"},"properties":{"NAMA":"PASAR PAGI KP 2","TIPE_1":"PERDAGANGAN DAN RETAIL","TIPE_2":"PASAR","TIPE_3":"PASAR TRADISIONAL","TELEPON":"0852-1859-9785","ALAMAT":"JL. NURUL HUDA II LAPANGAN NO.RT 01, RT.001/RW.015, JAKASAMPURNA, KEC. BEKASI BAR., KOTA BKS, JAWA BARAT 17145","ID_PROV":"32","PROVINSI":"JAWA BARAT","ID_KABKOT":"32.75","KABKOT":"KOTA BEKASI","ID_KEC":"32.75.02","KECAMATAN":"BEKASI BARAT","ID_DESA":"32.75.02.1005","DESA":"JAKASAMPURNA","LATITUDE":-6.2509943,"LONGITUDE":106.963844,"STATUS":"BUKA","TANGGAL PENGUMPULAN":"Q2 2025","TANGGAL UPDATE":"17/06/2025"}},{"type":"Feature","geometry":{"coordinates":[107.0216551,-6.2821803],"type":"Point"},"properties":{"NAMA":"PASAR PAGI JEMBATAN 2 PTI","TIPE_1":"PERDAGANGAN DAN RETAIL","TIPE_2":"PASAR","TIPE_3":"PASAR TRADISIONAL","TELEPON":"","ALAMAT":"JL. ELANG RAYA, RT.005/RW.004, MUSTIKA JAYA, KEC. MUSTIKA JAYA, KOTA BKS, JAWA BARAT 17158","ID_PROV":"32","PROVINSI":"JAWA BARAT","ID_KABKOT":"32.75","KABKOT":"KOTA BEKASI","ID_KEC":"32.75.11","KECAMATAN":"MUSTIKAJAYA","ID_DESA":"32.75.11.1003","DESA":"MUSTIKAJAYA","LATITUDE":-6.2821803,"LONGITUDE":107.0216551,"STATUS":"BUKA","TANGGAL PENGUMPULAN":"Q2 2025","TANGGAL UPDATE":"17/06/2025"}},{"type":"Feature","geometry":{"coordinates":[107.0215277,-6.3076409],"type":"Point"},"properties":{"NAMA":"PASAR PAGI BLOK P","TIPE_1":"PERDAGANGAN DAN RETAIL","TIPE_2":"PASAR","TIPE_3":"PASAR TRADISIONAL","TELEPON":"0812-8893-9211","ALAMAT":"BLOK P-18, JL. ZAMRUD II BLOK P-18 NO.1, RT.001/RW.015, PADURENAN, KEC. MUSTIKA JAYA, KOTA BKS, JAWA BARAT 16340","ID_PROV":"32","PROVINSI":"JAWA BARAT","ID_KABKOT":"32.75","KABKOT":"KOTA BEKASI","ID_KEC":"32.75.11","KECAMATAN":"MUSTIKAJAYA","ID_DESA":"32.75.11.1001","DESA":"PADURENAN","LATITUDE":-6.3076409,"LONGITUDE":107.0215277,"STATUS":"BUKA","TANGGAL PENGUMPULAN":"Q2 2025","TANGGAL UPDATE":"17/06/2025"}},{"type":"Feature","geometry":{"coordinates":[107.001029,-6.1808566],"type":"Point"},"properties":{"NAMA":"PASAR PAGI","TIPE_1":"PERDAGANGAN DAN RETAIL","TIPE_2":"PASAR","TIPE_3":"PASAR TRADISIONAL","TELEPON":"","ALAMAT":"JL. ANUGRAH LESTARI, RT.009/RW.010, KALIABANG TENGAH, KEC. BEKASI UTARA, KOTA BKS, JAWA BARAT 17125","ID_PROV":"32","PROVINSI":"JAWA BARAT","ID_KABKOT":"32.75","KABKOT":"KOTA BEKASI","ID_KEC":"32.75.03","KECAMATAN":"BEKASI UTARA","ID_DESA":"32.75.03.1001","DESA":"KALIABANG TENGAH","LATITUDE":-6.1808566,"LONGITUDE":107.001029,"STATUS":"BUKA","TANGGAL PENGUMPULAN":"Q2 2025","TANGGAL UPDATE":"17/06/2025"}},{"type":"Feature","geometry":{"coordinates":[106.99888089999999,-6.233673],"type":"Point"},"properties":{"NAMA":"PASAR PINTU AIR","TIPE_1":"PERDAGANGAN DAN RETAIL","TIPE_2":"PASAR","TIPE_3":"PASAR TRADISIONAL","TELEPON":"","ALAMAT":"JL. PINTU AIR, RT.002/RW.001, MARGA MULYA, KEC. BEKASI UTARA, KOTA BKS, JAWA BARAT 17142","ID_PROV":"32","PROVINSI":"JAWA BARAT","ID_KABKOT":"32.75","KABKOT":"KOTA BEKASI","ID_KEC":"32.75.03","KECAMATAN":"BEKASI UTARA","ID_DESA":"32.75.03.1005","DESA":"MARGAMULYA","LATITUDE":-6.233673,"LONGITUDE":106.9988809,"STATUS":"BUKA","TANGGAL PENGUMPULAN":"Q2 2025","TANGGAL UPDATE":"17/06/2025"}},{"type":"Feature","geometry":{"coordinates":[106.9993368,-6.2118344],"type":"Point"},"properties":{"NAMA":"PASAR PESONA ANGGREK HARAPAN","TIPE_1":"PERDAGANGAN DAN RETAIL","TIPE_2":"PASAR","TIPE_3":"PASAR TRADISIONAL","TELEPON":"","ALAMAT":"RT.009/RW.021, HARAPAN JAYA, BEKASI UTARA, BEKASI, WEST JAVA 17124","ID_PROV":"32","PROVINSI":"JAWA BARAT","ID_KABKOT":"32.75","KABKOT":"KOTA BEKASI","ID_KEC":"32.75.03","KECAMATAN":"BEKASI UTARA","ID_DESA":"32.75.03.1006","DESA":"HARAPANJAYA","LATITUDE":-6.2118344,"LONGITUDE":106.9993368,"STATUS":"BUKA","TANGGAL PENGUMPULAN":"Q2 2025","TANGGAL UPDATE":"17/06/2025"}}]}