{"type":"FeatureCollection","features":[{"type":"Feature","geometry":{"coordinates":[106.8006621,-6.1936032],"type":"Point"},"properties":{"NAMA":"PASAR (LKMD) KAGET SLIPI ","TIPE_1":"PERDAGANGAN DAN RETAIL","TIPE_2":"PASAR","TIPE_3":"PASAR TRADISIONAL","TELEPON":"","ALAMAT":"PINTU SELATAN, JL. KS. TUBUN III DALAM NO.40, RT.2/RW.2, SLIPI, KEC. PALMERAH, KOTA JAKARTA BARAT, DAERAH KHUSUS IBUKOTA JAKARTA 11410","ID_PROV":"31","PROVINSI":"DKI JAKARTA","ID_KABKOT":"31.73","KABKOT":"KOTA ADM. JAKARTA BARAT","ID_KEC":"31.73.07","KECAMATAN":"PAL MERAH","ID_DESA":"31.73.07.1002","DESA":"SLIPI","LATITUDE":-6.1936032,"LONGITUDE":106.8006621,"STATUS":"BUKA","TANGGAL PENGUMPULAN":"Q2 2025","TANGGAL UPDATE":"17/06/2025"}},{"type":"Feature","geometry":{"coordinates":[106.7457956,-6.1361805],"type":"Point"},"properties":{"NAMA":"PASAR ALAM","TIPE_1":"PERDAGANGAN DAN RETAIL","TIPE_2":"PASAR","TIPE_3":"PASAR TRADISIONAL","TELEPON":"","ALAMAT":"JL. KAPUK KB. JAHE NO.RT.16, RT.12/RW.3, KAPUK, CENGKARENG, WEST JAKARTA CITY, JAKARTA 11720","ID_PROV":"31","PROVINSI":"DKI JAKARTA","ID_KABKOT":"31.73","KABKOT":"KOTA ADM. JAKARTA BARAT","ID_KEC":"31.73.01","KECAMATAN":"CENGKARENG","ID_DESA":"31.73.01.1005","DESA":"KAPUK","LATITUDE":-6.1361805,"LONGITUDE":106.7457956,"STATUS":"BUKA","TANGGAL PENGUMPULAN":"Q2 2025","TANGGAL UPDATE":"17/06/2025"}},{"type":"Feature","geometry":{"coordinates":[106.8266856,-6.1579964],"type":"Point"},"properties":{"NAMA":"PASAR ASEM REGES","TIPE_1":"PERDAGANGAN DAN RETAIL","TIPE_2":"PASAR","TIPE_3":"PASAR TRADISIONAL","TELEPON":"","ALAMAT":"JL. TAMAN SARI RAYA NO.40 4, RT.4/RW.8, TAMAN SARI, KEC. TAMAN SARI, KOTA JAKARTA BARAT, DAERAH KHUSUS IBUKOTA JAKARTA 11150","ID_PROV":"31","PROVINSI":"DKI JAKARTA","ID_KABKOT":"31.73","KABKOT":"KOTA ADM. JAKARTA BARAT","ID_KEC":"31.73.03","KECAMATAN":"TAMAN SARI","ID_DESA":"31.73.03.1001","DESA":"TAMAN SARI","LATITUDE":-6.1579964,"LONGITUDE":106.8266856,"STATUS":"BUKA","TANGGAL PENGUMPULAN":"Q2 2025","TANGGAL UPDATE":"17/06/2025"}},{"type":"Feature","geometry":{"coordinates":[106.8119157,-6.1389183],"type":"Point"},"properties":{"NAMA":"PASAR ASEMKA","TIPE_1":"PERDAGANGAN DAN RETAIL","TIPE_2":"PASAR","TIPE_3":"PASAR TRADISIONAL","TELEPON":"","ALAMAT":"JL. ASEMKA NO.3 3, RT.3/RW.6, PINANGSIA, KEC. TAMAN SARI, KOTA JAKARTA BARAT, DAERAH KHUSUS IBUKOTA JAKARTA 11110","ID_PROV":"31","PROVINSI":"DKI JAKARTA","ID_KABKOT":"31.73","KABKOT":"KOTA ADM. JAKARTA BARAT","ID_KEC":"31.73.03","KECAMATAN":"TAMAN SARI","ID_DESA":"31.73.03.1008","DESA":"PINANGSIA","LATITUDE":-6.1389183,"LONGITUDE":106.8119157,"STATUS":"BUKA","TANGGAL PENGUMPULAN":"Q2 2025","TANGGAL UPDATE":"17/06/2025"}},{"type":"Feature","geometry":{"coordinates":[106.7390599,-6.1381831],"type":"Point"},"properties":{"NAMA":"PASAR BERSIH CENGKARENG","TIPE_1":"PERDAGANGAN DAN RETAIL","TIPE_2":"PASAR","TIPE_3":"PASAR TRADISIONAL","TELEPON":"","ALAMAT":"PS. BERSIH CENGKARENG, 22, JL. DANAU BATUR NO.A2, RT.10/RW.14, KAPUK, KECAMATAN CENGKARENG, KOTA JAKARTA BARAT, DAERAH KHUSUS IBUKOTA JAKARTA 11720","ID_PROV":"31","PROVINSI":"DKI JAKARTA","ID_KABKOT":"31.73","KABKOT":"KOTA ADM. JAKARTA BARAT","ID_KEC":"31.73.01","KECAMATAN":"CENGKARENG","ID_DESA":"31.73.01.1006","DESA":"CENGKARENG TIMUR","LATITUDE":-6.1381831,"LONGITUDE":106.7390599,"STATUS":"BUKA","TANGGAL PENGUMPULAN":"Q2 2025","TANGGAL UPDATE":"17/06/2025"}},{"type":"Feature","geometry":{"coordinates":[106.7412854,-6.1614788],"type":"Point"},"properties":{"NAMA":"PASAR BOJONG INDAH","TIPE_1":"PERDAGANGAN DAN RETAIL","TIPE_2":"PASAR","TIPE_3":"PASAR TRADISIONAL","TELEPON":"","ALAMAT":"JL. PAKIS RAYA NO.40, RT.9/RW.6, RW. BUAYA, KECAMATAN CENGKARENG, KOTA JAKARTA BARAT, DAERAH KHUSUS IBUKOTA JAKARTA 11740","ID_PROV":"31","PROVINSI":"DKI JAKARTA","ID_KABKOT":"31.73","KABKOT":"KOTA ADM. JAKARTA BARAT","ID_KEC":"31.73.01","KECAMATAN":"CENGKARENG","ID_DESA":"31.73.01.1003","DESA":"RAWA BUAYA","LATITUDE":-6.1614788,"LONGITUDE":106.7412854,"STATUS":"BUKA","TANGGAL PENGUMPULAN":"Q2 2025","TANGGAL UPDATE":"17/06/2025"}},{"type":"Feature","geometry":{"coordinates":[106.7343101,-6.1645376],"type":"Point"},"properties":{"NAMA":"PASAR BOJONG PORTAL","TIPE_1":"PERDAGANGAN DAN RETAIL","TIPE_2":"PASAR","TIPE_3":"PASAR TRADISIONAL","TELEPON":"0882-1016-5058","ALAMAT":"JL. MADRASAH NO.51 10, RT.8/RW.4, RW. BUAYA, KECAMATAN CENGKARENG, KOTA JAKARTA BARAT, DAERAH KHUSUS IBUKOTA JAKARTA 11740","ID_PROV":"31","PROVINSI":"DKI JAKARTA","ID_KABKOT":"31.73","KABKOT":"KOTA ADM. JAKARTA BARAT","ID_KEC":"31.73.01","KECAMATAN":"CENGKARENG","ID_DESA":"31.73.01.1003","DESA":"RAWA BUAYA","LATITUDE":-6.1645376,"LONGITUDE":106.7343101,"STATUS":"BUKA","TANGGAL PENGUMPULAN":"Q2 2025","TANGGAL UPDATE":"17/06/2025"}},{"type":"Feature","geometry":{"coordinates":[106.8072485,-6.1840745],"type":"Point"},"properties":{"NAMA":"PASAR BUDHI DHARMA","TIPE_1":"PERDAGANGAN DAN RETAIL","TIPE_2":"PASAR","TIPE_3":"PASAR TRADISIONAL","TELEPON":"","ALAMAT":"JL. KOTA BAMBU UTARA II, RT.13/RW.3, KOTA BAMBU UTARA, KEC. PALMERAH, KOTA JAKARTA BARAT, DAERAH KHUSUS IBUKOTA JAKARTA 11420","ID_PROV":"31","PROVINSI":"DKI JAKARTA","ID_KABKOT":"31.73","KABKOT":"KOTA ADM. JAKARTA BARAT","ID_KEC":"31.73.07","KECAMATAN":"PAL MERAH","ID_DESA":"31.73.07.1003","DESA":"KOTA BAMBU UTARA","LATITUDE":-6.1840745,"LONGITUDE":106.8072485,"STATUS":"BUKA","TANGGAL PENGUMPULAN":"Q2 2025","TANGGAL UPDATE":"17/06/2025"}},{"type":"Feature","geometry":{"coordinates":[106.7282733,-6.1527912],"type":"Point"},"properties":{"NAMA":"PASAR CENGKARENG","TIPE_1":"PERDAGANGAN DAN RETAIL","TIPE_2":"PASAR","TIPE_3":"PASAR TRADISIONAL","TELEPON":"","ALAMAT":"RT.1/RW.2, CENGKARENG TIM., KECAMATAN CENGKARENG, KOTA JAKARTA BARAT, DAERAH KHUSUS IBUKOTA JAKARTA 11730","ID_PROV":"31","PROVINSI":"DKI JAKARTA","ID_KABKOT":"31.73","KABKOT":"KOTA ADM. JAKARTA BARAT","ID_KEC":"31.73.01","KECAMATAN":"CENGKARENG","ID_DESA":"31.73.01.1006","DESA":"CENGKARENG TIMUR","LATITUDE":-6.1527912,"LONGITUDE":106.7282733,"STATUS":"BUKA","TANGGAL PENGUMPULAN":"Q2 2025","TANGGAL UPDATE":"17/06/2025"}},{"type":"Feature","geometry":{"coordinates":[106.7019809,-6.1239597],"type":"Point"},"properties":{"NAMA":"PASAR CITRA 5","TIPE_1":"PERDAGANGAN DAN RETAIL","TIPE_2":"PASAR","TIPE_3":"PASAR TRADISIONAL","TELEPON":"(021) 5412535","ALAMAT":"JL. SATU MARET, RT.3/RW.4, PEGADUNGAN, KEC. KALIDERES, KOTA JAKARTA BARAT, DAERAH KHUSUS IBUKOTA JAKARTA 11830","ID_PROV":"31","PROVINSI":"DKI JAKARTA","ID_KABKOT":"31.73","KABKOT":"KOTA ADM. JAKARTA BARAT","ID_KEC":"31.73.06","KECAMATAN":"KALIDERES","ID_DESA":"31.73.06.1005","DESA":"PEGADUNGAN","LATITUDE":-6.1239597,"LONGITUDE":106.7019809,"STATUS":"BUKA","TANGGAL PENGUMPULAN":"Q2 2025","TANGGAL UPDATE":"17/06/2025"}},{"type":"Feature","geometry":{"coordinates":[106.7407513,-6.1423359],"type":"Point"},"properties":{"NAMA":"PASAR DANGDUT","TIPE_1":"PERDAGANGAN DAN RETAIL","TIPE_2":"PASAR","TIPE_3":"PASAR TRADISIONAL","TELEPON":"","ALAMAT":"JL. BAKTI NO.12 1 16, RT.7/RW.16, KAPUK, KECAMATAN CENGKARENG, KOTA JAKARTA BARAT, DAERAH KHUSUS IBUKOTA JAKARTA 11730","ID_PROV":"31","PROVINSI":"DKI JAKARTA","ID_KABKOT":"31.73","KABKOT":"KOTA ADM. JAKARTA BARAT","ID_KEC":"31.73.01","KECAMATAN":"CENGKARENG","ID_DESA":"31.73.01.1005","DESA":"KAPUK","LATITUDE":-6.1423359,"LONGITUDE":106.7407513,"STATUS":"BUKA","TANGGAL PENGUMPULAN":"Q2 2025","TANGGAL UPDATE":"17/06/2025"}},{"type":"Feature","geometry":{"coordinates":[106.8010971,-6.1689577],"type":"Point"},"properties":{"NAMA":"PASAR DARURAT","TIPE_1":"PERDAGANGAN DAN RETAIL","TIPE_2":"PASAR","TIPE_3":"PASAR TRADISIONAL","TELEPON":"","ALAMAT":"JL. TOMANG UTARA NO.2, RT.2/RW.10, TOMANG, KEC. GROGOL PETAMBURAN, KOTA JAKARTA BARAT, DAERAH KHUSUS IBUKOTA JAKARTA 11440","ID_PROV":"31","PROVINSI":"DKI JAKARTA","ID_KABKOT":"31.73","KABKOT":"KOTA ADM. JAKARTA BARAT","ID_KEC":"31.73.02","KECAMATAN":"GROGOL PETAMBURAN","ID_DESA":"31.73.02.1003","DESA":"TOMANG","LATITUDE":-6.1689577,"LONGITUDE":106.8010971,"STATUS":"BUKA","TANGGAL PENGUMPULAN":"Q2 2025","TANGGAL UPDATE":"17/06/2025"}},{"type":"Feature","geometry":{"coordinates":[106.75107589999999,-6.1360828],"type":"Point"},"properties":{"NAMA":"PASAR DARURAT KAPUK","TIPE_1":"PERDAGANGAN DAN RETAIL","TIPE_2":"PASAR","TIPE_3":"PASAR TRADISIONAL","TELEPON":"","ALAMAT":"JL. KAMAL MUARA NO.46 5, RT.5/RW.12, KAMAL MUARA, KEC. PENJARINGAN, KOTA JAKARTA BARAT, DAERAH KHUSUS IBUKOTA JAKARTA 11820","ID_PROV":"31","PROVINSI":"DKI JAKARTA","ID_KABKOT":"31.73","KABKOT":"KOTA ADM. JAKARTA BARAT","ID_KEC":"31.73.01","KECAMATAN":"CENGKARENG","ID_DESA":"31.73.01.1005","DESA":"KAPUK","LATITUDE":-6.1360828,"LONGITUDE":106.7510759,"STATUS":"BUKA","TANGGAL PENGUMPULAN":"Q2 2025","TANGGAL UPDATE":"17/06/2025"}},{"type":"Feature","geometry":{"coordinates":[106.71770389999999,-6.1196248],"type":"Point"},"properties":{"NAMA":"PASAR DARURAT TEGAL ALUR","TIPE_1":"PERDAGANGAN DAN RETAIL","TIPE_2":"PASAR","TIPE_3":"PASAR TRADISIONAL","TELEPON":"0899-6202-647","ALAMAT":"PS. DARURAT TEGAL ALUR, JL. SUKATANI RAYA NO.13, RT.13/RW.7, TEGAL ALUR, KEC. KALIDERES, KOTA JAKARTA BARAT, DAERAH KHUSUS IBUKOTA JAKARTA 11820","ID_PROV":"31","PROVINSI":"DKI JAKARTA","ID_KABKOT":"31.73","KABKOT":"KOTA ADM. JAKARTA BARAT","ID_KEC":"31.73.06","KECAMATAN":"KALIDERES","ID_DESA":"31.73.06.1003","DESA":"TEGAL ALUR","LATITUDE":-6.1196248,"LONGITUDE":106.7177039,"STATUS":"BUKA","TANGGAL PENGUMPULAN":"Q2 2025","TANGGAL UPDATE":"17/06/2025"}},{"type":"Feature","geometry":{"coordinates":[106.7250115,-6.1297808],"type":"Point"},"properties":{"NAMA":"PASAR DEPROK 249","TIPE_1":"PERDAGANGAN DAN RETAIL","TIPE_2":"PASAR","TIPE_3":"PASAR TRADISIONAL","TELEPON":"","ALAMAT":"JL. JAYA 25 NO.26 1, RT.1/RW.10, CENGKARENG BAR., KECAMATAN CENGKARENG, KOTA JAKARTA BARAT, DAERAH KHUSUS IBUKOTA JAKARTA 11730","ID_PROV":"31","PROVINSI":"DKI JAKARTA","ID_KABKOT":"31.73","KABKOT":"KOTA ADM. JAKARTA BARAT","ID_KEC":"31.73.01","KECAMATAN":"CENGKARENG","ID_DESA":"31.73.01.1001","DESA":"CENGKARENG BARAT","LATITUDE":-6.1297808,"LONGITUDE":106.7250115,"STATUS":"BUKA","TANGGAL PENGUMPULAN":"Q2 2025","TANGGAL UPDATE":"17/06/2025"}},{"type":"Feature","geometry":{"coordinates":[106.7800321,-6.1505191],"type":"Point"},"properties":{"NAMA":"PASAR DUTA MAS","TIPE_1":"PERDAGANGAN DAN RETAIL","TIPE_2":"PASAR","TIPE_3":"PASAR TRADISIONAL","TELEPON":"","ALAMAT":"JL. PANGERAN TUBAGUS ANGKE NO.8, RT.1/RW.9, ANGKE, KEC. TAMBORA, KOTA JAKARTA BARAT, DAERAH KHUSUS IBUKOTA JAKARTA 11330","ID_PROV":"31","PROVINSI":"DKI JAKARTA","ID_KABKOT":"31.73","KABKOT":"KOTA ADM. JAKARTA BARAT","ID_KEC":"31.73.02","KECAMATAN":"GROGOL PETAMBURAN","ID_DESA":"31.73.02.1007","DESA":"WIJAYA KUSUMA","LATITUDE":-6.1505191,"LONGITUDE":106.7800321,"STATUS":"BUKA","TANGGAL PENGUMPULAN":"Q2 2025","TANGGAL UPDATE":"17/06/2025"}},{"type":"Feature","geometry":{"coordinates":[106.7214366,-6.1494697],"type":"Point"},"properties":{"NAMA":"PASAR GANEFO","TIPE_1":"PERDAGANGAN DAN RETAIL","TIPE_2":"PASAR","TIPE_3":"PASAR TRADISIONAL","TELEPON":"(021) 5441754","ALAMAT":"JL. UTAMA RAYA NO.1, RT.1/RW.1, WEST CENGKARENG, CENGKARENG, JAKARTA, 11730","ID_PROV":"31","PROVINSI":"DKI JAKARTA","ID_KABKOT":"31.73","KABKOT":"KOTA ADM. JAKARTA BARAT","ID_KEC":"31.73.01","KECAMATAN":"CENGKARENG","ID_DESA":"31.73.01.1001","DESA":"CENGKARENG BARAT","LATITUDE":-6.1494697,"LONGITUDE":106.7214366,"STATUS":"BUKA","TANGGAL PENGUMPULAN":"Q2 2025","TANGGAL UPDATE":"17/06/2025"}},{"type":"Feature","geometry":{"coordinates":[106.8132649,-6.1515323],"type":"Point"},"properties":{"NAMA":"PASAR GANG KANCIL","TIPE_1":"PERDAGANGAN DAN RETAIL","TIPE_2":"PASAR","TIPE_3":"PASAR TRADISIONAL","TELEPON":"","ALAMAT":"JL. KEAMANAN NO.5 5, RT.5/RW.6, KEAGUNGAN, KEC. TAMAN SARI, KOTA JAKARTA BARAT, DAERAH KHUSUS IBUKOTA JAKARTA 11320","ID_PROV":"31","PROVINSI":"DKI JAKARTA","ID_KABKOT":"31.73","KABKOT":"KOTA ADM. JAKARTA BARAT","ID_KEC":"31.73.03","KECAMATAN":"TAMAN SARI","ID_DESA":"31.73.03.1006","DESA":"KEAGUNGAN","LATITUDE":-6.1515323,"LONGITUDE":106.8132649,"STATUS":"BUKA","TANGGAL PENGUMPULAN":"Q2 2025","TANGGAL UPDATE":"17/06/2025"}},{"type":"Feature","geometry":{"coordinates":[106.80577489999999,-6.1537104],"type":"Point"},"properties":{"NAMA":"PASAR GARUDA","TIPE_1":"PERDAGANGAN DAN RETAIL","TIPE_2":"PASAR","TIPE_3":"PASAR TRADISIONAL","TELEPON":"","ALAMAT":"JL. DURI UTARA II NO.48-41 2, RT.14/RW.2, DURI UTARA, KEC. TAMBORA, KOTA JAKARTA BARAT, DAERAH KHUSUS IBUKOTA JAKARTA 11270","ID_PROV":"31","PROVINSI":"DKI JAKARTA","ID_KABKOT":"31.73","KABKOT":"KOTA ADM. JAKARTA BARAT","ID_KEC":"31.73.04","KECAMATAN":"TAMBORA","ID_DESA":"31.73.04.1003","DESA":"DURI UTARA","LATITUDE":-6.1537104,"LONGITUDE":106.8057749,"STATUS":"BUKA","TANGGAL PENGUMPULAN":"Q2 2025","TANGGAL UPDATE":"17/06/2025"}},{"type":"Feature","geometry":{"coordinates":[106.8092537,-6.1816309],"type":"Point"},"properties":{"NAMA":"PASAR GILI","TIPE_1":"PERDAGANGAN DAN RETAIL","TIPE_2":"PASAR","TIPE_3":"PASAR TRADISIONAL","TELEPON":"","ALAMAT":"JALAN JATI PULO GANG DAMAI NO.RT.8 4, RT.16/RW.8, JATIPULO, KEC. PALMERAH, KOTA JAKARTA BARAT, DAERAH KHUSUS IBUKOTA JAKARTA 11420","ID_PROV":"31","PROVINSI":"DKI JAKARTA","ID_KABKOT":"31.73","KABKOT":"KOTA ADM. JAKARTA BARAT","ID_KEC":"31.73.07","KECAMATAN":"PAL MERAH","ID_DESA":"31.73.07.1004","DESA":"JATIPULO","LATITUDE":-6.1816309,"LONGITUDE":106.8092537,"STATUS":"BUKA","TANGGAL PENGUMPULAN":"Q2 2025","TANGGAL UPDATE":"17/06/2025"}},{"type":"Feature","geometry":{"coordinates":[106.8141165,-6.1425379],"type":"Point"},"properties":{"NAMA":"PASAR GLODOK CITY JAKARTA KOTA","TIPE_1":"PERDAGANGAN DAN RETAIL","TIPE_2":"PASAR","TIPE_3":"PASAR MODERN","TELEPON":"","ALAMAT":"JL. MEDAN GLODOK GLODOK RT.6/RW.6, GLODOK 11120, JALAN TAMAN SARI RAYA, TAMAN SARI, TAMANSARI, RT.6/RW.6, GLODOK, KEC. TAMAN SARI, KOTA JAKARTA BARAT, DAERAH KHUSUS IBUKOTA JAKARTA 11150","ID_PROV":"31","PROVINSI":"DKI JAKARTA","ID_KABKOT":"31.73","KABKOT":"KOTA ADM. JAKARTA BARAT","ID_KEC":"31.73.03","KECAMATAN":"TAMAN SARI","ID_DESA":"31.73.03.1007","DESA":"GLODOK","LATITUDE":-6.1425379,"LONGITUDE":106.8141165,"STATUS":"BUKA","TANGGAL PENGUMPULAN":"Q2 2025","TANGGAL UPDATE":"17/06/2025"}},{"type":"Feature","geometry":{"coordinates":[106.7604423,-6.1608695],"type":"Point"},"properties":{"NAMA":"PASAR GREEN GARDEN","TIPE_1":"PERDAGANGAN DAN RETAIL","TIPE_2":"PASAR","TIPE_3":"PASAR TRADISIONAL","TELEPON":"","ALAMAT":"KEDOYA UTARA, KEC. KB. JERUK, KOTA JAKARTA BARAT, DAERAH KHUSUS IBUKOTA JAKARTA","ID_PROV":"31","PROVINSI":"DKI JAKARTA","ID_KABKOT":"31.73","KABKOT":"KOTA ADM. JAKARTA BARAT","ID_KEC":"31.73.05","KECAMATAN":"KEBON JERUK","ID_DESA":"31.73.05.1006","DESA":"KEDOYA UTARA","LATITUDE":-6.1608695,"LONGITUDE":106.7604423,"STATUS":"BUKA","TANGGAL PENGUMPULAN":"Q2 2025","TANGGAL UPDATE":"17/06/2025"}},{"type":"Feature","geometry":{"coordinates":[106.7054177,-6.1575429],"type":"Point"},"properties":{"NAMA":"PASAR HIPLI SEMANAN","TIPE_1":"PERDAGANGAN DAN RETAIL","TIPE_2":"PASAR","TIPE_3":"PASAR TRADISIONAL","TELEPON":"0881-7412-377","ALAMAT":"JL. SEMANAN RAYA, RT.6/RW.7, SEMANAN, KEC. KALIDERES, KOTA JAKARTA BARAT, DAERAH KHUSUS IBUKOTA JAKARTA 11850","ID_PROV":"31","PROVINSI":"DKI JAKARTA","ID_KABKOT":"31.73","KABKOT":"KOTA ADM. JAKARTA BARAT","ID_KEC":"31.73.06","KECAMATAN":"KALIDERES","ID_DESA":"31.73.06.1002","DESA":"SEMANAN","LATITUDE":-6.1575429,"LONGITUDE":106.7054177,"STATUS":"BUKA","TANGGAL PENGUMPULAN":"Q2 2025","TANGGAL UPDATE":"17/06/2025"}},{"type":"Feature","geometry":{"coordinates":[106.7971808,-6.1504372],"type":"Point"},"properties":{"NAMA":"PASAR INPRES JEMBATAN BESI","TIPE_1":"PERDAGANGAN DAN RETAIL","TIPE_2":"PASAR","TIPE_3":"PASAR TRADISIONAL","TELEPON":"0858-1037-3692","ALAMAT":"JL. JEMBATAN BESI III NO.104 10, RT.10/RW.3, JEMB. BESI, KEC. TAMBORA, KOTA JAKARTA BARAT, DAERAH KHUSUS IBUKOTA JAKARTA 11320","ID_PROV":"31","PROVINSI":"DKI JAKARTA","ID_KABKOT":"31.73","KABKOT":"KOTA ADM. JAKARTA BARAT","ID_KEC":"31.73.04","KECAMATAN":"TAMBORA","ID_DESA":"31.73.04.1006","DESA":"JEMBATAN BESI","LATITUDE":-6.1504372,"LONGITUDE":106.7971808,"STATUS":"BUKA","TANGGAL PENGUMPULAN":"Q2 2025","TANGGAL UPDATE":"17/06/2025"}},{"type":"Feature","geometry":{"coordinates":[106.7288715,-6.2005156],"type":"Point"},"properties":{"NAMA":"PASAR JABON MERUYA UTARA","TIPE_1":"PERDAGANGAN DAN RETAIL","TIPE_2":"PASAR","TIPE_3":"PASAR TRADISIONAL","TELEPON":"","ALAMAT":"RT.3/RW.10, MERUYA UTARA, KEC. KEMBANGAN, KOTA JAKARTA BARAT, DAERAH KHUSUS IBUKOTA JAKARTA 11620","ID_PROV":"31","PROVINSI":"DKI JAKARTA","ID_KABKOT":"31.73","KABKOT":"KOTA ADM. JAKARTA BARAT","ID_KEC":"31.73.08","KECAMATAN":"KEMBANGAN","ID_DESA":"31.73.08.1002","DESA":"MERUYA UTARA","LATITUDE":-6.2005156,"LONGITUDE":106.7288715,"STATUS":"BUKA","TANGGAL PENGUMPULAN":"Q2 2025","TANGGAL UPDATE":"17/06/2025"}},{"type":"Feature","geometry":{"coordinates":[106.791302,-6.1985209],"type":"Point"},"properties":{"NAMA":"PASAR JAGUNG","TIPE_1":"PERDAGANGAN DAN RETAIL","TIPE_2":"PASAR","TIPE_3":"PASAR TRADISIONAL","TELEPON":"","ALAMAT":"JL. KEMANGGISAN PULO NO.55-49 1, RT.1/RW.17, PALMERAH, KEC. PALMERAH, KOTA JAKARTA BARAT, DAERAH KHUSUS IBUKOTA JAKARTA 11480","ID_PROV":"31","PROVINSI":"DKI JAKARTA","ID_KABKOT":"31.73","KABKOT":"KOTA ADM. JAKARTA BARAT","ID_KEC":"31.73.07","KECAMATAN":"PAL MERAH","ID_DESA":"31.73.07.1001","DESA":"PALMERAH","LATITUDE":-6.1985209,"LONGITUDE":106.791302,"STATUS":"BUKA","TANGGAL PENGUMPULAN":"Q2 2025","TANGGAL UPDATE":"17/06/2025"}},{"type":"Feature","geometry":{"coordinates":[106.8097569,-6.1825305],"type":"Point"},"properties":{"NAMA":"PASAR JATIPULO","TIPE_1":"PERDAGANGAN DAN RETAIL","TIPE_2":"PASAR","TIPE_3":"PASAR TRADISIONAL","TELEPON":"","ALAMAT":"JL. BANJIR KANAL NO.9, RT.9/RW.10, KOTA BAMBU UTARA, KEC. PALMERAH, KOTA JAKARTA BARAT, DAERAH KHUSUS IBUKOTA JAKARTA 11420","ID_PROV":"31","PROVINSI":"DKI JAKARTA","ID_KABKOT":"31.73","KABKOT":"KOTA ADM. JAKARTA BARAT","ID_KEC":"31.73.07","KECAMATAN":"PAL MERAH","ID_DESA":"31.73.07.1004","DESA":"JATIPULO","LATITUDE":-6.1825305,"LONGITUDE":106.8097569,"STATUS":"BUKA","TANGGAL PENGUMPULAN":"Q2 2025","TANGGAL UPDATE":"17/06/2025"}},{"type":"Feature","geometry":{"coordinates":[106.75420589999999,-6.1771049],"type":"Point"},"properties":{"NAMA":"PASAR JAYA","TIPE_1":"PERDAGANGAN DAN RETAIL","TIPE_2":"PASAR","TIPE_3":"PASAR TRADISIONAL","TELEPON":"","ALAMAT":"RT.4/RW.5, KEDOYA SEL., KEC. KB. JERUK, KOTA JAKARTA BARAT, DAERAH KHUSUS IBUKOTA JAKARTA 11520","ID_PROV":"31","PROVINSI":"DKI JAKARTA","ID_KABKOT":"31.73","KABKOT":"KOTA ADM. JAKARTA BARAT","ID_KEC":"31.73.05","KECAMATAN":"KEBON JERUK","ID_DESA":"31.73.05.1007","DESA":"KEDOYA SELATAN","LATITUDE":-6.1771049,"LONGITUDE":106.7542059,"STATUS":"BUKA","TANGGAL PENGUMPULAN":"Q2 2025","TANGGAL UPDATE":"17/06/2025"}},{"type":"Feature","geometry":{"coordinates":[106.72867,-6.151628],"type":"Point"},"properties":{"NAMA":"PASAR JAYA CENGKARENG","TIPE_1":"PERDAGANGAN DAN RETAIL","TIPE_2":"PASAR","TIPE_3":"PASAR TRADISIONAL","TELEPON":"(021) 6196598","ALAMAT":"PASAR JAYA CENGKARENG, LANTAI DASAR, CENGKARENG TIM., KECAMATAN CENGKARENG, KOTA JAKARTA BARAT, DAERAH KHUSUS IBUKOTA JAKARTA 11710","ID_PROV":"31","PROVINSI":"DKI JAKARTA","ID_KABKOT":"31.73","KABKOT":"KOTA ADM. JAKARTA BARAT","ID_KEC":"31.73.01","KECAMATAN":"CENGKARENG","ID_DESA":"31.73.01.1006","DESA":"CENGKARENG TIMUR","LATITUDE":-6.151628,"LONGITUDE":106.72867,"STATUS":"BUKA","TANGGAL PENGUMPULAN":"Q2 2025","TANGGAL UPDATE":"17/06/2025"}},{"type":"Feature","geometry":{"coordinates":[106.7974043,-6.1502044],"type":"Point"},"properties":{"NAMA":"PASAR JAYA JEMBATAN BESI","TIPE_1":"PERDAGANGAN DAN RETAIL","TIPE_2":"PASAR","TIPE_3":"PASAR TRADISIONAL","TELEPON":"(021) 63850384","ALAMAT":"PASAR JAYA, JL. JEMB. BESI II NO.10, RT.10/RW.3, JEMB. BESI, KEC. TAMBORA, KOTA JAKARTA BARAT, DAERAH KHUSUS IBUKOTA JAKARTA 11320","ID_PROV":"31","PROVINSI":"DKI JAKARTA","ID_KABKOT":"31.73","KABKOT":"KOTA ADM. JAKARTA BARAT","ID_KEC":"31.73.04","KECAMATAN":"TAMBORA","ID_DESA":"31.73.04.1006","DESA":"JEMBATAN BESI","LATITUDE":-6.1502044,"LONGITUDE":106.7974043,"STATUS":"BUKA","TANGGAL PENGUMPULAN":"Q2 2025","TANGGAL UPDATE":"17/06/2025"}},{"type":"Feature","geometry":{"coordinates":[106.8223763,-6.14218],"type":"Point"},"properties":{"NAMA":"PASAR JAYA PECAH KULIT","TIPE_1":"PERDAGANGAN DAN RETAIL","TIPE_2":"PASAR","TIPE_3":"PASAR TRADISIONAL","TELEPON":"0821-8086-8081","ALAMAT":"JL. MANGGA BESAR IX JL. PECAH KULIT NO.7, RT.7/RW.1, DALAM, JAKARTA, KOTA JAKARTA BARAT, DAERAH KHUSUS IBUKOTA JAKARTA 11180","ID_PROV":"31","PROVINSI":"DKI JAKARTA","ID_KABKOT":"31.73","KABKOT":"KOTA ADM. JAKARTA BARAT","ID_KEC":"31.73.03","KECAMATAN":"TAMAN SARI","ID_DESA":"31.73.03.1008","DESA":"PINANGSIA","LATITUDE":-6.14218,"LONGITUDE":106.8223763,"STATUS":"BUKA","TANGGAL PENGUMPULAN":"Q2 2025","TANGGAL UPDATE":"17/06/2025"}},{"type":"Feature","geometry":{"coordinates":[106.8067025,-6.1370565],"type":"Point"},"properties":{"NAMA":"PASAR JAYA PEJAGALAN","TIPE_1":"PERDAGANGAN DAN RETAIL","TIPE_2":"PASAR","TIPE_3":"PASAR TRADISIONAL","TELEPON":"(021) 6901123","ALAMAT":"JL. PEJAGALAN RAYA NO.1 2, RT.1/RW.5, PEKOJAN, KEC. TAMBORA, KOTA JAKARTA BARAT, DAERAH KHUSUS IBUKOTA JAKARTA 11240","ID_PROV":"31","PROVINSI":"DKI JAKARTA","ID_KABKOT":"31.73","KABKOT":"KOTA ADM. JAKARTA BARAT","ID_KEC":"31.73.04","KECAMATAN":"TAMBORA","ID_DESA":"31.73.04.1009","DESA":"PEKOJAN","LATITUDE":-6.1370565,"LONGITUDE":106.8067025,"STATUS":"BUKA","TANGGAL PENGUMPULAN":"Q2 2025","TANGGAL UPDATE":"17/06/2025"}},{"type":"Feature","geometry":{"coordinates":[106.8206418,-6.1590791],"type":"Point"},"properties":{"NAMA":"PASAR JAYA SAWAH BESAR","TIPE_1":"PERDAGANGAN DAN RETAIL","TIPE_2":"PASAR","TIPE_3":"PASAR TRADISIONAL","TELEPON":"(021) 6258129","ALAMAT":"JL. SAWAH BESAR I NO.3 3, RT.3/RW.2, MAPHAR, KEC. TAMAN SARI, KOTA JAKARTA BARAT, DAERAH KHUSUS IBUKOTA JAKARTA 11160","ID_PROV":"31","PROVINSI":"DKI JAKARTA","ID_KABKOT":"31.73","KABKOT":"KOTA ADM. JAKARTA BARAT","ID_KEC":"31.73.03","KECAMATAN":"TAMAN SARI","ID_DESA":"31.73.03.1003","DESA":"MAPHAR","LATITUDE":-6.1590791,"LONGITUDE":106.8206418,"STATUS":"BUKA","TANGGAL PENGUMPULAN":"Q2 2025","TANGGAL UPDATE":"17/06/2025"}},{"type":"Feature","geometry":{"coordinates":[106.7842149,-6.1778279],"type":"Point"},"properties":{"NAMA":"PASAR JAYA TOMANG BARAT","TIPE_1":"PERDAGANGAN DAN RETAIL","TIPE_2":"PASAR","TIPE_3":"PASAR TRADISIONAL","TELEPON":"","ALAMAT":"PS. JAYA TOMANG BAR., JL. TANJUNG DUREN RAYA, RT.14/RW.5, TJ. DUREN SEL., KEC. GROGOL PETAMBURAN, KOTA JAKARTA BARAT, DAERAH KHUSUS IBUKOTA JAKARTA 11470","ID_PROV":"31","PROVINSI":"DKI JAKARTA","ID_KABKOT":"31.73","KABKOT":"KOTA ADM. JAKARTA BARAT","ID_KEC":"31.73.02","KECAMATAN":"GROGOL PETAMBURAN","ID_DESA":"31.73.02.1005","DESA":"TANJUNG DUREN SELATAN","LATITUDE":-6.1778279,"LONGITUDE":106.7842149,"STATUS":"BUKA","TANGGAL PENGUMPULAN":"Q2 2025","TANGGAL UPDATE":"17/06/2025"}},{"type":"Feature","geometry":{"coordinates":[106.7787845,-6.1606046],"type":"Point"},"properties":{"NAMA":"PASAR JELAMBAR POLRI","TIPE_1":"PERDAGANGAN DAN RETAIL","TIPE_2":"PASAR","TIPE_3":"PASAR TRADISIONAL","TELEPON":"(021) 56964059","ALAMAT":"JL. KAVLING POLRI, JL. WIJAYA KUSUMA, RT.3/RW.7, WIJAYA KUSUMA, KEC. GROGOL PETAMBURAN, KOTA JAKARTA BARAT, DAERAH KHUSUS IBUKOTA JAKARTA 11460","ID_PROV":"31","PROVINSI":"DKI JAKARTA","ID_KABKOT":"31.73","KABKOT":"KOTA ADM. JAKARTA BARAT","ID_KEC":"31.73.02","KECAMATAN":"GROGOL PETAMBURAN","ID_DESA":"31.73.02.1007","DESA":"WIJAYA KUSUMA","LATITUDE":-6.1606046,"LONGITUDE":106.7787845,"STATUS":"BUKA","TANGGAL PENGUMPULAN":"Q2 2025","TANGGAL UPDATE":"17/06/2025"}},{"type":"Feature","geometry":{"coordinates":[106.7765257,-6.2051459],"type":"Point"},"properties":{"NAMA":"PASAR KAGET GANG AYUB","TIPE_1":"PERDAGANGAN DAN RETAIL","TIPE_2":"PASAR","TIPE_3":"PASAR TRADISIONAL","TELEPON":"","ALAMAT":"JL. AYUB NO.32-39, RT.1/RW.8, NORTH SUKABUMI, KEBONJERUK, WEST JAKARTA CITY, JAKARTA 11540","ID_PROV":"31","PROVINSI":"DKI JAKARTA","ID_KABKOT":"31.73","KABKOT":"KOTA ADM. JAKARTA BARAT","ID_KEC":"31.73.05","KECAMATAN":"KEBON JERUK","ID_DESA":"31.73.05.1002","DESA":"SUKABUMI UTARA","LATITUDE":-6.2051459,"LONGITUDE":106.7765257,"STATUS":"BUKA","TANGGAL PENGUMPULAN":"Q2 2025","TANGGAL UPDATE":"17/06/2025"}},{"type":"Feature","geometry":{"coordinates":[106.7091293,-6.1456785],"type":"Point"},"properties":{"NAMA":"PASAR KAGET MINGGU PAGI","TIPE_1":"PERDAGANGAN DAN RETAIL","TIPE_2":"PASAR","TIPE_3":"PASAR TRADISIONAL","TELEPON":"","ALAMAT":"RT.7/RW.11, PEGADUNGAN, KEC. KALIDERES, KOTA JAKARTA BARAT, DAERAH KHUSUS IBUKOTA JAKARTA 11830","ID_PROV":"31","PROVINSI":"DKI JAKARTA","ID_KABKOT":"31.73","KABKOT":"KOTA ADM. JAKARTA BARAT","ID_KEC":"31.73.06","KECAMATAN":"KALIDERES","ID_DESA":"31.73.06.1005","DESA":"PEGADUNGAN","LATITUDE":-6.1456785,"LONGITUDE":106.7091293,"STATUS":"BUKA","TANGGAL PENGUMPULAN":"Q2 2025","TANGGAL UPDATE":"17/06/2025"}},{"type":"Feature","geometry":{"coordinates":[106.7602819,-6.1560414],"type":"Point"},"properties":{"NAMA":"PASAR KALI MATI","TIPE_1":"PERDAGANGAN DAN RETAIL","TIPE_2":"PASAR","TIPE_3":"PASAR TRADISIONAL","TELEPON":"0896-0241-0885","ALAMAT":"JL. KOMP. DEPARTEMEN AGAMA NO.15, RT.15/RW.3, KEDAUNG KALI ANGKE, CENGKARENG, WEST JAKARTA CITY, JAKARTA 11710","ID_PROV":"31","PROVINSI":"DKI JAKARTA","ID_KABKOT":"31.73","KABKOT":"KOTA ADM. JAKARTA BARAT","ID_KEC":"31.73.01","KECAMATAN":"CENGKARENG","ID_DESA":"31.73.01.1004","DESA":"KEDAUNG KALI ANGKE","LATITUDE":-6.1560414,"LONGITUDE":106.7602819,"STATUS":"BUKA","TANGGAL PENGUMPULAN":"Q2 2025","TANGGAL UPDATE":"17/06/2025"}},{"type":"Feature","geometry":{"coordinates":[106.7032056,-6.1525847],"type":"Point"},"properties":{"NAMA":"PASAR KALIDERES","TIPE_1":"PERDAGANGAN DAN RETAIL","TIPE_2":"PASAR","TIPE_3":"PASAR TRADISIONAL","TELEPON":"","ALAMAT":"PS. KALIDERES, JL. PETA SELATAN NO.75 8, RT.8/RW.1, KALIDERES, KEC. KALIDERES, KOTA JAKARTA BARAT, DAERAH KHUSUS IBUKOTA JAKARTA 11840","ID_PROV":"31","PROVINSI":"DKI JAKARTA","ID_KABKOT":"31.73","KABKOT":"KOTA ADM. JAKARTA BARAT","ID_KEC":"31.73.06","KECAMATAN":"KALIDERES","ID_DESA":"31.73.06.1001","DESA":"KALIDERES","LATITUDE":-6.1525847,"LONGITUDE":106.7032056,"STATUS":"BUKA","TANGGAL PENGUMPULAN":"Q2 2025","TANGGAL UPDATE":"17/06/2025"}},{"type":"Feature","geometry":{"coordinates":[106.7070056,-6.1042648],"type":"Point"},"properties":{"NAMA":"PASAR KAMAL","TIPE_1":"PERDAGANGAN DAN RETAIL","TIPE_2":"PASAR","TIPE_3":"PASAR TRADISIONAL","TELEPON":"","ALAMAT":"JALAN BENDA RAYA NO.24 RT.07/RW.02, KALIDERES, RT.8/RW.1, KAMAL, KOTA JAKARTA BARAT, DAERAH KHUSUS IBUKOTA JAKARTA 11810","ID_PROV":"31","PROVINSI":"DKI JAKARTA","ID_KABKOT":"31.73","KABKOT":"KOTA ADM. JAKARTA BARAT","ID_KEC":"31.73.06","KECAMATAN":"KALIDERES","ID_DESA":"31.73.06.1004","DESA":"KAMAL","LATITUDE":-6.1042648,"LONGITUDE":106.7070056,"STATUS":"BUKA","TANGGAL PENGUMPULAN":"Q2 2025","TANGGAL UPDATE":"17/06/2025"}},{"type":"Feature","geometry":{"coordinates":[106.7982338,-6.1425369],"type":"Point"},"properties":{"NAMA":"PASAR KAMPUNG BEBEK","TIPE_1":"PERDAGANGAN DAN RETAIL","TIPE_2":"PASAR","TIPE_3":"PASAR TRADISIONAL","TELEPON":"","ALAMAT":"JL. ANGKE JAYA XIII NO.2, RT.10/RW.4, ANGKE, TAMBORA, WEST JAKARTA CITY, JAKARTA 11330","ID_PROV":"31","PROVINSI":"DKI JAKARTA","ID_KABKOT":"31.73","KABKOT":"KOTA ADM. JAKARTA BARAT","ID_KEC":"31.73.04","KECAMATAN":"TAMBORA","ID_DESA":"31.73.04.1007","DESA":"ANGKE","LATITUDE":-6.1425369,"LONGITUDE":106.7982338,"STATUS":"BUKA","TANGGAL PENGUMPULAN":"Q2 2025","TANGGAL UPDATE":"17/06/2025"}},{"type":"Feature","geometry":{"coordinates":[106.8045676,-6.1615998],"type":"Point"},"properties":{"NAMA":"PASAR KAMPUNG DURI","TIPE_1":"PERDAGANGAN DAN RETAIL","TIPE_2":"PASAR","TIPE_3":"PASAR TRADISIONAL","TELEPON":"","ALAMAT":"JL. DURI PS. NO.36 2, RT.1/RW.3, DURI SEL., KEC. TAMBORA, KOTA JAKARTA BARAT, DAERAH KHUSUS IBUKOTA JAKARTA 11270","ID_PROV":"31","PROVINSI":"DKI JAKARTA","ID_KABKOT":"31.73","KABKOT":"KOTA ADM. JAKARTA BARAT","ID_KEC":"31.73.04","KECAMATAN":"TAMBORA","ID_DESA":"31.73.04.1011","DESA":"DURI SELATAN","LATITUDE":-6.1615998,"LONGITUDE":106.8045676,"STATUS":"BUKA","TANGGAL PENGUMPULAN":"Q2 2025","TANGGAL UPDATE":"17/06/2025"}},{"type":"Feature","geometry":{"coordinates":[106.7649593,-6.1639255],"type":"Point"},"properties":{"NAMA":"PASAR KEDOYA","TIPE_1":"PERDAGANGAN DAN RETAIL","TIPE_2":"PASAR","TIPE_3":"PASAR TRADISIONAL","TELEPON":"0895-3920-20210","ALAMAT":"JL. KEDOYA PESING NO.14, RT.14/RW.8, KEDOYA UTARA, KEC. KB. JERUK, KOTA JAKARTA BARAT, DAERAH KHUSUS IBUKOTA JAKARTA 11520","ID_PROV":"31","PROVINSI":"DKI JAKARTA","ID_KABKOT":"31.73","KABKOT":"KOTA ADM. JAKARTA BARAT","ID_KEC":"31.73.05","KECAMATAN":"KEBON JERUK","ID_DESA":"31.73.05.1006","DESA":"KEDOYA UTARA","LATITUDE":-6.1639255,"LONGITUDE":106.7649593,"STATUS":"BUKA","TANGGAL PENGUMPULAN":"Q2 2025","TANGGAL UPDATE":"17/06/2025"}},{"type":"Feature","geometry":{"coordinates":[106.76934639999999,-6.1806626],"type":"Point"},"properties":{"NAMA":"PASAR KEDOYA UYOH","TIPE_1":"PERDAGANGAN DAN RETAIL","TIPE_2":"PASAR","TIPE_3":"PASAR TRADISIONAL","TELEPON":"0858-8111-6663","ALAMAT":"JL. LIAM NO.14, RT.9/RW.1, DURI KEPA, KEC. KB. JERUK, KOTA JAKARTA BARAT, DAERAH KHUSUS IBUKOTA JAKARTA 11510","ID_PROV":"31","PROVINSI":"DKI JAKARTA","ID_KABKOT":"31.73","KABKOT":"KOTA ADM. JAKARTA BARAT","ID_KEC":"31.73.05","KECAMATAN":"KEBON JERUK","ID_DESA":"31.73.05.1005","DESA":"DURI KEPA","LATITUDE":-6.1806626,"LONGITUDE":106.7693464,"STATUS":"BUKA","TANGGAL PENGUMPULAN":"Q2 2025","TANGGAL UPDATE":"17/06/2025"}},{"type":"Feature","geometry":{"coordinates":[106.7489479,-6.164599],"type":"Point"},"properties":{"NAMA":"PASAR KEMIRI BASMOL","TIPE_1":"PERDAGANGAN DAN RETAIL","TIPE_2":"PASAR","TIPE_3":"PASAR TRADISIONAL","TELEPON":"","ALAMAT":"JL. BASMOL RAYA NO.90, RT.8/RW.6, KEMBANGAN UTARA, KEC. KEMBANGAN, KOTA JAKARTA BARAT, DAERAH KHUSUS IBUKOTA JAKARTA 11610","ID_PROV":"31","PROVINSI":"DKI JAKARTA","ID_KABKOT":"31.73","KABKOT":"KOTA ADM. JAKARTA BARAT","ID_KEC":"31.73.08","KECAMATAN":"KEMBANGAN","ID_DESA":"31.73.08.1001","DESA":"KEMBANGAN UTARA","LATITUDE":-6.164599,"LONGITUDE":106.7489479,"STATUS":"BUKA","TANGGAL PENGUMPULAN":"Q2 2025","TANGGAL UPDATE":"17/06/2025"}},{"type":"Feature","geometry":{"coordinates":[106.7485999,-6.1629208],"type":"Point"},"properties":{"NAMA":"PASAR KEMIRI KEMBANGAN UTARA","TIPE_1":"PERDAGANGAN DAN RETAIL","TIPE_2":"PASAR","TIPE_3":"PASAR TRADISIONAL","TELEPON":"","ALAMAT":"JL. BASMOL RAYA NO.6A 15, RT.15/RW.6, KEMBANGAN UTARA, KEC. KEMBANGAN, KOTA JAKARTA BARAT, DAERAH KHUSUS IBUKOTA JAKARTA 11610","ID_PROV":"31","PROVINSI":"DKI JAKARTA","ID_KABKOT":"31.73","KABKOT":"KOTA ADM. JAKARTA BARAT","ID_KEC":"31.73.08","KECAMATAN":"KEMBANGAN","ID_DESA":"31.73.08.1001","DESA":"KEMBANGAN UTARA","LATITUDE":-6.1629208,"LONGITUDE":106.7485999,"STATUS":"BUKA","TANGGAL PENGUMPULAN":"Q2 2025","TANGGAL UPDATE":"17/06/2025"}},{"type":"Feature","geometry":{"coordinates":[106.7489456,-6.165288],"type":"Point"},"properties":{"NAMA":"PASAR KEMIRI TANGGUL","TIPE_1":"PERDAGANGAN DAN RETAIL","TIPE_2":"PASAR","TIPE_3":"PASAR TRADISIONAL","TELEPON":"","ALAMAT":"RT.8/RW.3, KEMBANGAN UTARA, KEC. KEMBANGAN, KOTA JAKARTA BARAT, DAERAH KHUSUS IBUKOTA JAKARTA 11740","ID_PROV":"31","PROVINSI":"DKI JAKARTA","ID_KABKOT":"31.73","KABKOT":"KOTA ADM. JAKARTA BARAT","ID_KEC":"31.73.08","KECAMATAN":"KEMBANGAN","ID_DESA":"31.73.08.1001","DESA":"KEMBANGAN UTARA","LATITUDE":-6.165288,"LONGITUDE":106.7489456,"STATUS":"BUKA","TANGGAL PENGUMPULAN":"Q2 2025","TANGGAL UPDATE":"17/06/2025"}},{"type":"Feature","geometry":{"coordinates":[106.7252143,-6.1302346],"type":"Point"},"properties":{"NAMA":"PASAR KENANGA HJ. TURI","TIPE_1":"PERDAGANGAN DAN RETAIL","TIPE_2":"PASAR","TIPE_3":"PASAR TRADISIONAL","TELEPON":"","ALAMAT":"JL. JAYA NO.25 1, RT.1/RW.10, CENGKARENG BAR., KECAMATAN CENGKARENG, KOTA JAKARTA BARAT, DAERAH KHUSUS IBUKOTA JAKARTA 11730","ID_PROV":"31","PROVINSI":"DKI JAKARTA","ID_KABKOT":"31.73","KABKOT":"KOTA ADM. JAKARTA BARAT","ID_KEC":"31.73.01","KECAMATAN":"CENGKARENG","ID_DESA":"31.73.01.1001","DESA":"CENGKARENG BARAT","LATITUDE":-6.1302346,"LONGITUDE":106.7252143,"STATUS":"BUKA","TANGGAL PENGUMPULAN":"Q2 2025","TANGGAL UPDATE":"17/06/2025"}},{"type":"Feature","geometry":{"coordinates":[106.8035923,-6.1857751],"type":"Point"},"properties":{"NAMA":"PASAR KENCAR","TIPE_1":"PERDAGANGAN DAN RETAIL","TIPE_2":"PASAR","TIPE_3":"PASAR TRADISIONAL","TELEPON":"","ALAMAT":"JL. KOTA BAMBU RAYA NO.99 5, RT.5/RW.5, KOTA BAMBU SEL., KEC. PALMERAH, KOTA JAKARTA BARAT, DAERAH KHUSUS IBUKOTA JAKARTA 11420","ID_PROV":"31","PROVINSI":"DKI JAKARTA","ID_KABKOT":"31.73","KABKOT":"KOTA ADM. JAKARTA BARAT","ID_KEC":"31.73.07","KECAMATAN":"PAL MERAH","ID_DESA":"31.73.07.1006","DESA":"KOTA BAMBU SELATAN","LATITUDE":-6.1857751,"LONGITUDE":106.8035923,"STATUS":"BUKA","TANGGAL PENGUMPULAN":"Q2 2025","TANGGAL UPDATE":"17/06/2025"}},{"type":"Feature","geometry":{"coordinates":[106.72513916353095,-6.13626216378866],"type":"Point"},"properties":{"NAMA":"PASAR KFT","TIPE_1":"PERDAGANGAN DAN RETAIL","TIPE_2":"PASAR","TIPE_3":"PASAR TRADISIONAL","TELEPON":"","ALAMAT":"JL. PERUMAHAN K. F. T NO.13 A3, RT.8/RW.13, WEST CENGKARENG, CENGKARENG, WEST JAKARTA CITY, JAKARTA 11730","ID_PROV":"31","PROVINSI":"DKI JAKARTA","ID_KABKOT":"31.73","KABKOT":"KOTA ADM. JAKARTA BARAT","ID_KEC":"31.73.01","KECAMATAN":"CENGKARENG","ID_DESA":"31.73.01.1001","DESA":"CENGKARENG BARAT","LATITUDE":-6.1363428,"LONGITUDE":106.7253733,"STATUS":"BUKA","TANGGAL PENGUMPULAN":"Q2 2025","TANGGAL UPDATE":"17/06/2025"}},{"type":"Feature","geometry":{"coordinates":[106.7837,-6.17616],"type":"Point"},"properties":{"NAMA":"PASAR KOPRO","TIPE_1":"PERDAGANGAN DAN RETAIL","TIPE_2":"PASAR","TIPE_3":"PASAR TRADISIONAL","TELEPON":"","ALAMAT":"TJ. DUREN SEL., KEC. GROGOL PETAMBURAN, KOTA JAKARTA BARAT, DAERAH KHUSUS IBUKOTA JAKARTA","ID_PROV":"31","PROVINSI":"DKI JAKARTA","ID_KABKOT":"31.73","KABKOT":"KOTA ADM. JAKARTA BARAT","ID_KEC":"31.73.02","KECAMATAN":"GROGOL PETAMBURAN","ID_DESA":"31.73.02.1005","DESA":"TANJUNG DUREN SELATAN","LATITUDE":-6.17616,"LONGITUDE":106.7837,"STATUS":"BUKA","TANGGAL PENGUMPULAN":"Q2 2025","TANGGAL UPDATE":"17/06/2025"}},{"type":"Feature","geometry":{"coordinates":[106.714993,-6.176827],"type":"Point"},"properties":{"NAMA":"PASAR LARIS KOSAMBI","TIPE_1":"PERDAGANGAN DAN RETAIL","TIPE_2":"PASAR","TIPE_3":"PASAR TRADISIONAL","TELEPON":"","ALAMAT":"GG. G RUKO GRAND PALM PURI BLK., JL. RAYA PANTURA NO.7, RT.6/RW.13, DURI KOSAMBI, CENGKARENG, WEST JAKARTA CITY, JAKARTA 11750","ID_PROV":"31","PROVINSI":"DKI JAKARTA","ID_KABKOT":"31.73","KABKOT":"KOTA ADM. JAKARTA BARAT","ID_KEC":"31.73.01","KECAMATAN":"CENGKARENG","ID_DESA":"31.73.01.1002","DESA":"DURI KOSAMBI","LATITUDE":-6.176827,"LONGITUDE":106.714993,"STATUS":"BUKA","TANGGAL PENGUMPULAN":"Q2 2025","TANGGAL UPDATE":"17/06/2025"}},{"type":"Feature","geometry":{"coordinates":[106.71281529999999,-6.1377564],"type":"Point"},"properties":{"NAMA":"PASAR LARIS PALM PARADISE","TIPE_1":"PERDAGANGAN DAN RETAIL","TIPE_2":"PASAR","TIPE_3":"PASAR TRADISIONAL","TELEPON":"","ALAMAT":"PASAR LARIS, DAERAH KHUSUS IBUKOTA JAKARTA 10120","ID_PROV":"31","PROVINSI":"DKI JAKARTA","ID_KABKOT":"31.73","KABKOT":"KOTA ADM. JAKARTA BARAT","ID_KEC":"31.73.06","KECAMATAN":"KALIDERES","ID_DESA":"31.73.06.1005","DESA":"PEGADUNGAN","LATITUDE":-6.1377564,"LONGITUDE":106.7128153,"STATUS":"BUKA","TANGGAL PENGUMPULAN":"Q2 2025","TANGGAL UPDATE":"17/06/2025"}},{"type":"Feature","geometry":{"coordinates":[106.7686608,-6.1817533],"type":"Point"},"properties":{"NAMA":"PASAR LIAM PASAR KAGET GOYANG","TIPE_1":"PERDAGANGAN DAN RETAIL","TIPE_2":"PASAR","TIPE_3":"PASAR TRADISIONAL","TELEPON":"","ALAMAT":"JL. LIAM NO.11 8, RT.8/RW.7, DURI KEPA, KEC. KB. JERUK, KOTA JAKARTA BARAT, DAERAH KHUSUS IBUKOTA JAKARTA 11510","ID_PROV":"31","PROVINSI":"DKI JAKARTA","ID_KABKOT":"31.73","KABKOT":"KOTA ADM. JAKARTA BARAT","ID_KEC":"31.73.05","KECAMATAN":"KEBON JERUK","ID_DESA":"31.73.05.1007","DESA":"KEDOYA SELATAN","LATITUDE":-6.1817533,"LONGITUDE":106.7686608,"STATUS":"BUKA","TANGGAL PENGUMPULAN":"Q2 2025","TANGGAL UPDATE":"17/06/2025"}},{"type":"Feature","geometry":{"coordinates":[106.710498,-6.1210259],"type":"Point"},"properties":{"NAMA":"PASAR LIMA LIMA","TIPE_1":"PERDAGANGAN DAN RETAIL","TIPE_2":"PASAR","TIPE_3":"PASAR TRADISIONAL","TELEPON":"","ALAMAT":"RT.1/RW.15, TEGAL ALUR, KEC. KALIDERES, KOTA JAKARTA BARAT, DAERAH KHUSUS IBUKOTA JAKARTA 11820","ID_PROV":"31","PROVINSI":"DKI JAKARTA","ID_KABKOT":"31.73","KABKOT":"KOTA ADM. JAKARTA BARAT","ID_KEC":"31.73.06","KECAMATAN":"KALIDERES","ID_DESA":"31.73.06.1003","DESA":"TEGAL ALUR","LATITUDE":-6.1210259,"LONGITUDE":106.710498,"STATUS":"BUKA","TANGGAL PENGUMPULAN":"Q2 2025","TANGGAL UPDATE":"17/06/2025"}},{"type":"Feature","geometry":{"coordinates":[106.7815488,-6.1885847],"type":"Point"},"properties":{"NAMA":"PASAR MALAM PAJAK KEMANGGISAN","TIPE_1":"PERDAGANGAN DAN RETAIL","TIPE_2":"PASAR","TIPE_3":"PASAR TRADISIONAL","TELEPON":"","ALAMAT":"JL. BUDI I NO.11, RW.12, RT.5/RW.12, KB. JERUK, KEC. KB. JERUK, KOTA JAKARTA BARAT, DAERAH KHUSUS IBUKOTA JAKARTA 11530","ID_PROV":"31","PROVINSI":"DKI JAKARTA","ID_KABKOT":"31.73","KABKOT":"KOTA ADM. JAKARTA BARAT","ID_KEC":"31.73.05","KECAMATAN":"KEBON JERUK","ID_DESA":"31.73.05.1001","DESA":"KEBON JERUK","LATITUDE":-6.1885847,"LONGITUDE":106.7815488,"STATUS":"BUKA","TANGGAL PENGUMPULAN":"Q2 2025","TANGGAL UPDATE":"17/06/2025"}},{"type":"Feature","geometry":{"coordinates":[106.7209259,-6.1836275],"type":"Point"},"properties":{"NAMA":"PASAR MALAM TANAH KOJA","TIPE_1":"PERDAGANGAN DAN RETAIL","TIPE_2":"PASAR","TIPE_3":"PASAR TRADISIONAL","TELEPON":"","ALAMAT":"JL. MASJID NURUL IMAN NO.11, RT.11/RW.2, DURI KOSAMBI, KECAMATAN CENGKARENG, KOTA JAKARTA BARAT, DAERAH KHUSUS IBUKOTA JAKARTA 11750","ID_PROV":"31","PROVINSI":"DKI JAKARTA","ID_KABKOT":"31.73","KABKOT":"KOTA ADM. JAKARTA BARAT","ID_KEC":"31.73.01","KECAMATAN":"CENGKARENG","ID_DESA":"31.73.01.1002","DESA":"DURI KOSAMBI","LATITUDE":-6.1836275,"LONGITUDE":106.7209259,"STATUS":"BUKA","TANGGAL PENGUMPULAN":"Q2 2025","TANGGAL UPDATE":"17/06/2025"}},{"type":"Feature","geometry":{"coordinates":[106.819176,-6.15076],"type":"Point"},"properties":{"NAMA":"PASAR MANGGA BESAR PASAR JAYA","TIPE_1":"PERDAGANGAN DAN RETAIL","TIPE_2":"PASAR","TIPE_3":"PASAR MODERN","TELEPON":"(021) 6258129","ALAMAT":"JL. KEBON JERUK XIX NO.11, RT.12/RW.9, MAPHAR, KEC. TAMAN SARI, KOTA JAKARTA BARAT, DAERAH KHUSUS IBUKOTA JAKARTA 11160","ID_PROV":"31","PROVINSI":"DKI JAKARTA","ID_KABKOT":"31.73","KABKOT":"KOTA ADM. JAKARTA BARAT","ID_KEC":"31.73.03","KECAMATAN":"TAMAN SARI","ID_DESA":"31.73.03.1003","DESA":"MAPHAR","LATITUDE":-6.15076,"LONGITUDE":106.819176,"STATUS":"BUKA","TANGGAL PENGUMPULAN":"Q2 2025","TANGGAL UPDATE":"17/06/2025"}},{"type":"Feature","geometry":{"coordinates":[106.7847782,-6.1499956],"type":"Point"},"properties":{"NAMA":"PASAR MEDAN","TIPE_1":"PERDAGANGAN DAN RETAIL","TIPE_2":"PASAR","TIPE_3":"PASAR TRADISIONAL","TELEPON":"","ALAMAT":"JL. SENI BUDAYA RAYA NO.5, RT.5/RW.5, JELAMBAR BARU, KEC. GROGOL PETAMBURAN, KOTA JAKARTA BARAT, DAERAH KHUSUS IBUKOTA JAKARTA 11460","ID_PROV":"31","PROVINSI":"DKI JAKARTA","ID_KABKOT":"31.73","KABKOT":"KOTA ADM. JAKARTA BARAT","ID_KEC":"31.73.02","KECAMATAN":"GROGOL PETAMBURAN","ID_DESA":"31.73.02.1006","DESA":"JELAMBAR BARU","LATITUDE":-6.1499956,"LONGITUDE":106.7847782,"STATUS":"BUKA","TANGGAL PENGUMPULAN":"Q2 2025","TANGGAL UPDATE":"17/06/2025"}},{"type":"Feature","geometry":{"coordinates":[106.7217828,-6.126211],"type":"Point"},"properties":{"NAMA":"PASAR MENCENG","TIPE_1":"PERDAGANGAN DAN RETAIL","TIPE_2":"PASAR","TIPE_3":"PASAR TRADISIONAL","TELEPON":"","ALAMAT":"JL. MENCENG RAYA NO.B2 5, RT.5/RW.6, TEGAL ALUR, KEC. KALIDERES, KOTA JAKARTA BARAT, DAERAH KHUSUS IBUKOTA JAKARTA 11820","ID_PROV":"31","PROVINSI":"DKI JAKARTA","ID_KABKOT":"31.73","KABKOT":"KOTA ADM. JAKARTA BARAT","ID_KEC":"31.73.06","KECAMATAN":"KALIDERES","ID_DESA":"31.73.06.1003","DESA":"TEGAL ALUR","LATITUDE":-6.126211,"LONGITUDE":106.7217828,"STATUS":"BUKA","TANGGAL PENGUMPULAN":"Q2 2025","TANGGAL UPDATE":"17/06/2025"}},{"type":"Feature","geometry":{"coordinates":[106.71893019999999,-6.1263347],"type":"Point"},"properties":{"NAMA":"PASAR MENVO","TIPE_1":"PERDAGANGAN DAN RETAIL","TIPE_2":"PASAR","TIPE_3":"PASAR TRADISIONAL","TELEPON":"0813-8183-5081","ALAMAT":"JL. MENVO NO.7, RT.7/RW.10, TEGAL ALUR, KEC. KALIDERES, KOTA JAKARTA BARAT, DAERAH KHUSUS IBUKOTA JAKARTA 11820","ID_PROV":"31","PROVINSI":"DKI JAKARTA","ID_KABKOT":"31.73","KABKOT":"KOTA ADM. JAKARTA BARAT","ID_KEC":"31.73.06","KECAMATAN":"KALIDERES","ID_DESA":"31.73.06.1003","DESA":"TEGAL ALUR","LATITUDE":-6.1263347,"LONGITUDE":106.7189302,"STATUS":"BUKA","TANGGAL PENGUMPULAN":"Q2 2025","TANGGAL UPDATE":"17/06/2025"}},{"type":"Feature","geometry":{"coordinates":[106.7384166,-6.1997546],"type":"Point"},"properties":{"NAMA":"PASAR MERUYA ILIR","TIPE_1":"PERDAGANGAN DAN RETAIL","TIPE_2":"PASAR","TIPE_3":"PASAR TRADISIONAL","TELEPON":"","ALAMAT":"MERUYA UTARA, KEC. KEMBANGAN, KOTA JAKARTA BARAT, DAERAH KHUSUS IBUKOTA JAKARTA","ID_PROV":"31","PROVINSI":"DKI JAKARTA","ID_KABKOT":"31.73","KABKOT":"KOTA ADM. JAKARTA BARAT","ID_KEC":"31.73.08","KECAMATAN":"KEMBANGAN","ID_DESA":"31.73.08.1002","DESA":"MERUYA UTARA","LATITUDE":-6.1997546,"LONGITUDE":106.7384166,"STATUS":"BUKA","TANGGAL PENGUMPULAN":"Q2 2025","TANGGAL UPDATE":"17/06/2025"}},{"type":"Feature","geometry":{"coordinates":[106.7074132,-6.1452324],"type":"Point"},"properties":{"NAMA":"PASAR MINGGU PAGI DM","TIPE_1":"PERDAGANGAN DAN RETAIL","TIPE_2":"PASAR","TIPE_3":"PASAR TRADISIONAL","TELEPON":"","ALAMAT":"JL. UTAN JATI, RT.9/RW.12, PEGADUNGAN, KEC. KALIDERES, KOTA JAKARTA BARAT, DAERAH KHUSUS IBUKOTA JAKARTA 11830","ID_PROV":"31","PROVINSI":"DKI JAKARTA","ID_KABKOT":"31.73","KABKOT":"KOTA ADM. JAKARTA BARAT","ID_KEC":"31.73.06","KECAMATAN":"KALIDERES","ID_DESA":"31.73.06.1005","DESA":"PEGADUNGAN","LATITUDE":-6.1452324,"LONGITUDE":106.7074132,"STATUS":"BUKA","TANGGAL PENGUMPULAN":"Q2 2025","TANGGAL UPDATE":"17/06/2025"}},{"type":"Feature","geometry":{"coordinates":[106.80684869999999,-6.1450087],"type":"Point"},"properties":{"NAMA":"PASAR MITRA","TIPE_1":"PERDAGANGAN DAN RETAIL","TIPE_2":"PASAR","TIPE_3":"PASAR TRADISIONAL","TELEPON":"","ALAMAT":"JL. KH.MOH.MANSYUR NO.1, RT.1/RW.11, TANAH SEREAL, KEC. TAMBORA, KOTA JAKARTA BARAT, DAERAH KHUSUS IBUKOTA JAKARTA 11250","ID_PROV":"31","PROVINSI":"DKI JAKARTA","ID_KABKOT":"31.73","KABKOT":"KOTA ADM. JAKARTA BARAT","ID_KEC":"31.73.04","KECAMATAN":"TAMBORA","ID_DESA":"31.73.04.1008","DESA":"JEMBATAN LIMA","LATITUDE":-6.1450087,"LONGITUDE":106.8068487,"STATUS":"BUKA","TANGGAL PENGUMPULAN":"Q2 2025","TANGGAL UPDATE":"17/06/2025"}},{"type":"Feature","geometry":{"coordinates":[106.77348029999999,-6.1954954],"type":"Point"},"properties":{"NAMA":"PASAR PAGI","TIPE_1":"PERDAGANGAN DAN RETAIL","TIPE_2":"PASAR","TIPE_3":"PASAR TRADISIONAL","TELEPON":"","ALAMAT":"JL. H. SALIHUN NO.60 4, RT.4/RW.3, KB. JERUK, KEC. KB. JERUK, KOTA JAKARTA BARAT, DAERAH KHUSUS IBUKOTA JAKARTA 11530","ID_PROV":"31","PROVINSI":"DKI JAKARTA","ID_KABKOT":"31.73","KABKOT":"KOTA ADM. JAKARTA BARAT","ID_KEC":"31.73.05","KECAMATAN":"KEBON JERUK","ID_DESA":"31.73.05.1001","DESA":"KEBON JERUK","LATITUDE":-6.1954954,"LONGITUDE":106.7734803,"STATUS":"BUKA","TANGGAL PENGUMPULAN":"Q2 2025","TANGGAL UPDATE":"17/06/2025"}},{"type":"Feature","geometry":{"coordinates":[106.708865,-6.1452277],"type":"Point"},"properties":{"NAMA":"PASAR PAGI CITRA 2","TIPE_1":"PERDAGANGAN DAN RETAIL","TIPE_2":"PASAR","TIPE_3":"PASAR TRADISIONAL","TELEPON":"","ALAMAT":"JL. PERUMAHAN GRIYA JATI ASRI NO.7, RT.7/RW.11, PEGADUNGAN, KEC. KALIDERES, KOTA JAKARTA BARAT, DAERAH KHUSUS IBUKOTA JAKARTA 11830","ID_PROV":"31","PROVINSI":"DKI JAKARTA","ID_KABKOT":"31.73","KABKOT":"KOTA ADM. JAKARTA BARAT","ID_KEC":"31.73.06","KECAMATAN":"KALIDERES","ID_DESA":"31.73.06.1005","DESA":"PEGADUNGAN","LATITUDE":-6.1452277,"LONGITUDE":106.708865,"STATUS":"BUKA","TANGGAL PENGUMPULAN":"Q2 2025","TANGGAL UPDATE":"17/06/2025"}},{"type":"Feature","geometry":{"coordinates":[106.8008204,-6.1940253],"type":"Point"},"properties":{"NAMA":"PASAR PAGI SLIPI","TIPE_1":"PERDAGANGAN DAN RETAIL","TIPE_2":"PASAR","TIPE_3":"PASAR TRADISIONAL","TELEPON":"","ALAMAT":"JL. KS. TUBUN III DALAM NO.39, RT.1/RW.4, SLIPI, KEC. PALMERAH, KOTA JAKARTA BARAT, DAERAH KHUSUS IBUKOTA JAKARTA 11410","ID_PROV":"31","PROVINSI":"DKI JAKARTA","ID_KABKOT":"31.73","KABKOT":"KOTA ADM. JAKARTA BARAT","ID_KEC":"31.73.07","KECAMATAN":"PAL MERAH","ID_DESA":"31.73.07.1002","DESA":"SLIPI","LATITUDE":-6.1940253,"LONGITUDE":106.8008204,"STATUS":"BUKA","TANGGAL PENGUMPULAN":"Q2 2025","TANGGAL UPDATE":"17/06/2025"}},{"type":"Feature","geometry":{"coordinates":[106.7798745,-6.1819373],"type":"Point"},"properties":{"NAMA":"PASAR PATRA","TIPE_1":"PERDAGANGAN DAN RETAIL","TIPE_2":"PASAR","TIPE_3":"PASAR TRADISIONAL","TELEPON":"","ALAMAT":"PS. PATRA, 3, JL. PATRA NO.3, RT.3/RW.2, DURI KEPA, KOTA JAKARTA BARAT, DAERAH KHUSUS IBUKOTA JAKARTA 11510","ID_PROV":"31","PROVINSI":"DKI JAKARTA","ID_KABKOT":"31.73","KABKOT":"KOTA ADM. JAKARTA BARAT","ID_KEC":"31.73.05","KECAMATAN":"KEBON JERUK","ID_DESA":"31.73.05.1005","DESA":"DURI KEPA","LATITUDE":-6.1819373,"LONGITUDE":106.7798745,"STATUS":"BUKA","TANGGAL PENGUMPULAN":"Q2 2025","TANGGAL UPDATE":"17/06/2025"}},{"type":"Feature","geometry":{"coordinates":[106.8218329,-6.1416449],"type":"Point"},"properties":{"NAMA":"PASAR PECAHKULIT DALAM","TIPE_1":"PERDAGANGAN DAN RETAIL","TIPE_2":"PASAR","TIPE_3":"PASAR TRADISIONAL","TELEPON":"0877-8331-4310","ALAMAT":"JL. PECAH KULIT NO.2 2, RT.7/RW.1, PS. BARU, KEC. TAMAN SARI, KOTA JAKARTA BARAT, DAERAH KHUSUS IBUKOTA JAKARTA 11110","ID_PROV":"31","PROVINSI":"DKI JAKARTA","ID_KABKOT":"31.73","KABKOT":"KOTA ADM. JAKARTA BARAT","ID_KEC":"31.73.03","KECAMATAN":"TAMAN SARI","ID_DESA":"31.73.03.1008","DESA":"PINANGSIA","LATITUDE":-6.1416449,"LONGITUDE":106.8218329,"STATUS":"BUKA","TANGGAL PENGUMPULAN":"Q2 2025","TANGGAL UPDATE":"17/06/2025"}},{"type":"Feature","geometry":{"coordinates":[106.8142058,-6.1427907],"type":"Point"},"properties":{"NAMA":"PASAR PECINAN GLODOK","TIPE_1":"PERDAGANGAN DAN RETAIL","TIPE_2":"PASAR","TIPE_3":"PASAR TRADISIONAL","TELEPON":"","ALAMAT":"JL. PANCORAN, RT.2/RW.1, GLODOK, KEC. TAMAN SARI, KOTA JAKARTA BARAT, DAERAH KHUSUS IBUKOTA JAKARTA 11120","ID_PROV":"31","PROVINSI":"DKI JAKARTA","ID_KABKOT":"31.73","KABKOT":"KOTA ADM. JAKARTA BARAT","ID_KEC":"31.73.03","KECAMATAN":"TAMAN SARI","ID_DESA":"31.73.03.1007","DESA":"GLODOK","LATITUDE":-6.1427907,"LONGITUDE":106.8142058,"STATUS":"BUKA","TANGGAL PENGUMPULAN":"Q2 2025","TANGGAL UPDATE":"17/06/2025"}},{"type":"Feature","geometry":{"coordinates":[106.7288199,-6.2011761],"type":"Point"},"properties":{"NAMA":"PASAR PELETOK 53","TIPE_1":"PERDAGANGAN DAN RETAIL","TIPE_2":"PASAR","TIPE_3":"PASAR TRADISIONAL","TELEPON":"","ALAMAT":"RT.3/RW.10, MERUYA UTARA, KEC. KEMBANGAN, KOTA JAKARTA BARAT, DAERAH KHUSUS IBUKOTA JAKARTA 11620","ID_PROV":"31","PROVINSI":"DKI JAKARTA","ID_KABKOT":"31.73","KABKOT":"KOTA ADM. JAKARTA BARAT","ID_KEC":"31.73.08","KECAMATAN":"KEMBANGAN","ID_DESA":"31.73.08.1002","DESA":"MERUYA UTARA","LATITUDE":-6.2011761,"LONGITUDE":106.7288199,"STATUS":"BUKA","TANGGAL PENGUMPULAN":"Q2 2025","TANGGAL UPDATE":"17/06/2025"}},{"type":"Feature","geometry":{"coordinates":[106.7607044,-6.2001665],"type":"Point"},"properties":{"NAMA":"PASAR PENGAMPUAN","TIPE_1":"PERDAGANGAN DAN RETAIL","TIPE_2":"PASAR","TIPE_3":"PASAR TRADISIONAL","TELEPON":"","ALAMAT":"JL. LAPANGAN BOLA NO.2, RT.2/RW.7, SRENGSENG, KEMBANGAN, WEST JAKARTA CITY, JAKARTA 11630","ID_PROV":"31","PROVINSI":"DKI JAKARTA","ID_KABKOT":"31.73","KABKOT":"KOTA ADM. JAKARTA BARAT","ID_KEC":"31.73.08","KECAMATAN":"KEMBANGAN","ID_DESA":"31.73.08.1004","DESA":"SRENGSENG","LATITUDE":-6.2001665,"LONGITUDE":106.7607044,"STATUS":"BUKA","TANGGAL PENGUMPULAN":"Q2 2025","TANGGAL UPDATE":"17/06/2025"}},{"type":"Feature","geometry":{"coordinates":[106.809301,-6.1418278],"type":"Point"},"properties":{"NAMA":"PASAR PERNIAGAAN","TIPE_1":"PERDAGANGAN DAN RETAIL","TIPE_2":"PASAR","TIPE_3":"PASAR TRADISIONAL","TELEPON":"","ALAMAT":"PASAR PERNIAGAAN, BLK. A NO.107 LT DASAR, RT.10/RW.1, TAMBORA, KEC. TAMBORA, KOTA JAKARTA BARAT, DAERAH KHUSUS IBUKOTA JAKARTA 11230","ID_PROV":"31","PROVINSI":"DKI JAKARTA","ID_KABKOT":"31.73","KABKOT":"KOTA ADM. JAKARTA BARAT","ID_KEC":"31.73.04","KECAMATAN":"TAMBORA","ID_DESA":"31.73.04.1001","DESA":"TAMBORA","LATITUDE":-6.1418278,"LONGITUDE":106.809301,"STATUS":"BUKA","TANGGAL PENGUMPULAN":"Q2 2025","TANGGAL UPDATE":"17/06/2025"}},{"type":"Feature","geometry":{"coordinates":[106.6969194,-6.1505907],"type":"Point"},"properties":{"NAMA":"PASAR PERUMAHAN CITRA GARDEN 1, PD PASAR JAYA","TIPE_1":"PERDAGANGAN DAN RETAIL","TIPE_2":"PASAR","TIPE_3":"PASAR TRADISIONAL","TELEPON":"","ALAMAT":"JL. NUSA RAYA, RT.6/RW.8, KALIDERES, KEC. KALIDERES, KOTA JAKARTA BARAT, DAERAH KHUSUS IBUKOTA JAKARTA 11840","ID_PROV":"31","PROVINSI":"DKI JAKARTA","ID_KABKOT":"31.73","KABKOT":"KOTA ADM. JAKARTA BARAT","ID_KEC":"31.73.06","KECAMATAN":"KALIDERES","ID_DESA":"31.73.06.1001","DESA":"KALIDERES","LATITUDE":-6.1505907,"LONGITUDE":106.6969194,"STATUS":"BUKA","TANGGAL PENGUMPULAN":"Q2 2025","TANGGAL UPDATE":"17/06/2025"}},{"type":"Feature","geometry":{"coordinates":[106.71578369999999,-6.1555794],"type":"Point"},"properties":{"NAMA":"PASAR PESAKIH","TIPE_1":"PERDAGANGAN DAN RETAIL","TIPE_2":"PASAR","TIPE_3":"PASAR TRADISIONAL","TELEPON":"","ALAMAT":"JL. DAAN MOGOT NO.3, RT.7/RW.1, SEMANAN, KEC. KALIDERES, KOTA JAKARTA BARAT, DAERAH KHUSUS IBUKOTA JAKARTA 11850","ID_PROV":"31","PROVINSI":"DKI JAKARTA","ID_KABKOT":"31.73","KABKOT":"KOTA ADM. JAKARTA BARAT","ID_KEC":"31.73.06","KECAMATAN":"KALIDERES","ID_DESA":"31.73.06.1002","DESA":"SEMANAN","LATITUDE":-6.1555794,"LONGITUDE":106.7157837,"STATUS":"BUKA","TANGGAL PENGUMPULAN":"Q2 2025","TANGGAL UPDATE":"17/06/2025"}},{"type":"Feature","geometry":{"coordinates":[106.7665851,-6.1618392],"type":"Point"},"properties":{"NAMA":"PASAR PESING","TIPE_1":"PERDAGANGAN DAN RETAIL","TIPE_2":"PASAR","TIPE_3":"PASAR TRADISIONAL","TELEPON":"","ALAMAT":"RT.4/RW.1, KEDOYA UTARA, KEC. KB. JERUK, KOTA JAKARTA BARAT, DAERAH KHUSUS IBUKOTA JAKARTA 11520","ID_PROV":"31","PROVINSI":"DKI JAKARTA","ID_KABKOT":"31.73","KABKOT":"KOTA ADM. JAKARTA BARAT","ID_KEC":"31.73.05","KECAMATAN":"KEBON JERUK","ID_DESA":"31.73.05.1006","DESA":"KEDOYA UTARA","LATITUDE":-6.1618392,"LONGITUDE":106.7665851,"STATUS":"BUKA","TANGGAL PENGUMPULAN":"Q2 2025","TANGGAL UPDATE":"17/06/2025"}},{"type":"Feature","geometry":{"coordinates":[106.8128989,-6.1438308],"type":"Point"},"properties":{"NAMA":"PASAR PETAK SEMBILAN","TIPE_1":"PERDAGANGAN DAN RETAIL","TIPE_2":"PASAR","TIPE_3":"PASAR TRADISIONAL","TELEPON":"","ALAMAT":"JL. KEMENANGAN RAYA NO.40 5, RT.5/RW.1, GLODOK, KEC. TAMAN SARI, KOTA JAKARTA BARAT, DAERAH KHUSUS IBUKOTA JAKARTA 11120","ID_PROV":"31","PROVINSI":"DKI JAKARTA","ID_KABKOT":"31.73","KABKOT":"KOTA ADM. JAKARTA BARAT","ID_KEC":"31.73.03","KECAMATAN":"TAMAN SARI","ID_DESA":"31.73.03.1007","DESA":"GLODOK","LATITUDE":-6.1438308,"LONGITUDE":106.8128989,"STATUS":"BUKA","TANGGAL PENGUMPULAN":"Q2 2025","TANGGAL UPDATE":"17/06/2025"}},{"type":"Feature","geometry":{"coordinates":[106.7438898,-6.1459855],"type":"Point"},"properties":{"NAMA":"PASAR PINTU SENG","TIPE_1":"PERDAGANGAN DAN RETAIL","TIPE_2":"PASAR","TIPE_3":"PASAR TRADISIONAL","TELEPON":"","ALAMAT":"JL. PINTU SENG NO.55 12, RT.4/RW.13, KAPUK, KECAMATAN CENGKARENG, KOTA JAKARTA BARAT, DAERAH KHUSUS IBUKOTA JAKARTA 11720","ID_PROV":"31","PROVINSI":"DKI JAKARTA","ID_KABKOT":"31.73","KABKOT":"KOTA ADM. JAKARTA BARAT","ID_KEC":"31.73.01","KECAMATAN":"CENGKARENG","ID_DESA":"31.73.01.1005","DESA":"KAPUK","LATITUDE":-6.1459855,"LONGITUDE":106.7438898,"STATUS":"BUKA","TANGGAL PENGUMPULAN":"Q2 2025","TANGGAL UPDATE":"17/06/2025"}},{"type":"Feature","geometry":{"coordinates":[106.7295346,-6.2005702],"type":"Point"},"properties":{"NAMA":"PASAR PLETOK MERUYA","TIPE_1":"PERDAGANGAN DAN RETAIL","TIPE_2":"PASAR","TIPE_3":"PASAR TRADISIONAL","TELEPON":"","ALAMAT":"RT.3/RW.10, NORTH MERUYA, KEMBANGAN, WEST JAKARTA CITY, JAKARTA 11620","ID_PROV":"31","PROVINSI":"DKI JAKARTA","ID_KABKOT":"31.73","KABKOT":"KOTA ADM. JAKARTA BARAT","ID_KEC":"31.73.08","KECAMATAN":"KEMBANGAN","ID_DESA":"31.73.08.1002","DESA":"MERUYA UTARA","LATITUDE":-6.2005702,"LONGITUDE":106.7295346,"STATUS":"BUKA","TANGGAL PENGUMPULAN":"Q2 2025","TANGGAL UPDATE":"17/06/2025"}},{"type":"Feature","geometry":{"coordinates":[106.7905991,-6.2072567],"type":"Point"},"properties":{"NAMA":"PASAR PLUIS BINTANG MAS","TIPE_1":"PERDAGANGAN DAN RETAIL","TIPE_2":"PASAR","TIPE_3":"PASAR TRADISIONAL","TELEPON":"","ALAMAT":"JL. PALMERAH BARAT II NO.3, RT.8/RW.8, PALMERAH, KEC. PALMERAH, KOTA JAKARTA BARAT, DAERAH KHUSUS IBUKOTA JAKARTA 11480","ID_PROV":"31","PROVINSI":"DKI JAKARTA","ID_KABKOT":"31.73","KABKOT":"KOTA ADM. JAKARTA BARAT","ID_KEC":"31.73.07","KECAMATAN":"PAL MERAH","ID_DESA":"31.73.07.1001","DESA":"PALMERAH","LATITUDE":-6.2072567,"LONGITUDE":106.7905991,"STATUS":"BUKA","TANGGAL PENGUMPULAN":"Q2 2025","TANGGAL UPDATE":"17/06/2025"}},{"type":"Feature","geometry":{"coordinates":[106.7345139,-6.1640083],"type":"Point"},"properties":{"NAMA":"PASAR PORTAL RAWA BUAYA","TIPE_1":"PERDAGANGAN DAN RETAIL","TIPE_2":"PASAR","TIPE_3":"PASAR TRADISIONAL","TELEPON":"","ALAMAT":"JL. MADRASAH NO.2A 8, RT.2/RW.4, 36 BUAYA, CENGKARENG, WEST JAKARTA CITY, JAKARTA 11740","ID_PROV":"31","PROVINSI":"DKI JAKARTA","ID_KABKOT":"31.73","KABKOT":"KOTA ADM. JAKARTA BARAT","ID_KEC":"31.73.01","KECAMATAN":"CENGKARENG","ID_DESA":"31.73.01.1003","DESA":"RAWA BUAYA","LATITUDE":-6.1640083,"LONGITUDE":106.7345139,"STATUS":"BUKA","TANGGAL PENGUMPULAN":"Q2 2025","TANGGAL UPDATE":"17/06/2025"}},{"type":"Feature","geometry":{"coordinates":[106.801713,-6.1573168],"type":"Point"},"properties":{"NAMA":"PASAR POS DURI","TIPE_1":"PERDAGANGAN DAN RETAIL","TIPE_2":"PASAR","TIPE_3":"PASAR TRADISIONAL","TELEPON":"0887-4330-41811","ALAMAT":"JL. DURI SEL. IX NO.46 14, RT.10/RW.12, DURI SEL., KEC. TAMBORA, KOTA JAKARTA BARAT, DAERAH KHUSUS IBUKOTA JAKARTA 11270","ID_PROV":"31","PROVINSI":"DKI JAKARTA","ID_KABKOT":"31.73","KABKOT":"KOTA ADM. JAKARTA BARAT","ID_KEC":"31.73.04","KECAMATAN":"TAMBORA","ID_DESA":"31.73.04.1011","DESA":"DURI SELATAN","LATITUDE":-6.1573168,"LONGITUDE":106.801713,"STATUS":"BUKA","TANGGAL PENGUMPULAN":"Q2 2025","TANGGAL UPDATE":"17/06/2025"}},{"type":"Feature","geometry":{"coordinates":[106.7695855,-6.2177036],"type":"Point"},"properties":{"NAMA":"PASAR POS PENGUMBEN","TIPE_1":"PERDAGANGAN DAN RETAIL","TIPE_2":"PASAR","TIPE_3":"PASAR TRADISIONAL","TELEPON":"","ALAMAT":"JL. RAYA POS PENGUMBEN NO.1, RT.6/RW.8, SUKABUMI SEL., KEC. KB. JERUK, KOTA JAKARTA BARAT, DAERAH KHUSUS IBUKOTA JAKARTA 11560","ID_PROV":"31","PROVINSI":"DKI JAKARTA","ID_KABKOT":"31.73","KABKOT":"KOTA ADM. JAKARTA BARAT","ID_KEC":"31.73.05","KECAMATAN":"KEBON JERUK","ID_DESA":"31.73.05.1003","DESA":"SUKABUMI SELATAN","LATITUDE":-6.2177036,"LONGITUDE":106.7695855,"STATUS":"BUKA","TANGGAL PENGUMPULAN":"Q2 2025","TANGGAL UPDATE":"17/06/2025"}},{"type":"Feature","geometry":{"coordinates":[106.7534285,-6.1855531],"type":"Point"},"properties":{"NAMA":"PASAR PURI INDAH","TIPE_1":"PERDAGANGAN DAN RETAIL","TIPE_2":"PASAR","TIPE_3":"PASAR MODERN","TELEPON":"","ALAMAT":"MALL PURI INDAH, 1, JL. PURI INDAH RAYA NO.1, RT.1/RW.8, KEMBANGAN SEL., KOTA JAKARTA BARAT, DAERAH KHUSUS IBUKOTA JAKARTA 11610","ID_PROV":"31","PROVINSI":"DKI JAKARTA","ID_KABKOT":"31.73","KABKOT":"KOTA ADM. JAKARTA BARAT","ID_KEC":"31.73.08","KECAMATAN":"KEMBANGAN","ID_DESA":"31.73.08.1006","DESA":"KEMBANGAN SELATAN","LATITUDE":-6.1855531,"LONGITUDE":106.7534285,"STATUS":"BUKA","TANGGAL PENGUMPULAN":"Q2 2025","TANGGAL UPDATE":"17/06/2025"}},{"type":"Feature","geometry":{"coordinates":[106.738383,-6.1371242],"type":"Point"},"properties":{"NAMA":"PASAR RAKYAT CENGKARENG TIMUR INDAH","TIPE_1":"PERDAGANGAN DAN RETAIL","TIPE_2":"PASAR","TIPE_3":"PASAR TRADISIONAL","TELEPON":"","ALAMAT":"JL. CITY RESORT BOULEVARD NO.7, RT.7/RW.14, CENGKARENG TIM., KECAMATAN CENGKARENG, KOTA JAKARTA BARAT, DAERAH KHUSUS IBUKOTA JAKARTA 11730","ID_PROV":"31","PROVINSI":"DKI JAKARTA","ID_KABKOT":"31.73","KABKOT":"KOTA ADM. JAKARTA BARAT","ID_KEC":"31.73.01","KECAMATAN":"CENGKARENG","ID_DESA":"31.73.01.1006","DESA":"CENGKARENG TIMUR","LATITUDE":-6.1371242,"LONGITUDE":106.738383,"STATUS":"BUKA","TANGGAL PENGUMPULAN":"Q2 2025","TANGGAL UPDATE":"17/06/2025"}},{"type":"Feature","geometry":{"coordinates":[106.7175135,-6.1731281],"type":"Point"},"properties":{"NAMA":"PASAR RAKYAT KOSAMBI BARU","TIPE_1":"PERDAGANGAN DAN RETAIL","TIPE_2":"PASAR","TIPE_3":"PASAR TRADISIONAL","TELEPON":"","ALAMAT":"JL. RASAMALA HIJAU 3 NO.12, RT.1/RW.13, DURI KOSAMBI, KECAMATAN CENGKARENG, KOTA JAKARTA BARAT, DAERAH KHUSUS IBUKOTA JAKARTA 11750","ID_PROV":"31","PROVINSI":"DKI JAKARTA","ID_KABKOT":"31.73","KABKOT":"KOTA ADM. JAKARTA BARAT","ID_KEC":"31.73.01","KECAMATAN":"CENGKARENG","ID_DESA":"31.73.01.1002","DESA":"DURI KOSAMBI","LATITUDE":-6.1731281,"LONGITUDE":106.7175135,"STATUS":"BUKA","TANGGAL PENGUMPULAN":"Q2 2025","TANGGAL UPDATE":"17/06/2025"}},{"type":"Feature","geometry":{"coordinates":[106.728244,-6.1554254],"type":"Point"},"properties":{"NAMA":"PASAR RAWA BUAYA","TIPE_1":"PERDAGANGAN DAN RETAIL","TIPE_2":"PASAR","TIPE_3":"PASAR TRADISIONAL","TELEPON":"","ALAMAT":"JALAN DARMA WANITA 2 NO.76 13, RT.13/RW.1, RW. BUAYA, KECAMATAN CENGKARENG, KOTA JAKARTA BARAT, DAERAH KHUSUS IBUKOTA JAKARTA 11740","ID_PROV":"31","PROVINSI":"DKI JAKARTA","ID_KABKOT":"31.73","KABKOT":"KOTA ADM. JAKARTA BARAT","ID_KEC":"31.73.01","KECAMATAN":"CENGKARENG","ID_DESA":"31.73.01.1003","DESA":"RAWA BUAYA","LATITUDE":-6.1554254,"LONGITUDE":106.728244,"STATUS":"BUKA","TANGGAL PENGUMPULAN":"Q2 2025","TANGGAL UPDATE":"17/06/2025"}},{"type":"Feature","geometry":{"coordinates":[106.6918076,-6.1364125],"type":"Point"},"properties":{"NAMA":"PASAR RAWA LELE","TIPE_1":"PERDAGANGAN DAN RETAIL","TIPE_2":"PASAR","TIPE_3":"PASAR TRADISIONAL","TELEPON":"","ALAMAT":"JL. PETA BARAT 6, RT.6/RW.8, PEGADUNGAN, KEC. KALIDERES, KOTA JAKARTA BARAT, DAERAH KHUSUS IBUKOTA JAKARTA 15124","ID_PROV":"31","PROVINSI":"DKI JAKARTA","ID_KABKOT":"31.73","KABKOT":"KOTA ADM. JAKARTA BARAT","ID_KEC":"31.73.06","KECAMATAN":"KALIDERES","ID_DESA":"31.73.06.1005","DESA":"PEGADUNGAN","LATITUDE":-6.1364125,"LONGITUDE":106.6918076,"STATUS":"BUKA","TANGGAL PENGUMPULAN":"Q2 2025","TANGGAL UPDATE":"17/06/2025"}},{"type":"Feature","geometry":{"coordinates":[106.7037421,-6.1659106],"type":"Point"},"properties":{"NAMA":"PASAR REL","TIPE_1":"PERDAGANGAN DAN RETAIL","TIPE_2":"PASAR","TIPE_3":"PASAR TRADISIONAL","TELEPON":"","ALAMAT":"RT.5/RW.10, SEMANAN, KEC. KALIDERES, KOTA JAKARTA BARAT, DAERAH KHUSUS IBUKOTA JAKARTA 11850","ID_PROV":"31","PROVINSI":"DKI JAKARTA","ID_KABKOT":"31.73","KABKOT":"KOTA ADM. JAKARTA BARAT","ID_KEC":"31.73.06","KECAMATAN":"KALIDERES","ID_DESA":"31.73.06.1002","DESA":"SEMANAN","LATITUDE":-6.1659106,"LONGITUDE":106.7037421,"STATUS":"BUKA","TANGGAL PENGUMPULAN":"Q2 2025","TANGGAL UPDATE":"17/06/2025"}},{"type":"Feature","geometry":{"coordinates":[106.7408328,-6.1352313],"type":"Point"},"properties":{"NAMA":"PASAR RUSUN CENGKARENG","TIPE_1":"PERDAGANGAN DAN RETAIL","TIPE_2":"PASAR","TIPE_3":"PASAR TRADISIONAL","TELEPON":"","ALAMAT":"RT.22/RW.16, KAPUK, KECAMATAN CENGKARENG, KOTA JAKARTA BARAT, DAERAH KHUSUS IBUKOTA JAKARTA 11720","ID_PROV":"31","PROVINSI":"DKI JAKARTA","ID_KABKOT":"31.73","KABKOT":"KOTA ADM. JAKARTA BARAT","ID_KEC":"31.73.01","KECAMATAN":"CENGKARENG","ID_DESA":"31.73.01.1006","DESA":"CENGKARENG TIMUR","LATITUDE":-6.1352313,"LONGITUDE":106.7408328,"STATUS":"BUKA","TANGGAL PENGUMPULAN":"Q2 2025","TANGGAL UPDATE":"17/06/2025"}},{"type":"Feature","geometry":{"coordinates":[106.7049535,-6.1448242],"type":"Point"},"properties":{"NAMA":"PASAR SEGAR","TIPE_1":"PERDAGANGAN DAN RETAIL","TIPE_2":"PASAR","TIPE_3":"PASAR TRADISIONAL","TELEPON":"","ALAMAT":"JL. UTAN JATI, PEGADUNGAN, KEC. KALIDERES, KOTA JAKARTA BARAT, DAERAH KHUSUS IBUKOTA JAKARTA 11830","ID_PROV":"31","PROVINSI":"DKI JAKARTA","ID_KABKOT":"31.73","KABKOT":"KOTA ADM. JAKARTA BARAT","ID_KEC":"31.73.06","KECAMATAN":"KALIDERES","ID_DESA":"31.73.06.1005","DESA":"PEGADUNGAN","LATITUDE":-6.1448242,"LONGITUDE":106.7049535,"STATUS":"BUKA","TANGGAL PENGUMPULAN":"Q2 2025","TANGGAL UPDATE":"17/06/2025"}},{"type":"Feature","geometry":{"coordinates":[106.7024709,-6.1348014],"type":"Point"},"properties":{"NAMA":"PASAR SIANG MALAM MAJA","TIPE_1":"PERDAGANGAN DAN RETAIL","TIPE_2":"PASAR","TIPE_3":"PASAR TRADISIONAL","TELEPON":"","ALAMAT":"RT.4/RW.2, PEGADUNGAN, KEC. KALIDERES, KOTA JAKARTA BARAT, DAERAH KHUSUS IBUKOTA JAKARTA 11830","ID_PROV":"31","PROVINSI":"DKI JAKARTA","ID_KABKOT":"31.73","KABKOT":"KOTA ADM. JAKARTA BARAT","ID_KEC":"31.73.06","KECAMATAN":"KALIDERES","ID_DESA":"31.73.06.1005","DESA":"PEGADUNGAN","LATITUDE":-6.1348014,"LONGITUDE":106.7024709,"STATUS":"BUKA","TANGGAL PENGUMPULAN":"Q2 2025","TANGGAL UPDATE":"17/06/2025"}},{"type":"Feature","geometry":{"coordinates":[106.79492,-6.1870917],"type":"Point"},"properties":{"NAMA":"PASAR SLIPI","TIPE_1":"PERDAGANGAN DAN RETAIL","TIPE_2":"PASAR","TIPE_3":"PASAR TRADISIONAL","TELEPON":"","ALAMAT":"JL. ANGGREK NELI MURNI NO.143 11, RT.11/RW.1, KEMANGGISAN, KEC. PALMERAH, KOTA JAKARTA BARAT, DAERAH KHUSUS IBUKOTA JAKARTA 11480","ID_PROV":"31","PROVINSI":"DKI JAKARTA","ID_KABKOT":"31.73","KABKOT":"KOTA ADM. JAKARTA BARAT","ID_KEC":"31.73.07","KECAMATAN":"PAL MERAH","ID_DESA":"31.73.07.1005","DESA":"KEMANGGISAN","LATITUDE":-6.1870917,"LONGITUDE":106.79492,"STATUS":"BUKA","TANGGAL PENGUMPULAN":"Q2 2025","TANGGAL UPDATE":"17/06/2025"}},{"type":"Feature","geometry":{"coordinates":[106.7410592,-6.1350298],"type":"Point"},"properties":{"NAMA":"PASAR SORE BCI","TIPE_1":"PERDAGANGAN DAN RETAIL","TIPE_2":"PASAR","TIPE_3":"PASAR TRADISIONAL","TELEPON":"0896-2905-4082","ALAMAT":"RT.22/RW.16, KAPUK, KECAMATAN CENGKARENG, KOTA JAKARTA BARAT, DAERAH KHUSUS IBUKOTA JAKARTA 11720","ID_PROV":"31","PROVINSI":"DKI JAKARTA","ID_KABKOT":"31.73","KABKOT":"KOTA ADM. JAKARTA BARAT","ID_KEC":"31.73.01","KECAMATAN":"CENGKARENG","ID_DESA":"31.73.01.1006","DESA":"CENGKARENG TIMUR","LATITUDE":-6.1350298,"LONGITUDE":106.7410592,"STATUS":"BUKA","TANGGAL PENGUMPULAN":"Q2 2025","TANGGAL UPDATE":"17/06/2025"}},{"type":"Feature","geometry":{"coordinates":[106.7511966,-6.1947021],"type":"Point"},"properties":{"NAMA":"PASAR TAMAN ARIES","TIPE_1":"PERDAGANGAN DAN RETAIL","TIPE_2":"PASAR","TIPE_3":"PASAR TRADISIONAL","TELEPON":"","ALAMAT":"JL. ARIES UTAMA NO.49, RT.3/RW.3, MERUYA UTARA, KEC. KEMBANGAN, KOTA JAKARTA BARAT, DAERAH KHUSUS IBUKOTA JAKARTA 11620","ID_PROV":"31","PROVINSI":"DKI JAKARTA","ID_KABKOT":"31.73","KABKOT":"KOTA ADM. JAKARTA BARAT","ID_KEC":"31.73.08","KECAMATAN":"KEMBANGAN","ID_DESA":"31.73.08.1002","DESA":"MERUYA UTARA","LATITUDE":-6.1947021,"LONGITUDE":106.7511966,"STATUS":"BUKA","TANGGAL PENGUMPULAN":"Q2 2025","TANGGAL UPDATE":"17/06/2025"}},{"type":"Feature","geometry":{"coordinates":[106.7176264,-6.1309318],"type":"Point"},"properties":{"NAMA":"PASAR TAMAN PALEM LESTARI","TIPE_1":"PERDAGANGAN DAN RETAIL","TIPE_2":"PASAR","TIPE_3":"PASAR TRADISIONAL","TELEPON":"","ALAMAT":"RT.1/RW.13, CENGKARENG BAR., KECAMATAN CENGKARENG, KOTA JAKARTA BARAT, DAERAH KHUSUS IBUKOTA JAKARTA 11820","ID_PROV":"31","PROVINSI":"DKI JAKARTA","ID_KABKOT":"31.73","KABKOT":"KOTA ADM. JAKARTA BARAT","ID_KEC":"31.73.01","KECAMATAN":"CENGKARENG","ID_DESA":"31.73.01.1001","DESA":"CENGKARENG BARAT","LATITUDE":-6.1309318,"LONGITUDE":106.7176264,"STATUS":"BUKA","TANGGAL PENGUMPULAN":"Q2 2025","TANGGAL UPDATE":"17/06/2025"}},{"type":"Feature","geometry":{"coordinates":[106.820838,-6.145221],"type":"Point"},"properties":{"NAMA":"PASAR TANGKI LIO","TIPE_1":"PERDAGANGAN DAN RETAIL","TIPE_2":"PASAR","TIPE_3":"PASAR TRADISIONAL","TELEPON":"","ALAMAT":"JL. TANGKI TIMUR NO.48 4, RT.4/RW.4, TANGKI, KEC. TAMAN SARI, KOTA JAKARTA BARAT, DAERAH KHUSUS IBUKOTA JAKARTA 11180","ID_PROV":"31","PROVINSI":"DKI JAKARTA","ID_KABKOT":"31.73","KABKOT":"KOTA ADM. JAKARTA BARAT","ID_KEC":"31.73.03","KECAMATAN":"TAMAN SARI","ID_DESA":"31.73.03.1004","DESA":"TANGKI","LATITUDE":-6.145221,"LONGITUDE":106.820838,"STATUS":"BUKA","TANGGAL PENGUMPULAN":"Q2 2025","TANGGAL UPDATE":"17/06/2025"}},{"type":"Feature","geometry":{"coordinates":[106.75980829999999,-6.1384433],"type":"Point"},"properties":{"NAMA":"PASAR TANIWAN","TIPE_1":"PERDAGANGAN DAN RETAIL","TIPE_2":"PASAR","TIPE_3":"PASAR TRADISIONAL","TELEPON":"0878-7688-2501","ALAMAT":"NO.28B, GG. LANGGAR I, RT.7/RW.5, KAPUK, KECAMATAN CENGKARENG, JKT UTARA, DAERAH KHUSUS IBUKOTA JAKARTA 11720","ID_PROV":"31","PROVINSI":"DKI JAKARTA","ID_KABKOT":"31.73","KABKOT":"KOTA ADM. JAKARTA BARAT","ID_KEC":"31.73.01","KECAMATAN":"CENGKARENG","ID_DESA":"31.73.01.1005","DESA":"KAPUK","LATITUDE":-6.1384433,"LONGITUDE":106.7598083,"STATUS":"BUKA","TANGGAL PENGUMPULAN":"Q2 2025","TANGGAL UPDATE":"17/06/2025"}},{"type":"Feature","geometry":{"coordinates":[106.7493787,-6.1478875],"type":"Point"},"properties":{"NAMA":"PASAR TB","TIPE_1":"PERDAGANGAN DAN RETAIL","TIPE_2":"PASAR","TIPE_3":"PASAR TRADISIONAL","TELEPON":"","ALAMAT":"PS. TERM., JL. PEDONGKELAN RAYA NO.68 2, RT.2/RW.14, KAPUK, KECAMATAN CENGKARENG, KOTA JAKARTA BARAT, DAERAH KHUSUS IBUKOTA JAKARTA 11720","ID_PROV":"31","PROVINSI":"DKI JAKARTA","ID_KABKOT":"31.73","KABKOT":"KOTA ADM. JAKARTA BARAT","ID_KEC":"31.73.01","KECAMATAN":"CENGKARENG","ID_DESA":"31.73.01.1005","DESA":"KAPUK","LATITUDE":-6.1478875,"LONGITUDE":106.7493787,"STATUS":"BUKA","TANGGAL PENGUMPULAN":"Q2 2025","TANGGAL UPDATE":"17/06/2025"}},{"type":"Feature","geometry":{"coordinates":[106.7460988,-6.1412097],"type":"Point"},"properties":{"NAMA":"PASAR TIMBUL","TIPE_1":"PERDAGANGAN DAN RETAIL","TIPE_2":"PASAR","TIPE_3":"PASAR TRADISIONAL","TELEPON":"","ALAMAT":"JL. AL FALAH Ⅱ NO.7, RT.3/RW.16, KAPUK, KECAMATAN CENGKARENG, KOTA JAKARTA BARAT, DAERAH KHUSUS IBUKOTA JAKARTA 11720","ID_PROV":"31","PROVINSI":"DKI JAKARTA","ID_KABKOT":"31.73","KABKOT":"KOTA ADM. JAKARTA BARAT","ID_KEC":"31.73.01","KECAMATAN":"CENGKARENG","ID_DESA":"31.73.01.1005","DESA":"KAPUK","LATITUDE":-6.1412097,"LONGITUDE":106.7460988,"STATUS":"BUKA","TANGGAL PENGUMPULAN":"Q2 2025","TANGGAL UPDATE":"17/06/2025"}},{"type":"Feature","geometry":{"coordinates":[106.7953079,-6.1725107],"type":"Point"},"properties":{"NAMA":"PASAR TIMBUL TOMANG","TIPE_1":"PERDAGANGAN DAN RETAIL","TIPE_2":"PASAR","TIPE_3":"PASAR TRADISIONAL","TELEPON":"0857-7565-0560","ALAMAT":"PS. TIMBUL BAR., JL. TOMANG TINGGI RAYA NO.11, RT.11/RW.7, TOMANG, KEC. GROGOL PETAMBURAN, KOTA JAKARTA BARAT, DAERAH KHUSUS IBUKOTA JAKARTA 11440","ID_PROV":"31","PROVINSI":"DKI JAKARTA","ID_KABKOT":"31.73","KABKOT":"KOTA ADM. JAKARTA BARAT","ID_KEC":"31.73.02","KECAMATAN":"GROGOL PETAMBURAN","ID_DESA":"31.73.02.1003","DESA":"TOMANG","LATITUDE":-6.1725107,"LONGITUDE":106.7953079,"STATUS":"BUKA","TANGGAL PENGUMPULAN":"Q2 2025","TANGGAL UPDATE":"17/06/2025"}},{"type":"Feature","geometry":{"coordinates":[106.8061628,-6.1771179],"type":"Point"},"properties":{"NAMA":"PASAR TOMANG ASLI","TIPE_1":"PERDAGANGAN DAN RETAIL","TIPE_2":"PASAR","TIPE_3":"PASAR TRADISIONAL","TELEPON":"","ALAMAT":"JL. TOMANG ASLI NO.60 1, RT.10/RW.5, JATIPULO, KEC. PALMERAH, KOTA JAKARTA BARAT, DAERAH KHUSUS IBUKOTA JAKARTA 11430","ID_PROV":"31","PROVINSI":"DKI JAKARTA","ID_KABKOT":"31.73","KABKOT":"KOTA ADM. JAKARTA BARAT","ID_KEC":"31.73.07","KECAMATAN":"PAL MERAH","ID_DESA":"31.73.07.1004","DESA":"JATIPULO","LATITUDE":-6.1771179,"LONGITUDE":106.8061628,"STATUS":"BUKA","TANGGAL PENGUMPULAN":"Q2 2025","TANGGAL UPDATE":"17/06/2025"}},{"type":"Feature","geometry":{"coordinates":[106.7378874,-6.1328904],"type":"Point"},"properties":{"NAMA":"PASAR TRADISIONAL","TIPE_1":"PERDAGANGAN DAN RETAIL","TIPE_2":"PASAR","TIPE_3":"PASAR TRADISIONAL","TELEPON":"","ALAMAT":"JL. RUSUN BCI RAYA NO.7, RT.7/RW.14, EAST CENGKARENG, CENGKARENG, WEST JAKARTA CITY, JAKARTA 11730","ID_PROV":"31","PROVINSI":"DKI JAKARTA","ID_KABKOT":"31.73","KABKOT":"KOTA ADM. JAKARTA BARAT","ID_KEC":"31.73.01","KECAMATAN":"CENGKARENG","ID_DESA":"31.73.01.1006","DESA":"CENGKARENG TIMUR","LATITUDE":-6.1328904,"LONGITUDE":106.7378874,"STATUS":"BUKA","TANGGAL PENGUMPULAN":"Q2 2025","TANGGAL UPDATE":"17/06/2025"}},{"type":"Feature","geometry":{"coordinates":[106.7398787,-6.1291333],"type":"Point"},"properties":{"NAMA":"PASAR TRADISIONAL","TIPE_1":"PERDAGANGAN DAN RETAIL","TIPE_2":"PASAR","TIPE_3":"PASAR TRADISIONAL","TELEPON":"","ALAMAT":"JL. MANUNGGAL, RT.13/RW.11, KAPUK, CENGKARENG, WEST JAKARTA CITY, JAKARTA","ID_PROV":"31","PROVINSI":"DKI JAKARTA","ID_KABKOT":"31.73","KABKOT":"KOTA ADM. JAKARTA BARAT","ID_KEC":"31.73.01","KECAMATAN":"CENGKARENG","ID_DESA":"31.73.01.1005","DESA":"KAPUK","LATITUDE":-6.1291333,"LONGITUDE":106.7398787,"STATUS":"BUKA","TANGGAL PENGUMPULAN":"Q2 2025","TANGGAL UPDATE":"17/06/2025"}},{"type":"Feature","geometry":{"coordinates":[106.7739381,-6.2006813],"type":"Point"},"properties":{"NAMA":"PASAR TRADISIONAL MUSYAWARAH","TIPE_1":"PERDAGANGAN DAN RETAIL","TIPE_2":"PASAR","TIPE_3":"PASAR TRADISIONAL","TELEPON":"","ALAMAT":"JL. MUSYAWARAH NO.9 10, RT.12/RW.2, KEBON JERUK, KEBONJERUK, WEST JAKARTA CITY, JAKARTA 11530","ID_PROV":"31","PROVINSI":"DKI JAKARTA","ID_KABKOT":"31.73","KABKOT":"KOTA ADM. JAKARTA BARAT","ID_KEC":"31.73.05","KECAMATAN":"KEBON JERUK","ID_DESA":"31.73.05.1001","DESA":"KEBON JERUK","LATITUDE":-6.2006813,"LONGITUDE":106.7739381,"STATUS":"BUKA","TANGGAL PENGUMPULAN":"Q2 2025","TANGGAL UPDATE":"17/06/2025"}},{"type":"Feature","geometry":{"coordinates":[106.690408,-6.1382331],"type":"Point"},"properties":{"NAMA":"PASAR TRADISIONAL RAWA LELE, KALIDERES","TIPE_1":"PERDAGANGAN DAN RETAIL","TIPE_2":"PASAR","TIPE_3":"PASAR TRADISIONAL","TELEPON":"(021) 29863201","ALAMAT":"JL. KEBAHAGIAAN UTARA NO.23, JURUMUDI, KEC. KALIDERES, KOTA JAKARTA BARAT, DAERAH KHUSUS IBUKOTA JAKARTA 15124","ID_PROV":"31","PROVINSI":"DKI JAKARTA","ID_KABKOT":"31.73","KABKOT":"KOTA ADM. JAKARTA BARAT","ID_KEC":"31.73.06","KECAMATAN":"KALIDERES","ID_DESA":"31.73.06.1001","DESA":"KALIDERES","LATITUDE":-6.1382331,"LONGITUDE":106.690408,"STATUS":"BUKA","TANGGAL PENGUMPULAN":"Q2 2025","TANGGAL UPDATE":"17/06/2025"}},{"type":"Feature","geometry":{"coordinates":[106.8225655,-6.1428122],"type":"Point"},"properties":{"NAMA":"PASAR TUMPAH PAGI MANGGA BESAR","TIPE_1":"PERDAGANGAN DAN RETAIL","TIPE_2":"PASAR","TIPE_3":"PASAR TRADISIONAL","TELEPON":"","ALAMAT":"JL. MANGGA BESAR IX NO.1, TANGKI, TAMAN SARI, WEST JAKARTA CITY, JAKARTA 11170","ID_PROV":"31","PROVINSI":"DKI JAKARTA","ID_KABKOT":"31.73","KABKOT":"KOTA ADM. JAKARTA BARAT","ID_KEC":"31.73.03","KECAMATAN":"TAMAN SARI","ID_DESA":"31.73.03.1004","DESA":"TANGKI","LATITUDE":-6.1428122,"LONGITUDE":106.8225655,"STATUS":"BUKA","TANGGAL PENGUMPULAN":"Q2 2025","TANGGAL UPDATE":"17/06/2025"}},{"type":"Feature","geometry":{"coordinates":[106.69439279999999,-6.1335069],"type":"Point"},"properties":{"NAMA":"THE MARKET PLACE PASAR MODERN","TIPE_1":"PERDAGANGAN DAN RETAIL","TIPE_2":"PASAR","TIPE_3":"PASAR MODERN","TELEPON":"","ALAMAT":"JL. CITRA DUA EXTENSION, RT.2/RW.8, PEGADUNGAN, KEC. KALIDERES, KOTA JAKARTA BARAT, DAERAH KHUSUS IBUKOTA JAKARTA 11830","ID_PROV":"31","PROVINSI":"DKI JAKARTA","ID_KABKOT":"31.73","KABKOT":"KOTA ADM. JAKARTA BARAT","ID_KEC":"31.73.06","KECAMATAN":"KALIDERES","ID_DESA":"31.73.06.1005","DESA":"PEGADUNGAN","LATITUDE":-6.1335069,"LONGITUDE":106.6943928,"STATUS":"BUKA","TANGGAL PENGUMPULAN":"Q2 2025","TANGGAL UPDATE":"17/06/2025"}}]}