{"type":"FeatureCollection","features":[{"type":"Feature","geometry":{"coordinates":[106.808164,-6.6381942],"type":"Point"},"properties":{"NAMA":"PASAR PAMOYANAN","TIPE_1":"PERDAGANGAN DAN RETAIL","TIPE_2":"PASAR","TIPE_3":"PASAR TRADISIONAL","TELEPON":"","ALAMAT":"RT.02/RW.02, PAMOYANAN, KEC. BOGOR SEL., KOTA BOGOR, JAWA BARAT 16136","ID_PROV":"32","PROVINSI":"JAWA BARAT","ID_KABKOT":"32.71","KABKOT":"KOTA BOGOR","ID_KEC":"32.71.01","KECAMATAN":"BOGOR SELATAN","ID_DESA":"32.71.01.1005","DESA":"PAMOYANAN","LATITUDE":-6.6381942,"LONGITUDE":106.808164,"STATUS":"BUKA","TANGGAL PENGUMPULAN":"Q2 2025","TANGGAL UPDATE":"17/06/2025"}},{"type":"Feature","geometry":{"coordinates":[106.8151473,-6.5530061],"type":"Point"},"properties":{"NAMA":"PASAR MINGGU SIDOTANI 1","TIPE_1":"PERDAGANGAN DAN RETAIL","TIPE_2":"PASAR","TIPE_3":"PASAR TRADISIONAL","TELEPON":"","ALAMAT":"JL. PENDIDIKAN RAYA NO.1, RT.03/RW.03, KEDUNGHALANG, KEC. BOGOR UTARA, KOTA BOGOR, JAWA BARAT 16157","ID_PROV":"32","PROVINSI":"JAWA BARAT","ID_KABKOT":"32.71","KABKOT":"KOTA BOGOR","ID_KEC":"32.71.05","KECAMATAN":"BOGOR UTARA","ID_DESA":"32.71.05.1003","DESA":"KEDUNG HALANG","LATITUDE":-6.5530061,"LONGITUDE":106.8151473,"STATUS":"BUKA","TANGGAL PENGUMPULAN":"Q2 2025","TANGGAL UPDATE":"17/06/2025"}},{"type":"Feature","geometry":{"coordinates":[106.7868859,-6.5921427],"type":"Point"},"properties":{"NAMA":"PASAR MERDEKA BOGOR","TIPE_1":"PERDAGANGAN DAN RETAIL","TIPE_2":"PASAR","TIPE_3":"PASAR TRADISIONAL","TELEPON":"","ALAMAT":"DEKAT, RT.05/RW.03, KEBON KELAPA, BOGOR TENGAH, BOGOR CITY, WEST JAVA 16125","ID_PROV":"32","PROVINSI":"JAWA BARAT","ID_KABKOT":"32.71","KABKOT":"KOTA BOGOR","ID_KEC":"32.71.03","KECAMATAN":"BOGOR TENGAH","ID_DESA":"32.71.03.1011","DESA":"KEBON KALAPA","LATITUDE":-6.5921427,"LONGITUDE":106.7868859,"STATUS":"BUKA","TANGGAL PENGUMPULAN":"Q2 2025","TANGGAL UPDATE":"17/06/2025"}},{"type":"Feature","geometry":{"coordinates":[106.7871122,-6.5924738],"type":"Point"},"properties":{"NAMA":"PASAR MERDEKA BOGOR","TIPE_1":"PERDAGANGAN DAN RETAIL","TIPE_2":"PASAR","TIPE_3":"PASAR TRADISIONAL","TELEPON":"","ALAMAT":"DEKAT, RT.05/RW.03, KEBON KELAPA, BOGOR TENGAH, BOGOR CITY, WEST JAVA 16125","ID_PROV":"32","PROVINSI":"JAWA BARAT","ID_KABKOT":"32.71","KABKOT":"KOTA BOGOR","ID_KEC":"32.71.03","KECAMATAN":"BOGOR TENGAH","ID_DESA":"32.71.03.1011","DESA":"KEBON KALAPA","LATITUDE":-6.5924738,"LONGITUDE":106.7871122,"STATUS":"BUKA","TANGGAL PENGUMPULAN":"Q2 2025","TANGGAL UPDATE":"17/06/2025"}},{"type":"Feature","geometry":{"coordinates":[106.7866135,-6.5908409],"type":"Point"},"properties":{"NAMA":"PASAR MAWAR","TIPE_1":"PERDAGANGAN DAN RETAIL","TIPE_2":"PASAR","TIPE_3":"PASAR TRADISIONAL","TELEPON":"","ALAMAT":"JL. DR. SUMERU NO.14, RT.03/RW.05, KB. KLP., KECAMATAN BOGOR TENGAH, KOTA BOGOR, JAWA BARAT 16125","ID_PROV":"32","PROVINSI":"JAWA BARAT","ID_KABKOT":"32.71","KABKOT":"KOTA BOGOR","ID_KEC":"32.71.03","KECAMATAN":"BOGOR TENGAH","ID_DESA":"32.71.03.1011","DESA":"KEBON KALAPA","LATITUDE":-6.5908409,"LONGITUDE":106.7866135,"STATUS":"BUKA","TANGGAL PENGUMPULAN":"Q2 2025","TANGGAL UPDATE":"17/06/2025"}},{"type":"Feature","geometry":{"coordinates":[106.7874371,-6.5791742],"type":"Point"},"properties":{"NAMA":"PASAR MITRA TANI BOGOR","TIPE_1":"PERDAGANGAN DAN RETAIL","TIPE_2":"PASAR","TIPE_3":"PASAR TRADISIONAL","TELEPON":"0898-9411-247","ALAMAT":"JL. TENTARA PELAJAR JL. CIMANGGU BARATA NO.01, MENTENG, KEC. BOGOR BAR., KOTA BOGOR, JAWA BARAT 16162","ID_PROV":"32","PROVINSI":"JAWA BARAT","ID_KABKOT":"32.71","KABKOT":"KOTA BOGOR","ID_KEC":"32.71.04","KECAMATAN":"BOGOR BARAT","ID_DESA":"32.71.04.1001","DESA":"MENTENG","LATITUDE":-6.5791742,"LONGITUDE":106.7874371,"STATUS":"BUKA","TANGGAL PENGUMPULAN":"Q2 2025","TANGGAL UPDATE":"17/06/2025"}},{"type":"Feature","geometry":{"coordinates":[106.8232291,-6.557245],"type":"Point"},"properties":{"NAMA":"PASAR MINI SAYUR MADINA V","TIPE_1":"PERDAGANGAN DAN RETAIL","TIPE_2":"PASAR","TIPE_3":"PASAR TRADISIONAL","TELEPON":"0813-1776-2859","ALAMAT":"JL. PANGERAN SOGIRI NO.394, RT.03/RW.02, TANAH BARU, KEC. BOGOR UTARA, KOTA BOGOR, JAWA BARAT 16154","ID_PROV":"32","PROVINSI":"JAWA BARAT","ID_KABKOT":"32.71","KABKOT":"KOTA BOGOR","ID_KEC":"32.71.05","KECAMATAN":"BOGOR UTARA","ID_DESA":"32.71.05.1007","DESA":"TANAH BARU","LATITUDE":-6.557245,"LONGITUDE":106.8232291,"STATUS":"BUKA","TANGGAL PENGUMPULAN":"Q2 2025","TANGGAL UPDATE":"17/06/2025"}},{"type":"Feature","geometry":{"coordinates":[106.7608616,-6.5792523],"type":"Point"},"properties":{"NAMA":"PASAR LALADON","TIPE_1":"PERDAGANGAN DAN RETAIL","TIPE_2":"PASAR","TIPE_3":"PASAR TRADISIONAL","TELEPON":"","ALAMAT":"JL. LETJEN IBRAHIM ADJIE, SINDANGBARANG, KEC. BOGOR BAR., KABUPATEN BOGOR, JAWA BARAT","ID_PROV":"32","PROVINSI":"JAWA BARAT","ID_KABKOT":"32.71","KABKOT":"KOTA BOGOR","ID_KEC":"32.71.04","KECAMATAN":"BOGOR BARAT","ID_DESA":"32.71.04.1002","DESA":"SINDANG BARANG","LATITUDE":-6.5792523,"LONGITUDE":106.7608616,"STATUS":"BUKA","TANGGAL PENGUMPULAN":"Q2 2025","TANGGAL UPDATE":"17/06/2025"}},{"type":"Feature","geometry":{"coordinates":[106.79467419999999,-6.6104778],"type":"Point"},"properties":{"NAMA":"PASAR LEDENG","TIPE_1":"PERDAGANGAN DAN RETAIL","TIPE_2":"PASAR","TIPE_3":"PASAR TRADISIONAL","TELEPON":"0856-7272-676","ALAMAT":"JL. SEDANE, RT.01/RW.03, EMPANG, KEC. BOGOR SEL., KOTA BOGOR, JAWA BARAT 16132","ID_PROV":"32","PROVINSI":"JAWA BARAT","ID_KABKOT":"32.71","KABKOT":"KOTA BOGOR","ID_KEC":"32.71.01","KECAMATAN":"BOGOR SELATAN","ID_DESA":"32.71.01.1003","DESA":"EMPANG","LATITUDE":-6.6104778,"LONGITUDE":106.7946742,"STATUS":"BUKA","TANGGAL PENGUMPULAN":"Q2 2025","TANGGAL UPDATE":"17/06/2025"}},{"type":"Feature","geometry":{"coordinates":[106.7924351,-6.6106801],"type":"Point"},"properties":{"NAMA":"PASAR KAPALASIA","TIPE_1":"PERDAGANGAN DAN RETAIL","TIPE_2":"PASAR","TIPE_3":"PASAR TRADISIONAL","TELEPON":"","ALAMAT":"JL. RAYA MUARA NO.25-11, RT.02/RW.01, PASIRKUDA, KEC. BOGOR BAR., KOTA BOGOR, JAWA BARAT 16119","ID_PROV":"32","PROVINSI":"JAWA BARAT","ID_KABKOT":"32.71","KABKOT":"KOTA BOGOR","ID_KEC":"32.71.04","KECAMATAN":"BOGOR BARAT","ID_DESA":"32.71.04.1012","DESA":"PASIR JAYA","LATITUDE":-6.6106801,"LONGITUDE":106.7924351,"STATUS":"BUKA","TANGGAL PENGUMPULAN":"Q2 2025","TANGGAL UPDATE":"17/06/2025"}},{"type":"Feature","geometry":{"coordinates":[106.7897605,-6.6403934],"type":"Point"},"properties":{"NAMA":"PASAR KEMBANG SALAKA MULYAHARJA","TIPE_1":"PERDAGANGAN DAN RETAIL","TIPE_2":"PASAR","TIPE_3":"PASAR TRADISIONAL","TELEPON":"","ALAMAT":"RT.02/RW.04, MULYAHARJA, BOGOR SELATAN, BOGOR CITY, WEST JAVA 16135","ID_PROV":"32","PROVINSI":"JAWA BARAT","ID_KABKOT":"32.71","KABKOT":"KOTA BOGOR","ID_KEC":"32.71.01","KECAMATAN":"BOGOR SELATAN","ID_DESA":"32.71.01.1007","DESA":"MULYA HARJA","LATITUDE":-6.6403934,"LONGITUDE":106.7897605,"STATUS":"BUKA","TANGGAL PENGUMPULAN":"Q2 2025","TANGGAL UPDATE":"17/06/2025"}},{"type":"Feature","geometry":{"coordinates":[106.7922334,-6.5928196],"type":"Point"},"properties":{"NAMA":"PASAR KEBON KEMBANG BLOK F TRADE CENTER","TIPE_1":"PERDAGANGAN DAN RETAIL","TIPE_2":"PASAR","TIPE_3":"PASAR TRADISIONAL","TELEPON":"","ALAMAT":"PASAR KEBON KEMBANG BOGOR, JL. DEWI SARTIKA, RT.04/RW.06, CIBOGOR, KECAMATAN BOGOR TENGAH, KOTA BOGOR, JAWA BARAT 16124","ID_PROV":"32","PROVINSI":"JAWA BARAT","ID_KABKOT":"32.71","KABKOT":"KOTA BOGOR","ID_KEC":"32.71.03","KECAMATAN":"BOGOR TENGAH","ID_DESA":"32.71.03.1004","DESA":"CIBOGOR","LATITUDE":-6.5928196,"LONGITUDE":106.7922334,"STATUS":"BUKA","TANGGAL PENGUMPULAN":"Q2 2025","TANGGAL UPDATE":"17/06/2025"}},{"type":"Feature","geometry":{"coordinates":[106.7922741,-6.5920282],"type":"Point"},"properties":{"NAMA":"PASAR KEBON KEMBANG BLOK A-B PASAR ANYAR","TIPE_1":"PERDAGANGAN DAN RETAIL","TIPE_2":"PASAR","TIPE_3":"PASAR TRADISIONAL","TELEPON":"0811-1002-059","ALAMAT":"JL. DEWI SARTIKA, CIBOGOR, BOGOR TENGAH, BOGOR CITY, WEST JAVA 16124","ID_PROV":"32","PROVINSI":"JAWA BARAT","ID_KABKOT":"32.71","KABKOT":"KOTA BOGOR","ID_KEC":"32.71.03","KECAMATAN":"BOGOR TENGAH","ID_DESA":"32.71.03.1004","DESA":"CIBOGOR","LATITUDE":-6.5920282,"LONGITUDE":106.7922741,"STATUS":"BUKA","TANGGAL PENGUMPULAN":"Q2 2025","TANGGAL UPDATE":"17/06/2025"}},{"type":"Feature","geometry":{"coordinates":[106.7931768,-6.590999],"type":"Point"},"properties":{"NAMA":"PASAR KEBON KEMBANG BOGOR PS.ANYAR","TIPE_1":"PERDAGANGAN DAN RETAIL","TIPE_2":"PASAR","TIPE_3":"PASAR TRADISIONAL","TELEPON":"","ALAMAT":"JL. PABATON NO.24-20, RT.02/RW.01, PABATON, KECAMATAN BOGOR TENGAH, KOTA BOGOR, JAWA BARAT 16121","ID_PROV":"32","PROVINSI":"JAWA BARAT","ID_KABKOT":"32.71","KABKOT":"KOTA BOGOR","ID_KEC":"32.71.03","KECAMATAN":"BOGOR TENGAH","ID_DESA":"32.71.03.1003","DESA":"PABATON","LATITUDE":-6.590999,"LONGITUDE":106.7931768,"STATUS":"BUKA","TANGGAL PENGUMPULAN":"Q2 2025","TANGGAL UPDATE":"17/06/2025"}},{"type":"Feature","geometry":{"coordinates":[106.8073376,-6.5702177],"type":"Point"},"properties":{"NAMA":"PASAR INDUK WARUNG JAMBU","TIPE_1":"PERDAGANGAN DAN RETAIL","TIPE_2":"PASAR","TIPE_3":"PASAR TRADISIONAL","TELEPON":"","ALAMAT":"JL. CIREMEI UJUNG NO.258, RT.04/RW.04, BANTARJATI, KEC. BOGOR UTARA, KOTA BOGOR, JAWA BARAT 16153","ID_PROV":"32","PROVINSI":"JAWA BARAT","ID_KABKOT":"32.71","KABKOT":"KOTA BOGOR","ID_KEC":"32.71.06","KECAMATAN":"TANAH SAREAL","ID_DESA":"32.71.06.1001","DESA":"TANAH SAREAL","LATITUDE":-6.5702177,"LONGITUDE":106.8073376,"STATUS":"BUKA","TANGGAL PENGUMPULAN":"Q2 2025","TANGGAL UPDATE":"17/06/2025"}},{"type":"Feature","geometry":{"coordinates":[106.7699972,-6.5387293],"type":"Point"},"properties":{"NAMA":"PASAR INDUK KEMANG TU BOGOR","TIPE_1":"PERDAGANGAN DAN RETAIL","TIPE_2":"PASAR","TIPE_3":"PASAR TRADISIONAL","TELEPON":"","ALAMAT":"RT.02/RW.01, CIBADAK, KEC. TANAH SEREAL, KOTA BOGOR, JAWA BARAT 16166","ID_PROV":"32","PROVINSI":"JAWA BARAT","ID_KABKOT":"32.71","KABKOT":"KOTA BOGOR","ID_KEC":"32.71.06","KECAMATAN":"TANAH SAREAL","ID_DESA":"32.71.06.1011","DESA":"CIBADAK","LATITUDE":-6.5387293,"LONGITUDE":106.7699972,"STATUS":"BUKA","TANGGAL PENGUMPULAN":"Q2 2025","TANGGAL UPDATE":"17/06/2025"}},{"type":"Feature","geometry":{"coordinates":[106.8085221,-6.6040566],"type":"Point"},"properties":{"NAMA":"PASAR IKAN HIAS KOTA BOGOR","TIPE_1":"PERDAGANGAN DAN RETAIL","TIPE_2":"PASAR","TIPE_3":"PASAR TRADISIONAL","TELEPON":"","ALAMAT":"JL. BINA MARGA, RT.04/RW.11, BARANANGSIANG, KEC. BOGOR TIM., KOTA BOGOR, JAWA BARAT 16143","ID_PROV":"32","PROVINSI":"JAWA BARAT","ID_KABKOT":"32.71","KABKOT":"KOTA BOGOR","ID_KEC":"32.71.02","KECAMATAN":"BOGOR TIMUR","ID_DESA":"32.71.02.1002","DESA":"BARANANGSIANG","LATITUDE":-6.6040566,"LONGITUDE":106.8085221,"STATUS":"BUKA","TANGGAL PENGUMPULAN":"Q2 2025","TANGGAL UPDATE":"17/06/2025"}},{"type":"Feature","geometry":{"coordinates":[106.7886223,-6.590356],"type":"Point"},"properties":{"NAMA":"PASAR KAGET","TIPE_1":"PERDAGANGAN DAN RETAIL","TIPE_2":"PASAR","TIPE_3":"PASAR TRADISIONAL","TELEPON":"0881-1662-828","ALAMAT":"JL. M.A SALMUN NO.41, RT.02/RW.03, CIWARINGIN, BOGOR TENGAH, BOGOR CITY, WEST JAVA 16124","ID_PROV":"32","PROVINSI":"JAWA BARAT","ID_KABKOT":"32.71","KABKOT":"KOTA BOGOR","ID_KEC":"32.71.03","KECAMATAN":"BOGOR TENGAH","ID_DESA":"32.71.03.1010","DESA":"CIWARINGIN","LATITUDE":-6.590356,"LONGITUDE":106.7886223,"STATUS":"BUKA","TANGGAL PENGUMPULAN":"Q2 2025","TANGGAL UPDATE":"17/06/2025"}},{"type":"Feature","geometry":{"coordinates":[106.8165645,-6.5988271],"type":"Point"},"properties":{"NAMA":"PASAR JATINEGARA","TIPE_1":"PERDAGANGAN DAN RETAIL","TIPE_2":"PASAR","TIPE_3":"PASAR TRADISIONAL","TELEPON":"","ALAMAT":"JL. SAGU NO.1, RT.01/RW.09, BARANANGSIANG, KEC. BOGOR TIM., KOTA BOGOR, JAWA BARAT 16143","ID_PROV":"32","PROVINSI":"JAWA BARAT","ID_KABKOT":"32.71","KABKOT":"KOTA BOGOR","ID_KEC":"32.71.02","KECAMATAN":"BOGOR TIMUR","ID_DESA":"32.71.02.1002","DESA":"BARANANGSIANG","LATITUDE":-6.5988271,"LONGITUDE":106.8165645,"STATUS":"BUKA","TANGGAL PENGUMPULAN":"Q2 2025","TANGGAL UPDATE":"17/06/2025"}},{"type":"Feature","geometry":{"coordinates":[106.8069145,-6.5710543],"type":"Point"},"properties":{"NAMA":"PASAR JAMBU 02","TIPE_1":"PERDAGANGAN DAN RETAIL","TIPE_2":"PASAR","TIPE_3":"PASAR TRADISIONAL","TELEPON":"","ALAMAT":"RT.02/RW.04, TANAH SAREAL, TANAH SEREAL, BOGOR CITY, WEST JAVA 16161","ID_PROV":"32","PROVINSI":"JAWA BARAT","ID_KABKOT":"32.71","KABKOT":"KOTA BOGOR","ID_KEC":"32.71.06","KECAMATAN":"TANAH SAREAL","ID_DESA":"32.71.06.1001","DESA":"TANAH SAREAL","LATITUDE":-6.5710543,"LONGITUDE":106.8069145,"STATUS":"BUKA","TANGGAL PENGUMPULAN":"Q2 2025","TANGGAL UPDATE":"17/06/2025"}},{"type":"Feature","geometry":{"coordinates":[106.8063004,-6.6106324],"type":"Point"},"properties":{"NAMA":"PASAR GEMBRONG SUKASARI","TIPE_1":"PERDAGANGAN DAN RETAIL","TIPE_2":"PASAR","TIPE_3":"PASAR TRADISIONAL","TELEPON":"","ALAMAT":"JL. SILIWANGI NO.35, RT.007/RW.002, SUKASARI, KEC. BOGOR TIM., KOTA BOGOR, JAWA BARAT 16142","ID_PROV":"32","PROVINSI":"JAWA BARAT","ID_KABKOT":"32.71","KABKOT":"KOTA BOGOR","ID_KEC":"32.71.02","KECAMATAN":"BOGOR TIMUR","ID_DESA":"32.71.02.1001","DESA":"SUKASARI","LATITUDE":-6.6106324,"LONGITUDE":106.8063004,"STATUS":"BUKA","TANGGAL PENGUMPULAN":"Q2 2025","TANGGAL UPDATE":"17/06/2025"}},{"type":"Feature","geometry":{"coordinates":[106.8248478,-6.5584956],"type":"Point"},"properties":{"NAMA":"PASAR DONGKO","TIPE_1":"PERDAGANGAN DAN RETAIL","TIPE_2":"PASAR","TIPE_3":"PASAR TRADISIONAL","TELEPON":"","ALAMAT":"JL. RAYA BOGOR, RT.03/RW.02, TANAH BARU, KEC. BOGOR UTARA, KOTA BOGOR, JAWA BARAT 16154","ID_PROV":"32","PROVINSI":"JAWA BARAT","ID_KABKOT":"32.71","KABKOT":"KOTA BOGOR","ID_KEC":"32.71.05","KECAMATAN":"BOGOR UTARA","ID_DESA":"32.71.05.1006","DESA":"CILUAR","LATITUDE":-6.5584956,"LONGITUDE":106.8248478,"STATUS":"BUKA","TANGGAL PENGUMPULAN":"Q2 2025","TANGGAL UPDATE":"17/06/2025"}},{"type":"Feature","geometry":{"coordinates":[106.787473,-6.595595],"type":"Point"},"properties":{"NAMA":"PASAR DEVRIS","TIPE_1":"PERDAGANGAN DAN RETAIL","TIPE_2":"PASAR","TIPE_3":"PASAR TRADISIONAL","TELEPON":"","ALAMAT":"JL. VETERAN, RT.03/RW.04, PANARAGAN, KECAMATAN BOGOR TENGAH, KOTA BOGOR, JAWA BARAT 16125","ID_PROV":"32","PROVINSI":"JAWA BARAT","ID_KABKOT":"32.71","KABKOT":"KOTA BOGOR","ID_KEC":"32.71.03","KECAMATAN":"BOGOR TENGAH","ID_DESA":"32.71.03.1009","DESA":"PANARAGAN","LATITUDE":-6.595595,"LONGITUDE":106.787473,"STATUS":"BUKA","TANGGAL PENGUMPULAN":"Q2 2025","TANGGAL UPDATE":"17/06/2025"}},{"type":"Feature","geometry":{"coordinates":[106.75889559999999,-6.5670561],"type":"Point"},"properties":{"NAMA":"PASAR HEWAN BOGOR","TIPE_1":"PERDAGANGAN DAN RETAIL","TIPE_2":"PASAR","TIPE_3":"PASAR TRADISIONAL","TELEPON":"","ALAMAT":"RT.02/RW.01, BUBULAK, KEC. BOGOR BAR., KOTA BOGOR, JAWA BARAT 16115","ID_PROV":"32","PROVINSI":"JAWA BARAT","ID_KABKOT":"32.71","KABKOT":"KOTA BOGOR","ID_KEC":"32.71.04","KECAMATAN":"BOGOR BARAT","ID_DESA":"32.71.04.1003","DESA":"BUBULAK","LATITUDE":-6.5670561,"LONGITUDE":106.7588956,"STATUS":"BUKA","TANGGAL PENGUMPULAN":"Q2 2025","TANGGAL UPDATE":"17/06/2025"}},{"type":"Feature","geometry":{"coordinates":[106.77803379999999,-6.5942344],"type":"Point"},"properties":{"NAMA":"PASAR GUNUNG BATU","TIPE_1":"PERDAGANGAN DAN RETAIL","TIPE_2":"PASAR","TIPE_3":"PASAR TRADISIONAL","TELEPON":"0831-3942-4086","ALAMAT":"JL. MAYJEND ISHAK DJUARSA NO.21A, RT.02/RW.04, GUNUNGBATU, KEC. BOGOR BAR., KOTA BOGOR, JAWA BARAT 16118","ID_PROV":"32","PROVINSI":"JAWA BARAT","ID_KABKOT":"32.71","KABKOT":"KOTA BOGOR","ID_KEC":"32.71.04","KECAMATAN":"BOGOR BARAT","ID_DESA":"32.71.04.1015","DESA":"GUNUNG BATU","LATITUDE":-6.5942344,"LONGITUDE":106.7780338,"STATUS":"BUKA","TANGGAL PENGUMPULAN":"Q2 2025","TANGGAL UPDATE":"17/06/2025"}},{"type":"Feature","geometry":{"coordinates":[106.7949575,-6.6081887],"type":"Point"},"properties":{"NAMA":"PASAR DAGING KAMBING","TIPE_1":"PERDAGANGAN DAN RETAIL","TIPE_2":"PASAR","TIPE_3":"PASAR TRADISIONAL","TELEPON":"0817-7411-1386","ALAMAT":"EMPANG, KEC. BOGOR SEL., KOTA BOGOR, JAWA BARAT","ID_PROV":"32","PROVINSI":"JAWA BARAT","ID_KABKOT":"32.71","KABKOT":"KOTA BOGOR","ID_KEC":"32.71.01","KECAMATAN":"BOGOR SELATAN","ID_DESA":"32.71.01.1003","DESA":"EMPANG","LATITUDE":-6.6081887,"LONGITUDE":106.7949575,"STATUS":"BUKA","TANGGAL PENGUMPULAN":"Q2 2025","TANGGAL UPDATE":"17/06/2025"}},{"type":"Feature","geometry":{"coordinates":[106.81603159999999,-6.6207738],"type":"Point"},"properties":{"NAMA":"PASAR CILUAR","TIPE_1":"PERDAGANGAN DAN RETAIL","TIPE_2":"PASAR","TIPE_3":"PASAR TRADISIONAL","TELEPON":"","ALAMAT":"RT.07/RW.02, SUKASARI, KEC. BOGOR TIM., KOTA BOGOR, JAWA BARAT 16142","ID_PROV":"32","PROVINSI":"JAWA BARAT","ID_KABKOT":"32.71","KABKOT":"KOTA BOGOR","ID_KEC":"32.71.02","KECAMATAN":"BOGOR TIMUR","ID_DESA":"32.71.02.1001","DESA":"SUKASARI","LATITUDE":-6.6207738,"LONGITUDE":106.8160316,"STATUS":"BUKA","TANGGAL PENGUMPULAN":"Q2 2025","TANGGAL UPDATE":"17/06/2025"}},{"type":"Feature","geometry":{"coordinates":[106.8002023,-6.6036406],"type":"Point"},"properties":{"NAMA":"PASAR BOGOR","TIPE_1":"PERDAGANGAN DAN RETAIL","TIPE_2":"PASAR","TIPE_3":"PASAR TRADISIONAL","TELEPON":"","ALAMAT":"BABAKAN PS., KECAMATAN BOGOR TENGAH, KOTA BOGOR, JAWA BARAT","ID_PROV":"32","PROVINSI":"JAWA BARAT","ID_KABKOT":"32.71","KABKOT":"KOTA BOGOR","ID_KEC":"32.71.03","KECAMATAN":"BOGOR TENGAH","ID_DESA":"32.71.03.1008","DESA":"BABAKAN PASAR","LATITUDE":-6.6036406,"LONGITUDE":106.8002023,"STATUS":"BUKA","TANGGAL PENGUMPULAN":"Q2 2025","TANGGAL UPDATE":"17/06/2025"}},{"type":"Feature","geometry":{"coordinates":[106.8106638,-6.5997982],"type":"Point"},"properties":{"NAMA":"PASAR BOGOR","TIPE_1":"PERDAGANGAN DAN RETAIL","TIPE_2":"PASAR","TIPE_3":"PASAR TRADISIONAL","TELEPON":"","ALAMAT":"RT.04/RW.08, TEGALLEGA, KECAMATAN BOGOR TENGAH, KOTA BOGOR, JAWA BARAT 16129","ID_PROV":"32","PROVINSI":"JAWA BARAT","ID_KABKOT":"32.71","KABKOT":"KOTA BOGOR","ID_KEC":"32.71.03","KECAMATAN":"BOGOR TENGAH","ID_DESA":"32.71.03.1007","DESA":"TEGALLEGA","LATITUDE":-6.5997982,"LONGITUDE":106.8106638,"STATUS":"BUKA","TANGGAL PENGUMPULAN":"Q2 2025","TANGGAL UPDATE":"17/06/2025"}},{"type":"Feature","geometry":{"coordinates":[106.799882,-6.6037832],"type":"Point"},"properties":{"NAMA":"PASAR BOGOR SURYAKENCANA","TIPE_1":"PERDAGANGAN DAN RETAIL","TIPE_2":"PASAR","TIPE_3":"PASAR TRADISIONAL","TELEPON":"","ALAMAT":"JL. SURYAKENCANA, RT.03/RW.07, BABAKAN PS., KECAMATAN BOGOR TENGAH, KOTA BOGOR, JAWA BARAT 16123","ID_PROV":"32","PROVINSI":"JAWA BARAT","ID_KABKOT":"32.71","KABKOT":"KOTA BOGOR","ID_KEC":"32.71.03","KECAMATAN":"BOGOR TENGAH","ID_DESA":"32.71.03.1008","DESA":"BABAKAN PASAR","LATITUDE":-6.6037832,"LONGITUDE":106.799882,"STATUS":"BUKA","TANGGAL PENGUMPULAN":"Q2 2025","TANGGAL UPDATE":"17/06/2025"}},{"type":"Feature","geometry":{"coordinates":[106.8243954,-6.5542095],"type":"Point"},"properties":{"NAMA":"PASAR BIMA 7","TIPE_1":"PERDAGANGAN DAN RETAIL","TIPE_2":"PASAR","TIPE_3":"PASAR TRADISIONAL","TELEPON":"0856-9596-9661","ALAMAT":"JL. PANGERAN SOGIRI, RT.04/RW.09, TANAH BARU, KEC. BOGOR UTARA, KOTA BOGOR, JAWA BARAT 16154","ID_PROV":"32","PROVINSI":"JAWA BARAT","ID_KABKOT":"32.71","KABKOT":"KOTA BOGOR","ID_KEC":"32.71.05","KECAMATAN":"BOGOR UTARA","ID_DESA":"32.71.05.1007","DESA":"TANAH BARU","LATITUDE":-6.5542095,"LONGITUDE":106.8243954,"STATUS":"BUKA","TANGGAL PENGUMPULAN":"Q2 2025","TANGGAL UPDATE":"17/06/2025"}},{"type":"Feature","geometry":{"coordinates":[106.7693505,-6.5737143],"type":"Point"},"properties":{"NAMA":"PASAR BERSIH CILENDEK","TIPE_1":"PERDAGANGAN DAN RETAIL","TIPE_2":"PASAR","TIPE_3":"PASAR TRADISIONAL","TELEPON":"0818-600-379","ALAMAT":"JL. BRIGJEN SAPTADJI HADIPRAWIRA, RT.02/RW.08, WEST CILENDEK, BOGOR BARAT, BOGOR CITY, WEST JAVA 16112","ID_PROV":"32","PROVINSI":"JAWA BARAT","ID_KABKOT":"32.71","KABKOT":"KOTA BOGOR","ID_KEC":"32.71.04","KECAMATAN":"BOGOR BARAT","ID_DESA":"32.71.04.1008","DESA":"CILENDEK BARAT","LATITUDE":-6.5737143,"LONGITUDE":106.7693505,"STATUS":"BUKA","TANGGAL PENGUMPULAN":"Q2 2025","TANGGAL UPDATE":"17/06/2025"}},{"type":"Feature","geometry":{"coordinates":[106.8130289,-6.6187269],"type":"Point"},"properties":{"NAMA":"PASAR BUNGA SUKASARI","TIPE_1":"PERDAGANGAN DAN RETAIL","TIPE_2":"PASAR","TIPE_3":"PASAR TRADISIONAL","TELEPON":"0878-7000-0127","ALAMAT":"JL. SUKASARI 1, RT.04/RW.02, SUKASARI, KEC. BOGOR TIM., KOTA BOGOR, JAWA BARAT 16142","ID_PROV":"32","PROVINSI":"JAWA BARAT","ID_KABKOT":"32.71","KABKOT":"KOTA BOGOR","ID_KEC":"32.71.02","KECAMATAN":"BOGOR TIMUR","ID_DESA":"32.71.02.1001","DESA":"SUKASARI","LATITUDE":-6.6187269,"LONGITUDE":106.8130289,"STATUS":"BUKA","TANGGAL PENGUMPULAN":"Q2 2025","TANGGAL UPDATE":"17/06/2025"}},{"type":"Feature","geometry":{"coordinates":[106.8087465,-6.6218056],"type":"Point"},"properties":{"NAMA":"PASAR BALEKAMBANG","TIPE_1":"PERDAGANGAN DAN RETAIL","TIPE_2":"PASAR","TIPE_3":"PASAR TRADISIONAL","TELEPON":"","ALAMAT":"JL. BATU TULIS JL. BATU TULIS GG. BALEKAMBANG, BATUTULIS, KEC. BOGOR SEL., KOTA BOGOR, JAWA BARAT 16134","ID_PROV":"32","PROVINSI":"JAWA BARAT","ID_KABKOT":"32.71","KABKOT":"KOTA BOGOR","ID_KEC":"32.71.01","KECAMATAN":"BOGOR SELATAN","ID_DESA":"32.71.01.1001","DESA":"BATU TULIS","LATITUDE":-6.6218056,"LONGITUDE":106.8087465,"STATUS":"BUKA","TANGGAL PENGUMPULAN":"Q2 2025","TANGGAL UPDATE":"17/06/2025"}},{"type":"Feature","geometry":{"coordinates":[106.7864017,-6.59249],"type":"Point"},"properties":{"NAMA":"PASAR TRADISIONAL MERDEKA","TIPE_1":"PERDAGANGAN DAN RETAIL","TIPE_2":"PASAR","TIPE_3":"PASAR TRADISIONAL","TELEPON":"","ALAMAT":"JL. PERINTIS KEMERDEKAAN NO.2, RT.05/RW.03, RT.05/RW.03, KP. PARUNG JAMBU, KB. KLP., KECAMATAN BOGOR TENGAH, KOTA BOGOR, JAWA BARAT 16125","ID_PROV":"32","PROVINSI":"JAWA BARAT","ID_KABKOT":"32.71","KABKOT":"KOTA BOGOR","ID_KEC":"32.71.03","KECAMATAN":"BOGOR TENGAH","ID_DESA":"32.71.03.1011","DESA":"KEBON KALAPA","LATITUDE":-6.59249,"LONGITUDE":106.7864017,"STATUS":"BUKA","TANGGAL PENGUMPULAN":"Q2 2025","TANGGAL UPDATE":"17/06/2025"}},{"type":"Feature","geometry":{"coordinates":[106.799363,-6.6034227],"type":"Point"},"properties":{"NAMA":"PASAR TRADISIONAL BOGOR","TIPE_1":"PERDAGANGAN DAN RETAIL","TIPE_2":"PASAR","TIPE_3":"PASAR TRADISIONAL","TELEPON":"","ALAMAT":"JL. RODA NO.35, RT.03/RW.07, BABAKAN PS., KECAMATAN BOGOR TENGAH, KOTA BOGOR, JAWA BARAT 16126","ID_PROV":"32","PROVINSI":"JAWA BARAT","ID_KABKOT":"32.71","KABKOT":"KOTA BOGOR","ID_KEC":"32.71.03","KECAMATAN":"BOGOR TENGAH","ID_DESA":"32.71.03.1008","DESA":"BABAKAN PASAR","LATITUDE":-6.6034227,"LONGITUDE":106.799363,"STATUS":"BUKA","TANGGAL PENGUMPULAN":"Q2 2025","TANGGAL UPDATE":"17/06/2025"}},{"type":"Feature","geometry":{"coordinates":[106.8127788,-6.6183339],"type":"Point"},"properties":{"NAMA":"PASAR SUKASARI","TIPE_1":"PERDAGANGAN DAN RETAIL","TIPE_2":"PASAR","TIPE_3":"PASAR TRADISIONAL","TELEPON":"","ALAMAT":"PS. SUKASARI, JL. SILIWANGI NO.35, RT.07/RW.02, SUKASARI, KEC. BOGOR TIM., KOTA BOGOR, JAWA BARAT 16133","ID_PROV":"32","PROVINSI":"JAWA BARAT","ID_KABKOT":"32.71","KABKOT":"KOTA BOGOR","ID_KEC":"32.71.02","KECAMATAN":"BOGOR TIMUR","ID_DESA":"32.71.02.1001","DESA":"SUKASARI","LATITUDE":-6.6183339,"LONGITUDE":106.8127788,"STATUS":"BUKA","TANGGAL PENGUMPULAN":"Q2 2025","TANGGAL UPDATE":"17/06/2025"}},{"type":"Feature","geometry":{"coordinates":[106.77042859999999,-6.5383993],"type":"Point"},"properties":{"NAMA":"PASAR TEKUM","TIPE_1":"PERDAGANGAN DAN RETAIL","TIPE_2":"PASAR","TIPE_3":"PASAR TRADISIONAL","TELEPON":"","ALAMAT":"JL. SHOLEH ISKANDAR, RT.01/RW.01, CIBADAK, KEC. TANAH SEREAL, KOTA BOGOR, JAWA BARAT 16166","ID_PROV":"32","PROVINSI":"JAWA BARAT","ID_KABKOT":"32.71","KABKOT":"KOTA BOGOR","ID_KEC":"32.71.06","KECAMATAN":"TANAH SAREAL","ID_DESA":"32.71.06.1011","DESA":"CIBADAK","LATITUDE":-6.5383993,"LONGITUDE":106.7704286,"STATUS":"BUKA","TANGGAL PENGUMPULAN":"Q2 2025","TANGGAL UPDATE":"17/06/2025"}},{"type":"Feature","geometry":{"coordinates":[106.760339,-6.5788792],"type":"Point"},"properties":{"NAMA":"PASAR TANI","TIPE_1":"PERDAGANGAN DAN RETAIL","TIPE_2":"PASAR","TIPE_3":"PASAR TRADISIONAL","TELEPON":"","ALAMAT":"RT.05/RW.02, SINDANGBARANG, KEC. BOGOR BAR., KOTA BOGOR, JAWA BARAT 16117","ID_PROV":"32","PROVINSI":"JAWA BARAT","ID_KABKOT":"32.71","KABKOT":"KOTA BOGOR","ID_KEC":"32.71.04","KECAMATAN":"BOGOR BARAT","ID_DESA":"32.71.04.1002","DESA":"SINDANG BARANG","LATITUDE":-6.5788792,"LONGITUDE":106.760339,"STATUS":"BUKA","TANGGAL PENGUMPULAN":"Q2 2025","TANGGAL UPDATE":"17/06/2025"}},{"type":"Feature","geometry":{"coordinates":[106.8219421,-6.5829031],"type":"Point"},"properties":{"NAMA":"PASAR TANAH BARU","TIPE_1":"PERDAGANGAN DAN RETAIL","TIPE_2":"PASAR","TIPE_3":"PASAR TRADISIONAL","TELEPON":"","ALAMAT":"JL. RAYA TANAH BARU NO.28, RT.05/RW.04, TANAH BARU, BOGOR UTARA, BOGOR CITY, WEST JAVA 16154","ID_PROV":"32","PROVINSI":"JAWA BARAT","ID_KABKOT":"32.71","KABKOT":"KOTA BOGOR","ID_KEC":"32.71.05","KECAMATAN":"BOGOR UTARA","ID_DESA":"32.71.05.1007","DESA":"TANAH BARU","LATITUDE":-6.5829031,"LONGITUDE":106.8219421,"STATUS":"BUKA","TANGGAL PENGUMPULAN":"Q2 2025","TANGGAL UPDATE":"17/06/2025"}},{"type":"Feature","geometry":{"coordinates":[106.7927811,-6.5891381],"type":"Point"},"properties":{"NAMA":"PASAR TAMAN KENCANA","TIPE_1":"PERDAGANGAN DAN RETAIL","TIPE_2":"PASAR","TIPE_3":"PASAR TRADISIONAL","TELEPON":"","ALAMAT":"JL. DEWI SARTIKA, RT.01/RW.02, PABATON, BOGOR TENGAH, BOGOR CITY, WEST JAVA 16124","ID_PROV":"32","PROVINSI":"JAWA BARAT","ID_KABKOT":"32.71","KABKOT":"KOTA BOGOR","ID_KEC":"32.71.03","KECAMATAN":"BOGOR TENGAH","ID_DESA":"32.71.03.1003","DESA":"PABATON","LATITUDE":-6.5891381,"LONGITUDE":106.7927811,"STATUS":"BUKA","TANGGAL PENGUMPULAN":"Q2 2025","TANGGAL UPDATE":"17/06/2025"}},{"type":"Feature","geometry":{"coordinates":[106.7875484,-6.5956569],"type":"Point"},"properties":{"NAMA":"PASAR PURBASARI","TIPE_1":"PERDAGANGAN DAN RETAIL","TIPE_2":"PASAR","TIPE_3":"PASAR TRADISIONAL","TELEPON":"","ALAMAT":"JL. RAYA DRAMAGA - BOGOR, RT.01/RW.03, PANARAGAN, KECAMATAN BOGOR TENGAH, KOTA BOGOR, JAWA BARAT 16125","ID_PROV":"32","PROVINSI":"JAWA BARAT","ID_KABKOT":"32.71","KABKOT":"KOTA BOGOR","ID_KEC":"32.71.03","KECAMATAN":"BOGOR TENGAH","ID_DESA":"32.71.03.1009","DESA":"PANARAGAN","LATITUDE":-6.5956569,"LONGITUDE":106.7875484,"STATUS":"BUKA","TANGGAL PENGUMPULAN":"Q2 2025","TANGGAL UPDATE":"17/06/2025"}},{"type":"Feature","geometry":{"coordinates":[106.7866909,-6.5922163],"type":"Point"},"properties":{"NAMA":"PASAR PAGI","TIPE_1":"PERDAGANGAN DAN RETAIL","TIPE_2":"PASAR","TIPE_3":"PASAR TRADISIONAL","TELEPON":"","ALAMAT":"JL. PERINTIS KEMERDEKAAN NO.34, RT.05/RW.03, KB. KLP., KECAMATAN BOGOR TENGAH, KOTA BOGOR, JAWA BARAT 16125","ID_PROV":"32","PROVINSI":"JAWA BARAT","ID_KABKOT":"32.71","KABKOT":"KOTA BOGOR","ID_KEC":"32.71.03","KECAMATAN":"BOGOR TENGAH","ID_DESA":"32.71.03.1011","DESA":"KEBON KALAPA","LATITUDE":-6.5922163,"LONGITUDE":106.7866909,"STATUS":"BUKA","TANGGAL PENGUMPULAN":"Q2 2025","TANGGAL UPDATE":"17/06/2025"}},{"type":"Feature","geometry":{"coordinates":[106.8018604,-6.6088327],"type":"Point"},"properties":{"NAMA":"PASAR PADASUKA","TIPE_1":"PERDAGANGAN DAN RETAIL","TIPE_2":"PASAR","TIPE_3":"PASAR TRADISIONAL","TELEPON":"","ALAMAT":"JL. PADASUKA NO.20, RT.04/RW.03, GUDANG, KECAMATAN BOGOR TENGAH, KOTA BOGOR, JAWA BARAT 16123","ID_PROV":"32","PROVINSI":"JAWA BARAT","ID_KABKOT":"32.71","KABKOT":"KOTA BOGOR","ID_KEC":"32.71.03","KECAMATAN":"BOGOR TENGAH","ID_DESA":"32.71.03.1001","DESA":"GUDANG","LATITUDE":-6.6088327,"LONGITUDE":106.8018604,"STATUS":"BUKA","TANGGAL PENGUMPULAN":"Q2 2025","TANGGAL UPDATE":"17/06/2025"}}]}