{"type":"FeatureCollection","features":[{"type":"Feature","geometry":{"coordinates":[106.929304,-6.6805555],"type":"Point"},"properties":{"NAMA":"PASAR MODERN PUNCAK","TIPE_1":"PERDAGANGAN DAN RETAIL","TIPE_2":"PASAR","TIPE_3":"PASAR MODERN","TELEPON":"","ALAMAT":"JL. CIDOKOM, CITEKO, KEC. CISARUA, KABUPATEN BOGOR, JAWA BARAT 16750","ID_PROV":"32","PROVINSI":"JAWA BARAT","ID_KABKOT":"32.01","KABKOT":"BOGOR","ID_KEC":"32.01.25","KECAMATAN":"CISARUA","ID_DESA":"32.01.25.2005","DESA":"CITEKO","LATITUDE":-6.6805555,"LONGITUDE":106.929304,"STATUS":"BUKA","TANGGAL PENGUMPULAN":"Q2 2025","TANGGAL UPDATE":"17/06/2025"}},{"type":"Feature","geometry":{"coordinates":[107.0661339,-6.4641846],"type":"Point"},"properties":{"NAMA":"PASAR MODERN JONGGOL","TIPE_1":"PERDAGANGAN DAN RETAIL","TIPE_2":"PASAR","TIPE_3":"PASAR MODERN","TELEPON":"0813-8151-5201","ALAMAT":"JL. RAYA JONGGOL, RT.03/RW.03, JONGGOL, KEC. JONGGOL, KABUPATEN BOGOR, JAWA BARAT 16830","ID_PROV":"32","PROVINSI":"JAWA BARAT","ID_KABKOT":"32.01","KABKOT":"BOGOR","ID_KEC":"32.01.06","KECAMATAN":"JONGGOL","ID_DESA":"32.01.06.2009","DESA":"JONGGOL","LATITUDE":-6.4641846,"LONGITUDE":107.0661339,"STATUS":"BUKA","TANGGAL PENGUMPULAN":"Q2 2025","TANGGAL UPDATE":"17/06/2025"}},{"type":"Feature","geometry":{"coordinates":[106.8613941,-6.5648547],"type":"Point"},"properties":{"NAMA":"PASAR BERSIH SENTUL CITY","TIPE_1":"PERDAGANGAN DAN RETAIL","TIPE_2":"PASAR","TIPE_3":"PASAR MODERN","TELEPON":"","ALAMAT":"JL. TAMAN VICTORIA, CITARINGGUL, KEC. BABAKAN MADANG, KABUPATEN BOGOR, JAWA BARAT 16810","ID_PROV":"32","PROVINSI":"JAWA BARAT","ID_KABKOT":"32.01","KABKOT":"BOGOR","ID_KEC":"32.01.05","KECAMATAN":"BABAKAN MADANG","ID_DESA":"32.01.05.2007","DESA":"CITARINGGUL","LATITUDE":-6.5648547,"LONGITUDE":106.8613941,"STATUS":"BUKA","TANGGAL PENGUMPULAN":"Q2 2025","TANGGAL UPDATE":"17/06/2025"}},{"type":"Feature","geometry":{"coordinates":[106.7298986,-6.4205675],"type":"Point"},"properties":{"NAMA":"PASAR TRADISIONAL MODERN PARUNG","TIPE_1":"PERDAGANGAN DAN RETAIL","TIPE_2":"PASAR","TIPE_3":"PASAR MODERN","TELEPON":"","ALAMAT":"WARU, KEC. PARUNG, KABUPATEN BOGOR, JAWA BARAT 16330","ID_PROV":"32","PROVINSI":"JAWA BARAT","ID_KABKOT":"32.01","KABKOT":"BOGOR","ID_KEC":"32.01.10","KECAMATAN":"PARUNG","ID_DESA":"32.01.10.2004","DESA":"WARU","LATITUDE":-6.4205675,"LONGITUDE":106.7298986,"STATUS":"BUKA","TANGGAL PENGUMPULAN":"Q2 2025","TANGGAL UPDATE":"17/06/2025"}},{"type":"Feature","geometry":{"coordinates":[106.7374101,-6.4544124],"type":"Point"},"properties":{"NAMA":"PASAR MODERN KALISUREN","TIPE_1":"PERDAGANGAN DAN RETAIL","TIPE_2":"PASAR","TIPE_3":"PASAR MODERN","TELEPON":"0818-0735-1983","ALAMAT":"JL. RAYA KALISUREN, KALISUREN, KEC. TAJUR HALANG, KABUPATEN BOGOR, JAWA BARAT 16320","ID_PROV":"32","PROVINSI":"JAWA BARAT","ID_KABKOT":"32.01","KABKOT":"BOGOR","ID_KEC":"32.01.37","KECAMATAN":"TAJURHALANG","ID_DESA":"32.01.37.2007","DESA":"KALISUREN","LATITUDE":-6.4544124,"LONGITUDE":106.7374101,"STATUS":"BUKA","TANGGAL PENGUMPULAN":"Q2 2025","TANGGAL UPDATE":"17/06/2025"}},{"type":"Feature","geometry":{"coordinates":[106.5684723,-6.3512868],"type":"Point"},"properties":{"NAMA":"PASAR MODERN SENTRALAND - PARUNG PANJANG","TIPE_1":"PERDAGANGAN DAN RETAIL","TIPE_2":"PASAR","TIPE_3":"PASAR MODERN","TELEPON":"0821-1153-6033","ALAMAT":"PARKIR PINTU TIMUR, PASAR MODERN SENTRALAND, PARUNG PANJANG, KEC. PARUNG PANJANG, KABUPATEN BOGOR, JAWA BARAT 16360","ID_PROV":"32","PROVINSI":"JAWA BARAT","ID_KABKOT":"32.01","KABKOT":"BOGOR","ID_KEC":"32.01.20","KECAMATAN":"PARUNG PANJANG","ID_DESA":"32.01.20.2006","DESA":"PARUNGPANJANG","LATITUDE":-6.3512868,"LONGITUDE":106.5684723,"STATUS":"BUKA","TANGGAL PENGUMPULAN":"Q2 2025","TANGGAL UPDATE":"17/06/2025"}}]}