{"type":"FeatureCollection","features":[{"type":"Feature","geometry":{"coordinates":[106.6940458,-6.3575798],"type":"Point"},"properties":{"NAMA":"PASAR MODERN SERPONG CITY PARADISE","TIPE_1":"PERDAGANGAN DAN RETAIL","TIPE_2":"PASAR","TIPE_3":"PASAR MODERN","TELEPON":"","ALAMAT":"JL. PS. JENGKOL, BABAKAN, KEC. SETU, KOTA TANGERANG SELATAN, BANTEN","ID_PROV":"36","PROVINSI":"BANTEN","ID_KABKOT":"36.74","KABKOT":"KOTA TANGERANG SELATAN","ID_KEC":"36.74.07","KECAMATAN":"SETU","ID_DESA":"36.74.07.1005","DESA":"BABAKAN","LATITUDE":-6.3575798,"LONGITUDE":106.6940458,"STATUS":"BUKA","TANGGAL PENGUMPULAN":"Q2 2025","TANGGAL UPDATE":"17/06/2025"}},{"type":"Feature","geometry":{"coordinates":[106.71935579999999,-6.2794422],"type":"Point"},"properties":{"NAMA":"PASAR MODERN BINTARO JAYA","TIPE_1":"PERDAGANGAN DAN RETAIL","TIPE_2":"PASAR","TIPE_3":"PASAR MODERN","TELEPON":"","ALAMAT":"BAN KO KO . WA 15220, JL. TEGAL ROTAN RAYA NO.9, PD. PUCUNG, KEC. PD. AREN, KOTA TANGERANG SELATAN, BANTEN 15220","ID_PROV":"36","PROVINSI":"BANTEN","ID_KABKOT":"36.74","KABKOT":"KOTA TANGERANG SELATAN","ID_KEC":"36.74.03","KECAMATAN":"PONDOK AREN","ID_DESA":"36.74.03.1004","DESA":"PONDOK JAYA","LATITUDE":-6.2794422,"LONGITUDE":106.7193558,"STATUS":"BUKA","TANGGAL PENGUMPULAN":"Q2 2025","TANGGAL UPDATE":"17/06/2025"}},{"type":"Feature","geometry":{"coordinates":[106.6518781,-6.2396738],"type":"Point"},"properties":{"NAMA":"PASAR DELAPAN ALAM SUTERA","TIPE_1":"PERDAGANGAN DAN RETAIL","TIPE_2":"PASAR","TIPE_3":"PASAR MODERN","TELEPON":"(021) 29005003","ALAMAT":"ALAM SUTERA, JL. ALAM UTAMA, PAKULONAN, KEC. SERPONG, KOTA TANGERANG SELATAN, BANTEN 15325","ID_PROV":"36","PROVINSI":"BANTEN","ID_KABKOT":"36.74","KABKOT":"KOTA TANGERANG SELATAN","ID_KEC":"36.74.02","KECAMATAN":"SERPONG UTARA","ID_DESA":"36.74.02.1001","DESA":"PAKULONAN","LATITUDE":-6.2396738,"LONGITUDE":106.6518781,"STATUS":"BUKA","TANGGAL PENGUMPULAN":"Q2 2025","TANGGAL UPDATE":"17/06/2025"}},{"type":"Feature","geometry":{"coordinates":[106.6519001,-6.2398436],"type":"Point"},"properties":{"NAMA":"PASAR MODERN TANGERANG","TIPE_1":"PERDAGANGAN DAN RETAIL","TIPE_2":"PASAR","TIPE_3":"PASAR MODERN","TELEPON":"0811-8087-550","ALAMAT":"JL. ALAM UTAMA, PAKULONAN, KEC. SERPONG UTARA, KOTA TANGERANG SELATAN, BANTEN 15325","ID_PROV":"36","PROVINSI":"BANTEN","ID_KABKOT":"36.74","KABKOT":"KOTA TANGERANG SELATAN","ID_KEC":"36.74.02","KECAMATAN":"SERPONG UTARA","ID_DESA":"36.74.02.1001","DESA":"PAKULONAN","LATITUDE":-6.2398436,"LONGITUDE":106.6519001,"STATUS":"BUKA","TANGGAL PENGUMPULAN":"Q2 2025","TANGGAL UPDATE":"17/06/2025"}},{"type":"Feature","geometry":{"coordinates":[106.6848223,-6.3045281],"type":"Point"},"properties":{"NAMA":"PASAR MODERN BSD CITY","TIPE_1":"PERDAGANGAN DAN RETAIL","TIPE_2":"PASAR","TIPE_3":"PASAR MODERN","TELEPON":"","ALAMAT":"JL. LETNAN SUTOPO, RW. MEKAR JAYA, KEC. SERPONG, KOTA TANGERANG SELATAN, BANTEN 15310","ID_PROV":"36","PROVINSI":"BANTEN","ID_KABKOT":"36.74","KABKOT":"KOTA TANGERANG SELATAN","ID_KEC":"36.74.01","KECAMATAN":"SERPONG","ID_DESA":"36.74.01.1003","DESA":"RAWA MEKAR JAYA","LATITUDE":-6.3045281,"LONGITUDE":106.6848223,"STATUS":"BUKA","TANGGAL PENGUMPULAN":"Q2 2025","TANGGAL UPDATE":"17/06/2025"}},{"type":"Feature","geometry":{"coordinates":[106.6518024,-6.2393584],"type":"Point"},"properties":{"NAMA":"PASAR SEGAR 88","TIPE_1":"PERDAGANGAN DAN RETAIL","TIPE_2":"PASAR","TIPE_3":"PASAR MODERN","TELEPON":"0812-9332-5479","ALAMAT":"ALAM SUTERA, JL. JALUR SUTERA, PAKULONAN, PINANG, TANGERANG CITY, BANTEN 15143","ID_PROV":"36","PROVINSI":"BANTEN","ID_KABKOT":"36.74","KABKOT":"KOTA TANGERANG SELATAN","ID_KEC":"36.74.02","KECAMATAN":"SERPONG UTARA","ID_DESA":"36.74.02.1001","DESA":"PAKULONAN","LATITUDE":-6.2393584,"LONGITUDE":106.6518024,"STATUS":"BUKA","TANGGAL PENGUMPULAN":"Q2 2025","TANGGAL UPDATE":"17/06/2025"}},{"type":"Feature","geometry":{"coordinates":[106.6730731,-6.2497169],"type":"Point"},"properties":{"NAMA":"PASAR SEGAR PONDOK JAGUNG","TIPE_1":"PERDAGANGAN DAN RETAIL","TIPE_2":"PASAR","TIPE_3":"PASAR MODERN","TELEPON":"","ALAMAT":"JL. MELATI III, PD. JAGUNG TIM., KEC. SERPONG UTARA, KOTA TANGERANG SELATAN, BANTEN 15326","ID_PROV":"36","PROVINSI":"BANTEN","ID_KABKOT":"36.74","KABKOT":"KOTA TANGERANG SELATAN","ID_KEC":"36.74.02","KECAMATAN":"SERPONG UTARA","ID_DESA":"36.74.02.1005","DESA":"PONDOK JAGUNG TIMUR","LATITUDE":-6.2497169,"LONGITUDE":106.6730731,"STATUS":"BUKA","TANGGAL PENGUMPULAN":"Q2 2025","TANGGAL UPDATE":"17/06/2025"}}]}