{"type":"FeatureCollection","features":[{"type":"Feature","geometry":{"coordinates":[106.6371159,-6.1951239],"type":"Point"},"properties":{"NAMA":"PASAR METRO POLIS","TIPE_1":"PERDAGANGAN DAN RETAIL","TIPE_2":"PASAR","TIPE_3":"PASAR MODERN","TELEPON":"","ALAMAT":"RT.003/RW.006, BABAKAN, KEC. TANGERANG, KOTA TANGERANG, BANTEN 15117","ID_PROV":"36","PROVINSI":"BANTEN","ID_KABKOT":"36.71","KABKOT":"KOTA TANGERANG","ID_KEC":"36.71.01","KECAMATAN":"TANGERANG","ID_DESA":"36.71.01.1008","DESA":"BABAKAN","LATITUDE":-6.1951239,"LONGITUDE":106.6371159,"STATUS":"BUKA","TANGGAL PENGUMPULAN":"Q2 2025","TANGGAL UPDATE":"17/06/2025"}},{"type":"Feature","geometry":{"coordinates":[106.6871992,-6.1815992],"type":"Point"},"properties":{"NAMA":"PASAR MANDIRI","TIPE_1":"PERDAGANGAN DAN RETAIL","TIPE_2":"PASAR","TIPE_3":"PASAR TRADISIONAL","TELEPON":"0812-1866-7310","ALAMAT":"RT.006/RW.005, CIPONDOH INDAH, KEC. CIPONDOH, KOTA TANGERANG, BANTEN 15148","ID_PROV":"36","PROVINSI":"BANTEN","ID_KABKOT":"36.71","KABKOT":"KOTA TANGERANG","ID_KEC":"36.71.05","KECAMATAN":"CIPONDOH","ID_DESA":"36.71.05.1003","DESA":"CIPONDOH INDAH","LATITUDE":-6.1815992,"LONGITUDE":106.6871992,"STATUS":"BUKA","TANGGAL PENGUMPULAN":"Q2 2025","TANGGAL UPDATE":"17/06/2025"}},{"type":"Feature","geometry":{"coordinates":[106.6536517,-6.2052956],"type":"Point"},"properties":{"NAMA":"PASAR MODERN BANJAR WIJAYA","TIPE_1":"PERDAGANGAN DAN RETAIL","TIPE_2":"PASAR","TIPE_3":"PASAR MODERN","TELEPON":"(021) 59730132","ALAMAT":"JL. HR. RASUNA SAID, RT.002/RW.012, CIPETE, KEC. PINANG, KOTA TANGERANG, BANTEN 15142","ID_PROV":"36","PROVINSI":"BANTEN","ID_KABKOT":"36.71","KABKOT":"KOTA TANGERANG","ID_KEC":"36.71.11","KECAMATAN":"PINANG","ID_DESA":"36.71.11.1007","DESA":"CIPETE","LATITUDE":-6.2052956,"LONGITUDE":106.6536517,"STATUS":"BUKA","TANGGAL PENGUMPULAN":"Q2 2025","TANGGAL UPDATE":"17/06/2025"}},{"type":"Feature","geometry":{"coordinates":[106.6824748,-6.2283647],"type":"Point"},"properties":{"NAMA":"PASAR MODERN GRAHA RAYA","TIPE_1":"PERDAGANGAN DAN RETAIL","TIPE_2":"PASAR","TIPE_3":"PASAR MODERN","TELEPON":"(021) 53132600","ALAMAT":"JL. BOULEVARD GRAHA RAYA, RT.002/RW.010, SUDIMARA PINANG, KEC. PINANG, KOTA TANGERANG, BANTEN 15144","ID_PROV":"36","PROVINSI":"BANTEN","ID_KABKOT":"36.71","KABKOT":"KOTA TANGERANG","ID_KEC":"36.71.11","KECAMATAN":"PINANG","ID_DESA":"36.71.11.1005","DESA":"KUNCIRAN INDAH","LATITUDE":-6.2283647,"LONGITUDE":106.6824748,"STATUS":"BUKA","TANGGAL PENGUMPULAN":"Q2 2025","TANGGAL UPDATE":"17/06/2025"}},{"type":"Feature","geometry":{"coordinates":[106.674406,-6.2205195],"type":"Point"},"properties":{"NAMA":"PASAR LAPANGAN HAIDIR","TIPE_1":"PERDAGANGAN DAN RETAIL","TIPE_2":"PASAR","TIPE_3":"PASAR TRADISIONAL","TELEPON":"","ALAMAT":"JALAN LAPANGAN HAIDIR PERUM.TIRTAYASA, JL. SULTAN AGENG TIRTAYASA, RT.005/RW.014, KUNCIRAN INDAH, KEC. PINANG, KOTA TANGERANG, BANTEN 15144","ID_PROV":"36","PROVINSI":"BANTEN","ID_KABKOT":"36.71","KABKOT":"KOTA TANGERANG","ID_KEC":"36.71.11","KECAMATAN":"PINANG","ID_DESA":"36.71.11.1005","DESA":"KUNCIRAN INDAH","LATITUDE":-6.2205195,"LONGITUDE":106.674406,"STATUS":"BUKA","TANGGAL PENGUMPULAN":"Q2 2025","TANGGAL UPDATE":"17/06/2025"}},{"type":"Feature","geometry":{"coordinates":[106.7302964,-6.2321837],"type":"Point"},"properties":{"NAMA":"PASAR LARANGAN","TIPE_1":"PERDAGANGAN DAN RETAIL","TIPE_2":"PASAR","TIPE_3":"PASAR TRADISIONAL","TELEPON":"","ALAMAT":"LARANGAN UTARA, KEC. LARANGAN, KOTA TANGERANG, BANTEN","ID_PROV":"36","PROVINSI":"BANTEN","ID_KABKOT":"36.71","KABKOT":"KOTA TANGERANG","ID_KEC":"36.71.13","KECAMATAN":"LARANGAN","ID_DESA":"36.71.13.1001","DESA":"LARANGAN UTARA","LATITUDE":-6.2321837,"LONGITUDE":106.7302964,"STATUS":"BUKA","TANGGAL PENGUMPULAN":"Q2 2025","TANGGAL UPDATE":"17/06/2025"}},{"type":"Feature","geometry":{"coordinates":[106.6298636,-6.1778608],"type":"Point"},"properties":{"NAMA":"PASAR LAMA TANGERANG & KULINER","TIPE_1":"PERDAGANGAN DAN RETAIL","TIPE_2":"PASAR","TIPE_3":"PASAR TRADISIONAL","TELEPON":"","ALAMAT":"JL. KH. SOLEH ALI NO.27, RT.005/RW.006, SUKASARI, TANGERANG, TANGERANG CITY, BANTEN 15118","ID_PROV":"36","PROVINSI":"BANTEN","ID_KABKOT":"36.71","KABKOT":"KOTA TANGERANG","ID_KEC":"36.71.01","KECAMATAN":"TANGERANG","ID_DESA":"36.71.01.1007","DESA":"SUKASARI","LATITUDE":-6.1778608,"LONGITUDE":106.6298636,"STATUS":"BUKA","TANGGAL PENGUMPULAN":"Q2 2025","TANGGAL UPDATE":"17/06/2025"}},{"type":"Feature","geometry":{"coordinates":[106.6301895,-6.1788],"type":"Point"},"properties":{"NAMA":"PASAR LAMA TANGERANG","TIPE_1":"PERDAGANGAN DAN RETAIL","TIPE_2":"PASAR","TIPE_3":"PASAR TRADISIONAL","TELEPON":"","ALAMAT":"PASAR LAMA, JL. KISAMAUN, SUKASARI, KEC. TANGERANG, KOTA TANGERANG, BANTEN 15118","ID_PROV":"36","PROVINSI":"BANTEN","ID_KABKOT":"36.71","KABKOT":"KOTA TANGERANG","ID_KEC":"36.71.01","KECAMATAN":"TANGERANG","ID_DESA":"36.71.01.1007","DESA":"SUKASARI","LATITUDE":-6.1788,"LONGITUDE":106.6301895,"STATUS":"BUKA","TANGGAL PENGUMPULAN":"Q2 2025","TANGGAL UPDATE":"17/06/2025"}},{"type":"Feature","geometry":{"coordinates":[106.7388905,-6.2349729],"type":"Point"},"properties":{"NAMA":"PASAR KREO CILEDUG","TIPE_1":"PERDAGANGAN DAN RETAIL","TIPE_2":"PASAR","TIPE_3":"PASAR TRADISIONAL","TELEPON":"","ALAMAT":"JL. HOS COKROAMINOTO, RT.001/RW.006, KREO, KEC. LARANGAN, KOTA TANGERANG, BANTEN 15155","ID_PROV":"36","PROVINSI":"BANTEN","ID_KABKOT":"36.71","KABKOT":"KOTA TANGERANG","ID_KEC":"36.71.13","KECAMATAN":"LARANGAN","ID_DESA":"36.71.13.1003","DESA":"CIPADU","LATITUDE":-6.2349729,"LONGITUDE":106.7388905,"STATUS":"BUKA","TANGGAL PENGUMPULAN":"Q2 2025","TANGGAL UPDATE":"17/06/2025"}},{"type":"Feature","geometry":{"coordinates":[106.6075009,-6.2011951],"type":"Point"},"properties":{"NAMA":"PASAR MALAM SELASA CIBODAS","TIPE_1":"PERDAGANGAN DAN RETAIL","TIPE_2":"PASAR","TIPE_3":"PASAR TRADISIONAL","TELEPON":"","ALAMAT":"JL. DIPATI UNUS NO.186, RT.004/RW.003, CIBODAS, KEC. CIBODAS, KOTA TANGERANG, BANTEN 15138","ID_PROV":"36","PROVINSI":"BANTEN","ID_KABKOT":"36.71","KABKOT":"KOTA TANGERANG","ID_KEC":"36.71.09","KECAMATAN":"CIBODAS","ID_DESA":"36.71.09.1001","DESA":"CIBODAS","LATITUDE":-6.2011951,"LONGITUDE":106.6075009,"STATUS":"BUKA","TANGGAL PENGUMPULAN":"Q2 2025","TANGGAL UPDATE":"17/06/2025"}},{"type":"Feature","geometry":{"coordinates":[106.70215239999999,-6.2170626],"type":"Point"},"properties":{"NAMA":"PASAR MALAM LAPANGAN BANGUN REKSA 2","TIPE_1":"PERDAGANGAN DAN RETAIL","TIPE_2":"PASAR","TIPE_3":"PASAR TRADISIONAL","TELEPON":"","ALAMAT":"JL. SUNAN GIRI NO.2, RT.004/RW.003, PONDOK PUCUNG, KARANG TENGAH, TANGERANG CITY, BANTEN 15157","ID_PROV":"36","PROVINSI":"BANTEN","ID_KABKOT":"36.71","KABKOT":"KOTA TANGERANG","ID_KEC":"36.71.12","KECAMATAN":"KARANG TENGAH","ID_DESA":"36.71.12.1004","DESA":"PONDOK PUCUNG","LATITUDE":-6.2170626,"LONGITUDE":106.7021524,"STATUS":"BUKA","TANGGAL PENGUMPULAN":"Q2 2025","TANGGAL UPDATE":"17/06/2025"}},{"type":"Feature","geometry":{"coordinates":[106.6973891,-6.2100149],"type":"Point"},"properties":{"NAMA":"PASAR MALAM CILEDUG INDAH 2","TIPE_1":"PERDAGANGAN DAN RETAIL","TIPE_2":"PASAR","TIPE_3":"PASAR TRADISIONAL","TELEPON":"","ALAMAT":"RT.003/RW.005, PEDURENAN, KEC. KARANG TENGAH, KOTA TANGERANG, BANTEN 15157","ID_PROV":"36","PROVINSI":"BANTEN","ID_KABKOT":"36.71","KABKOT":"KOTA TANGERANG","ID_KEC":"36.71.12","KECAMATAN":"KARANG TENGAH","ID_DESA":"36.71.12.1003","DESA":"PONDOK BAHAR","LATITUDE":-6.2100149,"LONGITUDE":106.6973891,"STATUS":"BUKA","TANGGAL PENGUMPULAN":"Q2 2025","TANGGAL UPDATE":"17/06/2025"}},{"type":"Feature","geometry":{"coordinates":[106.6831936,-6.170518],"type":"Point"},"properties":{"NAMA":"PASAR MALAM EX GIANT PORIS","TIPE_1":"PERDAGANGAN DAN RETAIL","TIPE_2":"PASAR","TIPE_3":"PASAR TRADISIONAL","TELEPON":"","ALAMAT":"RT.004/RW.003, PORIS GAGA, KEC. BATUCEPER, KOTA TANGERANG, BANTEN 15122","ID_PROV":"36","PROVINSI":"BANTEN","ID_KABKOT":"36.71","KABKOT":"KOTA TANGERANG","ID_KEC":"36.71.03","KECAMATAN":"BATUCEPER","ID_DESA":"36.71.03.1003","DESA":"PORIS GAGA","LATITUDE":-6.170518,"LONGITUDE":106.6831936,"STATUS":"BUKA","TANGGAL PENGUMPULAN":"Q2 2025","TANGGAL UPDATE":"17/06/2025"}},{"type":"Feature","geometry":{"coordinates":[106.6812117,-6.1507286],"type":"Point"},"properties":{"NAMA":"PASAR MALAM","TIPE_1":"PERDAGANGAN DAN RETAIL","TIPE_2":"PASAR","TIPE_3":"PASAR TRADISIONAL","TELEPON":"","ALAMAT":"JL. MASJID AL-MUHAJIRIN NO.66-17, RT.003/RW.005, JURUMUDI BARU, KEC. BENDA, KOTA TANGERANG, BANTEN 15124","ID_PROV":"36","PROVINSI":"BANTEN","ID_KABKOT":"36.71","KABKOT":"KOTA TANGERANG","ID_KEC":"36.71.04","KECAMATAN":"BENDA","ID_DESA":"36.71.04.1005","DESA":"JURUMUDI BARU","LATITUDE":-6.1507286,"LONGITUDE":106.6812117,"STATUS":"BUKA","TANGGAL PENGUMPULAN":"Q2 2025","TANGGAL UPDATE":"17/06/2025"}},{"type":"Feature","geometry":{"coordinates":[106.6335814,-6.1659643],"type":"Point"},"properties":{"NAMA":"PASAR MALAM BODON DONI","TIPE_1":"PERDAGANGAN DAN RETAIL","TIPE_2":"PASAR","TIPE_3":"PASAR TRADISIONAL","TELEPON":"","ALAMAT":"JL. PINTU BAR. AIR NO.45, RT.002/RW.002, MEKARSARI, KEC. NEGLASARI, KOTA TANGERANG, BANTEN 15129","ID_PROV":"36","PROVINSI":"BANTEN","ID_KABKOT":"36.71","KABKOT":"KOTA TANGERANG","ID_KEC":"36.71.10","KECAMATAN":"NEGLASARI","ID_DESA":"36.71.10.1005","DESA":"MEKAR SARI","LATITUDE":-6.1659643,"LONGITUDE":106.6335814,"STATUS":"BUKA","TANGGAL PENGUMPULAN":"Q2 2025","TANGGAL UPDATE":"17/06/2025"}},{"type":"Feature","geometry":{"coordinates":[106.6075908,-6.2015881],"type":"Point"},"properties":{"NAMA":"PASAR MALAM CIBODAS BESAR","TIPE_1":"PERDAGANGAN DAN RETAIL","TIPE_2":"PASAR","TIPE_3":"PASAR TRADISIONAL","TELEPON":"","ALAMAT":"JL. MUALIM SARIIN NO.185, RT.004/RW.003, CIBODAS, KEC. CIBODAS, KOTA TANGERANG, BANTEN 15138","ID_PROV":"36","PROVINSI":"BANTEN","ID_KABKOT":"36.71","KABKOT":"KOTA TANGERANG","ID_KEC":"36.71.09","KECAMATAN":"CIBODAS","ID_DESA":"36.71.09.1001","DESA":"CIBODAS","LATITUDE":-6.2015881,"LONGITUDE":106.6075908,"STATUS":"BUKA","TANGGAL PENGUMPULAN":"Q2 2025","TANGGAL UPDATE":"17/06/2025"}},{"type":"Feature","geometry":{"coordinates":[106.6105047,-6.2098122],"type":"Point"},"properties":{"NAMA":"PASAR MALABAR TANGERANG","TIPE_1":"PERDAGANGAN DAN RETAIL","TIPE_2":"PASAR","TIPE_3":"PASAR TRADISIONAL","TELEPON":"","ALAMAT":"JL. KARET RAYA, RT.005/RW.011, CIBODASARI, KEC. CIBODAS, KOTA TANGERANG, BANTEN 15138","ID_PROV":"36","PROVINSI":"BANTEN","ID_KABKOT":"36.71","KABKOT":"KOTA TANGERANG","ID_KEC":"36.71.09","KECAMATAN":"CIBODAS","ID_DESA":"36.71.09.1002","DESA":"CIBODAS SARI","LATITUDE":-6.2098122,"LONGITUDE":106.6105047,"STATUS":"BUKA","TANGGAL PENGUMPULAN":"Q2 2025","TANGGAL UPDATE":"17/06/2025"}},{"type":"Feature","geometry":{"coordinates":[106.6095541,-6.2090187],"type":"Point"},"properties":{"NAMA":"PASAR MALABAR BARU","TIPE_1":"PERDAGANGAN DAN RETAIL","TIPE_2":"PASAR","TIPE_3":"PASAR TRADISIONAL","TELEPON":"","ALAMAT":"JL. MANGGA RAYA NO.126, RT.004/RW.018, CIBODASARI, CIBODAS, TANGERANG CITY, BANTEN 15138","ID_PROV":"36","PROVINSI":"BANTEN","ID_KABKOT":"36.71","KABKOT":"KOTA TANGERANG","ID_KEC":"36.71.09","KECAMATAN":"CIBODAS","ID_DESA":"36.71.09.1002","DESA":"CIBODAS SARI","LATITUDE":-6.2090187,"LONGITUDE":106.6095541,"STATUS":"BUKA","TANGGAL PENGUMPULAN":"Q2 2025","TANGGAL UPDATE":"17/06/2025"}},{"type":"Feature","geometry":{"coordinates":[106.6094885,-6.2081815],"type":"Point"},"properties":{"NAMA":"PASAR MALABAR TANGERANG","TIPE_1":"PERDAGANGAN DAN RETAIL","TIPE_2":"PASAR","TIPE_3":"PASAR TRADISIONAL","TELEPON":"","ALAMAT":"JL. CEMARA RAYA NO.74, RT.004/RW.019, CIBODASARI, KEC. CIBODAS, KOTA TANGERANG, BANTEN 15138","ID_PROV":"36","PROVINSI":"BANTEN","ID_KABKOT":"36.71","KABKOT":"KOTA TANGERANG","ID_KEC":"36.71.09","KECAMATAN":"CIBODAS","ID_DESA":"36.71.09.1002","DESA":"CIBODAS SARI","LATITUDE":-6.2081815,"LONGITUDE":106.6094885,"STATUS":"BUKA","TANGGAL PENGUMPULAN":"Q2 2025","TANGGAL UPDATE":"17/06/2025"}},{"type":"Feature","geometry":{"coordinates":[106.5845416,-6.2141319],"type":"Point"},"properties":{"NAMA":"PASAR MALAM","TIPE_1":"PERDAGANGAN DAN RETAIL","TIPE_2":"PASAR","TIPE_3":"PASAR TRADISIONAL","TELEPON":"","ALAMAT":"RT.005/RW.004, GANDASARI, KEC. JATIUWUNG, KOTA TANGERANG, BANTEN 15137","ID_PROV":"36","PROVINSI":"BANTEN","ID_KABKOT":"36.71","KABKOT":"KOTA TANGERANG","ID_KEC":"36.71.02","KECAMATAN":"JATIUWUNG","ID_DESA":"36.71.02.1004","DESA":"GANDASARI","LATITUDE":-6.2141319,"LONGITUDE":106.5845416,"STATUS":"BUKA","TANGGAL PENGUMPULAN":"Q2 2025","TANGGAL UPDATE":"17/06/2025"}},{"type":"Feature","geometry":{"coordinates":[106.7028702,-6.2237508],"type":"Point"},"properties":{"NAMA":"PASAR LOAKAN SPAREPART CILEDUG","TIPE_1":"PERDAGANGAN DAN RETAIL","TIPE_2":"PASAR","TIPE_3":"PASAR TRADISIONAL","TELEPON":"0838-9321-6161","ALAMAT":"NO JL. KH. HASYIM ASHARI NO.4, RT.002/RW.002, CENTRAL KARANG, KARANG TENGAH, TANGERANG CITY, BANTEN 15157","ID_PROV":"36","PROVINSI":"BANTEN","ID_KABKOT":"36.71","KABKOT":"KOTA TANGERANG","ID_KEC":"36.71.12","KECAMATAN":"KARANG TENGAH","ID_DESA":"36.71.12.1004","DESA":"PONDOK PUCUNG","LATITUDE":-6.2237508,"LONGITUDE":106.7028702,"STATUS":"BUKA","TANGGAL PENGUMPULAN":"Q2 2025","TANGGAL UPDATE":"17/06/2025"}},{"type":"Feature","geometry":{"coordinates":[106.628115,-6.1756997],"type":"Point"},"properties":{"NAMA":"PASAR LOAK MOBIL","TIPE_1":"PERDAGANGAN DAN RETAIL","TIPE_2":"PASAR","TIPE_3":"PASAR TRADISIONAL","TELEPON":"0819-691-933","ALAMAT":"RUKO GRANDPLAZA, JL. RAYA MERDEKA NO.11 BLOK D, SUKAJADI, KEC. KARAWACI, KOTA TANGERANG, BANTEN 15131","ID_PROV":"36","PROVINSI":"BANTEN","ID_KABKOT":"36.71","KABKOT":"KOTA TANGERANG","ID_KEC":"36.71.07","KECAMATAN":"KARAWACI","ID_DESA":"36.71.07.1014","DESA":"SUKAJADI","LATITUDE":-6.1756997,"LONGITUDE":106.628115,"STATUS":"BUKA","TANGGAL PENGUMPULAN":"Q2 2025","TANGGAL UPDATE":"17/06/2025"}},{"type":"Feature","geometry":{"coordinates":[106.7317997,-6.2358597],"type":"Point"},"properties":{"NAMA":"PASAR LINGKUNGAN","TIPE_1":"PERDAGANGAN DAN RETAIL","TIPE_2":"PASAR","TIPE_3":"PASAR TRADISIONAL","TELEPON":"","ALAMAT":"JL. LANGGAR UJUNG NO.RAYA, RT.003/RW.001, LARANGAN UTARA, KEC. LARANGAN, KOTA TANGERANG, BANTEN 15154","ID_PROV":"36","PROVINSI":"BANTEN","ID_KABKOT":"36.71","KABKOT":"KOTA TANGERANG","ID_KEC":"36.71.13","KECAMATAN":"LARANGAN","ID_DESA":"36.71.13.1001","DESA":"LARANGAN UTARA","LATITUDE":-6.2358597,"LONGITUDE":106.7317997,"STATUS":"BUKA","TANGGAL PENGUMPULAN":"Q2 2025","TANGGAL UPDATE":"17/06/2025"}},{"type":"Feature","geometry":{"coordinates":[106.6762787,-6.2159123],"type":"Point"},"properties":{"NAMA":"PASAR LINGKUNGAN","TIPE_1":"PERDAGANGAN DAN RETAIL","TIPE_2":"PASAR","TIPE_3":"PASAR TRADISIONAL","TELEPON":"","ALAMAT":"KUNCIRAN INDAH, KEC. PINANG, KOTA TANGERANG, BANTEN","ID_PROV":"36","PROVINSI":"BANTEN","ID_KABKOT":"36.71","KABKOT":"KOTA TANGERANG","ID_KEC":"36.71.11","KECAMATAN":"PINANG","ID_DESA":"36.71.11.1005","DESA":"KUNCIRAN INDAH","LATITUDE":-6.2159123,"LONGITUDE":106.6762787,"STATUS":"BUKA","TANGGAL PENGUMPULAN":"Q2 2025","TANGGAL UPDATE":"17/06/2025"}},{"type":"Feature","geometry":{"coordinates":[106.6104078,-6.1658144],"type":"Point"},"properties":{"NAMA":"PASAR LINGKUNGAN KEL. NAMBO JAYA","TIPE_1":"PERDAGANGAN DAN RETAIL","TIPE_2":"PASAR","TIPE_3":"PASAR TRADISIONAL","TELEPON":"","ALAMAT":"JL. NN, RT.005/RW.002, NAMBO JAYA, KEC. KARAWACI, KOTA TANGERANG, BANTEN 15112","ID_PROV":"36","PROVINSI":"BANTEN","ID_KABKOT":"36.71","KABKOT":"KOTA TANGERANG","ID_KEC":"36.71.07","KECAMATAN":"KARAWACI","ID_DESA":"36.71.07.1012","DESA":"NAMBO JAYA","LATITUDE":-6.1658144,"LONGITUDE":106.6104078,"STATUS":"BUKA","TANGGAL PENGUMPULAN":"Q2 2025","TANGGAL UPDATE":"17/06/2025"}},{"type":"Feature","geometry":{"coordinates":[106.7036341,-6.2544398],"type":"Point"},"properties":{"NAMA":"PASAR LEMBANG","TIPE_1":"PERDAGANGAN DAN RETAIL","TIPE_2":"PASAR","TIPE_3":"PASAR TRADISIONAL","TELEPON":"","ALAMAT":"JL. RADEN FATAH, RT.002/RW.010, PARUNG SERAB, KEC. CILEDUG, KOTA TANGERANG, BANTEN","ID_PROV":"36","PROVINSI":"BANTEN","ID_KABKOT":"36.71","KABKOT":"KOTA TANGERANG","ID_KEC":"36.71.06","KECAMATAN":"CILEDUG","ID_DESA":"36.71.06.1005","DESA":"PARUNG SERAB","LATITUDE":-6.2544398,"LONGITUDE":106.7036341,"STATUS":"BUKA","TANGGAL PENGUMPULAN":"Q2 2025","TANGGAL UPDATE":"17/06/2025"}},{"type":"Feature","geometry":{"coordinates":[106.7037118,-6.2377788],"type":"Point"},"properties":{"NAMA":"PASAR LEMBANG","TIPE_1":"PERDAGANGAN DAN RETAIL","TIPE_2":"PASAR","TIPE_3":"PASAR TRADISIONAL","TELEPON":"","ALAMAT":"JL. LEMBANG BARU VI NO.1, SUDIMARA BAR., KEC. CILEDUG, KOTA TANGERANG, BANTEN 15151","ID_PROV":"36","PROVINSI":"BANTEN","ID_KABKOT":"36.71","KABKOT":"KOTA TANGERANG","ID_KEC":"36.71.06","KECAMATAN":"CILEDUG","ID_DESA":"36.71.06.1002","DESA":"SUDIMARA BARAT","LATITUDE":-6.2377788,"LONGITUDE":106.7037118,"STATUS":"BUKA","TANGGAL PENGUMPULAN":"Q2 2025","TANGGAL UPDATE":"17/06/2025"}},{"type":"Feature","geometry":{"coordinates":[106.7021497,-6.2388596],"type":"Point"},"properties":{"NAMA":"PASAR LEMBANG BAROKAH","TIPE_1":"PERDAGANGAN DAN RETAIL","TIPE_2":"PASAR","TIPE_3":"PASAR TRADISIONAL","TELEPON":"0859-3959-8524","ALAMAT":"JL. RADEN FATAH NO.6, RT.001/RW.009, SUDIMARA SEL., KEC. CILEDUG, KOTA TANGERANG, BANTEN 15151","ID_PROV":"36","PROVINSI":"BANTEN","ID_KABKOT":"36.71","KABKOT":"KOTA TANGERANG","ID_KEC":"36.71.06","KECAMATAN":"CILEDUG","ID_DESA":"36.71.06.1007","DESA":"SUDIMARA SELATAN","LATITUDE":-6.2388596,"LONGITUDE":106.7021497,"STATUS":"BUKA","TANGGAL PENGUMPULAN":"Q2 2025","TANGGAL UPDATE":"17/06/2025"}},{"type":"Feature","geometry":{"coordinates":[106.5791363,-6.1780396],"type":"Point"},"properties":{"NAMA":"PASAR KAMBOJA","TIPE_1":"PERDAGANGAN DAN RETAIL","TIPE_2":"PASAR","TIPE_3":"PASAR TRADISIONAL","TELEPON":"","ALAMAT":"JL. KENANGA RAYA, RT.004/RW.003, GEMBOR, KEC. PERIUK, KOTA TANGERANG, BANTEN 15133","ID_PROV":"36","PROVINSI":"BANTEN","ID_KABKOT":"36.71","KABKOT":"KOTA TANGERANG","ID_KEC":"36.71.08","KECAMATAN":"PERIUK","ID_DESA":"36.71.08.1002","DESA":"GEMBOR","LATITUDE":-6.1780396,"LONGITUDE":106.5791363,"STATUS":"BUKA","TANGGAL PENGUMPULAN":"Q2 2025","TANGGAL UPDATE":"17/06/2025"}},{"type":"Feature","geometry":{"coordinates":[106.7391881,-6.2467413],"type":"Point"},"properties":{"NAMA":"PASAR KAIN SPREI CIPADU","TIPE_1":"PERDAGANGAN DAN RETAIL","TIPE_2":"PASAR","TIPE_3":"PASAR TRADISIONAL","TELEPON":"0817-127-502","ALAMAT":"JL. KH. WAHID HASYIM NO.41, RT.003/RW.006, CIPADU JAYA, LARANGAN, TANGERANG CITY, BANTEN 15156","ID_PROV":"36","PROVINSI":"BANTEN","ID_KABKOT":"36.71","KABKOT":"KOTA TANGERANG","ID_KEC":"36.71.13","KECAMATAN":"LARANGAN","ID_DESA":"36.71.13.1007","DESA":"CIPADU JAYA","LATITUDE":-6.2467413,"LONGITUDE":106.7391881,"STATUS":"BUKA","TANGGAL PENGUMPULAN":"Q2 2025","TANGGAL UPDATE":"17/06/2025"}},{"type":"Feature","geometry":{"coordinates":[106.7071319,-6.1992089],"type":"Point"},"properties":{"NAMA":"PASAR KAGET PAGI - METRO PERMATA 1","TIPE_1":"PERDAGANGAN DAN RETAIL","TIPE_2":"PASAR","TIPE_3":"PASAR TRADISIONAL","TELEPON":"","ALAMAT":"JALAN METRO PERMATA UTAMA BLOK J1 NO.4 KARANG TENGAH KOTA TANGERANG, BANTEN 15157, RT.005/RW.011, KARANG MULYA, KEC. KARANG TENGAH, KOTA TANGERANG, BANTEN 15157","ID_PROV":"36","PROVINSI":"BANTEN","ID_KABKOT":"36.71","KABKOT":"KOTA TANGERANG","ID_KEC":"36.71.12","KECAMATAN":"KARANG TENGAH","ID_DESA":"36.71.12.1007","DESA":"PARUNG JAYA","LATITUDE":-6.1992089,"LONGITUDE":106.7071319,"STATUS":"BUKA","TANGGAL PENGUMPULAN":"Q2 2025","TANGGAL UPDATE":"17/06/2025"}},{"type":"Feature","geometry":{"coordinates":[106.644448,-6.174191],"type":"Point"},"properties":{"NAMA":"PASAR INDUK TANGERANG","TIPE_1":"PERDAGANGAN DAN RETAIL","TIPE_2":"PASAR","TIPE_3":"PASAR TRADISIONAL","TELEPON":"","ALAMAT":"JL. JEND. SUDIRMAN NO.10-11 BLOK A, RT.004/RW.013, TANAH TINGGI, TANGERANG, TANGERANG CITY, BANTEN 15119","ID_PROV":"36","PROVINSI":"BANTEN","ID_KABKOT":"36.71","KABKOT":"KOTA TANGERANG","ID_KEC":"36.71.01","KECAMATAN":"TANGERANG","ID_DESA":"36.71.01.1003","DESA":"TANAH TINGGI","LATITUDE":-6.174191,"LONGITUDE":106.644448,"STATUS":"BUKA","TANGGAL PENGUMPULAN":"Q2 2025","TANGGAL UPDATE":"17/06/2025"}},{"type":"Feature","geometry":{"coordinates":[106.579274,-6.197065],"type":"Point"},"properties":{"NAMA":"PASAR INDUK JATIUWUNG","TIPE_1":"PERDAGANGAN DAN RETAIL","TIPE_2":"PASAR","TIPE_3":"PASAR MODERN","TELEPON":"","ALAMAT":"JL. GATOT SUBROTO NO.1, RT.002/RW.006, KERONCONG, KEC. JATIUWUNG, KOTA TANGERANG, BANTEN 15136","ID_PROV":"36","PROVINSI":"BANTEN","ID_KABKOT":"36.71","KABKOT":"KOTA TANGERANG","ID_KEC":"36.71.02","KECAMATAN":"JATIUWUNG","ID_DESA":"36.71.02.1001","DESA":"KERONCONG","LATITUDE":-6.197065,"LONGITUDE":106.579274,"STATUS":"BUKA","TANGGAL PENGUMPULAN":"Q2 2025","TANGGAL UPDATE":"17/06/2025"}},{"type":"Feature","geometry":{"coordinates":[106.706909,-6.2261545],"type":"Point"},"properties":{"NAMA":"PASAR IKAN POHON SAWO","TIPE_1":"PERDAGANGAN DAN RETAIL","TIPE_2":"PASAR","TIPE_3":"PASAR TRADISIONAL","TELEPON":"","ALAMAT":"RT.001/RW.003, SUDIMARA BAR., KEC. CILEDUG, KOTA TANGERANG, BANTEN 15151","ID_PROV":"36","PROVINSI":"BANTEN","ID_KABKOT":"36.71","KABKOT":"KOTA TANGERANG","ID_KEC":"36.71.06","KECAMATAN":"CILEDUG","ID_DESA":"36.71.06.1002","DESA":"SUDIMARA BARAT","LATITUDE":-6.2261545,"LONGITUDE":106.706909,"STATUS":"BUKA","TANGGAL PENGUMPULAN":"Q2 2025","TANGGAL UPDATE":"17/06/2025"}},{"type":"Feature","geometry":{"coordinates":[106.6345403,-6.17918],"type":"Point"},"properties":{"NAMA":"PASAR IKAN GROSIR MUARA ANGKE","TIPE_1":"PERDAGANGAN DAN RETAIL","TIPE_2":"PASAR","TIPE_3":"PASAR TRADISIONAL","TELEPON":"","ALAMAT":"JL. KH. SOLEH ALI NO.25 4, RT.003/RW.010, SUKASARI, KEC. TANGERANG, KOTA TANGERANG, BANTEN 15118","ID_PROV":"36","PROVINSI":"BANTEN","ID_KABKOT":"36.71","KABKOT":"KOTA TANGERANG","ID_KEC":"36.71.01","KECAMATAN":"TANGERANG","ID_DESA":"36.71.01.1007","DESA":"SUKASARI","LATITUDE":-6.17918,"LONGITUDE":106.6345403,"STATUS":"BUKA","TANGGAL PENGUMPULAN":"Q2 2025","TANGGAL UPDATE":"17/06/2025"}},{"type":"Feature","geometry":{"coordinates":[106.6104598,-6.1945504],"type":"Point"},"properties":{"NAMA":"PASAR KAGET GAMA RAYA PAGI","TIPE_1":"PERDAGANGAN DAN RETAIL","TIPE_2":"PASAR","TIPE_3":"PASAR TRADISIONAL","TELEPON":"0813-9260-1353","ALAMAT":"PERMAI RW 08, CIMONE,, JL. GAMA RAYA, RT.002/RW.002, CIMONE, KEC. KARAWACI, KOTA TANGERANG, BANTEN 15138","ID_PROV":"36","PROVINSI":"BANTEN","ID_KABKOT":"36.71","KABKOT":"KOTA TANGERANG","ID_KEC":"36.71.07","KECAMATAN":"KARAWACI","ID_DESA":"36.71.07.1005","DESA":"CIMONE","LATITUDE":-6.1945504,"LONGITUDE":106.6104598,"STATUS":"BUKA","TANGGAL PENGUMPULAN":"Q2 2025","TANGGAL UPDATE":"17/06/2025"}},{"type":"Feature","geometry":{"coordinates":[106.6678242,-6.1575258],"type":"Point"},"properties":{"NAMA":"PASAR KAGET HARI MINGGU ARCADIA","TIPE_1":"PERDAGANGAN DAN RETAIL","TIPE_2":"PASAR","TIPE_3":"PASAR TRADISIONAL","TELEPON":"","ALAMAT":"JL. ARCADIA DAAN MOGOT, RT.004/RW.006, BATUCEPER, KEC. BATUCEPER, KOTA TANGERANG, BANTEN 15122","ID_PROV":"36","PROVINSI":"BANTEN","ID_KABKOT":"36.71","KABKOT":"KOTA TANGERANG","ID_KEC":"36.71.03","KECAMATAN":"BATUCEPER","ID_DESA":"36.71.03.1001","DESA":"BATUCEPER","LATITUDE":-6.1575258,"LONGITUDE":106.6678242,"STATUS":"BUKA","TANGGAL PENGUMPULAN":"Q2 2025","TANGGAL UPDATE":"17/06/2025"}},{"type":"Feature","geometry":{"coordinates":[106.7104559,-6.224163],"type":"Point"},"properties":{"NAMA":"PASAR KAGET 3JAM","TIPE_1":"PERDAGANGAN DAN RETAIL","TIPE_2":"PASAR","TIPE_3":"PASAR TRADISIONAL","TELEPON":"","ALAMAT":"RT.001/RW.012, CENTRAL KARANG, KARANG TENGAH, TANGERANG CITY, BANTEN 15157","ID_PROV":"36","PROVINSI":"BANTEN","ID_KABKOT":"36.71","KABKOT":"KOTA TANGERANG","ID_KEC":"36.71.12","KECAMATAN":"KARANG TENGAH","ID_DESA":"36.71.12.1001","DESA":"KARANG TENGAH","LATITUDE":-6.224163,"LONGITUDE":106.7104559,"STATUS":"BUKA","TANGGAL PENGUMPULAN":"Q2 2025","TANGGAL UPDATE":"17/06/2025"}},{"type":"Feature","geometry":{"coordinates":[106.7191503,-6.2340863],"type":"Point"},"properties":{"NAMA":"PASAR JINGGA","TIPE_1":"PERDAGANGAN DAN RETAIL","TIPE_2":"PASAR","TIPE_3":"PASAR TRADISIONAL","TELEPON":"0856-9554-8786","ALAMAT":"JL. H.MENCONG 9 NO.RT01/10, RT.004/RW.002, SUDIMARA TIM., KEC. CILEDUG, KOTA TANGERANG, BANTEN 15151","ID_PROV":"36","PROVINSI":"BANTEN","ID_KABKOT":"36.71","KABKOT":"KOTA TANGERANG","ID_KEC":"36.71.06","KECAMATAN":"CILEDUG","ID_DESA":"36.71.06.1003","DESA":"SUDIMARA TIMUR","LATITUDE":-6.2340863,"LONGITUDE":106.7191503,"STATUS":"BUKA","TANGGAL PENGUMPULAN":"Q2 2025","TANGGAL UPDATE":"17/06/2025"}},{"type":"Feature","geometry":{"coordinates":[106.5901703,-6.188411],"type":"Point"},"properties":{"NAMA":"PASAR JATIUWUNG","TIPE_1":"PERDAGANGAN DAN RETAIL","TIPE_2":"PASAR","TIPE_3":"PASAR TRADISIONAL","TELEPON":"","ALAMAT":"JL. NN NO.21, RT.002/RW.001, SANGIANG JAYA, KEC. PERIUK, KOTA TANGERANG, BANTEN 15134","ID_PROV":"36","PROVINSI":"BANTEN","ID_KABKOT":"36.71","KABKOT":"KOTA TANGERANG","ID_KEC":"36.71.02","KECAMATAN":"JATIUWUNG","ID_DESA":"36.71.02.1001","DESA":"KERONCONG","LATITUDE":-6.188411,"LONGITUDE":106.5901703,"STATUS":"BUKA","TANGGAL PENGUMPULAN":"Q2 2025","TANGGAL UPDATE":"17/06/2025"}},{"type":"Feature","geometry":{"coordinates":[106.5904367,-6.1881697],"type":"Point"},"properties":{"NAMA":"PASAR JATI BARU","TIPE_1":"PERDAGANGAN DAN RETAIL","TIPE_2":"PASAR","TIPE_3":"PASAR TRADISIONAL","TELEPON":"0852-1522-6401","ALAMAT":"JL. PRABU KIAN SANTANG, RT.002/RW.001, SANGIANG JAYA, KEC. PERIUK, KOTA TANGERANG, BANTEN 15134","ID_PROV":"36","PROVINSI":"BANTEN","ID_KABKOT":"36.71","KABKOT":"KOTA TANGERANG","ID_KEC":"36.71.08","KECAMATAN":"PERIUK","ID_DESA":"36.71.08.1004","DESA":"SANGIANG JAYA","LATITUDE":-6.1881697,"LONGITUDE":106.5904367,"STATUS":"BUKA","TANGGAL PENGUMPULAN":"Q2 2025","TANGGAL UPDATE":"17/06/2025"}},{"type":"Feature","geometry":{"coordinates":[106.705624,-6.2178618],"type":"Point"},"properties":{"NAMA":"PASAR JAJAN PONDOK SURYA","TIPE_1":"PERDAGANGAN DAN RETAIL","TIPE_2":"PASAR","TIPE_3":"PASAR TRADISIONAL","TELEPON":"","ALAMAT":"JL. PONDOK SURYA RAYA, KARANG TENGAH, KEC. KARANG TENGAH, KOTA TANGERANG, BANTEN 15157","ID_PROV":"36","PROVINSI":"BANTEN","ID_KABKOT":"36.71","KABKOT":"KOTA TANGERANG","ID_KEC":"36.71.12","KECAMATAN":"KARANG TENGAH","ID_DESA":"36.71.12.1001","DESA":"KARANG TENGAH","LATITUDE":-6.2178618,"LONGITUDE":106.705624,"STATUS":"BUKA","TANGGAL PENGUMPULAN":"Q2 2025","TANGGAL UPDATE":"17/06/2025"}},{"type":"Feature","geometry":{"coordinates":[106.5862051,-6.1839051],"type":"Point"},"properties":{"NAMA":"PASAR EP KERONCONG PERMAI","TIPE_1":"PERDAGANGAN DAN RETAIL","TIPE_2":"PASAR","TIPE_3":"PASAR TRADISIONAL","TELEPON":"","ALAMAT":"RT.011/RW.002, KERONCONG, KEC. JATIUWUNG, KOTA TANGERANG, BANTEN 15134","ID_PROV":"36","PROVINSI":"BANTEN","ID_KABKOT":"36.71","KABKOT":"KOTA TANGERANG","ID_KEC":"36.71.02","KECAMATAN":"JATIUWUNG","ID_DESA":"36.71.02.1001","DESA":"KERONCONG","LATITUDE":-6.1839051,"LONGITUDE":106.5862051,"STATUS":"BUKA","TANGGAL PENGUMPULAN":"Q2 2025","TANGGAL UPDATE":"17/06/2025"}},{"type":"Feature","geometry":{"coordinates":[106.675805,-6.1455828],"type":"Point"},"properties":{"NAMA":"PASAR DUTA GARDEN","TIPE_1":"PERDAGANGAN DAN RETAIL","TIPE_2":"PASAR","TIPE_3":"PASAR TRADISIONAL","TELEPON":"","ALAMAT":"JL. HUSEIN SASTRANEGARA BLOK A NO.1, RT.001/RW.008, JURUMUDI BARU, KEC. BENDA, KOTA TANGERANG, BANTEN 15124","ID_PROV":"36","PROVINSI":"BANTEN","ID_KABKOT":"36.71","KABKOT":"KOTA TANGERANG","ID_KEC":"36.71.04","KECAMATAN":"BENDA","ID_DESA":"36.71.04.1005","DESA":"JURUMUDI BARU","LATITUDE":-6.1455828,"LONGITUDE":106.675805,"STATUS":"BUKA","TANGGAL PENGUMPULAN":"Q2 2025","TANGGAL UPDATE":"17/06/2025"}},{"type":"Feature","geometry":{"coordinates":[106.6264008,-6.1788826],"type":"Point"},"properties":{"NAMA":"PASAR GRENDENG, KOTA TANGERANG","TIPE_1":"PERDAGANGAN DAN RETAIL","TIPE_2":"PASAR","TIPE_3":"PASAR TRADISIONAL","TELEPON":"","ALAMAT":"JL. RAYA KARAWACI / IMAM BONJOL NO.236, RT.003/RW.004, SUKAJADI, KEC. KARAWACI, KOTA TANGERANG, BANTEN 15113","ID_PROV":"36","PROVINSI":"BANTEN","ID_KABKOT":"36.71","KABKOT":"KOTA TANGERANG","ID_KEC":"36.71.07","KECAMATAN":"KARAWACI","ID_DESA":"36.71.07.1014","DESA":"SUKAJADI","LATITUDE":-6.1788826,"LONGITUDE":106.6264008,"STATUS":"BUKA","TANGGAL PENGUMPULAN":"Q2 2025","TANGGAL UPDATE":"17/06/2025"}},{"type":"Feature","geometry":{"coordinates":[106.687841,-6.1683268],"type":"Point"},"properties":{"NAMA":"PASAR DARURAT BUDI INDAH","TIPE_1":"PERDAGANGAN DAN RETAIL","TIPE_2":"PASAR","TIPE_3":"PASAR TRADISIONAL","TELEPON":"","ALAMAT":"JL. RINJANI NO.14 BLOK F5, RT.005/RW.007, PORIS GAGA, KEC. BATUCEPER, KOTA TANGERANG, BANTEN 15122","ID_PROV":"36","PROVINSI":"BANTEN","ID_KABKOT":"36.71","KABKOT":"KOTA TANGERANG","ID_KEC":"36.71.03","KECAMATAN":"BATUCEPER","ID_DESA":"36.71.03.1003","DESA":"PORIS GAGA","LATITUDE":-6.1683268,"LONGITUDE":106.687841,"STATUS":"BUKA","TANGGAL PENGUMPULAN":"Q2 2025","TANGGAL UPDATE":"17/06/2025"}},{"type":"Feature","geometry":{"coordinates":[106.7387791,-6.2405892],"type":"Point"},"properties":{"NAMA":"PASAR CIPADU","TIPE_1":"PERDAGANGAN DAN RETAIL","TIPE_2":"PASAR","TIPE_3":"PASAR TRADISIONAL","TELEPON":"","ALAMAT":"JALAN KH. WAHID HASYIM NO.59, CIPADU, KEBAYORAN LAMA, KOTA JAKARTA SELATAN DAERAH KHUSUS IBUKOTA JAKARTA, RT.005/RW.005, CIPADU, KEC. LARANGAN, KOTA, KOTA TANGERANG, BANTEN 15155","ID_PROV":"36","PROVINSI":"BANTEN","ID_KABKOT":"36.71","KABKOT":"KOTA TANGERANG","ID_KEC":"36.71.13","KECAMATAN":"LARANGAN","ID_DESA":"36.71.13.1003","DESA":"CIPADU","LATITUDE":-6.2405892,"LONGITUDE":106.7387791,"STATUS":"BUKA","TANGGAL PENGUMPULAN":"Q2 2025","TANGGAL UPDATE":"17/06/2025"}},{"type":"Feature","geometry":{"coordinates":[106.6365848,-6.1918762],"type":"Point"},"properties":{"NAMA":"PASAR CIKOKOL KOTA TANGERANG","TIPE_1":"PERDAGANGAN DAN RETAIL","TIPE_2":"PASAR","TIPE_3":"PASAR TRADISIONAL","TELEPON":"","ALAMAT":"RT.003/RW.003, BABAKAN, KEC. TANGERANG, KOTA TANGERANG, BANTEN 15118","ID_PROV":"36","PROVINSI":"BANTEN","ID_KABKOT":"36.71","KABKOT":"KOTA TANGERANG","ID_KEC":"36.71.01","KECAMATAN":"TANGERANG","ID_DESA":"36.71.01.1008","DESA":"BABAKAN","LATITUDE":-6.1918762,"LONGITUDE":106.6365848,"STATUS":"BUKA","TANGGAL PENGUMPULAN":"Q2 2025","TANGGAL UPDATE":"17/06/2025"}},{"type":"Feature","geometry":{"coordinates":[106.5986232,-6.1870895],"type":"Point"},"properties":{"NAMA":"PASAR CIBODAS","TIPE_1":"PERDAGANGAN DAN RETAIL","TIPE_2":"PASAR","TIPE_3":"PASAR TRADISIONAL","TELEPON":"","ALAMAT":"JL. GATOT SUBROTO, RT.007/RW.010, SANGIANG JAYA, KEC. PERIUK, KOTA TANGERANG, BANTEN 15132","ID_PROV":"36","PROVINSI":"BANTEN","ID_KABKOT":"36.71","KABKOT":"KOTA TANGERANG","ID_KEC":"36.71.08","KECAMATAN":"PERIUK","ID_DESA":"36.71.08.1004","DESA":"SANGIANG JAYA","LATITUDE":-6.1870895,"LONGITUDE":106.5986232,"STATUS":"BUKA","TANGGAL PENGUMPULAN":"Q2 2025","TANGGAL UPDATE":"17/06/2025"}},{"type":"Feature","geometry":{"coordinates":[106.6067466,-6.2001349],"type":"Point"},"properties":{"NAMA":"PASAR CIBODAS BESAR","TIPE_1":"PERDAGANGAN DAN RETAIL","TIPE_2":"PASAR","TIPE_3":"PASAR TRADISIONAL","TELEPON":"","ALAMAT":"JL. DIPATI UNUS, RT.004/RW.003, CIBODAS, KEC. CIBODAS, KOTA TANGERANG, BANTEN 15138","ID_PROV":"36","PROVINSI":"BANTEN","ID_KABKOT":"36.71","KABKOT":"KOTA TANGERANG","ID_KEC":"36.71.09","KECAMATAN":"CIBODAS","ID_DESA":"36.71.09.1001","DESA":"CIBODAS","LATITUDE":-6.2001349,"LONGITUDE":106.6067466,"STATUS":"BUKA","TANGGAL PENGUMPULAN":"Q2 2025","TANGGAL UPDATE":"17/06/2025"}},{"type":"Feature","geometry":{"coordinates":[106.63541149999999,-6.2129633],"type":"Point"},"properties":{"NAMA":"PASAR BONA","TIPE_1":"PERDAGANGAN DAN RETAIL","TIPE_2":"PASAR","TIPE_3":"PASAR TRADISIONAL","TELEPON":"","ALAMAT":"JL. BONA TIMUR IV, RT.009/RW.007, CIKOKOL, KEC. TANGERANG, KOTA TANGERANG, BANTEN 15117","ID_PROV":"36","PROVINSI":"BANTEN","ID_KABKOT":"36.71","KABKOT":"KOTA TANGERANG","ID_KEC":"36.71.01","KECAMATAN":"TANGERANG","ID_DESA":"36.71.01.1005","DESA":"CIKOKOL","LATITUDE":-6.2129633,"LONGITUDE":106.6354115,"STATUS":"BUKA","TANGGAL PENGUMPULAN":"Q2 2025","TANGGAL UPDATE":"17/06/2025"}},{"type":"Feature","geometry":{"coordinates":[106.73752239999999,-6.2466665],"type":"Point"},"properties":{"NAMA":"PASAR CANDI4D","TIPE_1":"PERDAGANGAN DAN RETAIL","TIPE_2":"PASAR","TIPE_3":"PASAR TRADISIONAL","TELEPON":"","ALAMAT":"RT.003/RW.005, CIPADU JAYA, KEC. LARANGAN, KOTA TANGERANG, BANTEN 15155","ID_PROV":"36","PROVINSI":"BANTEN","ID_KABKOT":"36.71","KABKOT":"KOTA TANGERANG","ID_KEC":"36.71.13","KECAMATAN":"LARANGAN","ID_DESA":"36.71.13.1007","DESA":"CIPADU JAYA","LATITUDE":-6.2466665,"LONGITUDE":106.7375224,"STATUS":"BUKA","TANGGAL PENGUMPULAN":"Q2 2025","TANGGAL UPDATE":"17/06/2025"}},{"type":"Feature","geometry":{"coordinates":[106.7029943,-6.2369082],"type":"Point"},"properties":{"NAMA":"PASAR BURUNG LEMBANG CILEDUG","TIPE_1":"PERDAGANGAN DAN RETAIL","TIPE_2":"PASAR","TIPE_3":"PASAR TRADISIONAL","TELEPON":"","ALAMAT":"JL. RADEN FATAH, RT.002/RW.009, SUDIMARA BAR., KEC. CILEDUG, KOTA TANGERANG, BANTEN 15151","ID_PROV":"36","PROVINSI":"BANTEN","ID_KABKOT":"36.71","KABKOT":"KOTA TANGERANG","ID_KEC":"36.71.06","KECAMATAN":"CILEDUG","ID_DESA":"36.71.06.1002","DESA":"SUDIMARA BARAT","LATITUDE":-6.2369082,"LONGITUDE":106.7029943,"STATUS":"BUKA","TANGGAL PENGUMPULAN":"Q2 2025","TANGGAL UPDATE":"17/06/2025"}},{"type":"Feature","geometry":{"coordinates":[106.7029535,-6.2364993],"type":"Point"},"properties":{"NAMA":"PASAR BUAH LEMBANG","TIPE_1":"PERDAGANGAN DAN RETAIL","TIPE_2":"PASAR","TIPE_3":"PASAR TRADISIONAL","TELEPON":"0858-8801-1224","ALAMAT":"JL. LEMBANG BARU DALAM II, RT.001/RW.009, WEST SUDIMARA, CILEDUG, TANGERANG CITY, BANTEN 15151","ID_PROV":"36","PROVINSI":"BANTEN","ID_KABKOT":"36.71","KABKOT":"KOTA TANGERANG","ID_KEC":"36.71.06","KECAMATAN":"CILEDUG","ID_DESA":"36.71.06.1002","DESA":"SUDIMARA BARAT","LATITUDE":-6.2364993,"LONGITUDE":106.7029535,"STATUS":"BUKA","TANGGAL PENGUMPULAN":"Q2 2025","TANGGAL UPDATE":"17/06/2025"}},{"type":"Feature","geometry":{"coordinates":[106.6067855,-6.2003741],"type":"Point"},"properties":{"NAMA":"PASAR BPJSPASAR SENG","TIPE_1":"PERDAGANGAN DAN RETAIL","TIPE_2":"PASAR","TIPE_3":"PASAR TRADISIONAL","TELEPON":"","ALAMAT":"JL. PANDAWA, RT.004/RW.003, CIBODAS, KEC. CIBODAS, KOTA TANGERANG, BANTEN 15138","ID_PROV":"36","PROVINSI":"BANTEN","ID_KABKOT":"36.71","KABKOT":"KOTA TANGERANG","ID_KEC":"36.71.09","KECAMATAN":"CIBODAS","ID_DESA":"36.71.09.1003","DESA":"CIBODAS BARU","LATITUDE":-6.2003741,"LONGITUDE":106.6067855,"STATUS":"BUKA","TANGGAL PENGUMPULAN":"Q2 2025","TANGGAL UPDATE":"17/06/2025"}},{"type":"Feature","geometry":{"coordinates":[106.6318403,-6.2154712],"type":"Point"},"properties":{"NAMA":"PASAR AYALIR","TIPE_1":"PERDAGANGAN DAN RETAIL","TIPE_2":"PASAR","TIPE_3":"PASAR TRADISIONAL","TELEPON":"","ALAMAT":"CLASTER ANYELIR, JL. KB. NANAS, PANUNGGANGAN UTARA, KEC. PINANG, KOTA TANGERANG, BANTEN 15143","ID_PROV":"36","PROVINSI":"BANTEN","ID_KABKOT":"36.71","KABKOT":"KOTA TANGERANG","ID_KEC":"36.71.11","KECAMATAN":"PINANG","ID_DESA":"36.71.11.1010","DESA":"PANUNGGANGAN UTARA","LATITUDE":-6.2154712,"LONGITUDE":106.6318403,"STATUS":"BUKA","TANGGAL PENGUMPULAN":"Q2 2025","TANGGAL UPDATE":"17/06/2025"}},{"type":"Feature","geometry":{"coordinates":[106.6350983,-6.1758172],"type":"Point"},"properties":{"NAMA":"PASAR ANYAR TANGERANG","TIPE_1":"PERDAGANGAN DAN RETAIL","TIPE_2":"PASAR","TIPE_3":"PASAR TRADISIONAL","TELEPON":"","ALAMAT":"JL. JEND. AHMAD YANI, RT.002/RW.004, SUKAASIH, KEC. TANGERANG, KOTA TANGERANG, BANTEN 15111","ID_PROV":"36","PROVINSI":"BANTEN","ID_KABKOT":"36.71","KABKOT":"KOTA TANGERANG","ID_KEC":"36.71.01","KECAMATAN":"TANGERANG","ID_DESA":"36.71.01.1002","DESA":"SUKAASIH","LATITUDE":-6.1758172,"LONGITUDE":106.6350983,"STATUS":"BUKA","TANGGAL PENGUMPULAN":"Q2 2025","TANGGAL UPDATE":"17/06/2025"}},{"type":"Feature","geometry":{"coordinates":[106.6175096,-6.1725487],"type":"Point"},"properties":{"NAMA":"PASAR BARU","TIPE_1":"PERDAGANGAN DAN RETAIL","TIPE_2":"PASAR","TIPE_3":"PASAR TRADISIONAL","TELEPON":"","ALAMAT":"JL. RHM NOERADJI NO.4, RT.003/RW.004, SUMUR PACING, KEC. KARAWACI, KOTA TANGERANG, BANTEN 15114","ID_PROV":"36","PROVINSI":"BANTEN","ID_KABKOT":"36.71","KABKOT":"KOTA TANGERANG","ID_KEC":"36.71.07","KECAMATAN":"KARAWACI","ID_DESA":"36.71.07.1008","DESA":"SUMUR PACING","LATITUDE":-6.1725487,"LONGITUDE":106.6175096,"STATUS":"BUKA","TANGGAL PENGUMPULAN":"Q2 2025","TANGGAL UPDATE":"17/06/2025"}},{"type":"Feature","geometry":{"coordinates":[106.6146135,-6.2004485],"type":"Point"},"properties":{"NAMA":"PASAR BANDENG","TIPE_1":"PERDAGANGAN DAN RETAIL","TIPE_2":"PASAR","TIPE_3":"PASAR TRADISIONAL","TELEPON":"","ALAMAT":"JL. BERINGIN RAYA NO.172, RT.003/RW.5, NUSA JAYA, KEC. KARAWACI, KOTA TANGERANG, BANTEN 15116","ID_PROV":"36","PROVINSI":"BANTEN","ID_KABKOT":"36.71","KABKOT":"KOTA TANGERANG","ID_KEC":"36.71.07","KECAMATAN":"KARAWACI","ID_DESA":"36.71.07.1003","DESA":"KARAWACI BARU","LATITUDE":-6.2004485,"LONGITUDE":106.6146135,"STATUS":"BUKA","TANGGAL PENGUMPULAN":"Q2 2025","TANGGAL UPDATE":"17/06/2025"}},{"type":"Feature","geometry":{"coordinates":[106.685237,-6.175968],"type":"Point"},"properties":{"NAMA":"PASAR TRADISIONAL PORIS INDAH","TIPE_1":"PERDAGANGAN DAN RETAIL","TIPE_2":"PASAR","TIPE_3":"PASAR TRADISIONAL","TELEPON":"","ALAMAT":"JALAN NYIMAS MELATI NO.14, RT.015/RW.007, CIPONDOH INDAH, KEC. CIPONDOH, KOTA TANGERANG, BANTEN 15148","ID_PROV":"36","PROVINSI":"BANTEN","ID_KABKOT":"36.71","KABKOT":"KOTA TANGERANG","ID_KEC":"36.71.05","KECAMATAN":"CIPONDOH","ID_DESA":"36.71.05.1003","DESA":"CIPONDOH INDAH","LATITUDE":-6.175968,"LONGITUDE":106.685237,"STATUS":"BUKA","TANGGAL PENGUMPULAN":"Q2 2025","TANGGAL UPDATE":"17/06/2025"}},{"type":"Feature","geometry":{"coordinates":[106.6789094,-6.1857687],"type":"Point"},"properties":{"NAMA":"PASAR TRADISIONAL SIPON CIPONDOH","TIPE_1":"PERDAGANGAN DAN RETAIL","TIPE_2":"PASAR","TIPE_3":"PASAR TRADISIONAL","TELEPON":"0813-8332-9830","ALAMAT":"JL. IRIGASI SIPON NO.24, RT.004/RW.003, CIPONDOH, KEC. CIPONDOH, KOTA TANGERANG, BANTEN 15148","ID_PROV":"36","PROVINSI":"BANTEN","ID_KABKOT":"36.71","KABKOT":"KOTA TANGERANG","ID_KEC":"36.71.05","KECAMATAN":"CIPONDOH","ID_DESA":"36.71.05.1001","DESA":"CIPONDOH","LATITUDE":-6.1857687,"LONGITUDE":106.6789094,"STATUS":"BUKA","TANGGAL PENGUMPULAN":"Q2 2025","TANGGAL UPDATE":"17/06/2025"}},{"type":"Feature","geometry":{"coordinates":[106.7082216,-6.2252335],"type":"Point"},"properties":{"NAMA":"PASAR TRADISIONAL","TIPE_1":"PERDAGANGAN DAN RETAIL","TIPE_2":"PASAR","TIPE_3":"PASAR TRADISIONAL","TELEPON":"(021) 7318701","ALAMAT":"WEST SUDIMARA, CILEDUG, TANGERANG CITY, BANTEN","ID_PROV":"36","PROVINSI":"BANTEN","ID_KABKOT":"36.71","KABKOT":"KOTA TANGERANG","ID_KEC":"36.71.06","KECAMATAN":"CILEDUG","ID_DESA":"36.71.06.1002","DESA":"SUDIMARA BARAT","LATITUDE":-6.2252335,"LONGITUDE":106.7082216,"STATUS":"BUKA","TANGGAL PENGUMPULAN":"Q2 2025","TANGGAL UPDATE":"17/06/2025"}},{"type":"Feature","geometry":{"coordinates":[106.5840128,-6.1685927],"type":"Point"},"properties":{"NAMA":"PASAR TRADISIONAL TOTAL","TIPE_1":"PERDAGANGAN DAN RETAIL","TIPE_2":"PASAR","TIPE_3":"PASAR TRADISIONAL","TELEPON":"","ALAMAT":"JL. COMAL BLOK G1 NO.6, RT.010/RW.007, GEMBOR, KEC. PERIUK, KOTA TANGERANG, BANTEN 15133","ID_PROV":"36","PROVINSI":"BANTEN","ID_KABKOT":"36.71","KABKOT":"KOTA TANGERANG","ID_KEC":"36.71.08","KECAMATAN":"PERIUK","ID_DESA":"36.71.08.1002","DESA":"GEMBOR","LATITUDE":-6.1685927,"LONGITUDE":106.5840128,"STATUS":"BUKA","TANGGAL PENGUMPULAN":"Q2 2025","TANGGAL UPDATE":"17/06/2025"}},{"type":"Feature","geometry":{"coordinates":[106.6973689,-6.2019199],"type":"Point"},"properties":{"NAMA":"PASAR TRADISIONAL SPIB","TIPE_1":"PERDAGANGAN DAN RETAIL","TIPE_2":"PASAR","TIPE_3":"PASAR TRADISIONAL","TELEPON":"0813-8415-2757","ALAMAT":"JLN RAYA PONDOK BAHAR RAYA, RT.02/RW.02, PD. BAHAR, KEC. KARANG TENGAH, KOTA TANGERANG, BANTEN 15158","ID_PROV":"36","PROVINSI":"BANTEN","ID_KABKOT":"36.71","KABKOT":"KOTA TANGERANG","ID_KEC":"36.71.12","KECAMATAN":"KARANG TENGAH","ID_DESA":"36.71.12.1003","DESA":"PONDOK BAHAR","LATITUDE":-6.2019199,"LONGITUDE":106.6973689,"STATUS":"BUKA","TANGGAL PENGUMPULAN":"Q2 2025","TANGGAL UPDATE":"17/06/2025"}},{"type":"Feature","geometry":{"coordinates":[106.6881128,-6.1771906],"type":"Point"},"properties":{"NAMA":"PASAR TRADISIONAL PORIS INDAH","TIPE_1":"PERDAGANGAN DAN RETAIL","TIPE_2":"PASAR","TIPE_3":"PASAR TRADISIONAL","TELEPON":"","ALAMAT":"JL. PORIS INDAH, RT.002/RW.006, CIPONDOH INDAH, KEC. CIPONDOH, KOTA TANGERANG, BANTEN","ID_PROV":"36","PROVINSI":"BANTEN","ID_KABKOT":"36.71","KABKOT":"KOTA TANGERANG","ID_KEC":"36.71.05","KECAMATAN":"CIPONDOH","ID_DESA":"36.71.05.1003","DESA":"CIPONDOH INDAH","LATITUDE":-6.1771906,"LONGITUDE":106.6881128,"STATUS":"BUKA","TANGGAL PENGUMPULAN":"Q2 2025","TANGGAL UPDATE":"17/06/2025"}},{"type":"Feature","geometry":{"coordinates":[106.6460334,-6.1615877],"type":"Point"},"properties":{"NAMA":"PASAR TRADISIONAL","TIPE_1":"PERDAGANGAN DAN RETAIL","TIPE_2":"PASAR","TIPE_3":"PASAR TRADISIONAL","TELEPON":"0812-9005-7018","ALAMAT":"JL. NYIMAS MELATI NO.27, RT.003/RW.001, KARANG ANYAR, NEGLASARI, TANGERANG CITY, BANTEN 15720","ID_PROV":"36","PROVINSI":"BANTEN","ID_KABKOT":"36.71","KABKOT":"KOTA TANGERANG","ID_KEC":"36.71.10","KECAMATAN":"NEGLASARI","ID_DESA":"36.71.10.1006","DESA":"KARANG ANYAR","LATITUDE":-6.1615877,"LONGITUDE":106.6460334,"STATUS":"BUKA","TANGGAL PENGUMPULAN":"Q2 2025","TANGGAL UPDATE":"17/06/2025"}},{"type":"Feature","geometry":{"coordinates":[106.6788417,-6.1855531],"type":"Point"},"properties":{"NAMA":"PASAR TRADISIONAL SIPON CIPONDOH","TIPE_1":"PERDAGANGAN DAN RETAIL","TIPE_2":"PASAR","TIPE_3":"PASAR TRADISIONAL","TELEPON":"0882-1213-1118","ALAMAT":"JL. UTAMA KP. GN., RT.003/RW.002, CIPONDOH, KEC. CIPONDOH, KOTA TANGERANG, BANTEN 15148","ID_PROV":"36","PROVINSI":"BANTEN","ID_KABKOT":"36.71","KABKOT":"KOTA TANGERANG","ID_KEC":"36.71.05","KECAMATAN":"CIPONDOH","ID_DESA":"36.71.05.1001","DESA":"CIPONDOH","LATITUDE":-6.1855531,"LONGITUDE":106.6788417,"STATUS":"BUKA","TANGGAL PENGUMPULAN":"Q2 2025","TANGGAL UPDATE":"17/06/2025"}},{"type":"Feature","geometry":{"coordinates":[106.6366113,-6.1949223],"type":"Point"},"properties":{"NAMA":"PASAR MODERN TOWN MARKET","TIPE_1":"PERDAGANGAN DAN RETAIL","TIPE_2":"PASAR","TIPE_3":"PASAR MODERN","TELEPON":"0857-1831-0265","ALAMAT":"MODERN TOWN MARKET, BABAKAN, KEC. TANGERANG, KOTA TANGERANG, BANTEN 15117","ID_PROV":"36","PROVINSI":"BANTEN","ID_KABKOT":"36.71","KABKOT":"KOTA TANGERANG","ID_KEC":"36.71.01","KECAMATAN":"TANGERANG","ID_DESA":"36.71.01.1008","DESA":"BABAKAN","LATITUDE":-6.1949223,"LONGITUDE":106.6366113,"STATUS":"BUKA","TANGGAL PENGUMPULAN":"Q2 2025","TANGGAL UPDATE":"17/06/2025"}},{"type":"Feature","geometry":{"coordinates":[106.6067553,-6.2001071],"type":"Point"},"properties":{"NAMA":"PASAR TRADISIONAL KELURAHAN CIBODAS","TIPE_1":"PERDAGANGAN DAN RETAIL","TIPE_2":"PASAR","TIPE_3":"PASAR TRADISIONAL","TELEPON":"","ALAMAT":"JL. DIPATI UNUS NO.21-27, RT.004/RW.003, CIBODAS, KEC. CIBODAS, KOTA TANGERANG, BANTEN 15138","ID_PROV":"36","PROVINSI":"BANTEN","ID_KABKOT":"36.71","KABKOT":"KOTA TANGERANG","ID_KEC":"36.71.09","KECAMATAN":"CIBODAS","ID_DESA":"36.71.09.1001","DESA":"CIBODAS","LATITUDE":-6.2001071,"LONGITUDE":106.6067553,"STATUS":"BUKA","TANGGAL PENGUMPULAN":"Q2 2025","TANGGAL UPDATE":"17/06/2025"}},{"type":"Feature","geometry":{"coordinates":[106.713029,-6.2047039],"type":"Point"},"properties":{"NAMA":"PASAR TRADISIONAL","TIPE_1":"PERDAGANGAN DAN RETAIL","TIPE_2":"PASAR","TIPE_3":"PASAR TRADISIONAL","TELEPON":"","ALAMAT":"JL. METRO PERMATA UTAMA NO.1, RT.006/RW.002, KARANG MULYA, KEC. KARANG TENGAH, KOTA TANGERANG, BANTEN 15157","ID_PROV":"36","PROVINSI":"BANTEN","ID_KABKOT":"36.71","KABKOT":"KOTA TANGERANG","ID_KEC":"36.71.12","KECAMATAN":"KARANG TENGAH","ID_DESA":"36.71.12.1002","DESA":"KARANG MULYA","LATITUDE":-6.2047039,"LONGITUDE":106.713029,"STATUS":"BUKA","TANGGAL PENGUMPULAN":"Q2 2025","TANGGAL UPDATE":"17/06/2025"}},{"type":"Feature","geometry":{"coordinates":[106.60675529999999,-6.2001071],"type":"Point"},"properties":{"NAMA":"PASAR TRADISIONAL KELURAHAN CIBODAS","TIPE_1":"PERDAGANGAN DAN RETAIL","TIPE_2":"PASAR","TIPE_3":"PASAR TRADISIONAL","TELEPON":"","ALAMAT":"JL. DIPATI UNUS NO.21-27, RT.004/RW.003, CIBODAS, KEC. CIBODAS, KOTA TANGERANG, BANTEN 15138","ID_PROV":"36","PROVINSI":"BANTEN","ID_KABKOT":"36.71","KABKOT":"KOTA TANGERANG","ID_KEC":"36.71.09","KECAMATAN":"CIBODAS","ID_DESA":"36.71.09.1001","DESA":"CIBODAS","LATITUDE":-6.2001071,"LONGITUDE":106.6067553,"STATUS":"BUKA","TANGGAL PENGUMPULAN":"Q2 2025","TANGGAL UPDATE":"17/06/2025"}},{"type":"Feature","geometry":{"coordinates":[106.677493,-6.1855356],"type":"Point"},"properties":{"NAMA":"PASAR SIPON","TIPE_1":"PERDAGANGAN DAN RETAIL","TIPE_2":"PASAR","TIPE_3":"PASAR TRADISIONAL","TELEPON":"","ALAMAT":"JL. IRIGASI NO.16, RT.002/RW.004, CIPONDOH, KEC. CIPONDOH, KOTA TANGERANG, BANTEN 15148","ID_PROV":"36","PROVINSI":"BANTEN","ID_KABKOT":"36.71","KABKOT":"KOTA TANGERANG","ID_KEC":"36.71.05","KECAMATAN":"CIPONDOH","ID_DESA":"36.71.05.1001","DESA":"CIPONDOH","LATITUDE":-6.1855356,"LONGITUDE":106.677493,"STATUS":"BUKA","TANGGAL PENGUMPULAN":"Q2 2025","TANGGAL UPDATE":"17/06/2025"}},{"type":"Feature","geometry":{"coordinates":[106.6455854,-6.1733808],"type":"Point"},"properties":{"NAMA":"PASAR TANAH TINGGI BLOK M","TIPE_1":"PERDAGANGAN DAN RETAIL","TIPE_2":"PASAR","TIPE_3":"PASAR TRADISIONAL","TELEPON":"","ALAMAT":"PS. INDUK TANAH TINGGI, BLOK.M, TANAH TINGGI, KEC. TANGERANG, KOTA TANGERANG, BANTEN 15119","ID_PROV":"36","PROVINSI":"BANTEN","ID_KABKOT":"36.71","KABKOT":"KOTA TANGERANG","ID_KEC":"36.71.01","KECAMATAN":"TANGERANG","ID_DESA":"36.71.01.1003","DESA":"TANAH TINGGI","LATITUDE":-6.1733808,"LONGITUDE":106.6455854,"STATUS":"BUKA","TANGGAL PENGUMPULAN":"Q2 2025","TANGGAL UPDATE":"17/06/2025"}},{"type":"Feature","geometry":{"coordinates":[106.5919993,-6.1855468],"type":"Point"},"properties":{"NAMA":"PASAR SWADAYA SANGIANG JAYA/BATAKO","TIPE_1":"PERDAGANGAN DAN RETAIL","TIPE_2":"PASAR","TIPE_3":"PASAR TRADISIONAL","TELEPON":"0812-8697-0555","ALAMAT":"JL. PRABU KIAN SANTANG, RT.001/RW.03, SANGIANG JAYA, KEC. PERIUK, KOTA TANGERANG, BANTEN 15134","ID_PROV":"36","PROVINSI":"BANTEN","ID_KABKOT":"36.71","KABKOT":"KOTA TANGERANG","ID_KEC":"36.71.08","KECAMATAN":"PERIUK","ID_DESA":"36.71.08.1004","DESA":"SANGIANG JAYA","LATITUDE":-6.1855468,"LONGITUDE":106.5919993,"STATUS":"BUKA","TANGGAL PENGUMPULAN":"Q2 2025","TANGGAL UPDATE":"17/06/2025"}},{"type":"Feature","geometry":{"coordinates":[106.6391826,-6.2160678],"type":"Point"},"properties":{"NAMA":"PASAR SEKNEG KEBON NANAS","TIPE_1":"PERDAGANGAN DAN RETAIL","TIPE_2":"PASAR","TIPE_3":"PASAR TRADISIONAL","TELEPON":"","ALAMAT":"JL. KOMP. SEKNEG NO.3, RT.002/RW.003, PANUNGGANGAN UTARA, KEC. PINANG, KOTA TANGERANG, BANTEN 15143","ID_PROV":"36","PROVINSI":"BANTEN","ID_KABKOT":"36.71","KABKOT":"KOTA TANGERANG","ID_KEC":"36.71.11","KECAMATAN":"PINANG","ID_DESA":"36.71.11.1010","DESA":"PANUNGGANGAN UTARA","LATITUDE":-6.2160678,"LONGITUDE":106.6391826,"STATUS":"BUKA","TANGGAL PENGUMPULAN":"Q2 2025","TANGGAL UPDATE":"17/06/2025"}},{"type":"Feature","geometry":{"coordinates":[106.5796456,-6.1955186],"type":"Point"},"properties":{"NAMA":"PASAR SAYURAN","TIPE_1":"PERDAGANGAN DAN RETAIL","TIPE_2":"PASAR","TIPE_3":"PASAR TRADISIONAL","TELEPON":"","ALAMAT":"PASAR INDUK, KEC. JATIUWUNG, KOTA TANGERANG, BANTEN","ID_PROV":"36","PROVINSI":"BANTEN","ID_KABKOT":"36.71","KABKOT":"KOTA TANGERANG","ID_KEC":"36.71.02","KECAMATAN":"JATIUWUNG","ID_DESA":"36.71.02.1001","DESA":"KERONCONG","LATITUDE":-6.1955186,"LONGITUDE":106.5796456,"STATUS":"BUKA","TANGGAL PENGUMPULAN":"Q2 2025","TANGGAL UPDATE":"17/06/2025"}},{"type":"Feature","geometry":{"coordinates":[106.708981,-6.2249292],"type":"Point"},"properties":{"NAMA":"PASAR SARASWATI","TIPE_1":"PERDAGANGAN DAN RETAIL","TIPE_2":"PASAR","TIPE_3":"PASAR TRADISIONAL","TELEPON":"","ALAMAT":"JL. HOS COKROAMINOTO NO.45, RT.003/RW.001, SUDIMARA BAR., KEC. CILEDUG, KOTA TANGERANG, BANTEN 15151","ID_PROV":"36","PROVINSI":"BANTEN","ID_KABKOT":"36.71","KABKOT":"KOTA TANGERANG","ID_KEC":"36.71.06","KECAMATAN":"CILEDUG","ID_DESA":"36.71.06.1002","DESA":"SUDIMARA BARAT","LATITUDE":-6.2249292,"LONGITUDE":106.708981,"STATUS":"BUKA","TANGGAL PENGUMPULAN":"Q2 2025","TANGGAL UPDATE":"17/06/2025"}},{"type":"Feature","geometry":{"coordinates":[106.5872339,-6.170489],"type":"Point"},"properties":{"NAMA":"PASAR SANGIANG","TIPE_1":"PERDAGANGAN DAN RETAIL","TIPE_2":"PASAR","TIPE_3":"PASAR TRADISIONAL","TELEPON":"0897-6269-793","ALAMAT":"JL. VILLA TGR. REGENCY RAYA NO.6, RT.001/RW.010, GEBANG RAYA, PERIUK, TANGERANG CITY, BANTEN 15132","ID_PROV":"36","PROVINSI":"BANTEN","ID_KABKOT":"36.71","KABKOT":"KOTA TANGERANG","ID_KEC":"36.71.08","KECAMATAN":"PERIUK","ID_DESA":"36.71.08.1003","DESA":"GEBANG RAYA","LATITUDE":-6.170489,"LONGITUDE":106.5872339,"STATUS":"BUKA","TANGGAL PENGUMPULAN":"Q2 2025","TANGGAL UPDATE":"17/06/2025"}},{"type":"Feature","geometry":{"coordinates":[106.7388055,-6.2456517],"type":"Point"},"properties":{"NAMA":"PASAR ROYAL","TIPE_1":"PERDAGANGAN DAN RETAIL","TIPE_2":"PASAR","TIPE_3":"PASAR TRADISIONAL","TELEPON":"","ALAMAT":"GG. H. BANTENG, RT.006/RW.005, CIPADU JAYA, KEC. LARANGAN, KOTA TANGERANG, BANTEN 15155","ID_PROV":"36","PROVINSI":"BANTEN","ID_KABKOT":"36.71","KABKOT":"KOTA TANGERANG","ID_KEC":"36.71.13","KECAMATAN":"LARANGAN","ID_DESA":"36.71.13.1007","DESA":"CIPADU JAYA","LATITUDE":-6.2456517,"LONGITUDE":106.7388055,"STATUS":"BUKA","TANGGAL PENGUMPULAN":"Q2 2025","TANGGAL UPDATE":"17/06/2025"}},{"type":"Feature","geometry":{"coordinates":[106.7112522,-6.1880193],"type":"Point"},"properties":{"NAMA":"PASAR RUBUH GONDRONG PETIR","TIPE_1":"PERDAGANGAN DAN RETAIL","TIPE_2":"PASAR","TIPE_3":"PASAR TRADISIONAL","TELEPON":"","ALAMAT":"JL. KH. AHMAD DAHLAN, RT.004/RW.003, PETIR, KEC. CIPONDOH, KOTA TANGERANG, BANTEN 15146","ID_PROV":"36","PROVINSI":"BANTEN","ID_KABKOT":"36.71","KABKOT":"KOTA TANGERANG","ID_KEC":"36.71.05","KECAMATAN":"CIPONDOH","ID_DESA":"36.71.05.1006","DESA":"PETIR","LATITUDE":-6.1880193,"LONGITUDE":106.7112522,"STATUS":"BUKA","TANGGAL PENGUMPULAN":"Q2 2025","TANGGAL UPDATE":"17/06/2025"}},{"type":"Feature","geometry":{"coordinates":[106.5787356,-6.2043729],"type":"Point"},"properties":{"NAMA":"PASAR RABU CIKONENG","TIPE_1":"PERDAGANGAN DAN RETAIL","TIPE_2":"PASAR","TIPE_3":"PASAR TRADISIONAL","TELEPON":"","ALAMAT":"RT.001/RW.007, GANDASARI, KEC. JATIUWUNG, KOTA TANGERANG, BANTEN","ID_PROV":"36","PROVINSI":"BANTEN","ID_KABKOT":"36.71","KABKOT":"KOTA TANGERANG","ID_KEC":"36.71.02","KECAMATAN":"JATIUWUNG","ID_DESA":"36.71.02.1004","DESA":"GANDASARI","LATITUDE":-6.2043729,"LONGITUDE":106.5787356,"STATUS":"BUKA","TANGGAL PENGUMPULAN":"Q2 2025","TANGGAL UPDATE":"17/06/2025"}},{"type":"Feature","geometry":{"coordinates":[106.69398539999999,-6.1980986],"type":"Point"},"properties":{"NAMA":"PASAR PORTAL","TIPE_1":"PERDAGANGAN DAN RETAIL","TIPE_2":"PASAR","TIPE_3":"PASAR TRADISIONAL","TELEPON":"","ALAMAT":"JL. KIHAJAR DEWANTORO, RT.003/RW.004, GONDRONG, KEC. CIPONDOH, KOTA TANGERANG, BANTEN 15146","ID_PROV":"36","PROVINSI":"BANTEN","ID_KABKOT":"36.71","KABKOT":"KOTA TANGERANG","ID_KEC":"36.71.05","KECAMATAN":"CIPONDOH","ID_DESA":"36.71.05.1004","DESA":"GONDRONG","LATITUDE":-6.1980986,"LONGITUDE":106.6939854,"STATUS":"BUKA","TANGGAL PENGUMPULAN":"Q2 2025","TANGGAL UPDATE":"17/06/2025"}},{"type":"Feature","geometry":{"coordinates":[106.6862067,-6.2271867],"type":"Point"},"properties":{"NAMA":"PASAR REGENSI BARU","TIPE_1":"PERDAGANGAN DAN RETAIL","TIPE_2":"PASAR","TIPE_3":"PASAR TRADISIONAL","TELEPON":"","ALAMAT":"JL. KH. MAS MANSYUR NO.76, RT.004/RW.3, SUDIMARA PINANG, KEC. PINANG, KOTA TANGERANG, BANTEN 15145","ID_PROV":"36","PROVINSI":"BANTEN","ID_KABKOT":"36.71","KABKOT":"KOTA TANGERANG","ID_KEC":"36.71.11","KECAMATAN":"PINANG","ID_DESA":"36.71.11.1002","DESA":"SUDIMARA PINANG","LATITUDE":-6.2271867,"LONGITUDE":106.6862067,"STATUS":"BUKA","TANGGAL PENGUMPULAN":"Q2 2025","TANGGAL UPDATE":"17/06/2025"}},{"type":"Feature","geometry":{"coordinates":[106.6184019,-6.1686833],"type":"Point"},"properties":{"NAMA":"PASAR RAMADANI","TIPE_1":"PERDAGANGAN DAN RETAIL","TIPE_2":"PASAR","TIPE_3":"PASAR TRADISIONAL","TELEPON":"","ALAMAT":"JL. FARMASI NO.3, RT.004/RW.001, PABUARAN TUMPENG, KEC. KARAWACI, KOTA TANGERANG, BANTEN 15112","ID_PROV":"36","PROVINSI":"BANTEN","ID_KABKOT":"36.71","KABKOT":"KOTA TANGERANG","ID_KEC":"36.71.07","KECAMATAN":"KARAWACI","ID_DESA":"36.71.07.1011","DESA":"PABUARAN TUMPENG","LATITUDE":-6.1686833,"LONGITUDE":106.6184019,"STATUS":"BUKA","TANGGAL PENGUMPULAN":"Q2 2025","TANGGAL UPDATE":"17/06/2025"}},{"type":"Feature","geometry":{"coordinates":[106.6183781,-6.1699703],"type":"Point"},"properties":{"NAMA":"PASAR RAMADHAN","TIPE_1":"PERDAGANGAN DAN RETAIL","TIPE_2":"PASAR","TIPE_3":"PASAR TRADISIONAL","TELEPON":"","ALAMAT":"JL. FARMASI NO.5, RT.003/RW.002, PABUARAN TUMPENG, KEC. KARAWACI, KOTA TANGERANG, BANTEN 15112","ID_PROV":"36","PROVINSI":"BANTEN","ID_KABKOT":"36.71","KABKOT":"KOTA TANGERANG","ID_KEC":"36.71.07","KECAMATAN":"KARAWACI","ID_DESA":"36.71.07.1011","DESA":"PABUARAN TUMPENG","LATITUDE":-6.1699703,"LONGITUDE":106.6183781,"STATUS":"BUKA","TANGGAL PENGUMPULAN":"Q2 2025","TANGGAL UPDATE":"17/06/2025"}},{"type":"Feature","geometry":{"coordinates":[106.67463869999999,-6.2194994],"type":"Point"},"properties":{"NAMA":"PASAR PAGI BLOK K. PINANG","TIPE_1":"PERDAGANGAN DAN RETAIL","TIPE_2":"PASAR","TIPE_3":"PASAR TRADISIONAL","TELEPON":"","ALAMAT":"JALAN SEMERU RAYA BLOK K10A NO.4, RT.006/RW.016, KUNCIRAN INDAH, KEC. PINANG, KOTA TANGERANG, BANTEN 15144","ID_PROV":"36","PROVINSI":"BANTEN","ID_KABKOT":"36.71","KABKOT":"KOTA TANGERANG","ID_KEC":"36.71.11","KECAMATAN":"PINANG","ID_DESA":"36.71.11.1005","DESA":"KUNCIRAN INDAH","LATITUDE":-6.2194994,"LONGITUDE":106.6746387,"STATUS":"BUKA","TANGGAL PENGUMPULAN":"Q2 2025","TANGGAL UPDATE":"17/06/2025"}},{"type":"Feature","geometry":{"coordinates":[106.7209198,-6.2246413],"type":"Point"},"properties":{"NAMA":"PASAR P3SI","TIPE_1":"PERDAGANGAN DAN RETAIL","TIPE_2":"PASAR","TIPE_3":"PASAR TRADISIONAL","TELEPON":"","ALAMAT":"JL. DR. SOETOMO, RT.001/RW.009, KARANG TIM., KEC. KARANG TENGAH, KOTA TANGERANG, BANTEN 15157","ID_PROV":"36","PROVINSI":"BANTEN","ID_KABKOT":"36.71","KABKOT":"KOTA TANGERANG","ID_KEC":"36.71.12","KECAMATAN":"KARANG TENGAH","ID_DESA":"36.71.12.1005","DESA":"KARANG TIMUR","LATITUDE":-6.2246413,"LONGITUDE":106.7209198,"STATUS":"BUKA","TANGGAL PENGUMPULAN":"Q2 2025","TANGGAL UPDATE":"17/06/2025"}},{"type":"Feature","geometry":{"coordinates":[106.6840395,-6.1766433],"type":"Point"},"properties":{"NAMA":"PASAR NYAMUK","TIPE_1":"PERDAGANGAN DAN RETAIL","TIPE_2":"PASAR","TIPE_3":"PASAR TRADISIONAL","TELEPON":"","ALAMAT":"JALAN PORIS CIPONDOH MAKMUR, RT.003/RW.010, CIPONDOH MAKMUR, KEC. CIPONDOH, KOTA TANGERANG, BANTEN 15148","ID_PROV":"36","PROVINSI":"BANTEN","ID_KABKOT":"36.71","KABKOT":"KOTA TANGERANG","ID_KEC":"36.71.05","KECAMATAN":"CIPONDOH","ID_DESA":"36.71.05.1002","DESA":"CIPONDOH MAKMUR","LATITUDE":-6.1766433,"LONGITUDE":106.6840395,"STATUS":"BUKA","TANGGAL PENGUMPULAN":"Q2 2025","TANGGAL UPDATE":"17/06/2025"}}]}