{"type":"FeatureCollection","features":[{"type":"Feature","geometry":{"coordinates":[106.8594053,-6.2143386],"type":"Point"},"properties":{"NAMA":"KEBON PALA MARKET","TIPE_1":"PERDAGANGAN DAN RETAIL","TIPE_2":"PASAR","TIPE_3":"PASAR TRADISIONAL","TELEPON":"","ALAMAT":"JL. KB. PALA NO.5 2, RT.2/RW.6, KP. MELAYU, KECAMATAN JATINEGARA, KOTA JAKARTA TIMUR, DAERAH KHUSUS IBUKOTA JAKARTA 13320","ID_PROV":"31","PROVINSI":"DKI JAKARTA","ID_KABKOT":"31.75","KABKOT":"KOTA ADM. JAKARTA TIMUR","ID_KEC":"31.75.03","KECAMATAN":"JATINEGARA","ID_DESA":"31.75.03.1001","DESA":"KAMPUNG MELAYU","LATITUDE":-6.2143386,"LONGITUDE":106.8594053,"STATUS":"BUKA","TANGGAL PENGUMPULAN":"Q2 2025","TANGGAL UPDATE":"17/06/2025"}},{"type":"Feature","geometry":{"coordinates":[106.9681858,-6.1871839],"type":"Point"},"properties":{"NAMA":"PASAR \"POOL 30\"","TIPE_1":"PERDAGANGAN DAN RETAIL","TIPE_2":"PASAR","TIPE_3":"PASAR TRADISIONAL","TELEPON":"","ALAMAT":"JL. SATRIA NO.31 6, RT.6/RW.3, UJUNG MENTENG, KEC. CAKUNG, KOTA JAKARTA TIMUR, DAERAH KHUSUS IBUKOTA JAKARTA 13960","ID_PROV":"31","PROVINSI":"DKI JAKARTA","ID_KABKOT":"31.75","KABKOT":"KOTA ADM. JAKARTA TIMUR","ID_KEC":"31.75.06","KECAMATAN":"CAKUNG","ID_DESA":"31.75.06.1006","DESA":"UJUNG MENTENG","LATITUDE":-6.1871839,"LONGITUDE":106.9681858,"STATUS":"BUKA","TANGGAL PENGUMPULAN":"Q2 2025","TANGGAL UPDATE":"17/06/2025"}},{"type":"Feature","geometry":{"coordinates":[106.9295115,-6.2217129],"type":"Point"},"properties":{"NAMA":"PASAR BECEK","TIPE_1":"PERDAGANGAN DAN RETAIL","TIPE_2":"PASAR","TIPE_3":"PASAR TRADISIONAL","TELEPON":"","ALAMAT":"RW.7, MALAKA SARI, KEC. DUREN SAWIT, KOTA JAKARTA TIMUR, DAERAH KHUSUS IBUKOTA JAKARTA 13460","ID_PROV":"31","PROVINSI":"DKI JAKARTA","ID_KABKOT":"31.75","KABKOT":"KOTA ADM. JAKARTA TIMUR","ID_KEC":"31.75.07","KECAMATAN":"DUREN SAWIT","ID_DESA":"31.75.07.1005","DESA":"MALAKA SARI","LATITUDE":-6.2217129,"LONGITUDE":106.9295115,"STATUS":"BUKA","TANGGAL PENGUMPULAN":"Q2 2025","TANGGAL UPDATE":"17/06/2025"}},{"type":"Feature","geometry":{"coordinates":[106.8660719,-6.3327714],"type":"Point"},"properties":{"NAMA":"PASAR BELLY","TIPE_1":"PERDAGANGAN DAN RETAIL","TIPE_2":"PASAR","TIPE_3":"PASAR TRADISIONAL","TELEPON":"","ALAMAT":"JL. BELLY NO.9 9, RT.6/RW.6, PEKAYON, KEC. PS. REBO, KOTA JAKARTA TIMUR, DAERAH KHUSUS IBUKOTA JAKARTA 13710","ID_PROV":"31","PROVINSI":"DKI JAKARTA","ID_KABKOT":"31.75","KABKOT":"KOTA ADM. JAKARTA TIMUR","ID_KEC":"31.75.05","KECAMATAN":"PASAR REBO","ID_DESA":"31.75.05.1005","DESA":"PEKAYON","LATITUDE":-6.3327714,"LONGITUDE":106.8660719,"STATUS":"BUKA","TANGGAL PENGUMPULAN":"Q2 2025","TANGGAL UPDATE":"17/06/2025"}},{"type":"Feature","geometry":{"coordinates":[106.863303,-6.30527],"type":"Point"},"properties":{"NAMA":"PASAR BUAH PASAR REBO","TIPE_1":"PERDAGANGAN DAN RETAIL","TIPE_2":"PASAR","TIPE_3":"PASAR TRADISIONAL","TELEPON":"","ALAMAT":"JL. RAYA JAKARTA-BOGOR NO.17 5, RT.5/RW.5, RAMBUTAN, KEC. CIRACAS, KOTA JAKARTA TIMUR, DAERAH KHUSUS IBUKOTA JAKARTA 13830","ID_PROV":"31","PROVINSI":"DKI JAKARTA","ID_KABKOT":"31.75","KABKOT":"KOTA ADM. JAKARTA TIMUR","ID_KEC":"31.75.05","KECAMATAN":"PASAR REBO","ID_DESA":"31.75.05.1001","DESA":"GEDONG","LATITUDE":-6.30527,"LONGITUDE":106.863303,"STATUS":"BUKA","TANGGAL PENGUMPULAN":"Q2 2025","TANGGAL UPDATE":"17/06/2025"}},{"type":"Feature","geometry":{"coordinates":[106.9037454,-6.2151131],"type":"Point"},"properties":{"NAMA":"PASAR BULAK","TIPE_1":"PERDAGANGAN DAN RETAIL","TIPE_2":"PASAR","TIPE_3":"PASAR TRADISIONAL","TELEPON":"","ALAMAT":"JL. BULAK RAYA NO.RT.4 4, RT.2/RW.6, KLENDER, KEC. DUREN SAWIT, KOTA JAKARTA TIMUR, DAERAH KHUSUS IBUKOTA JAKARTA 13470","ID_PROV":"31","PROVINSI":"DKI JAKARTA","ID_KABKOT":"31.75","KABKOT":"KOTA ADM. JAKARTA TIMUR","ID_KEC":"31.75.07","KECAMATAN":"DUREN SAWIT","ID_DESA":"31.75.07.1003","DESA":"KLENDER","LATITUDE":-6.2151131,"LONGITUDE":106.9037454,"STATUS":"BUKA","TANGGAL PENGUMPULAN":"Q2 2025","TANGGAL UPDATE":"17/06/2025"}},{"type":"Feature","geometry":{"coordinates":[106.944025,-6.2155105],"type":"Point"},"properties":{"NAMA":"PASAR BULAK JAYA ","TIPE_1":"PERDAGANGAN DAN RETAIL","TIPE_2":"PASAR","TIPE_3":"PASAR TRADISIONAL","TELEPON":"","ALAMAT":"KTR. WALIKOTA JKT TIM., BELAKANG, JL. KP. BULAK JAYA, RT.10/RW.8, PULO GEBANG, KEC. CAKUNG, KOTA JAKARTA TIMUR, DAERAH KHUSUS IBUKOTA JAKARTA 13950","ID_PROV":"31","PROVINSI":"DKI JAKARTA","ID_KABKOT":"31.75","KABKOT":"KOTA ADM. JAKARTA TIMUR","ID_KEC":"31.75.06","KECAMATAN":"CAKUNG","ID_DESA":"31.75.06.1005","DESA":"PULO GEBANG","LATITUDE":-6.2155105,"LONGITUDE":106.944025,"STATUS":"BUKA","TANGGAL PENGUMPULAN":"Q2 2025","TANGGAL UPDATE":"17/06/2025"}},{"type":"Feature","geometry":{"coordinates":[106.8872474,-6.2116337],"type":"Point"},"properties":{"NAMA":"PASAR BURUNG","TIPE_1":"PERDAGANGAN DAN RETAIL","TIPE_2":"PASAR","TIPE_3":"PASAR TRADISIONAL","TELEPON":"","ALAMAT":"PASAR INDUK CIPINANG, PISANGAN TIMUR, PULO GADUNG, RT.9/RW.9, PISANGAN TIM., JAWA TIMUR, KOTA JAKARTA TIMUR, DAERAH KHUSUS IBUKOTA JAKARTA 13230","ID_PROV":"31","PROVINSI":"DKI JAKARTA","ID_KABKOT":"31.75","KABKOT":"KOTA ADM. JAKARTA TIMUR","ID_KEC":"31.75.02","KECAMATAN":"PULOGADUNG","ID_DESA":"31.75.02.1003","DESA":"CIPINANG","LATITUDE":-6.2116337,"LONGITUDE":106.8872474,"STATUS":"BUKA","TANGGAL PENGUMPULAN":"Q2 2025","TANGGAL UPDATE":"17/06/2025"}},{"type":"Feature","geometry":{"coordinates":[106.93450209999999,-6.1828472],"type":"Point"},"properties":{"NAMA":"PASAR CAKUNG","TIPE_1":"PERDAGANGAN DAN RETAIL","TIPE_2":"PASAR","TIPE_3":"PASAR TRADISIONAL","TELEPON":"","ALAMAT":"PINTU UTAMA NO.6 2, RT.2/RW.6, BALI MESTER, KEC. CAKUNG, KOTA JAKARTA TIMUR, DAERAH KHUSUS IBUKOTA JAKARTA 13310","ID_PROV":"31","PROVINSI":"DKI JAKARTA","ID_KABKOT":"31.75","KABKOT":"KOTA ADM. JAKARTA TIMUR","ID_KEC":"31.75.06","KECAMATAN":"CAKUNG","ID_DESA":"31.75.06.1007","DESA":"CAKUNG BARAT","LATITUDE":-6.1828472,"LONGITUDE":106.9345021,"STATUS":"BUKA","TANGGAL PENGUMPULAN":"Q2 2025","TANGGAL UPDATE":"17/06/2025"}},{"type":"Feature","geometry":{"coordinates":[106.8891243,-6.220898],"type":"Point"},"properties":{"NAMA":"PASAR CIPINANG MUARA","TIPE_1":"PERDAGANGAN DAN RETAIL","TIPE_2":"PASAR","TIPE_3":"PASAR TRADISIONAL","TELEPON":"(021) 8512172","ALAMAT":"JL. BB NO.3, RT.14/RW.4, CIPINANG MUARA, KECAMATAN JATINEGARA, KOTA JAKARTA TIMUR, DAERAH KHUSUS IBUKOTA JAKARTA 13420","ID_PROV":"31","PROVINSI":"DKI JAKARTA","ID_KABKOT":"31.75","KABKOT":"KOTA ADM. JAKARTA TIMUR","ID_KEC":"31.75.03","KECAMATAN":"JATINEGARA","ID_DESA":"31.75.03.1006","DESA":"CIPINANG MUARA","LATITUDE":-6.220898,"LONGITUDE":106.8891243,"STATUS":"BUKA","TANGGAL PENGUMPULAN":"Q2 2025","TANGGAL UPDATE":"17/06/2025"}},{"type":"Feature","geometry":{"coordinates":[106.88075889999999,-6.2361081],"type":"Point"},"properties":{"NAMA":"PASAR CIPLAK","TIPE_1":"PERDAGANGAN DAN RETAIL","TIPE_2":"PASAR","TIPE_3":"PASAR TRADISIONAL","TELEPON":"","ALAMAT":"JL. DI. PANJAITAN NO.6 11, RT.14/RW.2, CIPINANG CEMPEDAK, KECAMATAN JATINEGARA, KOTA JAKARTA TIMUR, DAERAH KHUSUS IBUKOTA JAKARTA 13340","ID_PROV":"31","PROVINSI":"DKI JAKARTA","ID_KABKOT":"31.75","KABKOT":"KOTA ADM. JAKARTA TIMUR","ID_KEC":"31.75.03","KECAMATAN":"JATINEGARA","ID_DESA":"31.75.03.1007","DESA":"CIPINANG BESAR SELATAN","LATITUDE":-6.2361081,"LONGITUDE":106.8807589,"STATUS":"BUKA","TANGGAL PENGUMPULAN":"Q2 2025","TANGGAL UPDATE":"17/06/2025"}},{"type":"Feature","geometry":{"coordinates":[106.8709852,-6.3305164],"type":"Point"},"properties":{"NAMA":"PASAR CIRACAS XL","TIPE_1":"PERDAGANGAN DAN RETAIL","TIPE_2":"PASAR","TIPE_3":"PASAR TRADISIONAL","TELEPON":"","ALAMAT":"PS. JAYA PS. CIRACAS, JL. RAYA CIRACAS, RT.7/RW.8, CIRACAS, EAST JAKARTA CITY, JAKARTA 13740","ID_PROV":"31","PROVINSI":"DKI JAKARTA","ID_KABKOT":"31.75","KABKOT":"KOTA ADM. JAKARTA TIMUR","ID_KEC":"31.75.09","KECAMATAN":"CIRACAS","ID_DESA":"31.75.09.1001","DESA":"CIRACAS","LATITUDE":-6.3305164,"LONGITUDE":106.8709852,"STATUS":"BUKA","TANGGAL PENGUMPULAN":"Q2 2025","TANGGAL UPDATE":"17/06/2025"}},{"type":"Feature","geometry":{"coordinates":[106.8647507,-6.2632408],"type":"Point"},"properties":{"NAMA":"PASAR CONDET","TIPE_1":"PERDAGANGAN DAN RETAIL","TIPE_2":"PASAR","TIPE_3":"PASAR TRADISIONAL","TELEPON":"","ALAMAT":"JL. RAYA CONDET NO.1, RT.1/RW.3, BALEKAMBANG, KEC. KRAMAT JATI, KOTA JAKARTA TIMUR, DAERAH KHUSUS IBUKOTA JAKARTA 13640","ID_PROV":"31","PROVINSI":"DKI JAKARTA","ID_KABKOT":"31.75","KABKOT":"KOTA ADM. JAKARTA TIMUR","ID_KEC":"31.75.04","KECAMATAN":"KRAMATJATI","ID_DESA":"31.75.04.1006","DESA":"CILILITAN","LATITUDE":-6.2632408,"LONGITUDE":106.8647507,"STATUS":"BUKA","TANGGAL PENGUMPULAN":"Q2 2025","TANGGAL UPDATE":"17/06/2025"}},{"type":"Feature","geometry":{"coordinates":[106.8774229,-6.183321],"type":"Point"},"properties":{"NAMA":"PASAR DEPANG","TIPE_1":"PERDAGANGAN DAN RETAIL","TIPE_2":"PASAR","TIPE_3":"PASAR TRADISIONAL","TELEPON":"","ALAMAT":"JL. METRO JAYA NO.43 6, RT.6/RW.7, KAYU PUTIH, KEC. PULO GADUNG, KOTA JAKARTA TIMUR, DAERAH KHUSUS IBUKOTA JAKARTA 13210","ID_PROV":"31","PROVINSI":"DKI JAKARTA","ID_KABKOT":"31.75","KABKOT":"KOTA ADM. JAKARTA TIMUR","ID_KEC":"31.75.02","KECAMATAN":"PULOGADUNG","ID_DESA":"31.75.02.1006","DESA":"KAYU PUTIH","LATITUDE":-6.183321,"LONGITUDE":106.8774229,"STATUS":"BUKA","TANGGAL PENGUMPULAN":"Q2 2025","TANGGAL UPDATE":"17/06/2025"}},{"type":"Feature","geometry":{"coordinates":[106.894849,-6.2177753],"type":"Point"},"properties":{"NAMA":"PASAR DEPROK","TIPE_1":"PERDAGANGAN DAN RETAIL","TIPE_2":"PASAR","TIPE_3":"PASAR TRADISIONAL","TELEPON":"","ALAMAT":"JL. CIPINANG MUARA IV, RT.8/RW.8, CIPINANG MUARA, KECAMATAN JATINEGARA, KOTA JAKARTA TIMUR, DAERAH KHUSUS IBUKOTA JAKARTA 13420","ID_PROV":"31","PROVINSI":"DKI JAKARTA","ID_KABKOT":"31.75","KABKOT":"KOTA ADM. JAKARTA TIMUR","ID_KEC":"31.75.03","KECAMATAN":"JATINEGARA","ID_DESA":"31.75.03.1006","DESA":"CIPINANG MUARA","LATITUDE":-6.2177753,"LONGITUDE":106.894849,"STATUS":"BUKA","TANGGAL PENGUMPULAN":"Q2 2025","TANGGAL UPDATE":"17/06/2025"}},{"type":"Feature","geometry":{"coordinates":[106.8742,-6.2763],"type":"Point"},"properties":{"NAMA":"PASAR EMBRIO","TIPE_1":"PERDAGANGAN DAN RETAIL","TIPE_2":"PASAR","TIPE_3":"PASAR TRADISIONAL","TELEPON":"","ALAMAT":"JL. KERJA BAKTI NO.1, RT.1/RW.2, MAKASAR, KEC. MAKASAR, KOTA JAKARTA TIMUR, DAERAH KHUSUS IBUKOTA JAKARTA 13570","ID_PROV":"31","PROVINSI":"DKI JAKARTA","ID_KABKOT":"31.75","KABKOT":"KOTA ADM. JAKARTA TIMUR","ID_KEC":"31.75.08","KECAMATAN":"MAKASAR","ID_DESA":"31.75.08.1001","DESA":"MAKASAR","LATITUDE":-6.2763,"LONGITUDE":106.8742,"STATUS":"BUKA","TANGGAL PENGUMPULAN":"Q2 2025","TANGGAL UPDATE":"17/06/2025"}},{"type":"Feature","geometry":{"coordinates":[106.875682,-6.2115389],"type":"Point"},"properties":{"NAMA":"PASAR ENJO","TIPE_1":"PERDAGANGAN DAN RETAIL","TIPE_2":"PASAR","TIPE_3":"PASAR TRADISIONAL","TELEPON":"","ALAMAT":"JL. PISANGAN LAMA 2 NO.1, RT.6/RW.1, PISANGAN TIM., KEC. PULO GADUNG, KOTA JAKARTA TIMUR, DAERAH KHUSUS IBUKOTA JAKARTA 13230","ID_PROV":"31","PROVINSI":"DKI JAKARTA","ID_KABKOT":"31.75","KABKOT":"KOTA ADM. JAKARTA TIMUR","ID_KEC":"31.75.02","KECAMATAN":"PULOGADUNG","ID_DESA":"31.75.02.1002","DESA":"PISANGAN TIMUR","LATITUDE":-6.2115389,"LONGITUDE":106.875682,"STATUS":"BUKA","TANGGAL PENGUMPULAN":"Q2 2025","TANGGAL UPDATE":"17/06/2025"}},{"type":"Feature","geometry":{"coordinates":[106.893279,-6.2915978],"type":"Point"},"properties":{"NAMA":"PASAR GARDU","TIPE_1":"PERDAGANGAN DAN RETAIL","TIPE_2":"PASAR","TIPE_3":"PASAR TRADISIONAL","TELEPON":"","ALAMAT":"JL. PS. GARDU GG. SWADAYA NO.2, RT.3/RW.7, LUBANG BUAYA, KEC. CIPAYUNG, KOTA JAKARTA TIMUR, DAERAH KHUSUS IBUKOTA JAKARTA 13810","ID_PROV":"31","PROVINSI":"DKI JAKARTA","ID_KABKOT":"31.75","KABKOT":"KOTA ADM. JAKARTA TIMUR","ID_KEC":"31.75.10","KECAMATAN":"CIPAYUNG","ID_DESA":"31.75.10.1007","DESA":"LUBANG BUAYA","LATITUDE":-6.2915978,"LONGITUDE":106.893279,"STATUS":"BUKA","TANGGAL PENGUMPULAN":"Q2 2025","TANGGAL UPDATE":"17/06/2025"}},{"type":"Feature","geometry":{"coordinates":[106.8755854,-6.2234001],"type":"Point"},"properties":{"NAMA":"PASAR GEMBRONG CIPINANG","TIPE_1":"PERDAGANGAN DAN RETAIL","TIPE_2":"PASAR","TIPE_3":"PASAR TRADISIONAL","TELEPON":"","ALAMAT":"GG. KB. JERUK NO.15, RT.11/RW.1, CIPINANG BESAR UTARA, KECAMATAN JATINEGARA, KOTA JAKARTA TIMUR, DAERAH KHUSUS IBUKOTA JAKARTA 13410","ID_PROV":"31","PROVINSI":"DKI JAKARTA","ID_KABKOT":"31.75","KABKOT":"KOTA ADM. JAKARTA TIMUR","ID_KEC":"31.75.03","KECAMATAN":"JATINEGARA","ID_DESA":"31.75.03.1008","DESA":"CIPINANG BESAR UTARA","LATITUDE":-6.2234001,"LONGITUDE":106.8755854,"STATUS":"BUKA","TANGGAL PENGUMPULAN":"Q2 2025","TANGGAL UPDATE":"17/06/2025"}},{"type":"Feature","geometry":{"coordinates":[106.8681903,-6.2155855],"type":"Point"},"properties":{"NAMA":"PASAR IKAN JATINEGARA","TIPE_1":"PERDAGANGAN DAN RETAIL","TIPE_2":"PASAR","TIPE_3":"PASAR TRADISIONAL","TELEPON":"","ALAMAT":"JL. BEKASI BARAT NO.31 4, RT.4/RW.2, BALI MESTER, KECAMATAN JATINEGARA, KOTA JAKARTA TIMUR, DAERAH KHUSUS IBUKOTA JAKARTA 13350","ID_PROV":"31","PROVINSI":"DKI JAKARTA","ID_KABKOT":"31.75","KABKOT":"KOTA ADM. JAKARTA TIMUR","ID_KEC":"31.75.03","KECAMATAN":"JATINEGARA","ID_DESA":"31.75.03.1004","DESA":"RAWA BUNGA","LATITUDE":-6.2155855,"LONGITUDE":106.8681903,"STATUS":"BUKA","TANGGAL PENGUMPULAN":"Q2 2025","TANGGAL UPDATE":"17/06/2025"}},{"type":"Feature","geometry":{"coordinates":[106.8716943,-6.293701],"type":"Point"},"properties":{"NAMA":"PASAR INDUK KRAMAT JATI LOS SAYURAN","TIPE_1":"PERDAGANGAN DAN RETAIL","TIPE_2":"PASAR","TIPE_3":"PASAR TRADISIONAL","TELEPON":"0877-7288-4375","ALAMAT":"PASAR INDUK, JL. KARYA NO.72, RT.9/RW.7, KP. TENGAH, KEC. KRAMAT JATI, KOTA JAKARTA TIMUR, DAERAH KHUSUS IBUKOTA JAKARTA 13540","ID_PROV":"31","PROVINSI":"DKI JAKARTA","ID_KABKOT":"31.75","KABKOT":"KOTA ADM. JAKARTA TIMUR","ID_KEC":"31.75.04","KECAMATAN":"KRAMATJATI","ID_DESA":"31.75.04.1002","DESA":"TENGAH","LATITUDE":-6.293701,"LONGITUDE":106.8716943,"STATUS":"BUKA","TANGGAL PENGUMPULAN":"Q2 2025","TANGGAL UPDATE":"17/06/2025"}},{"type":"Feature","geometry":{"coordinates":[106.8696884,-6.2951192],"type":"Point"},"properties":{"NAMA":"PASAR INDUK KRAMATJATI","TIPE_1":"PERDAGANGAN DAN RETAIL","TIPE_2":"PASAR","TIPE_3":"PASAR TRADISIONAL","TELEPON":"","ALAMAT":"JL. RAYA BOGOR, RT.9/RW.7, KP. TENGAH, KEC. KRAMAT JATI, KOTA JAKARTA TIMUR, DAERAH KHUSUS IBUKOTA JAKARTA 13540","ID_PROV":"31","PROVINSI":"DKI JAKARTA","ID_KABKOT":"31.75","KABKOT":"KOTA ADM. JAKARTA TIMUR","ID_KEC":"31.75.04","KECAMATAN":"KRAMATJATI","ID_DESA":"31.75.04.1002","DESA":"TENGAH","LATITUDE":-6.2951192,"LONGITUDE":106.8696884,"STATUS":"BUKA","TANGGAL PENGUMPULAN":"Q2 2025","TANGGAL UPDATE":"17/06/2025"}},{"type":"Feature","geometry":{"coordinates":[106.8710209,-6.3304558],"type":"Point"},"properties":{"NAMA":"PASAR INPRES CIRACAS","TIPE_1":"PERDAGANGAN DAN RETAIL","TIPE_2":"PASAR","TIPE_3":"PASAR TRADISIONAL","TELEPON":"(021) 8711067","ALAMAT":"JL. RAYA CIRACAS NO.22, RT.7/RW.8, CIRACAS, KEC. CIRACAS, KOTA JAKARTA TIMUR, DAERAH KHUSUS IBUKOTA JAKARTA 13740","ID_PROV":"31","PROVINSI":"DKI JAKARTA","ID_KABKOT":"31.75","KABKOT":"KOTA ADM. JAKARTA TIMUR","ID_KEC":"31.75.09","KECAMATAN":"CIRACAS","ID_DESA":"31.75.09.1001","DESA":"CIRACAS","LATITUDE":-6.3304558,"LONGITUDE":106.8710209,"STATUS":"BUKA","TANGGAL PENGUMPULAN":"Q2 2025","TANGGAL UPDATE":"17/06/2025"}},{"type":"Feature","geometry":{"coordinates":[106.883942,-6.1916546],"type":"Point"},"properties":{"NAMA":"PASAR INPRES KAYU JATI","TIPE_1":"PERDAGANGAN DAN RETAIL","TIPE_2":"PASAR","TIPE_3":"PASAR TRADISIONAL","TELEPON":"0896-5005-0015","ALAMAT":"JL. AMPERA RAWAMANGUN TEGALAN NO.2, RT.8/RW.3, RAWAMANGUN, KEC. PULO GADUNG, KOTA JAKARTA TIMUR, DAERAH KHUSUS IBUKOTA JAKARTA 13220","ID_PROV":"31","PROVINSI":"DKI JAKARTA","ID_KABKOT":"31.75","KABKOT":"KOTA ADM. JAKARTA TIMUR","ID_KEC":"31.75.02","KECAMATAN":"PULOGADUNG","ID_DESA":"31.75.02.1005","DESA":"RAWAMANGUN","LATITUDE":-6.1916546,"LONGITUDE":106.883942,"STATUS":"BUKA","TANGGAL PENGUMPULAN":"Q2 2025","TANGGAL UPDATE":"17/06/2025"}},{"type":"Feature","geometry":{"coordinates":[106.8805361,-6.2268214],"type":"Point"},"properties":{"NAMA":"PASAR INPRES PRUMPUNG","TIPE_1":"PERDAGANGAN DAN RETAIL","TIPE_2":"PASAR","TIPE_3":"PASAR TRADISIONAL","TELEPON":"","ALAMAT":"JALAN SELATAN, RT.1/RW.10, SOUTH CIPINANG BESAR, JATINEGARA, EAST JAKARTA CITY, JAKARTA 13410","ID_PROV":"31","PROVINSI":"DKI JAKARTA","ID_KABKOT":"31.75","KABKOT":"KOTA ADM. JAKARTA TIMUR","ID_KEC":"31.75.03","KECAMATAN":"JATINEGARA","ID_DESA":"31.75.03.1007","DESA":"CIPINANG BESAR SELATAN","LATITUDE":-6.2268214,"LONGITUDE":106.8805361,"STATUS":"BUKA","TANGGAL PENGUMPULAN":"Q2 2025","TANGGAL UPDATE":"17/06/2025"}},{"type":"Feature","geometry":{"coordinates":[106.8655472,-6.2566943],"type":"Point"},"properties":{"NAMA":"PASAR JAMBUL BARU","TIPE_1":"PERDAGANGAN DAN RETAIL","TIPE_2":"PASAR","TIPE_3":"PASAR TRADISIONAL","TELEPON":"(021) 80870987","ALAMAT":"JL. SMA 14 NO.2 35A, RT.2/RW.4, CILILITAN, KRAMAT JATI, EAST JAKARTA CITY, JAKARTA 13640","ID_PROV":"31","PROVINSI":"DKI JAKARTA","ID_KABKOT":"31.75","KABKOT":"KOTA ADM. JAKARTA TIMUR","ID_KEC":"31.75.04","KECAMATAN":"KRAMATJATI","ID_DESA":"31.75.04.1006","DESA":"CILILITAN","LATITUDE":-6.2566943,"LONGITUDE":106.8655472,"STATUS":"BUKA","TANGGAL PENGUMPULAN":"Q2 2025","TANGGAL UPDATE":"17/06/2025"}},{"type":"Feature","geometry":{"coordinates":[106.864953,-6.2163911],"type":"Point"},"properties":{"NAMA":"PASAR JATINEGARA","TIPE_1":"PERDAGANGAN DAN RETAIL","TIPE_2":"PASAR","TIPE_3":"PASAR TRADISIONAL","TELEPON":"","ALAMAT":"JL. JATINEGARA BAR. NO.10, RT.10/RW.3, BALI MESTER, KECAMATAN JATINEGARA, KOTA JAKARTA TIMUR, DAERAH KHUSUS IBUKOTA JAKARTA 13320","ID_PROV":"31","PROVINSI":"DKI JAKARTA","ID_KABKOT":"31.75","KABKOT":"KOTA ADM. JAKARTA TIMUR","ID_KEC":"31.75.03","KECAMATAN":"JATINEGARA","ID_DESA":"31.75.03.1003","DESA":"BALI MESTER","LATITUDE":-6.2163911,"LONGITUDE":106.864953,"STATUS":"BUKA","TANGGAL PENGUMPULAN":"Q2 2025","TANGGAL UPDATE":"17/06/2025"}},{"type":"Feature","geometry":{"coordinates":[106.8723544,-6.3454445],"type":"Point"},"properties":{"NAMA":"PASAR JAYA CIBUBUR","TIPE_1":"PERDAGANGAN DAN RETAIL","TIPE_2":"PASAR","TIPE_3":"PASAR MODERN","TELEPON":"(021) 8711305","ALAMAT":"RW.1, JAKARTA TIMUR 13, JL. LAP. TEMBAK NO.6, RT.13/RW.4, CIBUBUR, CIRACAS, EAST JAKARTA CITY, JAKARTA 13720","ID_PROV":"31","PROVINSI":"DKI JAKARTA","ID_KABKOT":"31.75","KABKOT":"KOTA ADM. JAKARTA TIMUR","ID_KEC":"31.75.09","KECAMATAN":"CIRACAS","ID_DESA":"31.75.09.1002","DESA":"CIBUBUR","LATITUDE":-6.3454445,"LONGITUDE":106.8723544,"STATUS":"BUKA","TANGGAL PENGUMPULAN":"Q2 2025","TANGGAL UPDATE":"17/06/2025"}},{"type":"Feature","geometry":{"coordinates":[106.8633632,-6.3074633],"type":"Point"},"properties":{"NAMA":"PASAR JAYA CIJANTUNG","TIPE_1":"PERDAGANGAN DAN RETAIL","TIPE_2":"PASAR","TIPE_3":"PASAR TRADISIONAL","TELEPON":"","ALAMAT":"JL. TB SIMATUPANG NO.2 NO.3 11, RT.5/RW.2, SUSUKAN, KEC. CIRACAS, KOTA JAKARTA TIMUR, DAERAH KHUSUS IBUKOTA JAKARTA 13750","ID_PROV":"31","PROVINSI":"DKI JAKARTA","ID_KABKOT":"31.75","KABKOT":"KOTA ADM. JAKARTA TIMUR","ID_KEC":"31.75.05","KECAMATAN":"PASAR REBO","ID_DESA":"31.75.05.1001","DESA":"GEDONG","LATITUDE":-6.3074633,"LONGITUDE":106.8633632,"STATUS":"BUKA","TANGGAL PENGUMPULAN":"Q2 2025","TANGGAL UPDATE":"17/06/2025"}},{"type":"Feature","geometry":{"coordinates":[106.8605082,-6.2052416],"type":"Point"},"properties":{"NAMA":"PASAR JAYA PALMERIAM","TIPE_1":"PERDAGANGAN DAN RETAIL","TIPE_2":"PASAR","TIPE_3":"PASAR TRADISIONAL","TELEPON":"(021) 8564618","ALAMAT":"JL. PAL MERIAM, RT.13/RW.8, PALMERIAM, KEC. MATRAMAN, KOTA JAKARTA TIMUR, DAERAH KHUSUS IBUKOTA JAKARTA 13140","ID_PROV":"31","PROVINSI":"DKI JAKARTA","ID_KABKOT":"31.75","KABKOT":"KOTA ADM. JAKARTA TIMUR","ID_KEC":"31.75.01","KECAMATAN":"MATRAMAN","ID_DESA":"31.75.01.1004","DESA":"PALMERIAM","LATITUDE":-6.2052416,"LONGITUDE":106.8605082,"STATUS":"BUKA","TANGGAL PENGUMPULAN":"Q2 2025","TANGGAL UPDATE":"17/06/2025"}},{"type":"Feature","geometry":{"coordinates":[106.8950412,-6.2072655],"type":"Point"},"properties":{"NAMA":"PASAR KAGET CIPINANG","TIPE_1":"PERDAGANGAN DAN RETAIL","TIPE_2":"PASAR","TIPE_3":"PASAR TRADISIONAL","TELEPON":"","ALAMAT":"JL. SODONG RAYA NO.74, RT.4/RW.11, CIPINANG, KEC. PULO GADUNG, KOTA JAKARTA TIMUR, DAERAH KHUSUS IBUKOTA JAKARTA 13240","ID_PROV":"31","PROVINSI":"DKI JAKARTA","ID_KABKOT":"31.75","KABKOT":"KOTA ADM. JAKARTA TIMUR","ID_KEC":"31.75.02","KECAMATAN":"PULOGADUNG","ID_DESA":"31.75.02.1003","DESA":"CIPINANG","LATITUDE":-6.2072655,"LONGITUDE":106.8950412,"STATUS":"BUKA","TANGGAL PENGUMPULAN":"Q2 2025","TANGGAL UPDATE":"17/06/2025"}},{"type":"Feature","geometry":{"coordinates":[106.9416432,-6.238965],"type":"Point"},"properties":{"NAMA":"PASAR KAGET H. NAMAN","TIPE_1":"PERDAGANGAN DAN RETAIL","TIPE_2":"PASAR","TIPE_3":"PASAR TRADISIONAL","TELEPON":"","ALAMAT":"JL. H. NAMAN, RT.17/RW.2, PONDOK KELAPA, DURENSAWIT, EAST JAKARTA CITY, JAKARTA 13450","ID_PROV":"31","PROVINSI":"DKI JAKARTA","ID_KABKOT":"31.75","KABKOT":"KOTA ADM. JAKARTA TIMUR","ID_KEC":"31.75.07","KECAMATAN":"DUREN SAWIT","ID_DESA":"31.75.07.1004","DESA":"PONDOK KELAPA","LATITUDE":-6.238965,"LONGITUDE":106.9416432,"STATUS":"BUKA","TANGGAL PENGUMPULAN":"Q2 2025","TANGGAL UPDATE":"17/06/2025"}},{"type":"Feature","geometry":{"coordinates":[106.8924883,-6.3678061],"type":"Point"},"properties":{"NAMA":"PASAR KAGET MINGGUAN JL. KARYA BAKTI","TIPE_1":"PERDAGANGAN DAN RETAIL","TIPE_2":"PASAR","TIPE_3":"PASAR TRADISIONAL","TELEPON":"","ALAMAT":"JL. KARYA BAKTI NO.8, RT.8/RW.7, CIBUBUR, CIRACAS, EAST JAKARTA CITY, JAKARTA 13720","ID_PROV":"31","PROVINSI":"DKI JAKARTA","ID_KABKOT":"31.75","KABKOT":"KOTA ADM. JAKARTA TIMUR","ID_KEC":"31.75.09","KECAMATAN":"CIRACAS","ID_DESA":"31.75.09.1002","DESA":"CIBUBUR","LATITUDE":-6.3678061,"LONGITUDE":106.8924883,"STATUS":"BUKA","TANGGAL PENGUMPULAN":"Q2 2025","TANGGAL UPDATE":"17/06/2025"}},{"type":"Feature","geometry":{"coordinates":[106.9231701,-6.2134016],"type":"Point"},"properties":{"NAMA":"PASAR KAGET WARUDOYONG","TIPE_1":"PERDAGANGAN DAN RETAIL","TIPE_2":"PASAR","TIPE_3":"PASAR TRADISIONAL","TELEPON":"","ALAMAT":"JL. BUARAN 1 NO.5 18B, RT.13/RW.8, JATINEGARA, CAKUNG, EAST JAKARTA CITY, JAKARTA 13930","ID_PROV":"31","PROVINSI":"DKI JAKARTA","ID_KABKOT":"31.75","KABKOT":"KOTA ADM. JAKARTA TIMUR","ID_KEC":"31.75.06","KECAMATAN":"CAKUNG","ID_DESA":"31.75.06.1001","DESA":"JATINEGARA","LATITUDE":-6.2134016,"LONGITUDE":106.9231701,"STATUS":"BUKA","TANGGAL PENGUMPULAN":"Q2 2025","TANGGAL UPDATE":"17/06/2025"}},{"type":"Feature","geometry":{"coordinates":[106.9362434,-6.1751697],"type":"Point"},"properties":{"NAMA":"PASAR KALIMALANG CAKUNG","TIPE_1":"PERDAGANGAN DAN RETAIL","TIPE_2":"PASAR","TIPE_3":"PASAR TRADISIONAL","TELEPON":"","ALAMAT":"JALAN INSPEKSI PAM,R T.9/RW.007 BARAT,, RT.17/RW.4, CAKUNG BARAT, CAKUNG, RT.9/RW.7, RT.9/RW.7, CAKUNG BAR., KEC. CAKUNG, KOTA JAKARTA TIMUR, DAERAH KHUSUS IBUKOTA JAKARTA 13910","ID_PROV":"31","PROVINSI":"DKI JAKARTA","ID_KABKOT":"31.75","KABKOT":"KOTA ADM. JAKARTA TIMUR","ID_KEC":"31.75.06","KECAMATAN":"CAKUNG","ID_DESA":"31.75.06.1007","DESA":"CAKUNG BARAT","LATITUDE":-6.1751697,"LONGITUDE":106.9362434,"STATUS":"BUKA","TANGGAL PENGUMPULAN":"Q2 2025","TANGGAL UPDATE":"17/06/2025"}},{"type":"Feature","geometry":{"coordinates":[106.8844732,-6.1861418],"type":"Point"},"properties":{"NAMA":"PASAR KAMPUNG AMBON","TIPE_1":"PERDAGANGAN DAN RETAIL","TIPE_2":"PASAR","TIPE_3":"PASAR TRADISIONAL","TELEPON":"","ALAMAT":"JL. DROMPOL NO.4, RT.4/RW.17, KAYU PUTIH, KEC. PULO GADUNG, KOTA JAKARTA TIMUR, DAERAH KHUSUS IBUKOTA JAKARTA 13210","ID_PROV":"31","PROVINSI":"DKI JAKARTA","ID_KABKOT":"31.75","KABKOT":"KOTA ADM. JAKARTA TIMUR","ID_KEC":"31.75.02","KECAMATAN":"PULOGADUNG","ID_DESA":"31.75.02.1006","DESA":"KAYU PUTIH","LATITUDE":-6.1861418,"LONGITUDE":106.8844732,"STATUS":"BUKA","TANGGAL PENGUMPULAN":"Q2 2025","TANGGAL UPDATE":"17/06/2025"}},{"type":"Feature","geometry":{"coordinates":[106.8631329,-6.2181442],"type":"Point"},"properties":{"NAMA":"PASAR KERAMAT","TIPE_1":"PERDAGANGAN DAN RETAIL","TIPE_2":"PASAR","TIPE_3":"PASAR TRADISIONAL","TELEPON":"","ALAMAT":"JL. JATINEGARA BAR. NO.3, RT.5/RW.3, KP. MELAYU, KECAMATAN JATINEGARA, KOTA JAKARTA TIMUR, DAERAH KHUSUS IBUKOTA JAKARTA 13320","ID_PROV":"31","PROVINSI":"DKI JAKARTA","ID_KABKOT":"31.75","KABKOT":"KOTA ADM. JAKARTA TIMUR","ID_KEC":"31.75.03","KECAMATAN":"JATINEGARA","ID_DESA":"31.75.03.1001","DESA":"KAMPUNG MELAYU","LATITUDE":-6.2181442,"LONGITUDE":106.8631329,"STATUS":"BUKA","TANGGAL PENGUMPULAN":"Q2 2025","TANGGAL UPDATE":"17/06/2025"}},{"type":"Feature","geometry":{"coordinates":[106.90195879999999,-6.2127076],"type":"Point"},"properties":{"NAMA":"PASAR KLENDER SS","TIPE_1":"PERDAGANGAN DAN RETAIL","TIPE_2":"PASAR","TIPE_3":"PASAR MODERN","TELEPON":"","ALAMAT":"RT.1/RW.1, JATINEGARA, KEC. CAKUNG, KOTA JAKARTA TIMUR, DAERAH KHUSUS IBUKOTA JAKARTA 13930","ID_PROV":"31","PROVINSI":"DKI JAKARTA","ID_KABKOT":"31.75","KABKOT":"KOTA ADM. JAKARTA TIMUR","ID_KEC":"31.75.06","KECAMATAN":"CAKUNG","ID_DESA":"31.75.06.1001","DESA":"JATINEGARA","LATITUDE":-6.2127076,"LONGITUDE":106.9019588,"STATUS":"BUKA","TANGGAL PENGUMPULAN":"Q2 2025","TANGGAL UPDATE":"17/06/2025"}},{"type":"Feature","geometry":{"coordinates":[106.9163005,-6.2525264],"type":"Point"},"properties":{"NAMA":"PASAR KODAM","TIPE_1":"PERDAGANGAN DAN RETAIL","TIPE_2":"PASAR","TIPE_3":"PASAR TRADISIONAL","TELEPON":"","ALAMAT":"JALAN PERHUB RAYA BLOK D NO.11, MAKASAR, RT.10/RW.6, CIPINANG MELAYU, KEC. MAKASAR, KOTA JAKARTA TIMUR, DAERAH KHUSUS IBUKOTA JAKARTA 13620","ID_PROV":"31","PROVINSI":"DKI JAKARTA","ID_KABKOT":"31.75","KABKOT":"KOTA ADM. JAKARTA TIMUR","ID_KEC":"31.75.08","KECAMATAN":"MAKASAR","ID_DESA":"31.75.08.1005","DESA":"CIPINANG MELAYU","LATITUDE":-6.2525264,"LONGITUDE":106.9163005,"STATUS":"BUKA","TANGGAL PENGUMPULAN":"Q2 2025","TANGGAL UPDATE":"17/06/2025"}},{"type":"Feature","geometry":{"coordinates":[106.86774693329367,-6.268288445303227],"type":"Point"},"properties":{"NAMA":"PASAR KRAMAT JATI","TIPE_1":"PERDAGANGAN DAN RETAIL","TIPE_2":"PASAR","TIPE_3":"PASAR TRADISIONAL","TELEPON":"","ALAMAT":"JL. NUSA I DEPAN NO.37, RT.2/RW.4, KRAMAT JATI, KEC. KRAMAT JATI, KOTA JAKARTA TIMUR, DAERAH KHUSUS IBUKOTA JAKARTA","ID_PROV":"31","PROVINSI":"DKI JAKARTA","ID_KABKOT":"31.75","KABKOT":"KOTA ADM. JAKARTA TIMUR","ID_KEC":"31.75.04","KECAMATAN":"KRAMATJATI","ID_DESA":"31.75.04.1001","DESA":"KRAMATJATI","LATITUDE":-6.2679737,"LONGITUDE":106.8682705,"STATUS":"BUKA","TANGGAL PENGUMPULAN":"Q2 2025","TANGGAL UPDATE":"17/06/2025"}},{"type":"Feature","geometry":{"coordinates":[106.866033,-6.2311909],"type":"Point"},"properties":{"NAMA":"PASAR KRENSO KEBON SAYUR","TIPE_1":"PERDAGANGAN DAN RETAIL","TIPE_2":"PASAR","TIPE_3":"PASAR TRADISIONAL","TELEPON":"","ALAMAT":"JL. SENSUS, RT.6/RW.4, BIDARA CINA, KECAMATAN JATINEGARA, KOTA JAKARTA TIMUR, DAERAH KHUSUS IBUKOTA JAKARTA 13330","ID_PROV":"31","PROVINSI":"DKI JAKARTA","ID_KABKOT":"31.75","KABKOT":"KOTA ADM. JAKARTA TIMUR","ID_KEC":"31.75.03","KECAMATAN":"JATINEGARA","ID_DESA":"31.75.03.1002","DESA":"BIDARA CINA","LATITUDE":-6.2311909,"LONGITUDE":106.866033,"STATUS":"BUKA","TANGGAL PENGUMPULAN":"Q2 2025","TANGGAL UPDATE":"17/06/2025"}},{"type":"Feature","geometry":{"coordinates":[106.8633069,-6.215112],"type":"Point"},"properties":{"NAMA":"PASAR LAMA JATINEGARA","TIPE_1":"PERDAGANGAN DAN RETAIL","TIPE_2":"PASAR","TIPE_3":"PASAR TRADISIONAL","TELEPON":"","ALAMAT":"JL. PS. LAMA NO.38, RT.1/RW.6, BALI MESTER, JATINEGARA, EAST JAKARTA CITY, JAKARTA 13310","ID_PROV":"31","PROVINSI":"DKI JAKARTA","ID_KABKOT":"31.75","KABKOT":"KOTA ADM. JAKARTA TIMUR","ID_KEC":"31.75.03","KECAMATAN":"JATINEGARA","ID_DESA":"31.75.03.1003","DESA":"BALI MESTER","LATITUDE":-6.215112,"LONGITUDE":106.8633069,"STATUS":"BUKA","TANGGAL PENGUMPULAN":"Q2 2025","TANGGAL UPDATE":"17/06/2025"}},{"type":"Feature","geometry":{"coordinates":[106.86467049999999,-6.2160347],"type":"Point"},"properties":{"NAMA":"PASAR LAMA MASTER","TIPE_1":"PERDAGANGAN DAN RETAIL","TIPE_2":"PASAR","TIPE_3":"PASAR TRADISIONAL","TELEPON":"","ALAMAT":"PS. JAYA LANTAI NO.1, RT.6/RW.6, BALI MESTER, KECAMATAN JATINEGARA, KOTA JAKARTA TIMUR, DAERAH KHUSUS IBUKOTA JAKARTA 13310","ID_PROV":"31","PROVINSI":"DKI JAKARTA","ID_KABKOT":"31.75","KABKOT":"KOTA ADM. JAKARTA TIMUR","ID_KEC":"31.75.03","KECAMATAN":"JATINEGARA","ID_DESA":"31.75.03.1003","DESA":"BALI MESTER","LATITUDE":-6.2160347,"LONGITUDE":106.8646705,"STATUS":"BUKA","TANGGAL PENGUMPULAN":"Q2 2025","TANGGAL UPDATE":"17/06/2025"}},{"type":"Feature","geometry":{"coordinates":[106.8679615,-6.2177359],"type":"Point"},"properties":{"NAMA":"PASAR LOAK JATINEGARA","TIPE_1":"PERDAGANGAN DAN RETAIL","TIPE_2":"PASAR","TIPE_3":"PASAR TRADISIONAL","TELEPON":"","ALAMAT":"JL. JATINEGARA TIMUR NO.34 6, RT.6/RW.4, BALI MESTER, KECAMATAN JATINEGARA, KOTA JAKARTA TIMUR, DAERAH KHUSUS IBUKOTA JAKARTA 13310","ID_PROV":"31","PROVINSI":"DKI JAKARTA","ID_KABKOT":"31.75","KABKOT":"KOTA ADM. JAKARTA TIMUR","ID_KEC":"31.75.03","KECAMATAN":"JATINEGARA","ID_DESA":"31.75.03.1004","DESA":"RAWA BUNGA","LATITUDE":-6.2177359,"LONGITUDE":106.8679615,"STATUS":"BUKA","TANGGAL PENGUMPULAN":"Q2 2025","TANGGAL UPDATE":"17/06/2025"}},{"type":"Feature","geometry":{"coordinates":[106.9463517,-6.1809382],"type":"Point"},"properties":{"NAMA":"PASAR MADRASAH KAYU TINGGI","TIPE_1":"PERDAGANGAN DAN RETAIL","TIPE_2":"PASAR","TIPE_3":"PASAR TRADISIONAL","TELEPON":"","ALAMAT":"JL. H. ILYAS NO.46, RT.7/RW.5, CAKUNG TIM., KEC. CAKUNG, KOTA JAKARTA TIMUR, DAERAH KHUSUS IBUKOTA JAKARTA 13910","ID_PROV":"31","PROVINSI":"DKI JAKARTA","ID_KABKOT":"31.75","KABKOT":"KOTA ADM. JAKARTA TIMUR","ID_KEC":"31.75.06","KECAMATAN":"CAKUNG","ID_DESA":"31.75.06.1004","DESA":"CAKUNG TIMUR","LATITUDE":-6.1809382,"LONGITUDE":106.9463517,"STATUS":"BUKA","TANGGAL PENGUMPULAN":"Q2 2025","TANGGAL UPDATE":"17/06/2025"}},{"type":"Feature","geometry":{"coordinates":[106.9046478,-6.2305113],"type":"Point"},"properties":{"NAMA":"PASAR MALAM BKT DURENSAWIT","TIPE_1":"PERDAGANGAN DAN RETAIL","TIPE_2":"PASAR","TIPE_3":"PASAR TRADISIONAL","TELEPON":"","ALAMAT":"JL. SAWAH BARAT DALAM I NO.33 2, RT.2/RW.6, PD. BAMBU, KEC. DUREN SAWIT, KOTA JAKARTA TIMUR, DAERAH KHUSUS IBUKOTA JAKARTA 13430","ID_PROV":"31","PROVINSI":"DKI JAKARTA","ID_KABKOT":"31.75","KABKOT":"KOTA ADM. JAKARTA TIMUR","ID_KEC":"31.75.07","KECAMATAN":"DUREN SAWIT","ID_DESA":"31.75.07.1002","DESA":"PONDOK BAMBU","LATITUDE":-6.2305113,"LONGITUDE":106.9046478,"STATUS":"BUKA","TANGGAL PENGUMPULAN":"Q2 2025","TANGGAL UPDATE":"17/06/2025"}},{"type":"Feature","geometry":{"coordinates":[106.8655927,-6.2170556],"type":"Point"},"properties":{"NAMA":"PASAR MAMBO","TIPE_1":"PERDAGANGAN DAN RETAIL","TIPE_2":"PASAR","TIPE_3":"PASAR TRADISIONAL","TELEPON":"","ALAMAT":"RT.7/RW.4, BALI MESTER, KECAMATAN JATINEGARA, KOTA JAKARTA TIMUR, DAERAH KHUSUS IBUKOTA JAKARTA 13310","ID_PROV":"31","PROVINSI":"DKI JAKARTA","ID_KABKOT":"31.75","KABKOT":"KOTA ADM. JAKARTA TIMUR","ID_KEC":"31.75.03","KECAMATAN":"JATINEGARA","ID_DESA":"31.75.03.1003","DESA":"BALI MESTER","LATITUDE":-6.2170556,"LONGITUDE":106.8655927,"STATUS":"BUKA","TANGGAL PENGUMPULAN":"Q2 2025","TANGGAL UPDATE":"17/06/2025"}},{"type":"Feature","geometry":{"coordinates":[106.8571668,-6.1983726],"type":"Point"},"properties":{"NAMA":"PASAR MATRAMAN","TIPE_1":"PERDAGANGAN DAN RETAIL","TIPE_2":"PASAR","TIPE_3":"PASAR TRADISIONAL","TELEPON":"","ALAMAT":"RT.12/RW.1, PALMERIAM, KEC. MATRAMAN, KOTA JAKARTA TIMUR, DAERAH KHUSUS IBUKOTA JAKARTA 13140","ID_PROV":"31","PROVINSI":"DKI JAKARTA","ID_KABKOT":"31.75","KABKOT":"KOTA ADM. JAKARTA TIMUR","ID_KEC":"31.75.01","KECAMATAN":"MATRAMAN","ID_DESA":"31.75.01.1004","DESA":"PALMERIAM","LATITUDE":-6.1983726,"LONGITUDE":106.8571668,"STATUS":"BUKA","TANGGAL PENGUMPULAN":"Q2 2025","TANGGAL UPDATE":"17/06/2025"}},{"type":"Feature","geometry":{"coordinates":[106.890417,-6.290098],"type":"Point"},"properties":{"NAMA":"PASAR MINGGU RIA","TIPE_1":"PERDAGANGAN DAN RETAIL","TIPE_2":"PASAR","TIPE_3":"PASAR TRADISIONAL","TELEPON":"","ALAMAT":"JL. KOPATDARA, RT.1/RW.1, HALIM PERDANA KUSUMAH, KEC. MAKASAR, KOTA JAKARTA TIMUR, DAERAH KHUSUS IBUKOTA JAKARTA 13560","ID_PROV":"31","PROVINSI":"DKI JAKARTA","ID_KABKOT":"31.75","KABKOT":"KOTA ADM. JAKARTA TIMUR","ID_KEC":"31.75.08","KECAMATAN":"MAKASAR","ID_DESA":"31.75.08.1004","DESA":"HALIM PERDANA KUSUMA","LATITUDE":-6.290098,"LONGITUDE":106.890417,"STATUS":"BUKA","TANGGAL PENGUMPULAN":"Q2 2025","TANGGAL UPDATE":"17/06/2025"}},{"type":"Feature","geometry":{"coordinates":[106.9536613,-6.1739035],"type":"Point"},"properties":{"NAMA":"PASAR MODEREN JAKARTA GARDEN CITY","TIPE_1":"PERDAGANGAN DAN RETAIL","TIPE_2":"PASAR","TIPE_3":"PASAR MODERN","TELEPON":"","ALAMAT":"MODERN MARKET, RT.8/RW.9, CAKUNG TIM., KEC. CAKUNG, KOTA JAKARTA TIMUR, DAERAH KHUSUS IBUKOTA JAKARTA 13910","ID_PROV":"31","PROVINSI":"DKI JAKARTA","ID_KABKOT":"31.75","KABKOT":"KOTA ADM. JAKARTA TIMUR","ID_KEC":"31.75.06","KECAMATAN":"CAKUNG","ID_DESA":"31.75.06.1004","DESA":"CAKUNG TIMUR","LATITUDE":-6.1739035,"LONGITUDE":106.9536613,"STATUS":"BUKA","TANGGAL PENGUMPULAN":"Q2 2025","TANGGAL UPDATE":"17/06/2025"}},{"type":"Feature","geometry":{"coordinates":[106.8926224,-6.3502637],"type":"Point"},"properties":{"NAMA":"PASAR MUNJUL","TIPE_1":"PERDAGANGAN DAN RETAIL","TIPE_2":"PASAR","TIPE_3":"PASAR TRADISIONAL","TELEPON":"","ALAMAT":"RT.6/RW.1, MUNJUL, KEC. CIPAYUNG, KOTA JAKARTA TIMUR, DAERAH KHUSUS IBUKOTA JAKARTA 13850","ID_PROV":"31","PROVINSI":"DKI JAKARTA","ID_KABKOT":"31.75","KABKOT":"KOTA ADM. JAKARTA TIMUR","ID_KEC":"31.75.10","KECAMATAN":"CIPAYUNG","ID_DESA":"31.75.10.1004","DESA":"MUNJUL","LATITUDE":-6.3502637,"LONGITUDE":106.8926224,"STATUS":"BUKA","TANGGAL PENGUMPULAN":"Q2 2025","TANGGAL UPDATE":"17/06/2025"}},{"type":"Feature","geometry":{"coordinates":[106.863373,-6.3078225],"type":"Point"},"properties":{"NAMA":"PASAR OBOR, CIJANTUNG JAKARTA TIMUR","TIPE_1":"PERDAGANGAN DAN RETAIL","TIPE_2":"PASAR","TIPE_3":"PASAR TRADISIONAL","TELEPON":"","ALAMAT":"JL. BERINGIN NO.2 2, RT.1/RW.4, SUSUKAN, KEC. CIRACAS, KOTA JAKARTA TIMUR, DAERAH KHUSUS IBUKOTA JAKARTA 13830","ID_PROV":"31","PROVINSI":"DKI JAKARTA","ID_KABKOT":"31.75","KABKOT":"KOTA ADM. JAKARTA TIMUR","ID_KEC":"31.75.05","KECAMATAN":"PASAR REBO","ID_DESA":"31.75.05.1001","DESA":"GEDONG","LATITUDE":-6.3078225,"LONGITUDE":106.863373,"STATUS":"BUKA","TANGGAL PENGUMPULAN":"Q2 2025","TANGGAL UPDATE":"17/06/2025"}},{"type":"Feature","geometry":{"coordinates":[106.8751272,-6.2318555],"type":"Point"},"properties":{"NAMA":"PASAR OTISTA 3 DALAM","TIPE_1":"PERDAGANGAN DAN RETAIL","TIPE_2":"PASAR","TIPE_3":"PASAR TRADISIONAL","TELEPON":"","ALAMAT":"JL. OTISTA 3 NO.24-33, RT.4/RW.1, CIPINANG CEMPEDAK, KECAMATAN JATINEGARA, KOTA JAKARTA TIMUR, DAERAH KHUSUS IBUKOTA JAKARTA 13340","ID_PROV":"31","PROVINSI":"DKI JAKARTA","ID_KABKOT":"31.75","KABKOT":"KOTA ADM. JAKARTA TIMUR","ID_KEC":"31.75.03","KECAMATAN":"JATINEGARA","ID_DESA":"31.75.03.1005","DESA":"CIPINANG CEMPEDAK","LATITUDE":-6.2318555,"LONGITUDE":106.8751272,"STATUS":"BUKA","TANGGAL PENGUMPULAN":"Q2 2025","TANGGAL UPDATE":"17/06/2025"}},{"type":"Feature","geometry":{"coordinates":[106.89191179999999,-6.2105454],"type":"Point"},"properties":{"NAMA":"PASAR PAGI CIPINANG LONTAR","TIPE_1":"PERDAGANGAN DAN RETAIL","TIPE_2":"PASAR","TIPE_3":"PASAR TRADISIONAL","TELEPON":"","ALAMAT":"JL. BEKASI TIMUR RAYA NO.6, RT.6/RW.9, CIPINANG, KEC. PULO GADUNG, KOTA JAKARTA TIMUR, DAERAH KHUSUS IBUKOTA JAKARTA 13240","ID_PROV":"31","PROVINSI":"DKI JAKARTA","ID_KABKOT":"31.75","KABKOT":"KOTA ADM. JAKARTA TIMUR","ID_KEC":"31.75.02","KECAMATAN":"PULOGADUNG","ID_DESA":"31.75.02.1003","DESA":"CIPINANG","LATITUDE":-6.2105454,"LONGITUDE":106.8919118,"STATUS":"BUKA","TANGGAL PENGUMPULAN":"Q2 2025","TANGGAL UPDATE":"17/06/2025"}},{"type":"Feature","geometry":{"coordinates":[106.8816646,-6.2027147],"type":"Point"},"properties":{"NAMA":"PASAR PAGI GANG KANA","TIPE_1":"PERDAGANGAN DAN RETAIL","TIPE_2":"PASAR","TIPE_3":"PASAR TRADISIONAL","TELEPON":"","ALAMAT":"GG. KANA, RT.6/RW.15, PISANGAN BARU, PULO GADUNG, EAST JAKARTA CITY, JAKARTA 13230","ID_PROV":"31","PROVINSI":"DKI JAKARTA","ID_KABKOT":"31.75","KABKOT":"KOTA ADM. JAKARTA TIMUR","ID_KEC":"31.75.02","KECAMATAN":"PULOGADUNG","ID_DESA":"31.75.02.1002","DESA":"PISANGAN TIMUR","LATITUDE":-6.2027147,"LONGITUDE":106.8816646,"STATUS":"BUKA","TANGGAL PENGUMPULAN":"Q2 2025","TANGGAL UPDATE":"17/06/2025"}},{"type":"Feature","geometry":{"coordinates":[106.9467293,-6.1809786],"type":"Point"},"properties":{"NAMA":"PASAR PAGI KAYU TINGGI","TIPE_1":"PERDAGANGAN DAN RETAIL","TIPE_2":"PASAR","TIPE_3":"PASAR TRADISIONAL","TELEPON":"0857-0084-0255","ALAMAT":"JL. MASJID AR-RAHMAN NO.7 6, RT.5/RW.3, CAKUNG TIM., KEC. CAKUNG, KOTA JAKARTA TIMUR, DAERAH KHUSUS IBUKOTA JAKARTA 13910","ID_PROV":"31","PROVINSI":"DKI JAKARTA","ID_KABKOT":"31.75","KABKOT":"KOTA ADM. JAKARTA TIMUR","ID_KEC":"31.75.06","KECAMATAN":"CAKUNG","ID_DESA":"31.75.06.1004","DESA":"CAKUNG TIMUR","LATITUDE":-6.1809786,"LONGITUDE":106.9467293,"STATUS":"BUKA","TANGGAL PENGUMPULAN":"Q2 2025","TANGGAL UPDATE":"17/06/2025"}},{"type":"Feature","geometry":{"coordinates":[106.8971093,-6.1875819],"type":"Point"},"properties":{"NAMA":"PASAR PAGI KAYUPUTIH","TIPE_1":"PERDAGANGAN DAN RETAIL","TIPE_2":"PASAR","TIPE_3":"PASAR TRADISIONAL","TELEPON":"0838-3064-9416","ALAMAT":"JL. KAYU PUTIH SELATAN VI NO.42 1, RT.5/RW.5, PULO GADUNG, KEC. PULO GADUNG, KOTA JAKARTA TIMUR, DAERAH KHUSUS IBUKOTA JAKARTA 13260","ID_PROV":"31","PROVINSI":"DKI JAKARTA","ID_KABKOT":"31.75","KABKOT":"KOTA ADM. JAKARTA TIMUR","ID_KEC":"31.75.02","KECAMATAN":"PULOGADUNG","ID_DESA":"31.75.02.1001","DESA":"PULO GADUNG","LATITUDE":-6.1875819,"LONGITUDE":106.8971093,"STATUS":"BUKA","TANGGAL PENGUMPULAN":"Q2 2025","TANGGAL UPDATE":"17/06/2025"}},{"type":"Feature","geometry":{"coordinates":[106.86588289999999,-6.2940466],"type":"Point"},"properties":{"NAMA":"PASAR PAGI PASAR INDUK","TIPE_1":"PERDAGANGAN DAN RETAIL","TIPE_2":"PASAR","TIPE_3":"PASAR TRADISIONAL","TELEPON":"","ALAMAT":"JL. H. TAIMAN UJUNG NO.28B 3, RT.3/RW.4, KP. TENGAH, KEC. KRAMAT JATI, KOTA JAKARTA TIMUR, DAERAH KHUSUS IBUKOTA JAKARTA 13540","ID_PROV":"31","PROVINSI":"DKI JAKARTA","ID_KABKOT":"31.75","KABKOT":"KOTA ADM. JAKARTA TIMUR","ID_KEC":"31.75.04","KECAMATAN":"KRAMATJATI","ID_DESA":"31.75.04.1002","DESA":"TENGAH","LATITUDE":-6.2940466,"LONGITUDE":106.8658829,"STATUS":"BUKA","TANGGAL PENGUMPULAN":"Q2 2025","TANGGAL UPDATE":"17/06/2025"}},{"type":"Feature","geometry":{"coordinates":[106.9319755,-6.221664],"type":"Point"},"properties":{"NAMA":"PASAR PERUMNAS KLENDER","TIPE_1":"PERDAGANGAN DAN RETAIL","TIPE_2":"PASAR","TIPE_3":"PASAR TRADISIONAL","TELEPON":"","ALAMAT":"JL. TERATAI PUTIH RAYA NO.19, MALAKA SARI, KEC. DUREN SAWIT, KOTA JAKARTA TIMUR, DAERAH KHUSUS IBUKOTA JAKARTA 13460","ID_PROV":"31","PROVINSI":"DKI JAKARTA","ID_KABKOT":"31.75","KABKOT":"KOTA ADM. JAKARTA TIMUR","ID_KEC":"31.75.07","KECAMATAN":"DUREN SAWIT","ID_DESA":"31.75.07.1005","DESA":"MALAKA SARI","LATITUDE":-6.221664,"LONGITUDE":106.9319755,"STATUS":"BUKA","TANGGAL PENGUMPULAN":"Q2 2025","TANGGAL UPDATE":"17/06/2025"}},{"type":"Feature","geometry":{"coordinates":[106.9453814,-6.1832495],"type":"Point"},"properties":{"NAMA":"PASAR PINTU AIR KAYU TINGGI","TIPE_1":"PERDAGANGAN DAN RETAIL","TIPE_2":"PASAR","TIPE_3":"PASAR TRADISIONAL","TELEPON":"","ALAMAT":"JL. RAYA KAYU TINGGI NO.87 1, RT.2/RW.11, CAKUNG TIM., KEC. CAKUNG, KOTA JAKARTA TIMUR, DAERAH KHUSUS IBUKOTA JAKARTA 13910","ID_PROV":"31","PROVINSI":"DKI JAKARTA","ID_KABKOT":"31.75","KABKOT":"KOTA ADM. JAKARTA TIMUR","ID_KEC":"31.75.06","KECAMATAN":"CAKUNG","ID_DESA":"31.75.06.1004","DESA":"CAKUNG TIMUR","LATITUDE":-6.1832495,"LONGITUDE":106.9453814,"STATUS":"BUKA","TANGGAL PENGUMPULAN":"Q2 2025","TANGGAL UPDATE":"17/06/2025"}},{"type":"Feature","geometry":{"coordinates":[106.90263859999999,-6.238333],"type":"Point"},"properties":{"NAMA":"PASAR PONDOK BAMBU","TIPE_1":"PERDAGANGAN DAN RETAIL","TIPE_2":"PASAR","TIPE_3":"PASAR TRADISIONAL","TELEPON":"","ALAMAT":"JAKARTA - CIKAMPEK TOLL RD, RT.16/RW.5, PONDOK BAMBU, DURENSAWIT, EAST JAKARTA CITY, JAKARTA 13430","ID_PROV":"31","PROVINSI":"DKI JAKARTA","ID_KABKOT":"31.75","KABKOT":"KOTA ADM. JAKARTA TIMUR","ID_KEC":"31.75.07","KECAMATAN":"DUREN SAWIT","ID_DESA":"31.75.07.1002","DESA":"PONDOK BAMBU","LATITUDE":-6.238333,"LONGITUDE":106.9026386,"STATUS":"BUKA","TANGGAL PENGUMPULAN":"Q2 2025","TANGGAL UPDATE":"17/06/2025"}},{"type":"Feature","geometry":{"coordinates":[106.857658,-6.1973443],"type":"Point"},"properties":{"NAMA":"PASAR PRAMUKA","TIPE_1":"PERDAGANGAN DAN RETAIL","TIPE_2":"PASAR","TIPE_3":"PASAR MODERN","TELEPON":"(021) 8581857","ALAMAT":"JL. PRAMUKA, RT.1/RW.6, PALMERIAM, KEC. MATRAMAN, KOTA JAKARTA TIMUR, DAERAH KHUSUS IBUKOTA JAKARTA 13140","ID_PROV":"31","PROVINSI":"DKI JAKARTA","ID_KABKOT":"31.75","KABKOT":"KOTA ADM. JAKARTA TIMUR","ID_KEC":"31.75.01","KECAMATAN":"MATRAMAN","ID_DESA":"31.75.01.1004","DESA":"PALMERIAM","LATITUDE":-6.1973443,"LONGITUDE":106.857658,"STATUS":"BUKA","TANGGAL PENGUMPULAN":"Q2 2025","TANGGAL UPDATE":"17/06/2025"}},{"type":"Feature","geometry":{"coordinates":[106.9225051,-6.1954342],"type":"Point"},"properties":{"NAMA":"PASAR PULO JAHE","TIPE_1":"PERDAGANGAN DAN RETAIL","TIPE_2":"PASAR","TIPE_3":"PASAR TRADISIONAL","TELEPON":"","ALAMAT":"JL. KP. PULO JAHE NO.12 1, RT.1/RW.5, JATINEGARA, KEC. CAKUNG, KOTA JAKARTA TIMUR, DAERAH KHUSUS IBUKOTA JAKARTA 13930","ID_PROV":"31","PROVINSI":"DKI JAKARTA","ID_KABKOT":"31.75","KABKOT":"KOTA ADM. JAKARTA TIMUR","ID_KEC":"31.75.06","KECAMATAN":"CAKUNG","ID_DESA":"31.75.06.1001","DESA":"JATINEGARA","LATITUDE":-6.1954342,"LONGITUDE":106.9225051,"STATUS":"BUKA","TANGGAL PENGUMPULAN":"Q2 2025","TANGGAL UPDATE":"17/06/2025"}},{"type":"Feature","geometry":{"coordinates":[106.90549139999999,-6.1868548],"type":"Point"},"properties":{"NAMA":"PASAR PULOGADUNG","TIPE_1":"PERDAGANGAN DAN RETAIL","TIPE_2":"PASAR","TIPE_3":"PASAR TRADISIONAL","TELEPON":"(021) 4711975","ALAMAT":"JL. RAYA BEKASI NO.KM.19, RT.1/RW.6, JATINEGARA KAUM, KEC. PULO GADUNG, KOTA JAKARTA TIMUR, DAERAH KHUSUS IBUKOTA JAKARTA 13250","ID_PROV":"31","PROVINSI":"DKI JAKARTA","ID_KABKOT":"31.75","KABKOT":"KOTA ADM. JAKARTA TIMUR","ID_KEC":"31.75.02","KECAMATAN":"PULOGADUNG","ID_DESA":"31.75.02.1004","DESA":"JATINEGARA KAUM","LATITUDE":-6.1868548,"LONGITUDE":106.9054914,"STATUS":"BUKA","TANGGAL PENGUMPULAN":"Q2 2025","TANGGAL UPDATE":"17/06/2025"}},{"type":"Feature","geometry":{"coordinates":[106.9555333,-6.1966177],"type":"Point"},"properties":{"NAMA":"PASAR PULOGEBANG PERMAI","TIPE_1":"PERDAGANGAN DAN RETAIL","TIPE_2":"PASAR","TIPE_3":"PASAR TRADISIONAL","TELEPON":"","ALAMAT":"JL. RAYA PULO GEBANG NO.RT 13/04 13, RT.13/RW.4, PULO GEBANG, KEC. CAKUNG, KOTA JAKARTA TIMUR, DAERAH KHUSUS IBUKOTA JAKARTA 13950","ID_PROV":"31","PROVINSI":"DKI JAKARTA","ID_KABKOT":"31.75","KABKOT":"KOTA ADM. JAKARTA TIMUR","ID_KEC":"31.75.06","KECAMATAN":"CAKUNG","ID_DESA":"31.75.06.1005","DESA":"PULO GEBANG","LATITUDE":-6.1966177,"LONGITUDE":106.9555333,"STATUS":"BUKA","TANGGAL PENGUMPULAN":"Q2 2025","TANGGAL UPDATE":"17/06/2025"}},{"type":"Feature","geometry":{"coordinates":[106.8700126,-6.2158464],"type":"Point"},"properties":{"NAMA":"PASAR RAWA BENING ","TIPE_1":"PERDAGANGAN DAN RETAIL","TIPE_2":"PASAR","TIPE_3":"PASAR MODERN","TELEPON":"","ALAMAT":"JL. BEKASI BARAT NO.4, RW. BUNGA, KECAMATAN JATINEGARA, KOTA JAKARTA TIMUR, DAERAH KHUSUS IBUKOTA JAKARTA 13350","ID_PROV":"31","PROVINSI":"DKI JAKARTA","ID_KABKOT":"31.75","KABKOT":"KOTA ADM. JAKARTA TIMUR","ID_KEC":"31.75.03","KECAMATAN":"JATINEGARA","ID_DESA":"31.75.03.1004","DESA":"RAWA BUNGA","LATITUDE":-6.2158464,"LONGITUDE":106.8700126,"STATUS":"BUKA","TANGGAL PENGUMPULAN":"Q2 2025","TANGGAL UPDATE":"17/06/2025"}},{"type":"Feature","geometry":{"coordinates":[106.8897334,-6.1986113],"type":"Point"},"properties":{"NAMA":"PASAR RAWAMANGUN","TIPE_1":"PERDAGANGAN DAN RETAIL","TIPE_2":"PASAR","TIPE_3":"PASAR TRADISIONAL","TELEPON":"0878-8986-2555","ALAMAT":"JL. PINANG RAYA NO.23, RT.9/RW.8, RAWAMANGUN, KEC. PULO GADUNG, KOTA JAKARTA TIMUR, DAERAH KHUSUS IBUKOTA JAKARTA 13220","ID_PROV":"31","PROVINSI":"DKI JAKARTA","ID_KABKOT":"31.75","KABKOT":"KOTA ADM. JAKARTA TIMUR","ID_KEC":"31.75.02","KECAMATAN":"PULOGADUNG","ID_DESA":"31.75.02.1005","DESA":"RAWAMANGUN","LATITUDE":-6.1986113,"LONGITUDE":106.8897334,"STATUS":"BUKA","TANGGAL PENGUMPULAN":"Q2 2025","TANGGAL UPDATE":"17/06/2025"}},{"type":"Feature","geometry":{"coordinates":[106.8709311,-6.3301129],"type":"Point"},"properties":{"NAMA":"PASAR SAYUR MALAM DEPAN PASAR CIRACAS","TIPE_1":"PERDAGANGAN DAN RETAIL","TIPE_2":"PASAR","TIPE_3":"PASAR TRADISIONAL","TELEPON":"","ALAMAT":"JL. RAYA CIRACAS NO.114, RT.1/RW.5, CIRACAS, EAST JAKARTA CITY, JAKARTA 13740","ID_PROV":"31","PROVINSI":"DKI JAKARTA","ID_KABKOT":"31.75","KABKOT":"KOTA ADM. JAKARTA TIMUR","ID_KEC":"31.75.09","KECAMATAN":"CIRACAS","ID_DESA":"31.75.09.1001","DESA":"CIRACAS","LATITUDE":-6.3301129,"LONGITUDE":106.8709311,"STATUS":"BUKA","TANGGAL PENGUMPULAN":"Q2 2025","TANGGAL UPDATE":"17/06/2025"}},{"type":"Feature","geometry":{"coordinates":[106.9030522,-6.1866851],"type":"Point"},"properties":{"NAMA":"PASAR SENG PULOGADUNG","TIPE_1":"PERDAGANGAN DAN RETAIL","TIPE_2":"PASAR","TIPE_3":"PASAR TRADISIONAL","TELEPON":"","ALAMAT":"RT.1/RW.3, PULO GADUNG, KEC. PULO GADUNG, KOTA JAKARTA TIMUR, DAERAH KHUSUS IBUKOTA JAKARTA 13260","ID_PROV":"31","PROVINSI":"DKI JAKARTA","ID_KABKOT":"31.75","KABKOT":"KOTA ADM. JAKARTA TIMUR","ID_KEC":"31.75.02","KECAMATAN":"PULOGADUNG","ID_DESA":"31.75.02.1001","DESA":"PULO GADUNG","LATITUDE":-6.1866851,"LONGITUDE":106.9030522,"STATUS":"BUKA","TANGGAL PENGUMPULAN":"Q2 2025","TANGGAL UPDATE":"17/06/2025"}},{"type":"Feature","geometry":{"coordinates":[106.86684419999999,-6.2773246],"type":"Point"},"properties":{"NAMA":"PASAR SUBUH","TIPE_1":"PERDAGANGAN DAN RETAIL","TIPE_2":"PASAR","TIPE_3":"PASAR TRADISIONAL","TELEPON":"","ALAMAT":"JL. RAYA BOGOR RT.2/RW.9, BATU AMPAR, KRAMATJATI, KOTA JAKARTA TIMUR, DAERAH KHUSUS IBUKOTA JAKARTA, RT.2/RW.8, BATU AMPAR, KEC. KRAMAT JATI, KOTA JAKARTA TIMUR, DAERAH KHUSUS IBUKOTA JAKARTA 13520","ID_PROV":"31","PROVINSI":"DKI JAKARTA","ID_KABKOT":"31.75","KABKOT":"KOTA ADM. JAKARTA TIMUR","ID_KEC":"31.75.04","KECAMATAN":"KRAMATJATI","ID_DESA":"31.75.04.1004","DESA":"BATU AMPAR","LATITUDE":-6.2773246,"LONGITUDE":106.8668442,"STATUS":"BUKA","TANGGAL PENGUMPULAN":"Q2 2025","TANGGAL UPDATE":"17/06/2025"}},{"type":"Feature","geometry":{"coordinates":[106.8826289,-6.1964785],"type":"Point"},"properties":{"NAMA":"PASAR SUNAN GIRI","TIPE_1":"PERDAGANGAN DAN RETAIL","TIPE_2":"PASAR","TIPE_3":"PASAR TRADISIONAL","TELEPON":"","ALAMAT":"JL. SUNAN GIRI, RT.8/RW.15, RAWAMANGUN, KEC. PULO GADUNG, KOTA JAKARTA TIMUR, DAERAH KHUSUS IBUKOTA JAKARTA 13220","ID_PROV":"31","PROVINSI":"DKI JAKARTA","ID_KABKOT":"31.75","KABKOT":"KOTA ADM. JAKARTA TIMUR","ID_KEC":"31.75.02","KECAMATAN":"PULOGADUNG","ID_DESA":"31.75.02.1005","DESA":"RAWAMANGUN","LATITUDE":-6.1964785,"LONGITUDE":106.8826289,"STATUS":"BUKA","TANGGAL PENGUMPULAN":"Q2 2025","TANGGAL UPDATE":"17/06/2025"}},{"type":"Feature","geometry":{"coordinates":[106.93023989999999,-6.2214321],"type":"Point"},"properties":{"NAMA":"PASAR TERATAI MALAKA SARI","TIPE_1":"PERDAGANGAN DAN RETAIL","TIPE_2":"PASAR","TIPE_3":"PASAR TRADISIONAL","TELEPON":"","ALAMAT":"TERATAI PUTIH 3 GG. 5 NO.209, RT.15/RW.4, MALAKA SARI, KEC. DUREN SAWIT, KOTA JAKARTA TIMUR, DAERAH KHUSUS IBUKOTA JAKARTA 13460","ID_PROV":"31","PROVINSI":"DKI JAKARTA","ID_KABKOT":"31.75","KABKOT":"KOTA ADM. JAKARTA TIMUR","ID_KEC":"31.75.07","KECAMATAN":"DUREN SAWIT","ID_DESA":"31.75.07.1005","DESA":"MALAKA SARI","LATITUDE":-6.2214321,"LONGITUDE":106.9302399,"STATUS":"BUKA","TANGGAL PENGUMPULAN":"Q2 2025","TANGGAL UPDATE":"17/06/2025"}},{"type":"Feature","geometry":{"coordinates":[106.9227383,-6.19493],"type":"Point"},"properties":{"NAMA":"PASAR TRADISIONAL CAKUNG","TIPE_1":"PERDAGANGAN DAN RETAIL","TIPE_2":"PASAR","TIPE_3":"PASAR TRADISIONAL","TELEPON":"","ALAMAT":"JL. DR. KRT RADJIMAN WIDYODININGRAT NO.17, RT.1/RW.5, JATINEGARA, KEC. CAKUNG, KOTA JAKARTA TIMUR, DAERAH KHUSUS IBUKOTA JAKARTA 13930","ID_PROV":"31","PROVINSI":"DKI JAKARTA","ID_KABKOT":"31.75","KABKOT":"KOTA ADM. JAKARTA TIMUR","ID_KEC":"31.75.06","KECAMATAN":"CAKUNG","ID_DESA":"31.75.06.1001","DESA":"JATINEGARA","LATITUDE":-6.19493,"LONGITUDE":106.9227383,"STATUS":"BUKA","TANGGAL PENGUMPULAN":"Q2 2025","TANGGAL UPDATE":"17/06/2025"}},{"type":"Feature","geometry":{"coordinates":[106.878044,-6.189505],"type":"Point"},"properties":{"NAMA":"PASAR TRADISIONAL H TEN","TIPE_1":"PERDAGANGAN DAN RETAIL","TIPE_2":"PASAR","TIPE_3":"PASAR TRADISIONAL","TELEPON":"","ALAMAT":"JL. H. TEN IV, RT.6/RW.3, RAWAMANGUN, KEC. PULO GADUNG, KOTA JAKARTA TIMUR, DAERAH KHUSUS IBUKOTA JAKARTA","ID_PROV":"31","PROVINSI":"DKI JAKARTA","ID_KABKOT":"31.75","KABKOT":"KOTA ADM. JAKARTA TIMUR","ID_KEC":"31.75.02","KECAMATAN":"PULOGADUNG","ID_DESA":"31.75.02.1005","DESA":"RAWAMANGUN","LATITUDE":-6.189505,"LONGITUDE":106.878044,"STATUS":"BUKA","TANGGAL PENGUMPULAN":"Q2 2025","TANGGAL UPDATE":"17/06/2025"}},{"type":"Feature","geometry":{"coordinates":[106.8742671,-6.2313944],"type":"Point"},"properties":{"NAMA":"PASAR TRADISIONAL KAM","TIPE_1":"PERDAGANGAN DAN RETAIL","TIPE_2":"PASAR","TIPE_3":"PASAR TRADISIONAL","TELEPON":"","ALAMAT":"JL. OTISTA III DALAM NO.72A, RT.5/RW.1, CIPINANG CEMPEDAK, KECAMATAN JATINEGARA, KOTA JAKARTA TIMUR, DAERAH KHUSUS IBUKOTA JAKARTA 13340","ID_PROV":"31","PROVINSI":"DKI JAKARTA","ID_KABKOT":"31.75","KABKOT":"KOTA ADM. JAKARTA TIMUR","ID_KEC":"31.75.03","KECAMATAN":"JATINEGARA","ID_DESA":"31.75.03.1005","DESA":"CIPINANG CEMPEDAK","LATITUDE":-6.2313944,"LONGITUDE":106.8742671,"STATUS":"BUKA","TANGGAL PENGUMPULAN":"Q2 2025","TANGGAL UPDATE":"17/06/2025"}},{"type":"Feature","geometry":{"coordinates":[106.8715063,-6.2346354],"type":"Point"},"properties":{"NAMA":"PASAR TRADISIONAL SAWO","TIPE_1":"PERDAGANGAN DAN RETAIL","TIPE_2":"PASAR","TIPE_3":"PASAR TRADISIONAL","TELEPON":"0819-9998-5988","ALAMAT":"JL. KEBON NANAS SELATAN II, RT.11/RW.5, CIPINANG CEMPEDAK, KECAMATAN JATINEGARA, KOTA JAKARTA TIMUR, DAERAH KHUSUS IBUKOTA JAKARTA 13340","ID_PROV":"31","PROVINSI":"DKI JAKARTA","ID_KABKOT":"31.75","KABKOT":"KOTA ADM. JAKARTA TIMUR","ID_KEC":"31.75.03","KECAMATAN":"JATINEGARA","ID_DESA":"31.75.03.1005","DESA":"CIPINANG CEMPEDAK","LATITUDE":-6.2346354,"LONGITUDE":106.8715063,"STATUS":"BUKA","TANGGAL PENGUMPULAN":"Q2 2025","TANGGAL UPDATE":"17/06/2025"}},{"type":"Feature","geometry":{"coordinates":[106.9203527,-6.2021311],"type":"Point"},"properties":{"NAMA":"PASAR TRADISIONAL SEBUN","TIPE_1":"PERDAGANGAN DAN RETAIL","TIPE_2":"PASAR","TIPE_3":"PASAR TRADISIONAL","TELEPON":"","ALAMAT":"JL. PENGARENGAN NO.72 4, RT.4/RW.6, JATINEGARA, KEC. CAKUNG, KOTA JAKARTA TIMUR, DAERAH KHUSUS IBUKOTA JAKARTA 13930","ID_PROV":"31","PROVINSI":"DKI JAKARTA","ID_KABKOT":"31.75","KABKOT":"KOTA ADM. JAKARTA TIMUR","ID_KEC":"31.75.06","KECAMATAN":"CAKUNG","ID_DESA":"31.75.06.1001","DESA":"JATINEGARA","LATITUDE":-6.2021311,"LONGITUDE":106.9203527,"STATUS":"BUKA","TANGGAL PENGUMPULAN":"Q2 2025","TANGGAL UPDATE":"17/06/2025"}},{"type":"Feature","geometry":{"coordinates":[106.958522,-6.1844552],"type":"Point"},"properties":{"NAMA":"PASAR UNYIL","TIPE_1":"PERDAGANGAN DAN RETAIL","TIPE_2":"PASAR","TIPE_3":"PASAR TRADISIONAL","TELEPON":"0838-7269-3663","ALAMAT":"JL. TANJAKAN AURI NO.11, RT.11/RW.1, EAST CAKUNG, CAKUNG, EAST JAKARTA CITY, JAKARTA 13910","ID_PROV":"31","PROVINSI":"DKI JAKARTA","ID_KABKOT":"31.75","KABKOT":"KOTA ADM. JAKARTA TIMUR","ID_KEC":"31.75.06","KECAMATAN":"CAKUNG","ID_DESA":"31.75.06.1004","DESA":"CAKUNG TIMUR","LATITUDE":-6.1844552,"LONGITUDE":106.958522,"STATUS":"BUKA","TANGGAL PENGUMPULAN":"Q2 2025","TANGGAL UPDATE":"17/06/2025"}},{"type":"Feature","geometry":{"coordinates":[106.8767884,-6.2714274],"type":"Point"},"properties":{"NAMA":"PASAR YASA LAMA","TIPE_1":"PERDAGANGAN DAN RETAIL","TIPE_2":"PASAR","TIPE_3":"PASAR TRADISIONAL","TELEPON":"","ALAMAT":"RT.13/RW.2, MAKASAR, KEC. MAKASAR, KOTA JAKARTA TIMUR, DAERAH KHUSUS IBUKOTA JAKARTA 13570","ID_PROV":"31","PROVINSI":"DKI JAKARTA","ID_KABKOT":"31.75","KABKOT":"KOTA ADM. JAKARTA TIMUR","ID_KEC":"31.75.08","KECAMATAN":"MAKASAR","ID_DESA":"31.75.08.1001","DESA":"MAKASAR","LATITUDE":-6.2714274,"LONGITUDE":106.8767884,"STATUS":"BUKA","TANGGAL PENGUMPULAN":"Q2 2025","TANGGAL UPDATE":"17/06/2025"}}]}