{"type":"FeatureCollection","features":[{"type":"Feature","geometry":{"coordinates":[107.160648,-6.299533],"type":"Point"},"properties":{"NAMA":"PASAR MODERN PLAZA ROXY JABABEKA","TIPE_1":"PERDAGANGAN DAN RETAIL","TIPE_2":"PASAR","TIPE_3":"PASAR MODERN","TELEPON":"0821-2513-3739","ALAMAT":"PLAZA ROXY JL. KASUARI RAYA, MEKARMUKTI CIKARANG UTARA, BEKASI, MEKARMUKTI, KEC. CIKARANG UTARA, CIKARANG, JAWA BARAT 17530","ID_PROV":"32","PROVINSI":"JAWA BARAT","ID_KABKOT":"32.16","KABKOT":"BEKASI","ID_KEC":"32.16.09","KECAMATAN":"CIKARANG UTARA","ID_DESA":"32.16.09.2010","DESA":"MEKARMUKTI","LATITUDE":-6.299533,"LONGITUDE":107.160648,"STATUS":"BUKA","TANGGAL PENGUMPULAN":"Q2 2025","TANGGAL UPDATE":"17/06/2025"}},{"type":"Feature","geometry":{"coordinates":[107.0535266,-6.3401537],"type":"Point"},"properties":{"NAMA":"PASAR MODERN GBP 1","TIPE_1":"PERDAGANGAN DAN RETAIL","TIPE_2":"PASAR","TIPE_3":"PASAR MODERN","TELEPON":"","ALAMAT":"TELAJUNG, KEC. CIKARANG BAR., KABUPATEN BEKASI, JAWA BARAT 17530","ID_PROV":"32","PROVINSI":"JAWA BARAT","ID_KABKOT":"32.16","KABKOT":"BEKASI","ID_KEC":"32.16.08","KECAMATAN":"CIKARANG BARAT","ID_DESA":"32.16.08.2010","DESA":"TELAJUNG","LATITUDE":-6.3401537,"LONGITUDE":107.0535266,"STATUS":"BUKA","TANGGAL PENGUMPULAN":"Q2 2025","TANGGAL UPDATE":"17/06/2025"}},{"type":"Feature","geometry":{"coordinates":[107.043219,-6.2756747],"type":"Point"},"properties":{"NAMA":"PASAR MODERN GRAND WISATA","TIPE_1":"PERDAGANGAN DAN RETAIL","TIPE_2":"PASAR","TIPE_3":"PASAR MODERN","TELEPON":"","ALAMAT":"JL. PRATAMA 3 NO.2, LAMBANGSARI, KEC. TAMBUN SEL., KOTA BKS, JAWA BARAT 17510","ID_PROV":"32","PROVINSI":"JAWA BARAT","ID_KABKOT":"32.16","KABKOT":"BEKASI","ID_KEC":"32.16.06","KECAMATAN":"TAMBUN SELATAN","ID_DESA":"32.16.06.2002","DESA":"LAMBANGSARI","LATITUDE":-6.2756747,"LONGITUDE":107.043219,"STATUS":"BUKA","TANGGAL PENGUMPULAN":"Q2 2025","TANGGAL UPDATE":"17/06/2025"}},{"type":"Feature","geometry":{"coordinates":[107.1789479,-6.3490671],"type":"Point"},"properties":{"NAMA":"PASAR MODERN KOTA DELTAMAS","TIPE_1":"PERDAGANGAN DAN RETAIL","TIPE_2":"PASAR","TIPE_3":"PASAR MODERN","TELEPON":"","ALAMAT":"HEGARMUKTI, KEC. CIKARANG PUSAT, KABUPATEN BEKASI, JAWA BARAT 17530","ID_PROV":"32","PROVINSI":"JAWA BARAT","ID_KABKOT":"32.16","KABKOT":"BEKASI","ID_KEC":"32.16.20","KECAMATAN":"CIKARANG PUSAT","ID_DESA":"32.16.20.2004","DESA":"HEGARMUKTI","LATITUDE":-6.3490671,"LONGITUDE":107.1789479,"STATUS":"BUKA","TANGGAL PENGUMPULAN":"Q2 2025","TANGGAL UPDATE":"17/06/2025"}},{"type":"Feature","geometry":{"coordinates":[107.12022,-6.33822],"type":"Point"},"properties":{"NAMA":"PASAR CENTRAL CIKARANG","TIPE_1":"PERDAGANGAN DAN RETAIL","TIPE_2":"PASAR","TIPE_3":"PASAR MODERN","TELEPON":"","ALAMAT":"SUKARESMI, CIKARANG SEL., KABUPATEN BEKASI, JAWA BARAT","ID_PROV":"32","PROVINSI":"JAWA BARAT","ID_KABKOT":"32.16","KABKOT":"BEKASI","ID_KEC":"32.16.19","KECAMATAN":"CIKARANG SELATAN","ID_DESA":"32.16.19.2005","DESA":"SUKARESMI","LATITUDE":-6.33822,"LONGITUDE":107.12022,"STATUS":"BUKA","TANGGAL PENGUMPULAN":"Q2 2025","TANGGAL UPDATE":"17/06/2025"}},{"type":"Feature","geometry":{"coordinates":[107.0466342,-6.2775882],"type":"Point"},"properties":{"NAMA":"PASAR MODERN","TIPE_1":"PERDAGANGAN DAN RETAIL","TIPE_2":"PASAR","TIPE_3":"PASAR MODERN","TELEPON":"","ALAMAT":"JL. CELEBRATION BOULEVARD, LAMBANGSARI, KEC. TAMBUN SEL., KABUPATEN BEKASI, JAWA BARAT 17510","ID_PROV":"32","PROVINSI":"JAWA BARAT","ID_KABKOT":"32.16","KABKOT":"BEKASI","ID_KEC":"32.16.06","KECAMATAN":"TAMBUN SELATAN","ID_DESA":"32.16.06.2002","DESA":"LAMBANGSARI","LATITUDE":-6.2775882,"LONGITUDE":107.0466342,"STATUS":"BUKA","TANGGAL PENGUMPULAN":"Q2 2025","TANGGAL UPDATE":"17/06/2025"}}]}