{"type":"FeatureCollection","features":[{"type":"Feature","geometry":{"coordinates":[107.1650869,-6.3116629],"type":"Point"},"properties":{"NAMA":"PASAR PAGI CIKARANG","TIPE_1":"PERDAGANGAN DAN RETAIL","TIPE_2":"PASAR","TIPE_3":"PASAR TRADISIONAL","TELEPON":"","ALAMAT":"JL. TARUM BARAT RAYA NO.6-21, JAYAMUKTI, KEC. CIKARANG PUSAT, KABUPATEN BEKASI, JAWA BARAT 17530","ID_PROV":"32","PROVINSI":"JAWA BARAT","ID_KABKOT":"32.16","KABKOT":"BEKASI","ID_KEC":"32.16.20","KECAMATAN":"CIKARANG PUSAT","ID_DESA":"32.16.20.2005","DESA":"JAYAMUKTI","LATITUDE":-6.3116629,"LONGITUDE":107.1650869,"STATUS":"BUKA","TANGGAL PENGUMPULAN":"Q2 2025","TANGGAL UPDATE":"17/06/2025"}},{"type":"Feature","geometry":{"coordinates":[107.0843695,-6.2699376],"type":"Point"},"properties":{"NAMA":"PASAR PAGI ANDINI","TIPE_1":"PERDAGANGAN DAN RETAIL","TIPE_2":"PASAR","TIPE_3":"PASAR TRADISIONAL","TELEPON":"","ALAMAT":"JL. KP. CIBUNTU NO.30, JL. NASIONAL 1, RW.2, GANDASARI, KEC. CIKARANG BAR., KABUPATEN BEKASI, JAWA BARAT 17530","ID_PROV":"32","PROVINSI":"JAWA BARAT","ID_KABKOT":"32.16","KABKOT":"BEKASI","ID_KEC":"32.16.08","KECAMATAN":"CIKARANG BARAT","ID_DESA":"32.16.08.2006","DESA":"GANDASARI","LATITUDE":-6.2699376,"LONGITUDE":107.0843695,"STATUS":"BUKA","TANGGAL PENGUMPULAN":"Q2 2025","TANGGAL UPDATE":"17/06/2025"}},{"type":"Feature","geometry":{"coordinates":[107.0526192,-6.1687133],"type":"Point"},"properties":{"NAMA":"PASAR PAGI BEKASI GREEN CITY","TIPE_1":"PERDAGANGAN DAN RETAIL","TIPE_2":"PASAR","TIPE_3":"PASAR TRADISIONAL","TELEPON":"","ALAMAT":"PASAR PAGI, JL. RAYA BEKASI GREEN CITY NO.PERUMAHAN, RT.02/RW.10, SRIAMUR, KEC. TAMBUN UTARA, KABUPATEN BEKASI, JAWA BARAT 17510","ID_PROV":"32","PROVINSI":"JAWA BARAT","ID_KABKOT":"32.16","KABKOT":"BEKASI","ID_KEC":"32.16.05","KECAMATAN":"TAMBUN UTARA","ID_DESA":"32.16.05.2004","DESA":"SRIAMUR","LATITUDE":-6.1687133,"LONGITUDE":107.0526192,"STATUS":"BUKA","TANGGAL PENGUMPULAN":"Q2 2025","TANGGAL UPDATE":"17/06/2025"}},{"type":"Feature","geometry":{"coordinates":[107.0719507,-6.2430343],"type":"Point"},"properties":{"NAMA":"PASAR PAGI","TIPE_1":"PERDAGANGAN DAN RETAIL","TIPE_2":"PASAR","TIPE_3":"PASAR TRADISIONAL","TELEPON":"0819-9424-5925","ALAMAT":"TRIDAYA SAKTI, KEC. TAMBELANG, KABUPATEN BEKASI, JAWA BARAT 17510","ID_PROV":"32","PROVINSI":"JAWA BARAT","ID_KABKOT":"32.16","KABKOT":"BEKASI","ID_KEC":"32.16.06","KECAMATAN":"TAMBUN SELATAN","ID_DESA":"32.16.06.2008","DESA":"TRIDAYA SAKTI","LATITUDE":-6.2430343,"LONGITUDE":107.0719507,"STATUS":"BUKA","TANGGAL PENGUMPULAN":"Q2 2025","TANGGAL UPDATE":"17/06/2025"}},{"type":"Feature","geometry":{"coordinates":[107.0628596,-6.2444352],"type":"Point"},"properties":{"NAMA":"PASAR PATRA 3 - MANGUNJAYA","TIPE_1":"PERDAGANGAN DAN RETAIL","TIPE_2":"PASAR","TIPE_3":"PASAR TRADISIONAL","TELEPON":"(021) 88370187","ALAMAT":"JL. RAYA MANGUN JAYA NO.KM, RW.3, MANGUNJAYA, KEC. TAMBUN SEL., KABUPATEN BEKASI, JAWA BARAT 17510","ID_PROV":"32","PROVINSI":"JAWA BARAT","ID_KABKOT":"32.16","KABKOT":"BEKASI","ID_KEC":"32.16.06","KECAMATAN":"TAMBUN SELATAN","ID_DESA":"32.16.06.2009","DESA":"MANGUNJAYA","LATITUDE":-6.2444352,"LONGITUDE":107.0628596,"STATUS":"BUKA","TANGGAL PENGUMPULAN":"Q2 2025","TANGGAL UPDATE":"17/06/2025"}},{"type":"Feature","geometry":{"coordinates":[107.06330349999999,-6.2446522],"type":"Point"},"properties":{"NAMA":"PASAR PATRA KABUPATEN BEKASI","TIPE_1":"PERDAGANGAN DAN RETAIL","TIPE_2":"PASAR","TIPE_3":"PASAR TRADISIONAL","TELEPON":"","ALAMAT":"PASAR PATRA TAMBUN, JL. RAYA MANGUN JAYA, MANGUNJAYA, KEC. TAMBUN SEL., KABUPATEN BEKASI, JAWA BARAT 17510","ID_PROV":"32","PROVINSI":"JAWA BARAT","ID_KABKOT":"32.16","KABKOT":"BEKASI","ID_KEC":"32.16.06","KECAMATAN":"TAMBUN SELATAN","ID_DESA":"32.16.06.2009","DESA":"MANGUNJAYA","LATITUDE":-6.2446522,"LONGITUDE":107.0633035,"STATUS":"BUKA","TANGGAL PENGUMPULAN":"Q2 2025","TANGGAL UPDATE":"17/06/2025"}},{"type":"Feature","geometry":{"coordinates":[107.103833,-6.3761666],"type":"Point"},"properties":{"NAMA":"PASAR PASIRAYA","TIPE_1":"PERDAGANGAN DAN RETAIL","TIPE_2":"PASAR","TIPE_3":"PASAR TRADISIONAL","TELEPON":"","ALAMAT":"JL. TELAGA PASIR RAYA, SUKASARI, KEC. SERANG BARU, KABUPATEN BEKASI, JAWA BARAT 17330","ID_PROV":"32","PROVINSI":"JAWA BARAT","ID_KABKOT":"32.16","KABKOT":"BEKASI","ID_KEC":"32.16.21","KECAMATAN":"SERANG BARU","ID_DESA":"32.16.21.2003","DESA":"SUKASARI","LATITUDE":-6.3761666,"LONGITUDE":107.103833,"STATUS":"BUKA","TANGGAL PENGUMPULAN":"Q2 2025","TANGGAL UPDATE":"17/06/2025"}},{"type":"Feature","geometry":{"coordinates":[107.0885394,-6.2387287],"type":"Point"},"properties":{"NAMA":"PASAR PAMOR","TIPE_1":"PERDAGANGAN DAN RETAIL","TIPE_2":"PASAR","TIPE_3":"PASAR TRADISIONAL","TELEPON":"0857-1869-5137","ALAMAT":"PASAR TRADISIONAL JALAN RAYA B.BOSSY NO.1, JL. RAYA PERMATA REGENCY NO.53, WANASARI, KEC. CIBITUNG, KABUPATEN BEKASI, JAWA BARAT 17520","ID_PROV":"32","PROVINSI":"JAWA BARAT","ID_KABKOT":"32.16","KABKOT":"BEKASI","ID_KEC":"32.16.07","KECAMATAN":"CIBITUNG","ID_DESA":"32.16.07.1001","DESA":"WANASARI","LATITUDE":-6.2387287,"LONGITUDE":107.0885394,"STATUS":"BUKA","TANGGAL PENGUMPULAN":"Q2 2025","TANGGAL UPDATE":"17/06/2025"}},{"type":"Feature","geometry":{"coordinates":[107.08883,-6.23856],"type":"Point"},"properties":{"NAMA":"PASAR PAMOR, JL. RAYA BOSSY","TIPE_1":"PERDAGANGAN DAN RETAIL","TIPE_2":"PASAR","TIPE_3":"PASAR TRADISIONAL","TELEPON":"","ALAMAT":"WANASARI, KEC. CIBITUNG, KABUPATEN BEKASI, JAWA BARAT","ID_PROV":"32","PROVINSI":"JAWA BARAT","ID_KABKOT":"32.16","KABKOT":"BEKASI","ID_KEC":"32.16.07","KECAMATAN":"CIBITUNG","ID_DESA":"32.16.07.1001","DESA":"WANASARI","LATITUDE":-6.23856,"LONGITUDE":107.08883,"STATUS":"BUKA","TANGGAL PENGUMPULAN":"Q2 2025","TANGGAL UPDATE":"17/06/2025"}},{"type":"Feature","geometry":{"coordinates":[107.1600891,-6.3176244],"type":"Point"},"properties":{"NAMA":"PASAR MINGGU PAGI","TIPE_1":"PERDAGANGAN DAN RETAIL","TIPE_2":"PASAR","TIPE_3":"PASAR TRADISIONAL","TELEPON":"","ALAMAT":"JAYAMUKTI, KEC. CIKARANG PUSAT, KABUPATEN BEKASI, JAWA BARAT 17530","ID_PROV":"32","PROVINSI":"JAWA BARAT","ID_KABKOT":"32.16","KABKOT":"BEKASI","ID_KEC":"32.16.20","KECAMATAN":"CIKARANG PUSAT","ID_DESA":"32.16.20.2005","DESA":"JAYAMUKTI","LATITUDE":-6.3176244,"LONGITUDE":107.1600891,"STATUS":"BUKA","TANGGAL PENGUMPULAN":"Q2 2025","TANGGAL UPDATE":"17/06/2025"}},{"type":"Feature","geometry":{"coordinates":[107.1179558,-6.3821811],"type":"Point"},"properties":{"NAMA":"PASAR MEGA REGENCY","TIPE_1":"PERDAGANGAN DAN RETAIL","TIPE_2":"PASAR","TIPE_3":"PASAR TRADISIONAL","TELEPON":"","ALAMAT":"SUKARAGAM, KEC. SERANG BARU, KABUPATEN BEKASI, JAWA BARAT 17330","ID_PROV":"32","PROVINSI":"JAWA BARAT","ID_KABKOT":"32.16","KABKOT":"BEKASI","ID_KEC":"32.16.21","KECAMATAN":"SERANG BARU","ID_DESA":"32.16.21.2001","DESA":"SUKARAGAM","LATITUDE":-6.3821811,"LONGITUDE":107.1179558,"STATUS":"BUKA","TANGGAL PENGUMPULAN":"Q2 2025","TANGGAL UPDATE":"17/06/2025"}},{"type":"Feature","geometry":{"coordinates":[107.0154693,-6.3718892],"type":"Point"},"properties":{"NAMA":"PASAR MALAM SENIN","TIPE_1":"PERDAGANGAN DAN RETAIL","TIPE_2":"PASAR","TIPE_3":"PASAR TRADISIONAL","TELEPON":"","ALAMAT":"CIKARAGEMAN, KEC. SETU, KABUPATEN BEKASI, JAWA BARAT 17320","ID_PROV":"32","PROVINSI":"JAWA BARAT","ID_KABKOT":"32.16","KABKOT":"BEKASI","ID_KEC":"32.16.18","KECAMATAN":"SETU","ID_DESA":"32.16.18.2008","DESA":"CIKARAGEMAN","LATITUDE":-6.3718892,"LONGITUDE":107.0154693,"STATUS":"BUKA","TANGGAL PENGUMPULAN":"Q2 2025","TANGGAL UPDATE":"17/06/2025"}},{"type":"Feature","geometry":{"coordinates":[107.126762,-6.2791885],"type":"Point"},"properties":{"NAMA":"PASAR MALAM TANAH BARU","TIPE_1":"PERDAGANGAN DAN RETAIL","TIPE_2":"PASAR","TIPE_3":"PASAR TRADISIONAL","TELEPON":"","ALAMAT":"HARJA MEKAR, KEC. CIKARANG UTARA, KABUPATEN BEKASI, JAWA BARAT","ID_PROV":"32","PROVINSI":"JAWA BARAT","ID_KABKOT":"32.16","KABKOT":"BEKASI","ID_KEC":"32.16.09","KECAMATAN":"CIKARANG UTARA","ID_DESA":"32.16.09.2009","DESA":"HARJAMEKAR","LATITUDE":-6.2791885,"LONGITUDE":107.126762,"STATUS":"BUKA","TANGGAL PENGUMPULAN":"Q2 2025","TANGGAL UPDATE":"17/06/2025"}},{"type":"Feature","geometry":{"coordinates":[107.0975211,-6.4135211],"type":"Point"},"properties":{"NAMA":"PASAR MUTIARA","TIPE_1":"PERDAGANGAN DAN RETAIL","TIPE_2":"PASAR","TIPE_3":"PASAR TRADISIONAL","TELEPON":"","ALAMAT":"SINDANGMULYA, CIBARUSAH, BEKASI REGENCY, WEST JAVA 17340","ID_PROV":"32","PROVINSI":"JAWA BARAT","ID_KABKOT":"32.16","KABKOT":"BEKASI","ID_KEC":"32.16.22","KECAMATAN":"CIBARUSAH","ID_DESA":"32.16.22.2007","DESA":"SINDANGMULYA","LATITUDE":-6.4135211,"LONGITUDE":107.0975211,"STATUS":"BUKA","TANGGAL PENGUMPULAN":"Q2 2025","TANGGAL UPDATE":"17/06/2025"}},{"type":"Feature","geometry":{"coordinates":[107.0644169,-6.1074412],"type":"Point"},"properties":{"NAMA":"PASAR MUARA","TIPE_1":"PERDAGANGAN DAN RETAIL","TIPE_2":"PASAR","TIPE_3":"PASAR TRADISIONAL","TELEPON":"0899-3185-020","ALAMAT":"MUARABAKTI, KEC. BABELAN, KABUPATEN BEKASI, JAWA BARAT 17610","ID_PROV":"32","PROVINSI":"JAWA BARAT","ID_KABKOT":"32.16","KABKOT":"BEKASI","ID_KEC":"32.16.02","KECAMATAN":"BABELAN","ID_DESA":"32.16.02.2002","DESA":"MUARABAKTI","LATITUDE":-6.1074412,"LONGITUDE":107.0644169,"STATUS":"BUKA","TANGGAL PENGUMPULAN":"Q2 2025","TANGGAL UPDATE":"17/06/2025"}},{"type":"Feature","geometry":{"coordinates":[107.160648,-6.299533],"type":"Point"},"properties":{"NAMA":"PASAR MODERN PLAZA ROXY JABABEKA","TIPE_1":"PERDAGANGAN DAN RETAIL","TIPE_2":"PASAR","TIPE_3":"PASAR MODERN","TELEPON":"0821-2513-3739","ALAMAT":"PLAZA ROXY JL. KASUARI RAYA, MEKARMUKTI CIKARANG UTARA, BEKASI, MEKARMUKTI, KEC. CIKARANG UTARA, CIKARANG, JAWA BARAT 17530","ID_PROV":"32","PROVINSI":"JAWA BARAT","ID_KABKOT":"32.16","KABKOT":"BEKASI","ID_KEC":"32.16.09","KECAMATAN":"CIKARANG UTARA","ID_DESA":"32.16.09.2010","DESA":"MEKARMUKTI","LATITUDE":-6.299533,"LONGITUDE":107.160648,"STATUS":"BUKA","TANGGAL PENGUMPULAN":"Q2 2025","TANGGAL UPDATE":"17/06/2025"}},{"type":"Feature","geometry":{"coordinates":[107.0535266,-6.3401537],"type":"Point"},"properties":{"NAMA":"PASAR MODERN GBP 1","TIPE_1":"PERDAGANGAN DAN RETAIL","TIPE_2":"PASAR","TIPE_3":"PASAR MODERN","TELEPON":"","ALAMAT":"TELAJUNG, KEC. CIKARANG BAR., KABUPATEN BEKASI, JAWA BARAT 17530","ID_PROV":"32","PROVINSI":"JAWA BARAT","ID_KABKOT":"32.16","KABKOT":"BEKASI","ID_KEC":"32.16.08","KECAMATAN":"CIKARANG BARAT","ID_DESA":"32.16.08.2010","DESA":"TELAJUNG","LATITUDE":-6.3401537,"LONGITUDE":107.0535266,"STATUS":"BUKA","TANGGAL PENGUMPULAN":"Q2 2025","TANGGAL UPDATE":"17/06/2025"}},{"type":"Feature","geometry":{"coordinates":[107.043219,-6.2756747],"type":"Point"},"properties":{"NAMA":"PASAR MODERN GRAND WISATA","TIPE_1":"PERDAGANGAN DAN RETAIL","TIPE_2":"PASAR","TIPE_3":"PASAR MODERN","TELEPON":"","ALAMAT":"JL. PRATAMA 3 NO.2, LAMBANGSARI, KEC. TAMBUN SEL., KOTA BKS, JAWA BARAT 17510","ID_PROV":"32","PROVINSI":"JAWA BARAT","ID_KABKOT":"32.16","KABKOT":"BEKASI","ID_KEC":"32.16.06","KECAMATAN":"TAMBUN SELATAN","ID_DESA":"32.16.06.2002","DESA":"LAMBANGSARI","LATITUDE":-6.2756747,"LONGITUDE":107.043219,"STATUS":"BUKA","TANGGAL PENGUMPULAN":"Q2 2025","TANGGAL UPDATE":"17/06/2025"}},{"type":"Feature","geometry":{"coordinates":[107.1789479,-6.3490671],"type":"Point"},"properties":{"NAMA":"PASAR MODERN KOTA DELTAMAS","TIPE_1":"PERDAGANGAN DAN RETAIL","TIPE_2":"PASAR","TIPE_3":"PASAR MODERN","TELEPON":"","ALAMAT":"HEGARMUKTI, KEC. CIKARANG PUSAT, KABUPATEN BEKASI, JAWA BARAT 17530","ID_PROV":"32","PROVINSI":"JAWA BARAT","ID_KABKOT":"32.16","KABKOT":"BEKASI","ID_KEC":"32.16.20","KECAMATAN":"CIKARANG PUSAT","ID_DESA":"32.16.20.2004","DESA":"HEGARMUKTI","LATITUDE":-6.3490671,"LONGITUDE":107.1789479,"STATUS":"BUKA","TANGGAL PENGUMPULAN":"Q2 2025","TANGGAL UPDATE":"17/06/2025"}},{"type":"Feature","geometry":{"coordinates":[107.0632217,-6.2447445],"type":"Point"},"properties":{"NAMA":"PASAR MINI BEKASI","TIPE_1":"PERDAGANGAN DAN RETAIL","TIPE_2":"PASAR","TIPE_3":"PASAR TRADISIONAL","TELEPON":"","ALAMAT":"JL. RAYA MANGUN JAYA, MANGUNJAYA, KEC. TAMBUN SEL., KABUPATEN BEKASI, JAWA BARAT 17510","ID_PROV":"32","PROVINSI":"JAWA BARAT","ID_KABKOT":"32.16","KABKOT":"BEKASI","ID_KEC":"32.16.06","KECAMATAN":"TAMBUN SELATAN","ID_DESA":"32.16.06.2009","DESA":"MANGUNJAYA","LATITUDE":-6.2447445,"LONGITUDE":107.0632217,"STATUS":"BUKA","TANGGAL PENGUMPULAN":"Q2 2025","TANGGAL UPDATE":"17/06/2025"}},{"type":"Feature","geometry":{"coordinates":[107.08738,-6.2208793],"type":"Point"},"properties":{"NAMA":"PASAR MINI CBL","TIPE_1":"PERDAGANGAN DAN RETAIL","TIPE_2":"PASAR","TIPE_3":"PASAR TRADISIONAL","TELEPON":"0813-2213-5309","ALAMAT":"JL. RAYA KALI CBL, MUKTIWARI, KEC. CIBITUNG, KABUPATEN BEKASI, JAWA BARAT","ID_PROV":"32","PROVINSI":"JAWA BARAT","ID_KABKOT":"32.16","KABKOT":"BEKASI","ID_KEC":"32.16.07","KECAMATAN":"CIBITUNG","ID_DESA":"32.16.07.2004","DESA":"MUKTIWARI","LATITUDE":-6.2208793,"LONGITUDE":107.08738,"STATUS":"BUKA","TANGGAL PENGUMPULAN":"Q2 2025","TANGGAL UPDATE":"17/06/2025"}},{"type":"Feature","geometry":{"coordinates":[107.1434365,-6.2558022],"type":"Point"},"properties":{"NAMA":"PASAR LAMA CIKARANG UTARA","TIPE_1":"PERDAGANGAN DAN RETAIL","TIPE_2":"PASAR","TIPE_3":"PASAR TRADISIONAL","TELEPON":"","ALAMAT":"JL. YOS SUDARSO NO.31-35, KARANGASIH, KEC. CIKARANG UTARA, KABUPATEN BEKASI, JAWA BARAT 17530","ID_PROV":"32","PROVINSI":"JAWA BARAT","ID_KABKOT":"32.16","KABKOT":"BEKASI","ID_KEC":"32.16.09","KECAMATAN":"CIKARANG UTARA","ID_DESA":"32.16.09.2003","DESA":"KARANGASIH","LATITUDE":-6.2558022,"LONGITUDE":107.1434365,"STATUS":"BUKA","TANGGAL PENGUMPULAN":"Q2 2025","TANGGAL UPDATE":"17/06/2025"}},{"type":"Feature","geometry":{"coordinates":[107.1084197,-6.2453276],"type":"Point"},"properties":{"NAMA":"PASAR KUD PERMATASARI","TIPE_1":"PERDAGANGAN DAN RETAIL","TIPE_2":"PASAR","TIPE_3":"PASAR TRADISIONAL","TELEPON":"0852-1940-4415","ALAMAT":"JL. KIRANA RAYA NO.19, WANAJAYA, KEC. CIBITUNG, KABUPATEN BEKASI, JAWA BARAT 17520","ID_PROV":"32","PROVINSI":"JAWA BARAT","ID_KABKOT":"32.16","KABKOT":"BEKASI","ID_KEC":"32.16.07","KECAMATAN":"CIBITUNG","ID_DESA":"32.16.07.2002","DESA":"WANAJAYA","LATITUDE":-6.2453276,"LONGITUDE":107.1084197,"STATUS":"BUKA","TANGGAL PENGUMPULAN":"Q2 2025","TANGGAL UPDATE":"17/06/2025"}},{"type":"Feature","geometry":{"coordinates":[107.1077437,-6.2547997],"type":"Point"},"properties":{"NAMA":"PASAR MALAM RAKYAT","TIPE_1":"PERDAGANGAN DAN RETAIL","TIPE_2":"PASAR","TIPE_3":"PASAR TRADISIONAL","TELEPON":"","ALAMAT":"JL. TELAGA ASIH, TELAGAMURNI, CIKARANG BARAT, BEKASI REGENCY, WEST JAVA 17530","ID_PROV":"32","PROVINSI":"JAWA BARAT","ID_KABKOT":"32.16","KABKOT":"BEKASI","ID_KEC":"32.16.08","KECAMATAN":"CIKARANG BARAT","ID_DESA":"32.16.08.2001","DESA":"TELAGAMURNI","LATITUDE":-6.2547997,"LONGITUDE":107.1077437,"STATUS":"BUKA","TANGGAL PENGUMPULAN":"Q2 2025","TANGGAL UPDATE":"17/06/2025"}},{"type":"Feature","geometry":{"coordinates":[107.1183555,-6.3442845],"type":"Point"},"properties":{"NAMA":"PASAR MALAM CIFEST","TIPE_1":"PERDAGANGAN DAN RETAIL","TIPE_2":"PASAR","TIPE_3":"PASAR TRADISIONAL","TELEPON":"0821-2027-8887","ALAMAT":"JL. VILLA MUTIARA CIKARANG NO.35 BLOK RA, CIANTRA, CIKARANG SEL., KABUPATEN BEKASI, JAWA BARAT 17530","ID_PROV":"32","PROVINSI":"JAWA BARAT","ID_KABKOT":"32.16","KABKOT":"BEKASI","ID_KEC":"32.16.19","KECAMATAN":"CIKARANG SELATAN","ID_DESA":"32.16.19.2003","DESA":"CIANTRA","LATITUDE":-6.3442845,"LONGITUDE":107.1183555,"STATUS":"BUKA","TANGGAL PENGUMPULAN":"Q2 2025","TANGGAL UPDATE":"17/06/2025"}},{"type":"Feature","geometry":{"coordinates":[107.0889371,-6.3206332],"type":"Point"},"properties":{"NAMA":"PASAR MALAM JATIWANGI","TIPE_1":"PERDAGANGAN DAN RETAIL","TIPE_2":"PASAR","TIPE_3":"PASAR TRADISIONAL","TELEPON":"","ALAMAT":"JL. JATIWANGI NO.5, JATIWANGI, KEC. CIKARANG BAR., KABUPATEN BEKASI, JAWA BARAT 17530","ID_PROV":"32","PROVINSI":"JAWA BARAT","ID_KABKOT":"32.16","KABKOT":"BEKASI","ID_KEC":"32.16.08","KECAMATAN":"CIKARANG BARAT","ID_DESA":"32.16.08.2003","DESA":"JATIWANGI","LATITUDE":-6.3206332,"LONGITUDE":107.0889371,"STATUS":"BUKA","TANGGAL PENGUMPULAN":"Q2 2025","TANGGAL UPDATE":"17/06/2025"}},{"type":"Feature","geometry":{"coordinates":[107.0243829,-6.258738],"type":"Point"},"properties":{"NAMA":"PASAR MALAM","TIPE_1":"PERDAGANGAN DAN RETAIL","TIPE_2":"PASAR","TIPE_3":"PASAR TRADISIONAL","TELEPON":"","ALAMAT":"JL. KP. JATIBULAK NO.34, JATIMULYA, KEC. TAMBUN SEL., KABUPATEN BEKASI, JAWA BARAT 17510","ID_PROV":"32","PROVINSI":"JAWA BARAT","ID_KABKOT":"32.16","KABKOT":"BEKASI","ID_KEC":"32.16.06","KECAMATAN":"TAMBUN SELATAN","ID_DESA":"32.16.06.1001","DESA":"JATIMULYA","LATITUDE":-6.258738,"LONGITUDE":107.0243829,"STATUS":"BUKA","TANGGAL PENGUMPULAN":"Q2 2025","TANGGAL UPDATE":"17/06/2025"}},{"type":"Feature","geometry":{"coordinates":[107.1802613,-6.270299],"type":"Point"},"properties":{"NAMA":"PASAR LEMAH ABANG","TIPE_1":"PERDAGANGAN DAN RETAIL","TIPE_2":"PASAR","TIPE_3":"PASAR TRADISIONAL","TELEPON":"","ALAMAT":"JL. JEND. URIP SUMOHARJO, WALUYA, CIKARANG UTARA, BEKASI REGENCY, WEST JAVA 17530","ID_PROV":"32","PROVINSI":"JAWA BARAT","ID_KABKOT":"32.16","KABKOT":"BEKASI","ID_KEC":"32.16.09","KECAMATAN":"CIKARANG UTARA","ID_DESA":"32.16.09.2004","DESA":"WALUYA","LATITUDE":-6.270299,"LONGITUDE":107.1802613,"STATUS":"BUKA","TANGGAL PENGUMPULAN":"Q2 2025","TANGGAL UPDATE":"17/06/2025"}},{"type":"Feature","geometry":{"coordinates":[107.1082747,-6.3417496],"type":"Point"},"properties":{"NAMA":"PASAR KAGET VILLA MUTIARA CIKARANG","TIPE_1":"PERDAGANGAN DAN RETAIL","TIPE_2":"PASAR","TIPE_3":"PASAR TRADISIONAL","TELEPON":"","ALAMAT":"BLOK B. VILLA MUTIARA CIKARANG 1, JL. BOUGENVILLE RAYA, CIANTRA, CIKARANG SEL., KABUPATEN BEKASI, JAWA BARAT 17530","ID_PROV":"32","PROVINSI":"JAWA BARAT","ID_KABKOT":"32.16","KABKOT":"BEKASI","ID_KEC":"32.16.19","KECAMATAN":"CIKARANG SELATAN","ID_DESA":"32.16.19.2003","DESA":"CIANTRA","LATITUDE":-6.3417496,"LONGITUDE":107.1082747,"STATUS":"BUKA","TANGGAL PENGUMPULAN":"Q2 2025","TANGGAL UPDATE":"17/06/2025"}},{"type":"Feature","geometry":{"coordinates":[107.0823274,-6.2578029],"type":"Point"},"properties":{"NAMA":"PASAR KAGET PRABOT UNI DEVI","TIPE_1":"PERDAGANGAN DAN RETAIL","TIPE_2":"PASAR","TIPE_3":"PASAR TRADISIONAL","TELEPON":"","ALAMAT":"BLOK D 1, JL. CEMP. 6 BLOK D 10 NO.6, WANASARI, KEC. CIBITUNG, KABUPATEN BEKASI, JAWA BARAT 17520","ID_PROV":"32","PROVINSI":"JAWA BARAT","ID_KABKOT":"32.16","KABKOT":"BEKASI","ID_KEC":"32.16.07","KECAMATAN":"CIBITUNG","ID_DESA":"32.16.07.1001","DESA":"WANASARI","LATITUDE":-6.2578029,"LONGITUDE":107.0823274,"STATUS":"BUKA","TANGGAL PENGUMPULAN":"Q2 2025","TANGGAL UPDATE":"17/06/2025"}},{"type":"Feature","geometry":{"coordinates":[107.0824585,-6.2578559],"type":"Point"},"properties":{"NAMA":"PASAR KAGET PONDOK TANAH MAS","TIPE_1":"PERDAGANGAN DAN RETAIL","TIPE_2":"PASAR","TIPE_3":"PASAR TRADISIONAL","TELEPON":"","ALAMAT":"JL. CEMP. IX, WANASARI, CIBITUNG, BEKASI REGENCY, WEST JAVA 17520","ID_PROV":"32","PROVINSI":"JAWA BARAT","ID_KABKOT":"32.16","KABKOT":"BEKASI","ID_KEC":"32.16.07","KECAMATAN":"CIBITUNG","ID_DESA":"32.16.07.1001","DESA":"WANASARI","LATITUDE":-6.2578559,"LONGITUDE":107.0824585,"STATUS":"BUKA","TANGGAL PENGUMPULAN":"Q2 2025","TANGGAL UPDATE":"17/06/2025"}},{"type":"Feature","geometry":{"coordinates":[107.0917507,-6.4057364],"type":"Point"},"properties":{"NAMA":"PASAR KAGET PURI","TIPE_1":"PERDAGANGAN DAN RETAIL","TIPE_2":"PASAR","TIPE_3":"PASAR TRADISIONAL","TELEPON":"","ALAMAT":"SINDANGMULYA, KEC. CIBARUSAH, KABUPATEN BEKASI, JAWA BARAT 17340","ID_PROV":"32","PROVINSI":"JAWA BARAT","ID_KABKOT":"32.16","KABKOT":"BEKASI","ID_KEC":"32.16.22","KECAMATAN":"CIBARUSAH","ID_DESA":"32.16.22.2007","DESA":"SINDANGMULYA","LATITUDE":-6.4057364,"LONGITUDE":107.0917507,"STATUS":"BUKA","TANGGAL PENGUMPULAN":"Q2 2025","TANGGAL UPDATE":"17/06/2025"}},{"type":"Feature","geometry":{"coordinates":[107.191789,-6.1845218],"type":"Point"},"properties":{"NAMA":"PASAR KOBAK LOMPONG","TIPE_1":"PERDAGANGAN DAN RETAIL","TIPE_2":"PASAR","TIPE_3":"PASAR TRADISIONAL","TELEPON":"0821-2400-3729","ALAMAT":"JL. RAYA PULO BAMBU, KARANGBAHAGIA, KEC. KARANGBAHAGIA, KABUPATEN BEKASI, JAWA BARAT 17530","ID_PROV":"32","PROVINSI":"JAWA BARAT","ID_KABKOT":"32.16","KABKOT":"BEKASI","ID_KEC":"32.16.10","KECAMATAN":"KARANG BAHAGIA","ID_DESA":"32.16.10.2006","DESA":"KARANGSENTOSA","LATITUDE":-6.1845218,"LONGITUDE":107.191789,"STATUS":"BUKA","TANGGAL PENGUMPULAN":"Q2 2025","TANGGAL UPDATE":"17/06/2025"}},{"type":"Feature","geometry":{"coordinates":[107.1150027,-6.2469465],"type":"Point"},"properties":{"NAMA":"PASAR KIRANA CIBITUNG","TIPE_1":"PERDAGANGAN DAN RETAIL","TIPE_2":"PASAR","TIPE_3":"PASAR TRADISIONAL","TELEPON":"","ALAMAT":"JL. KP. RW. LELE NO.26, WANAJAYA, KEC. CIBITUNG, KABUPATEN BEKASI, JAWA BARAT 17520","ID_PROV":"32","PROVINSI":"JAWA BARAT","ID_KABKOT":"32.16","KABKOT":"BEKASI","ID_KEC":"32.16.07","KECAMATAN":"CIBITUNG","ID_DESA":"32.16.07.2002","DESA":"WANAJAYA","LATITUDE":-6.2469465,"LONGITUDE":107.1150027,"STATUS":"BUKA","TANGGAL PENGUMPULAN":"Q2 2025","TANGGAL UPDATE":"17/06/2025"}},{"type":"Feature","geometry":{"coordinates":[107.0244852,-6.1507086],"type":"Point"},"properties":{"NAMA":"PASAR KEDONDONG","TIPE_1":"PERDAGANGAN DAN RETAIL","TIPE_2":"PASAR","TIPE_3":"PASAR TRADISIONAL","TELEPON":"","ALAMAT":"JL. RAYA PULO TIMAHA BLK. B1A NO.10, BABELAN KOTA, BABELAN, BEKASI REGENCY, WEST JAVA 17610","ID_PROV":"32","PROVINSI":"JAWA BARAT","ID_KABKOT":"32.16","KABKOT":"BEKASI","ID_KEC":"32.16.02","KECAMATAN":"BABELAN","ID_DESA":"32.16.02.2009","DESA":"KEDUNGJAYA","LATITUDE":-6.1507086,"LONGITUDE":107.0244852,"STATUS":"BUKA","TANGGAL PENGUMPULAN":"Q2 2025","TANGGAL UPDATE":"17/06/2025"}},{"type":"Feature","geometry":{"coordinates":[107.0805254,-6.2665712],"type":"Point"},"properties":{"NAMA":"PASAR INDUK CIBITUNG","TIPE_1":"PERDAGANGAN DAN RETAIL","TIPE_2":"PASAR","TIPE_3":"PASAR TRADISIONAL","TELEPON":"","ALAMAT":"JL. RAYA TEUKU UMAR NO.1, WANASARI, KEC. CIBITUNG, KABUPATEN BEKASI, JAWA BARAT 17520","ID_PROV":"32","PROVINSI":"JAWA BARAT","ID_KABKOT":"32.16","KABKOT":"BEKASI","ID_KEC":"32.16.07","KECAMATAN":"CIBITUNG","ID_DESA":"32.16.07.1001","DESA":"WANASARI","LATITUDE":-6.2665712,"LONGITUDE":107.0805254,"STATUS":"BUKA","TANGGAL PENGUMPULAN":"Q2 2025","TANGGAL UPDATE":"17/06/2025"}},{"type":"Feature","geometry":{"coordinates":[107.0809729,-6.2663027],"type":"Point"},"properties":{"NAMA":"PASAR INDUK CIBITUNG","TIPE_1":"PERDAGANGAN DAN RETAIL","TIPE_2":"PASAR","TIPE_3":"PASAR TRADISIONAL","TELEPON":"","ALAMAT":"JL. BOSIH RAYA NO.226, WANASARI, KEC. CIBITUNG, KABUPATEN BEKASI, JAWA BARAT 17520","ID_PROV":"32","PROVINSI":"JAWA BARAT","ID_KABKOT":"32.16","KABKOT":"BEKASI","ID_KEC":"32.16.07","KECAMATAN":"CIBITUNG","ID_DESA":"32.16.07.1001","DESA":"WANASARI","LATITUDE":-6.2663027,"LONGITUDE":107.0809729,"STATUS":"BUKA","TANGGAL PENGUMPULAN":"Q2 2025","TANGGAL UPDATE":"17/06/2025"}},{"type":"Feature","geometry":{"coordinates":[107.0795,-6.26714],"type":"Point"},"properties":{"NAMA":"PASAR INDUK CIBITUNG","TIPE_1":"PERDAGANGAN DAN RETAIL","TIPE_2":"PASAR","TIPE_3":"PASAR TRADISIONAL","TELEPON":"","ALAMAT":"WANASARI, KEC. CIBITUNG, KABUPATEN BEKASI, JAWA BARAT","ID_PROV":"32","PROVINSI":"JAWA BARAT","ID_KABKOT":"32.16","KABKOT":"BEKASI","ID_KEC":"32.16.07","KECAMATAN":"CIBITUNG","ID_DESA":"32.16.07.1001","DESA":"WANASARI","LATITUDE":-6.26714,"LONGITUDE":107.0795,"STATUS":"BUKA","TANGGAL PENGUMPULAN":"Q2 2025","TANGGAL UPDATE":"17/06/2025"}},{"type":"Feature","geometry":{"coordinates":[107.0192901,-6.2652822],"type":"Point"},"properties":{"NAMA":"PASAR KAGET","TIPE_1":"PERDAGANGAN DAN RETAIL","TIPE_2":"PASAR","TIPE_3":"PASAR TRADISIONAL","TELEPON":"","ALAMAT":"JL. ENDRAWASIH 7 BLOK, A BLOK A NO.23, JATIMULYA, KEC. TAMBUN SEL., KABUPATEN BEKASI, JAWA BARAT 17510","ID_PROV":"32","PROVINSI":"JAWA BARAT","ID_KABKOT":"32.16","KABKOT":"BEKASI","ID_KEC":"32.16.06","KECAMATAN":"TAMBUN SELATAN","ID_DESA":"32.16.06.1001","DESA":"JATIMULYA","LATITUDE":-6.2652822,"LONGITUDE":107.0192901,"STATUS":"BUKA","TANGGAL PENGUMPULAN":"Q2 2025","TANGGAL UPDATE":"17/06/2025"}},{"type":"Feature","geometry":{"coordinates":[107.1434355,-6.255099],"type":"Point"},"properties":{"NAMA":"PASAR ENTOK, BEBEK,AYAM, BP.YASIN","TIPE_1":"PERDAGANGAN DAN RETAIL","TIPE_2":"PASAR","TIPE_3":"PASAR TRADISIONAL","TELEPON":"0895-3314-50543","ALAMAT":"JL. YOS SUDARSO, KARANGASIH, KEC. CIKARANG UTARA, KABUPATEN BEKASI, JAWA BARAT 17530","ID_PROV":"32","PROVINSI":"JAWA BARAT","ID_KABKOT":"32.16","KABKOT":"BEKASI","ID_KEC":"32.16.09","KECAMATAN":"CIKARANG UTARA","ID_DESA":"32.16.09.2003","DESA":"KARANGASIH","LATITUDE":-6.255099,"LONGITUDE":107.1434355,"STATUS":"BUKA","TANGGAL PENGUMPULAN":"Q2 2025","TANGGAL UPDATE":"17/06/2025"}},{"type":"Feature","geometry":{"coordinates":[107.0580919,-6.1913859],"type":"Point"},"properties":{"NAMA":"PASAR GABUS","TIPE_1":"PERDAGANGAN DAN RETAIL","TIPE_2":"PASAR","TIPE_3":"PASAR TRADISIONAL","TELEPON":"","ALAMAT":"JL. SRIMUKTI NO.1, SRIMUKTI, KEC. TAMBUN UTARA, KABUPATEN BEKASI, JAWA BARAT 17510","ID_PROV":"32","PROVINSI":"JAWA BARAT","ID_KABKOT":"32.16","KABKOT":"BEKASI","ID_KEC":"32.16.05","KECAMATAN":"TAMBUN UTARA","ID_DESA":"32.16.05.2005","DESA":"SRIMUKTI","LATITUDE":-6.1913859,"LONGITUDE":107.0580919,"STATUS":"BUKA","TANGGAL PENGUMPULAN":"Q2 2025","TANGGAL UPDATE":"17/06/2025"}},{"type":"Feature","geometry":{"coordinates":[107.145965,-6.2570446],"type":"Point"},"properties":{"NAMA":"PASAR ELOK","TIPE_1":"PERDAGANGAN DAN RETAIL","TIPE_2":"PASAR","TIPE_3":"PASAR TRADISIONAL","TELEPON":"","ALAMAT":"JL. YOS SUDARSO NO.35-38, CIKARANG KOTA, KEC. CIKARANG UTARA, KABUPATEN BEKASI, JAWA BARAT 17530","ID_PROV":"32","PROVINSI":"JAWA BARAT","ID_KABKOT":"32.16","KABKOT":"BEKASI","ID_KEC":"32.16.09","KECAMATAN":"CIKARANG UTARA","ID_DESA":"32.16.09.2001","DESA":"CIKARANGKOTA","LATITUDE":-6.2570446,"LONGITUDE":107.145965,"STATUS":"BUKA","TANGGAL PENGUMPULAN":"Q2 2025","TANGGAL UPDATE":"17/06/2025"}},{"type":"Feature","geometry":{"coordinates":[107.1436347,-6.0732735],"type":"Point"},"properties":{"NAMA":"PASAR HEWAN TAPAK SERANG CABANG BUNGIN","TIPE_1":"PERDAGANGAN DAN RETAIL","TIPE_2":"PASAR","TIPE_3":"PASAR TRADISIONAL","TELEPON":"","ALAMAT":"PASAR HEWAN, JL. RAYA TAPAK SERANG JL. RAYA CABANGBUNGIN, LENGGAHJAYA, KEC. CABANGBUNGIN, KABUPATEN BEKASI, JAWA BARAT 17720","ID_PROV":"32","PROVINSI":"JAWA BARAT","ID_KABKOT":"32.16","KABKOT":"BEKASI","ID_KEC":"32.16.16","KECAMATAN":"CABANGBUNGIN","ID_DESA":"32.16.16.2007","DESA":"LENGGAHJAYA","LATITUDE":-6.0732735,"LONGITUDE":107.1436347,"STATUS":"BUKA","TANGGAL PENGUMPULAN":"Q2 2025","TANGGAL UPDATE":"17/06/2025"}},{"type":"Feature","geometry":{"coordinates":[107.04491859999999,-6.2579222],"type":"Point"},"properties":{"NAMA":"PASAR HEWAN QURBAN BEKASI JURAGAN SAPI BALI KUPANG","TIPE_1":"PERDAGANGAN DAN RETAIL","TIPE_2":"PASAR","TIPE_3":"PASAR TRADISIONAL","TELEPON":"0878-8061-7477","ALAMAT":"SETIAMEKAR, KEC. TAMBUN SEL., KABUPATEN BEKASI, JAWA BARAT","ID_PROV":"32","PROVINSI":"JAWA BARAT","ID_KABKOT":"32.16","KABKOT":"BEKASI","ID_KEC":"32.16.06","KECAMATAN":"TAMBUN SELATAN","ID_DESA":"32.16.06.2006","DESA":"SETIAMEKAR","LATITUDE":-6.2579222,"LONGITUDE":107.0449186,"STATUS":"BUKA","TANGGAL PENGUMPULAN":"Q2 2025","TANGGAL UPDATE":"17/06/2025"}},{"type":"Feature","geometry":{"coordinates":[107.1431494,-6.2557951],"type":"Point"},"properties":{"NAMA":"PASAR HEWAN CIKARANG","TIPE_1":"PERDAGANGAN DAN RETAIL","TIPE_2":"PASAR","TIPE_3":"PASAR TRADISIONAL","TELEPON":"","ALAMAT":"KARANGASIH, KEC. CIKARANG UTARA, KABUPATEN BEKASI, JAWA BARAT 17530","ID_PROV":"32","PROVINSI":"JAWA BARAT","ID_KABKOT":"32.16","KABKOT":"BEKASI","ID_KEC":"32.16.09","KECAMATAN":"CIKARANG UTARA","ID_DESA":"32.16.09.2003","DESA":"KARANGASIH","LATITUDE":-6.2557951,"LONGITUDE":107.1431494,"STATUS":"BUKA","TANGGAL PENGUMPULAN":"Q2 2025","TANGGAL UPDATE":"17/06/2025"}},{"type":"Feature","geometry":{"coordinates":[107.1699086,-6.2520107],"type":"Point"},"properties":{"NAMA":"PASAR GRAND CIKARANG CITY","TIPE_1":"PERDAGANGAN DAN RETAIL","TIPE_2":"PASAR","TIPE_3":"PASAR TRADISIONAL","TELEPON":"","ALAMAT":"JL. GRAND CIKARANG, KARANGRAHARJA, KEC. CIKARANG UTARA, KABUPATEN BEKASI, JAWA BARAT 17530","ID_PROV":"32","PROVINSI":"JAWA BARAT","ID_KABKOT":"32.16","KABKOT":"BEKASI","ID_KEC":"32.16.09","KECAMATAN":"CIKARANG UTARA","ID_DESA":"32.16.09.2005","DESA":"KARANGRAHARJA","LATITUDE":-6.2520107,"LONGITUDE":107.1699086,"STATUS":"BUKA","TANGGAL PENGUMPULAN":"Q2 2025","TANGGAL UPDATE":"17/06/2025"}},{"type":"Feature","geometry":{"coordinates":[107.0584621,-6.2210503],"type":"Point"},"properties":{"NAMA":"PASAR GRAHA PRIMA","TIPE_1":"PERDAGANGAN DAN RETAIL","TIPE_2":"PASAR","TIPE_3":"PASAR TRADISIONAL","TELEPON":"","ALAMAT":"MANGUNJAYA, KEC. TAMBUN SEL., KABUPATEN BEKASI, JAWA BARAT 17510","ID_PROV":"32","PROVINSI":"JAWA BARAT","ID_KABKOT":"32.16","KABKOT":"BEKASI","ID_KEC":"32.16.06","KECAMATAN":"TAMBUN SELATAN","ID_DESA":"32.16.06.2009","DESA":"MANGUNJAYA","LATITUDE":-6.2210503,"LONGITUDE":107.0584621,"STATUS":"BUKA","TANGGAL PENGUMPULAN":"Q2 2025","TANGGAL UPDATE":"17/06/2025"}},{"type":"Feature","geometry":{"coordinates":[107.1486079,-6.4519059],"type":"Point"},"properties":{"NAMA":"PASAR DEPATI CIBARUSAH","TIPE_1":"PERDAGANGAN DAN RETAIL","TIPE_2":"PASAR","TIPE_3":"PASAR TRADISIONAL","TELEPON":"","ALAMAT":"JL. RAYA CIBARUSAH 91 KPG KOROD RIDOGALI KEC. CIBARUSAH, RIDOGALIH, TAMBELANG, KABUPATEN BEKASI, JAWA BARAT 17340","ID_PROV":"32","PROVINSI":"JAWA BARAT","ID_KABKOT":"32.16","KABKOT":"BEKASI","ID_KEC":"32.16.22","KECAMATAN":"CIBARUSAH","ID_DESA":"32.16.22.2002","DESA":"RIDOGALIH","LATITUDE":-6.4519059,"LONGITUDE":107.1486079,"STATUS":"BUKA","TANGGAL PENGUMPULAN":"Q2 2025","TANGGAL UPDATE":"17/06/2025"}},{"type":"Feature","geometry":{"coordinates":[107.1448865,-6.2595985],"type":"Point"},"properties":{"NAMA":"PASAR CIKARANG","TIPE_1":"PERDAGANGAN DAN RETAIL","TIPE_2":"PASAR","TIPE_3":"PASAR TRADISIONAL","TELEPON":"","ALAMAT":"JL RE MARTADINATA, NO. 1, CIKARANG, CIKARANG KOTA, KEC. CIKARANG UTARA, KABUPATEN BEKASI, JAWA BARAT 17530","ID_PROV":"32","PROVINSI":"JAWA BARAT","ID_KABKOT":"32.16","KABKOT":"BEKASI","ID_KEC":"32.16.09","KECAMATAN":"CIKARANG UTARA","ID_DESA":"32.16.09.2001","DESA":"CIKARANGKOTA","LATITUDE":-6.2595985,"LONGITUDE":107.1448865,"STATUS":"BUKA","TANGGAL PENGUMPULAN":"Q2 2025","TANGGAL UPDATE":"17/06/2025"}},{"type":"Feature","geometry":{"coordinates":[107.0751377,-6.4383249],"type":"Point"},"properties":{"NAMA":"PASAR CIBARUSAH","TIPE_1":"PERDAGANGAN DAN RETAIL","TIPE_2":"PASAR","TIPE_3":"PASAR TRADISIONAL","TELEPON":"0851-7117-7007","ALAMAT":"JL. RAYA CIBARUSAH NO.41, CIBARUSAHKOTA, KEC. CIBARUSAH, KABUPATEN BEKASI, JAWA BARAT 17340","ID_PROV":"32","PROVINSI":"JAWA BARAT","ID_KABKOT":"32.16","KABKOT":"BEKASI","ID_KEC":"32.16.22","KECAMATAN":"CIBARUSAH","ID_DESA":"32.16.22.2005","DESA":"CIBARUSAH KOTA","LATITUDE":-6.4383249,"LONGITUDE":107.0751377,"STATUS":"BUKA","TANGGAL PENGUMPULAN":"Q2 2025","TANGGAL UPDATE":"17/06/2025"}},{"type":"Feature","geometry":{"coordinates":[107.07501,-6.4376],"type":"Point"},"properties":{"NAMA":"PASAR CIBARUSAH","TIPE_1":"PERDAGANGAN DAN RETAIL","TIPE_2":"PASAR","TIPE_3":"PASAR TRADISIONAL","TELEPON":"","ALAMAT":"CIBARUSAHKOTA, KEC. CIBARUSAH, KABUPATEN BEKASI, JAWA BARAT","ID_PROV":"32","PROVINSI":"JAWA BARAT","ID_KABKOT":"32.16","KABKOT":"BEKASI","ID_KEC":"32.16.22","KECAMATAN":"CIBARUSAH","ID_DESA":"32.16.22.2005","DESA":"CIBARUSAH KOTA","LATITUDE":-6.4376,"LONGITUDE":107.07501,"STATUS":"BUKA","TANGGAL PENGUMPULAN":"Q2 2025","TANGGAL UPDATE":"17/06/2025"}},{"type":"Feature","geometry":{"coordinates":[107.12022,-6.33822],"type":"Point"},"properties":{"NAMA":"PASAR CENTRAL CIKARANG","TIPE_1":"PERDAGANGAN DAN RETAIL","TIPE_2":"PASAR","TIPE_3":"PASAR MODERN","TELEPON":"","ALAMAT":"SUKARESMI, CIKARANG SEL., KABUPATEN BEKASI, JAWA BARAT","ID_PROV":"32","PROVINSI":"JAWA BARAT","ID_KABKOT":"32.16","KABKOT":"BEKASI","ID_KEC":"32.16.19","KECAMATAN":"CIKARANG SELATAN","ID_DESA":"32.16.19.2005","DESA":"SUKARESMI","LATITUDE":-6.33822,"LONGITUDE":107.12022,"STATUS":"BUKA","TANGGAL PENGUMPULAN":"Q2 2025","TANGGAL UPDATE":"17/06/2025"}},{"type":"Feature","geometry":{"coordinates":[107.120689,-6.3386149],"type":"Point"},"properties":{"NAMA":"PASAR CENTRAL LIPPO CIKARANG","TIPE_1":"PERDAGANGAN DAN RETAIL","TIPE_2":"PASAR","TIPE_3":"PASAR TRADISIONAL","TELEPON":"","ALAMAT":"PS. CENTRAL LIPPO CIKARANG, SUKARESMI, CIKARANG SEL., KABUPATEN BEKASI, JAWA BARAT 17530","ID_PROV":"32","PROVINSI":"JAWA BARAT","ID_KABKOT":"32.16","KABKOT":"BEKASI","ID_KEC":"32.16.19","KECAMATAN":"CIKARANG SELATAN","ID_DESA":"32.16.19.2005","DESA":"SUKARESMI","LATITUDE":-6.3386149,"LONGITUDE":107.120689,"STATUS":"BUKA","TANGGAL PENGUMPULAN":"Q2 2025","TANGGAL UPDATE":"17/06/2025"}},{"type":"Feature","geometry":{"coordinates":[107.159918,-6.3175026],"type":"Point"},"properties":{"NAMA":"PASAR BERSIH CIKARANG","TIPE_1":"PERDAGANGAN DAN RETAIL","TIPE_2":"PASAR","TIPE_3":"PASAR TRADISIONAL","TELEPON":"","ALAMAT":"JAYAMUKTI, KEC. CIKARANG PUSAT, KABUPATEN BEKASI, JAWA BARAT 17530","ID_PROV":"32","PROVINSI":"JAWA BARAT","ID_KABKOT":"32.16","KABKOT":"BEKASI","ID_KEC":"32.16.20","KECAMATAN":"CIKARANG PUSAT","ID_DESA":"32.16.20.2005","DESA":"JAYAMUKTI","LATITUDE":-6.3175026,"LONGITUDE":107.159918,"STATUS":"BUKA","TANGGAL PENGUMPULAN":"Q2 2025","TANGGAL UPDATE":"17/06/2025"}},{"type":"Feature","geometry":{"coordinates":[107.0828621,-6.4147669],"type":"Point"},"properties":{"NAMA":"PASAR BERSIH GRIYA","TIPE_1":"PERDAGANGAN DAN RETAIL","TIPE_2":"PASAR","TIPE_3":"PASAR TRADISIONAL","TELEPON":"","ALAMAT":"JL. MUTIARA, SINDANGMULYA, KEC. CIBARUSAH, KABUPATEN BEKASI, JAWA BARAT 17340","ID_PROV":"32","PROVINSI":"JAWA BARAT","ID_KABKOT":"32.16","KABKOT":"BEKASI","ID_KEC":"32.16.22","KECAMATAN":"CIBARUSAH","ID_DESA":"32.16.22.2007","DESA":"SINDANGMULYA","LATITUDE":-6.4147669,"LONGITUDE":107.0828621,"STATUS":"BUKA","TANGGAL PENGUMPULAN":"Q2 2025","TANGGAL UPDATE":"17/06/2025"}},{"type":"Feature","geometry":{"coordinates":[107.1596791,-6.317511],"type":"Point"},"properties":{"NAMA":"PASAR BERSIH JABABEKA PINTU 11","TIPE_1":"PERDAGANGAN DAN RETAIL","TIPE_2":"PASAR","TIPE_3":"PASAR TRADISIONAL","TELEPON":"","ALAMAT":"JAYAMUKTI, KEC. CIKARANG PUSAT, KABUPATEN BEKASI, JAWA BARAT 17530","ID_PROV":"32","PROVINSI":"JAWA BARAT","ID_KABKOT":"32.16","KABKOT":"BEKASI","ID_KEC":"32.16.20","KECAMATAN":"CIKARANG PUSAT","ID_DESA":"32.16.20.2005","DESA":"JAYAMUKTI","LATITUDE":-6.317511,"LONGITUDE":107.1596791,"STATUS":"BUKA","TANGGAL PENGUMPULAN":"Q2 2025","TANGGAL UPDATE":"17/06/2025"}},{"type":"Feature","geometry":{"coordinates":[107.1395604,-6.3469935],"type":"Point"},"properties":{"NAMA":"PASAR BERSIH PAK SABAR","TIPE_1":"PERDAGANGAN DAN RETAIL","TIPE_2":"PASAR","TIPE_3":"PASAR TRADISIONAL","TELEPON":"","ALAMAT":"JL. AZALEA RAYA NO.3, SERANG, CIKARANG SELATAN, BEKASI REGENCY, WEST JAVA 17530","ID_PROV":"32","PROVINSI":"JAWA BARAT","ID_KABKOT":"32.16","KABKOT":"BEKASI","ID_KEC":"32.16.19","KECAMATAN":"CIKARANG SELATAN","ID_DESA":"32.16.19.2006","DESA":"SERANG","LATITUDE":-6.3469935,"LONGITUDE":107.1395604,"STATUS":"BUKA","TANGGAL PENGUMPULAN":"Q2 2025","TANGGAL UPDATE":"17/06/2025"}},{"type":"Feature","geometry":{"coordinates":[107.0442317,-6.2196895],"type":"Point"},"properties":{"NAMA":"PASAR BERSIH TAMAN ALAMANDA","TIPE_1":"PERDAGANGAN DAN RETAIL","TIPE_2":"PASAR","TIPE_3":"PASAR TRADISIONAL","TELEPON":"0896-3598-1890","ALAMAT":"PASAR BERSIH, JL. TAMAN ALAMANDA RAYA, KARANGSATRIA, KEC. TAMBUN UTARA, KABUPATEN BEKASI, JAWA BARAT 17510","ID_PROV":"32","PROVINSI":"JAWA BARAT","ID_KABKOT":"32.16","KABKOT":"BEKASI","ID_KEC":"32.16.05","KECAMATAN":"TAMBUN UTARA","ID_DESA":"32.16.05.2008","DESA":"KARANGSATRIA","LATITUDE":-6.2196895,"LONGITUDE":107.0442317,"STATUS":"BUKA","TANGGAL PENGUMPULAN":"Q2 2025","TANGGAL UPDATE":"17/06/2025"}},{"type":"Feature","geometry":{"coordinates":[107.1470343,-6.2578065],"type":"Point"},"properties":{"NAMA":"PASAR BAYANGAN SIMPANG SGC","TIPE_1":"PERDAGANGAN DAN RETAIL","TIPE_2":"PASAR","TIPE_3":"PASAR TRADISIONAL","TELEPON":"","ALAMAT":"CIKARANG KOTA, CIKARANG UTARA, BEKASI REGENCY, WEST JAVA 17530","ID_PROV":"32","PROVINSI":"JAWA BARAT","ID_KABKOT":"32.16","KABKOT":"BEKASI","ID_KEC":"32.16.09","KECAMATAN":"CIKARANG UTARA","ID_DESA":"32.16.09.2001","DESA":"CIKARANGKOTA","LATITUDE":-6.2578065,"LONGITUDE":107.1470343,"STATUS":"BUKA","TANGGAL PENGUMPULAN":"Q2 2025","TANGGAL UPDATE":"17/06/2025"}},{"type":"Feature","geometry":{"coordinates":[107.0443841,-6.1624406],"type":"Point"},"properties":{"NAMA":"PASAR BAYEM JAYA BABELAN","TIPE_1":"PERDAGANGAN DAN RETAIL","TIPE_2":"PASAR","TIPE_3":"PASAR TRADISIONAL","TELEPON":"0882-1208-1713","ALAMAT":"BABELAN KOTA, KEC. BABELAN, KABUPATEN BEKASI, JAWA BARAT 17610","ID_PROV":"32","PROVINSI":"JAWA BARAT","ID_KABKOT":"32.16","KABKOT":"BEKASI","ID_KEC":"32.16.02","KECAMATAN":"BABELAN","ID_DESA":"32.16.02.2008","DESA":"BABELANKOTA","LATITUDE":-6.1624406,"LONGITUDE":107.0443841,"STATUS":"BUKA","TANGGAL PENGUMPULAN":"Q2 2025","TANGGAL UPDATE":"17/06/2025"}},{"type":"Feature","geometry":{"coordinates":[107.18174649999999,-6.3314295],"type":"Point"},"properties":{"NAMA":"PASAR BECEK TEGAL DANAS","TIPE_1":"PERDAGANGAN DAN RETAIL","TIPE_2":"PASAR","TIPE_3":"PASAR TRADISIONAL","TELEPON":"","ALAMAT":"JL. TEGAL DANAS, HEGARMUKTI, KEC. CIKARANG PUSAT, KABUPATEN BEKASI, JAWA BARAT 17530","ID_PROV":"32","PROVINSI":"JAWA BARAT","ID_KABKOT":"32.16","KABKOT":"BEKASI","ID_KEC":"32.16.20","KECAMATAN":"CIKARANG PUSAT","ID_DESA":"32.16.20.2004","DESA":"HEGARMUKTI","LATITUDE":-6.3314295,"LONGITUDE":107.1817465,"STATUS":"BUKA","TANGGAL PENGUMPULAN":"Q2 2025","TANGGAL UPDATE":"17/06/2025"}},{"type":"Feature","geometry":{"coordinates":[107.1557903,-6.1189228],"type":"Point"},"properties":{"NAMA":"PASAR CABANG PULO BAMBU","TIPE_1":"PERDAGANGAN DAN RETAIL","TIPE_2":"PASAR","TIPE_3":"PASAR TRADISIONAL","TELEPON":"","ALAMAT":"SUKAINDAH, KEC. SUKAKARYA, KABUPATEN BEKASI, JAWA BARAT 17630","ID_PROV":"32","PROVINSI":"JAWA BARAT","ID_KABKOT":"32.16","KABKOT":"BEKASI","ID_KEC":"32.16.14","KECAMATAN":"SUKAKARYA","ID_DESA":"32.16.14.2002","DESA":"SUKAINDAH","LATITUDE":-6.1189228,"LONGITUDE":107.1557903,"STATUS":"BUKA","TANGGAL PENGUMPULAN":"Q2 2025","TANGGAL UPDATE":"17/06/2025"}},{"type":"Feature","geometry":{"coordinates":[107.0399874,-6.2168546],"type":"Point"},"properties":{"NAMA":"PASAR BUMI ANGGREK","TIPE_1":"PERDAGANGAN DAN RETAIL","TIPE_2":"PASAR","TIPE_3":"PASAR TRADISIONAL","TELEPON":"","ALAMAT":"JL. RAYA BUMI ANGGREK NO.17, KARANGSATRIA, KEC. TAMBUN UTARA, KABUPATEN BEKASI, JAWA BARAT 17510","ID_PROV":"32","PROVINSI":"JAWA BARAT","ID_KABKOT":"32.16","KABKOT":"BEKASI","ID_KEC":"32.16.05","KECAMATAN":"TAMBUN UTARA","ID_DESA":"32.16.05.2008","DESA":"KARANGSATRIA","LATITUDE":-6.2168546,"LONGITUDE":107.0399874,"STATUS":"BUKA","TANGGAL PENGUMPULAN":"Q2 2025","TANGGAL UPDATE":"17/06/2025"}},{"type":"Feature","geometry":{"coordinates":[107.109272,-6.1409216],"type":"Point"},"properties":{"NAMA":"PASAR BULAK TEMU DESA SUKABUDI","TIPE_1":"PERDAGANGAN DAN RETAIL","TIPE_2":"PASAR","TIPE_3":"PASAR TRADISIONAL","TELEPON":"","ALAMAT":"PASAR BULAK TEMU, SUKABUDI, KEC. SUKAWANGI, KABUPATEN BEKASI, JAWA BARAT","ID_PROV":"32","PROVINSI":"JAWA BARAT","ID_KABKOT":"32.16","KABKOT":"BEKASI","ID_KEC":"32.16.03","KECAMATAN":"SUKAWANGI","ID_DESA":"32.16.03.2002","DESA":"SUKABUDI","LATITUDE":-6.1409216,"LONGITUDE":107.109272,"STATUS":"BUKA","TANGGAL PENGUMPULAN":"Q2 2025","TANGGAL UPDATE":"17/06/2025"}},{"type":"Feature","geometry":{"coordinates":[107.0125511,-6.188257],"type":"Point"},"properties":{"NAMA":"PASAR ATTAUFIQ","TIPE_1":"PERDAGANGAN DAN RETAIL","TIPE_2":"PASAR","TIPE_3":"PASAR TRADISIONAL","TELEPON":"","ALAMAT":"JL. AT-TAUFIQ NO.39, BAHAGIA, BABELAN, BEKASI REGENCY, WEST JAVA 17610","ID_PROV":"32","PROVINSI":"JAWA BARAT","ID_KABKOT":"32.16","KABKOT":"BEKASI","ID_KEC":"32.16.02","KECAMATAN":"BABELAN","ID_DESA":"32.16.02.1006","DESA":"BAHAGIA","LATITUDE":-6.188257,"LONGITUDE":107.0125511,"STATUS":"BUKA","TANGGAL PENGUMPULAN":"Q2 2025","TANGGAL UPDATE":"17/06/2025"}},{"type":"Feature","geometry":{"coordinates":[107.0892026,-6.3199262],"type":"Point"},"properties":{"NAMA":"PASAR AMUKMARUGUL","TIPE_1":"PERDAGANGAN DAN RETAIL","TIPE_2":"PASAR","TIPE_3":"PASAR TRADISIONAL","TELEPON":"","ALAMAT":"JATIWANGI, KEC. CIKARANG BAR., KABUPATEN BEKASI, JAWA BARAT 17530","ID_PROV":"32","PROVINSI":"JAWA BARAT","ID_KABKOT":"32.16","KABKOT":"BEKASI","ID_KEC":"32.16.08","KECAMATAN":"CIKARANG BARAT","ID_DESA":"32.16.08.2003","DESA":"JATIWANGI","LATITUDE":-6.3199262,"LONGITUDE":107.0892026,"STATUS":"BUKA","TANGGAL PENGUMPULAN":"Q2 2025","TANGGAL UPDATE":"17/06/2025"}},{"type":"Feature","geometry":{"coordinates":[107.1926795,-6.3295674],"type":"Point"},"properties":{"NAMA":"PASAR  BADHOG  CENDANA","TIPE_1":"PERDAGANGAN DAN RETAIL","TIPE_2":"PASAR","TIPE_3":"PASAR TRADISIONAL","TELEPON":"0821-1355-7297","ALAMAT":"JL. CENDANA RAYA NO.3, HEGARMUKTI, KEC. CIKARANG PUSAT, KABUPATEN BEKASI, JAWA BARAT 17530","ID_PROV":"32","PROVINSI":"JAWA BARAT","ID_KABKOT":"32.16","KABKOT":"BEKASI","ID_KEC":"32.16.20","KECAMATAN":"CIKARANG PUSAT","ID_DESA":"32.16.20.2004","DESA":"HEGARMUKTI","LATITUDE":-6.3295674,"LONGITUDE":107.1926795,"STATUS":"BUKA","TANGGAL PENGUMPULAN":"Q2 2025","TANGGAL UPDATE":"17/06/2025"}},{"type":"Feature","geometry":{"coordinates":[107.1396096,-6.1069188],"type":"Point"},"properties":{"NAMA":"PASAR BARU","TIPE_1":"PERDAGANGAN DAN RETAIL","TIPE_2":"PASAR","TIPE_3":"PASAR TRADISIONAL","TELEPON":"","ALAMAT":"SUKAKERTA, KEC. SUKAWANGI, KABUPATEN BEKASI, JAWA BARAT 17620","ID_PROV":"32","PROVINSI":"JAWA BARAT","ID_KABKOT":"32.16","KABKOT":"BEKASI","ID_KEC":"32.16.03","KECAMATAN":"SUKAWANGI","ID_DESA":"32.16.03.2005","DESA":"SUKAKERTA","LATITUDE":-6.1069188,"LONGITUDE":107.1396096,"STATUS":"BUKA","TANGGAL PENGUMPULAN":"Q2 2025","TANGGAL UPDATE":"17/06/2025"}},{"type":"Feature","geometry":{"coordinates":[107.0458678,-6.1661886],"type":"Point"},"properties":{"NAMA":"PASAR BABELAN, BEKASI","TIPE_1":"PERDAGANGAN DAN RETAIL","TIPE_2":"PASAR","TIPE_3":"PASAR TRADISIONAL","TELEPON":"","ALAMAT":"BABELAN KOTA, KEC. BABELAN, KABUPATEN BEKASI, JAWA BARAT","ID_PROV":"32","PROVINSI":"JAWA BARAT","ID_KABKOT":"32.16","KABKOT":"BEKASI","ID_KEC":"32.16.02","KECAMATAN":"BABELAN","ID_DESA":"32.16.02.2008","DESA":"BABELANKOTA","LATITUDE":-6.1661886,"LONGITUDE":107.0458678,"STATUS":"BUKA","TANGGAL PENGUMPULAN":"Q2 2025","TANGGAL UPDATE":"17/06/2025"}},{"type":"Feature","geometry":{"coordinates":[107.0228924,-6.381906],"type":"Point"},"properties":{"NAMA":"PASAR TRADISIONAL HARVEST CITY","TIPE_1":"PERDAGANGAN DAN RETAIL","TIPE_2":"PASAR","TIPE_3":"PASAR TRADISIONAL","TELEPON":"","ALAMAT":"HARVEST CITY, CIBUBUR, KEC. SETU, KABUPATEN BEKASI, JAWA BARAT 17320","ID_PROV":"32","PROVINSI":"JAWA BARAT","ID_KABKOT":"32.16","KABKOT":"BEKASI","ID_KEC":"32.16.18","KECAMATAN":"SETU","ID_DESA":"32.16.18.2009","DESA":"RAGEMANUNGGAL","LATITUDE":-6.381906,"LONGITUDE":107.0228924,"STATUS":"BUKA","TANGGAL PENGUMPULAN":"Q2 2025","TANGGAL UPDATE":"17/06/2025"}},{"type":"Feature","geometry":{"coordinates":[107.1650283,-6.2192565],"type":"Point"},"properties":{"NAMA":"PASAR TRADISIONAL ANATAMA","TIPE_1":"PERDAGANGAN DAN RETAIL","TIPE_2":"PASAR","TIPE_3":"PASAR TRADISIONAL","TELEPON":"","ALAMAT":"JL. PILAR SUKATANI NO.105, SUKARAYA, KEC. KARANGBAHAGIA, KABUPATEN BEKASI, JAWA BARAT 17530","ID_PROV":"32","PROVINSI":"JAWA BARAT","ID_KABKOT":"32.16","KABKOT":"BEKASI","ID_KEC":"32.16.10","KECAMATAN":"KARANG BAHAGIA","ID_DESA":"32.16.10.2001","DESA":"SUKARAYA","LATITUDE":-6.2192565,"LONGITUDE":107.1650283,"STATUS":"BUKA","TANGGAL PENGUMPULAN":"Q2 2025","TANGGAL UPDATE":"17/06/2025"}},{"type":"Feature","geometry":{"coordinates":[107.145665,-6.2584967],"type":"Point"},"properties":{"NAMA":"PASAR TRADISIONAL CIKARANG","TIPE_1":"PERDAGANGAN DAN RETAIL","TIPE_2":"PASAR","TIPE_3":"PASAR TRADISIONAL","TELEPON":"","ALAMAT":"JL. RE. MARTADINATA NO.162, CIKARANG KOTA, KEC. CIKARANG UTARA, KABUPATEN BEKASI, JAWA BARAT 17530","ID_PROV":"32","PROVINSI":"JAWA BARAT","ID_KABKOT":"32.16","KABKOT":"BEKASI","ID_KEC":"32.16.09","KECAMATAN":"CIKARANG UTARA","ID_DESA":"32.16.09.2001","DESA":"CIKARANGKOTA","LATITUDE":-6.2584967,"LONGITUDE":107.145665,"STATUS":"BUKA","TANGGAL PENGUMPULAN":"Q2 2025","TANGGAL UPDATE":"17/06/2025"}},{"type":"Feature","geometry":{"coordinates":[107.1798314,-6.2770373],"type":"Point"},"properties":{"NAMA":"PASAR RAKYAT CISADANE RAYA","TIPE_1":"PERDAGANGAN DAN RETAIL","TIPE_2":"PASAR","TIPE_3":"PASAR TRADISIONAL","TELEPON":"","ALAMAT":"JL. CISADANE RAYA, SIMPANGAN, KEC. CIKARANG UTARA, KABUPATEN BEKASI, JAWA BARAT 17530","ID_PROV":"32","PROVINSI":"JAWA BARAT","ID_KABKOT":"32.16","KABKOT":"BEKASI","ID_KEC":"32.16.09","KECAMATAN":"CIKARANG UTARA","ID_DESA":"32.16.09.2007","DESA":"SIMPANGAN","LATITUDE":-6.2770373,"LONGITUDE":107.1798314,"STATUS":"BUKA","TANGGAL PENGUMPULAN":"Q2 2025","TANGGAL UPDATE":"17/06/2025"}},{"type":"Feature","geometry":{"coordinates":[107.1781801,-6.2763627],"type":"Point"},"properties":{"NAMA":"PASAR TRADISIONAL GAN","TIPE_1":"PERDAGANGAN DAN RETAIL","TIPE_2":"PASAR","TIPE_3":"PASAR TRADISIONAL","TELEPON":"","ALAMAT":"JL. SIMPANGAN, SIMPANGAN, CIKARANG UTARA, BEKASI REGENCY, WEST JAVA 17530","ID_PROV":"32","PROVINSI":"JAWA BARAT","ID_KABKOT":"32.16","KABKOT":"BEKASI","ID_KEC":"32.16.09","KECAMATAN":"CIKARANG UTARA","ID_DESA":"32.16.09.2007","DESA":"SIMPANGAN","LATITUDE":-6.2763627,"LONGITUDE":107.1781801,"STATUS":"BUKA","TANGGAL PENGUMPULAN":"Q2 2025","TANGGAL UPDATE":"17/06/2025"}},{"type":"Feature","geometry":{"coordinates":[107.098333,-6.2307004],"type":"Point"},"properties":{"NAMA":"PASAR TRADISIONAL SELANG BOJONG PSB","TIPE_1":"PERDAGANGAN DAN RETAIL","TIPE_2":"PASAR","TIPE_3":"PASAR TRADISIONAL","TELEPON":"","ALAMAT":"JL. SELANG BOJONG, WANASARI, KEC. CIBITUNG, KABUPATEN BEKASI, JAWA BARAT 17520","ID_PROV":"32","PROVINSI":"JAWA BARAT","ID_KABKOT":"32.16","KABKOT":"BEKASI","ID_KEC":"32.16.07","KECAMATAN":"CIBITUNG","ID_DESA":"32.16.07.1001","DESA":"WANASARI","LATITUDE":-6.2307004,"LONGITUDE":107.098333,"STATUS":"BUKA","TANGGAL PENGUMPULAN":"Q2 2025","TANGGAL UPDATE":"17/06/2025"}},{"type":"Feature","geometry":{"coordinates":[107.0640369,-6.4008904],"type":"Point"},"properties":{"NAMA":"PASAR TRADISIONAL JAYAMULYA","TIPE_1":"PERDAGANGAN DAN RETAIL","TIPE_2":"PASAR","TIPE_3":"PASAR TRADISIONAL","TELEPON":"0857-7979-0659","ALAMAT":"JAYAMULYA, KEC. SERANG BARU, KABUPATEN BEKASI, JAWA BARAT 17330","ID_PROV":"32","PROVINSI":"JAWA BARAT","ID_KABKOT":"32.16","KABKOT":"BEKASI","ID_KEC":"32.16.21","KECAMATAN":"SERANG BARU","ID_DESA":"32.16.21.2008","DESA":"JAYASAMPURNA","LATITUDE":-6.4008904,"LONGITUDE":107.0640369,"STATUS":"BUKA","TANGGAL PENGUMPULAN":"Q2 2025","TANGGAL UPDATE":"17/06/2025"}},{"type":"Feature","geometry":{"coordinates":[107.1656562,-6.3108897],"type":"Point"},"properties":{"NAMA":"PASAR RAKYAT MINGGUAN JL TARUM BARAT RAYA","TIPE_1":"PERDAGANGAN DAN RETAIL","TIPE_2":"PASAR","TIPE_3":"PASAR TRADISIONAL","TELEPON":"","ALAMAT":"JL. TARUM BARAT RAYA, JAYAMUKTI, KEC. CIKARANG PUSAT, KABUPATEN BEKASI, JAWA BARAT 17530","ID_PROV":"32","PROVINSI":"JAWA BARAT","ID_KABKOT":"32.16","KABKOT":"BEKASI","ID_KEC":"32.16.20","KECAMATAN":"CIKARANG PUSAT","ID_DESA":"32.16.20.2005","DESA":"JAYAMUKTI","LATITUDE":-6.3108897,"LONGITUDE":107.1656562,"STATUS":"BUKA","TANGGAL PENGUMPULAN":"Q2 2025","TANGGAL UPDATE":"17/06/2025"}},{"type":"Feature","geometry":{"coordinates":[107.0466342,-6.2775882],"type":"Point"},"properties":{"NAMA":"PASAR MODERN","TIPE_1":"PERDAGANGAN DAN RETAIL","TIPE_2":"PASAR","TIPE_3":"PASAR MODERN","TELEPON":"","ALAMAT":"JL. CELEBRATION BOULEVARD, LAMBANGSARI, KEC. TAMBUN SEL., KABUPATEN BEKASI, JAWA BARAT 17510","ID_PROV":"32","PROVINSI":"JAWA BARAT","ID_KABKOT":"32.16","KABKOT":"BEKASI","ID_KEC":"32.16.06","KECAMATAN":"TAMBUN SELATAN","ID_DESA":"32.16.06.2002","DESA":"LAMBANGSARI","LATITUDE":-6.2775882,"LONGITUDE":107.0466342,"STATUS":"BUKA","TANGGAL PENGUMPULAN":"Q2 2025","TANGGAL UPDATE":"17/06/2025"}},{"type":"Feature","geometry":{"coordinates":[107.063341,-6.2449991],"type":"Point"},"properties":{"NAMA":"PASAR TRADISIONAL BEKASI","TIPE_1":"PERDAGANGAN DAN RETAIL","TIPE_2":"PASAR","TIPE_3":"PASAR TRADISIONAL","TELEPON":"","ALAMAT":"JL. RAYA MANGUN JAYA, MANGUNJAYA, KEC. TAMBUN SEL., KABUPATEN BEKASI, JAWA BARAT 17510","ID_PROV":"32","PROVINSI":"JAWA BARAT","ID_KABKOT":"32.16","KABKOT":"BEKASI","ID_KEC":"32.16.06","KECAMATAN":"TAMBUN SELATAN","ID_DESA":"32.16.06.2009","DESA":"MANGUNJAYA","LATITUDE":-6.2449991,"LONGITUDE":107.063341,"STATUS":"BUKA","TANGGAL PENGUMPULAN":"Q2 2025","TANGGAL UPDATE":"17/06/2025"}},{"type":"Feature","geometry":{"coordinates":[107.0805361,-6.3954108],"type":"Point"},"properties":{"NAMA":"PASAR RAKYAT SAMPORA","TIPE_1":"PERDAGANGAN DAN RETAIL","TIPE_2":"PASAR","TIPE_3":"PASAR TRADISIONAL","TELEPON":"","ALAMAT":"JL. PASIR RANDU, SUKASARI, KEC. SERANG BARU, KABUPATEN BEKASI, JAWA BARAT 17330","ID_PROV":"32","PROVINSI":"JAWA BARAT","ID_KABKOT":"32.16","KABKOT":"BEKASI","ID_KEC":"32.16.21","KECAMATAN":"SERANG BARU","ID_DESA":"32.16.21.2008","DESA":"JAYASAMPURNA","LATITUDE":-6.3954108,"LONGITUDE":107.0805361,"STATUS":"BUKA","TANGGAL PENGUMPULAN":"Q2 2025","TANGGAL UPDATE":"17/06/2025"}},{"type":"Feature","geometry":{"coordinates":[107.03456279999999,-6.1750471],"type":"Point"},"properties":{"NAMA":"PASAR VILLA GADING HARAPAN","TIPE_1":"PERDAGANGAN DAN RETAIL","TIPE_2":"PASAR","TIPE_3":"PASAR TRADISIONAL","TELEPON":"","ALAMAT":"JL. PINTU GERBANG TIMUR, KEBALEN, KEC. BABELAN, KABUPATEN BEKASI, JAWA BARAT 17610","ID_PROV":"32","PROVINSI":"JAWA BARAT","ID_KABKOT":"32.16","KABKOT":"BEKASI","ID_KEC":"32.16.02","KECAMATAN":"BABELAN","ID_DESA":"32.16.02.1007","DESA":"KEBALEN","LATITUDE":-6.1750471,"LONGITUDE":107.0345628,"STATUS":"BUKA","TANGGAL PENGUMPULAN":"Q2 2025","TANGGAL UPDATE":"17/06/2025"}},{"type":"Feature","geometry":{"coordinates":[107.147145,-6.2565604],"type":"Point"},"properties":{"NAMA":"PASAR TUMPAH PAGI, SGC CIKARANG","TIPE_1":"PERDAGANGAN DAN RETAIL","TIPE_2":"PASAR","TIPE_3":"PASAR TRADISIONAL","TELEPON":"","ALAMAT":"JL. KAPTEN SUMANTRI, CIKARANG KOTA, KEC. CIKARANG UTARA, KABUPATEN BEKASI, JAWA BARAT 17530","ID_PROV":"32","PROVINSI":"JAWA BARAT","ID_KABKOT":"32.16","KABKOT":"BEKASI","ID_KEC":"32.16.09","KECAMATAN":"CIKARANG UTARA","ID_DESA":"32.16.09.2001","DESA":"CIKARANGKOTA","LATITUDE":-6.2565604,"LONGITUDE":107.147145,"STATUS":"BUKA","TANGGAL PENGUMPULAN":"Q2 2025","TANGGAL UPDATE":"17/06/2025"}},{"type":"Feature","geometry":{"coordinates":[107.16502829999999,-6.2192565],"type":"Point"},"properties":{"NAMA":"PASAR TRADISIONAL ANATAMA","TIPE_1":"PERDAGANGAN DAN RETAIL","TIPE_2":"PASAR","TIPE_3":"PASAR TRADISIONAL","TELEPON":"","ALAMAT":"JL. PILAR SUKATANI NO.105, SUKARAYA, KEC. KARANGBAHAGIA, KABUPATEN BEKASI, JAWA BARAT 17530","ID_PROV":"32","PROVINSI":"JAWA BARAT","ID_KABKOT":"32.16","KABKOT":"BEKASI","ID_KEC":"32.16.10","KECAMATAN":"KARANG BAHAGIA","ID_DESA":"32.16.10.2001","DESA":"SUKARAYA","LATITUDE":-6.2192565,"LONGITUDE":107.1650283,"STATUS":"BUKA","TANGGAL PENGUMPULAN":"Q2 2025","TANGGAL UPDATE":"17/06/2025"}},{"type":"Feature","geometry":{"coordinates":[107.1474766,-6.2583999],"type":"Point"},"properties":{"NAMA":"PASAR TENGAH JALAN CIKARANG","TIPE_1":"PERDAGANGAN DAN RETAIL","TIPE_2":"PASAR","TIPE_3":"PASAR TRADISIONAL","TELEPON":"","ALAMAT":"JL. RE. MARTADINATA NO.22, CIKARANG KOTA, CIKARANG UTARA, BEKASI REGENCY, WEST JAVA 17530","ID_PROV":"32","PROVINSI":"JAWA BARAT","ID_KABKOT":"32.16","KABKOT":"BEKASI","ID_KEC":"32.16.09","KECAMATAN":"CIKARANG UTARA","ID_DESA":"32.16.09.2001","DESA":"CIKARANGKOTA","LATITUDE":-6.2583999,"LONGITUDE":107.1474766,"STATUS":"BUKA","TANGGAL PENGUMPULAN":"Q2 2025","TANGGAL UPDATE":"17/06/2025"}},{"type":"Feature","geometry":{"coordinates":[107.1781179,-6.1704373],"type":"Point"},"properties":{"NAMA":"PASAR SUKATANI","TIPE_1":"PERDAGANGAN DAN RETAIL","TIPE_2":"PASAR","TIPE_3":"PASAR TRADISIONAL","TELEPON":"","ALAMAT":"JL. RAYA SUKATANI, KARANGSENTOSA, KARANGBAHAGIA, BEKASI REGENCY, WEST JAVA 17530","ID_PROV":"32","PROVINSI":"JAWA BARAT","ID_KABKOT":"32.16","KABKOT":"BEKASI","ID_KEC":"32.16.15","KECAMATAN":"SUKATANI","ID_DESA":"32.16.15.2007","DESA":"SUKADARMA","LATITUDE":-6.1704373,"LONGITUDE":107.1781179,"STATUS":"BUKA","TANGGAL PENGUMPULAN":"Q2 2025","TANGGAL UPDATE":"17/06/2025"}},{"type":"Feature","geometry":{"coordinates":[107.1900918,-6.4163135],"type":"Point"},"properties":{"NAMA":"PASAR SORE JAJANAN JADOEL","TIPE_1":"PERDAGANGAN DAN RETAIL","TIPE_2":"PASAR","TIPE_3":"PASAR TRADISIONAL","TELEPON":"","ALAMAT":"JL. SUKABUNGAH, SUKABUNGAH, KEC. BOJONGMANGU, KABUPATEN BEKASI, JAWA BARAT 17350","ID_PROV":"32","PROVINSI":"JAWA BARAT","ID_KABKOT":"32.16","KABKOT":"BEKASI","ID_KEC":"32.16.23","KECAMATAN":"BOJONGMANGU","ID_DESA":"32.16.23.2004","DESA":"SUKABUNGAH","LATITUDE":-6.4163135,"LONGITUDE":107.1900918,"STATUS":"BUKA","TANGGAL PENGUMPULAN":"Q2 2025","TANGGAL UPDATE":"17/06/2025"}},{"type":"Feature","geometry":{"coordinates":[107.1817949,-6.3323276],"type":"Point"},"properties":{"NAMA":"PASAR TEGAL DANAS","TIPE_1":"PERDAGANGAN DAN RETAIL","TIPE_2":"PASAR","TIPE_3":"PASAR TRADISIONAL","TELEPON":"","ALAMAT":"JL. KP. TEGAL DANAS NO.14, RT.1/RW.5, HEGARMUKTI, KEC. CIKARANG PUSAT, KABUPATEN BEKASI, JAWA BARAT 17530","ID_PROV":"32","PROVINSI":"JAWA BARAT","ID_KABKOT":"32.16","KABKOT":"BEKASI","ID_KEC":"32.16.20","KECAMATAN":"CIKARANG PUSAT","ID_DESA":"32.16.20.2004","DESA":"HEGARMUKTI","LATITUDE":-6.3323276,"LONGITUDE":107.1817949,"STATUS":"BUKA","TANGGAL PENGUMPULAN":"Q2 2025","TANGGAL UPDATE":"17/06/2025"}},{"type":"Feature","geometry":{"coordinates":[107.0087188,-6.1919656],"type":"Point"},"properties":{"NAMA":"PASAR SEJAHTERA","TIPE_1":"PERDAGANGAN DAN RETAIL","TIPE_2":"PASAR","TIPE_3":"PASAR TRADISIONAL","TELEPON":"","ALAMAT":"JL. SEJAHTERA NO.1, BAHAGIA, KEC. BABELAN, KABUPATEN BEKASI, JAWA BARAT 17610","ID_PROV":"32","PROVINSI":"JAWA BARAT","ID_KABKOT":"32.16","KABKOT":"BEKASI","ID_KEC":"32.16.02","KECAMATAN":"BABELAN","ID_DESA":"32.16.02.1006","DESA":"BAHAGIA","LATITUDE":-6.1919656,"LONGITUDE":107.0087188,"STATUS":"BUKA","TANGGAL PENGUMPULAN":"Q2 2025","TANGGAL UPDATE":"17/06/2025"}},{"type":"Feature","geometry":{"coordinates":[107.0446581,-6.1621303],"type":"Point"},"properties":{"NAMA":"PASAR SAYURAN BABELAN","TIPE_1":"PERDAGANGAN DAN RETAIL","TIPE_2":"PASAR","TIPE_3":"PASAR TRADISIONAL","TELEPON":"","ALAMAT":"BABELAN KOTA, KEC. BABELAN, KABUPATEN BEKASI, JAWA BARAT 17610","ID_PROV":"32","PROVINSI":"JAWA BARAT","ID_KABKOT":"32.16","KABKOT":"BEKASI","ID_KEC":"32.16.02","KECAMATAN":"BABELAN","ID_DESA":"32.16.02.2008","DESA":"BABELANKOTA","LATITUDE":-6.1621303,"LONGITUDE":107.0446581,"STATUS":"BUKA","TANGGAL PENGUMPULAN":"Q2 2025","TANGGAL UPDATE":"17/06/2025"}},{"type":"Feature","geometry":{"coordinates":[107.0831166,-6.1720333],"type":"Point"},"properties":{"NAMA":"PASAR SAYUR IBU AZIS","TIPE_1":"PERDAGANGAN DAN RETAIL","TIPE_2":"PASAR","TIPE_3":"PASAR TRADISIONAL","TELEPON":"0899-0781-755","ALAMAT":"SRIMAHI, KEC. TAMBUN UTARA, KABUPATEN BEKASI, JAWA BARAT 17510","ID_PROV":"32","PROVINSI":"JAWA BARAT","ID_KABKOT":"32.16","KABKOT":"BEKASI","ID_KEC":"32.16.05","KECAMATAN":"TAMBUN UTARA","ID_DESA":"32.16.05.2007","DESA":"SRIMAHI","LATITUDE":-6.1720333,"LONGITUDE":107.0831166,"STATUS":"BUKA","TANGGAL PENGUMPULAN":"Q2 2025","TANGGAL UPDATE":"17/06/2025"}},{"type":"Feature","geometry":{"coordinates":[107.106186,-6.2517775],"type":"Point"},"properties":{"NAMA":"PASAR SAYUR","TIPE_1":"PERDAGANGAN DAN RETAIL","TIPE_2":"PASAR","TIPE_3":"PASAR TRADISIONAL","TELEPON":"","ALAMAT":"WANAJAYA, KEC. CIBITUNG, KABUPATEN BEKASI, JAWA BARAT 17520","ID_PROV":"32","PROVINSI":"JAWA BARAT","ID_KABKOT":"32.16","KABKOT":"BEKASI","ID_KEC":"32.16.07","KECAMATAN":"CIBITUNG","ID_DESA":"32.16.07.2002","DESA":"WANAJAYA","LATITUDE":-6.2517775,"LONGITUDE":107.106186,"STATUS":"BUKA","TANGGAL PENGUMPULAN":"Q2 2025","TANGGAL UPDATE":"17/06/2025"}},{"type":"Feature","geometry":{"coordinates":[107.1607336,-6.2994302],"type":"Point"},"properties":{"NAMA":"PASAR RUKO ROXY CIKARANG JABABEKA","TIPE_1":"PERDAGANGAN DAN RETAIL","TIPE_2":"PASAR","TIPE_3":"PASAR TRADISIONAL","TELEPON":"0821-1450-1114","ALAMAT":"JALAN KASUARI RAYA BLOK S, MEKARMUKTI, KEC. CIKARANG UTARA, KABUPATEN BEKASI, JAWA BARAT 17530","ID_PROV":"32","PROVINSI":"JAWA BARAT","ID_KABKOT":"32.16","KABKOT":"BEKASI","ID_KEC":"32.16.09","KECAMATAN":"CIKARANG UTARA","ID_DESA":"32.16.09.2010","DESA":"MEKARMUKTI","LATITUDE":-6.2994302,"LONGITUDE":107.1607336,"STATUS":"BUKA","TANGGAL PENGUMPULAN":"Q2 2025","TANGGAL UPDATE":"17/06/2025"}},{"type":"Feature","geometry":{"coordinates":[107.0451567,-6.33623],"type":"Point"},"properties":{"NAMA":"PASAR SETU","TIPE_1":"PERDAGANGAN DAN RETAIL","TIPE_2":"PASAR","TIPE_3":"PASAR TRADISIONAL","TELEPON":"","ALAMAT":"PASAR, TELAJUNG, KEC. SETU, KABUPATEN BEKASI, JAWA BARAT 17320","ID_PROV":"32","PROVINSI":"JAWA BARAT","ID_KABKOT":"32.16","KABKOT":"BEKASI","ID_KEC":"32.16.08","KECAMATAN":"CIKARANG BARAT","ID_DESA":"32.16.08.2010","DESA":"TELAJUNG","LATITUDE":-6.33623,"LONGITUDE":107.0451567,"STATUS":"BUKA","TANGGAL PENGUMPULAN":"Q2 2025","TANGGAL UPDATE":"17/06/2025"}},{"type":"Feature","geometry":{"coordinates":[107.07211249999999,-6.2432547],"type":"Point"},"properties":{"NAMA":"PASAR SENTRAL TOMONI","TIPE_1":"PERDAGANGAN DAN RETAIL","TIPE_2":"PASAR","TIPE_3":"PASAR TRADISIONAL","TELEPON":"","ALAMAT":"JL. MELATI XI BLOK E. 2 NO.29, TRIDAYA SAKTI, TAMBUN SELATAN, BEKASI REGENCY, WEST JAVA 17510","ID_PROV":"32","PROVINSI":"JAWA BARAT","ID_KABKOT":"32.16","KABKOT":"BEKASI","ID_KEC":"32.16.06","KECAMATAN":"TAMBUN SELATAN","ID_DESA":"32.16.06.2008","DESA":"TRIDAYA SAKTI","LATITUDE":-6.2432547,"LONGITUDE":107.0721125,"STATUS":"BUKA","TANGGAL PENGUMPULAN":"Q2 2025","TANGGAL UPDATE":"17/06/2025"}},{"type":"Feature","geometry":{"coordinates":[107.1188406,-6.3596547],"type":"Point"},"properties":{"NAMA":"PASAR SERANG","TIPE_1":"PERDAGANGAN DAN RETAIL","TIPE_2":"PASAR","TIPE_3":"PASAR TRADISIONAL","TELEPON":"","ALAMAT":"JL. RAYA SERANG CIBARUSAH, SERANG, CIKARANG SEL., KABUPATEN BEKASI, JAWA BARAT 17530","ID_PROV":"32","PROVINSI":"JAWA BARAT","ID_KABKOT":"32.16","KABKOT":"BEKASI","ID_KEC":"32.16.19","KECAMATAN":"CIKARANG SELATAN","ID_DESA":"32.16.19.2006","DESA":"SERANG","LATITUDE":-6.3596547,"LONGITUDE":107.1188406,"STATUS":"BUKA","TANGGAL PENGUMPULAN":"Q2 2025","TANGGAL UPDATE":"17/06/2025"}},{"type":"Feature","geometry":{"coordinates":[107.1205046,-6.3385287],"type":"Point"},"properties":{"NAMA":"PASAR SENTRAL GRABBEK CIKARANG","TIPE_1":"PERDAGANGAN DAN RETAIL","TIPE_2":"PASAR","TIPE_3":"PASAR TRADISIONAL","TELEPON":"","ALAMAT":"JL. RAYA CIKARANG - CIBARUSAH NO.1, SERANG, CIKARANG SEL., KABUPATEN BEKASI, JAWA BARAT 17530","ID_PROV":"32","PROVINSI":"JAWA BARAT","ID_KABKOT":"32.16","KABKOT":"BEKASI","ID_KEC":"32.16.19","KECAMATAN":"CIKARANG SELATAN","ID_DESA":"32.16.19.2005","DESA":"SUKARESMI","LATITUDE":-6.3385287,"LONGITUDE":107.1205046,"STATUS":"BUKA","TANGGAL PENGUMPULAN":"Q2 2025","TANGGAL UPDATE":"17/06/2025"}},{"type":"Feature","geometry":{"coordinates":[107.0693519,-6.2149228],"type":"Point"},"properties":{"NAMA":"PASAR SENG KEBON BELANDA.BEKASI","TIPE_1":"PERDAGANGAN DAN RETAIL","TIPE_2":"PASAR","TIPE_3":"PASAR TRADISIONAL","TELEPON":"","ALAMAT":"JL. VILLA BEKASI INDAH NO.1 1, JEJALENJAYA, KEC. TAMBUN UTARA, KABUPATEN BEKASI, JAWA BARAT 17510","ID_PROV":"32","PROVINSI":"JAWA BARAT","ID_KABKOT":"32.16","KABKOT":"BEKASI","ID_KEC":"32.16.05","KECAMATAN":"TAMBUN UTARA","ID_DESA":"32.16.05.2002","DESA":"JEJALENJAYA","LATITUDE":-6.2149228,"LONGITUDE":107.0693519,"STATUS":"BUKA","TANGGAL PENGUMPULAN":"Q2 2025","TANGGAL UPDATE":"17/06/2025"}},{"type":"Feature","geometry":{"coordinates":[107.09409679999999,-6.2522017],"type":"Point"},"properties":{"NAMA":"PASAR RENGAS JAYA","TIPE_1":"PERDAGANGAN DAN RETAIL","TIPE_2":"PASAR","TIPE_3":"PASAR TRADISIONAL","TELEPON":"0895-0452-9539","ALAMAT":"BLOK MB NO.2, JL. MUTIARA SEL. II, WANASARI, KEC. CIBITUNG, KABUPATEN BEKASI, JAWA BARAT 17520","ID_PROV":"32","PROVINSI":"JAWA BARAT","ID_KABKOT":"32.16","KABKOT":"BEKASI","ID_KEC":"32.16.07","KECAMATAN":"CIBITUNG","ID_DESA":"32.16.07.1001","DESA":"WANASARI","LATITUDE":-6.2522017,"LONGITUDE":107.0940968,"STATUS":"BUKA","TANGGAL PENGUMPULAN":"Q2 2025","TANGGAL UPDATE":"17/06/2025"}},{"type":"Feature","geometry":{"coordinates":[107.0422483,-6.2415787],"type":"Point"},"properties":{"NAMA":"PASAR RAWA KALONG","TIPE_1":"PERDAGANGAN DAN RETAIL","TIPE_2":"PASAR","TIPE_3":"PASAR TRADISIONAL","TELEPON":"0878-8936-4644","ALAMAT":"JL. SETIA MEKAR NO.75, SETIAMEKAR, KEC. BEKASI TIM., KOTA BKS, JAWA BARAT 17111","ID_PROV":"32","PROVINSI":"JAWA BARAT","ID_KABKOT":"32.16","KABKOT":"BEKASI","ID_KEC":"32.16.06","KECAMATAN":"TAMBUN SELATAN","ID_DESA":"32.16.06.2006","DESA":"SETIAMEKAR","LATITUDE":-6.2415787,"LONGITUDE":107.0422483,"STATUS":"BUKA","TANGGAL PENGUMPULAN":"Q2 2025","TANGGAL UPDATE":"17/06/2025"}},{"type":"Feature","geometry":{"coordinates":[107.08053609999999,-6.3954108],"type":"Point"},"properties":{"NAMA":"PASAR RAKYAT SAMPORA","TIPE_1":"PERDAGANGAN DAN RETAIL","TIPE_2":"PASAR","TIPE_3":"PASAR TRADISIONAL","TELEPON":"","ALAMAT":"JL. PASIR RANDU, SUKASARI, KEC. SERANG BARU, KABUPATEN BEKASI, JAWA BARAT 17330","ID_PROV":"32","PROVINSI":"JAWA BARAT","ID_KABKOT":"32.16","KABKOT":"BEKASI","ID_KEC":"32.16.21","KECAMATAN":"SERANG BARU","ID_DESA":"32.16.21.2008","DESA":"JAYASAMPURNA","LATITUDE":-6.3954108,"LONGITUDE":107.0805361,"STATUS":"BUKA","TANGGAL PENGUMPULAN":"Q2 2025","TANGGAL UPDATE":"17/06/2025"}},{"type":"Feature","geometry":{"coordinates":[107.1720788,-6.2448038],"type":"Point"},"properties":{"NAMA":"PASAR PAGI PNR","TIPE_1":"PERDAGANGAN DAN RETAIL","TIPE_2":"PASAR","TIPE_3":"PASAR TRADISIONAL","TELEPON":"","ALAMAT":"PURI NIRWANA RESIDENCES JL. ANGRREK V BLOK PH 38, SUKARAYA, KEC. KARANGBAHAGIA, KABUPATEN BEKASI, JAWA BARAT 17530","ID_PROV":"32","PROVINSI":"JAWA BARAT","ID_KABKOT":"32.16","KABKOT":"BEKASI","ID_KEC":"32.16.10","KECAMATAN":"KARANG BAHAGIA","ID_DESA":"32.16.10.2001","DESA":"SUKARAYA","LATITUDE":-6.2448038,"LONGITUDE":107.1720788,"STATUS":"BUKA","TANGGAL PENGUMPULAN":"Q2 2025","TANGGAL UPDATE":"17/06/2025"}},{"type":"Feature","geometry":{"coordinates":[107.1746953,-6.2453764],"type":"Point"},"properties":{"NAMA":"PASAR PAGI PURI NIRWANA","TIPE_1":"PERDAGANGAN DAN RETAIL","TIPE_2":"PASAR","TIPE_3":"PASAR TRADISIONAL","TELEPON":"","ALAMAT":"SUKARAYA, KARANGBAHAGIA, BEKASI REGENCY, WEST JAVA 17530","ID_PROV":"32","PROVINSI":"JAWA BARAT","ID_KABKOT":"32.16","KABKOT":"BEKASI","ID_KEC":"32.16.10","KECAMATAN":"KARANG BAHAGIA","ID_DESA":"32.16.10.2001","DESA":"SUKARAYA","LATITUDE":-6.2453764,"LONGITUDE":107.1746953,"STATUS":"BUKA","TANGGAL PENGUMPULAN":"Q2 2025","TANGGAL UPDATE":"17/06/2025"}},{"type":"Feature","geometry":{"coordinates":[107.1693201,-6.3121414],"type":"Point"},"properties":{"NAMA":"PASAR PAGI RUSAPUMA","TIPE_1":"PERDAGANGAN DAN RETAIL","TIPE_2":"PASAR","TIPE_3":"PASAR TRADISIONAL","TELEPON":"","ALAMAT":"JL. RUSA XVII NO.86 BLOK B1, RT.30/RW.9, SERTAJAYA, KEC. CIKARANG TIM., KABUPATEN BEKASI, JAWA BARAT 17530","ID_PROV":"32","PROVINSI":"JAWA BARAT","ID_KABKOT":"32.16","KABKOT":"BEKASI","ID_KEC":"32.16.11","KECAMATAN":"CIKARANG TIMUR","ID_DESA":"32.16.11.1007","DESA":"SERTAJAYA","LATITUDE":-6.3121414,"LONGITUDE":107.1693201,"STATUS":"BUKA","TANGGAL PENGUMPULAN":"Q2 2025","TANGGAL UPDATE":"17/06/2025"}},{"type":"Feature","geometry":{"coordinates":[107.099796,-6.3725608],"type":"Point"},"properties":{"NAMA":"PASAR PAGI PEMDA","TIPE_1":"PERDAGANGAN DAN RETAIL","TIPE_2":"PASAR","TIPE_3":"PASAR TRADISIONAL","TELEPON":"","ALAMAT":"JL. CIJAMBE NO.501, SUKADAMI, KEC. SERANG BARU, KABUPATEN BEKASI, JAWA BARAT 17330","ID_PROV":"32","PROVINSI":"JAWA BARAT","ID_KABKOT":"32.16","KABKOT":"BEKASI","ID_KEC":"32.16.19","KECAMATAN":"CIKARANG SELATAN","ID_DESA":"32.16.19.2004","DESA":"SUKADAMI","LATITUDE":-6.3725608,"LONGITUDE":107.099796,"STATUS":"BUKA","TANGGAL PENGUMPULAN":"Q2 2025","TANGGAL UPDATE":"17/06/2025"}},{"type":"Feature","geometry":{"coordinates":[107.0888904,-6.3209486],"type":"Point"},"properties":{"NAMA":"PASAR PAGI JTW","TIPE_1":"PERDAGANGAN DAN RETAIL","TIPE_2":"PASAR","TIPE_3":"PASAR TRADISIONAL","TELEPON":"","ALAMAT":"JL. JATIWANGI NO.5, JATIWANGI, KEC. CIKARANG BAR., KABUPATEN BEKASI, JAWA BARAT 17530","ID_PROV":"32","PROVINSI":"JAWA BARAT","ID_KABKOT":"32.16","KABKOT":"BEKASI","ID_KEC":"32.16.08","KECAMATAN":"CIKARANG BARAT","ID_DESA":"32.16.08.2003","DESA":"JATIWANGI","LATITUDE":-6.3209486,"LONGITUDE":107.0888904,"STATUS":"BUKA","TANGGAL PENGUMPULAN":"Q2 2025","TANGGAL UPDATE":"17/06/2025"}},{"type":"Feature","geometry":{"coordinates":[107.0170297,-6.3341126],"type":"Point"},"properties":{"NAMA":"PASAR PAGI BLOK N-L","TIPE_1":"PERDAGANGAN DAN RETAIL","TIPE_2":"PASAR","TIPE_3":"PASAR TRADISIONAL","TELEPON":"","ALAMAT":"BEKASI TIMUR REGENCY BLOK N, BURANGKENG, KEC. SETU, KABUPATEN BEKASI, JAWA BARAT 17155","ID_PROV":"32","PROVINSI":"JAWA BARAT","ID_KABKOT":"32.16","KABKOT":"BEKASI","ID_KEC":"32.16.18","KECAMATAN":"SETU","ID_DESA":"32.16.18.2003","DESA":"BURANGKENG","LATITUDE":-6.3341126,"LONGITUDE":107.0170297,"STATUS":"BUKA","TANGGAL PENGUMPULAN":"Q2 2025","TANGGAL UPDATE":"17/06/2025"}},{"type":"Feature","geometry":{"coordinates":[107.1752992,-6.256362],"type":"Point"},"properties":{"NAMA":"PASAR PAGI BUNDARAN","TIPE_1":"PERDAGANGAN DAN RETAIL","TIPE_2":"PASAR","TIPE_3":"PASAR TRADISIONAL","TELEPON":"0877-7907-1819","ALAMAT":"KARANGRAHARJA, KEC. CIKARANG UTARA, KABUPATEN BEKASI, JAWA BARAT 17530","ID_PROV":"32","PROVINSI":"JAWA BARAT","ID_KABKOT":"32.16","KABKOT":"BEKASI","ID_KEC":"32.16.09","KECAMATAN":"CIKARANG UTARA","ID_DESA":"32.16.09.2005","DESA":"KARANGRAHARJA","LATITUDE":-6.256362,"LONGITUDE":107.1752992,"STATUS":"BUKA","TANGGAL PENGUMPULAN":"Q2 2025","TANGGAL UPDATE":"17/06/2025"}}]}