{"type":"FeatureCollection","features":[{"type":"Feature","geometry":{"coordinates":[106.7939936,-6.3386356],"type":"Point"},"properties":{"NAMA":"PASAR GANDUL MODERN","TIPE_1":"PERDAGANGAN DAN RETAIL","TIPE_2":"PASAR","TIPE_3":"PASAR MODERN","TELEPON":"","ALAMAT":"JL. RAYA GANDUL NO.8, RW.2, GANDUL, KEC. CINERE, KOTA DEPOK, JAWA BARAT 16514","ID_PROV":"32","PROVINSI":"JAWA BARAT","ID_KABKOT":"32.76","KABKOT":"KOTA DEPOK","ID_KEC":"32.76.09","KECAMATAN":"CINERE","ID_DESA":"32.76.09.1002","DESA":"GANDUL","LATITUDE":-6.3386356,"LONGITUDE":106.7939936,"STATUS":"BUKA","TANGGAL PENGUMPULAN":"Q2 2025","TANGGAL UPDATE":"17/06/2025"}}]}