{"type":"FeatureCollection","features":[{"type":"Feature","geometry":{"coordinates":[106.8008413,-6.1102505],"type":"Point"},"properties":{"NAMA":"PASAR IKAN MODERN BLOK M ","TIPE_1":"PERDAGANGAN DAN RETAIL","TIPE_2":"PASAR","TIPE_3":"PASAR MODERN","TELEPON":"","ALAMAT":"N O, 21, JL. PS. LELANG IKAN MUARA BARU NO.34, RT.21/RW.17, PENJARINGAN, KEC. PENJARINGAN, JKT UTARA, DAERAH KHUSUS IBUKOTA JAKARTA 14440","ID_PROV":"31","PROVINSI":"DKI JAKARTA","ID_KABKOT":"31.72","KABKOT":"KOTA ADM. JAKARTA UTARA","ID_KEC":"31.72.01","KECAMATAN":"PENJARINGAN","ID_DESA":"31.72.01.1001","DESA":"PENJARINGAN","LATITUDE":-6.1102505,"LONGITUDE":106.8008413,"STATUS":"BUKA","TANGGAL PENGUMPULAN":"Q2 2025","TANGGAL UPDATE":"17/06/2025"}},{"type":"Feature","geometry":{"coordinates":[106.9062219,-6.175859],"type":"Point"},"properties":{"NAMA":"PASAR JAYA KELAPA GADING","TIPE_1":"PERDAGANGAN DAN RETAIL","TIPE_2":"PASAR","TIPE_3":"PASAR MODERN","TELEPON":"","ALAMAT":"KOMPLEK PT HII KELAPA GADING, JL. PASAR INPRES, RT.6/RW.6, KLP. GADING TIM., KEC. KLP. GADING, JKT UTARA, DAERAH KHUSUS IBUKOTA JAKARTA 14240","ID_PROV":"31","PROVINSI":"DKI JAKARTA","ID_KABKOT":"31.72","KABKOT":"KOTA ADM. JAKARTA UTARA","ID_KEC":"31.72.06","KECAMATAN":"KELAPA GADING","ID_DESA":"31.72.06.1001","DESA":"KELAPA GADING TIMUR","LATITUDE":-6.175859,"LONGITUDE":106.9062219,"STATUS":"BUKA","TANGGAL PENGUMPULAN":"Q2 2025","TANGGAL UPDATE":"17/06/2025"}},{"type":"Feature","geometry":{"coordinates":[106.7888782,-6.121167],"type":"Point"},"properties":{"NAMA":"PASAR JAYA PLUIT","TIPE_1":"PERDAGANGAN DAN RETAIL","TIPE_2":"PASAR","TIPE_3":"PASAR MODERN","TELEPON":"","ALAMAT":"JL. TAMAN PLUIT KENCANA DALAM NO.23, RT.4/RW.6, PLUIT, KEC. PENJARINGAN, JKT UTARA, DAERAH KHUSUS IBUKOTA JAKARTA 14450","ID_PROV":"31","PROVINSI":"DKI JAKARTA","ID_KABKOT":"31.72","KABKOT":"KOTA ADM. JAKARTA UTARA","ID_KEC":"31.72.01","KECAMATAN":"PENJARINGAN","ID_DESA":"31.72.01.1005","DESA":"PLUIT","LATITUDE":-6.121167,"LONGITUDE":106.7888782,"STATUS":"BUKA","TANGGAL PENGUMPULAN":"Q2 2025","TANGGAL UPDATE":"17/06/2025"}},{"type":"Feature","geometry":{"coordinates":[106.9172062,-6.1362525],"type":"Point"},"properties":{"NAMA":"PASAR MODERN BENDUNGAN BATIK","TIPE_1":"PERDAGANGAN DAN RETAIL","TIPE_2":"PASAR","TIPE_3":"PASAR MODERN","TELEPON":"","ALAMAT":"JL. BEND. BATIK NO.8, RT.10/RW.4, TUGU SEL., KEC. KOJA, JKT UTARA, DAERAH KHUSUS IBUKOTA JAKARTA 14260","ID_PROV":"31","PROVINSI":"DKI JAKARTA","ID_KABKOT":"31.72","KABKOT":"KOTA ADM. JAKARTA UTARA","ID_KEC":"31.72.03","KECAMATAN":"KOJA","ID_DESA":"31.72.03.1005","DESA":"TUGU SELATAN","LATITUDE":-6.1362525,"LONGITUDE":106.9172062,"STATUS":"BUKA","TANGGAL PENGUMPULAN":"Q2 2025","TANGGAL UPDATE":"17/06/2025"}},{"type":"Feature","geometry":{"coordinates":[106.7413898,-6.1032437],"type":"Point"},"properties":{"NAMA":"PASAR MODERN PIK","TIPE_1":"PERDAGANGAN DAN RETAIL","TIPE_2":"PASAR","TIPE_3":"PASAR MODERN","TELEPON":"","ALAMAT":"PANTAI INDAH KAPUK ST NO.30, RT.6/RW.2, KAMAL MUARA, PENJARINGAN, NORTH JAKARTA CITY, JAKARTA 14470","ID_PROV":"31","PROVINSI":"DKI JAKARTA","ID_KABKOT":"31.72","KABKOT":"KOTA ADM. JAKARTA UTARA","ID_KEC":"31.72.01","KECAMATAN":"PENJARINGAN","ID_DESA":"31.72.01.1002","DESA":"KAMAL MUARA","LATITUDE":-6.1032437,"LONGITUDE":106.7413898,"STATUS":"BUKA","TANGGAL PENGUMPULAN":"Q2 2025","TANGGAL UPDATE":"17/06/2025"}}]}