{"type":"FeatureCollection","features":[{"type":"Feature","geometry":{"coordinates":[106.8327021,-6.1613695],"type":"Point"},"properties":{"NAMA":"PASAR JAYA PASAR BARU METRO ATOM","TIPE_1":"PERDAGANGAN DAN RETAIL","TIPE_2":"PASAR","TIPE_3":"PASAR MODERN","TELEPON":"(021) 3845177","ALAMAT":"JAKARTA PUSAT, RT.1/RW.3, PS. BARU, KECAMATAN SAWAH BESAR, KOTA JAKARTA PUSAT, DAERAH KHUSUS IBUKOTA JAKARTA 10710","ID_PROV":"31","PROVINSI":"DKI JAKARTA","ID_KABKOT":"31.71","KABKOT":"KOTA ADM. JAKARTA PUSAT","ID_KEC":"31.71.02","KECAMATAN":"SAWAH BESAR","ID_DESA":"31.71.02.1001","DESA":"PASAR BARU","LATITUDE":-6.1613695,"LONGITUDE":106.8327021,"STATUS":"BUKA","TANGGAL PENGUMPULAN":"Q2 2025","TANGGAL UPDATE":"17/06/2025"}},{"type":"Feature","geometry":{"coordinates":[106.8626672,-6.1730157],"type":"Point"},"properties":{"NAMA":"PASAR JAYA PASAR CEMPAKA PUTIH","TIPE_1":"PERDAGANGAN DAN RETAIL","TIPE_2":"PASAR","TIPE_3":"PASAR MODERN","TELEPON":"(021) 21241955","ALAMAT":"JL. CEMP. PUTIH BAR. XI NO.003, RT.13/RW.8, CEMP. PUTIH BAR., KEC. CEMP. PUTIH, KOTA JAKARTA PUSAT, DAERAH KHUSUS IBUKOTA JAKARTA 10520","ID_PROV":"31","PROVINSI":"DKI JAKARTA","ID_KABKOT":"31.71","KABKOT":"KOTA ADM. JAKARTA PUSAT","ID_KEC":"31.71.05","KECAMATAN":"CEMPAKA PUTIH","ID_DESA":"31.71.05.1002","DESA":"CEMPAKA PUTIH BARAT","LATITUDE":-6.1730157,"LONGITUDE":106.8626672,"STATUS":"BUKA","TANGGAL PENGUMPULAN":"Q2 2025","TANGGAL UPDATE":"17/06/2025"}},{"type":"Feature","geometry":{"coordinates":[106.8417393,-6.197792],"type":"Point"},"properties":{"NAMA":"PASAR MODERN CIKINI","TIPE_1":"PERDAGANGAN DAN RETAIL","TIPE_2":"PASAR","TIPE_3":"PASAR MODERN","TELEPON":"","ALAMAT":"JL. CIKINI AMPIUN NO.10, RT.1/RW.1, PEGANGSAAN, KEC. MENTENG, KOTA JAKARTA PUSAT, DAERAH KHUSUS IBUKOTA JAKARTA 10320","ID_PROV":"31","PROVINSI":"DKI JAKARTA","ID_KABKOT":"31.71","KABKOT":"KOTA ADM. JAKARTA PUSAT","ID_KEC":"31.71.06","KECAMATAN":"MENTENG","ID_DESA":"31.71.06.1002","DESA":"PEGANGSAAN","LATITUDE":-6.197792,"LONGITUDE":106.8417393,"STATUS":"BUKA","TANGGAL PENGUMPULAN":"Q2 2025","TANGGAL UPDATE":"17/06/2025"}},{"type":"Feature","geometry":{"coordinates":[106.8427246,-6.1761556],"type":"Point"},"properties":{"NAMA":"PASAR SENEN BLOK 2 DAN 3","TIPE_1":"PERDAGANGAN DAN RETAIL","TIPE_2":"PASAR","TIPE_3":"PASAR MODERN","TELEPON":"(021) 4201212","ALAMAT":"JL. PASAR SENEN NO.3, RW.3, SENEN, KEC. SENEN, KOTA JAKARTA PUSAT, DAERAH KHUSUS IBUKOTA JAKARTA 10410","ID_PROV":"31","PROVINSI":"DKI JAKARTA","ID_KABKOT":"31.71","KABKOT":"KOTA ADM. JAKARTA PUSAT","ID_KEC":"31.71.04","KECAMATAN":"SENEN","ID_DESA":"31.71.04.1001","DESA":"SENEN","LATITUDE":-6.1761556,"LONGITUDE":106.8427246,"STATUS":"BUKA","TANGGAL PENGUMPULAN":"Q2 2025","TANGGAL UPDATE":"17/06/2025"}}]}