{"type":"FeatureCollection","features":[{"type":"Feature","geometry":{"coordinates":[106.6293934,-6.3564329],"type":"Point"},"properties":{"NAMA":"PASAR MINGGU KORPRI SURADITA","TIPE_1":"PERDAGANGAN DAN RETAIL","TIPE_2":"PASAR","TIPE_3":"PASAR TRADISIONAL","TELEPON":"","ALAMAT":"SURADITA, KEC. CISAUK, KABUPATEN TANGERANG, BANTEN 15342","ID_PROV":"36","PROVINSI":"BANTEN","ID_KABKOT":"36.03","KABKOT":"TANGERANG","ID_KEC":"36.03.23","KECAMATAN":"CISAUK","ID_DESA":"36.03.23.2005","DESA":"SURADITA","LATITUDE":-6.3564329,"LONGITUDE":106.6293934,"STATUS":"BUKA","TANGGAL PENGUMPULAN":"Q2 2025","TANGGAL UPDATE":"17/06/2025"}},{"type":"Feature","geometry":{"coordinates":[106.38728719999999,-6.0646284],"type":"Point"},"properties":{"NAMA":"PASAR MEKAR BARU","TIPE_1":"PERDAGANGAN DAN RETAIL","TIPE_2":"PASAR","TIPE_3":"PASAR TRADISIONAL","TELEPON":"","ALAMAT":"JL. PENDIDIKAN, MEKAR BARU, KEC. MEKAR BARU, KABUPATEN TANGERANG, BANTEN 15550","ID_PROV":"36","PROVINSI":"BANTEN","ID_KABKOT":"36.03","KABKOT":"TANGERANG","ID_KEC":"36.03.33","KECAMATAN":"MEKAR BARU","ID_DESA":"36.03.33.2004","DESA":"WALIWIS","LATITUDE":-6.0646284,"LONGITUDE":106.3872872,"STATUS":"BUKA","TANGGAL PENGUMPULAN":"Q2 2025","TANGGAL UPDATE":"17/06/2025"}},{"type":"Feature","geometry":{"coordinates":[106.5113578,-6.0606306],"type":"Point"},"properties":{"NAMA":"PASAR MAUK TANGERANG","TIPE_1":"PERDAGANGAN DAN RETAIL","TIPE_2":"PASAR","TIPE_3":"PASAR TRADISIONAL","TELEPON":"","ALAMAT":"MAUK TIM., KEC. MAUK, KABUPATEN TANGERANG, BANTEN 15530","ID_PROV":"36","PROVINSI":"BANTEN","ID_KABKOT":"36.03","KABKOT":"TANGERANG","ID_KEC":"36.03.08","KECAMATAN":"MAUK","ID_DESA":"36.03.08.1002","DESA":"MAUK TIMUR","LATITUDE":-6.0606306,"LONGITUDE":106.5113578,"STATUS":"BUKA","TANGGAL PENGUMPULAN":"Q2 2025","TANGGAL UPDATE":"17/06/2025"}},{"type":"Feature","geometry":{"coordinates":[106.5900666,-6.2364661],"type":"Point"},"properties":{"NAMA":"PASAR MAWAR MANDIRI","TIPE_1":"PERDAGANGAN DAN RETAIL","TIPE_2":"PASAR","TIPE_3":"PASAR TRADISIONAL","TELEPON":"","ALAMAT":"JL. MELATI 1 NO.D.1 17, BINONG, CURUG, TANGERANG REGENCY, BANTEN 15810","ID_PROV":"36","PROVINSI":"BANTEN","ID_KABKOT":"36.03","KABKOT":"TANGERANG","ID_KEC":"36.03.17","KECAMATAN":"CURUG","ID_DESA":"36.03.17.1006","DESA":"BINONG","LATITUDE":-6.2364661,"LONGITUDE":106.5900666,"STATUS":"BUKA","TANGGAL PENGUMPULAN":"Q2 2025","TANGGAL UPDATE":"17/06/2025"}},{"type":"Feature","geometry":{"coordinates":[106.5312136,-6.2765993],"type":"Point"},"properties":{"NAMA":"PASAR MALEM PANONGAN","TIPE_1":"PERDAGANGAN DAN RETAIL","TIPE_2":"PASAR","TIPE_3":"PASAR TRADISIONAL","TELEPON":"0813-1026-1515","ALAMAT":"JL. RAYA PANONGAN NO.88B, PANONGAN, KEC. PANONGAN, KABUPATEN TANGERANG, BANTEN 15710","ID_PROV":"36","PROVINSI":"BANTEN","ID_KABKOT":"36.03","KABKOT":"TANGERANG","ID_KEC":"36.03.19","KECAMATAN":"PANONGAN","ID_DESA":"36.03.19.2008","DESA":"PANONGAN","LATITUDE":-6.2765993,"LONGITUDE":106.5312136,"STATUS":"BUKA","TANGGAL PENGUMPULAN":"Q2 2025","TANGGAL UPDATE":"17/06/2025"}},{"type":"Feature","geometry":{"coordinates":[106.384826,-6.2212606],"type":"Point"},"properties":{"NAMA":"PASAR MALEM PASIRNANGKA","TIPE_1":"PERDAGANGAN DAN RETAIL","TIPE_2":"PASAR","TIPE_3":"PASAR TRADISIONAL","TELEPON":"","ALAMAT":"JALAN PASIR NANGKA, JAYANTI, KEC. JAYANTI, KABUPATEN TANGERANG, BANTEN 15610","ID_PROV":"36","PROVINSI":"BANTEN","ID_KABKOT":"36.03","KABKOT":"TANGERANG","ID_KEC":"36.03.02","KECAMATAN":"JAYANTI","ID_DESA":"36.03.02.2006","DESA":"JAYANTI","LATITUDE":-6.2212606,"LONGITUDE":106.384826,"STATUS":"BUKA","TANGGAL PENGUMPULAN":"Q2 2025","TANGGAL UPDATE":"17/06/2025"}},{"type":"Feature","geometry":{"coordinates":[106.4233831,-6.0695103],"type":"Point"},"properties":{"NAMA":"PASAR MALEM PASILIAN","TIPE_1":"PERDAGANGAN DAN RETAIL","TIPE_2":"PASAR","TIPE_3":"PASAR TRADISIONAL","TELEPON":"","ALAMAT":"JL. PENDIDIKAN, PASILIAN, KEC. KRONJO, KABUPATEN TANGERANG, BANTEN 15550","ID_PROV":"36","PROVINSI":"BANTEN","ID_KABKOT":"36.03","KABKOT":"TANGERANG","ID_KEC":"36.03.07","KECAMATAN":"KRONJO","ID_DESA":"36.03.07.2010","DESA":"PASILIAN","LATITUDE":-6.0695103,"LONGITUDE":106.4233831,"STATUS":"BUKA","TANGGAL PENGUMPULAN":"Q2 2025","TANGGAL UPDATE":"17/06/2025"}},{"type":"Feature","geometry":{"coordinates":[106.42107329999999,-6.2946328],"type":"Point"},"properties":{"NAMA":"PASAR MALAM TAMAN KIRANA","TIPE_1":"PERDAGANGAN DAN RETAIL","TIPE_2":"PASAR","TIPE_3":"PASAR TRADISIONAL","TELEPON":"","ALAMAT":"PASANGGRAHAN, KEC. SOLEAR, KABUPATEN TANGERANG, BANTEN 15730","ID_PROV":"36","PROVINSI":"BANTEN","ID_KABKOT":"36.03","KABKOT":"TANGERANG","ID_KEC":"36.03.31","KECAMATAN":"SOLEAR","ID_DESA":"36.03.31.2006","DESA":"PASANGGRAHAN","LATITUDE":-6.2946328,"LONGITUDE":106.4210733,"STATUS":"BUKA","TANGGAL PENGUMPULAN":"Q2 2025","TANGGAL UPDATE":"17/06/2025"}},{"type":"Feature","geometry":{"coordinates":[106.5757563,-6.2525524],"type":"Point"},"properties":{"NAMA":"PASAR MODERN ARYANA KARAWACI","TIPE_1":"PERDAGANGAN DAN RETAIL","TIPE_2":"PASAR","TIPE_3":"PASAR MODERN","TELEPON":"","ALAMAT":"SUKA BAKTI, KEC. CURUG, KABUPATEN TANGERANG, BANTEN 15810","ID_PROV":"36","PROVINSI":"BANTEN","ID_KABKOT":"36.03","KABKOT":"TANGERANG","ID_KEC":"36.03.17","KECAMATAN":"CURUG","ID_DESA":"36.03.17.1006","DESA":"BINONG","LATITUDE":-6.2525524,"LONGITUDE":106.5757563,"STATUS":"BUKA","TANGGAL PENGUMPULAN":"Q2 2025","TANGGAL UPDATE":"17/06/2025"}},{"type":"Feature","geometry":{"coordinates":[106.5820491,-6.2507408],"type":"Point"},"properties":{"NAMA":"PASAR MODERN BINONG","TIPE_1":"PERDAGANGAN DAN RETAIL","TIPE_2":"PASAR","TIPE_3":"PASAR MODERN","TELEPON":"0877-8665-2883","ALAMAT":"JL. KP. BABAKAN NO.53C, RT.004/RW.004, SUKA BAKTI, CURUG, TANGERANG REGENCY, BANTEN 15810","ID_PROV":"36","PROVINSI":"BANTEN","ID_KABKOT":"36.03","KABKOT":"TANGERANG","ID_KEC":"36.03.17","KECAMATAN":"CURUG","ID_DESA":"36.03.17.1006","DESA":"BINONG","LATITUDE":-6.2507408,"LONGITUDE":106.5820491,"STATUS":"BUKA","TANGGAL PENGUMPULAN":"Q2 2025","TANGGAL UPDATE":"17/06/2025"}},{"type":"Feature","geometry":{"coordinates":[106.5949605,-6.2193214],"type":"Point"},"properties":{"NAMA":"PASAR MODERN MUTIARA KARAWACI","TIPE_1":"PERDAGANGAN DAN RETAIL","TIPE_2":"PASAR","TIPE_3":"PASAR MODERN","TELEPON":"","ALAMAT":"RUKO MUTIARA KARAWACI, RUKO PASAR MODERN, JL. EMPU TANTULAR RAYA, BENCONGAN, KEC. KLP. DUA, KABUPATEN TANGERANG, BANTEN 15810","ID_PROV":"36","PROVINSI":"BANTEN","ID_KABKOT":"36.03","KABKOT":"TANGERANG","ID_KEC":"36.03.28","KECAMATAN":"KELAPA DUA","ID_DESA":"36.03.28.1003","DESA":"BENCONGAN INDAH","LATITUDE":-6.2193214,"LONGITUDE":106.5949605,"STATUS":"BUKA","TANGGAL PENGUMPULAN":"Q2 2025","TANGGAL UPDATE":"17/06/2025"}},{"type":"Feature","geometry":{"coordinates":[106.6229183,-6.2489644],"type":"Point"},"properties":{"NAMA":"PASAR MODERN PARAMOUNT","TIPE_1":"PERDAGANGAN DAN RETAIL","TIPE_2":"PASAR","TIPE_3":"PASAR MODERN","TELEPON":"","ALAMAT":"JL. BOULEVARD RAYA GADING SERPONG, CURUG SANGERENG, KEC. KLP. DUA, KABUPATEN TANGERANG, BANTEN 15810","ID_PROV":"36","PROVINSI":"BANTEN","ID_KABKOT":"36.03","KABKOT":"TANGERANG","ID_KEC":"36.03.28","KECAMATAN":"KELAPA DUA","ID_DESA":"36.03.28.2006","DESA":"CURUG SANGERENG","LATITUDE":-6.2489644,"LONGITUDE":106.6229183,"STATUS":"BUKA","TANGGAL PENGUMPULAN":"Q2 2025","TANGGAL UPDATE":"17/06/2025"}},{"type":"Feature","geometry":{"coordinates":[106.52714,-6.169469],"type":"Point"},"properties":{"NAMA":"PASAR MODERN PASAR KEMIS","TIPE_1":"PERDAGANGAN DAN RETAIL","TIPE_2":"PASAR","TIPE_3":"PASAR MODERN","TELEPON":"","ALAMAT":"PONDOK KP, JL. RAYA PS. KEMIS, SINDANG PANON, KEC. SINDANG JAYA, 15560 TANGERANG, BANTEN 15560","ID_PROV":"36","PROVINSI":"BANTEN","ID_KABKOT":"36.03","KABKOT":"TANGERANG","ID_KEC":"36.03.29","KECAMATAN":"SINDANG JAYA","ID_DESA":"36.03.29.2005","DESA":"SINDANGPANON","LATITUDE":-6.169469,"LONGITUDE":106.52714,"STATUS":"BUKA","TANGGAL PENGUMPULAN":"Q2 2025","TANGGAL UPDATE":"17/06/2025"}},{"type":"Feature","geometry":{"coordinates":[106.570096,-6.1583657],"type":"Point"},"properties":{"NAMA":"PASAR KUTABUMI","TIPE_1":"PERDAGANGAN DAN RETAIL","TIPE_2":"PASAR","TIPE_3":"PASAR TRADISIONAL","TELEPON":"","ALAMAT":"JL PLAZA, KUTABUMI, KEC. PS. KEMIS, KABUPATEN TANGERANG, BANTEN 15560","ID_PROV":"36","PROVINSI":"BANTEN","ID_KABKOT":"36.03","KABKOT":"TANGERANG","ID_KEC":"36.03.12","KECAMATAN":"PASAR KEMIS","ID_DESA":"36.03.12.1010","DESA":"KUTABUMI","LATITUDE":-6.1583657,"LONGITUDE":106.570096,"STATUS":"BUKA","TANGGAL PENGUMPULAN":"Q2 2025","TANGGAL UPDATE":"17/06/2025"}},{"type":"Feature","geometry":{"coordinates":[106.5708828,-6.1604707],"type":"Point"},"properties":{"NAMA":"PASAR KUTABUMI SEMENTARA","TIPE_1":"PERDAGANGAN DAN RETAIL","TIPE_2":"PASAR","TIPE_3":"PASAR TRADISIONAL","TELEPON":"","ALAMAT":"KUTA JAYA, KEC. PS. KEMIS, KABUPATEN TANGERANG, BANTEN 15560","ID_PROV":"36","PROVINSI":"BANTEN","ID_KABKOT":"36.03","KABKOT":"TANGERANG","ID_KEC":"36.03.12","KECAMATAN":"PASAR KEMIS","ID_DESA":"36.03.12.1012","DESA":"KUTA JAYA","LATITUDE":-6.1604707,"LONGITUDE":106.5708828,"STATUS":"BUKA","TANGGAL PENGUMPULAN":"Q2 2025","TANGGAL UPDATE":"17/06/2025"}},{"type":"Feature","geometry":{"coordinates":[106.5712123,-6.1604172],"type":"Point"},"properties":{"NAMA":"PASAR KUTABUMI","TIPE_1":"PERDAGANGAN DAN RETAIL","TIPE_2":"PASAR","TIPE_3":"PASAR TRADISIONAL","TELEPON":"","ALAMAT":"JL PLAZA, KUTABUMI, KEC. PS. KEMIS, KABUPATEN TANGERANG, BANTEN 15560","ID_PROV":"36","PROVINSI":"BANTEN","ID_KABKOT":"36.03","KABKOT":"TANGERANG","ID_KEC":"36.03.12","KECAMATAN":"PASAR KEMIS","ID_DESA":"36.03.12.1012","DESA":"KUTA JAYA","LATITUDE":-6.1604172,"LONGITUDE":106.5712123,"STATUS":"BUKA","TANGGAL PENGUMPULAN":"Q2 2025","TANGGAL UPDATE":"17/06/2025"}},{"type":"Feature","geometry":{"coordinates":[106.3797912,-6.1304025],"type":"Point"},"properties":{"NAMA":"PASAR KRESEK","TIPE_1":"PERDAGANGAN DAN RETAIL","TIPE_2":"PASAR","TIPE_3":"PASAR TRADISIONAL","TELEPON":"","ALAMAT":"KRESEK, KEC. KRESEK, KABUPATEN TANGERANG, BANTEN 15620","ID_PROV":"36","PROVINSI":"BANTEN","ID_KABKOT":"36.03","KABKOT":"TANGERANG","ID_KEC":"36.03.06","KECAMATAN":"KRESEK","ID_DESA":"36.03.06.2018","DESA":"KRESEK","LATITUDE":-6.1304025,"LONGITUDE":106.3797912,"STATUS":"BUKA","TANGGAL PENGUMPULAN":"Q2 2025","TANGGAL UPDATE":"17/06/2025"}},{"type":"Feature","geometry":{"coordinates":[106.6442606,-6.0669845],"type":"Point"},"properties":{"NAMA":"PASAR KP. MELAGU","TIPE_1":"PERDAGANGAN DAN RETAIL","TIPE_2":"PASAR","TIPE_3":"PASAR TRADISIONAL","TELEPON":"","ALAMAT":"KP. MELAYU BARAT, KEC. TELUKNAGA, KABUPATEN TANGERANG, BANTEN 15510","ID_PROV":"36","PROVINSI":"BANTEN","ID_KABKOT":"36.03","KABKOT":"TANGERANG","ID_KEC":"36.03.13","KECAMATAN":"TELUKNAGA","ID_DESA":"36.03.13.2007","DESA":"KMP MELAYU BRT","LATITUDE":-6.0669845,"LONGITUDE":106.6442606,"STATUS":"BUKA","TANGGAL PENGUMPULAN":"Q2 2025","TANGGAL UPDATE":"17/06/2025"}},{"type":"Feature","geometry":{"coordinates":[106.5558902,-6.2205707],"type":"Point"},"properties":{"NAMA":"PASAR MALAM SABTU","TIPE_1":"PERDAGANGAN DAN RETAIL","TIPE_2":"PASAR","TIPE_3":"PASAR TRADISIONAL","TELEPON":"","ALAMAT":"BUNDER, KEC. CIKUPA, KABUPATEN TANGERANG, BANTEN 15710","ID_PROV":"36","PROVINSI":"BANTEN","ID_KABKOT":"36.03","KABKOT":"TANGERANG","ID_KEC":"36.03.18","KECAMATAN":"CIKUPA","ID_DESA":"36.03.18.1003","DESA":"BUNDER","LATITUDE":-6.2205707,"LONGITUDE":106.5558902,"STATUS":"BUKA","TANGGAL PENGUMPULAN":"Q2 2025","TANGGAL UPDATE":"17/06/2025"}},{"type":"Feature","geometry":{"coordinates":[106.5690941,-6.2340646],"type":"Point"},"properties":{"NAMA":"PASAR MALAM SELASA SEMPUR","TIPE_1":"PERDAGANGAN DAN RETAIL","TIPE_2":"PASAR","TIPE_3":"PASAR TRADISIONAL","TELEPON":"","ALAMAT":"JL. SEMPUR NO.3, KADU, KEC. CURUG, KABUPATEN TANGERANG, BANTEN 15810","ID_PROV":"36","PROVINSI":"BANTEN","ID_KABKOT":"36.03","KABKOT":"TANGERANG","ID_KEC":"36.03.17","KECAMATAN":"CURUG","ID_DESA":"36.03.17.2003","DESA":"KADU","LATITUDE":-6.2340646,"LONGITUDE":106.5690941,"STATUS":"BUKA","TANGGAL PENGUMPULAN":"Q2 2025","TANGGAL UPDATE":"17/06/2025"}},{"type":"Feature","geometry":{"coordinates":[106.5397557,-6.2191358],"type":"Point"},"properties":{"NAMA":"PASAR MALAM KP. CREWED","TIPE_1":"PERDAGANGAN DAN RETAIL","TIPE_2":"PASAR","TIPE_3":"PASAR TRADISIONAL","TELEPON":"","ALAMAT":"JL. KP. CREWED NO.40, SUKADAMAI, KEC. CIKUPA, KABUPATEN TANGERANG, BANTEN 15710","ID_PROV":"36","PROVINSI":"BANTEN","ID_KABKOT":"36.03","KABKOT":"TANGERANG","ID_KEC":"36.03.18","KECAMATAN":"CIKUPA","ID_DESA":"36.03.18.2011","DESA":"SUKADAMAI","LATITUDE":-6.2191358,"LONGITUDE":106.5397557,"STATUS":"BUKA","TANGGAL PENGUMPULAN":"Q2 2025","TANGGAL UPDATE":"17/06/2025"}},{"type":"Feature","geometry":{"coordinates":[106.6148817,-6.3271328],"type":"Point"},"properties":{"NAMA":"PASAR MALAM LAPANGAN RB","TIPE_1":"PERDAGANGAN DAN RETAIL","TIPE_2":"PASAR","TIPE_3":"PASAR TRADISIONAL","TELEPON":"","ALAMAT":"JL. KP. CICAYUR KEBUN MANGGU NO.114, CISAUK, KEC. CISAUK, KABUPATEN TANGERANG, BANTEN 15341","ID_PROV":"36","PROVINSI":"BANTEN","ID_KABKOT":"36.03","KABKOT":"TANGERANG","ID_KEC":"36.03.23","KECAMATAN":"CISAUK","ID_DESA":"36.03.23.1001","DESA":"CISAUK","LATITUDE":-6.3271328,"LONGITUDE":106.6148817,"STATUS":"BUKA","TANGGAL PENGUMPULAN":"Q2 2025","TANGGAL UPDATE":"17/06/2025"}},{"type":"Feature","geometry":{"coordinates":[106.6161907,-6.3344494],"type":"Point"},"properties":{"NAMA":"PASAR MALAM KAMPUNG GAWIR","TIPE_1":"PERDAGANGAN DAN RETAIL","TIPE_2":"PASAR","TIPE_3":"PASAR TRADISIONAL","TELEPON":"","ALAMAT":"JL. KP. CICAYUR PABUARAN NO.4, CISAUK, KEC. CISAUK, KABUPATEN TANGERANG, BANTEN 15341","ID_PROV":"36","PROVINSI":"BANTEN","ID_KABKOT":"36.03","KABKOT":"TANGERANG","ID_KEC":"36.03.23","KECAMATAN":"CISAUK","ID_DESA":"36.03.23.1001","DESA":"CISAUK","LATITUDE":-6.3344494,"LONGITUDE":106.6161907,"STATUS":"BUKA","TANGGAL PENGUMPULAN":"Q2 2025","TANGGAL UPDATE":"17/06/2025"}},{"type":"Feature","geometry":{"coordinates":[106.6248619,-6.241017],"type":"Point"},"properties":{"NAMA":"PASAR MALAM KELAPA DUA","TIPE_1":"PERDAGANGAN DAN RETAIL","TIPE_2":"PASAR","TIPE_3":"PASAR TRADISIONAL","TELEPON":"(0513) 15772602","ALAMAT":"KLP. DUA, KEC. KLP. DUA, KABUPATEN TANGERANG, BANTEN 15810","ID_PROV":"36","PROVINSI":"BANTEN","ID_KABKOT":"36.03","KABKOT":"TANGERANG","ID_KEC":"36.03.28","KECAMATAN":"KELAPA DUA","ID_DESA":"36.03.28.1001","DESA":"KELAPA DUA","LATITUDE":-6.241017,"LONGITUDE":106.6248619,"STATUS":"BUKA","TANGGAL PENGUMPULAN":"Q2 2025","TANGGAL UPDATE":"17/06/2025"}},{"type":"Feature","geometry":{"coordinates":[106.4541072,-6.1678443],"type":"Point"},"properties":{"NAMA":"PASAR MALAM KEPUH SAGA","TIPE_1":"PERDAGANGAN DAN RETAIL","TIPE_2":"PASAR","TIPE_3":"PASAR TRADISIONAL","TELEPON":"","ALAMAT":"JL. KEPUH, SAGA, KEC. BALARAJA, KABUPATEN TANGERANG, BANTEN 15610","ID_PROV":"36","PROVINSI":"BANTEN","ID_KABKOT":"36.03","KABKOT":"TANGERANG","ID_KEC":"36.03.01","KECAMATAN":"BALARAJA","ID_DESA":"36.03.01.2014","DESA":"SAGA","LATITUDE":-6.1678443,"LONGITUDE":106.4541072,"STATUS":"BUKA","TANGGAL PENGUMPULAN":"Q2 2025","TANGGAL UPDATE":"17/06/2025"}},{"type":"Feature","geometry":{"coordinates":[106.5797058,-6.3239971],"type":"Point"},"properties":{"NAMA":"PASAR MALAM JATI ELOK","TIPE_1":"PERDAGANGAN DAN RETAIL","TIPE_2":"PASAR","TIPE_3":"PASAR TRADISIONAL","TELEPON":"","ALAMAT":"JL. RAYA PARUNG PANJANG NO.88, MALANG NENGAH, KEC. PAGEDANGAN, KABUPATEN TANGERANG, BANTEN 15820","ID_PROV":"36","PROVINSI":"BANTEN","ID_KABKOT":"36.03","KABKOT":"TANGERANG","ID_KEC":"36.03.22","KECAMATAN":"PAGEDANGAN","ID_DESA":"36.03.22.2011","DESA":"MALANG NENGAH","LATITUDE":-6.3239971,"LONGITUDE":106.5797058,"STATUS":"BUKA","TANGGAL PENGUMPULAN":"Q2 2025","TANGGAL UPDATE":"17/06/2025"}},{"type":"Feature","geometry":{"coordinates":[106.6440323,-6.3294035],"type":"Point"},"properties":{"NAMA":"PASAR MALAM CIBOGO","TIPE_1":"PERDAGANGAN DAN RETAIL","TIPE_2":"PASAR","TIPE_3":"PASAR TRADISIONAL","TELEPON":"","ALAMAT":"CIBOGO, KEC. CISAUK, KABUPATEN TANGERANG, BANTEN 15344","ID_PROV":"36","PROVINSI":"BANTEN","ID_KABKOT":"36.03","KABKOT":"TANGERANG","ID_KEC":"36.03.23","KECAMATAN":"CISAUK","ID_DESA":"36.03.23.2011","DESA":"CIBOGO","LATITUDE":-6.3294035,"LONGITUDE":106.6440323,"STATUS":"BUKA","TANGGAL PENGUMPULAN":"Q2 2025","TANGGAL UPDATE":"17/06/2025"}},{"type":"Feature","geometry":{"coordinates":[106.5833565,-6.1572689],"type":"Point"},"properties":{"NAMA":"PASAR LOTUS VTB","TIPE_1":"PERDAGANGAN DAN RETAIL","TIPE_2":"PASAR","TIPE_3":"PASAR TRADISIONAL","TELEPON":"","ALAMAT":"JL. VILLA TOMANG BARU NO.L1, RW.16, KUTA JAYA, KEC. PS. KEMIS, KABUPATEN TANGERANG, BANTEN 15560","ID_PROV":"36","PROVINSI":"BANTEN","ID_KABKOT":"36.03","KABKOT":"TANGERANG","ID_KEC":"36.03.12","KECAMATAN":"PASAR KEMIS","ID_DESA":"36.03.12.2013","DESA":"GELAM JAYA","LATITUDE":-6.1572689,"LONGITUDE":106.5833565,"STATUS":"BUKA","TANGGAL PENGUMPULAN":"Q2 2025","TANGGAL UPDATE":"17/06/2025"}},{"type":"Feature","geometry":{"coordinates":[106.5887205,-6.2985485],"type":"Point"},"properties":{"NAMA":"PASAR LEGOK","TIPE_1":"PERDAGANGAN DAN RETAIL","TIPE_2":"PASAR","TIPE_3":"PASAR TRADISIONAL","TELEPON":"0831-5132-8619","ALAMAT":"PS. LEGOK, JL. RAYA PARUNG PANJANG, BABAKAN, KEC. LEGOK, KABUPATEN TANGERANG, BANTEN 15820","ID_PROV":"36","PROVINSI":"BANTEN","ID_KABKOT":"36.03","KABKOT":"TANGERANG","ID_KEC":"36.03.20","KECAMATAN":"LEGOK","ID_DESA":"36.03.20.1011","DESA":"BABAKAN","LATITUDE":-6.2985485,"LONGITUDE":106.5887205,"STATUS":"BUKA","TANGGAL PENGUMPULAN":"Q2 2025","TANGGAL UPDATE":"17/06/2025"}},{"type":"Feature","geometry":{"coordinates":[106.3665929,-6.104456],"type":"Point"},"properties":{"NAMA":"PASAR KARANG JETAK","TIPE_1":"PERDAGANGAN DAN RETAIL","TIPE_2":"PASAR","TIPE_3":"PASAR TRADISIONAL","TELEPON":"","ALAMAT":"KANDA WATI, KEC. GN. KALER, KABUPATEN TANGERANG, BANTEN 15620","ID_PROV":"36","PROVINSI":"BANTEN","ID_KABKOT":"36.03","KABKOT":"TANGERANG","ID_KEC":"36.03.32","KECAMATAN":"GUNUNG KALER","ID_DESA":"36.03.32.2008","DESA":"KANDAWATI","LATITUDE":-6.104456,"LONGITUDE":106.3665929,"STATUS":"BUKA","TANGGAL PENGUMPULAN":"Q2 2025","TANGGAL UPDATE":"17/06/2025"}},{"type":"Feature","geometry":{"coordinates":[106.4295746,-6.2403488],"type":"Point"},"properties":{"NAMA":"PASAR KAMIS","TIPE_1":"PERDAGANGAN DAN RETAIL","TIPE_2":"PASAR","TIPE_3":"PASAR TRADISIONAL","TELEPON":"","ALAMAT":"JL. RAYA CISOKA, SELAPAJANG, KEC. CISOKA, KABUPATEN TANGERANG, BANTEN","ID_PROV":"36","PROVINSI":"BANTEN","ID_KABKOT":"36.03","KABKOT":"TANGERANG","ID_KEC":"36.03.05","KECAMATAN":"CISOKA","ID_DESA":"36.03.05.2003","DESA":"SELAPAJANG","LATITUDE":-6.2403488,"LONGITUDE":106.4295746,"STATUS":"BUKA","TANGGAL PENGUMPULAN":"Q2 2025","TANGGAL UPDATE":"17/06/2025"}},{"type":"Feature","geometry":{"coordinates":[106.4200122,-6.0563183],"type":"Point"},"properties":{"NAMA":"PASAR KAMBING","TIPE_1":"PERDAGANGAN DAN RETAIL","TIPE_2":"PASAR","TIPE_3":"PASAR TRADISIONAL","TELEPON":"","ALAMAT":"KP, JAYAKARSA, KEC. KRONJO, KABUPATEN TANGERANG, BANTEN 15550","ID_PROV":"36","PROVINSI":"BANTEN","ID_KABKOT":"36.03","KABKOT":"TANGERANG","ID_KEC":"36.03.07","KECAMATAN":"KRONJO","ID_DESA":"36.03.07.2001","DESA":"KRONJO","LATITUDE":-6.0563183,"LONGITUDE":106.4200122,"STATUS":"BUKA","TANGGAL PENGUMPULAN":"Q2 2025","TANGGAL UPDATE":"17/06/2025"}},{"type":"Feature","geometry":{"coordinates":[106.5318506,-6.2744084],"type":"Point"},"properties":{"NAMA":"PASAR KAGET SERDANG ASRI.","TIPE_1":"PERDAGANGAN DAN RETAIL","TIPE_2":"PASAR","TIPE_3":"PASAR TRADISIONAL","TELEPON":"0857-4870-2400","ALAMAT":"JL. KOMP. SERDANG ASRI 2, PANONGAN, KEC. PANONGAN, KABUPATEN TANGERANG, BANTEN 15710","ID_PROV":"36","PROVINSI":"BANTEN","ID_KABKOT":"36.03","KABKOT":"TANGERANG","ID_KEC":"36.03.19","KECAMATAN":"PANONGAN","ID_DESA":"36.03.19.2008","DESA":"PANONGAN","LATITUDE":-6.2744084,"LONGITUDE":106.5318506,"STATUS":"BUKA","TANGGAL PENGUMPULAN":"Q2 2025","TANGGAL UPDATE":"17/06/2025"}},{"type":"Feature","geometry":{"coordinates":[106.5066693,-6.2161224],"type":"Point"},"properties":{"NAMA":"PASAR KAGET TALAGA PABUARAN","TIPE_1":"PERDAGANGAN DAN RETAIL","TIPE_2":"PASAR","TIPE_3":"PASAR TRADISIONAL","TELEPON":"","ALAMAT":"JL. CIHIDEUNG NO.13, TALAGA, KEC. CIKUPA, KABUPATEN TANGERANG, BANTEN 15710","ID_PROV":"36","PROVINSI":"BANTEN","ID_KABKOT":"36.03","KABKOT":"TANGERANG","ID_KEC":"36.03.18","KECAMATAN":"CIKUPA","ID_DESA":"36.03.18.2004","DESA":"TALAGA","LATITUDE":-6.2161224,"LONGITUDE":106.5066693,"STATUS":"BUKA","TANGGAL PENGUMPULAN":"Q2 2025","TANGGAL UPDATE":"17/06/2025"}},{"type":"Feature","geometry":{"coordinates":[106.6346469,-6.3416113],"type":"Point"},"properties":{"NAMA":"PASAR KAGET SURADITA","TIPE_1":"PERDAGANGAN DAN RETAIL","TIPE_2":"PASAR","TIPE_3":"PASAR TRADISIONAL","TELEPON":"","ALAMAT":"SURADITA, CISAUK, TANGERANG REGENCY, BANTEN 15341","ID_PROV":"36","PROVINSI":"BANTEN","ID_KABKOT":"36.03","KABKOT":"TANGERANG","ID_KEC":"36.03.23","KECAMATAN":"CISAUK","ID_DESA":"36.03.23.2005","DESA":"SURADITA","LATITUDE":-6.3416113,"LONGITUDE":106.6346469,"STATUS":"BUKA","TANGGAL PENGUMPULAN":"Q2 2025","TANGGAL UPDATE":"17/06/2025"}},{"type":"Feature","geometry":{"coordinates":[106.5105531,-6.2156806],"type":"Point"},"properties":{"NAMA":"PASAR KAGET MALAM JUMAT","TIPE_1":"PERDAGANGAN DAN RETAIL","TIPE_2":"PASAR","TIPE_3":"PASAR TRADISIONAL","TELEPON":"","ALAMAT":"RT03, RW.02, TALAGA, KEC. CIKUPA, KABUPATEN TANGERANG, BANTEN 15710","ID_PROV":"36","PROVINSI":"BANTEN","ID_KABKOT":"36.03","KABKOT":"TANGERANG","ID_KEC":"36.03.18","KECAMATAN":"CIKUPA","ID_DESA":"36.03.18.2004","DESA":"TALAGA","LATITUDE":-6.2156806,"LONGITUDE":106.5105531,"STATUS":"BUKA","TANGGAL PENGUMPULAN":"Q2 2025","TANGGAL UPDATE":"17/06/2025"}},{"type":"Feature","geometry":{"coordinates":[106.5558441,-6.2212653],"type":"Point"},"properties":{"NAMA":"PASAR KAGET MALAM","TIPE_1":"PERDAGANGAN DAN RETAIL","TIPE_2":"PASAR","TIPE_3":"PASAR TRADISIONAL","TELEPON":"","ALAMAT":"JL. BOOSTER PERTAMINA, BUNDER, KEC. CIKUPA, KABUPATEN TANGERANG, BANTEN 15710","ID_PROV":"36","PROVINSI":"BANTEN","ID_KABKOT":"36.03","KABKOT":"TANGERANG","ID_KEC":"36.03.18","KECAMATAN":"CIKUPA","ID_DESA":"36.03.18.1003","DESA":"BUNDER","LATITUDE":-6.2212653,"LONGITUDE":106.5558441,"STATUS":"BUKA","TANGGAL PENGUMPULAN":"Q2 2025","TANGGAL UPDATE":"17/06/2025"}},{"type":"Feature","geometry":{"coordinates":[106.5419997,-6.2370692],"type":"Point"},"properties":{"NAMA":"PASAR KAGET MALAMM SENIN","TIPE_1":"PERDAGANGAN DAN RETAIL","TIPE_2":"PASAR","TIPE_3":"PASAR TRADISIONAL","TELEPON":"","ALAMAT":"JLN.KP DUKUH, RT.12/RW.04, DUKUH, KEC. CIKUPA, KABUPATEN TANGERANG, BANTEN 15710","ID_PROV":"36","PROVINSI":"BANTEN","ID_KABKOT":"36.03","KABKOT":"TANGERANG","ID_KEC":"36.03.18","KECAMATAN":"CIKUPA","ID_DESA":"36.03.18.2006","DESA":"DUKUH","LATITUDE":-6.2370692,"LONGITUDE":106.5419997,"STATUS":"BUKA","TANGGAL PENGUMPULAN":"Q2 2025","TANGGAL UPDATE":"17/06/2025"}},{"type":"Feature","geometry":{"coordinates":[106.6111303,-6.2180122],"type":"Point"},"properties":{"NAMA":"PASAR KAGET PALEM","TIPE_1":"PERDAGANGAN DAN RETAIL","TIPE_2":"PASAR","TIPE_3":"PASAR TRADISIONAL","TELEPON":"","ALAMAT":"JL. KAV. PERKEBUNAN RAYA, RT.006/RW.013, WEST PANUNGGANGAN, CIBODAS, TANGERANG CITY, BANTEN 15810","ID_PROV":"36","PROVINSI":"BANTEN","ID_KABKOT":"36.03","KABKOT":"TANGERANG","ID_KEC":"36.03.28","KECAMATAN":"KELAPA DUA","ID_DESA":"36.03.28.1002","DESA":"BENCONGAN","LATITUDE":-6.2180122,"LONGITUDE":106.6111303,"STATUS":"BUKA","TANGGAL PENGUMPULAN":"Q2 2025","TANGGAL UPDATE":"17/06/2025"}},{"type":"Feature","geometry":{"coordinates":[106.4673921,-6.10311],"type":"Point"},"properties":{"NAMA":"PASAR KEMIRI","TIPE_1":"PERDAGANGAN DAN RETAIL","TIPE_2":"PASAR","TIPE_3":"PASAR TRADISIONAL","TELEPON":"","ALAMAT":"KEMIRI, TANGERANG REGENCY, BANTEN 15530","ID_PROV":"36","PROVINSI":"BANTEN","ID_KABKOT":"36.03","KABKOT":"TANGERANG","ID_KEC":"36.03.09","KECAMATAN":"KEMIRI","ID_DESA":"36.03.09.2004","DESA":"KEMIRI","LATITUDE":-6.10311,"LONGITUDE":106.4673921,"STATUS":"BUKA","TANGGAL PENGUMPULAN":"Q2 2025","TANGGAL UPDATE":"17/06/2025"}},{"type":"Feature","geometry":{"coordinates":[106.5459958,-6.1725351],"type":"Point"},"properties":{"NAMA":"PASAR KEMIS","TIPE_1":"PERDAGANGAN DAN RETAIL","TIPE_2":"PASAR","TIPE_3":"PASAR TRADISIONAL","TELEPON":"","ALAMAT":"JL. RAYA PS. KEMIS NO.76, SUKAMANTRI, KEC. PS. KEMIS, KABUPATEN TANGERANG, BANTEN 15560","ID_PROV":"36","PROVINSI":"BANTEN","ID_KABKOT":"36.03","KABKOT":"TANGERANG","ID_KEC":"36.03.12","KECAMATAN":"PASAR KEMIS","ID_DESA":"36.03.12.2008","DESA":"SUKAMANTRI","LATITUDE":-6.1725351,"LONGITUDE":106.5459958,"STATUS":"BUKA","TANGGAL PENGUMPULAN":"Q2 2025","TANGGAL UPDATE":"17/06/2025"}},{"type":"Feature","geometry":{"coordinates":[106.5688182,-6.1565324],"type":"Point"},"properties":{"NAMA":"PASAR KEMIS","TIPE_1":"PERDAGANGAN DAN RETAIL","TIPE_2":"PASAR","TIPE_3":"PASAR TRADISIONAL","TELEPON":"","ALAMAT":"KUTABUMI, KEC. PS. KEMIS, KABUPATEN TANGERANG, BANTEN","ID_PROV":"36","PROVINSI":"BANTEN","ID_KABKOT":"36.03","KABKOT":"TANGERANG","ID_KEC":"36.03.12","KECAMATAN":"PASAR KEMIS","ID_DESA":"36.03.12.1010","DESA":"KUTABUMI","LATITUDE":-6.1565324,"LONGITUDE":106.5688182,"STATUS":"BUKA","TANGGAL PENGUMPULAN":"Q2 2025","TANGGAL UPDATE":"17/06/2025"}},{"type":"Feature","geometry":{"coordinates":[106.52650949999999,-6.1691812],"type":"Point"},"properties":{"NAMA":"PASAR KEMIS TRADISIONAL MARKET","TIPE_1":"PERDAGANGAN DAN RETAIL","TIPE_2":"PASAR","TIPE_3":"PASAR TRADISIONAL","TELEPON":"","ALAMAT":"JL. PUTERA UTAMA NO.11A, PS. KEMIS, KEC. PS. KEMIS, KABUPATEN TANGERANG, BANTEN 15560","ID_PROV":"36","PROVINSI":"BANTEN","ID_KABKOT":"36.03","KABKOT":"TANGERANG","ID_KEC":"36.03.29","KECAMATAN":"SINDANG JAYA","ID_DESA":"36.03.29.2005","DESA":"SINDANGPANON","LATITUDE":-6.1691812,"LONGITUDE":106.5265095,"STATUS":"BUKA","TANGGAL PENGUMPULAN":"Q2 2025","TANGGAL UPDATE":"17/06/2025"}},{"type":"Feature","geometry":{"coordinates":[106.6251673,-6.2355587],"type":"Point"},"properties":{"NAMA":"PASAR KELAPA DUA","TIPE_1":"PERDAGANGAN DAN RETAIL","TIPE_2":"PASAR","TIPE_3":"PASAR TRADISIONAL","TELEPON":"","ALAMAT":"JL. DAYUNG RAYA NO.37, RT.6/RW.6, KLP. DUA, KEC. KLP. DUA, KABUPATEN TANGERANG, BANTEN 15810","ID_PROV":"36","PROVINSI":"BANTEN","ID_KABKOT":"36.03","KABKOT":"TANGERANG","ID_KEC":"36.03.28","KECAMATAN":"KELAPA DUA","ID_DESA":"36.03.28.1001","DESA":"KELAPA DUA","LATITUDE":-6.2355587,"LONGITUDE":106.6251673,"STATUS":"BUKA","TANGGAL PENGUMPULAN":"Q2 2025","TANGGAL UPDATE":"17/06/2025"}},{"type":"Feature","geometry":{"coordinates":[106.4977781,-6.3080905],"type":"Point"},"properties":{"NAMA":"PASAR KELAPA DUA","TIPE_1":"PERDAGANGAN DAN RETAIL","TIPE_2":"PASAR","TIPE_3":"PASAR TRADISIONAL","TELEPON":"","ALAMAT":"RANCA BUAYA, KEC. JAMBE, KABUPATEN TANGERANG, BANTEN 15720","ID_PROV":"36","PROVINSI":"BANTEN","ID_KABKOT":"36.03","KABKOT":"TANGERANG","ID_KEC":"36.03.04","KECAMATAN":"JAMBE","ID_DESA":"36.03.04.2007","DESA":"RANCA BUAYA","LATITUDE":-6.3080905,"LONGITUDE":106.4977781,"STATUS":"BUKA","TANGGAL PENGUMPULAN":"Q2 2025","TANGGAL UPDATE":"17/06/2025"}},{"type":"Feature","geometry":{"coordinates":[106.4763832,-6.2419764],"type":"Point"},"properties":{"NAMA":"PASAR KELUARGA PERUM MUSTIKA","TIPE_1":"PERDAGANGAN DAN RETAIL","TIPE_2":"PASAR","TIPE_3":"PASAR TRADISIONAL","TELEPON":"","ALAMAT":"JL. MUSTIKA, PASIR NANGKA, KEC. TIGARAKSA, KABUPATEN TANGERANG, BANTEN 15720","ID_PROV":"36","PROVINSI":"BANTEN","ID_KABKOT":"36.03","KABKOT":"TANGERANG","ID_KEC":"36.03.03","KECAMATAN":"TIGARAKSA","ID_DESA":"36.03.03.2004","DESA":"PASIR NANGKA","LATITUDE":-6.2419764,"LONGITUDE":106.4763832,"STATUS":"BUKA","TANGGAL PENGUMPULAN":"Q2 2025","TANGGAL UPDATE":"17/06/2025"}},{"type":"Feature","geometry":{"coordinates":[106.4524139,-6.086787],"type":"Point"},"properties":{"NAMA":"PASAR IKAN KJ TM","TIPE_1":"PERDAGANGAN DAN RETAIL","TIPE_2":"PASAR","TIPE_3":"PASAR TRADISIONAL","TELEPON":"","ALAMAT":"KELEBET, KEC. KEMIRI, KABUPATEN TANGERANG, BANTEN 15530","ID_PROV":"36","PROVINSI":"BANTEN","ID_KABKOT":"36.03","KABKOT":"TANGERANG","ID_KEC":"36.03.09","KECAMATAN":"KEMIRI","ID_DESA":"36.03.09.2006","DESA":"KLEBET","LATITUDE":-6.086787,"LONGITUDE":106.4524139,"STATUS":"BUKA","TANGGAL PENGUMPULAN":"Q2 2025","TANGGAL UPDATE":"17/06/2025"}},{"type":"Feature","geometry":{"coordinates":[106.5687125,-6.2182809],"type":"Point"},"properties":{"NAMA":"PASAR KAGET KADU","TIPE_1":"PERDAGANGAN DAN RETAIL","TIPE_2":"PASAR","TIPE_3":"PASAR TRADISIONAL","TELEPON":"","ALAMAT":"JL. KP. KADU NO.69, KADU, KEC. CURUG, KABUPATEN TANGERANG, BANTEN 15810","ID_PROV":"36","PROVINSI":"BANTEN","ID_KABKOT":"36.03","KABKOT":"TANGERANG","ID_KEC":"36.03.17","KECAMATAN":"CURUG","ID_DESA":"36.03.17.2003","DESA":"KADU","LATITUDE":-6.2182809,"LONGITUDE":106.5687125,"STATUS":"BUKA","TANGGAL PENGUMPULAN":"Q2 2025","TANGGAL UPDATE":"17/06/2025"}},{"type":"Feature","geometry":{"coordinates":[106.45044019999999,-6.2472958],"type":"Point"},"properties":{"NAMA":"PASAR KAGET KAMIS PEMATANG PETE","TIPE_1":"PERDAGANGAN DAN RETAIL","TIPE_2":"PASAR","TIPE_3":"PASAR TRADISIONAL","TELEPON":"","ALAMAT":"JL. PEMATANG, PETE, KEC. TIGARAKSA, KABUPATEN TANGERANG, BANTEN 15720","ID_PROV":"36","PROVINSI":"BANTEN","ID_KABKOT":"36.03","KABKOT":"TANGERANG","ID_KEC":"36.03.03","KECAMATAN":"TIGARAKSA","ID_DESA":"36.03.03.2005","DESA":"PETE","LATITUDE":-6.2472958,"LONGITUDE":106.4504402,"STATUS":"BUKA","TANGGAL PENGUMPULAN":"Q2 2025","TANGGAL UPDATE":"17/06/2025"}},{"type":"Feature","geometry":{"coordinates":[106.5772627,-6.2529566],"type":"Point"},"properties":{"NAMA":"PASAR KAGET ARYANA KARAWACI","TIPE_1":"PERDAGANGAN DAN RETAIL","TIPE_2":"PASAR","TIPE_3":"PASAR TRADISIONAL","TELEPON":"","ALAMAT":"SUKA BAKTI, KEC. CURUG, KABUPATEN TANGERANG, BANTEN 15810","ID_PROV":"36","PROVINSI":"BANTEN","ID_KABKOT":"36.03","KABKOT":"TANGERANG","ID_KEC":"36.03.17","KECAMATAN":"CURUG","ID_DESA":"36.03.17.1006","DESA":"BINONG","LATITUDE":-6.2529566,"LONGITUDE":106.5772627,"STATUS":"BUKA","TANGGAL PENGUMPULAN":"Q2 2025","TANGGAL UPDATE":"17/06/2025"}},{"type":"Feature","geometry":{"coordinates":[106.4962068,-6.2221097],"type":"Point"},"properties":{"NAMA":"PASAR KAGET BOJONG CIKUPA","TIPE_1":"PERDAGANGAN DAN RETAIL","TIPE_2":"PASAR","TIPE_3":"PASAR TRADISIONAL","TELEPON":"","ALAMAT":"JL. DESA BOJONG, BOJONG, KEC. CIKUPA, KABUPATEN TANGERANG, BANTEN 15710","ID_PROV":"36","PROVINSI":"BANTEN","ID_KABKOT":"36.03","KABKOT":"TANGERANG","ID_KEC":"36.03.18","KECAMATAN":"CIKUPA","ID_DESA":"36.03.18.2014","DESA":"BOJONG","LATITUDE":-6.2221097,"LONGITUDE":106.4962068,"STATUS":"BUKA","TANGGAL PENGUMPULAN":"Q2 2025","TANGGAL UPDATE":"17/06/2025"}},{"type":"Feature","geometry":{"coordinates":[106.5666211,-6.2227465],"type":"Point"},"properties":{"NAMA":"PASAR KAGET BITUNG","TIPE_1":"PERDAGANGAN DAN RETAIL","TIPE_2":"PASAR","TIPE_3":"PASAR TRADISIONAL","TELEPON":"","ALAMAT":"JL. KP. KADU NO.1, RT.1/RW.1, KADU, KEC. CURUG, KABUPATEN TANGERANG, BANTEN 15810","ID_PROV":"36","PROVINSI":"BANTEN","ID_KABKOT":"36.03","KABKOT":"TANGERANG","ID_KEC":"36.03.17","KECAMATAN":"CURUG","ID_DESA":"36.03.17.2003","DESA":"KADU","LATITUDE":-6.2227465,"LONGITUDE":106.5666211,"STATUS":"BUKA","TANGGAL PENGUMPULAN":"Q2 2025","TANGGAL UPDATE":"17/06/2025"}},{"type":"Feature","geometry":{"coordinates":[106.5476877,-6.1994916],"type":"Point"},"properties":{"NAMA":"PASAR KAGET BUNDER","TIPE_1":"PERDAGANGAN DAN RETAIL","TIPE_2":"PASAR","TIPE_3":"PASAR TRADISIONAL","TELEPON":"","ALAMAT":"RT9, BUNDER, KEC. CIKUPA, KABUPATEN TANGERANG, BANTEN 15710","ID_PROV":"36","PROVINSI":"BANTEN","ID_KABKOT":"36.03","KABKOT":"TANGERANG","ID_KEC":"36.03.18","KECAMATAN":"CIKUPA","ID_DESA":"36.03.18.1003","DESA":"BUNDER","LATITUDE":-6.1994916,"LONGITUDE":106.5476877,"STATUS":"BUKA","TANGGAL PENGUMPULAN":"Q2 2025","TANGGAL UPDATE":"17/06/2025"}},{"type":"Feature","geometry":{"coordinates":[106.4418752,-6.3193061],"type":"Point"},"properties":{"NAMA":"PASAR KAGET","TIPE_1":"PERDAGANGAN DAN RETAIL","TIPE_2":"PASAR","TIPE_3":"PASAR TRADISIONAL","TELEPON":"","ALAMAT":"CILELES, KEC. TIGARAKSA, KABUPATEN TANGERANG, BANTEN 15720","ID_PROV":"36","PROVINSI":"BANTEN","ID_KABKOT":"36.03","KABKOT":"TANGERANG","ID_KEC":"36.03.03","KECAMATAN":"TIGARAKSA","ID_DESA":"36.03.03.2011","DESA":"CILELES","LATITUDE":-6.3193061,"LONGITUDE":106.4418752,"STATUS":"BUKA","TANGGAL PENGUMPULAN":"Q2 2025","TANGGAL UPDATE":"17/06/2025"}},{"type":"Feature","geometry":{"coordinates":[106.460599,-6.3065845],"type":"Point"},"properties":{"NAMA":"PASAR KAGET","TIPE_1":"PERDAGANGAN DAN RETAIL","TIPE_2":"PASAR","TIPE_3":"PASAR TRADISIONAL","TELEPON":"","ALAMAT":"JL. PERUM VILLA TATIRA, BANTAR PANJANG, KEC. TIGARAKSA, KABUPATEN TANGERANG, BANTEN 15720","ID_PROV":"36","PROVINSI":"BANTEN","ID_KABKOT":"36.03","KABKOT":"TANGERANG","ID_KEC":"36.03.03","KECAMATAN":"TIGARAKSA","ID_DESA":"36.03.03.2014","DESA":"BANTAR PANJANG","LATITUDE":-6.3065845,"LONGITUDE":106.460599,"STATUS":"BUKA","TANGGAL PENGUMPULAN":"Q2 2025","TANGGAL UPDATE":"17/06/2025"}},{"type":"Feature","geometry":{"coordinates":[106.517305,-6.0896481],"type":"Point"},"properties":{"NAMA":"PASAR KAGET","TIPE_1":"PERDAGANGAN DAN RETAIL","TIPE_2":"PASAR","TIPE_3":"PASAR TRADISIONAL","TELEPON":"","ALAMAT":"NO, JL. RAYA RAJEG TANJAKAN NO.49, LEMBANGSARI, KEC. RAJEG, KABUPATEN TANGERANG, BANTEN 15540","ID_PROV":"36","PROVINSI":"BANTEN","ID_KABKOT":"36.03","KABKOT":"TANGERANG","ID_KEC":"36.03.11","KECAMATAN":"RAJEG","ID_DESA":"36.03.11.2006","DESA":"LEMBANGSARI","LATITUDE":-6.0896481,"LONGITUDE":106.517305,"STATUS":"BUKA","TANGGAL PENGUMPULAN":"Q2 2025","TANGGAL UPDATE":"17/06/2025"}},{"type":"Feature","geometry":{"coordinates":[106.4562629,-6.2892261],"type":"Point"},"properties":{"NAMA":"PASAR KAGET","TIPE_1":"PERDAGANGAN DAN RETAIL","TIPE_2":"PASAR","TIPE_3":"PASAR TRADISIONAL","TELEPON":"","ALAMAT":"MUNJUL, KEC. SOLEAR, KABUPATEN TANGERANG, BANTEN 15730","ID_PROV":"36","PROVINSI":"BANTEN","ID_KABKOT":"36.03","KABKOT":"TANGERANG","ID_KEC":"36.03.31","KECAMATAN":"SOLEAR","ID_DESA":"36.03.31.2007","DESA":"MUNJUL","LATITUDE":-6.2892261,"LONGITUDE":106.4562629,"STATUS":"BUKA","TANGGAL PENGUMPULAN":"Q2 2025","TANGGAL UPDATE":"17/06/2025"}},{"type":"Feature","geometry":{"coordinates":[106.429659,-6.1188521],"type":"Point"},"properties":{"NAMA":"PASAR JAYA, CAYUR","TIPE_1":"PERDAGANGAN DAN RETAIL","TIPE_2":"PASAR","TIPE_3":"PASAR TRADISIONAL","TELEPON":"","ALAMAT":"RANCAILAT, KEC. KRESEK, KABUPATEN TANGERANG, BANTEN 15620","ID_PROV":"36","PROVINSI":"BANTEN","ID_KABKOT":"36.03","KABKOT":"TANGERANG","ID_KEC":"36.03.06","KECAMATAN":"KRESEK","ID_DESA":"36.03.06.2003","DESA":"RANCAILAT","LATITUDE":-6.1188521,"LONGITUDE":106.429659,"STATUS":"BUKA","TANGGAL PENGUMPULAN":"Q2 2025","TANGGAL UPDATE":"17/06/2025"}},{"type":"Feature","geometry":{"coordinates":[106.3830004,-6.2082501],"type":"Point"},"properties":{"NAMA":"PASAR JAYANTI","TIPE_1":"PERDAGANGAN DAN RETAIL","TIPE_2":"PASAR","TIPE_3":"PASAR TRADISIONAL","TELEPON":"","ALAMAT":"JL. RAYA SERANG, JAYANTI, KEC. JAYANTI, KABUPATEN TANGERANG, BANTEN","ID_PROV":"36","PROVINSI":"BANTEN","ID_KABKOT":"36.03","KABKOT":"TANGERANG","ID_KEC":"36.03.02","KECAMATAN":"JAYANTI","ID_DESA":"36.03.02.2008","DESA":"CIKANDE","LATITUDE":-6.2082501,"LONGITUDE":106.3830004,"STATUS":"BUKA","TANGGAL PENGUMPULAN":"Q2 2025","TANGGAL UPDATE":"17/06/2025"}},{"type":"Feature","geometry":{"coordinates":[106.5839253,-6.2375278],"type":"Point"},"properties":{"NAMA":"PASAR GALUGA","TIPE_1":"PERDAGANGAN DAN RETAIL","TIPE_2":"PASAR","TIPE_3":"PASAR TRADISIONAL","TELEPON":"0878-8276-2274","ALAMAT":"JL. RAYA BINONG NO.48-46, BINONG, KEC. CURUG, KABUPATEN TANGERANG, BANTEN 15810","ID_PROV":"36","PROVINSI":"BANTEN","ID_KABKOT":"36.03","KABKOT":"TANGERANG","ID_KEC":"36.03.17","KECAMATAN":"CURUG","ID_DESA":"36.03.17.1006","DESA":"BINONG","LATITUDE":-6.2375278,"LONGITUDE":106.5839253,"STATUS":"BUKA","TANGGAL PENGUMPULAN":"Q2 2025","TANGGAL UPDATE":"17/06/2025"}},{"type":"Feature","geometry":{"coordinates":[106.3920126,-6.1296525],"type":"Point"},"properties":{"NAMA":"PASAR FROZEN","TIPE_1":"PERDAGANGAN DAN RETAIL","TIPE_2":"PASAR","TIPE_3":"PASAR TRADISIONAL","TELEPON":"0838-2607-4273","ALAMAT":"CIBETOK, KEC. GN. KALER, KABUPATEN TANGERANG, BANTEN 15620","ID_PROV":"36","PROVINSI":"BANTEN","ID_KABKOT":"36.03","KABKOT":"TANGERANG","ID_KEC":"36.03.32","KECAMATAN":"GUNUNG KALER","ID_DESA":"36.03.32.2009","DESA":"CIBETOK","LATITUDE":-6.1296525,"LONGITUDE":106.3920126,"STATUS":"BUKA","TANGGAL PENGUMPULAN":"Q2 2025","TANGGAL UPDATE":"17/06/2025"}},{"type":"Feature","geometry":{"coordinates":[106.5676617,-6.1656511],"type":"Point"},"properties":{"NAMA":"PASAR ELOK TANGERANG","TIPE_1":"PERDAGANGAN DAN RETAIL","TIPE_2":"PASAR","TIPE_3":"PASAR TRADISIONAL","TELEPON":"0852-8371-4582","ALAMAT":"JL. RASAMALA 1 NO.18 BLOK E1, GELAM JAYA, KEC. PS. KEMIS, KABUPATEN TANGERANG, BANTEN 15560","ID_PROV":"36","PROVINSI":"BANTEN","ID_KABKOT":"36.03","KABKOT":"TANGERANG","ID_KEC":"36.03.12","KECAMATAN":"PASAR KEMIS","ID_DESA":"36.03.12.2013","DESA":"GELAM JAYA","LATITUDE":-6.1656511,"LONGITUDE":106.5676617,"STATUS":"BUKA","TANGGAL PENGUMPULAN":"Q2 2025","TANGGAL UPDATE":"17/06/2025"}},{"type":"Feature","geometry":{"coordinates":[106.4681593,-6.2662233],"type":"Point"},"properties":{"NAMA":"PASAR GUDANG TIGARAKSA","TIPE_1":"PERDAGANGAN DAN RETAIL","TIPE_2":"PASAR","TIPE_3":"PASAR TRADISIONAL","TELEPON":"0856-9193-0095","ALAMAT":"JL. ARIA WANGSAKARA NO.KEL, TIGARAKSA, KEC. TIGARAKSA, KABUPATEN TANGERANG, BANTEN 15720","ID_PROV":"36","PROVINSI":"BANTEN","ID_KABKOT":"36.03","KABKOT":"TANGERANG","ID_KEC":"36.03.03","KECAMATAN":"TIGARAKSA","ID_DESA":"36.03.03.1001","DESA":"TIGARAKSA","LATITUDE":-6.2662233,"LONGITUDE":106.4681593,"STATUS":"BUKA","TANGGAL PENGUMPULAN":"Q2 2025","TANGGAL UPDATE":"17/06/2025"}},{"type":"Feature","geometry":{"coordinates":[106.4912817,-6.3349913],"type":"Point"},"properties":{"NAMA":"PASAR DARU","TIPE_1":"PERDAGANGAN DAN RETAIL","TIPE_2":"PASAR","TIPE_3":"PASAR TRADISIONAL","TELEPON":"","ALAMAT":"JL. SARWANI, TIPAR RAYA, KEC. JAMBE, KABUPATEN TANGERANG, BANTEN 15720","ID_PROV":"36","PROVINSI":"BANTEN","ID_KABKOT":"36.03","KABKOT":"TANGERANG","ID_KEC":"36.03.04","KECAMATAN":"JAMBE","ID_DESA":"36.03.04.2005","DESA":"DARU","LATITUDE":-6.3349913,"LONGITUDE":106.4912817,"STATUS":"BUKA","TANGGAL PENGUMPULAN":"Q2 2025","TANGGAL UPDATE":"17/06/2025"}},{"type":"Feature","geometry":{"coordinates":[106.63461489999999,-6.3415865],"type":"Point"},"properties":{"NAMA":"PASAR DARURAT","TIPE_1":"PERDAGANGAN DAN RETAIL","TIPE_2":"PASAR","TIPE_3":"PASAR TRADISIONAL","TELEPON":"","ALAMAT":"SURADITA, KEC. CISAUK, KABUPATEN TANGERANG, BANTEN 15343","ID_PROV":"36","PROVINSI":"BANTEN","ID_KABKOT":"36.03","KABKOT":"TANGERANG","ID_KEC":"36.03.23","KECAMATAN":"CISAUK","ID_DESA":"36.03.23.2005","DESA":"SURADITA","LATITUDE":-6.3415865,"LONGITUDE":106.6346149,"STATUS":"BUKA","TANGGAL PENGUMPULAN":"Q2 2025","TANGGAL UPDATE":"17/06/2025"}},{"type":"Feature","geometry":{"coordinates":[106.55928,-6.2606],"type":"Point"},"properties":{"NAMA":"PASAR CURUG","TIPE_1":"PERDAGANGAN DAN RETAIL","TIPE_2":"PASAR","TIPE_3":"PASAR TRADISIONAL","TELEPON":"","ALAMAT":"CURUG WETAN, KEC. CURUG, KABUPATEN TANGERANG, BANTEN","ID_PROV":"36","PROVINSI":"BANTEN","ID_KABKOT":"36.03","KABKOT":"TANGERANG","ID_KEC":"36.03.17","KECAMATAN":"CURUG","ID_DESA":"36.03.17.1005","DESA":"SUKABAKTI","LATITUDE":-6.2606,"LONGITUDE":106.55928,"STATUS":"BUKA","TANGGAL PENGUMPULAN":"Q2 2025","TANGGAL UPDATE":"17/06/2025"}},{"type":"Feature","geometry":{"coordinates":[106.5582792,-6.2621902],"type":"Point"},"properties":{"NAMA":"PASAR CURUG.","TIPE_1":"PERDAGANGAN DAN RETAIL","TIPE_2":"PASAR","TIPE_3":"PASAR TRADISIONAL","TELEPON":"","ALAMAT":"JL. PADAT KARYA NO.4, CURUG KULON, KEC. CURUG, KABUPATEN TANGERANG, BANTEN 15810","ID_PROV":"36","PROVINSI":"BANTEN","ID_KABKOT":"36.03","KABKOT":"TANGERANG","ID_KEC":"36.03.17","KECAMATAN":"CURUG","ID_DESA":"36.03.17.1001","DESA":"CURUG KULON","LATITUDE":-6.2621902,"LONGITUDE":106.5582792,"STATUS":"BUKA","TANGGAL PENGUMPULAN":"Q2 2025","TANGGAL UPDATE":"17/06/2025"}},{"type":"Feature","geometry":{"coordinates":[106.5583215,-6.2622117],"type":"Point"},"properties":{"NAMA":"PASAR CURUG.","TIPE_1":"PERDAGANGAN DAN RETAIL","TIPE_2":"PASAR","TIPE_3":"PASAR TRADISIONAL","TELEPON":"","ALAMAT":"JL. PADAT KARYA NO.4, CURUG KULON, KEC. CURUG, KABUPATEN TANGERANG, BANTEN 15810","ID_PROV":"36","PROVINSI":"BANTEN","ID_KABKOT":"36.03","KABKOT":"TANGERANG","ID_KEC":"36.03.17","KECAMATAN":"CURUG","ID_DESA":"36.03.17.1001","DESA":"CURUG KULON","LATITUDE":-6.2622117,"LONGITUDE":106.5583215,"STATUS":"BUKA","TANGGAL PENGUMPULAN":"Q2 2025","TANGGAL UPDATE":"17/06/2025"}},{"type":"Feature","geometry":{"coordinates":[106.5210417,-6.25512],"type":"Point"},"properties":{"NAMA":"PASAR CITRA CITY MARKET","TIPE_1":"PERDAGANGAN DAN RETAIL","TIPE_2":"PASAR","TIPE_3":"PASAR MODERN","TELEPON":"","ALAMAT":"JL. CITRA RAYA BOULEVARD RUKO CITY MARKET BLK. T02 NO.2, MEKAR BAKTI, PANONGAN, TANGERANG REGENCY, BANTEN 15710","ID_PROV":"36","PROVINSI":"BANTEN","ID_KABKOT":"36.03","KABKOT":"TANGERANG","ID_KEC":"36.03.19","KECAMATAN":"PANONGAN","ID_DESA":"36.03.19.1002","DESA":"MEKAR BAKTI","LATITUDE":-6.25512,"LONGITUDE":106.5210417,"STATUS":"BUKA","TANGGAL PENGUMPULAN":"Q2 2025","TANGGAL UPDATE":"17/06/2025"}},{"type":"Feature","geometry":{"coordinates":[106.5347997,-6.2193913],"type":"Point"},"properties":{"NAMA":"PASAR CIREWET","TIPE_1":"PERDAGANGAN DAN RETAIL","TIPE_2":"PASAR","TIPE_3":"PASAR TRADISIONAL","TELEPON":"","ALAMAT":"JL. KP. CIREWED NO.34, SUKADAMAI, KEC. CIKUPA, KABUPATEN TANGERANG, BANTEN 15710","ID_PROV":"36","PROVINSI":"BANTEN","ID_KABKOT":"36.03","KABKOT":"TANGERANG","ID_KEC":"36.03.18","KECAMATAN":"CIKUPA","ID_DESA":"36.03.18.2011","DESA":"SUKADAMAI","LATITUDE":-6.2193913,"LONGITUDE":106.5347997,"STATUS":"BUKA","TANGGAL PENGUMPULAN":"Q2 2025","TANGGAL UPDATE":"17/06/2025"}},{"type":"Feature","geometry":{"coordinates":[106.4261972,-6.2646663],"type":"Point"},"properties":{"NAMA":"PASAR CISOKA","TIPE_1":"PERDAGANGAN DAN RETAIL","TIPE_2":"PASAR","TIPE_3":"PASAR TRADISIONAL","TELEPON":"","ALAMAT":"JL. PS. CISOKA NO.44, CISOKA, KEC. CISOKA, KABUPATEN TANGERANG, BANTEN 15730","ID_PROV":"36","PROVINSI":"BANTEN","ID_KABKOT":"36.03","KABKOT":"TANGERANG","ID_KEC":"36.03.05","KECAMATAN":"CISOKA","ID_DESA":"36.03.05.2001","DESA":"CISOKA","LATITUDE":-6.2646663,"LONGITUDE":106.4261972,"STATUS":"BUKA","TANGGAL PENGUMPULAN":"Q2 2025","TANGGAL UPDATE":"17/06/2025"}},{"type":"Feature","geometry":{"coordinates":[106.61770209999999,-6.329832],"type":"Point"},"properties":{"NAMA":"PASAR CICAYUR 1","TIPE_1":"PERDAGANGAN DAN RETAIL","TIPE_2":"PASAR","TIPE_3":"PASAR TRADISIONAL","TELEPON":"","ALAMAT":"JL. ST. KA CICAYUR, CISAUK, KEC. CISAUK, KABUPATEN TANGERANG, BANTEN 15341","ID_PROV":"36","PROVINSI":"BANTEN","ID_KABKOT":"36.03","KABKOT":"TANGERANG","ID_KEC":"36.03.23","KECAMATAN":"CISAUK","ID_DESA":"36.03.23.1001","DESA":"CISAUK","LATITUDE":-6.329832,"LONGITUDE":106.6177021,"STATUS":"BUKA","TANGGAL PENGUMPULAN":"Q2 2025","TANGGAL UPDATE":"17/06/2025"}},{"type":"Feature","geometry":{"coordinates":[106.4222957,-6.1571947],"type":"Point"},"properties":{"NAMA":"PASAR CEPLAK","TIPE_1":"PERDAGANGAN DAN RETAIL","TIPE_2":"PASAR","TIPE_3":"PASAR TRADISIONAL","TELEPON":"","ALAMAT":"CEPLAK, KALIASIN, KEC. SUKAMULYA, KABUPATEN TANGERANG, BANTEN 15620","ID_PROV":"36","PROVINSI":"BANTEN","ID_KABKOT":"36.03","KABKOT":"TANGERANG","ID_KEC":"36.03.27","KECAMATAN":"SUKAMULYA","ID_DESA":"36.03.27.2002","DESA":"SUKAMULYA","LATITUDE":-6.1571947,"LONGITUDE":106.4222957,"STATUS":"BUKA","TANGGAL PENGUMPULAN":"Q2 2025","TANGGAL UPDATE":"17/06/2025"}},{"type":"Feature","geometry":{"coordinates":[106.5201666,-6.2288105],"type":"Point"},"properties":{"NAMA":"PASAR DESA CIKUPA","TIPE_1":"PERDAGANGAN DAN RETAIL","TIPE_2":"PASAR","TIPE_3":"PASAR TRADISIONAL","TELEPON":"","ALAMAT":"PS. CIKUPA, JL. RAYA SERANG, CIKUPA, KEC. CIKUPA, KABUPATEN TANGERANG, BANTEN 15710","ID_PROV":"36","PROVINSI":"BANTEN","ID_KABKOT":"36.03","KABKOT":"TANGERANG","ID_KEC":"36.03.18","KECAMATAN":"CIKUPA","ID_DESA":"36.03.18.2007","DESA":"CIKUPA","LATITUDE":-6.2288105,"LONGITUDE":106.5201666,"STATUS":"BUKA","TANGGAL PENGUMPULAN":"Q2 2025","TANGGAL UPDATE":"17/06/2025"}},{"type":"Feature","geometry":{"coordinates":[106.386405,-6.0889037],"type":"Point"},"properties":{"NAMA":"PASAR BOLANG","TIPE_1":"PERDAGANGAN DAN RETAIL","TIPE_2":"PASAR","TIPE_3":"PASAR TRADISIONAL","TELEPON":"","ALAMAT":"PASIR BOLANG, DESA, RANCA GEDE, KEC. GN. KALER, KABUPATEN TANGERANG, BANTEN 15620","ID_PROV":"36","PROVINSI":"BANTEN","ID_KABKOT":"36.03","KABKOT":"TANGERANG","ID_KEC":"36.03.32","KECAMATAN":"GUNUNG KALER","ID_DESA":"36.03.32.2003","DESA":"RANCAGEDE","LATITUDE":-6.0889037,"LONGITUDE":106.386405,"STATUS":"BUKA","TANGGAL PENGUMPULAN":"Q2 2025","TANGGAL UPDATE":"17/06/2025"}},{"type":"Feature","geometry":{"coordinates":[106.595617,-6.2528326],"type":"Point"},"properties":{"NAMA":"PASAR BONANG","TIPE_1":"PERDAGANGAN DAN RETAIL","TIPE_2":"PASAR","TIPE_3":"PASAR TRADISIONAL","TELEPON":"","ALAMAT":"PS. BONANG, PS. BOJONG NANGKA, JL. KOMP. DASANA INDAH NO.7, BOJONG NANGKA, KEC. KLP. DUA, KABUPATEN TANGERANG, BANTEN 15810","ID_PROV":"36","PROVINSI":"BANTEN","ID_KABKOT":"36.03","KABKOT":"TANGERANG","ID_KEC":"36.03.28","KECAMATAN":"KELAPA DUA","ID_DESA":"36.03.28.1005","DESA":"BOJONG NANGKA","LATITUDE":-6.2528326,"LONGITUDE":106.595617,"STATUS":"BUKA","TANGGAL PENGUMPULAN":"Q2 2025","TANGGAL UPDATE":"17/06/2025"}},{"type":"Feature","geometry":{"coordinates":[106.5819183,-6.2496716],"type":"Point"},"properties":{"NAMA":"PASAR BINONG KAGET","TIPE_1":"PERDAGANGAN DAN RETAIL","TIPE_2":"PASAR","TIPE_3":"PASAR TRADISIONAL","TELEPON":"","ALAMAT":"JL. RAMBUTAN 9 BLOK, E9 BLOK E9 NO.15, SUKA BAKTI, KEC. CURUG, KABUPATEN TANGERANG, BANTEN 15810","ID_PROV":"36","PROVINSI":"BANTEN","ID_KABKOT":"36.03","KABKOT":"TANGERANG","ID_KEC":"36.03.17","KECAMATAN":"CURUG","ID_DESA":"36.03.17.1006","DESA":"BINONG","LATITUDE":-6.2496716,"LONGITUDE":106.5819183,"STATUS":"BUKA","TANGGAL PENGUMPULAN":"Q2 2025","TANGGAL UPDATE":"17/06/2025"}},{"type":"Feature","geometry":{"coordinates":[106.5833838,-6.157313],"type":"Point"},"properties":{"NAMA":"PASAR BERSIH MODERN","TIPE_1":"PERDAGANGAN DAN RETAIL","TIPE_2":"PASAR","TIPE_3":"PASAR MODERN","TELEPON":"(021) 59312222","ALAMAT":"RUKO TOMANG BARU SQUARE, JL. VILLA TOMANG BARU, KUTA JAYA, KEC. PS. KEMIS, KABUPATEN TANGERANG, BANTEN 15159","ID_PROV":"36","PROVINSI":"BANTEN","ID_KABKOT":"36.03","KABKOT":"TANGERANG","ID_KEC":"36.03.12","KECAMATAN":"PASAR KEMIS","ID_DESA":"36.03.12.2013","DESA":"GELAM JAYA","LATITUDE":-6.157313,"LONGITUDE":106.5833838,"STATUS":"BUKA","TANGGAL PENGUMPULAN":"Q2 2025","TANGGAL UPDATE":"17/06/2025"}},{"type":"Feature","geometry":{"coordinates":[106.4412055,-6.1417541],"type":"Point"},"properties":{"NAMA":"PASAR BENDA","TIPE_1":"PERDAGANGAN DAN RETAIL","TIPE_2":"PASAR","TIPE_3":"PASAR TRADISIONAL","TELEPON":"","ALAMAT":"BENDA, SUKAMULYA, TANGERANG REGENCY, BANTEN 15610","ID_PROV":"36","PROVINSI":"BANTEN","ID_KABKOT":"36.03","KABKOT":"TANGERANG","ID_KEC":"36.03.27","KECAMATAN":"SUKAMULYA","ID_DESA":"36.03.27.2001","DESA":"BENDA","LATITUDE":-6.1417541,"LONGITUDE":106.4412055,"STATUS":"BUKA","TANGGAL PENGUMPULAN":"Q2 2025","TANGGAL UPDATE":"17/06/2025"}},{"type":"Feature","geometry":{"coordinates":[106.605236,-6.2149966],"type":"Point"},"properties":{"NAMA":"PASAR BAYAM","TIPE_1":"PERDAGANGAN DAN RETAIL","TIPE_2":"PASAR","TIPE_3":"PASAR TRADISIONAL","TELEPON":"0895-2741-9222","ALAMAT":"JL. EMPU SEDAH RAYA, BENCONGAN INDAH, KEC. KLP. DUA, KABUPATEN TANGERANG, BANTEN 15810","ID_PROV":"36","PROVINSI":"BANTEN","ID_KABKOT":"36.03","KABKOT":"TANGERANG","ID_KEC":"36.03.28","KECAMATAN":"KELAPA DUA","ID_DESA":"36.03.28.1002","DESA":"BENCONGAN","LATITUDE":-6.2149966,"LONGITUDE":106.605236,"STATUS":"BUKA","TANGGAL PENGUMPULAN":"Q2 2025","TANGGAL UPDATE":"17/06/2025"}},{"type":"Feature","geometry":{"coordinates":[106.5847729,-6.2329157],"type":"Point"},"properties":{"NAMA":"PASAR BASAH LV BARAT","TIPE_1":"PERDAGANGAN DAN RETAIL","TIPE_2":"PASAR","TIPE_3":"PASAR TRADISIONAL","TELEPON":"","ALAMAT":"JL. STAR OF ASIA DRIVE NO.90, BINONG, CURUG, TANGERANG REGENCY, BANTEN 15810","ID_PROV":"36","PROVINSI":"BANTEN","ID_KABKOT":"36.03","KABKOT":"TANGERANG","ID_KEC":"36.03.17","KECAMATAN":"CURUG","ID_DESA":"36.03.17.1006","DESA":"BINONG","LATITUDE":-6.2329157,"LONGITUDE":106.5847729,"STATUS":"BUKA","TANGGAL PENGUMPULAN":"Q2 2025","TANGGAL UPDATE":"17/06/2025"}},{"type":"Feature","geometry":{"coordinates":[106.5582424,-6.2624477],"type":"Point"},"properties":{"NAMA":"PASAR BURUNG CURUG","TIPE_1":"PERDAGANGAN DAN RETAIL","TIPE_2":"PASAR","TIPE_3":"PASAR TRADISIONAL","TELEPON":"","ALAMAT":"PASAR CURUG JALAN CURUG RAYA, KULON NO.12, CURUG WETAN, KEC. CURUG, KABUPATEN TANGERANG, BANTEN 15810","ID_PROV":"36","PROVINSI":"BANTEN","ID_KABKOT":"36.03","KABKOT":"TANGERANG","ID_KEC":"36.03.17","KECAMATAN":"CURUG","ID_DESA":"36.03.17.1001","DESA":"CURUG KULON","LATITUDE":-6.2624477,"LONGITUDE":106.5582424,"STATUS":"BUKA","TANGGAL PENGUMPULAN":"Q2 2025","TANGGAL UPDATE":"17/06/2025"}},{"type":"Feature","geometry":{"coordinates":[106.5329835,-6.1994282],"type":"Point"},"properties":{"NAMA":"PASAR BUKIT TIARA","TIPE_1":"PERDAGANGAN DAN RETAIL","TIPE_2":"PASAR","TIPE_3":"PASAR TRADISIONAL","TELEPON":"","ALAMAT":"JL. PERUM BUKIT TIARA NO.14 B5, PASIR JAYA, CIKUPA, TANGERANG REGENCY, BANTEN 15710","ID_PROV":"36","PROVINSI":"BANTEN","ID_KABKOT":"36.03","KABKOT":"TANGERANG","ID_KEC":"36.03.18","KECAMATAN":"CIKUPA","ID_DESA":"36.03.18.2012","DESA":"PASIR JAYA","LATITUDE":-6.1994282,"LONGITUDE":106.5329835,"STATUS":"BUKA","TANGGAL PENGUMPULAN":"Q2 2025","TANGGAL UPDATE":"17/06/2025"}},{"type":"Feature","geometry":{"coordinates":[106.5160768,-6.1139892],"type":"Point"},"properties":{"NAMA":"PASAR BUAYA RAJEG ASRI","TIPE_1":"PERDAGANGAN DAN RETAIL","TIPE_2":"PASAR","TIPE_3":"PASAR TRADISIONAL","TELEPON":"0812-9918-4137","ALAMAT":"RAJEG KULON 003/002 PERUM RAJEG ASRI, RAJEG, KEC. RAJEG, KABUPATEN TANGERANG, BANTEN 15540","ID_PROV":"36","PROVINSI":"BANTEN","ID_KABKOT":"36.03","KABKOT":"TANGERANG","ID_KEC":"36.03.11","KECAMATAN":"RAJEG","ID_DESA":"36.03.11.2001","DESA":"RAJEG","LATITUDE":-6.1139892,"LONGITUDE":106.5160768,"STATUS":"BUKA","TANGGAL PENGUMPULAN":"Q2 2025","TANGGAL UPDATE":"17/06/2025"}},{"type":"Feature","geometry":{"coordinates":[106.4802908,-6.2605507],"type":"Point"},"properties":{"NAMA":"PASAR BUAH","TIPE_1":"PERDAGANGAN DAN RETAIL","TIPE_2":"PASAR","TIPE_3":"PASAR TRADISIONAL","TELEPON":"","ALAMAT":"KADU AGUNG, KEC. TIGARAKSA, KABUPATEN TANGERANG, BANTEN 15720","ID_PROV":"36","PROVINSI":"BANTEN","ID_KABKOT":"36.03","KABKOT":"TANGERANG","ID_KEC":"36.03.03","KECAMATAN":"TIGARAKSA","ID_DESA":"36.03.03.1007","DESA":"KADU AGUNG","LATITUDE":-6.2605507,"LONGITUDE":106.4802908,"STATUS":"BUKA","TANGGAL PENGUMPULAN":"Q2 2025","TANGGAL UPDATE":"17/06/2025"}},{"type":"Feature","geometry":{"coordinates":[106.4812155,-6.2065015],"type":"Point"},"properties":{"NAMA":"PASAR 3 RAKSA 2","TIPE_1":"PERDAGANGAN DAN RETAIL","TIPE_2":"PASAR","TIPE_3":"PASAR TRADISIONAL","TELEPON":"","ALAMAT":"JL RAYA SERANG KM 20 CIKUPA TANGERANG BNTEN JALAN RAYA SERANG DS CIBADAK, PASIR KALONG, KEC. CIKUPA, KABUPATEN TANGERANG, BANTEN 15710","ID_PROV":"36","PROVINSI":"BANTEN","ID_KABKOT":"36.03","KABKOT":"TANGERANG","ID_KEC":"36.03.18","KECAMATAN":"CIKUPA","ID_DESA":"36.03.18.2002","DESA":"CIBADAK","LATITUDE":-6.2065015,"LONGITUDE":106.4812155,"STATUS":"BUKA","TANGGAL PENGUMPULAN":"Q2 2025","TANGGAL UPDATE":"17/06/2025"}},{"type":"Feature","geometry":{"coordinates":[106.4947473,-6.1800072],"type":"Point"},"properties":{"NAMA":"PASAR 8 SUVARNA SUTERA","TIPE_1":"PERDAGANGAN DAN RETAIL","TIPE_2":"PASAR","TIPE_3":"PASAR TRADISIONAL","TELEPON":"","ALAMAT":"PERUMAHAN SUVARNA SUTERA, JL. SUVARNA UTAMA NO.33A, WANA KERTA, KEC. SINDANG JAYA, KABUPATEN TANGERANG, BANTEN","ID_PROV":"36","PROVINSI":"BANTEN","ID_KABKOT":"36.03","KABKOT":"TANGERANG","ID_KEC":"36.03.29","KECAMATAN":"SINDANG JAYA","ID_DESA":"36.03.29.2002","DESA":"WANAKERTA","LATITUDE":-6.1800072,"LONGITUDE":106.4947473,"STATUS":"BUKA","TANGGAL PENGUMPULAN":"Q2 2025","TANGGAL UPDATE":"17/06/2025"}},{"type":"Feature","geometry":{"coordinates":[106.584554,-6.1183034],"type":"Point"},"properties":{"NAMA":"PASAR TRADISIONAL SEPATAN","TIPE_1":"PERDAGANGAN DAN RETAIL","TIPE_2":"PASAR","TIPE_3":"PASAR TRADISIONAL","TELEPON":"","ALAMAT":"JL. RAYA GATOT SOEBROTO, PONDOK JAYA, SEPATAN, TANGERANG REGENCY, BANTEN 15520","ID_PROV":"36","PROVINSI":"BANTEN","ID_KABKOT":"36.03","KABKOT":"TANGERANG","ID_KEC":"36.03.16","KECAMATAN":"SEPATAN","ID_DESA":"36.03.16.2008","DESA":"PONDOK JAYA","LATITUDE":-6.1183034,"LONGITUDE":106.584554,"STATUS":"BUKA","TANGGAL PENGUMPULAN":"Q2 2025","TANGGAL UPDATE":"17/06/2025"}},{"type":"Feature","geometry":{"coordinates":[106.6258371,-6.2968928],"type":"Point"},"properties":{"NAMA":"PASAR TRADISIONAL PAGEDANGAN","TIPE_1":"PERDAGANGAN DAN RETAIL","TIPE_2":"PASAR","TIPE_3":"PASAR TRADISIONAL","TELEPON":"","ALAMAT":"JL. RAYA PAGEDANGAN NO.45, CICALENGKA, KEC. PAGEDANGAN, KABUPATEN TANGERANG, BANTEN 15336","ID_PROV":"36","PROVINSI":"BANTEN","ID_KABKOT":"36.03","KABKOT":"TANGERANG","ID_KEC":"36.03.22","KECAMATAN":"PAGEDANGAN","ID_DESA":"36.03.22.2003","DESA":"PAGEDANGAN","LATITUDE":-6.2968928,"LONGITUDE":106.6258371,"STATUS":"BUKA","TANGGAL PENGUMPULAN":"Q2 2025","TANGGAL UPDATE":"17/06/2025"}},{"type":"Feature","geometry":{"coordinates":[106.4166647,-6.2185209],"type":"Point"},"properties":{"NAMA":"PASAR TRADISIONAL GEMBONG","TIPE_1":"PERDAGANGAN DAN RETAIL","TIPE_2":"PASAR","TIPE_3":"PASAR TRADISIONAL","TELEPON":"","ALAMAT":"JL. RAYA SERANG NO.30, RW.01, GEMBONG, KEC. BALARAJA, KABUPATEN TANGERANG, BANTEN 15610","ID_PROV":"36","PROVINSI":"BANTEN","ID_KABKOT":"36.03","KABKOT":"TANGERANG","ID_KEC":"36.03.02","KECAMATAN":"JAYANTI","ID_DESA":"36.03.02.2005","DESA":"SUMUR BANDUNG","LATITUDE":-6.2185209,"LONGITUDE":106.4166647,"STATUS":"BUKA","TANGGAL PENGUMPULAN":"Q2 2025","TANGGAL UPDATE":"17/06/2025"}},{"type":"Feature","geometry":{"coordinates":[106.5118321,-6.0612974],"type":"Point"},"properties":{"NAMA":"PASAR TRADISIONAL MAUK KABUPATEN TANGERANG","TIPE_1":"PERDAGANGAN DAN RETAIL","TIPE_2":"PASAR","TIPE_3":"PASAR TRADISIONAL","TELEPON":"","ALAMAT":"PS. MAUK, JL. INSINYUR SUTAMI, MAUK TIM., KEC. MAUK, KABUPATEN TANGERANG, BANTEN 15330","ID_PROV":"36","PROVINSI":"BANTEN","ID_KABKOT":"36.03","KABKOT":"TANGERANG","ID_KEC":"36.03.08","KECAMATAN":"MAUK","ID_DESA":"36.03.08.1002","DESA":"MAUK TIMUR","LATITUDE":-6.0612974,"LONGITUDE":106.5118321,"STATUS":"BUKA","TANGGAL PENGUMPULAN":"Q2 2025","TANGGAL UPDATE":"17/06/2025"}},{"type":"Feature","geometry":{"coordinates":[106.6874779,-6.09638],"type":"Point"},"properties":{"NAMA":"PASAR TRADISIONAL DUTA","TIPE_1":"PERDAGANGAN DAN RETAIL","TIPE_2":"PASAR","TIPE_3":"PASAR TRADISIONAL","TELEPON":"0813-8463-4003","ALAMAT":"DUTA BANDARA PERMAI, JATIMULYA, KEC. KOSAMBI, KABUPATEN TANGERANG, BANTEN 15211","ID_PROV":"36","PROVINSI":"BANTEN","ID_KABKOT":"36.03","KABKOT":"TANGERANG","ID_KEC":"36.03.14","KECAMATAN":"KOSAMBI","ID_DESA":"36.03.14.2009","DESA":"JATI MULYA","LATITUDE":-6.09638,"LONGITUDE":106.6874779,"STATUS":"BUKA","TANGGAL PENGUMPULAN":"Q2 2025","TANGGAL UPDATE":"17/06/2025"}},{"type":"Feature","geometry":{"coordinates":[106.5307267,-6.1116928],"type":"Point"},"properties":{"NAMA":"PASAR RAKYAT OMAH JATI","TIPE_1":"PERDAGANGAN DAN RETAIL","TIPE_2":"PASAR","TIPE_3":"PASAR TRADISIONAL","TELEPON":"","ALAMAT":"JL. RAYA RAJEG MULYA, RAJEG MULYA, KEC. RAJEG, KABUPATEN TANGERANG, BANTEN","ID_PROV":"36","PROVINSI":"BANTEN","ID_KABKOT":"36.03","KABKOT":"TANGERANG","ID_KEC":"36.03.11","KECAMATAN":"RAJEG","ID_DESA":"36.03.11.2002","DESA":"RAJEG MULYA","LATITUDE":-6.1116928,"LONGITUDE":106.5307267,"STATUS":"BUKA","TANGGAL PENGUMPULAN":"Q2 2025","TANGGAL UPDATE":"17/06/2025"}},{"type":"Feature","geometry":{"coordinates":[106.5988378,-6.2070644],"type":"Point"},"properties":{"NAMA":"PASAR RAKYAT","TIPE_1":"PERDAGANGAN DAN RETAIL","TIPE_2":"PASAR","TIPE_3":"PASAR TRADISIONAL","TELEPON":"0877-7148-4973","ALAMAT":"JL. KAHURIPAN I NO.6, RT.001/RW.016, UWUNG JAYA, KEC. CIBODAS, KOTA TANGERANG, BANTEN 15138","ID_PROV":"36","PROVINSI":"BANTEN","ID_KABKOT":"36.03","KABKOT":"TANGERANG","ID_KEC":"36.03.28","KECAMATAN":"KELAPA DUA","ID_DESA":"36.03.28.1002","DESA":"BENCONGAN","LATITUDE":-6.2070644,"LONGITUDE":106.5988378,"STATUS":"BUKA","TANGGAL PENGUMPULAN":"Q2 2025","TANGGAL UPDATE":"17/06/2025"}},{"type":"Feature","geometry":{"coordinates":[106.4953233,-6.2827735],"type":"Point"},"properties":{"NAMA":"PASAR MODERN MARGASARI TANGERANG","TIPE_1":"PERDAGANGAN DAN RETAIL","TIPE_2":"PASAR","TIPE_3":"PASAR MODERN","TELEPON":"","ALAMAT":"JL. RAYA MARGASARI, MARGA SARI, KEC. TIGARAKSA, KABUPATEN TANGERANG, BANTEN 15720","ID_PROV":"36","PROVINSI":"BANTEN","ID_KABKOT":"36.03","KABKOT":"TANGERANG","ID_KEC":"36.03.03","KECAMATAN":"TIGARAKSA","ID_DESA":"36.03.03.2010","DESA":"MARGASARI","LATITUDE":-6.2827735,"LONGITUDE":106.4953233,"STATUS":"BUKA","TANGGAL PENGUMPULAN":"Q2 2025","TANGGAL UPDATE":"17/06/2025"}},{"type":"Feature","geometry":{"coordinates":[106.5616167,-6.2454248],"type":"Point"},"properties":{"NAMA":"PASAR MODERN PARAMOUNT PETALS","TIPE_1":"PERDAGANGAN DAN RETAIL","TIPE_2":"PASAR","TIPE_3":"PASAR MODERN","TELEPON":"","ALAMAT":"JL. CURUG PINANG NO.54, KADU JAYA, CURUG, TANGERANG REGENCY, BANTEN 15810","ID_PROV":"36","PROVINSI":"BANTEN","ID_KABKOT":"36.03","KABKOT":"TANGERANG","ID_KEC":"36.03.17","KECAMATAN":"CURUG","ID_DESA":"36.03.17.2010","DESA":"CUKANGGALIH","LATITUDE":-6.2454248,"LONGITUDE":106.5616167,"STATUS":"BUKA","TANGGAL PENGUMPULAN":"Q2 2025","TANGGAL UPDATE":"17/06/2025"}},{"type":"Feature","geometry":{"coordinates":[106.64332669999999,-6.3201773],"type":"Point"},"properties":{"NAMA":"PASAR MODERN INTERMODA BSD CITY","TIPE_1":"PERDAGANGAN DAN RETAIL","TIPE_2":"PASAR","TIPE_3":"PASAR MODERN","TELEPON":"0881-1401-140","ALAMAT":"JL. RAYA SERPONG - CISAUK, SAMPORA, KEC. CISAUK, KABUPATEN TANGERANG, BANTEN 15345","ID_PROV":"36","PROVINSI":"BANTEN","ID_KABKOT":"36.03","KABKOT":"TANGERANG","ID_KEC":"36.03.23","KECAMATAN":"CISAUK","ID_DESA":"36.03.23.2006","DESA":"SAMPORA","LATITUDE":-6.3201773,"LONGITUDE":106.6433267,"STATUS":"BUKA","TANGGAL PENGUMPULAN":"Q2 2025","TANGGAL UPDATE":"17/06/2025"}},{"type":"Feature","geometry":{"coordinates":[106.3814906,-6.034877],"type":"Point"},"properties":{"NAMA":"PASAR TRADISIONAL JENGGOT","TIPE_1":"PERDAGANGAN DAN RETAIL","TIPE_2":"PASAR","TIPE_3":"PASAR TRADISIONAL","TELEPON":"0815-1955-4843","ALAMAT":"JENGGOT, KEC. MEKAR BARU, KABUPATEN TANGERANG, BANTEN 15550","ID_PROV":"36","PROVINSI":"BANTEN","ID_KABKOT":"36.03","KABKOT":"TANGERANG","ID_KEC":"36.03.33","KECAMATAN":"MEKAR BARU","ID_DESA":"36.03.33.2006","DESA":"JENGGOT","LATITUDE":-6.034877,"LONGITUDE":106.3814906,"STATUS":"BUKA","TANGGAL PENGUMPULAN":"Q2 2025","TANGGAL UPDATE":"17/06/2025"}},{"type":"Feature","geometry":{"coordinates":[106.6293553,-6.2730733],"type":"Point"},"properties":{"NAMA":"PASAR TRADISIONAL DAN KULINER TGS CATALINA","TIPE_1":"PERDAGANGAN DAN RETAIL","TIPE_2":"PASAR","TIPE_3":"PASAR TRADISIONAL","TELEPON":"","ALAMAT":"JL. DANAU BRATAN 5 BLOK AD5 NO.23, JL. DANAU BRATAN IV, RT.6/RW.1, MEDANG, PAGEDANGAN, TANGERANG REGENCY, BANTEN 15334","ID_PROV":"36","PROVINSI":"BANTEN","ID_KABKOT":"36.03","KABKOT":"TANGERANG","ID_KEC":"36.03.22","KECAMATAN":"PAGEDANGAN","ID_DESA":"36.03.22.1004","DESA":"MEDANG","LATITUDE":-6.2730733,"LONGITUDE":106.6293553,"STATUS":"BUKA","TANGGAL PENGUMPULAN":"Q2 2025","TANGGAL UPDATE":"17/06/2025"}},{"type":"Feature","geometry":{"coordinates":[106.5262886,-6.1668228],"type":"Point"},"properties":{"NAMA":"PASAR RAKYAT SELASA SORE","TIPE_1":"PERDAGANGAN DAN RETAIL","TIPE_2":"PASAR","TIPE_3":"PASAR TRADISIONAL","TELEPON":"","ALAMAT":"JL. RAYA KENDAL KIDUL NO.35, SINDANG PANON, KEC. SINDANG JAYA, KABUPATEN TANGERANG, BANTEN 15560","ID_PROV":"36","PROVINSI":"BANTEN","ID_KABKOT":"36.03","KABKOT":"TANGERANG","ID_KEC":"36.03.29","KECAMATAN":"SINDANG JAYA","ID_DESA":"36.03.29.2005","DESA":"SINDANGPANON","LATITUDE":-6.1668228,"LONGITUDE":106.5262886,"STATUS":"BUKA","TANGGAL PENGUMPULAN":"Q2 2025","TANGGAL UPDATE":"17/06/2025"}},{"type":"Feature","geometry":{"coordinates":[106.55865759999999,-6.2617044],"type":"Point"},"properties":{"NAMA":"PASAR TRADITIONAL CURUG MASA SEKARANG","TIPE_1":"PERDAGANGAN DAN RETAIL","TIPE_2":"PASAR","TIPE_3":"PASAR TRADISIONAL","TELEPON":"","ALAMAT":"CURUG WETAN, KEC. CURUG, KABUPATEN TANGERANG, BANTEN 15810","ID_PROV":"36","PROVINSI":"BANTEN","ID_KABKOT":"36.03","KABKOT":"TANGERANG","ID_KEC":"36.03.17","KECAMATAN":"CURUG","ID_DESA":"36.03.17.1001","DESA":"CURUG KULON","LATITUDE":-6.2617044,"LONGITUDE":106.5586576,"STATUS":"BUKA","TANGGAL PENGUMPULAN":"Q2 2025","TANGGAL UPDATE":"17/06/2025"}},{"type":"Feature","geometry":{"coordinates":[106.5083256,-6.1533284],"type":"Point"},"properties":{"NAMA":"PASAR SORE SINDANG JAYA","TIPE_1":"PERDAGANGAN DAN RETAIL","TIPE_2":"PASAR","TIPE_3":"PASAR TRADISIONAL","TELEPON":"","ALAMAT":"SINDANG JAYA, KEC. SINDANG JAYA, KABUPATEN TANGERANG, BANTEN 15560","ID_PROV":"36","PROVINSI":"BANTEN","ID_KABKOT":"36.03","KABKOT":"TANGERANG","ID_KEC":"36.03.29","KECAMATAN":"SINDANG JAYA","ID_DESA":"36.03.29.2001","DESA":"SINDANG JAYA","LATITUDE":-6.1533284,"LONGITUDE":106.5083256,"STATUS":"BUKA","TANGGAL PENGUMPULAN":"Q2 2025","TANGGAL UPDATE":"17/06/2025"}},{"type":"Feature","geometry":{"coordinates":[106.5312635,-6.1989263],"type":"Point"},"properties":{"NAMA":"PASAR TANAH MERAH","TIPE_1":"PERDAGANGAN DAN RETAIL","TIPE_2":"PASAR","TIPE_3":"PASAR TRADISIONAL","TELEPON":"","ALAMAT":"JL. PERUM BUKIT TIARA, PASIR JAYA, KEC. CIKUPA, KABUPATEN TANGERANG, BANTEN 15710","ID_PROV":"36","PROVINSI":"BANTEN","ID_KABKOT":"36.03","KABKOT":"TANGERANG","ID_KEC":"36.03.18","KECAMATAN":"CIKUPA","ID_DESA":"36.03.18.2012","DESA":"PASIR JAYA","LATITUDE":-6.1989263,"LONGITUDE":106.5312635,"STATUS":"BUKA","TANGGAL PENGUMPULAN":"Q2 2025","TANGGAL UPDATE":"17/06/2025"}},{"type":"Feature","geometry":{"coordinates":[106.4200534,-6.3268174],"type":"Point"},"properties":{"NAMA":"PASAR TAMAN ADIYASA","TIPE_1":"PERDAGANGAN DAN RETAIL","TIPE_2":"PASAR","TIPE_3":"PASAR TRADISIONAL","TELEPON":"","ALAMAT":"GG. BOUGENVILE IV, CIKUYA, KEC. SOLEAR, KABUPATEN TANGERANG, BANTEN 15730","ID_PROV":"36","PROVINSI":"BANTEN","ID_KABKOT":"36.03","KABKOT":"TANGERANG","ID_KEC":"36.03.31","KECAMATAN":"SOLEAR","ID_DESA":"36.03.31.2003","DESA":"CIKASUNGKA","LATITUDE":-6.3268174,"LONGITUDE":106.4200534,"STATUS":"BUKA","TANGGAL PENGUMPULAN":"Q2 2025","TANGGAL UPDATE":"17/06/2025"}},{"type":"Feature","geometry":{"coordinates":[106.5789417,-6.1682833],"type":"Point"},"properties":{"NAMA":"PASAR SAYUR REGENCY","TIPE_1":"PERDAGANGAN DAN RETAIL","TIPE_2":"PASAR","TIPE_3":"PASAR TRADISIONAL","TELEPON":"","ALAMAT":"KUTA JAYA, KEC. PS. KEMIS, KABUPATEN TANGERANG, BANTEN 15560","ID_PROV":"36","PROVINSI":"BANTEN","ID_KABKOT":"36.03","KABKOT":"TANGERANG","ID_KEC":"36.03.12","KECAMATAN":"PASAR KEMIS","ID_DESA":"36.03.12.2013","DESA":"GELAM JAYA","LATITUDE":-6.1682833,"LONGITUDE":106.5789417,"STATUS":"BUKA","TANGGAL PENGUMPULAN":"Q2 2025","TANGGAL UPDATE":"17/06/2025"}},{"type":"Feature","geometry":{"coordinates":[106.5748806,-6.1200565],"type":"Point"},"properties":{"NAMA":"PASAR SEPATAN","TIPE_1":"PERDAGANGAN DAN RETAIL","TIPE_2":"PASAR","TIPE_3":"PASAR TRADISIONAL","TELEPON":"","ALAMAT":"SEPATAN, KEC. SEPATAN, KABUPATEN TANGERANG, BANTEN 15520","ID_PROV":"36","PROVINSI":"BANTEN","ID_KABKOT":"36.03","KABKOT":"TANGERANG","ID_KEC":"36.03.16","KECAMATAN":"SEPATAN","ID_DESA":"36.03.16.1001","DESA":"SEPATAN","LATITUDE":-6.1200565,"LONGITUDE":106.5748806,"STATUS":"BUKA","TANGGAL PENGUMPULAN":"Q2 2025","TANGGAL UPDATE":"17/06/2025"}},{"type":"Feature","geometry":{"coordinates":[106.448576,-6.1794736],"type":"Point"},"properties":{"NAMA":"PASAR SENTIONG BALARAJA","TIPE_1":"PERDAGANGAN DAN RETAIL","TIPE_2":"PASAR","TIPE_3":"PASAR TRADISIONAL","TELEPON":"","ALAMAT":"PS. TRADISIONAL BALARAJA MAS BARU, JL. BARU PASAR SENTIONG, TOBAT, KEC. BALARAJA, KABUPATEN TANGERANG, BANTEN 15610","ID_PROV":"36","PROVINSI":"BANTEN","ID_KABKOT":"36.03","KABKOT":"TANGERANG","ID_KEC":"36.03.27","KECAMATAN":"SUKAMULYA","ID_DESA":"36.03.27.2005","DESA":"PARAHU","LATITUDE":-6.1794736,"LONGITUDE":106.448576,"STATUS":"BUKA","TANGGAL PENGUMPULAN":"Q2 2025","TANGGAL UPDATE":"17/06/2025"}},{"type":"Feature","geometry":{"coordinates":[106.56272,-6.169476],"type":"Point"},"properties":{"NAMA":"PASAR SEMENTARA PASAR KUTABUMI","TIPE_1":"PERDAGANGAN DAN RETAIL","TIPE_2":"PASAR","TIPE_3":"PASAR TRADISIONAL","TELEPON":"","ALAMAT":"JL. NN NO.57, GELAM JAYA, PASAR KEMIS, TANGERANG REGENCY, BANTEN 15560","ID_PROV":"36","PROVINSI":"BANTEN","ID_KABKOT":"36.03","KABKOT":"TANGERANG","ID_KEC":"36.03.12","KECAMATAN":"PASAR KEMIS","ID_DESA":"36.03.12.1012","DESA":"KUTA JAYA","LATITUDE":-6.169476,"LONGITUDE":106.56272,"STATUS":"BUKA","TANGGAL PENGUMPULAN":"Q2 2025","TANGGAL UPDATE":"17/06/2025"}},{"type":"Feature","geometry":{"coordinates":[106.5267624,-6.1307244],"type":"Point"},"properties":{"NAMA":"PASAR RAJEG","TIPE_1":"PERDAGANGAN DAN RETAIL","TIPE_2":"PASAR","TIPE_3":"PASAR TRADISIONAL","TELEPON":"","ALAMAT":"JL. SANTRI, SUKATANI, KEC. RAJEG, KABUPATEN TANGERANG, BANTEN 15540","ID_PROV":"36","PROVINSI":"BANTEN","ID_KABKOT":"36.03","KABKOT":"TANGERANG","ID_KEC":"36.03.11","KECAMATAN":"RAJEG","ID_DESA":"36.03.11.1010","DESA":"SUKATANI","LATITUDE":-6.1307244,"LONGITUDE":106.5267624,"STATUS":"BUKA","TANGGAL PENGUMPULAN":"Q2 2025","TANGGAL UPDATE":"17/06/2025"}},{"type":"Feature","geometry":{"coordinates":[106.5408354,-6.1644271],"type":"Point"},"properties":{"NAMA":"PASAR REGIONAL KP.PICUNG","TIPE_1":"PERDAGANGAN DAN RETAIL","TIPE_2":"PASAR","TIPE_3":"PASAR TRADISIONAL","TELEPON":"","ALAMAT":"JL. PURI JAYA, SUKAASIH, KEC. PS. KEMIS, KABUPATEN TANGERANG, BANTEN 15560","ID_PROV":"36","PROVINSI":"BANTEN","ID_KABKOT":"36.03","KABKOT":"TANGERANG","ID_KEC":"36.03.12","KECAMATAN":"PASAR KEMIS","ID_DESA":"36.03.12.2001","DESA":"PASAR KEMIS","LATITUDE":-6.1644271,"LONGITUDE":106.5408354,"STATUS":"BUKA","TANGGAL PENGUMPULAN":"Q2 2025","TANGGAL UPDATE":"17/06/2025"}},{"type":"Feature","geometry":{"coordinates":[106.529709,-6.1311432],"type":"Point"},"properties":{"NAMA":"PASAR RAYA KUKUN RAJEG","TIPE_1":"PERDAGANGAN DAN RETAIL","TIPE_2":"PASAR","TIPE_3":"PASAR TRADISIONAL","TELEPON":"0881-6151-015","ALAMAT":"RUKO BUMI ANUGERAH, JL. RAYA CADAS - KUKUN NO.RT.01/01, MEKARSARI, KEC. RAJEG, KABUPATEN TANGERANG, BANTEN 15540","ID_PROV":"36","PROVINSI":"BANTEN","ID_KABKOT":"36.03","KABKOT":"TANGERANG","ID_KEC":"36.03.11","KECAMATAN":"RAJEG","ID_DESA":"36.03.11.2014","DESA":"MEKARSARI","LATITUDE":-6.1311432,"LONGITUDE":106.529709,"STATUS":"BUKA","TANGGAL PENGUMPULAN":"Q2 2025","TANGGAL UPDATE":"17/06/2025"}},{"type":"Feature","geometry":{"coordinates":[106.5002649,-6.315861],"type":"Point"},"properties":{"NAMA":"PASAR RANCABUAYA KECAMATAN JAMBE","TIPE_1":"PERDAGANGAN DAN RETAIL","TIPE_2":"PASAR","TIPE_3":"PASAR TRADISIONAL","TELEPON":"","ALAMAT":"JL.PASAR RANCABUAYA, RANCA BUAYA, KEC. JAMBE, KABUPATEN TANGERANG, BANTEN 15720","ID_PROV":"36","PROVINSI":"BANTEN","ID_KABKOT":"36.03","KABKOT":"TANGERANG","ID_KEC":"36.03.04","KECAMATAN":"JAMBE","ID_DESA":"36.03.04.2007","DESA":"RANCA BUAYA","LATITUDE":-6.315861,"LONGITUDE":106.5002649,"STATUS":"BUKA","TANGGAL PENGUMPULAN":"Q2 2025","TANGGAL UPDATE":"17/06/2025"}},{"type":"Feature","geometry":{"coordinates":[106.53072669999999,-6.1116928],"type":"Point"},"properties":{"NAMA":"PASAR RAKYAT OMAH JATI","TIPE_1":"PERDAGANGAN DAN RETAIL","TIPE_2":"PASAR","TIPE_3":"PASAR TRADISIONAL","TELEPON":"","ALAMAT":"JL. RAYA RAJEG MULYA, RAJEG MULYA, KEC. RAJEG, KABUPATEN TANGERANG, BANTEN","ID_PROV":"36","PROVINSI":"BANTEN","ID_KABKOT":"36.03","KABKOT":"TANGERANG","ID_KEC":"36.03.11","KECAMATAN":"RAJEG","ID_DESA":"36.03.11.2002","DESA":"RAJEG MULYA","LATITUDE":-6.1116928,"LONGITUDE":106.5307267,"STATUS":"BUKA","TANGGAL PENGUMPULAN":"Q2 2025","TANGGAL UPDATE":"17/06/2025"}},{"type":"Feature","geometry":{"coordinates":[106.6290572,-6.3564788],"type":"Point"},"properties":{"NAMA":"PASAR PAGI SURADITA","TIPE_1":"PERDAGANGAN DAN RETAIL","TIPE_2":"PASAR","TIPE_3":"PASAR TRADISIONAL","TELEPON":"","ALAMAT":"SURADITA, CISAUK, TANGERANG REGENCY, BANTEN 15342","ID_PROV":"36","PROVINSI":"BANTEN","ID_KABKOT":"36.03","KABKOT":"TANGERANG","ID_KEC":"36.03.23","KECAMATAN":"CISAUK","ID_DESA":"36.03.23.2005","DESA":"SURADITA","LATITUDE":-6.3564788,"LONGITUDE":106.6290572,"STATUS":"BUKA","TANGGAL PENGUMPULAN":"Q2 2025","TANGGAL UPDATE":"17/06/2025"}},{"type":"Feature","geometry":{"coordinates":[106.421069,-6.2936334],"type":"Point"},"properties":{"NAMA":"PASAR PAGI TAMAN KIRANA","TIPE_1":"PERDAGANGAN DAN RETAIL","TIPE_2":"PASAR","TIPE_3":"PASAR TRADISIONAL","TELEPON":"","ALAMAT":"JL. TAMAN KIRANA SURYA, PASANGGRAHAN, KEC. SOLEAR, KABUPATEN TANGERANG, BANTEN 15730","ID_PROV":"36","PROVINSI":"BANTEN","ID_KABKOT":"36.03","KABKOT":"TANGERANG","ID_KEC":"36.03.31","KECAMATAN":"SOLEAR","ID_DESA":"36.03.31.2006","DESA":"PASANGGRAHAN","LATITUDE":-6.2936334,"LONGITUDE":106.421069,"STATUS":"BUKA","TANGGAL PENGUMPULAN":"Q2 2025","TANGGAL UPDATE":"17/06/2025"}},{"type":"Feature","geometry":{"coordinates":[106.51780749999999,-6.252764],"type":"Point"},"properties":{"NAMA":"PASAR PAGI GRAHA PESONA","TIPE_1":"PERDAGANGAN DAN RETAIL","TIPE_2":"PASAR","TIPE_3":"PASAR TRADISIONAL","TELEPON":"","ALAMAT":"MEKAR BAKTI, PANONGAN, TANGERANG REGENCY, BANTEN 15710","ID_PROV":"36","PROVINSI":"BANTEN","ID_KABKOT":"36.03","KABKOT":"TANGERANG","ID_KEC":"36.03.19","KECAMATAN":"PANONGAN","ID_DESA":"36.03.19.1002","DESA":"MEKAR BAKTI","LATITUDE":-6.252764,"LONGITUDE":106.5178075,"STATUS":"BUKA","TANGGAL PENGUMPULAN":"Q2 2025","TANGGAL UPDATE":"17/06/2025"}},{"type":"Feature","geometry":{"coordinates":[106.5820169,-6.231083],"type":"Point"},"properties":{"NAMA":"PASAR PEUSAR","TIPE_1":"PERDAGANGAN DAN RETAIL","TIPE_2":"PASAR","TIPE_3":"PASAR TRADISIONAL","TELEPON":"","ALAMAT":"JL. KP. PEUSAR, BINONG, CURUG, TANGERANG REGENCY, BANTEN 15810","ID_PROV":"36","PROVINSI":"BANTEN","ID_KABKOT":"36.03","KABKOT":"TANGERANG","ID_KEC":"36.03.17","KECAMATAN":"CURUG","ID_DESA":"36.03.17.1006","DESA":"BINONG","LATITUDE":-6.231083,"LONGITUDE":106.5820169,"STATUS":"BUKA","TANGGAL PENGUMPULAN":"Q2 2025","TANGGAL UPDATE":"17/06/2025"}},{"type":"Feature","geometry":{"coordinates":[106.4199755,-6.1612246],"type":"Point"},"properties":{"NAMA":"PASAR PASIRAMPO","TIPE_1":"PERDAGANGAN DAN RETAIL","TIPE_2":"PASAR","TIPE_3":"PASAR TRADISIONAL","TELEPON":"0896-6825-9569","ALAMAT":"SUKAMULYA, TANGERANG REGENCY, BANTEN 15610","ID_PROV":"36","PROVINSI":"BANTEN","ID_KABKOT":"36.03","KABKOT":"TANGERANG","ID_KEC":"36.03.27","KECAMATAN":"SUKAMULYA","ID_DESA":"36.03.27.2002","DESA":"SUKAMULYA","LATITUDE":-6.1612246,"LONGITUDE":106.4199755,"STATUS":"BUKA","TANGGAL PENGUMPULAN":"Q2 2025","TANGGAL UPDATE":"17/06/2025"}},{"type":"Feature","geometry":{"coordinates":[106.5303019,-6.2783881],"type":"Point"},"properties":{"NAMA":"PASAR PANONGAN","TIPE_1":"PERDAGANGAN DAN RETAIL","TIPE_2":"PASAR","TIPE_3":"PASAR TRADISIONAL","TELEPON":"","ALAMAT":"JL. RAYA PANONGAN NO.99, PANONGAN, KEC. PANONGAN, KABUPATEN TANGERANG, BANTEN 15710","ID_PROV":"36","PROVINSI":"BANTEN","ID_KABKOT":"36.03","KABKOT":"TANGERANG","ID_KEC":"36.03.19","KECAMATAN":"PANONGAN","ID_DESA":"36.03.19.2008","DESA":"PANONGAN","LATITUDE":-6.2783881,"LONGITUDE":106.5303019,"STATUS":"BUKA","TANGGAL PENGUMPULAN":"Q2 2025","TANGGAL UPDATE":"17/06/2025"}}]}