{"type":"FeatureCollection","features":[{"type":"Feature","geometry":{"coordinates":[107.0002424,-6.2290211],"type":"Point"},"properties":{"NAMA":"PASAR MODERN SINPASA SUMMARECON BEKASI","TIPE_1":"PERDAGANGAN DAN RETAIL","TIPE_2":"PASAR","TIPE_3":"PASAR MODERN","TELEPON":"","ALAMAT":"JL. AL-IKHLAS II NO.5, RT.003/RW.005, MARGA MULYA, KEC. BEKASI UTARA, KOTA BKS, JAWA BARAT 17124","ID_PROV":"32","PROVINSI":"JAWA BARAT","ID_KABKOT":"32.75","KABKOT":"KOTA BEKASI","ID_KEC":"32.75.03","KECAMATAN":"BEKASI UTARA","ID_DESA":"32.75.03.1005","DESA":"MARGAMULYA","LATITUDE":-6.2290211,"LONGITUDE":107.0002424,"STATUS":"BUKA","TANGGAL PENGUMPULAN":"Q2 2025","TANGGAL UPDATE":"17/06/2025"}},{"type":"Feature","geometry":{"coordinates":[107.0137477,-6.2480397],"type":"Point"},"properties":{"NAMA":"PASAR BARU BEKASI","TIPE_1":"PERDAGANGAN DAN RETAIL","TIPE_2":"PASAR","TIPE_3":"PASAR MODERN","TELEPON":"","ALAMAT":"JL. INSINYUR H. JUANDA NO.47, RT.006/RW.001, DUREN JAYA, KEC. BEKASI TIM., KOTA BKS, JAWA BARAT 17111","ID_PROV":"32","PROVINSI":"JAWA BARAT","ID_KABKOT":"32.75","KABKOT":"KOTA BEKASI","ID_KEC":"32.75.01","KECAMATAN":"BEKASI TIMUR","ID_DESA":"32.75.01.1003","DESA":"DURENJAYA","LATITUDE":-6.2480397,"LONGITUDE":107.0137477,"STATUS":"BUKA","TANGGAL PENGUMPULAN":"Q2 2025","TANGGAL UPDATE":"17/06/2025"}},{"type":"Feature","geometry":{"coordinates":[106.974798,-6.2350944],"type":"Point"},"properties":{"NAMA":"PASAR SEGAR IMAM SAYUR","TIPE_1":"PERDAGANGAN DAN RETAIL","TIPE_2":"PASAR","TIPE_3":"PASAR MODERN","TELEPON":"","ALAMAT":"RT.010/RW.006B, JAKASAMPURNA, KEC. BEKASI BAR., KOTA BKS, JAWA BARAT 17145","ID_PROV":"32","PROVINSI":"JAWA BARAT","ID_KABKOT":"32.75","KABKOT":"KOTA BEKASI","ID_KEC":"32.75.02","KECAMATAN":"BEKASI BARAT","ID_DESA":"32.75.02.1005","DESA":"JAKASAMPURNA","LATITUDE":-6.2350944,"LONGITUDE":106.974798,"STATUS":"BUKA","TANGGAL PENGUMPULAN":"Q2 2025","TANGGAL UPDATE":"17/06/2025"}}]}