{"type":"FeatureCollection","features":[{"type":"Feature","geometry":{"coordinates":[106.754831,-6.226327],"type":"Point"},"properties":{"NAMA":"PASAR ALFA INDAH","TIPE_1":"PERDAGANGAN DAN RETAIL","TIPE_2":"PASAR","TIPE_3":"PASAR TRADISIONAL","TELEPON":"","ALAMAT":"NO, JL. PALEM V NO.1B, RT.4/RW.8, PETUKANGAN UTARA, KEC. PESANGGRAHAN, KOTA JAKARTA SELATAN, DAERAH KHUSUS IBUKOTA JAKARTA 12260","ID_PROV":"31","PROVINSI":"DKI JAKARTA","ID_KABKOT":"31.74","KABKOT":"KOTA ADM. JAKARTA SELATAN","ID_KEC":"31.74.10","KECAMATAN":"PESANGGRAHAN","ID_DESA":"31.74.10.1003","DESA":"PETUKANGAN UTARA","LATITUDE":-6.226327,"LONGITUDE":106.754831,"STATUS":"BUKA","TANGGAL PENGUMPULAN":"Q2 2025","TANGGAL UPDATE":"17/06/2025"}},{"type":"Feature","geometry":{"coordinates":[106.7891289,-6.295371],"type":"Point"},"properties":{"NAMA":"PASAR ANYAR","TIPE_1":"PERDAGANGAN DAN RETAIL","TIPE_2":"PASAR","TIPE_3":"PASAR TRADISIONAL","TELEPON":"","ALAMAT":"JL. H. JAYA I NO.66, RT.2/RW.4, CILANDAK BAR., KEC. CILANDAK, KOTA JAKARTA SELATAN, DAERAH KHUSUS IBUKOTA JAKARTA 12430","ID_PROV":"31","PROVINSI":"DKI JAKARTA","ID_KABKOT":"31.74","KABKOT":"KOTA ADM. JAKARTA SELATAN","ID_KEC":"31.74.06","KECAMATAN":"CILANDAK","ID_DESA":"31.74.06.1001","DESA":"CILANDAK BARAT","LATITUDE":-6.295371,"LONGITUDE":106.7891289,"STATUS":"BUKA","TANGGAL PENGUMPULAN":"Q2 2025","TANGGAL UPDATE":"17/06/2025"}},{"type":"Feature","geometry":{"coordinates":[106.8337928,-6.2446423],"type":"Point"},"properties":{"NAMA":"PASAR AR RIYADH","TIPE_1":"PERDAGANGAN DAN RETAIL","TIPE_2":"PASAR","TIPE_3":"PASAR TRADISIONAL","TELEPON":"","ALAMAT":"JL. TEGAL PARANG UTARA IV, RT.7/RW.4, MAMPANG PRPT., KEC. MAMPANG PRPT., KOTA JAKARTA SELATAN, DAERAH KHUSUS IBUKOTA JAKARTA 12790","ID_PROV":"31","PROVINSI":"DKI JAKARTA","ID_KABKOT":"31.74","KABKOT":"KOTA ADM. JAKARTA SELATAN","ID_KEC":"31.74.03","KECAMATAN":"MAMPANG PRAPATAN","ID_DESA":"31.74.03.1001","DESA":"MAMPANG PRAPATAN","LATITUDE":-6.2446423,"LONGITUDE":106.8337928,"STATUS":"BUKA","TANGGAL PENGUMPULAN":"Q2 2025","TANGGAL UPDATE":"17/06/2025"}},{"type":"Feature","geometry":{"coordinates":[106.8514606,-6.2632786],"type":"Point"},"properties":{"NAMA":"PASAR BATU MERAH","TIPE_1":"PERDAGANGAN DAN RETAIL","TIPE_2":"PASAR","TIPE_3":"PASAR TRADISIONAL","TELEPON":"","ALAMAT":"JL. BATU MERAH IV NO.8, RT.8/RW.2, EAST PEJATEN, PASAR MINGGU, SOUTH JAKARTA CITY, JAKARTA 12510","ID_PROV":"31","PROVINSI":"DKI JAKARTA","ID_KABKOT":"31.74","KABKOT":"KOTA ADM. JAKARTA SELATAN","ID_KEC":"31.74.04","KECAMATAN":"PASAR MINGGU","ID_DESA":"31.74.04.1005","DESA":"PEJATEN TIMUR","LATITUDE":-6.2632786,"LONGITUDE":106.8514606,"STATUS":"BUKA","TANGGAL PENGUMPULAN":"Q2 2025","TANGGAL UPDATE":"17/06/2025"}},{"type":"Feature","geometry":{"coordinates":[106.8636103,-6.2350484],"type":"Point"},"properties":{"NAMA":"PASAR BENGONG","TIPE_1":"PERDAGANGAN DAN RETAIL","TIPE_2":"PASAR","TIPE_3":"PASAR TRADISIONAL","TELEPON":"","ALAMAT":"JL.H BAWAH, KB. BARU, KEC. TEBET, KOTA JAKARTA SELATAN, DAERAH KHUSUS IBUKOTA JAKARTA","ID_PROV":"31","PROVINSI":"DKI JAKARTA","ID_KABKOT":"31.74","KABKOT":"KOTA ADM. JAKARTA SELATAN","ID_KEC":"31.74.01","KECAMATAN":"TEBET","ID_DESA":"31.74.01.1004","DESA":"KEBON BARU","LATITUDE":-6.2350484,"LONGITUDE":106.8636103,"STATUS":"BUKA","TANGGAL PENGUMPULAN":"Q2 2025","TANGGAL UPDATE":"17/06/2025"}},{"type":"Feature","geometry":{"coordinates":[106.7715518,-6.2335115],"type":"Point"},"properties":{"NAMA":"PASAR CIDODOL","TIPE_1":"PERDAGANGAN DAN RETAIL","TIPE_2":"PASAR","TIPE_3":"PASAR TRADISIONAL","TELEPON":"","ALAMAT":"PS. CIDODOL, JL. PANJANG NO.4, RT.16/RW.9, CIPULIR, KEC. KBY. LAMA, KOTA JAKARTA SELATAN, DAERAH KHUSUS IBUKOTA JAKARTA 12230","ID_PROV":"31","PROVINSI":"DKI JAKARTA","ID_KABKOT":"31.74","KABKOT":"KOTA ADM. JAKARTA SELATAN","ID_KEC":"31.74.05","KECAMATAN":"KEBAYORAN LAMA","ID_DESA":"31.74.05.1003","DESA":"CIPULIR","LATITUDE":-6.2335115,"LONGITUDE":106.7715518,"STATUS":"BUKA","TANGGAL PENGUMPULAN":"Q2 2025","TANGGAL UPDATE":"17/06/2025"}},{"type":"Feature","geometry":{"coordinates":[106.8080673,-6.2786732],"type":"Point"},"properties":{"NAMA":"PASAR CIPETE SELATAN","TIPE_1":"PERDAGANGAN DAN RETAIL","TIPE_2":"PASAR","TIPE_3":"PASAR TRADISIONAL","TELEPON":"","ALAMAT":"JL. PANGERAN ANTASARI NO.30, RT.9/RW.4, CIPETE SEL., KEC. CILANDAK, KOTA JAKARTA SELATAN, DAERAH KHUSUS IBUKOTA JAKARTA 12410","ID_PROV":"31","PROVINSI":"DKI JAKARTA","ID_KABKOT":"31.74","KABKOT":"KOTA ADM. JAKARTA SELATAN","ID_KEC":"31.74.06","KECAMATAN":"CILANDAK","ID_DESA":"31.74.06.1001","DESA":"CILANDAK BARAT","LATITUDE":-6.2786732,"LONGITUDE":106.8080673,"STATUS":"BUKA","TANGGAL PENGUMPULAN":"Q2 2025","TANGGAL UPDATE":"17/06/2025"}},{"type":"Feature","geometry":{"coordinates":[106.8300686,-6.2230351],"type":"Point"},"properties":{"NAMA":"PASAR CIPLAK","TIPE_1":"PERDAGANGAN DAN RETAIL","TIPE_2":"PASAR","TIPE_3":"PASAR TRADISIONAL","TELEPON":"","ALAMAT":"JL. PEDURENAN MESJID 1, KUNINGAN, KARET KUNINGAN, KECAMATAN SETIABUDI, KOTA JAKARTA SELATAN, DAERAH KHUSUS IBUKOTA JAKARTA 12940","ID_PROV":"31","PROVINSI":"DKI JAKARTA","ID_KABKOT":"31.74","KABKOT":"KOTA ADM. JAKARTA SELATAN","ID_KEC":"31.74.02","KECAMATAN":"SETIABUDI","ID_DESA":"31.74.02.1003","DESA":"KARET KUNINGAN","LATITUDE":-6.2230351,"LONGITUDE":106.8300686,"STATUS":"BUKA","TANGGAL PENGUMPULAN":"Q2 2025","TANGGAL UPDATE":"17/06/2025"}},{"type":"Feature","geometry":{"coordinates":[106.8447275,-6.2836652],"type":"Point"},"properties":{"NAMA":"PASAR CIRACAS","TIPE_1":"PERDAGANGAN DAN RETAIL","TIPE_2":"PASAR","TIPE_3":"PASAR TRADISIONAL","TELEPON":"","ALAMAT":"JL. RAYA PASAR MINGGU, PEJATEN TIMUR, PS. MINGGU, KOTA JAKARTA SELATAN, DAERAH KHUSUS IBUKOTA JAKARTA","ID_PROV":"31","PROVINSI":"DKI JAKARTA","ID_KABKOT":"31.74","KABKOT":"KOTA ADM. JAKARTA SELATAN","ID_KEC":"31.74.04","KECAMATAN":"PASAR MINGGU","ID_DESA":"31.74.04.1005","DESA":"PEJATEN TIMUR","LATITUDE":-6.2836652,"LONGITUDE":106.8447275,"STATUS":"BUKA","TANGGAL PENGUMPULAN":"Q2 2025","TANGGAL UPDATE":"17/06/2025"}},{"type":"Feature","geometry":{"coordinates":[106.7761552,-6.2650588],"type":"Point"},"properties":{"NAMA":"PASAR DEPROK","TIPE_1":"PERDAGANGAN DAN RETAIL","TIPE_2":"PASAR","TIPE_3":"PASAR TRADISIONAL","TELEPON":"","ALAMAT":"JL. PD. PINANG 3 NO.55C 4, RT.11/RW.2, PD. PINANG, KEC. KBY. LAMA, KOTA JAKARTA SELATAN, DAERAH KHUSUS IBUKOTA JAKARTA 12310","ID_PROV":"31","PROVINSI":"DKI JAKARTA","ID_KABKOT":"31.74","KABKOT":"KOTA ADM. JAKARTA SELATAN","ID_KEC":"31.74.05","KECAMATAN":"KEBAYORAN LAMA","ID_DESA":"31.74.05.1002","DESA":"PONDOK PINANG","LATITUDE":-6.2650588,"LONGITUDE":106.7761552,"STATUS":"BUKA","TANGGAL PENGUMPULAN":"Q2 2025","TANGGAL UPDATE":"17/06/2025"}},{"type":"Feature","geometry":{"coordinates":[106.8478541,-6.2389614],"type":"Point"},"properties":{"NAMA":"PASAR GROSIR TRADISIONAL VILA MUTIARA TEBET","TIPE_1":"PERDAGANGAN DAN RETAIL","TIPE_2":"PASAR","TIPE_3":"PASAR TRADISIONAL","TELEPON":"","ALAMAT":"JL. TEBET BARAT IX NO.66 6, RT.6/RW.4, TEBET BAR., KEC. TEBET, KOTA JAKARTA SELATAN, DAERAH KHUSUS IBUKOTA JAKARTA 12810","ID_PROV":"31","PROVINSI":"DKI JAKARTA","ID_KABKOT":"31.74","KABKOT":"KOTA ADM. JAKARTA SELATAN","ID_KEC":"31.74.01","KECAMATAN":"TEBET","ID_DESA":"31.74.01.1002","DESA":"TEBET BARAT","LATITUDE":-6.2389614,"LONGITUDE":106.8478541,"STATUS":"BUKA","TANGGAL PENGUMPULAN":"Q2 2025","TANGGAL UPDATE":"17/06/2025"}},{"type":"Feature","geometry":{"coordinates":[106.8254186,-6.240944],"type":"Point"},"properties":{"NAMA":"PASAR JAYA","TIPE_1":"PERDAGANGAN DAN RETAIL","TIPE_2":"PASAR","TIPE_3":"PASAR TRADISIONAL","TELEPON":"","ALAMAT":"MAMPANG PRPT., KEC. MAMPANG PRPT., KOTA JAKARTA SELATAN, DAERAH KHUSUS IBUKOTA JAKARTA","ID_PROV":"31","PROVINSI":"DKI JAKARTA","ID_KABKOT":"31.74","KABKOT":"KOTA ADM. JAKARTA SELATAN","ID_KEC":"31.74.03","KECAMATAN":"MAMPANG PRAPATAN","ID_DESA":"31.74.03.1001","DESA":"MAMPANG PRAPATAN","LATITUDE":-6.240944,"LONGITUDE":106.8254186,"STATUS":"BUKA","TANGGAL PENGUMPULAN":"Q2 2025","TANGGAL UPDATE":"17/06/2025"}},{"type":"Feature","geometry":{"coordinates":[106.8540493,-6.2182263],"type":"Point"},"properties":{"NAMA":"PASAR JAYA BUKIT DURI","TIPE_1":"PERDAGANGAN DAN RETAIL","TIPE_2":"PASAR","TIPE_3":"PASAR TRADISIONAL","TELEPON":"(021) 8280313","ALAMAT":"PS. JAYA BUKIT DURI, JL. BUKIT DURI BARAT NO.RT.8 8, RT.7/RW.1, BUKIT DURI, KEC. TEBET, KOTA JAKARTA SELATAN, DAERAH KHUSUS IBUKOTA JAKARTA 12840","ID_PROV":"31","PROVINSI":"DKI JAKARTA","ID_KABKOT":"31.74","KABKOT":"KOTA ADM. JAKARTA SELATAN","ID_KEC":"31.74.01","KECAMATAN":"TEBET","ID_DESA":"31.74.01.1005","DESA":"BUKIT DURI","LATITUDE":-6.2182263,"LONGITUDE":106.8540493,"STATUS":"BUKA","TANGGAL PENGUMPULAN":"Q2 2025","TANGGAL UPDATE":"17/06/2025"}},{"type":"Feature","geometry":{"coordinates":[106.8415036,-6.2289801],"type":"Point"},"properties":{"NAMA":"PASAR JONGKOK","TIPE_1":"PERDAGANGAN DAN RETAIL","TIPE_2":"PASAR","TIPE_3":"PASAR TRADISIONAL","TELEPON":"","ALAMAT":"JL. PENINGKATAN II NO.27 9, RT.9/RW.3, MENTENG DALAM, KEC. TEBET, KOTA JAKARTA SELATAN, DAERAH KHUSUS IBUKOTA JAKARTA 12870","ID_PROV":"31","PROVINSI":"DKI JAKARTA","ID_KABKOT":"31.74","KABKOT":"KOTA ADM. JAKARTA SELATAN","ID_KEC":"31.74.01","KECAMATAN":"TEBET","ID_DESA":"31.74.01.1003","DESA":"MENTENG DALAM","LATITUDE":-6.2289801,"LONGITUDE":106.8415036,"STATUS":"BUKA","TANGGAL PENGUMPULAN":"Q2 2025","TANGGAL UPDATE":"17/06/2025"}},{"type":"Feature","geometry":{"coordinates":[106.8150885,-6.2268874],"type":"Point"},"properties":{"NAMA":"PASAR JUMAT KPDJP","TIPE_1":"PERDAGANGAN DAN RETAIL","TIPE_2":"PASAR","TIPE_3":"PASAR TRADISIONAL","TELEPON":"","ALAMAT":"RT.7/RW.1, SENAYAN, KEBAYORAN BARU, SOUTH JAKARTA CITY, JAKARTA 12190","ID_PROV":"31","PROVINSI":"DKI JAKARTA","ID_KABKOT":"31.74","KABKOT":"KOTA ADM. JAKARTA SELATAN","ID_KEC":"31.74.07","KECAMATAN":"KEBAYORAN BARU","ID_DESA":"31.74.07.1006","DESA":"SENAYAN","LATITUDE":-6.2268874,"LONGITUDE":106.8150885,"STATUS":"BUKA","TANGGAL PENGUMPULAN":"Q2 2025","TANGGAL UPDATE":"17/06/2025"}},{"type":"Feature","geometry":{"coordinates":[106.8482447,-6.2189125],"type":"Point"},"properties":{"NAMA":"PASAR KAGET","TIPE_1":"PERDAGANGAN DAN RETAIL","TIPE_2":"PASAR","TIPE_3":"PASAR TRADISIONAL","TELEPON":"","ALAMAT":"JL. SAWO IV NO.3, RT.2/RW.8, MANGGARAI SEL., KEC. TEBET, KOTA JAKARTA SELATAN, DAERAH KHUSUS IBUKOTA JAKARTA 12860","ID_PROV":"31","PROVINSI":"DKI JAKARTA","ID_KABKOT":"31.74","KABKOT":"KOTA ADM. JAKARTA SELATAN","ID_KEC":"31.74.01","KECAMATAN":"TEBET","ID_DESA":"31.74.01.1006","DESA":"MANGGARAI SELATAN","LATITUDE":-6.2189125,"LONGITUDE":106.8482447,"STATUS":"BUKA","TANGGAL PENGUMPULAN":"Q2 2025","TANGGAL UPDATE":"17/06/2025"}},{"type":"Feature","geometry":{"coordinates":[106.837765,-6.259658],"type":"Point"},"properties":{"NAMA":"PASAR KAGET","TIPE_1":"PERDAGANGAN DAN RETAIL","TIPE_2":"PASAR","TIPE_3":"PASAR TRADISIONAL","TELEPON":"","ALAMAT":"JL. KALIBATA UTARA V NO.38 10, RT.13/RW.2, KALIBATA, KEC. PANCORAN, KOTA JAKARTA SELATAN, DAERAH KHUSUS IBUKOTA JAKARTA 12760","ID_PROV":"31","PROVINSI":"DKI JAKARTA","ID_KABKOT":"31.74","KABKOT":"KOTA ADM. JAKARTA SELATAN","ID_KEC":"31.74.08","KECAMATAN":"PANCORAN","ID_DESA":"31.74.08.1002","DESA":"KALIBATA","LATITUDE":-6.259658,"LONGITUDE":106.837765,"STATUS":"BUKA","TANGGAL PENGUMPULAN":"Q2 2025","TANGGAL UPDATE":"17/06/2025"}},{"type":"Feature","geometry":{"coordinates":[106.8345998,-6.3049561],"type":"Point"},"properties":{"NAMA":"PASAR KAGET BAUNG","TIPE_1":"PERDAGANGAN DAN RETAIL","TIPE_2":"PASAR","TIPE_3":"PASAR TRADISIONAL","TELEPON":"0878-7627-9000","ALAMAT":"JL. BAUNG NO.28 3, RT.10/RW.1, LENTENG AGUNG, KEC. JAGAKARSA, KOTA JAKARTA SELATAN, DAERAH KHUSUS IBUKOTA JAKARTA 12530","ID_PROV":"31","PROVINSI":"DKI JAKARTA","ID_KABKOT":"31.74","KABKOT":"KOTA ADM. JAKARTA SELATAN","ID_KEC":"31.74.04","KECAMATAN":"PASAR MINGGU","ID_DESA":"31.74.04.1007","DESA":"KEBAGUSAN","LATITUDE":-6.3049561,"LONGITUDE":106.8345998,"STATUS":"BUKA","TANGGAL PENGUMPULAN":"Q2 2025","TANGGAL UPDATE":"17/06/2025"}},{"type":"Feature","geometry":{"coordinates":[106.7724746,-6.2874498],"type":"Point"},"properties":{"NAMA":"PASAR KAGET KOMPLEK PU","TIPE_1":"PERDAGANGAN DAN RETAIL","TIPE_2":"PASAR","TIPE_3":"PASAR TRADISIONAL","TELEPON":"","ALAMAT":"RT.7/RW.10, PD. PINANG, KEC. KBY. LAMA, KOTA JAKARTA SELATAN, DAERAH KHUSUS IBUKOTA JAKARTA 12310","ID_PROV":"31","PROVINSI":"DKI JAKARTA","ID_KABKOT":"31.74","KABKOT":"KOTA ADM. JAKARTA SELATAN","ID_KEC":"31.74.05","KECAMATAN":"KEBAYORAN LAMA","ID_DESA":"31.74.05.1002","DESA":"PONDOK PINANG","LATITUDE":-6.2874498,"LONGITUDE":106.7724746,"STATUS":"BUKA","TANGGAL PENGUMPULAN":"Q2 2025","TANGGAL UPDATE":"17/06/2025"}},{"type":"Feature","geometry":{"coordinates":[106.8566456,-6.2505077],"type":"Point"},"properties":{"NAMA":"PASAR KAGET PENGADEGAN","TIPE_1":"PERDAGANGAN DAN RETAIL","TIPE_2":"PASAR","TIPE_3":"PASAR TRADISIONAL","TELEPON":"","ALAMAT":"PENGADEGAN, KEC. PANCORAN, KOTA JAKARTA SELATAN, DAERAH KHUSUS IBUKOTA JAKARTA","ID_PROV":"31","PROVINSI":"DKI JAKARTA","ID_KABKOT":"31.74","KABKOT":"KOTA ADM. JAKARTA SELATAN","ID_KEC":"31.74.08","KECAMATAN":"PANCORAN","ID_DESA":"31.74.08.1005","DESA":"PENGADEGAN","LATITUDE":-6.2505077,"LONGITUDE":106.8566456,"STATUS":"BUKA","TANGGAL PENGUMPULAN":"Q2 2025","TANGGAL UPDATE":"17/06/2025"}},{"type":"Feature","geometry":{"coordinates":[106.8201455,-6.2210453],"type":"Point"},"properties":{"NAMA":"PASAR KARET PEDURENAN","TIPE_1":"PERDAGANGAN DAN RETAIL","TIPE_2":"PASAR","TIPE_3":"PASAR TRADISIONAL","TELEPON":"","ALAMAT":"JL. KARET BELAKANG BARAT NO.12940, RT.3/RW.3, KARET KUNINGAN, KECAMATAN SETIABUDI, KOTA JAKARTA SELATAN, DAERAH KHUSUS IBUKOTA JAKARTA 12940","ID_PROV":"31","PROVINSI":"DKI JAKARTA","ID_KABKOT":"31.74","KABKOT":"KOTA ADM. JAKARTA SELATAN","ID_KEC":"31.74.02","KECAMATAN":"SETIABUDI","ID_DESA":"31.74.02.1002","DESA":"KARET SEMANGGI","LATITUDE":-6.2210453,"LONGITUDE":106.8201455,"STATUS":"BUKA","TANGGAL PENGUMPULAN":"Q2 2025","TANGGAL UPDATE":"17/06/2025"}},{"type":"Feature","geometry":{"coordinates":[106.8152903,-6.2456421],"type":"Point"},"properties":{"NAMA":"PASAR KECIL PELA MAMPANG","TIPE_1":"PERDAGANGAN DAN RETAIL","TIPE_2":"PASAR","TIPE_3":"PASAR TRADISIONAL","TELEPON":"0818-0463-0220","ALAMAT":"JL. BANGKA RAYA NO.39 1, RT.1/RW.11, PELA MAMPANG, KEC. MAMPANG PRPT., KOTA JAKARTA SELATAN, DAERAH KHUSUS IBUKOTA JAKARTA 12720","ID_PROV":"31","PROVINSI":"DKI JAKARTA","ID_KABKOT":"31.74","KABKOT":"KOTA ADM. JAKARTA SELATAN","ID_KEC":"31.74.03","KECAMATAN":"MAMPANG PRAPATAN","ID_DESA":"31.74.03.1003","DESA":"PELA MAMPANG","LATITUDE":-6.2456421,"LONGITUDE":106.8152903,"STATUS":"BUKA","TANGGAL PENGUMPULAN":"Q2 2025","TANGGAL UPDATE":"17/06/2025"}},{"type":"Feature","geometry":{"coordinates":[106.784165,-6.2499741],"type":"Point"},"properties":{"NAMA":"PASAR KEDIP","TIPE_1":"PERDAGANGAN DAN RETAIL","TIPE_2":"PASAR","TIPE_3":"PASAR TRADISIONAL","TELEPON":"0812-8762-274","ALAMAT":"JL. PS. KEDIP. P NO.7 4, RT.7/RW.12, KBY. LAMA SEL., KEC. KBY. LAMA, KOTA JAKARTA SELATAN, DAERAH KHUSUS IBUKOTA JAKARTA 12240","ID_PROV":"31","PROVINSI":"DKI JAKARTA","ID_KABKOT":"31.74","KABKOT":"KOTA ADM. JAKARTA SELATAN","ID_KEC":"31.74.05","KECAMATAN":"KEBAYORAN LAMA","ID_DESA":"31.74.05.1006","DESA":"KEBAYORAN LAMA SELATAN","LATITUDE":-6.2499741,"LONGITUDE":106.784165,"STATUS":"BUKA","TANGGAL PENGUMPULAN":"Q2 2025","TANGGAL UPDATE":"17/06/2025"}},{"type":"Feature","geometry":{"coordinates":[106.8328422,-6.3313319],"type":"Point"},"properties":{"NAMA":"PASAR LENTENG AGUNG","TIPE_1":"PERDAGANGAN DAN RETAIL","TIPE_2":"PASAR","TIPE_3":"PASAR TRADISIONAL","TELEPON":"","ALAMAT":"JL. RAYA JAGAKARSA NO.3, RT.3/RW.1, LENTENG AGUNG, KEC. JAGAKARSA, KOTA JAKARTA SELATAN, DAERAH KHUSUS IBUKOTA JAKARTA 12630","ID_PROV":"31","PROVINSI":"DKI JAKARTA","ID_KABKOT":"31.74","KABKOT":"KOTA ADM. JAKARTA SELATAN","ID_KEC":"31.74.09","KECAMATAN":"JAGAKARSA","ID_DESA":"31.74.09.1001","DESA":"JAGAKARSA","LATITUDE":-6.3313319,"LONGITUDE":106.8328422,"STATUS":"BUKA","TANGGAL PENGUMPULAN":"Q2 2025","TANGGAL UPDATE":"17/06/2025"}},{"type":"Feature","geometry":{"coordinates":[106.7823166,-6.23873],"type":"Point"},"properties":{"NAMA":"PASAR LOAK KEBAYORAN","TIPE_1":"PERDAGANGAN DAN RETAIL","TIPE_2":"PASAR","TIPE_3":"PASAR TRADISIONAL","TELEPON":"","ALAMAT":"JL. CILEDUG RAYA NO.17 2, RT.5/RW.1, KBY. LAMA UTARA, KEC. KBY. LAMA, KOTA JAKARTA SELATAN, DAERAH KHUSUS IBUKOTA JAKARTA 12220","ID_PROV":"31","PROVINSI":"DKI JAKARTA","ID_KABKOT":"31.74","KABKOT":"KOTA ADM. JAKARTA SELATAN","ID_KEC":"31.74.05","KECAMATAN":"KEBAYORAN LAMA","ID_DESA":"31.74.05.1001","DESA":"KEBAYORAN LAMA UTARA","LATITUDE":-6.23873,"LONGITUDE":106.7823166,"STATUS":"BUKA","TANGGAL PENGUMPULAN":"Q2 2025","TANGGAL UPDATE":"17/06/2025"}},{"type":"Feature","geometry":{"coordinates":[106.8431664,-6.228768],"type":"Point"},"properties":{"NAMA":"PASAR MALAM MENTENG DALAM ","TIPE_1":"PERDAGANGAN DAN RETAIL","TIPE_2":"PASAR","TIPE_3":"PASAR TRADISIONAL","TELEPON":"0895-2805-8922","ALAMAT":"JL. PERSADA 2 NO.58-62, RT.12/RW.15, MENTENG DALAM, KEC. TEBET, KOTA JAKARTA SELATAN, DAERAH KHUSUS IBUKOTA JAKARTA 12870","ID_PROV":"31","PROVINSI":"DKI JAKARTA","ID_KABKOT":"31.74","KABKOT":"KOTA ADM. JAKARTA SELATAN","ID_KEC":"31.74.01","KECAMATAN":"TEBET","ID_DESA":"31.74.01.1003","DESA":"MENTENG DALAM","LATITUDE":-6.228768,"LONGITUDE":106.8431664,"STATUS":"BUKA","TANGGAL PENGUMPULAN":"Q2 2025","TANGGAL UPDATE":"17/06/2025"}},{"type":"Feature","geometry":{"coordinates":[106.7891257,-6.289362],"type":"Point"},"properties":{"NAMA":"PASAR MALEM MUHASYIM CILANDAK BARAT","TIPE_1":"PERDAGANGAN DAN RETAIL","TIPE_2":"PASAR","TIPE_3":"PASAR TRADISIONAL","TELEPON":"","ALAMAT":"JL. KH MUHASIM BUNTU BLOK MUHASIM 4 NO.57, RT.13/RW.6, WEST CILANDAK, CILANDAK, SOUTH JAKARTA CITY, JAKARTA 12430","ID_PROV":"31","PROVINSI":"DKI JAKARTA","ID_KABKOT":"31.74","KABKOT":"KOTA ADM. JAKARTA SELATAN","ID_KEC":"31.74.06","KECAMATAN":"CILANDAK","ID_DESA":"31.74.06.1001","DESA":"CILANDAK BARAT","LATITUDE":-6.289362,"LONGITUDE":106.7891257,"STATUS":"BUKA","TANGGAL PENGUMPULAN":"Q2 2025","TANGGAL UPDATE":"17/06/2025"}},{"type":"Feature","geometry":{"coordinates":[106.7910006,-6.2409434],"type":"Point"},"properties":{"NAMA":"PASAR MAYESTIK","TIPE_1":"PERDAGANGAN DAN RETAIL","TIPE_2":"PASAR","TIPE_3":"PASAR MODERN","TELEPON":"","ALAMAT":"JL. TEBAH III NO.3, GUNUNG, KEC. KBY. BARU, KOTA JAKARTA SELATAN, DAERAH KHUSUS IBUKOTA JAKARTA 12120","ID_PROV":"31","PROVINSI":"DKI JAKARTA","ID_KABKOT":"31.74","KABKOT":"KOTA ADM. JAKARTA SELATAN","ID_KEC":"31.74.07","KECAMATAN":"KEBAYORAN BARU","ID_DESA":"31.74.07.1002","DESA":"GUNUNG","LATITUDE":-6.2409434,"LONGITUDE":106.7910006,"STATUS":"BUKA","TANGGAL PENGUMPULAN":"Q2 2025","TANGGAL UPDATE":"17/06/2025"}},{"type":"Feature","geometry":{"coordinates":[106.7952821,-6.2867693],"type":"Point"},"properties":{"NAMA":"PASAR MEDE PD. PASAR JAYA","TIPE_1":"PERDAGANGAN DAN RETAIL","TIPE_2":"PASAR","TIPE_3":"PASAR TRADISIONAL","TELEPON":"(021) 75901619","ALAMAT":"JL. R.S. FATMAWATI RAYA, RT.2/RW.5, CILANDAK BAR., KEC. CILANDAK, KOTA JAKARTA SELATAN, DAERAH KHUSUS IBUKOTA JAKARTA 12420","ID_PROV":"31","PROVINSI":"DKI JAKARTA","ID_KABKOT":"31.74","KABKOT":"KOTA ADM. JAKARTA SELATAN","ID_KEC":"31.74.06","KECAMATAN":"CILANDAK","ID_DESA":"31.74.06.1001","DESA":"CILANDAK BARAT","LATITUDE":-6.2867693,"LONGITUDE":106.7952821,"STATUS":"BUKA","TANGGAL PENGUMPULAN":"Q2 2025","TANGGAL UPDATE":"17/06/2025"}},{"type":"Feature","geometry":{"coordinates":[106.8259789,-6.2137623],"type":"Point"},"properties":{"NAMA":"PASAR MENCOS","TIPE_1":"PERDAGANGAN DAN RETAIL","TIPE_2":"PASAR","TIPE_3":"PASAR TRADISIONAL","TELEPON":"","ALAMAT":"JL. KARET BELAKANG BARAT NO.2 11, RT.11/RW.4, KUNINGAN, KARET, KECAMATAN SETIABUDI, KOTA JAKARTA SELATAN, DAERAH KHUSUS IBUKOTA JAKARTA 12920","ID_PROV":"31","PROVINSI":"DKI JAKARTA","ID_KABKOT":"31.74","KABKOT":"KOTA ADM. JAKARTA SELATAN","ID_KEC":"31.74.02","KECAMATAN":"SETIABUDI","ID_DESA":"31.74.02.1004","DESA":"KARET","LATITUDE":-6.2137623,"LONGITUDE":106.8259789,"STATUS":"BUKA","TANGGAL PENGUMPULAN":"Q2 2025","TANGGAL UPDATE":"17/06/2025"}},{"type":"Feature","geometry":{"coordinates":[106.8422878,-6.2149355],"type":"Point"},"properties":{"NAMA":"PASAR MINANGKABAU","TIPE_1":"PERDAGANGAN DAN RETAIL","TIPE_2":"PASAR","TIPE_3":"PASAR TRADISIONAL","TELEPON":"0882-1180-2137","ALAMAT":"JL. MINANGKABAU DALAM II, RT.5/RW.6, MENTENG ATAS, KECAMATAN SETIABUDI, KOTA JAKARTA SELATAN, DAERAH KHUSUS IBUKOTA JAKARTA 12960","ID_PROV":"31","PROVINSI":"DKI JAKARTA","ID_KABKOT":"31.74","KABKOT":"KOTA ADM. JAKARTA SELATAN","ID_KEC":"31.74.02","KECAMATAN":"SETIABUDI","ID_DESA":"31.74.02.1005","DESA":"MENTENG ATAS","LATITUDE":-6.2149355,"LONGITUDE":106.8422878,"STATUS":"BUKA","TANGGAL PENGUMPULAN":"Q2 2025","TANGGAL UPDATE":"17/06/2025"}},{"type":"Feature","geometry":{"coordinates":[106.8435569,-6.2821256],"type":"Point"},"properties":{"NAMA":"PASAR MINGGU 0701","TIPE_1":"PERDAGANGAN DAN RETAIL","TIPE_2":"PASAR","TIPE_3":"PASAR TRADISIONAL","TELEPON":"","ALAMAT":"JL, GG. GAYA, RT.7/RW.1, KEL, PS. MINGGU, KOTA JAKARTA SELATAN, DAERAH KHUSUS IBUKOTA JAKARTA 12520","ID_PROV":"31","PROVINSI":"DKI JAKARTA","ID_KABKOT":"31.74","KABKOT":"KOTA ADM. JAKARTA SELATAN","ID_KEC":"31.74.04","KECAMATAN":"PASAR MINGGU","ID_DESA":"31.74.04.1001","DESA":"PASAR MINGGU","LATITUDE":-6.2821256,"LONGITUDE":106.8435569,"STATUS":"BUKA","TANGGAL PENGUMPULAN":"Q2 2025","TANGGAL UPDATE":"17/06/2025"}},{"type":"Feature","geometry":{"coordinates":[106.8520949,-6.2572695],"type":"Point"},"properties":{"NAMA":"PASAR MINI AKASIA","TIPE_1":"PERDAGANGAN DAN RETAIL","TIPE_2":"PASAR","TIPE_3":"PASAR TRADISIONAL","TELEPON":"0853-3534-5234","ALAMAT":"NO.9, KALIBATA CITY BLOK ABM, RT.9/RW.4, RAWAJATI, KEC. PANCORAN, KOTA JAKARTA SELATAN, DAERAH KHUSUS IBUKOTA JAKARTA 12750","ID_PROV":"31","PROVINSI":"DKI JAKARTA","ID_KABKOT":"31.74","KABKOT":"KOTA ADM. JAKARTA SELATAN","ID_KEC":"31.74.08","KECAMATAN":"PANCORAN","ID_DESA":"31.74.08.1003","DESA":"RAWAJATI","LATITUDE":-6.2572695,"LONGITUDE":106.8520949,"STATUS":"BUKA","TANGGAL PENGUMPULAN":"Q2 2025","TANGGAL UPDATE":"17/06/2025"}},{"type":"Feature","geometry":{"coordinates":[106.8011866,-6.2449768],"type":"Point"},"properties":{"NAMA":"PASAR MODERN BLOK M","TIPE_1":"PERDAGANGAN DAN RETAIL","TIPE_2":"PASAR","TIPE_3":"PASAR MODERN","TELEPON":"","ALAMAT":"JL. MELAWAI IV NO.25-26 3, RT.3/RW.1, MELAWAI, KEC. KBY. BARU, KOTA JAKARTA SELATAN, DAERAH KHUSUS IBUKOTA JAKARTA 12160","ID_PROV":"31","PROVINSI":"DKI JAKARTA","ID_KABKOT":"31.74","KABKOT":"KOTA ADM. JAKARTA SELATAN","ID_KEC":"31.74.07","KECAMATAN":"KEBAYORAN BARU","ID_DESA":"31.74.07.1001","DESA":"MELAWAI","LATITUDE":-6.2449768,"LONGITUDE":106.8011866,"STATUS":"BUKA","TANGGAL PENGUMPULAN":"Q2 2025","TANGGAL UPDATE":"17/06/2025"}},{"type":"Feature","geometry":{"coordinates":[106.74732739999999,-6.2284578],"type":"Point"},"properties":{"NAMA":"PASAR PAGI 63","TIPE_1":"PERDAGANGAN DAN RETAIL","TIPE_2":"PASAR","TIPE_3":"PASAR TRADISIONAL","TELEPON":"","ALAMAT":"RT.6/RW.1, PETUKANGAN UTARA, KEC. PESANGGRAHAN, KOTA JAKARTA SELATAN, DAERAH KHUSUS IBUKOTA JAKARTA 12260","ID_PROV":"31","PROVINSI":"DKI JAKARTA","ID_KABKOT":"31.74","KABKOT":"KOTA ADM. JAKARTA SELATAN","ID_KEC":"31.74.10","KECAMATAN":"PESANGGRAHAN","ID_DESA":"31.74.10.1003","DESA":"PETUKANGAN UTARA","LATITUDE":-6.2284578,"LONGITUDE":106.7473274,"STATUS":"BUKA","TANGGAL PENGUMPULAN":"Q2 2025","TANGGAL UPDATE":"17/06/2025"}},{"type":"Feature","geometry":{"coordinates":[106.7811797,-6.3014905],"type":"Point"},"properties":{"NAMA":"PASAR PAGI BONA INDAH","TIPE_1":"PERDAGANGAN DAN RETAIL","TIPE_2":"PASAR","TIPE_3":"PASAR TRADISIONAL","TELEPON":"0896-0404-4439","ALAMAT":"JL. KARANG TENGAH NO.1, RT.1/RW.6, LEBAK BULUS, CILANDAK, SOUTH JAKARTA CITY, JAKARTA 12440","ID_PROV":"31","PROVINSI":"DKI JAKARTA","ID_KABKOT":"31.74","KABKOT":"KOTA ADM. JAKARTA SELATAN","ID_KEC":"31.74.06","KECAMATAN":"CILANDAK","ID_DESA":"31.74.06.1002","DESA":"LEBAK BULUS","LATITUDE":-6.3014905,"LONGITUDE":106.7811797,"STATUS":"BUKA","TANGGAL PENGUMPULAN":"Q2 2025","TANGGAL UPDATE":"17/06/2025"}},{"type":"Feature","geometry":{"coordinates":[106.8435938,-6.2343519],"type":"Point"},"properties":{"NAMA":"PASAR PEDOK","TIPE_1":"PERDAGANGAN DAN RETAIL","TIPE_2":"PASAR","TIPE_3":"PASAR TRADISIONAL","TELEPON":"","ALAMAT":"JLN.MASJID ANNUR RT003/02, PASAR PEDOK, RT.15/RW.2, MENTENG DALAM, KEC. TEBET, KOTA JAKARTA SELATAN, DAERAH KHUSUS IBUKOTA JAKARTA 12870","ID_PROV":"31","PROVINSI":"DKI JAKARTA","ID_KABKOT":"31.74","KABKOT":"KOTA ADM. JAKARTA SELATAN","ID_KEC":"31.74.01","KECAMATAN":"TEBET","ID_DESA":"31.74.01.1003","DESA":"MENTENG DALAM","LATITUDE":-6.2343519,"LONGITUDE":106.8435938,"STATUS":"BUKA","TANGGAL PENGUMPULAN":"Q2 2025","TANGGAL UPDATE":"17/06/2025"}},{"type":"Feature","geometry":{"coordinates":[106.7559547,-6.2519556],"type":"Point"},"properties":{"NAMA":"PASAR PESANGGRAHAN","TIPE_1":"PERDAGANGAN DAN RETAIL","TIPE_2":"PASAR","TIPE_3":"PASAR TRADISIONAL","TELEPON":"","ALAMAT":"JL. GARUDA, RT.3/RW.9, PETUKANGAN SEL., KEC. PESANGGRAHAN, KOTA JAKARTA SELATAN, DAERAH KHUSUS IBUKOTA JAKARTA 12320","ID_PROV":"31","PROVINSI":"DKI JAKARTA","ID_KABKOT":"31.74","KABKOT":"KOTA ADM. JAKARTA SELATAN","ID_KEC":"31.74.10","KECAMATAN":"PESANGGRAHAN","ID_DESA":"31.74.10.1001","DESA":"PESANGGRAHAN","LATITUDE":-6.2519556,"LONGITUDE":106.7559547,"STATUS":"BUKA","TANGGAL PENGUMPULAN":"Q2 2025","TANGGAL UPDATE":"17/06/2025"}},{"type":"Feature","geometry":{"coordinates":[106.7760975,-6.2617434],"type":"Point"},"properties":{"NAMA":"PASAR PONDOK INDAH (PASPIN)","TIPE_1":"PERDAGANGAN DAN RETAIL","TIPE_2":"PASAR","TIPE_3":"PASAR MODERN","TELEPON":"(021) 7510005","ALAMAT":"JL. CIPUTAT RAYA, RT.01 / RW.02, RT.1/RW.2, PD. PINANG, KEC. KBY. LAMA, KOTA JAKARTA SELATAN, DAERAH KHUSUS IBUKOTA JAKARTA 12240","ID_PROV":"31","PROVINSI":"DKI JAKARTA","ID_KABKOT":"31.74","KABKOT":"KOTA ADM. JAKARTA SELATAN","ID_KEC":"31.74.05","KECAMATAN":"KEBAYORAN LAMA","ID_DESA":"31.74.05.1002","DESA":"PONDOK PINANG","LATITUDE":-6.2617434,"LONGITUDE":106.7760975,"STATUS":"BUKA","TANGGAL PENGUMPULAN":"Q2 2025","TANGGAL UPDATE":"17/06/2025"}},{"type":"Feature","geometry":{"coordinates":[106.7937572,-6.312242],"type":"Point"},"properties":{"NAMA":"PASAR PONDOK LABU","TIPE_1":"PERDAGANGAN DAN RETAIL","TIPE_2":"PASAR","TIPE_3":"PASAR TRADISIONAL","TELEPON":"","ALAMAT":"JALAN PONDOK LABU RAYA HJ, JL. H. SALEH NO.62, RT.5/RW.1, PD. LABU, KEC. CILANDAK, KOTA JAKARTA SELATAN, DAERAH KHUSUS IBUKOTA JAKARTA 12450","ID_PROV":"31","PROVINSI":"DKI JAKARTA","ID_KABKOT":"31.74","KABKOT":"KOTA ADM. JAKARTA SELATAN","ID_KEC":"31.74.06","KECAMATAN":"CILANDAK","ID_DESA":"31.74.06.1003","DESA":"PONDOK LABU","LATITUDE":-6.312242,"LONGITUDE":106.7937572,"STATUS":"BUKA","TANGGAL PENGUMPULAN":"Q2 2025","TANGGAL UPDATE":"17/06/2025"}},{"type":"Feature","geometry":{"coordinates":[106.7941753,-6.3139471],"type":"Point"},"properties":{"NAMA":"PASAR PONDOK LABU JAKARTA SELATAN","TIPE_1":"PERDAGANGAN DAN RETAIL","TIPE_2":"PASAR","TIPE_3":"PASAR TRADISIONAL","TELEPON":"0813-1498-2890","ALAMAT":"FIT PLACE, BLOK H ANIES BASWEDAN NO.1, RT.5/RW.1, PD. LABU, KEC. CILANDAK, KOTA JAKARTA SELATAN, DAERAH KHUSUS IBUKOTA JAKARTA 12450","ID_PROV":"31","PROVINSI":"DKI JAKARTA","ID_KABKOT":"31.74","KABKOT":"KOTA ADM. JAKARTA SELATAN","ID_KEC":"31.74.06","KECAMATAN":"CILANDAK","ID_DESA":"31.74.06.1003","DESA":"PONDOK LABU","LATITUDE":-6.3139471,"LONGITUDE":106.7941753,"STATUS":"BUKA","TANGGAL PENGUMPULAN":"Q2 2025","TANGGAL UPDATE":"17/06/2025"}},{"type":"Feature","geometry":{"coordinates":[106.8568827,-6.2350851],"type":"Point"},"properties":{"NAMA":"PASAR PSPT","TIPE_1":"PERDAGANGAN DAN RETAIL","TIPE_2":"PASAR","TIPE_3":"PASAR TRADISIONAL","TELEPON":"","ALAMAT":"RT.5/RW.5, TEBET TIM., KEC. TEBET, KOTA JAKARTA SELATAN, DAERAH KHUSUS IBUKOTA JAKARTA 12820","ID_PROV":"31","PROVINSI":"DKI JAKARTA","ID_KABKOT":"31.74","KABKOT":"KOTA ADM. JAKARTA SELATAN","ID_KEC":"31.74.01","KECAMATAN":"TEBET","ID_DESA":"31.74.01.1001","DESA":"TEBET TIMUR","LATITUDE":-6.2350851,"LONGITUDE":106.8568827,"STATUS":"BUKA","TANGGAL PENGUMPULAN":"Q2 2025","TANGGAL UPDATE":"17/06/2025"}},{"type":"Feature","geometry":{"coordinates":[106.8408568,-6.2076769],"type":"Point"},"properties":{"NAMA":"PASAR RAMPUT","TIPE_1":"PERDAGANGAN DAN RETAIL","TIPE_2":"PASAR","TIPE_3":"PASAR TRADISIONAL","TELEPON":"","ALAMAT":"RUMPUT LT2 GG. PS. NO.197, RT.1/RW.3, PASAR MANGGIS, SETIABUDI, SOUTH JAKARTA CITY, JAKARTA 12970","ID_PROV":"31","PROVINSI":"DKI JAKARTA","ID_KABKOT":"31.74","KABKOT":"KOTA ADM. JAKARTA SELATAN","ID_KEC":"31.74.02","KECAMATAN":"SETIABUDI","ID_DESA":"31.74.02.1006","DESA":"PASAR MANGGIS","LATITUDE":-6.2076769,"LONGITUDE":106.8408568,"STATUS":"BUKA","TANGGAL PENGUMPULAN":"Q2 2025","TANGGAL UPDATE":"17/06/2025"}},{"type":"Feature","geometry":{"coordinates":[106.855271,-6.2591128],"type":"Point"},"properties":{"NAMA":"PASAR RAWAJATI","TIPE_1":"PERDAGANGAN DAN RETAIL","TIPE_2":"PASAR","TIPE_3":"PASAR TRADISIONAL","TELEPON":"","ALAMAT":"GG. PORTI, RT.1/RW.2, RAWAJATI, PANCORAN, SOUTH JAKARTA CITY, JAKARTA 12750","ID_PROV":"31","PROVINSI":"DKI JAKARTA","ID_KABKOT":"31.74","KABKOT":"KOTA ADM. JAKARTA SELATAN","ID_KEC":"31.74.08","KECAMATAN":"PANCORAN","ID_DESA":"31.74.08.1003","DESA":"RAWAJATI","LATITUDE":-6.2591128,"LONGITUDE":106.855271,"STATUS":"BUKA","TANGGAL PENGUMPULAN":"Q2 2025","TANGGAL UPDATE":"17/06/2025"}},{"type":"Feature","geometry":{"coordinates":[106.81842479999999,-6.2366483],"type":"Point"},"properties":{"NAMA":"PASAR RENGAS","TIPE_1":"PERDAGANGAN DAN RETAIL","TIPE_2":"PASAR","TIPE_3":"PASAR TRADISIONAL","TELEPON":"","ALAMAT":"JL. RENGAS 1 NO.11, RT.11/RW.4, RW. BAR., KEC. KBY. BARU, KOTA JAKARTA SELATAN, DAERAH KHUSUS IBUKOTA JAKARTA 12180","ID_PROV":"31","PROVINSI":"DKI JAKARTA","ID_KABKOT":"31.74","KABKOT":"KOTA ADM. JAKARTA SELATAN","ID_KEC":"31.74.03","KECAMATAN":"MAMPANG PRAPATAN","ID_DESA":"31.74.03.1005","DESA":"KUNINGAN BARAT","LATITUDE":-6.2366483,"LONGITUDE":106.8184248,"STATUS":"BUKA","TANGGAL PENGUMPULAN":"Q2 2025","TANGGAL UPDATE":"17/06/2025"}},{"type":"Feature","geometry":{"coordinates":[106.8121528,-6.2397338],"type":"Point"},"properties":{"NAMA":"PASAR SANTA","TIPE_1":"PERDAGANGAN DAN RETAIL","TIPE_2":"PASAR","TIPE_3":"PASAR MODERN","TELEPON":"","ALAMAT":"JL. CIPAKU I NO.233, RT.5/RW.4, PETOGOGAN, KEBAYORAN BARU, SOUTH JAKARTA CITY, JAKARTA 12170","ID_PROV":"31","PROVINSI":"DKI JAKARTA","ID_KABKOT":"31.74","KABKOT":"KOTA ADM. JAKARTA SELATAN","ID_KEC":"31.74.07","KECAMATAN":"KEBAYORAN BARU","ID_DESA":"31.74.07.1008","DESA":"PETOGOGAN","LATITUDE":-6.2397338,"LONGITUDE":106.8121528,"STATUS":"BUKA","TANGGAL PENGUMPULAN":"Q2 2025","TANGGAL UPDATE":"17/06/2025"}},{"type":"Feature","geometry":{"coordinates":[106.76745539999999,-6.23725],"type":"Point"},"properties":{"NAMA":"PASAR SAYUR CIPULIR","TIPE_1":"PERDAGANGAN DAN RETAIL","TIPE_2":"PASAR","TIPE_3":"PASAR TRADISIONAL","TELEPON":"","ALAMAT":"RT.14/RW.5, CIPULIR, KEBAYORAN LAMA, SOUTH JAKARTA CITY, JAKARTA 12230","ID_PROV":"31","PROVINSI":"DKI JAKARTA","ID_KABKOT":"31.74","KABKOT":"KOTA ADM. JAKARTA SELATAN","ID_KEC":"31.74.05","KECAMATAN":"KEBAYORAN LAMA","ID_DESA":"31.74.05.1003","DESA":"CIPULIR","LATITUDE":-6.23725,"LONGITUDE":106.7674554,"STATUS":"BUKA","TANGGAL PENGUMPULAN":"Q2 2025","TANGGAL UPDATE":"17/06/2025"}},{"type":"Feature","geometry":{"coordinates":[106.7676855,-6.236132],"type":"Point"},"properties":{"NAMA":"PASAR SAYUR MAYUR CIPULIR","TIPE_1":"PERDAGANGAN DAN RETAIL","TIPE_2":"PASAR","TIPE_3":"PASAR TRADISIONAL","TELEPON":"","ALAMAT":"PS. SAYUR MAYUR CIPULIR, JL. H. AMSAR NO.11B 14, RT.14/RW.5, CIPULIR, KEC. KBY. LAMA, KOTA JAKARTA SELATAN, DAERAH KHUSUS IBUKOTA JAKARTA 12230","ID_PROV":"31","PROVINSI":"DKI JAKARTA","ID_KABKOT":"31.74","KABKOT":"KOTA ADM. JAKARTA SELATAN","ID_KEC":"31.74.05","KECAMATAN":"KEBAYORAN LAMA","ID_DESA":"31.74.05.1003","DESA":"CIPULIR","LATITUDE":-6.236132,"LONGITUDE":106.7676855,"STATUS":"BUKA","TANGGAL PENGUMPULAN":"Q2 2025","TANGGAL UPDATE":"17/06/2025"}},{"type":"Feature","geometry":{"coordinates":[106.7877073,-6.2121322],"type":"Point"},"properties":{"NAMA":"PASAR SELASA MALAM (KEMANDORAN VIII)","TIPE_1":"PERDAGANGAN DAN RETAIL","TIPE_2":"PASAR","TIPE_3":"PASAR TRADISIONAL","TELEPON":"","ALAMAT":"JL. KEMANDORAN VIII NO.16 4, RT.4/RW.11, GROGOL UTARA, KEC. KBY. LAMA, KOTA JAKARTA SELATAN, DAERAH KHUSUS IBUKOTA JAKARTA 12210","ID_PROV":"31","PROVINSI":"DKI JAKARTA","ID_KABKOT":"31.74","KABKOT":"KOTA ADM. JAKARTA SELATAN","ID_KEC":"31.74.05","KECAMATAN":"KEBAYORAN LAMA","ID_DESA":"31.74.05.1004","DESA":"GROGOL UTARA","LATITUDE":-6.2121322,"LONGITUDE":106.7877073,"STATUS":"BUKA","TANGGAL PENGUMPULAN":"Q2 2025","TANGGAL UPDATE":"17/06/2025"}},{"type":"Feature","geometry":{"coordinates":[106.7909947,-6.2407537],"type":"Point"},"properties":{"NAMA":"PASAR SINGASLOT","TIPE_1":"PERDAGANGAN DAN RETAIL","TIPE_2":"PASAR","TIPE_3":"PASAR TRADISIONAL","TELEPON":"","ALAMAT":"TEBAH 3 NO.26, RT.14/RW.3, GUNUNG, KEC. KBY. BARU, KOTA JAKARTA SELATAN, DAERAH KHUSUS IBUKOTA JAKARTA 12120","ID_PROV":"31","PROVINSI":"DKI JAKARTA","ID_KABKOT":"31.74","KABKOT":"KOTA ADM. JAKARTA SELATAN","ID_KEC":"31.74.07","KECAMATAN":"KEBAYORAN BARU","ID_DESA":"31.74.07.1002","DESA":"GUNUNG","LATITUDE":-6.2407537,"LONGITUDE":106.7909947,"STATUS":"BUKA","TANGGAL PENGUMPULAN":"Q2 2025","TANGGAL UPDATE":"17/06/2025"}},{"type":"Feature","geometry":{"coordinates":[106.7890587,-6.241369],"type":"Point"},"properties":{"NAMA":"PASAR TAMAN PURING","TIPE_1":"PERDAGANGAN DAN RETAIL","TIPE_2":"PASAR","TIPE_3":"PASAR TRADISIONAL","TELEPON":"(021) 7763455","ALAMAT":"JL. KYAI MAJA, RT.7/RW.1, KRAMAT PELA, KEC. KBY. BARU, KOTA JAKARTA SELATAN, DAERAH KHUSUS IBUKOTA JAKARTA 12120","ID_PROV":"31","PROVINSI":"DKI JAKARTA","ID_KABKOT":"31.74","KABKOT":"KOTA ADM. JAKARTA SELATAN","ID_KEC":"31.74.07","KECAMATAN":"KEBAYORAN BARU","ID_DESA":"31.74.07.1003","DESA":"KRAMAT PELA","LATITUDE":-6.241369,"LONGITUDE":106.7890587,"STATUS":"BUKA","TANGGAL PENGUMPULAN":"Q2 2025","TANGGAL UPDATE":"17/06/2025"}},{"type":"Feature","geometry":{"coordinates":[106.8480495,-6.2396725],"type":"Point"},"properties":{"NAMA":"PASAR TEBET BARAT","TIPE_1":"PERDAGANGAN DAN RETAIL","TIPE_2":"PASAR","TIPE_3":"PASAR TRADISIONAL","TELEPON":"","ALAMAT":"PASAR, TEBET BAR., KEC. TEBET, KOTA JAKARTA SELATAN, DAERAH KHUSUS IBUKOTA JAKARTA 12810","ID_PROV":"31","PROVINSI":"DKI JAKARTA","ID_KABKOT":"31.74","KABKOT":"KOTA ADM. JAKARTA SELATAN","ID_KEC":"31.74.01","KECAMATAN":"TEBET","ID_DESA":"31.74.01.1002","DESA":"TEBET BARAT","LATITUDE":-6.2396725,"LONGITUDE":106.8480495,"STATUS":"BUKA","TANGGAL PENGUMPULAN":"Q2 2025","TANGGAL UPDATE":"17/06/2025"}},{"type":"Feature","geometry":{"coordinates":[106.8015628,-6.3500773],"type":"Point"},"properties":{"NAMA":"PASAR TIMBUL","TIPE_1":"PERDAGANGAN DAN RETAIL","TIPE_2":"PASAR","TIPE_3":"PASAR TRADISIONAL","TELEPON":"","ALAMAT":"JL. MOH. KAHFI 1 BLOK D NO.1, RT.6/RW.1, CIPEDAK, KEC. JAGAKARSA, KOTA JAKARTA SELATAN, DAERAH KHUSUS IBUKOTA JAKARTA 12630","ID_PROV":"31","PROVINSI":"DKI JAKARTA","ID_KABKOT":"31.74","KABKOT":"KOTA ADM. JAKARTA SELATAN","ID_KEC":"31.74.09","KECAMATAN":"JAGAKARSA","ID_DESA":"31.74.09.1006","DESA":"CIPEDAK","LATITUDE":-6.3500773,"LONGITUDE":106.8015628,"STATUS":"BUKA","TANGGAL PENGUMPULAN":"Q2 2025","TANGGAL UPDATE":"17/06/2025"}},{"type":"Feature","geometry":{"coordinates":[106.8248517,-6.2552066],"type":"Point"},"properties":{"NAMA":"PASAR WARUNG BUNCIT","TIPE_1":"PERDAGANGAN DAN RETAIL","TIPE_2":"PASAR","TIPE_3":"PASAR TRADISIONAL","TELEPON":"","ALAMAT":"JALAN KEMANG UTARA 9, RT.9 / RW.1 DUREN TIGA PANCORAN RT.9, 4, RT.11/RW.1, BANGKA, KEC. MAMPANG PRPT., KOTA JAKARTA SELATAN, DAERAH KHUSUS IBUKOTA JAKARTA 12730","ID_PROV":"31","PROVINSI":"DKI JAKARTA","ID_KABKOT":"31.74","KABKOT":"KOTA ADM. JAKARTA SELATAN","ID_KEC":"31.74.03","KECAMATAN":"MAMPANG PRAPATAN","ID_DESA":"31.74.03.1002","DESA":"BANGKA","LATITUDE":-6.2552066,"LONGITUDE":106.8248517,"STATUS":"BUKA","TANGGAL PENGUMPULAN":"Q2 2025","TANGGAL UPDATE":"17/06/2025"}}]}