{"type":"FeatureCollection","features":[{"type":"Feature","geometry":{"coordinates":[106.79617359999999,-6.6989138],"type":"Point"},"properties":{"NAMA":"PASAR MALAM WARUNG KUPA CIJERUK BOGOR","TIPE_1":"PERDAGANGAN DAN RETAIL","TIPE_2":"PASAR","TIPE_3":"PASAR TRADISIONAL","TELEPON":"","ALAMAT":"WR. MENTENG, KEC. CIJERUK, KABUPATEN BOGOR, JAWA BARAT","ID_PROV":"32","PROVINSI":"JAWA BARAT","ID_KABKOT":"32.01","KABKOT":"BOGOR","ID_KEC":"32.01.28","KECAMATAN":"CIJERUK","ID_DESA":"32.01.28.2001","DESA":"CIJERUK","LATITUDE":-6.6989138,"LONGITUDE":106.7961736,"STATUS":"BUKA","TANGGAL PENGUMPULAN":"Q2 2025","TANGGAL UPDATE":"17/06/2025"}},{"type":"Feature","geometry":{"coordinates":[106.929304,-6.6805555],"type":"Point"},"properties":{"NAMA":"PASAR MODERN PUNCAK","TIPE_1":"PERDAGANGAN DAN RETAIL","TIPE_2":"PASAR","TIPE_3":"PASAR MODERN","TELEPON":"","ALAMAT":"JL. CIDOKOM, CITEKO, KEC. CISARUA, KABUPATEN BOGOR, JAWA BARAT 16750","ID_PROV":"32","PROVINSI":"JAWA BARAT","ID_KABKOT":"32.01","KABKOT":"BOGOR","ID_KEC":"32.01.25","KECAMATAN":"CISARUA","ID_DESA":"32.01.25.2005","DESA":"CITEKO","LATITUDE":-6.6805555,"LONGITUDE":106.929304,"STATUS":"BUKA","TANGGAL PENGUMPULAN":"Q2 2025","TANGGAL UPDATE":"17/06/2025"}},{"type":"Feature","geometry":{"coordinates":[107.0661339,-6.4641846],"type":"Point"},"properties":{"NAMA":"PASAR MODERN JONGGOL","TIPE_1":"PERDAGANGAN DAN RETAIL","TIPE_2":"PASAR","TIPE_3":"PASAR MODERN","TELEPON":"0813-8151-5201","ALAMAT":"JL. RAYA JONGGOL, RT.03/RW.03, JONGGOL, KEC. JONGGOL, KABUPATEN BOGOR, JAWA BARAT 16830","ID_PROV":"32","PROVINSI":"JAWA BARAT","ID_KABKOT":"32.01","KABKOT":"BOGOR","ID_KEC":"32.01.06","KECAMATAN":"JONGGOL","ID_DESA":"32.01.06.2009","DESA":"JONGGOL","LATITUDE":-6.4641846,"LONGITUDE":107.0661339,"STATUS":"BUKA","TANGGAL PENGUMPULAN":"Q2 2025","TANGGAL UPDATE":"17/06/2025"}},{"type":"Feature","geometry":{"coordinates":[106.7816766,-6.622438],"type":"Point"},"properties":{"NAMA":"PASAR MINI SARWO","TIPE_1":"PERDAGANGAN DAN RETAIL","TIPE_2":"PASAR","TIPE_3":"PASAR TRADISIONAL","TELEPON":"","ALAMAT":"KOTA BATU, KEC. CIOMAS, KABUPATEN BOGOR, JAWA BARAT 16610","ID_PROV":"32","PROVINSI":"JAWA BARAT","ID_KABKOT":"32.01","KABKOT":"BOGOR","ID_KEC":"32.01.29","KECAMATAN":"CIOMAS","ID_DESA":"32.01.29.2009","DESA":"KOTA BATU","LATITUDE":-6.622438,"LONGITUDE":106.7816766,"STATUS":"BUKA","TANGGAL PENGUMPULAN":"Q2 2025","TANGGAL UPDATE":"17/06/2025"}},{"type":"Feature","geometry":{"coordinates":[106.69671,-6.53945],"type":"Point"},"properties":{"NAMA":"PASAR LAMA CIAMPEA","TIPE_1":"PERDAGANGAN DAN RETAIL","TIPE_2":"PASAR","TIPE_3":"PASAR TRADISIONAL","TELEPON":"","ALAMAT":"BENTENG, KEC. CIAMPEA, KABUPATEN BOGOR, JAWA BARAT","ID_PROV":"32","PROVINSI":"JAWA BARAT","ID_KABKOT":"32.01","KABKOT":"BOGOR","ID_KEC":"32.01.15","KECAMATAN":"CIAMPEA","ID_DESA":"32.01.15.2012","DESA":"BENTENG","LATITUDE":-6.53945,"LONGITUDE":106.69671,"STATUS":"BUKA","TANGGAL PENGUMPULAN":"Q2 2025","TANGGAL UPDATE":"17/06/2025"}},{"type":"Feature","geometry":{"coordinates":[106.69665219999999,-6.5399316],"type":"Point"},"properties":{"NAMA":"PASAR LAMA CIAMPEA","TIPE_1":"PERDAGANGAN DAN RETAIL","TIPE_2":"PASAR","TIPE_3":"PASAR TRADISIONAL","TELEPON":"","ALAMAT":"JL. RAYA PS. CIAMPEA NO.8, BENTENG, KEC. CIAMPEA, KABUPATEN BOGOR, JAWA BARAT 16620","ID_PROV":"32","PROVINSI":"JAWA BARAT","ID_KABKOT":"32.01","KABKOT":"BOGOR","ID_KEC":"32.01.15","KECAMATAN":"CIAMPEA","ID_DESA":"32.01.15.2012","DESA":"BENTENG","LATITUDE":-6.5399316,"LONGITUDE":106.6966522,"STATUS":"BUKA","TANGGAL PENGUMPULAN":"Q2 2025","TANGGAL UPDATE":"17/06/2025"}},{"type":"Feature","geometry":{"coordinates":[106.5095692,-6.3543639],"type":"Point"},"properties":{"NAMA":"PASAR LOAKAN","TIPE_1":"PERDAGANGAN DAN RETAIL","TIPE_2":"PASAR","TIPE_3":"PASAR TRADISIONAL","TELEPON":"","ALAMAT":"GINTUNG CILEJET, KEC. TENJO, KABUPATEN BOGOR, JAWA BARAT","ID_PROV":"32","PROVINSI":"JAWA BARAT","ID_KABKOT":"32.01","KABKOT":"BOGOR","ID_KEC":"32.01.23","KECAMATAN":"TENJO","ID_DESA":"32.01.23.2003","DESA":"BATOK","LATITUDE":-6.3543639,"LONGITUDE":106.5095692,"STATUS":"BUKA","TANGGAL PENGUMPULAN":"Q2 2025","TANGGAL UPDATE":"17/06/2025"}},{"type":"Feature","geometry":{"coordinates":[106.6320777,-6.5696741],"type":"Point"},"properties":{"NAMA":"PASAR LEUWILIANG","TIPE_1":"PERDAGANGAN DAN RETAIL","TIPE_2":"PASAR","TIPE_3":"PASAR TRADISIONAL","TELEPON":"","ALAMAT":"JL.PASAR BARU BLOK EKOSARI NO.5, LEUWILIANG, KEC. LEUWILIANG, KABUPATEN BOGOR, JAWA BARAT 16640","ID_PROV":"32","PROVINSI":"JAWA BARAT","ID_KABKOT":"32.01","KABKOT":"BOGOR","ID_KEC":"32.01.14","KECAMATAN":"LEUWILIANG","ID_DESA":"32.01.14.2001","DESA":"LEUWILIANG","LATITUDE":-6.5696741,"LONGITUDE":106.6320777,"STATUS":"BUKA","TANGGAL PENGUMPULAN":"Q2 2025","TANGGAL UPDATE":"17/06/2025"}},{"type":"Feature","geometry":{"coordinates":[106.6338808,-6.5735807],"type":"Point"},"properties":{"NAMA":"PASAR LEUWILIANG","TIPE_1":"PERDAGANGAN DAN RETAIL","TIPE_2":"PASAR","TIPE_3":"PASAR TRADISIONAL","TELEPON":"","ALAMAT":"JL, JL. KEREKEL KP. SAWAHN JL. KP. SAWAH, LEUWILIANG, KEC. LEUWILIANG, KABUPATEN BOGOR, JAWA BARAT 16640","ID_PROV":"32","PROVINSI":"JAWA BARAT","ID_KABKOT":"32.01","KABKOT":"BOGOR","ID_KEC":"32.01.14","KECAMATAN":"LEUWILIANG","ID_DESA":"32.01.14.2001","DESA":"LEUWILIANG","LATITUDE":-6.5735807,"LONGITUDE":106.6338808,"STATUS":"BUKA","TANGGAL PENGUMPULAN":"Q2 2025","TANGGAL UPDATE":"17/06/2025"}},{"type":"Feature","geometry":{"coordinates":[106.63233,-6.57428],"type":"Point"},"properties":{"NAMA":"PASAR LEUWILIANG","TIPE_1":"PERDAGANGAN DAN RETAIL","TIPE_2":"PASAR","TIPE_3":"PASAR TRADISIONAL","TELEPON":"","ALAMAT":"LEUWILIANG, KEC. LEUWILIANG, KABUPATEN BOGOR, JAWA BARAT","ID_PROV":"32","PROVINSI":"JAWA BARAT","ID_KABKOT":"32.01","KABKOT":"BOGOR","ID_KEC":"32.01.14","KECAMATAN":"LEUWILIANG","ID_DESA":"32.01.14.2001","DESA":"LEUWILIANG","LATITUDE":-6.57428,"LONGITUDE":106.63233,"STATUS":"BUKA","TANGGAL PENGUMPULAN":"Q2 2025","TANGGAL UPDATE":"17/06/2025"}},{"type":"Feature","geometry":{"coordinates":[106.6302841,-6.5949335],"type":"Point"},"properties":{"NAMA":"PASAR LEUWILIANG","TIPE_1":"PERDAGANGAN DAN RETAIL","TIPE_2":"PASAR","TIPE_3":"PASAR TRADISIONAL","TELEPON":"0851-7101-9724","ALAMAT":"JL. BUKIT SAKINAH NO.12 BLOK C22, BARENGKOK, KEC. LEUWILIANG, KABUPATEN BOGOR, JAWA BARAT 16640","ID_PROV":"32","PROVINSI":"JAWA BARAT","ID_KABKOT":"32.01","KABKOT":"BOGOR","ID_KEC":"32.01.14","KECAMATAN":"LEUWILIANG","ID_DESA":"32.01.14.2006","DESA":"BARENGKOK","LATITUDE":-6.5949335,"LONGITUDE":106.6302841,"STATUS":"BUKA","TANGGAL PENGUMPULAN":"Q2 2025","TANGGAL UPDATE":"17/06/2025"}},{"type":"Feature","geometry":{"coordinates":[106.6335693,-6.5744624],"type":"Point"},"properties":{"NAMA":"PASAR LEWILIANG","TIPE_1":"PERDAGANGAN DAN RETAIL","TIPE_2":"PASAR","TIPE_3":"PASAR TRADISIONAL","TELEPON":"","ALAMAT":"JL. RAYA LEUWILIANG - BOGOR, RT.02/RW.01, CIHERANG, KEC. LEUWILIANG, KABUPATEN BOGOR, JAWA BARAT 16640","ID_PROV":"32","PROVINSI":"JAWA BARAT","ID_KABKOT":"32.01","KABKOT":"BOGOR","ID_KEC":"32.01.14","KECAMATAN":"LEUWILIANG","ID_DESA":"32.01.14.2001","DESA":"LEUWILIANG","LATITUDE":-6.5744624,"LONGITUDE":106.6335693,"STATUS":"BUKA","TANGGAL PENGUMPULAN":"Q2 2025","TANGGAL UPDATE":"17/06/2025"}},{"type":"Feature","geometry":{"coordinates":[106.6380488,-6.5683008],"type":"Point"},"properties":{"NAMA":"PASAR LEWILIANG","TIPE_1":"PERDAGANGAN DAN RETAIL","TIPE_2":"PASAR","TIPE_3":"PASAR TRADISIONAL","TELEPON":"","ALAMAT":"GALUGA, KEC. CIBUNGBULANG, KABUPATEN BOGOR, JAWA BARAT","ID_PROV":"32","PROVINSI":"JAWA BARAT","ID_KABKOT":"32.01","KABKOT":"BOGOR","ID_KEC":"32.01.16","KECAMATAN":"CIBUNGBULANG","ID_DESA":"32.01.16.2014","DESA":"GALUGA","LATITUDE":-6.5683008,"LONGITUDE":106.6380488,"STATUS":"BUKA","TANGGAL PENGUMPULAN":"Q2 2025","TANGGAL UPDATE":"17/06/2025"}},{"type":"Feature","geometry":{"coordinates":[106.5573304,-6.4308167],"type":"Point"},"properties":{"NAMA":"PASAR LEBAKWANGI","TIPE_1":"PERDAGANGAN DAN RETAIL","TIPE_2":"PASAR","TIPE_3":"PASAR TRADISIONAL","TELEPON":"","ALAMAT":"RENGASJAJAR, KEC. CIGUDEG, KABUPATEN BOGOR, JAWA BARAT 16660","ID_PROV":"32","PROVINSI":"JAWA BARAT","ID_KABKOT":"32.01","KABKOT":"BOGOR","ID_KEC":"32.01.22","KECAMATAN":"CIGUDEG","ID_DESA":"32.01.22.2008","DESA":"RENGASJAJAR","LATITUDE":-6.4308167,"LONGITUDE":106.5573304,"STATUS":"BUKA","TANGGAL PENGUMPULAN":"Q2 2025","TANGGAL UPDATE":"17/06/2025"}},{"type":"Feature","geometry":{"coordinates":[106.760068,-6.5468611],"type":"Point"},"properties":{"NAMA":"PASAR KAPUK","TIPE_1":"PERDAGANGAN DAN RETAIL","TIPE_2":"PASAR","TIPE_3":"PASAR TRADISIONAL","TELEPON":"","ALAMAT":"JL. RAYA SEMPLAK NO.226-220, ATANG SENJAYA, KEC. KEMANG, KABUPATEN BOGOR, JAWA BARAT 16310","ID_PROV":"32","PROVINSI":"JAWA BARAT","ID_KABKOT":"32.01","KABKOT":"BOGOR","ID_KEC":"32.01.12","KECAMATAN":"KEMANG","ID_DESA":"32.01.12.1006","DESA":"ATANG SENJAYA","LATITUDE":-6.5468611,"LONGITUDE":106.760068,"STATUS":"BUKA","TANGGAL PENGUMPULAN":"Q2 2025","TANGGAL UPDATE":"17/06/2025"}},{"type":"Feature","geometry":{"coordinates":[106.7172244,-6.6294004],"type":"Point"},"properties":{"NAMA":"PASAR KAMIS","TIPE_1":"PERDAGANGAN DAN RETAIL","TIPE_2":"PASAR","TIPE_3":"PASAR TRADISIONAL","TELEPON":"0857-1447-747","ALAMAT":"PURWASARI, KEC. DRAMAGA, KABUPATEN BOGOR, JAWA BARAT 16680","ID_PROV":"32","PROVINSI":"JAWA BARAT","ID_KABKOT":"32.01","KABKOT":"BOGOR","ID_KEC":"32.01.30","KECAMATAN":"DRAMAGA","ID_DESA":"32.01.30.2006","DESA":"PURWASARI","LATITUDE":-6.6294004,"LONGITUDE":106.7172244,"STATUS":"BUKA","TANGGAL PENGUMPULAN":"Q2 2025","TANGGAL UPDATE":"17/06/2025"}},{"type":"Feature","geometry":{"coordinates":[106.6538458,-6.6409697],"type":"Point"},"properties":{"NAMA":"PASAR KAMIS","TIPE_1":"PERDAGANGAN DAN RETAIL","TIPE_2":"PASAR","TIPE_3":"PASAR TRADISIONAL","TELEPON":"","ALAMAT":"SMK NURFADHILLAH, PAMIJAHAN, KEC. PAMIJAHAN, KABUPATEN BOGOR, JAWA BARAT 16810","ID_PROV":"32","PROVINSI":"JAWA BARAT","ID_KABKOT":"32.01","KABKOT":"BOGOR","ID_KEC":"32.01.17","KECAMATAN":"PAMIJAHAN","ID_DESA":"32.01.17.2008","DESA":"PAMIJAHAN","LATITUDE":-6.6409697,"LONGITUDE":106.6538458,"STATUS":"BUKA","TANGGAL PENGUMPULAN":"Q2 2025","TANGGAL UPDATE":"17/06/2025"}},{"type":"Feature","geometry":{"coordinates":[106.6798455,-6.6345415],"type":"Point"},"properties":{"NAMA":"PASAR KAMIS","TIPE_1":"PERDAGANGAN DAN RETAIL","TIPE_2":"PASAR","TIPE_3":"PASAR TRADISIONAL","TELEPON":"","ALAMAT":"CIBENING, KEC. PAMIJAHAN, KABUPATEN BOGOR, JAWA BARAT 16810","ID_PROV":"32","PROVINSI":"JAWA BARAT","ID_KABKOT":"32.01","KABKOT":"BOGOR","ID_KEC":"32.01.17","KECAMATAN":"PAMIJAHAN","ID_DESA":"32.01.17.2009","DESA":"CIBENING","LATITUDE":-6.6345415,"LONGITUDE":106.6798455,"STATUS":"BUKA","TANGGAL PENGUMPULAN":"Q2 2025","TANGGAL UPDATE":"17/06/2025"}},{"type":"Feature","geometry":{"coordinates":[106.5975129,-6.442262],"type":"Point"},"properties":{"NAMA":"PASAR KEMANG","TIPE_1":"PERDAGANGAN DAN RETAIL","TIPE_2":"PASAR","TIPE_3":"PASAR TRADISIONAL","TELEPON":"","ALAMAT":"JALAN , TEGALEGA, KEC. CIGUDEG, KABUPATEN BOGOR, JAWA BARAT 16660","ID_PROV":"32","PROVINSI":"JAWA BARAT","ID_KABKOT":"32.01","KABKOT":"BOGOR","ID_KEC":"32.01.22","KECAMATAN":"CIGUDEG","ID_DESA":"32.01.22.2015","DESA":"TEGALLEGA","LATITUDE":-6.442262,"LONGITUDE":106.5975129,"STATUS":"BUKA","TANGGAL PENGUMPULAN":"Q2 2025","TANGGAL UPDATE":"17/06/2025"}},{"type":"Feature","geometry":{"coordinates":[106.9578337,-6.4103899],"type":"Point"},"properties":{"NAMA":"PASAR KECIL KENARI","TIPE_1":"PERDAGANGAN DAN RETAIL","TIPE_2":"PASAR","TIPE_3":"PASAR TRADISIONAL","TELEPON":"","ALAMAT":"CILEUNGSI KIDUL, KEC. CILEUNGSI, KABUPATEN BOGOR, JAWA BARAT 16820","ID_PROV":"32","PROVINSI":"JAWA BARAT","ID_KABKOT":"32.01","KABKOT":"BOGOR","ID_KEC":"32.01.07","KECAMATAN":"CILEUNGSI","ID_DESA":"32.01.07.2007","DESA":"CILEUNGSI KIDUL","LATITUDE":-6.4103899,"LONGITUDE":106.9578337,"STATUS":"BUKA","TANGGAL PENGUMPULAN":"Q2 2025","TANGGAL UPDATE":"17/06/2025"}},{"type":"Feature","geometry":{"coordinates":[106.4707799,-6.3436774],"type":"Point"},"properties":{"NAMA":"PASAR INPRES CILAKU","TIPE_1":"PERDAGANGAN DAN RETAIL","TIPE_2":"PASAR","TIPE_3":"PASAR TRADISIONAL","TELEPON":"(0251) 35077770","ALAMAT":"JL. RAYA CILAKU, CILAKU, KEC. TENJO, KABUPATEN BOGOR, JAWA BARAT 16370","ID_PROV":"32","PROVINSI":"JAWA BARAT","ID_KABKOT":"32.01","KABKOT":"BOGOR","ID_KEC":"32.01.23","KECAMATAN":"TENJO","ID_DESA":"32.01.23.2006","DESA":"CILAKU","LATITUDE":-6.3436774,"LONGITUDE":106.4707799,"STATUS":"BUKA","TANGGAL PENGUMPULAN":"Q2 2025","TANGGAL UPDATE":"17/06/2025"}},{"type":"Feature","geometry":{"coordinates":[107.1139479,-6.5634772],"type":"Point"},"properties":{"NAMA":"PASAR INDUK MINI SELAWANGI SIJAGAT","TIPE_1":"PERDAGANGAN DAN RETAIL","TIPE_2":"PASAR","TIPE_3":"PASAR TRADISIONAL","TELEPON":"0838-0613-8979","ALAMAT":"SELAWANGI, KEC. TANJUNGSARI, KABUPATEN BOGOR, JAWA BARAT 16840","ID_PROV":"32","PROVINSI":"JAWA BARAT","ID_KABKOT":"32.01","KABKOT":"BOGOR","ID_KEC":"32.01.36","KECAMATAN":"TANJUNGSARI","ID_DESA":"32.01.36.2002","DESA":"SELAWANGI","LATITUDE":-6.5634772,"LONGITUDE":107.1139479,"STATUS":"BUKA","TANGGAL PENGUMPULAN":"Q2 2025","TANGGAL UPDATE":"17/06/2025"}},{"type":"Feature","geometry":{"coordinates":[106.85627009999999,-6.4575242],"type":"Point"},"properties":{"NAMA":"PASAR INDUK CIKEMA","TIPE_1":"PERDAGANGAN DAN RETAIL","TIPE_2":"PASAR","TIPE_3":"PASAR TRADISIONAL","TELEPON":"","ALAMAT":"BLOK, JL. RAYA BOGOR / KP. KRANJI BLOK CENTRAL NO.31, CIRIUNG, CIBINONG, BOGOR REGENCY, WEST JAVA 16916","ID_PROV":"32","PROVINSI":"JAWA BARAT","ID_KABKOT":"32.01","KABKOT":"BOGOR","ID_KEC":"32.01.01","KECAMATAN":"CIBINONG","ID_DESA":"32.01.01.1010","DESA":"CIRIUNG","LATITUDE":-6.4575242,"LONGITUDE":106.8562701,"STATUS":"BUKA","TANGGAL PENGUMPULAN":"Q2 2025","TANGGAL UPDATE":"17/06/2025"}},{"type":"Feature","geometry":{"coordinates":[106.8573474,-6.4578148],"type":"Point"},"properties":{"NAMA":"PASAR INDUK CIKEMA","TIPE_1":"PERDAGANGAN DAN RETAIL","TIPE_2":"PASAR","TIPE_3":"PASAR TRADISIONAL","TELEPON":"","ALAMAT":"BLOK, JL. RAYA BOGOR / KP. KRANJI BLOK CENTRAL NO.31, CIRIUNG, CIBINONG, BOGOR REGENCY, WEST JAVA 16916","ID_PROV":"32","PROVINSI":"JAWA BARAT","ID_KABKOT":"32.01","KABKOT":"BOGOR","ID_KEC":"32.01.01","KECAMATAN":"CIBINONG","ID_DESA":"32.01.01.1010","DESA":"CIRIUNG","LATITUDE":-6.4578148,"LONGITUDE":106.8573474,"STATUS":"BUKA","TANGGAL PENGUMPULAN":"Q2 2025","TANGGAL UPDATE":"17/06/2025"}},{"type":"Feature","geometry":{"coordinates":[106.5493587,-6.4281521],"type":"Point"},"properties":{"NAMA":"PASAR IMPRES LEBAKWANGI","TIPE_1":"PERDAGANGAN DAN RETAIL","TIPE_2":"PASAR","TIPE_3":"PASAR TRADISIONAL","TELEPON":"0812-9369-6678","ALAMAT":"RENGASJAJAR, KEC. CIGUDEG, KABUPATEN BOGOR, JAWA BARAT 16660","ID_PROV":"32","PROVINSI":"JAWA BARAT","ID_KABKOT":"32.01","KABKOT":"BOGOR","ID_KEC":"32.01.22","KECAMATAN":"CIGUDEG","ID_DESA":"32.01.22.2008","DESA":"RENGASJAJAR","LATITUDE":-6.4281521,"LONGITUDE":106.5493587,"STATUS":"BUKA","TANGGAL PENGUMPULAN":"Q2 2025","TANGGAL UPDATE":"17/06/2025"}},{"type":"Feature","geometry":{"coordinates":[107.0310301,-6.4196789],"type":"Point"},"properties":{"NAMA":"PASAR IKAN SITUSARI JONGGOL","TIPE_1":"PERDAGANGAN DAN RETAIL","TIPE_2":"PASAR","TIPE_3":"PASAR TRADISIONAL","TELEPON":"","ALAMAT":"JL. RAYA CILEUNGSI - JONGGOL, SETU SARI, KEC. CILEUNGSI, KABUPATEN BOGOR, JAWA BARAT 16820","ID_PROV":"32","PROVINSI":"JAWA BARAT","ID_KABKOT":"32.01","KABKOT":"BOGOR","ID_KEC":"32.01.07","KECAMATAN":"CILEUNGSI","ID_DESA":"32.01.07.2009","DESA":"SITUSARI","LATITUDE":-6.4196789,"LONGITUDE":107.0310301,"STATUS":"BUKA","TANGGAL PENGUMPULAN":"Q2 2025","TANGGAL UPDATE":"17/06/2025"}},{"type":"Feature","geometry":{"coordinates":[106.729563,-6.4206987],"type":"Point"},"properties":{"NAMA":"PASAR IKAN HIAS PARUNG","TIPE_1":"PERDAGANGAN DAN RETAIL","TIPE_2":"PASAR","TIPE_3":"PASAR TRADISIONAL","TELEPON":"0813-1195-1137","ALAMAT":"JL. PS. PARUNG NO.1-20 BLOK B, WARU, KEC. PARUNG, KABUPATEN BOGOR, JAWA BARAT 16330","ID_PROV":"32","PROVINSI":"JAWA BARAT","ID_KABKOT":"32.01","KABKOT":"BOGOR","ID_KEC":"32.01.10","KECAMATAN":"PARUNG","ID_DESA":"32.01.10.2004","DESA":"WARU","LATITUDE":-6.4206987,"LONGITUDE":106.729563,"STATUS":"BUKA","TANGGAL PENGUMPULAN":"Q2 2025","TANGGAL UPDATE":"17/06/2025"}},{"type":"Feature","geometry":{"coordinates":[106.5858572,-6.4066396],"type":"Point"},"properties":{"NAMA":"PASAR KAGET DAGO","TIPE_1":"PERDAGANGAN DAN RETAIL","TIPE_2":"PASAR","TIPE_3":"PASAR TRADISIONAL","TELEPON":"0821-1177-6422","ALAMAT":"DAGO, KEC. PARUNG PANJANG, KABUPATEN BOGOR, JAWA BARAT 16360","ID_PROV":"32","PROVINSI":"JAWA BARAT","ID_KABKOT":"32.01","KABKOT":"BOGOR","ID_KEC":"32.01.20","KECAMATAN":"PARUNG PANJANG","ID_DESA":"32.01.20.2003","DESA":"DAGO","LATITUDE":-6.4066396,"LONGITUDE":106.5858572,"STATUS":"BUKA","TANGGAL PENGUMPULAN":"Q2 2025","TANGGAL UPDATE":"17/06/2025"}},{"type":"Feature","geometry":{"coordinates":[106.7494103,-6.4545376],"type":"Point"},"properties":{"NAMA":"PASAR KAGET INKOPAD","TIPE_1":"PERDAGANGAN DAN RETAIL","TIPE_2":"PASAR","TIPE_3":"PASAR TRADISIONAL","TELEPON":"","ALAMAT":"JL. MAWAR, SASAK PANJANG, KEC. TAJUR HALANG, KABUPATEN BOGOR, JAWA BARAT 16320","ID_PROV":"32","PROVINSI":"JAWA BARAT","ID_KABKOT":"32.01","KABKOT":"BOGOR","ID_KEC":"32.01.37","KECAMATAN":"TAJURHALANG","ID_DESA":"32.01.37.2003","DESA":"SASAK PANJANG","LATITUDE":-6.4545376,"LONGITUDE":106.7494103,"STATUS":"BUKA","TANGGAL PENGUMPULAN":"Q2 2025","TANGGAL UPDATE":"17/06/2025"}},{"type":"Feature","geometry":{"coordinates":[106.7452126,-6.592297],"type":"Point"},"properties":{"NAMA":"PASAR KAGET","TIPE_1":"PERDAGANGAN DAN RETAIL","TIPE_2":"PASAR","TIPE_3":"PASAR TRADISIONAL","TELEPON":"","ALAMAT":"JL. SETU KAUM, CIHERANG, KEC. DRAMAGA, KABUPATEN BOGOR, JAWA BARAT 16680","ID_PROV":"32","PROVINSI":"JAWA BARAT","ID_KABKOT":"32.01","KABKOT":"BOGOR","ID_KEC":"32.01.30","KECAMATAN":"DRAMAGA","ID_DESA":"32.01.30.2002","DESA":"CIHERANG","LATITUDE":-6.592297,"LONGITUDE":106.7452126,"STATUS":"BUKA","TANGGAL PENGUMPULAN":"Q2 2025","TANGGAL UPDATE":"17/06/2025"}},{"type":"Feature","geometry":{"coordinates":[106.6949304,-6.6190696],"type":"Point"},"properties":{"NAMA":"PASAR JUM'AT CIBITUNG TENGAH","TIPE_1":"PERDAGANGAN DAN RETAIL","TIPE_2":"PASAR","TIPE_3":"PASAR TRADISIONAL","TELEPON":"","ALAMAT":"JL. ABDUL FATAH, CIBITUNG TENGAH, KEC. TENJOLAYA, KABUPATEN BOGOR, JAWA BARAT 16370","ID_PROV":"32","PROVINSI":"JAWA BARAT","ID_KABKOT":"32.01","KABKOT":"BOGOR","ID_KEC":"32.01.40","KECAMATAN":"TENJOLAYA","ID_DESA":"32.01.40.2003","DESA":"CIBITUNG TENGAH","LATITUDE":-6.6190696,"LONGITUDE":106.6949304,"STATUS":"BUKA","TANGGAL PENGUMPULAN":"Q2 2025","TANGGAL UPDATE":"17/06/2025"}},{"type":"Feature","geometry":{"coordinates":[106.69523,-6.61886],"type":"Point"},"properties":{"NAMA":"PASAR JUMAT CIBITUNG TENJOLAYA","TIPE_1":"PERDAGANGAN DAN RETAIL","TIPE_2":"PASAR","TIPE_3":"PASAR TRADISIONAL","TELEPON":"","ALAMAT":"CIBITUNG TENGAH, KEC. TENJOLAYA, KABUPATEN BOGOR, JAWA BARAT","ID_PROV":"32","PROVINSI":"JAWA BARAT","ID_KABKOT":"32.01","KABKOT":"BOGOR","ID_KEC":"32.01.40","KECAMATAN":"TENJOLAYA","ID_DESA":"32.01.40.2003","DESA":"CIBITUNG TENGAH","LATITUDE":-6.61886,"LONGITUDE":106.69523,"STATUS":"BUKA","TANGGAL PENGUMPULAN":"Q2 2025","TANGGAL UPDATE":"17/06/2025"}},{"type":"Feature","geometry":{"coordinates":[106.6630296,-6.6712085],"type":"Point"},"properties":{"NAMA":"PASAR JUM'AT","TIPE_1":"PERDAGANGAN DAN RETAIL","TIPE_2":"PASAR","TIPE_3":"PASAR TRADISIONAL","TELEPON":"","ALAMAT":"JL. RAYA GN. SALAK ENDAH, GUNUNG SARI, PAMIJAHAN, BOGOR REGENCY, WEST JAVA 16810","ID_PROV":"32","PROVINSI":"JAWA BARAT","ID_KABKOT":"32.01","KABKOT":"BOGOR","ID_KEC":"32.01.17","KECAMATAN":"PAMIJAHAN","ID_DESA":"32.01.17.2014","DESA":"GUNUNGSARI","LATITUDE":-6.6712085,"LONGITUDE":106.6630296,"STATUS":"BUKA","TANGGAL PENGUMPULAN":"Q2 2025","TANGGAL UPDATE":"17/06/2025"}},{"type":"Feature","geometry":{"coordinates":[106.7761438,-6.6443818],"type":"Point"},"properties":{"NAMA":"PASAR JASUN","TIPE_1":"PERDAGANGAN DAN RETAIL","TIPE_2":"PASAR","TIPE_3":"PASAR TRADISIONAL","TELEPON":"","ALAMAT":"JL. KP. NYALINDUNG, SUKAMANTRI, KEC. TAMANSARI, KABUPATEN BOGOR, JAWA BARAT 16610","ID_PROV":"32","PROVINSI":"JAWA BARAT","ID_KABKOT":"32.01","KABKOT":"BOGOR","ID_KEC":"32.01.31","KECAMATAN":"TAMANSARI","ID_DESA":"32.01.31.2001","DESA":"SUKAMANTRI","LATITUDE":-6.6443818,"LONGITUDE":106.7761438,"STATUS":"BUKA","TANGGAL PENGUMPULAN":"Q2 2025","TANGGAL UPDATE":"17/06/2025"}},{"type":"Feature","geometry":{"coordinates":[106.7716667,-6.6415877],"type":"Point"},"properties":{"NAMA":"PASAR GERAK","TIPE_1":"PERDAGANGAN DAN RETAIL","TIPE_2":"PASAR","TIPE_3":"PASAR TRADISIONAL","TELEPON":"0852-8965-2221","ALAMAT":"JL. RAYA CIAPUS, SIRNAGALIH, TAMANSARI, BOGOR REGENCY, WEST JAVA 16610","ID_PROV":"32","PROVINSI":"JAWA BARAT","ID_KABKOT":"32.01","KABKOT":"BOGOR","ID_KEC":"32.01.31","KECAMATAN":"TAMANSARI","ID_DESA":"32.01.31.2002","DESA":"SIRNAGALIH","LATITUDE":-6.6415877,"LONGITUDE":106.7716667,"STATUS":"BUKA","TANGGAL PENGUMPULAN":"Q2 2025","TANGGAL UPDATE":"17/06/2025"}},{"type":"Feature","geometry":{"coordinates":[106.9890672,-6.3861597],"type":"Point"},"properties":{"NAMA":"PASAR GEMPOL METLAND CILEUNGSI","TIPE_1":"PERDAGANGAN DAN RETAIL","TIPE_2":"PASAR","TIPE_3":"PASAR TRADISIONAL","TELEPON":"","ALAMAT":"CIPENJO, KEC. CILEUNGSI, KABUPATEN BOGOR, JAWA BARAT 16820","ID_PROV":"32","PROVINSI":"JAWA BARAT","ID_KABKOT":"32.01","KABKOT":"BOGOR","ID_KEC":"32.01.07","KECAMATAN":"CILEUNGSI","ID_DESA":"32.01.07.2010","DESA":"CIPENJO","LATITUDE":-6.3861597,"LONGITUDE":106.9890672,"STATUS":"BUKA","TANGGAL PENGUMPULAN":"Q2 2025","TANGGAL UPDATE":"17/06/2025"}},{"type":"Feature","geometry":{"coordinates":[106.73999029999999,-6.5754346],"type":"Point"},"properties":{"NAMA":"PASAR DRAMAGA","TIPE_1":"PERDAGANGAN DAN RETAIL","TIPE_2":"PASAR","TIPE_3":"PASAR TRADISIONAL","TELEPON":"","ALAMAT":"JL. RAYA DRAMAGA NO.7, MARGAJAYA, KEC. BOGOR BAR., KOTA BOGOR, JAWA BARAT 16116","ID_PROV":"32","PROVINSI":"JAWA BARAT","ID_KABKOT":"32.01","KABKOT":"BOGOR","ID_KEC":"32.01.30","KECAMATAN":"DRAMAGA","ID_DESA":"32.01.30.2009","DESA":"DRAMAGA","LATITUDE":-6.5754346,"LONGITUDE":106.7399903,"STATUS":"BUKA","TANGGAL PENGUMPULAN":"Q2 2025","TANGGAL UPDATE":"17/06/2025"}},{"type":"Feature","geometry":{"coordinates":[106.4613128,-6.3279263],"type":"Point"},"properties":{"NAMA":"PASAR DODOL TENJO","TIPE_1":"PERDAGANGAN DAN RETAIL","TIPE_2":"PASAR","TIPE_3":"PASAR TRADISIONAL","TELEPON":"","ALAMAT":"JL. RAYA TENJO, TENJO, KEC. TENJO, KABUPATEN BOGOR, JAWA BARAT 16370","ID_PROV":"32","PROVINSI":"JAWA BARAT","ID_KABKOT":"32.01","KABKOT":"BOGOR","ID_KEC":"32.01.23","KECAMATAN":"TENJO","ID_DESA":"32.01.23.2005","DESA":"TENJO","LATITUDE":-6.3279263,"LONGITUDE":106.4613128,"STATUS":"BUKA","TANGGAL PENGUMPULAN":"Q2 2025","TANGGAL UPDATE":"17/06/2025"}},{"type":"Feature","geometry":{"coordinates":[107.046796,-6.5184788],"type":"Point"},"properties":{"NAMA":"PASAR DAYEUH, JONGGOL","TIPE_1":"PERDAGANGAN DAN RETAIL","TIPE_2":"PASAR","TIPE_3":"PASAR TRADISIONAL","TELEPON":"","ALAMAT":"JL. RAYA JONGGOL-DAYEUH, SUKANEGARA, KEC. JONGGOL, KABUPATEN BOGOR, JAWA BARAT 16830","ID_PROV":"32","PROVINSI":"JAWA BARAT","ID_KABKOT":"32.01","KABKOT":"BOGOR","ID_KEC":"32.01.06","KECAMATAN":"JONGGOL","ID_DESA":"32.01.06.2005","DESA":"SUKANEGARA","LATITUDE":-6.5184788,"LONGITUDE":107.046796,"STATUS":"BUKA","TANGGAL PENGUMPULAN":"Q2 2025","TANGGAL UPDATE":"17/06/2025"}},{"type":"Feature","geometry":{"coordinates":[106.7701153,-6.6554924],"type":"Point"},"properties":{"NAMA":"PASAR DANAS","TIPE_1":"PERDAGANGAN DAN RETAIL","TIPE_2":"PASAR","TIPE_3":"PASAR TRADISIONAL","TELEPON":"","ALAMAT":"JL. RAYA PONDOK BITUNG NO.1234, SUKAHARJA, CIJERUK, BOGOR REGENCY, WEST JAVA 16610","ID_PROV":"32","PROVINSI":"JAWA BARAT","ID_KABKOT":"32.01","KABKOT":"BOGOR","ID_KEC":"32.01.28","KECAMATAN":"CIJERUK","ID_DESA":"32.01.28.2007","DESA":"SUKAHARJA","LATITUDE":-6.6554924,"LONGITUDE":106.7701153,"STATUS":"BUKA","TANGGAL PENGUMPULAN":"Q2 2025","TANGGAL UPDATE":"17/06/2025"}},{"type":"Feature","geometry":{"coordinates":[106.88333259999999,-6.4882354],"type":"Point"},"properties":{"NAMA":"PASAR CITEUREUP 2","TIPE_1":"PERDAGANGAN DAN RETAIL","TIPE_2":"PASAR","TIPE_3":"PASAR TRADISIONAL","TELEPON":"","ALAMAT":"JL. RAYA MAYOR OKING JAYA ATMAJA NO.152, RT.1/RW.1, CITEUREUP, KEC. CITEUREUP, KABUPATEN BOGOR, JAWA BARAT 16810","ID_PROV":"32","PROVINSI":"JAWA BARAT","ID_KABKOT":"32.01","KABKOT":"BOGOR","ID_KEC":"32.01.03","KECAMATAN":"CITEUREUP","ID_DESA":"32.01.03.2002","DESA":"CITEUREUP","LATITUDE":-6.4882354,"LONGITUDE":106.8833326,"STATUS":"BUKA","TANGGAL PENGUMPULAN":"Q2 2025","TANGGAL UPDATE":"17/06/2025"}},{"type":"Feature","geometry":{"coordinates":[107.01976219999999,-6.4545886],"type":"Point"},"properties":{"NAMA":"PASAR CITRA GRAHA PRIMA","TIPE_1":"PERDAGANGAN DAN RETAIL","TIPE_2":"PASAR","TIPE_3":"PASAR TRADISIONAL","TELEPON":"0877-1101-2062","ALAMAT":"SINGASARI, KEC. JONGGOL, KABUPATEN BOGOR, JAWA BARAT 16830","ID_PROV":"32","PROVINSI":"JAWA BARAT","ID_KABKOT":"32.01","KABKOT":"BOGOR","ID_KEC":"32.01.06","KECAMATAN":"JONGGOL","ID_DESA":"32.01.06.2011","DESA":"SINGASARI","LATITUDE":-6.4545886,"LONGITUDE":107.0197622,"STATUS":"BUKA","TANGGAL PENGUMPULAN":"Q2 2025","TANGGAL UPDATE":"17/06/2025"}},{"type":"Feature","geometry":{"coordinates":[106.9300275,-6.679003],"type":"Point"},"properties":{"NAMA":"PASAR CISARUA BOGOR","TIPE_1":"PERDAGANGAN DAN RETAIL","TIPE_2":"PASAR","TIPE_3":"PASAR TRADISIONAL","TELEPON":"","ALAMAT":"JL. PS. CISARUA, CISARUA, KEC. CISARUA, KABUPATEN BOGOR, JAWA BARAT 16750","ID_PROV":"32","PROVINSI":"JAWA BARAT","ID_KABKOT":"32.01","KABKOT":"BOGOR","ID_KEC":"32.01.25","KECAMATAN":"CISARUA","ID_DESA":"32.01.25.2005","DESA":"CITEKO","LATITUDE":-6.679003,"LONGITUDE":106.9300275,"STATUS":"BUKA","TANGGAL PENGUMPULAN":"Q2 2025","TANGGAL UPDATE":"17/06/2025"}},{"type":"Feature","geometry":{"coordinates":[106.9403544,-6.6877025],"type":"Point"},"properties":{"NAMA":"PASAR CISARUA","TIPE_1":"PERDAGANGAN DAN RETAIL","TIPE_2":"PASAR","TIPE_3":"PASAR TRADISIONAL","TELEPON":"0896-1151-8492","ALAMAT":"JL. NASIONAL 11 NO.18, CIBEUREUM, KEC. CISARUA, KABUPATEN BOGOR, JAWA BARAT 16750","ID_PROV":"32","PROVINSI":"JAWA BARAT","ID_KABKOT":"32.01","KABKOT":"BOGOR","ID_KEC":"32.01.25","KECAMATAN":"CISARUA","ID_DESA":"32.01.25.2003","DESA":"CIBEUREUM","LATITUDE":-6.6877025,"LONGITUDE":106.9403544,"STATUS":"BUKA","TANGGAL PENGUMPULAN":"Q2 2025","TANGGAL UPDATE":"17/06/2025"}},{"type":"Feature","geometry":{"coordinates":[106.9288699,-6.6812855],"type":"Point"},"properties":{"NAMA":"PASAR CISARUA PERUMDA PASAR TOHAGA","TIPE_1":"PERDAGANGAN DAN RETAIL","TIPE_2":"PASAR","TIPE_3":"PASAR TRADISIONAL","TELEPON":"","ALAMAT":"JALAN RAYA PUNCAK DESA CITEKO RT 03/03 16750, CITEKO, KEC. CISARUA, KABUPATEN BOGOR, JAWA BARAT 16750","ID_PROV":"32","PROVINSI":"JAWA BARAT","ID_KABKOT":"32.01","KABKOT":"BOGOR","ID_KEC":"32.01.25","KECAMATAN":"CISARUA","ID_DESA":"32.01.25.2005","DESA":"CITEKO","LATITUDE":-6.6812855,"LONGITUDE":106.9288699,"STATUS":"BUKA","TANGGAL PENGUMPULAN":"Q2 2025","TANGGAL UPDATE":"17/06/2025"}},{"type":"Feature","geometry":{"coordinates":[106.7678997,-6.6027973],"type":"Point"},"properties":{"NAMA":"PASAR CIOMAS","TIPE_1":"PERDAGANGAN DAN RETAIL","TIPE_2":"PASAR","TIPE_3":"PASAR TRADISIONAL","TELEPON":"","ALAMAT":"JL. RAYA CIOMAS NO.33, PAGELARAN, KEC. CIOMAS, KABUPATEN BOGOR, JAWA BARAT 16610","ID_PROV":"32","PROVINSI":"JAWA BARAT","ID_KABKOT":"32.01","KABKOT":"BOGOR","ID_KEC":"32.01.29","KECAMATAN":"CIOMAS","ID_DESA":"32.01.29.2005","DESA":"CIOMAS","LATITUDE":-6.6027973,"LONGITUDE":106.7678997,"STATUS":"BUKA","TANGGAL PENGUMPULAN":"Q2 2025","TANGGAL UPDATE":"17/06/2025"}},{"type":"Feature","geometry":{"coordinates":[106.9615625,-6.4069375],"type":"Point"},"properties":{"NAMA":"PASAR CILEUNGSI","TIPE_1":"PERDAGANGAN DAN RETAIL","TIPE_2":"PASAR","TIPE_3":"PASAR TRADISIONAL","TELEPON":"","ALAMAT":"CILEUNGSI KIDUL, KEC. CILEUNGSI, KABUPATEN BOGOR, JAWA BARAT 16820","ID_PROV":"32","PROVINSI":"JAWA BARAT","ID_KABKOT":"32.01","KABKOT":"BOGOR","ID_KEC":"32.01.07","KECAMATAN":"CILEUNGSI","ID_DESA":"32.01.07.2007","DESA":"CILEUNGSI KIDUL","LATITUDE":-6.4069375,"LONGITUDE":106.9615625,"STATUS":"BUKA","TANGGAL PENGUMPULAN":"Q2 2025","TANGGAL UPDATE":"17/06/2025"}},{"type":"Feature","geometry":{"coordinates":[106.8272094,-6.5445445],"type":"Point"},"properties":{"NAMA":"PASAR CILUAR","TIPE_1":"PERDAGANGAN DAN RETAIL","TIPE_2":"PASAR","TIPE_3":"PASAR TRADISIONAL","TELEPON":"","ALAMAT":"JL. PS. CILUAR NO.9, CIJUJUNG, KEC. SUKARAJA, KABUPATEN BOGOR, JAWA BARAT 16710","ID_PROV":"32","PROVINSI":"JAWA BARAT","ID_KABKOT":"32.01","KABKOT":"BOGOR","ID_KEC":"32.01.04","KECAMATAN":"SUKARAJA","ID_DESA":"32.01.04.2011","DESA":"CIJUJUNG","LATITUDE":-6.5445445,"LONGITUDE":106.8272094,"STATUS":"BUKA","TANGGAL PENGUMPULAN":"Q2 2025","TANGGAL UPDATE":"17/06/2025"}},{"type":"Feature","geometry":{"coordinates":[106.6676294,-6.6069799],"type":"Point"},"properties":{"NAMA":"PASAR CIMAYANG","TIPE_1":"PERDAGANGAN DAN RETAIL","TIPE_2":"PASAR","TIPE_3":"PASAR TRADISIONAL","TELEPON":"","ALAMAT":"PASAR, JL. KAPTEN DASUKI BAKRI PASAR NO.19, RT.04/RW.02, CIMAYANG, KEC. PAMIJAHAN, KABUPATEN BOGOR, JAWA BARAT 16810","ID_PROV":"32","PROVINSI":"JAWA BARAT","ID_KABKOT":"32.01","KABKOT":"BOGOR","ID_KEC":"32.01.17","KECAMATAN":"PAMIJAHAN","ID_DESA":"32.01.17.2007","DESA":"CIMAYANG","LATITUDE":-6.6069799,"LONGITUDE":106.6676294,"STATUS":"BUKA","TANGGAL PENGUMPULAN":"Q2 2025","TANGGAL UPDATE":"17/06/2025"}},{"type":"Feature","geometry":{"coordinates":[106.8573915,-6.4572279],"type":"Point"},"properties":{"NAMA":"PASAR CIKEMA DEPOK TIMUR","TIPE_1":"PERDAGANGAN DAN RETAIL","TIPE_2":"PASAR","TIPE_3":"PASAR TRADISIONAL","TELEPON":"0887-1026-917","ALAMAT":"KAMPUNG KRANJI, BLOK CENTRAL JL. RAYA JAKARTA-BOGOR NO.44, CIRIUNG, KEC. CIBINONG, KABUPATEN BOGOR, JAWA BARAT 16918","ID_PROV":"32","PROVINSI":"JAWA BARAT","ID_KABKOT":"32.01","KABKOT":"BOGOR","ID_KEC":"32.01.01","KECAMATAN":"CIBINONG","ID_DESA":"32.01.01.1010","DESA":"CIRIUNG","LATITUDE":-6.4572279,"LONGITUDE":106.8573915,"STATUS":"BUKA","TANGGAL PENGUMPULAN":"Q2 2025","TANGGAL UPDATE":"17/06/2025"}},{"type":"Feature","geometry":{"coordinates":[106.8463144,-6.6909247],"type":"Point"},"properties":{"NAMA":"PASAR CIKERETEG BOGOR","TIPE_1":"PERDAGANGAN DAN RETAIL","TIPE_2":"PASAR","TIPE_3":"PASAR TRADISIONAL","TELEPON":"","ALAMAT":"CIDERUM, KEC. CARINGIN, KABUPATEN BOGOR, JAWA BARAT 16730","ID_PROV":"32","PROVINSI":"JAWA BARAT","ID_KABKOT":"32.01","KABKOT":"BOGOR","ID_KEC":"32.01.27","KECAMATAN":"CARINGIN","ID_DESA":"32.01.27.2003","DESA":"CIDERUM","LATITUDE":-6.6909247,"LONGITUDE":106.8463144,"STATUS":"BUKA","TANGGAL PENGUMPULAN":"Q2 2025","TANGGAL UPDATE":"17/06/2025"}},{"type":"Feature","geometry":{"coordinates":[106.6321519,-6.3870791],"type":"Point"},"properties":{"NAMA":"PASAR CICANGKAL","TIPE_1":"PERDAGANGAN DAN RETAIL","TIPE_2":"PASAR","TIPE_3":"PASAR TRADISIONAL","TELEPON":"0896-1212-8867","ALAMAT":"PS. CICANGKAL, JL. RAYA RUMPIN NO.78 BLOK D1, TAMAN SARI, RUMPIN, BOGOR REGENCY, WEST JAVA 16350","ID_PROV":"32","PROVINSI":"JAWA BARAT","ID_KABKOT":"32.01","KABKOT":"BOGOR","ID_KEC":"32.01.18","KECAMATAN":"RUMPIN","ID_DESA":"32.01.18.2012","DESA":"SUKAMULYA","LATITUDE":-6.3870791,"LONGITUDE":106.6321519,"STATUS":"BUKA","TANGGAL PENGUMPULAN":"Q2 2025","TANGGAL UPDATE":"17/06/2025"}},{"type":"Feature","geometry":{"coordinates":[106.798032,-6.7478123],"type":"Point"},"properties":{"NAMA":"PASAR CIGOMBONG","TIPE_1":"PERDAGANGAN DAN RETAIL","TIPE_2":"PASAR","TIPE_3":"PASAR TRADISIONAL","TELEPON":"","ALAMAT":"JL. PS. BARU CIGOMBONG, CIGOMBONG, KEC. CIGOMBONG, KABUPATEN BOGOR, JAWA BARAT 16740","ID_PROV":"32","PROVINSI":"JAWA BARAT","ID_KABKOT":"32.01","KABKOT":"BOGOR","ID_KEC":"32.01.38","KECAMATAN":"CIGOMBONG","ID_DESA":"32.01.38.2001","DESA":"CIGOMBONG","LATITUDE":-6.7478123,"LONGITUDE":106.798032,"STATUS":"BUKA","TANGGAL PENGUMPULAN":"Q2 2025","TANGGAL UPDATE":"17/06/2025"}},{"type":"Feature","geometry":{"coordinates":[106.425497,-6.460767],"type":"Point"},"properties":{"NAMA":"PASAR CIGUDEG BOGOR","TIPE_1":"PERDAGANGAN DAN RETAIL","TIPE_2":"PASAR","TIPE_3":"PASAR TRADISIONAL","TELEPON":"","ALAMAT":"GCQG+M5 , TEGAL WANGI, KEC. JASINGA, KABUPATEN BOGOR, JAWA BARAT","ID_PROV":"32","PROVINSI":"JAWA BARAT","ID_KABKOT":"32.01","KABKOT":"BOGOR","ID_KEC":"32.01.19","KECAMATAN":"JASINGA","ID_DESA":"32.01.19.2014","DESA":"TEGALWANGI","LATITUDE":-6.460767,"LONGITUDE":106.425497,"STATUS":"BUKA","TANGGAL PENGUMPULAN":"Q2 2025","TANGGAL UPDATE":"17/06/2025"}},{"type":"Feature","geometry":{"coordinates":[106.5348462,-6.5493263],"type":"Point"},"properties":{"NAMA":"PASAR CIGUDEG","TIPE_1":"PERDAGANGAN DAN RETAIL","TIPE_2":"PASAR","TIPE_3":"PASAR TRADISIONAL","TELEPON":"","ALAMAT":"CIGUDEG, BOGOR REGENCY, WEST JAVA","ID_PROV":"32","PROVINSI":"JAWA BARAT","ID_KABKOT":"32.01","KABKOT":"BOGOR","ID_KEC":"32.01.22","KECAMATAN":"CIGUDEG","ID_DESA":"32.01.22.2002","DESA":"CIGUDEG","LATITUDE":-6.5493263,"LONGITUDE":106.5348462,"STATUS":"BUKA","TANGGAL PENGUMPULAN":"Q2 2025","TANGGAL UPDATE":"17/06/2025"}},{"type":"Feature","geometry":{"coordinates":[106.7958662,-6.7073322],"type":"Point"},"properties":{"NAMA":"PASAR CIBADAK CIJERUK","TIPE_1":"PERDAGANGAN DAN RETAIL","TIPE_2":"PASAR","TIPE_3":"PASAR TRADISIONAL","TELEPON":"","ALAMAT":"JL. KOLONEL BUSTOMI NO.1, RT.04/RW.01, CIJERUK, BOGOR REGENCY, WEST JAVA 16740","ID_PROV":"32","PROVINSI":"JAWA BARAT","ID_KABKOT":"32.01","KABKOT":"BOGOR","ID_KEC":"32.01.28","KECAMATAN":"CIJERUK","ID_DESA":"32.01.28.2001","DESA":"CIJERUK","LATITUDE":-6.7073322,"LONGITUDE":106.7958662,"STATUS":"BUKA","TANGGAL PENGUMPULAN":"Q2 2025","TANGGAL UPDATE":"17/06/2025"}},{"type":"Feature","geometry":{"coordinates":[106.9405093,-6.6878616],"type":"Point"},"properties":{"NAMA":"PASAR CIBEUREUM","TIPE_1":"PERDAGANGAN DAN RETAIL","TIPE_2":"PASAR","TIPE_3":"PASAR TRADISIONAL","TELEPON":"","ALAMAT":"JL. RAYA PUNCAK NO.KM.82, CIBEUREUM, KEC. CISARUA, KABUPATEN BOGOR, JAWA BARAT 16750","ID_PROV":"32","PROVINSI":"JAWA BARAT","ID_KABKOT":"32.01","KABKOT":"BOGOR","ID_KEC":"32.01.25","KECAMATAN":"CISARUA","ID_DESA":"32.01.25.2003","DESA":"CIBEUREUM","LATITUDE":-6.6878616,"LONGITUDE":106.9405093,"STATUS":"BUKA","TANGGAL PENGUMPULAN":"Q2 2025","TANGGAL UPDATE":"17/06/2025"}},{"type":"Feature","geometry":{"coordinates":[106.9311705,-6.680036],"type":"Point"},"properties":{"NAMA":"PASAR CIBOLEGER","TIPE_1":"PERDAGANGAN DAN RETAIL","TIPE_2":"PASAR","TIPE_3":"PASAR TRADISIONAL","TELEPON":"","ALAMAT":"CISARUA, BOGOR REGENCY, WEST JAVA 16750","ID_PROV":"32","PROVINSI":"JAWA BARAT","ID_KABKOT":"32.01","KABKOT":"BOGOR","ID_KEC":"32.01.25","KECAMATAN":"CISARUA","ID_DESA":"32.01.25.1010","DESA":"CISARUA","LATITUDE":-6.680036,"LONGITUDE":106.9311705,"STATUS":"BUKA","TANGGAL PENGUMPULAN":"Q2 2025","TANGGAL UPDATE":"17/06/2025"}},{"type":"Feature","geometry":{"coordinates":[106.693272,-6.5507795],"type":"Point"},"properties":{"NAMA":"PASAR CIAMPEA BARU","TIPE_1":"PERDAGANGAN DAN RETAIL","TIPE_2":"PASAR","TIPE_3":"PASAR TRADISIONAL","TELEPON":"","ALAMAT":"CIAMPEA UDIK, KEC. CIAMPEA, KABUPATEN BOGOR, JAWA BARAT 16620","ID_PROV":"32","PROVINSI":"JAWA BARAT","ID_KABKOT":"32.01","KABKOT":"BOGOR","ID_KEC":"32.01.15","KECAMATAN":"CIAMPEA","ID_DESA":"32.01.15.2001","DESA":"CIAMPEA","LATITUDE":-6.5507795,"LONGITUDE":106.693272,"STATUS":"BUKA","TANGGAL PENGUMPULAN":"Q2 2025","TANGGAL UPDATE":"17/06/2025"}},{"type":"Feature","geometry":{"coordinates":[106.69509,-6.54227],"type":"Point"},"properties":{"NAMA":"PASAR CIAMPEA","TIPE_1":"PERDAGANGAN DAN RETAIL","TIPE_2":"PASAR","TIPE_3":"PASAR TRADISIONAL","TELEPON":"","ALAMAT":"CIAMPEA, KEC. CIAMPEA, KABUPATEN BOGOR, JAWA BARAT","ID_PROV":"32","PROVINSI":"JAWA BARAT","ID_KABKOT":"32.01","KABKOT":"BOGOR","ID_KEC":"32.01.15","KECAMATAN":"CIAMPEA","ID_DESA":"32.01.15.2001","DESA":"CIAMPEA","LATITUDE":-6.54227,"LONGITUDE":106.69509,"STATUS":"BUKA","TANGGAL PENGUMPULAN":"Q2 2025","TANGGAL UPDATE":"17/06/2025"}},{"type":"Feature","geometry":{"coordinates":[106.8471728,-6.6564377],"type":"Point"},"properties":{"NAMA":"PASAR CIAWI BOGOR","TIPE_1":"PERDAGANGAN DAN RETAIL","TIPE_2":"PASAR","TIPE_3":"PASAR TRADISIONAL","TELEPON":"","ALAMAT":"JL. RAYA CIAWI PRAPATAN JL. RAYA PUNCAK, CIAWI, KEC. CIAWI, KABUPATEN BOGOR, JAWA BARAT 16720","ID_PROV":"32","PROVINSI":"JAWA BARAT","ID_KABKOT":"32.01","KABKOT":"BOGOR","ID_KEC":"32.01.24","KECAMATAN":"CIAWI","ID_DESA":"32.01.24.2012","DESA":"CIAWI","LATITUDE":-6.6564377,"LONGITUDE":106.8471728,"STATUS":"BUKA","TANGGAL PENGUMPULAN":"Q2 2025","TANGGAL UPDATE":"17/06/2025"}},{"type":"Feature","geometry":{"coordinates":[106.97562,-6.3229109],"type":"Point"},"properties":{"NAMA":"PASAR DESA BOJONG KULUR","TIPE_1":"PERDAGANGAN DAN RETAIL","TIPE_2":"PASAR","TIPE_3":"PASAR TRADISIONAL","TELEPON":"","ALAMAT":"BOJONG KULUR, KEC. GN. PUTRI, KABUPATEN BOGOR, JAWA BARAT 16969","ID_PROV":"32","PROVINSI":"JAWA BARAT","ID_KABKOT":"32.01","KABKOT":"BOGOR","ID_KEC":"32.01.02","KECAMATAN":"GUNUNG PUTRI","ID_DESA":"32.01.02.2002","DESA":"BOJONG KULUR","LATITUDE":-6.3229109,"LONGITUDE":106.97562,"STATUS":"BUKA","TANGGAL PENGUMPULAN":"Q2 2025","TANGGAL UPDATE":"17/06/2025"}},{"type":"Feature","geometry":{"coordinates":[106.9175113,-6.4274993],"type":"Point"},"properties":{"NAMA":"PASAR BODAS","TIPE_1":"PERDAGANGAN DAN RETAIL","TIPE_2":"PASAR","TIPE_3":"PASAR TRADISIONAL","TELEPON":"0813-8299-8435","ALAMAT":"JL. RAYA  NO. A.03 DESA BOJONG NANGKA, JL. PS. BODAS NO.A.03, CICADAS, KEC. GN. PUTRI, KABUPATEN BOGOR, JAWA BARAT 16964","ID_PROV":"32","PROVINSI":"JAWA BARAT","ID_KABKOT":"32.01","KABKOT":"BOGOR","ID_KEC":"32.01.02","KECAMATAN":"GUNUNG PUTRI","ID_DESA":"32.01.02.2005","DESA":"BOJONG NANGKA","LATITUDE":-6.4274993,"LONGITUDE":106.9175113,"STATUS":"BUKA","TANGGAL PENGUMPULAN":"Q2 2025","TANGGAL UPDATE":"17/06/2025"}},{"type":"Feature","geometry":{"coordinates":[106.80989609999999,-6.5443421],"type":"Point"},"properties":{"NAMA":"PASAR BOGOR","TIPE_1":"PERDAGANGAN DAN RETAIL","TIPE_2":"PASAR","TIPE_3":"PASAR TRADISIONAL","TELEPON":"","ALAMAT":"JL VILA BOGOR INDAH, PARIGI, RUKO BLOK CA3 NO. 6 16157, CIPARIGI, KEC. BOGOR UTARA, KOTA BOGOR, JAWA BARAT 16157","ID_PROV":"32","PROVINSI":"JAWA BARAT","ID_KABKOT":"32.01","KABKOT":"BOGOR","ID_KEC":"32.01.04","KECAMATAN":"SUKARAJA","ID_DESA":"32.01.04.2009","DESA":"PASIR JAMBU","LATITUDE":-6.5443421,"LONGITUDE":106.8098961,"STATUS":"BUKA","TANGGAL PENGUMPULAN":"Q2 2025","TANGGAL UPDATE":"17/06/2025"}},{"type":"Feature","geometry":{"coordinates":[106.99225279999999,-6.3716077],"type":"Point"},"properties":{"NAMA":"PASAR BLOK R GRIYA ALAM SENTOSA 2","TIPE_1":"PERDAGANGAN DAN RETAIL","TIPE_2":"PASAR","TIPE_3":"PASAR TRADISIONAL","TELEPON":"","ALAMAT":"PASIR ANGIN, KEC. CILEUNGSI, KABUPATEN BOGOR, JAWA BARAT 16820","ID_PROV":"32","PROVINSI":"JAWA BARAT","ID_KABKOT":"32.01","KABKOT":"BOGOR","ID_KEC":"32.01.07","KECAMATAN":"CILEUNGSI","ID_DESA":"32.01.07.2001","DESA":"PASIRANGIN","LATITUDE":-6.3716077,"LONGITUDE":106.9922528,"STATUS":"BUKA","TANGGAL PENGUMPULAN":"Q2 2025","TANGGAL UPDATE":"17/06/2025"}},{"type":"Feature","geometry":{"coordinates":[106.8613941,-6.5648547],"type":"Point"},"properties":{"NAMA":"PASAR BERSIH SENTUL CITY","TIPE_1":"PERDAGANGAN DAN RETAIL","TIPE_2":"PASAR","TIPE_3":"PASAR MODERN","TELEPON":"","ALAMAT":"JL. TAMAN VICTORIA, CITARINGGUL, KEC. BABAKAN MADANG, KABUPATEN BOGOR, JAWA BARAT 16810","ID_PROV":"32","PROVINSI":"JAWA BARAT","ID_KABKOT":"32.01","KABKOT":"BOGOR","ID_KEC":"32.01.05","KECAMATAN":"BABAKAN MADANG","ID_DESA":"32.01.05.2007","DESA":"CITARINGGUL","LATITUDE":-6.5648547,"LONGITUDE":106.8613941,"STATUS":"BUKA","TANGGAL PENGUMPULAN":"Q2 2025","TANGGAL UPDATE":"17/06/2025"}},{"type":"Feature","geometry":{"coordinates":[107.1316876,-6.506237],"type":"Point"},"properties":{"NAMA":"PASAR CARIU","TIPE_1":"PERDAGANGAN DAN RETAIL","TIPE_2":"PASAR","TIPE_3":"PASAR TRADISIONAL","TELEPON":"","ALAMAT":"CARIU, KEC. CARIU, KABUPATEN BOGOR, JAWA BARAT 16840","ID_PROV":"32","PROVINSI":"JAWA BARAT","ID_KABKOT":"32.01","KABKOT":"BOGOR","ID_KEC":"32.01.08","KECAMATAN":"CARIU","ID_DESA":"32.01.08.2005","DESA":"CARIU","LATITUDE":-6.506237,"LONGITUDE":107.1316876,"STATUS":"BUKA","TANGGAL PENGUMPULAN":"Q2 2025","TANGGAL UPDATE":"17/06/2025"}},{"type":"Feature","geometry":{"coordinates":[106.82206,-6.70599],"type":"Point"},"properties":{"NAMA":"PASAR CARINGIN MASENG","TIPE_1":"PERDAGANGAN DAN RETAIL","TIPE_2":"PASAR","TIPE_3":"PASAR TRADISIONAL","TELEPON":"","ALAMAT":"CARINGIN, KEC. CARINGIN, KABUPATEN BOGOR, JAWA BARAT","ID_PROV":"32","PROVINSI":"JAWA BARAT","ID_KABKOT":"32.01","KABKOT":"BOGOR","ID_KEC":"32.01.27","KECAMATAN":"CARINGIN","ID_DESA":"32.01.27.2004","DESA":"CARINGIN","LATITUDE":-6.70599,"LONGITUDE":106.82206,"STATUS":"BUKA","TANGGAL PENGUMPULAN":"Q2 2025","TANGGAL UPDATE":"17/06/2025"}},{"type":"Feature","geometry":{"coordinates":[106.821962,-6.7056923],"type":"Point"},"properties":{"NAMA":"PASAR CARINGIN MASENG","TIPE_1":"PERDAGANGAN DAN RETAIL","TIPE_2":"PASAR","TIPE_3":"PASAR TRADISIONAL","TELEPON":"","ALAMAT":"JL. KOLONEL BUSTOMI NO.KM. 17, CARINGIN, KEC. CARINGIN, KABUPATEN BOGOR, JAWA BARAT 16730","ID_PROV":"32","PROVINSI":"JAWA BARAT","ID_KABKOT":"32.01","KABKOT":"BOGOR","ID_KEC":"32.01.27","KECAMATAN":"CARINGIN","ID_DESA":"32.01.27.2004","DESA":"CARINGIN","LATITUDE":-6.7056923,"LONGITUDE":106.821962,"STATUS":"BUKA","TANGGAL PENGUMPULAN":"Q2 2025","TANGGAL UPDATE":"17/06/2025"}},{"type":"Feature","geometry":{"coordinates":[106.8715823,-6.68199],"type":"Point"},"properties":{"NAMA":"PASAR CARINGIN TAPOS","TIPE_1":"PERDAGANGAN DAN RETAIL","TIPE_2":"PASAR","TIPE_3":"PASAR TRADISIONAL","TELEPON":"","ALAMAT":"JL. KARAKAL NO.99B, BANJAR SARI, KEC. CIAWI, KABUPATEN BOGOR, JAWA BARAT 16720","ID_PROV":"32","PROVINSI":"JAWA BARAT","ID_KABKOT":"32.01","KABKOT":"BOGOR","ID_KEC":"32.01.24","KECAMATAN":"CIAWI","ID_DESA":"32.01.24.2005","DESA":"BANJARSARI","LATITUDE":-6.68199,"LONGITUDE":106.8715823,"STATUS":"BUKA","TANGGAL PENGUMPULAN":"Q2 2025","TANGGAL UPDATE":"17/06/2025"}},{"type":"Feature","geometry":{"coordinates":[106.7601042,-6.5467001],"type":"Point"},"properties":{"NAMA":"PASAR ATS","TIPE_1":"PERDAGANGAN DAN RETAIL","TIPE_2":"PASAR","TIPE_3":"PASAR TRADISIONAL","TELEPON":"","ALAMAT":"JL. RAYA SEMPLAK NO.B12, RW.3, ATANG SENJAYA, KEC. KEMANG, KABUPATEN BOGOR, JAWA BARAT 16310","ID_PROV":"32","PROVINSI":"JAWA BARAT","ID_KABKOT":"32.01","KABKOT":"BOGOR","ID_KEC":"32.01.12","KECAMATAN":"KEMANG","ID_DESA":"32.01.12.1006","DESA":"ATANG SENJAYA","LATITUDE":-6.5467001,"LONGITUDE":106.7601042,"STATUS":"BUKA","TANGGAL PENGUMPULAN":"Q2 2025","TANGGAL UPDATE":"17/06/2025"}},{"type":"Feature","geometry":{"coordinates":[106.7956921,-6.7074015],"type":"Point"},"properties":{"NAMA":"PASAR ARKATO CIJERUK","TIPE_1":"PERDAGANGAN DAN RETAIL","TIPE_2":"PASAR","TIPE_3":"PASAR TRADISIONAL","TELEPON":"","ALAMAT":"CIJERUK, KEC. CIJERUK, KABUPATEN BOGOR, JAWA BARAT 16740","ID_PROV":"32","PROVINSI":"JAWA BARAT","ID_KABKOT":"32.01","KABKOT":"BOGOR","ID_KEC":"32.01.28","KECAMATAN":"CIJERUK","ID_DESA":"32.01.28.2001","DESA":"CIJERUK","LATITUDE":-6.7074015,"LONGITUDE":106.7956921,"STATUS":"BUKA","TANGGAL PENGUMPULAN":"Q2 2025","TANGGAL UPDATE":"17/06/2025"}},{"type":"Feature","geometry":{"coordinates":[106.9660912,-6.4298296],"type":"Point"},"properties":{"NAMA":"PASAR ANUGRAH","TIPE_1":"PERDAGANGAN DAN RETAIL","TIPE_2":"PASAR","TIPE_3":"PASAR TRADISIONAL","TELEPON":"","ALAMAT":"DAYEUH, KEC. CILEUNGSI, KABUPATEN BOGOR, JAWA BARAT 16820","ID_PROV":"32","PROVINSI":"JAWA BARAT","ID_KABKOT":"32.01","KABKOT":"BOGOR","ID_KEC":"32.01.07","KECAMATAN":"CILEUNGSI","ID_DESA":"32.01.07.2004","DESA":"DAYEUH","LATITUDE":-6.4298296,"LONGITUDE":106.9660912,"STATUS":"BUKA","TANGGAL PENGUMPULAN":"Q2 2025","TANGGAL UPDATE":"17/06/2025"}},{"type":"Feature","geometry":{"coordinates":[106.8101008,-6.5445622],"type":"Point"},"properties":{"NAMA":"PASAR ANYAR","TIPE_1":"PERDAGANGAN DAN RETAIL","TIPE_2":"PASAR","TIPE_3":"PASAR TRADISIONAL","TELEPON":"","ALAMAT":"RT.02/RW.11, CIPARIGI, KEC. BOGOR UTARA, KOTA BOGOR, JAWA BARAT 16157","ID_PROV":"32","PROVINSI":"JAWA BARAT","ID_KABKOT":"32.01","KABKOT":"BOGOR","ID_KEC":"32.01.04","KECAMATAN":"SUKARAJA","ID_DESA":"32.01.04.2009","DESA":"PASIR JAMBU","LATITUDE":-6.5445622,"LONGITUDE":106.8101008,"STATUS":"BUKA","TANGGAL PENGUMPULAN":"Q2 2025","TANGGAL UPDATE":"17/06/2025"}},{"type":"Feature","geometry":{"coordinates":[106.866848,-6.4802611],"type":"Point"},"properties":{"NAMA":"PASAR ANGGADA","TIPE_1":"PERDAGANGAN DAN RETAIL","TIPE_2":"PASAR","TIPE_3":"PASAR TRADISIONAL","TELEPON":"","ALAMAT":"RUKO ANGGADA INDAH BLOK A1 NO 39-40, JL. RAYA MAYOR OKING JAYA ATMAJA NO.39-40, CIRIUNG, KEC. CIBINONG, KABUPATEN BOGOR, JAWA BARAT 16918","ID_PROV":"32","PROVINSI":"JAWA BARAT","ID_KABKOT":"32.01","KABKOT":"BOGOR","ID_KEC":"32.01.01","KECAMATAN":"CIBINONG","ID_DESA":"32.01.01.1010","DESA":"CIRIUNG","LATITUDE":-6.4802611,"LONGITUDE":106.866848,"STATUS":"BUKA","TANGGAL PENGUMPULAN":"Q2 2025","TANGGAL UPDATE":"17/06/2025"}},{"type":"Feature","geometry":{"coordinates":[106.7067577,-6.6340243],"type":"Point"},"properties":{"NAMA":"PASAR AL-ABI GN MULYA","TIPE_1":"PERDAGANGAN DAN RETAIL","TIPE_2":"PASAR","TIPE_3":"PASAR TRADISIONAL","TELEPON":"","ALAMAT":"GN. MALANG, KEC. TENJOLAYA, KABUPATEN BOGOR, JAWA BARAT 16370","ID_PROV":"32","PROVINSI":"JAWA BARAT","ID_KABKOT":"32.01","KABKOT":"BOGOR","ID_KEC":"32.01.40","KECAMATAN":"TENJOLAYA","ID_DESA":"32.01.40.2007","DESA":"GUNUNG MULYA","LATITUDE":-6.6340243,"LONGITUDE":106.7067577,"STATUS":"BUKA","TANGGAL PENGUMPULAN":"Q2 2025","TANGGAL UPDATE":"17/06/2025"}},{"type":"Feature","geometry":{"coordinates":[106.6662631,-6.6632935],"type":"Point"},"properties":{"NAMA":"PASAR AHAD","TIPE_1":"PERDAGANGAN DAN RETAIL","TIPE_2":"PASAR","TIPE_3":"PASAR TRADISIONAL","TELEPON":"","ALAMAT":"GN. PICUNG, KEC. PAMIJAHAN, KABUPATEN BOGOR, JAWA BARAT","ID_PROV":"32","PROVINSI":"JAWA BARAT","ID_KABKOT":"32.01","KABKOT":"BOGOR","ID_KEC":"32.01.17","KECAMATAN":"PAMIJAHAN","ID_DESA":"32.01.17.2012","DESA":"GUNUNG PICUNG","LATITUDE":-6.6632935,"LONGITUDE":106.6662631,"STATUS":"BUKA","TANGGAL PENGUMPULAN":"Q2 2025","TANGGAL UPDATE":"17/06/2025"}},{"type":"Feature","geometry":{"coordinates":[106.9615359,-6.4068975],"type":"Point"},"properties":{"NAMA":"PASAR BARU CILEUNGSI BOGOR","TIPE_1":"PERDAGANGAN DAN RETAIL","TIPE_2":"PASAR","TIPE_3":"PASAR TRADISIONAL","TELEPON":"","ALAMAT":"CILEUNGSI KIDUL, KEC. CILEUNGSI, KABUPATEN BOGOR, JAWA BARAT 16820","ID_PROV":"32","PROVINSI":"JAWA BARAT","ID_KABKOT":"32.01","KABKOT":"BOGOR","ID_KEC":"32.01.07","KECAMATAN":"CILEUNGSI","ID_DESA":"32.01.07.2007","DESA":"CILEUNGSI KIDUL","LATITUDE":-6.4068975,"LONGITUDE":106.9615359,"STATUS":"BUKA","TANGGAL PENGUMPULAN":"Q2 2025","TANGGAL UPDATE":"17/06/2025"}},{"type":"Feature","geometry":{"coordinates":[106.863667,-6.56379],"type":"Point"},"properties":{"NAMA":"PASAR BABAKAN MADANG","TIPE_1":"PERDAGANGAN DAN RETAIL","TIPE_2":"PASAR","TIPE_3":"PASAR TRADISIONAL","TELEPON":"","ALAMAT":"JL. RAYA BABAKAN MADANG NO.89, CITARINGGUL, KEC. BABAKAN MADANG, KABUPATEN BOGOR, JAWA BARAT 16810","ID_PROV":"32","PROVINSI":"JAWA BARAT","ID_KABKOT":"32.01","KABKOT":"BOGOR","ID_KEC":"32.01.05","KECAMATAN":"BABAKAN MADANG","ID_DESA":"32.01.05.2008","DESA":"BABAKAN MADANG","LATITUDE":-6.56379,"LONGITUDE":106.863667,"STATUS":"BUKA","TANGGAL PENGUMPULAN":"Q2 2025","TANGGAL UPDATE":"17/06/2025"}},{"type":"Feature","geometry":{"coordinates":[106.7498991,-6.5061854],"type":"Point"},"properties":{"NAMA":"PASAR RAKYAT KEMANG","TIPE_1":"PERDAGANGAN DAN RETAIL","TIPE_2":"PASAR","TIPE_3":"PASAR TRADISIONAL","TELEPON":"0813-1990-9882","ALAMAT":"JL. RAYA PABUARAN, PABUARAN, KEC. KEMANG, KABUPATEN BOGOR, JAWA BARAT 16310","ID_PROV":"32","PROVINSI":"JAWA BARAT","ID_KABKOT":"32.01","KABKOT":"BOGOR","ID_KEC":"32.01.12","KECAMATAN":"KEMANG","ID_DESA":"32.01.12.2003","DESA":"KEMANG","LATITUDE":-6.5061854,"LONGITUDE":106.7498991,"STATUS":"BUKA","TANGGAL PENGUMPULAN":"Q2 2025","TANGGAL UPDATE":"17/06/2025"}},{"type":"Feature","geometry":{"coordinates":[106.5398163,-6.60494],"type":"Point"},"properties":{"NAMA":"PASAR TRADISIONAL NANGGUNG","TIPE_1":"PERDAGANGAN DAN RETAIL","TIPE_2":"PASAR","TIPE_3":"PASAR TRADISIONAL","TELEPON":"0856-9555-4404","ALAMAT":"PS. TRADISIONAL NANGGUNG, NANGGUNG, KEC. NANGGUNG, KABUPATEN BOGOR, JAWA BARAT 16650","ID_PROV":"32","PROVINSI":"JAWA BARAT","ID_KABKOT":"32.01","KABKOT":"BOGOR","ID_KEC":"32.01.21","KECAMATAN":"NANGGUNG","ID_DESA":"32.01.21.2007","DESA":"NANGGUNG","LATITUDE":-6.60494,"LONGITUDE":106.5398163,"STATUS":"BUKA","TANGGAL PENGUMPULAN":"Q2 2025","TANGGAL UPDATE":"17/06/2025"}},{"type":"Feature","geometry":{"coordinates":[106.7944942,-6.4895336],"type":"Point"},"properties":{"NAMA":"PASAR TRADISIONAL BOJONG GEDE","TIPE_1":"PERDAGANGAN DAN RETAIL","TIPE_2":"PASAR","TIPE_3":"PASAR TRADISIONAL","TELEPON":"","ALAMAT":"JL. PS. BARU NO.136, BOJONGGEDE, KECAMATAN BOJONGGEDE, KABUPATEN BOGOR, JAWA BARAT 16923","ID_PROV":"32","PROVINSI":"JAWA BARAT","ID_KABKOT":"32.01","KABKOT":"BOGOR","ID_KEC":"32.01.13","KECAMATAN":"BOJONG GEDE","ID_DESA":"32.01.13.2005","DESA":"KEDUNGWARINGIN","LATITUDE":-6.4895336,"LONGITUDE":106.7944942,"STATUS":"BUKA","TANGGAL PENGUMPULAN":"Q2 2025","TANGGAL UPDATE":"17/06/2025"}},{"type":"Feature","geometry":{"coordinates":[106.9887086,-6.3725756],"type":"Point"},"properties":{"NAMA":"PASAR TRADISIONAL BUNDERAN 2","TIPE_1":"PERDAGANGAN DAN RETAIL","TIPE_2":"PASAR","TIPE_3":"PASAR TRADISIONAL","TELEPON":"","ALAMAT":"PASIR ANGIN, KEC. CILEUNGSI, KABUPATEN BOGOR, JAWA BARAT 16820","ID_PROV":"32","PROVINSI":"JAWA BARAT","ID_KABKOT":"32.01","KABKOT":"BOGOR","ID_KEC":"32.01.07","KECAMATAN":"CILEUNGSI","ID_DESA":"32.01.07.2001","DESA":"PASIRANGIN","LATITUDE":-6.3725756,"LONGITUDE":106.9887086,"STATUS":"BUKA","TANGGAL PENGUMPULAN":"Q2 2025","TANGGAL UPDATE":"17/06/2025"}},{"type":"Feature","geometry":{"coordinates":[107.0117444,-6.4129241],"type":"Point"},"properties":{"NAMA":"PASAR TRADISIONAL GANDOANG","TIPE_1":"PERDAGANGAN DAN RETAIL","TIPE_2":"PASAR","TIPE_3":"PASAR TRADISIONAL","TELEPON":"","ALAMAT":"JALAN RAYA TUNGGILIS, GANDOANG, KEC. CILEUNGSI, KABUPATEN BOGOR, JAWA BARAT 16820","ID_PROV":"32","PROVINSI":"JAWA BARAT","ID_KABKOT":"32.01","KABKOT":"BOGOR","ID_KEC":"32.01.07","KECAMATAN":"CILEUNGSI","ID_DESA":"32.01.07.2005","DESA":"GANDOANG","LATITUDE":-6.4129241,"LONGITUDE":107.0117444,"STATUS":"BUKA","TANGGAL PENGUMPULAN":"Q2 2025","TANGGAL UPDATE":"17/06/2025"}},{"type":"Feature","geometry":{"coordinates":[106.6543288,-6.505222],"type":"Point"},"properties":{"NAMA":"PASAR TRADISIONAL GOBANG","TIPE_1":"PERDAGANGAN DAN RETAIL","TIPE_2":"PASAR","TIPE_3":"PASAR TRADISIONAL","TELEPON":"","ALAMAT":"GOBANG, KEC. RUMPIN, KABUPATEN BOGOR, JAWA BARAT 16350","ID_PROV":"32","PROVINSI":"JAWA BARAT","ID_KABKOT":"32.01","KABKOT":"BOGOR","ID_KEC":"32.01.18","KECAMATAN":"RUMPIN","ID_DESA":"32.01.18.2004","DESA":"GOBANG","LATITUDE":-6.505222,"LONGITUDE":106.6543288,"STATUS":"BUKA","TANGGAL PENGUMPULAN":"Q2 2025","TANGGAL UPDATE":"17/06/2025"}},{"type":"Feature","geometry":{"coordinates":[106.7901332,-6.6868685],"type":"Point"},"properties":{"NAMA":"PASAR RAKYAT CIJERUK","TIPE_1":"PERDAGANGAN DAN RETAIL","TIPE_2":"PASAR","TIPE_3":"PASAR TRADISIONAL","TELEPON":"","ALAMAT":"JL. RAYA CIHIDEUNG NO.2, CIPELANG, KEC. CIJERUK, KABUPATEN BOGOR, JAWA BARAT 16740","ID_PROV":"32","PROVINSI":"JAWA BARAT","ID_KABKOT":"32.01","KABKOT":"BOGOR","ID_KEC":"32.01.28","KECAMATAN":"CIJERUK","ID_DESA":"32.01.28.2002","DESA":"CIPELANG","LATITUDE":-6.6868685,"LONGITUDE":106.7901332,"STATUS":"BUKA","TANGGAL PENGUMPULAN":"Q2 2025","TANGGAL UPDATE":"17/06/2025"}},{"type":"Feature","geometry":{"coordinates":[106.7310807,-6.6219174],"type":"Point"},"properties":{"NAMA":"PASAR TRADISIONAL SUKADAMAI","TIPE_1":"PERDAGANGAN DAN RETAIL","TIPE_2":"PASAR","TIPE_3":"PASAR TRADISIONAL","TELEPON":"","ALAMAT":"SUKADAMAI, KEC. DRAMAGA, KABUPATEN BOGOR, JAWA BARAT 16680","ID_PROV":"32","PROVINSI":"JAWA BARAT","ID_KABKOT":"32.01","KABKOT":"BOGOR","ID_KEC":"32.01.30","KECAMATAN":"DRAMAGA","ID_DESA":"32.01.30.2001","DESA":"SUKADAMAI","LATITUDE":-6.6219174,"LONGITUDE":106.7310807,"STATUS":"BUKA","TANGGAL PENGUMPULAN":"Q2 2025","TANGGAL UPDATE":"17/06/2025"}},{"type":"Feature","geometry":{"coordinates":[106.5783162,-6.5613528],"type":"Point"},"properties":{"NAMA":"PASAR RAKYAT LEUWISADENG","TIPE_1":"PERDAGANGAN DAN RETAIL","TIPE_2":"PASAR","TIPE_3":"PASAR TRADISIONAL","TELEPON":"","ALAMAT":"SADENG, KEC. LEUWISADENG, KABUPATEN BOGOR, JAWA BARAT 16640","ID_PROV":"32","PROVINSI":"JAWA BARAT","ID_KABKOT":"32.01","KABKOT":"BOGOR","ID_KEC":"32.01.39","KECAMATAN":"LEUWISADENG","ID_DESA":"32.01.39.2007","DESA":"SADENG","LATITUDE":-6.5613528,"LONGITUDE":106.5783162,"STATUS":"BUKA","TANGGAL PENGUMPULAN":"Q2 2025","TANGGAL UPDATE":"17/06/2025"}},{"type":"Feature","geometry":{"coordinates":[106.6989915,-6.4496279],"type":"Point"},"properties":{"NAMA":"PASAR RAKYAT KECAMATAN CISEENG","TIPE_1":"PERDAGANGAN DAN RETAIL","TIPE_2":"PASAR","TIPE_3":"PASAR TRADISIONAL","TELEPON":"","ALAMAT":"JL. PASAR CISEENG, PARIGI MEKAR, KEC. CISEENG, KABUPATEN BOGOR, JAWA BARAT 16120","ID_PROV":"32","PROVINSI":"JAWA BARAT","ID_KABKOT":"32.01","KABKOT":"BOGOR","ID_KEC":"32.01.33","KECAMATAN":"CISEENG","ID_DESA":"32.01.33.2003","DESA":"PARIGI MEKAR","LATITUDE":-6.4496279,"LONGITUDE":106.6989915,"STATUS":"BUKA","TANGGAL PENGUMPULAN":"Q2 2025","TANGGAL UPDATE":"17/06/2025"}},{"type":"Feature","geometry":{"coordinates":[106.9434891,-6.4500031],"type":"Point"},"properties":{"NAMA":"PASAR RAKYAT KLAPA NUNGGAL","TIPE_1":"PERDAGANGAN DAN RETAIL","TIPE_2":"PASAR","TIPE_3":"PASAR TRADISIONAL","TELEPON":"0813-8438-6799","ALAMAT":"KEMBANG KUNING, KEC. KLAPANUNGGAL, KABUPATEN BOGOR, JAWA BARAT 16710","ID_PROV":"32","PROVINSI":"JAWA BARAT","ID_KABKOT":"32.01","KABKOT":"BOGOR","ID_KEC":"32.01.32","KECAMATAN":"KLAPANUNGGAL","ID_DESA":"32.01.32.2006","DESA":"KEMBANG KUNING","LATITUDE":-6.4500031,"LONGITUDE":106.9434891,"STATUS":"BUKA","TANGGAL PENGUMPULAN":"Q2 2025","TANGGAL UPDATE":"17/06/2025"}},{"type":"Feature","geometry":{"coordinates":[106.88283,-6.4879289],"type":"Point"},"properties":{"NAMA":"PASAR RAKYAT CITEUREUP 2","TIPE_1":"PERDAGANGAN DAN RETAIL","TIPE_2":"PASAR","TIPE_3":"PASAR TRADISIONAL","TELEPON":"","ALAMAT":"JL. MAYOR OKING CITEUREUP NO.56, PUSPANEGARA, KEC. CITEUREUP, KABUPATEN BOGOR, JAWA BARAT 16810","ID_PROV":"32","PROVINSI":"JAWA BARAT","ID_KABKOT":"32.01","KABKOT":"BOGOR","ID_KEC":"32.01.03","KECAMATAN":"CITEUREUP","ID_DESA":"32.01.03.2002","DESA":"CITEUREUP","LATITUDE":-6.4879289,"LONGITUDE":106.88283,"STATUS":"BUKA","TANGGAL PENGUMPULAN":"Q2 2025","TANGGAL UPDATE":"17/06/2025"}},{"type":"Feature","geometry":{"coordinates":[106.9285863,-6.6764639],"type":"Point"},"properties":{"NAMA":"PASAR RAKYAT CISARUA","TIPE_1":"PERDAGANGAN DAN RETAIL","TIPE_2":"PASAR","TIPE_3":"PASAR TRADISIONAL","TELEPON":"","ALAMAT":"JL PASAR BLOK B NO.10, PASAR, KEC. CISARUA, KABUPATEN BOGOR, JAWA BARAT","ID_PROV":"32","PROVINSI":"JAWA BARAT","ID_KABKOT":"32.01","KABKOT":"BOGOR","ID_KEC":"32.01.25","KECAMATAN":"CISARUA","ID_DESA":"32.01.25.2005","DESA":"CITEKO","LATITUDE":-6.6764639,"LONGITUDE":106.9285863,"STATUS":"BUKA","TANGGAL PENGUMPULAN":"Q2 2025","TANGGAL UPDATE":"17/06/2025"}},{"type":"Feature","geometry":{"coordinates":[106.8766117,-6.5705489],"type":"Point"},"properties":{"NAMA":"PASAR RAKYAT BABAKAN MADANG","TIPE_1":"PERDAGANGAN DAN RETAIL","TIPE_2":"PASAR","TIPE_3":"PASAR TRADISIONAL","TELEPON":"","ALAMAT":"JALAN GUNUNG PANCAR CIBARENGKOK RT 7, RT.7/RW.3, SUMUR BATU, KEC. BABAKAN MADANG, KABUPATEN BOGOR, JAWA BARAT 16810","ID_PROV":"32","PROVINSI":"JAWA BARAT","ID_KABKOT":"32.01","KABKOT":"BOGOR","ID_KEC":"32.01.05","KECAMATAN":"BABAKAN MADANG","ID_DESA":"32.01.05.2002","DESA":"SUMURBATU","LATITUDE":-6.5705489,"LONGITUDE":106.8766117,"STATUS":"BUKA","TANGGAL PENGUMPULAN":"Q2 2025","TANGGAL UPDATE":"17/06/2025"}},{"type":"Feature","geometry":{"coordinates":[106.7315374,-6.4229856],"type":"Point"},"properties":{"NAMA":"PASAR TRADISIONAL KIRI","TIPE_1":"PERDAGANGAN DAN RETAIL","TIPE_2":"PASAR","TIPE_3":"PASAR TRADISIONAL","TELEPON":"","ALAMAT":"JL. H. MAWI NO.43, WARU, KEC. PARUNG, KABUPATEN BOGOR, JAWA BARAT 16330","ID_PROV":"32","PROVINSI":"JAWA BARAT","ID_KABKOT":"32.01","KABKOT":"BOGOR","ID_KEC":"32.01.10","KECAMATAN":"PARUNG","ID_DESA":"32.01.10.2001","DESA":"PARUNG","LATITUDE":-6.4229856,"LONGITUDE":106.7315374,"STATUS":"BUKA","TANGGAL PENGUMPULAN":"Q2 2025","TANGGAL UPDATE":"17/06/2025"}},{"type":"Feature","geometry":{"coordinates":[106.7298986,-6.4205675],"type":"Point"},"properties":{"NAMA":"PASAR TRADISIONAL MODERN PARUNG","TIPE_1":"PERDAGANGAN DAN RETAIL","TIPE_2":"PASAR","TIPE_3":"PASAR MODERN","TELEPON":"","ALAMAT":"WARU, KEC. PARUNG, KABUPATEN BOGOR, JAWA BARAT 16330","ID_PROV":"32","PROVINSI":"JAWA BARAT","ID_KABKOT":"32.01","KABKOT":"BOGOR","ID_KEC":"32.01.10","KECAMATAN":"PARUNG","ID_DESA":"32.01.10.2004","DESA":"WARU","LATITUDE":-6.4205675,"LONGITUDE":106.7298986,"STATUS":"BUKA","TANGGAL PENGUMPULAN":"Q2 2025","TANGGAL UPDATE":"17/06/2025"}},{"type":"Feature","geometry":{"coordinates":[106.7374101,-6.4544124],"type":"Point"},"properties":{"NAMA":"PASAR MODERN KALISUREN","TIPE_1":"PERDAGANGAN DAN RETAIL","TIPE_2":"PASAR","TIPE_3":"PASAR MODERN","TELEPON":"0818-0735-1983","ALAMAT":"JL. RAYA KALISUREN, KALISUREN, KEC. TAJUR HALANG, KABUPATEN BOGOR, JAWA BARAT 16320","ID_PROV":"32","PROVINSI":"JAWA BARAT","ID_KABKOT":"32.01","KABKOT":"BOGOR","ID_KEC":"32.01.37","KECAMATAN":"TAJURHALANG","ID_DESA":"32.01.37.2007","DESA":"KALISUREN","LATITUDE":-6.4544124,"LONGITUDE":106.7374101,"STATUS":"BUKA","TANGGAL PENGUMPULAN":"Q2 2025","TANGGAL UPDATE":"17/06/2025"}},{"type":"Feature","geometry":{"coordinates":[106.5684723,-6.3512868],"type":"Point"},"properties":{"NAMA":"PASAR MODERN SENTRALAND - PARUNG PANJANG","TIPE_1":"PERDAGANGAN DAN RETAIL","TIPE_2":"PASAR","TIPE_3":"PASAR MODERN","TELEPON":"0821-1153-6033","ALAMAT":"PARKIR PINTU TIMUR, PASAR MODERN SENTRALAND, PARUNG PANJANG, KEC. PARUNG PANJANG, KABUPATEN BOGOR, JAWA BARAT 16360","ID_PROV":"32","PROVINSI":"JAWA BARAT","ID_KABKOT":"32.01","KABKOT":"BOGOR","ID_KEC":"32.01.20","KECAMATAN":"PARUNG PANJANG","ID_DESA":"32.01.20.2006","DESA":"PARUNGPANJANG","LATITUDE":-6.3512868,"LONGITUDE":106.5684723,"STATUS":"BUKA","TANGGAL PENGUMPULAN":"Q2 2025","TANGGAL UPDATE":"17/06/2025"}},{"type":"Feature","geometry":{"coordinates":[106.4799612,-6.486188],"type":"Point"},"properties":{"NAMA":"PASAR TRADISIONAL JASINGA","TIPE_1":"PERDAGANGAN DAN RETAIL","TIPE_2":"PASAR","TIPE_3":"PASAR TRADISIONAL","TELEPON":"","ALAMAT":"JL. RAYA JASINGA, CIGUDEG, KEC. CIGUDEG, KABUPATEN BOGOR, JAWA BARAT 16660","ID_PROV":"32","PROVINSI":"JAWA BARAT","ID_KABKOT":"32.01","KABKOT":"BOGOR","ID_KEC":"32.01.19","KECAMATAN":"JASINGA","ID_DESA":"32.01.19.2004","DESA":"SIPAK","LATITUDE":-6.486188,"LONGITUDE":106.4799612,"STATUS":"BUKA","TANGGAL PENGUMPULAN":"Q2 2025","TANGGAL UPDATE":"17/06/2025"}},{"type":"Feature","geometry":{"coordinates":[106.767179,-6.643813],"type":"Point"},"properties":{"NAMA":"PASAR RAKYAT TAMANSARI","TIPE_1":"PERDAGANGAN DAN RETAIL","TIPE_2":"PASAR","TIPE_3":"PASAR TRADISIONAL","TELEPON":"","ALAMAT":"JL. CIAPUS, BANJARAN, JL. RAYA CIAPUS NO.11-10, SIRNAGALIH, KEC. TAMANSARI, KABUPATEN BOGOR, JAWA BARAT 16610","ID_PROV":"32","PROVINSI":"JAWA BARAT","ID_KABKOT":"32.01","KABKOT":"BOGOR","ID_KEC":"32.01.31","KECAMATAN":"TAMANSARI","ID_DESA":"32.01.31.2002","DESA":"SIRNAGALIH","LATITUDE":-6.643813,"LONGITUDE":106.767179,"STATUS":"BUKA","TANGGAL PENGUMPULAN":"Q2 2025","TANGGAL UPDATE":"17/06/2025"}},{"type":"Feature","geometry":{"coordinates":[106.4636762,-6.3285844],"type":"Point"},"properties":{"NAMA":"PASAR RAKYAT TENJO","TIPE_1":"PERDAGANGAN DAN RETAIL","TIPE_2":"PASAR","TIPE_3":"PASAR TRADISIONAL","TELEPON":"","ALAMAT":"TENJO, KEC. TENJO, KABUPATEN BOGOR, JAWA BARAT 16370","ID_PROV":"32","PROVINSI":"JAWA BARAT","ID_KABKOT":"32.01","KABKOT":"BOGOR","ID_KEC":"32.01.23","KECAMATAN":"TENJO","ID_DESA":"32.01.23.2005","DESA":"TENJO","LATITUDE":-6.3285844,"LONGITUDE":106.4636762,"STATUS":"BUKA","TANGGAL PENGUMPULAN":"Q2 2025","TANGGAL UPDATE":"17/06/2025"}},{"type":"Feature","geometry":{"coordinates":[106.9376007,-6.4166793],"type":"Point"},"properties":{"NAMA":"PASAR WANAHERANG PICK UP OJOL","TIPE_1":"PERDAGANGAN DAN RETAIL","TIPE_2":"PASAR","TIPE_3":"PASAR TRADISIONAL","TELEPON":"","ALAMAT":"JL. RAYA WANAHERANG NO.8, WANAHERANG, KEC. GN. PUTRI, KABUPATEN BOGOR, JAWA BARAT 16965","ID_PROV":"32","PROVINSI":"JAWA BARAT","ID_KABKOT":"32.01","KABKOT":"BOGOR","ID_KEC":"32.01.02","KECAMATAN":"GUNUNG PUTRI","ID_DESA":"32.01.02.2001","DESA":"WANAHERANG","LATITUDE":-6.4166793,"LONGITUDE":106.9376007,"STATUS":"BUKA","TANGGAL PENGUMPULAN":"Q2 2025","TANGGAL UPDATE":"17/06/2025"}},{"type":"Feature","geometry":{"coordinates":[106.9376222,-6.416513],"type":"Point"},"properties":{"NAMA":"PASAR WANAHERANG GN. PUTRI BOGOR","TIPE_1":"PERDAGANGAN DAN RETAIL","TIPE_2":"PASAR","TIPE_3":"PASAR TRADISIONAL","TELEPON":"","ALAMAT":"JL. RAYA CIKUDA WANAHERANG, WANAHERANG, KEC. GN. PUTRI, KABUPATEN BOGOR, JAWA BARAT 16965","ID_PROV":"32","PROVINSI":"JAWA BARAT","ID_KABKOT":"32.01","KABKOT":"BOGOR","ID_KEC":"32.01.02","KECAMATAN":"GUNUNG PUTRI","ID_DESA":"32.01.02.2001","DESA":"WANAHERANG","LATITUDE":-6.416513,"LONGITUDE":106.9376222,"STATUS":"BUKA","TANGGAL PENGUMPULAN":"Q2 2025","TANGGAL UPDATE":"17/06/2025"}},{"type":"Feature","geometry":{"coordinates":[106.9370344,-6.4168846],"type":"Point"},"properties":{"NAMA":"PASAR WANAHERANG BARU, BOGOR TIMUR","TIPE_1":"PERDAGANGAN DAN RETAIL","TIPE_2":"PASAR","TIPE_3":"PASAR TRADISIONAL","TELEPON":"","ALAMAT":"JL. RAYA CIKUDA WANAHERANG, WANAHERANG, KEC. GN. PUTRI, KABUPATEN BOGOR, JAWA BARAT 16965","ID_PROV":"32","PROVINSI":"JAWA BARAT","ID_KABKOT":"32.01","KABKOT":"BOGOR","ID_KEC":"32.01.02","KECAMATAN":"GUNUNG PUTRI","ID_DESA":"32.01.02.2001","DESA":"WANAHERANG","LATITUDE":-6.4168846,"LONGITUDE":106.9370344,"STATUS":"BUKA","TANGGAL PENGUMPULAN":"Q2 2025","TANGGAL UPDATE":"17/06/2025"}},{"type":"Feature","geometry":{"coordinates":[106.9371427,-6.4164407],"type":"Point"},"properties":{"NAMA":"PASAR WANAHERANG -","TIPE_1":"PERDAGANGAN DAN RETAIL","TIPE_2":"PASAR","TIPE_3":"PASAR TRADISIONAL","TELEPON":"0815-7577-7701","ALAMAT":"JL. RAYA CIKUDA WANAHERANG, WANAHERANG, KEC. GN. PUTRI, KABUPATEN BOGOR, JAWA BARAT 16966","ID_PROV":"32","PROVINSI":"JAWA BARAT","ID_KABKOT":"32.01","KABKOT":"BOGOR","ID_KEC":"32.01.02","KECAMATAN":"GUNUNG PUTRI","ID_DESA":"32.01.02.2001","DESA":"WANAHERANG","LATITUDE":-6.4164407,"LONGITUDE":106.9371427,"STATUS":"BUKA","TANGGAL PENGUMPULAN":"Q2 2025","TANGGAL UPDATE":"17/06/2025"}},{"type":"Feature","geometry":{"coordinates":[107.0309745,-6.4195004],"type":"Point"},"properties":{"NAMA":"PASAR TUMPAH SITUSARI JONGGOL","TIPE_1":"PERDAGANGAN DAN RETAIL","TIPE_2":"PASAR","TIPE_3":"PASAR TRADISIONAL","TELEPON":"0812-2233-8877","ALAMAT":"SETU SARI, KEC. CILEUNGSI, KABUPATEN BOGOR, JAWA BARAT 16820","ID_PROV":"32","PROVINSI":"JAWA BARAT","ID_KABKOT":"32.01","KABKOT":"BOGOR","ID_KEC":"32.01.07","KECAMATAN":"CILEUNGSI","ID_DESA":"32.01.07.2009","DESA":"SITUSARI","LATITUDE":-6.4195004,"LONGITUDE":107.0309745,"STATUS":"BUKA","TANGGAL PENGUMPULAN":"Q2 2025","TANGGAL UPDATE":"17/06/2025"}},{"type":"Feature","geometry":{"coordinates":[106.5010343,-6.4044846],"type":"Point"},"properties":{"NAMA":"PASAR TOGE GEDE","TIPE_1":"PERDAGANGAN DAN RETAIL","TIPE_2":"PASAR","TIPE_3":"PASAR TRADISIONAL","TELEPON":"","ALAMAT":"TAPOS, KEC. TENJO, KABUPATEN BOGOR, JAWA BARAT 16370","ID_PROV":"32","PROVINSI":"JAWA BARAT","ID_KABKOT":"32.01","KABKOT":"BOGOR","ID_KEC":"32.01.23","KECAMATAN":"TENJO","ID_DESA":"32.01.23.2001","DESA":"TAPOS","LATITUDE":-6.4044846,"LONGITUDE":106.5010343,"STATUS":"BUKA","TANGGAL PENGUMPULAN":"Q2 2025","TANGGAL UPDATE":"17/06/2025"}},{"type":"Feature","geometry":{"coordinates":[106.6942392,-6.4080746],"type":"Point"},"properties":{"NAMA":"PASAR TOHAGA PARUNG","TIPE_1":"PERDAGANGAN DAN RETAIL","TIPE_2":"PASAR","TIPE_3":"PASAR TRADISIONAL","TELEPON":"0812-9467-2979","ALAMAT":"RUKO BUKIT SERPONG INDAH, JL.INTAN NO.17 BLOK R1, CIBADUNG, KEC. GN. SINDUR, KABUPATEN BOGOR, JAWA BARAT 16340","ID_PROV":"32","PROVINSI":"JAWA BARAT","ID_KABKOT":"32.01","KABKOT":"BOGOR","ID_KEC":"32.01.11","KECAMATAN":"GUNUNG SINDUR","ID_DESA":"32.01.11.2007","DESA":"CIBADUNG","LATITUDE":-6.4080746,"LONGITUDE":106.6942392,"STATUS":"BUKA","TANGGAL PENGUMPULAN":"Q2 2025","TANGGAL UPDATE":"17/06/2025"}},{"type":"Feature","geometry":{"coordinates":[106.6806836,-6.3853836],"type":"Point"},"properties":{"NAMA":"PASAR TOHAGA","TIPE_1":"PERDAGANGAN DAN RETAIL","TIPE_2":"PASAR","TIPE_3":"PASAR TRADISIONAL","TELEPON":"","ALAMAT":"GN. SINDUR, KEC. GN. SINDUR, KABUPATEN BOGOR, JAWA BARAT","ID_PROV":"32","PROVINSI":"JAWA BARAT","ID_KABKOT":"32.01","KABKOT":"BOGOR","ID_KEC":"32.01.11","KECAMATAN":"GUNUNG SINDUR","ID_DESA":"32.01.11.2005","DESA":"GUNUNGSINDUR","LATITUDE":-6.3853836,"LONGITUDE":106.6806836,"STATUS":"BUKA","TANGGAL PENGUMPULAN":"Q2 2025","TANGGAL UPDATE":"17/06/2025"}},{"type":"Feature","geometry":{"coordinates":[106.5090838,-6.5842639],"type":"Point"},"properties":{"NAMA":"PASAR SUKAJAYA","TIPE_1":"PERDAGANGAN DAN RETAIL","TIPE_2":"PASAR","TIPE_3":"PASAR TRADISIONAL","TELEPON":"","ALAMAT":"PUSKESMAS SUKAJAYA, SUKAJAYA, BOGOR REGENCY, WEST JAVA 16660","ID_PROV":"32","PROVINSI":"JAWA BARAT","ID_KABKOT":"32.01","KABKOT":"BOGOR","ID_KEC":"32.01.35","KECAMATAN":"SUKAJAYA","ID_DESA":"32.01.35.2004","DESA":"CIPAYUNG","LATITUDE":-6.5842639,"LONGITUDE":106.5090838,"STATUS":"BUKA","TANGGAL PENGUMPULAN":"Q2 2025","TANGGAL UPDATE":"17/06/2025"}},{"type":"Feature","geometry":{"coordinates":[106.9962902,-6.3805341],"type":"Point"},"properties":{"NAMA":"PASAR TAMAN CILEUNGSI TC","TIPE_1":"PERDAGANGAN DAN RETAIL","TIPE_2":"PASAR","TIPE_3":"PASAR TRADISIONAL","TELEPON":"","ALAMAT":"CIPENJO, KEC. CILEUNGSI, KABUPATEN BOGOR, JAWA BARAT 16820","ID_PROV":"32","PROVINSI":"JAWA BARAT","ID_KABKOT":"32.01","KABKOT":"BOGOR","ID_KEC":"32.01.07","KECAMATAN":"CILEUNGSI","ID_DESA":"32.01.07.2010","DESA":"CIPENJO","LATITUDE":-6.3805341,"LONGITUDE":106.9962902,"STATUS":"BUKA","TANGGAL PENGUMPULAN":"Q2 2025","TANGGAL UPDATE":"17/06/2025"}},{"type":"Feature","geometry":{"coordinates":[106.9462382,-6.7084758],"type":"Point"},"properties":{"NAMA":"PASAR TAMAN SAFARI","TIPE_1":"PERDAGANGAN DAN RETAIL","TIPE_2":"PASAR","TIPE_3":"PASAR TRADISIONAL","TELEPON":"","ALAMAT":"JL. TAMAN SAFARI, CIBEUREUM, KEC. CISARUA, KABUPATEN BOGOR, JAWA BARAT 16750","ID_PROV":"32","PROVINSI":"JAWA BARAT","ID_KABKOT":"32.01","KABKOT":"BOGOR","ID_KEC":"32.01.25","KECAMATAN":"CISARUA","ID_DESA":"32.01.25.2003","DESA":"CIBEUREUM","LATITUDE":-6.7084758,"LONGITUDE":106.9462382,"STATUS":"BUKA","TANGGAL PENGUMPULAN":"Q2 2025","TANGGAL UPDATE":"17/06/2025"}},{"type":"Feature","geometry":{"coordinates":[106.6516151,-6.6441641],"type":"Point"},"properties":{"NAMA":"PASAR SELASA","TIPE_1":"PERDAGANGAN DAN RETAIL","TIPE_2":"PASAR","TIPE_3":"PASAR TRADISIONAL","TELEPON":"","ALAMAT":"JL. KH. ABDUL HAMID NO.6, PAMIJAHAN, KEC. PAMIJAHAN, KABUPATEN BOGOR, JAWA BARAT 16810","ID_PROV":"32","PROVINSI":"JAWA BARAT","ID_KABKOT":"32.01","KABKOT":"BOGOR","ID_KEC":"32.01.17","KECAMATAN":"PAMIJAHAN","ID_DESA":"32.01.17.2008","DESA":"PAMIJAHAN","LATITUDE":-6.6441641,"LONGITUDE":106.6516151,"STATUS":"BUKA","TANGGAL PENGUMPULAN":"Q2 2025","TANGGAL UPDATE":"17/06/2025"}},{"type":"Feature","geometry":{"coordinates":[106.68556129999999,-6.6106795],"type":"Point"},"properties":{"NAMA":"PASAR SELASA","TIPE_1":"PERDAGANGAN DAN RETAIL","TIPE_2":"PASAR","TIPE_3":"PASAR TRADISIONAL","TELEPON":"0812-1017-0505","ALAMAT":"CIAMPEA UDIK, KEC. CIAMPEA, KABUPATEN BOGOR, JAWA BARAT 16620","ID_PROV":"32","PROVINSI":"JAWA BARAT","ID_KABKOT":"32.01","KABKOT":"BOGOR","ID_KEC":"32.01.15","KECAMATAN":"CIAMPEA","ID_DESA":"32.01.15.2013","DESA":"CIAMPEA UDIK","LATITUDE":-6.6106795,"LONGITUDE":106.6855613,"STATUS":"BUKA","TANGGAL PENGUMPULAN":"Q2 2025","TANGGAL UPDATE":"17/06/2025"}},{"type":"Feature","geometry":{"coordinates":[107.0226496,-6.6501484],"type":"Point"},"properties":{"NAMA":"PASAR SAYUR PUNCAK DUA JONGGOL","TIPE_1":"PERDAGANGAN DAN RETAIL","TIPE_2":"PASAR","TIPE_3":"PASAR TRADISIONAL","TELEPON":"","ALAMAT":"JL. PUNCAK DUA, SUKAWANGI, SUKAMAKMUR, BOGOR REGENCY, WEST JAVA 16830","ID_PROV":"32","PROVINSI":"JAWA BARAT","ID_KABKOT":"32.01","KABKOT":"BOGOR","ID_KEC":"32.01.09","KECAMATAN":"SUKAMAKMUR","ID_DESA":"32.01.09.2004","DESA":"SUKAWANGI","LATITUDE":-6.6501484,"LONGITUDE":107.0226496,"STATUS":"BUKA","TANGGAL PENGUMPULAN":"Q2 2025","TANGGAL UPDATE":"17/06/2025"}},{"type":"Feature","geometry":{"coordinates":[107.1138915,-6.5632184],"type":"Point"},"properties":{"NAMA":"PASAR SAYUR DAN BUAH BOSS ZHAMALL","TIPE_1":"PERDAGANGAN DAN RETAIL","TIPE_2":"PASAR","TIPE_3":"PASAR TRADISIONAL","TELEPON":"","ALAMAT":"SELAWANGI, KEC. TANJUNGSARI, KABUPATEN BOGOR, JAWA BARAT 16840","ID_PROV":"32","PROVINSI":"JAWA BARAT","ID_KABKOT":"32.01","KABKOT":"BOGOR","ID_KEC":"32.01.36","KECAMATAN":"TANJUNGSARI","ID_DESA":"32.01.36.2002","DESA":"SELAWANGI","LATITUDE":-6.5632184,"LONGITUDE":107.1138915,"STATUS":"BUKA","TANGGAL PENGUMPULAN":"Q2 2025","TANGGAL UPDATE":"17/06/2025"}},{"type":"Feature","geometry":{"coordinates":[107.0007302,-6.4463798],"type":"Point"},"properties":{"NAMA":"PASAR SAWO, BOJONG, KLAPANUNGGAL","TIPE_1":"PERDAGANGAN DAN RETAIL","TIPE_2":"PASAR","TIPE_3":"PASAR TRADISIONAL","TELEPON":"","ALAMAT":"KLP, BOJONG, KEC. KLAPANUNGGAL, KABUPATEN BOGOR, JAWA BARAT 16710","ID_PROV":"32","PROVINSI":"JAWA BARAT","ID_KABKOT":"32.01","KABKOT":"BOGOR","ID_KEC":"32.01.32","KECAMATAN":"KLAPANUNGGAL","ID_DESA":"32.01.32.2002","DESA":"BOJONG","LATITUDE":-6.4463798,"LONGITUDE":107.0007302,"STATUS":"BUKA","TANGGAL PENGUMPULAN":"Q2 2025","TANGGAL UPDATE":"17/06/2025"}},{"type":"Feature","geometry":{"coordinates":[106.6598406,-6.6228083],"type":"Point"},"properties":{"NAMA":"PASAR SAPTU","TIPE_1":"PERDAGANGAN DAN RETAIL","TIPE_2":"PASAR","TIPE_3":"PASAR TRADISIONAL","TELEPON":"","ALAMAT":"KP. , KABUPATEN BOGOR, JAWA BARAT 16630","ID_PROV":"32","PROVINSI":"JAWA BARAT","ID_KABKOT":"32.01","KABKOT":"BOGOR","ID_KEC":"32.01.16","KECAMATAN":"CIBUNGBULANG","ID_DESA":"32.01.16.2001","DESA":"SITU UDIK","LATITUDE":-6.6228083,"LONGITUDE":106.6598406,"STATUS":"BUKA","TANGGAL PENGUMPULAN":"Q2 2025","TANGGAL UPDATE":"17/06/2025"}},{"type":"Feature","geometry":{"coordinates":[106.6497623,-6.6205209],"type":"Point"},"properties":{"NAMA":"PASAR SAPTU","TIPE_1":"PERDAGANGAN DAN RETAIL","TIPE_2":"PASAR","TIPE_3":"PASAR TRADISIONAL","TELEPON":"","ALAMAT":"KP. , DESA, SITU UDIK, KEC. CIBUNGBULANG, KABUPATEN BOGOR, JAWA BARAT 16630","ID_PROV":"32","PROVINSI":"JAWA BARAT","ID_KABKOT":"32.01","KABKOT":"BOGOR","ID_KEC":"32.01.16","KECAMATAN":"CIBUNGBULANG","ID_DESA":"32.01.16.2001","DESA":"SITU UDIK","LATITUDE":-6.6205209,"LONGITUDE":106.6497623,"STATUS":"BUKA","TANGGAL PENGUMPULAN":"Q2 2025","TANGGAL UPDATE":"17/06/2025"}},{"type":"Feature","geometry":{"coordinates":[107.157857,-6.6198992],"type":"Point"},"properties":{"NAMA":"PASAR SABTU TANJUNG SARI DESA SIRNARASA","TIPE_1":"PERDAGANGAN DAN RETAIL","TIPE_2":"PASAR","TIPE_3":"PASAR TRADISIONAL","TELEPON":"","ALAMAT":"SIRNARASA, KEC. TANJUNGSARI, KABUPATEN BOGOR, JAWA BARAT 16840","ID_PROV":"32","PROVINSI":"JAWA BARAT","ID_KABKOT":"32.01","KABKOT":"BOGOR","ID_KEC":"32.01.36","KECAMATAN":"TANJUNGSARI","ID_DESA":"32.01.36.2010","DESA":"SIRNARASA","LATITUDE":-6.6198992,"LONGITUDE":107.157857,"STATUS":"BUKA","TANGGAL PENGUMPULAN":"Q2 2025","TANGGAL UPDATE":"17/06/2025"}},{"type":"Feature","geometry":{"coordinates":[106.9517333,-6.3547122],"type":"Point"},"properties":{"NAMA":"PASAR RUMDIS TNI AL","TIPE_1":"PERDAGANGAN DAN RETAIL","TIPE_2":"PASAR","TIPE_3":"PASAR TRADISIONAL","TELEPON":"0895-3319-91784","ALAMAT":"JL. RAYA RUMDIS AL NO.18 BLOK E2, CIANGSANA, KEC. GN. PUTRI, KABUPATEN BOGOR, JAWA BARAT 16968","ID_PROV":"32","PROVINSI":"JAWA BARAT","ID_KABKOT":"32.01","KABKOT":"BOGOR","ID_KEC":"32.01.02","KECAMATAN":"GUNUNG PUTRI","ID_DESA":"32.01.02.2003","DESA":"CIANGSANA","LATITUDE":-6.3547122,"LONGITUDE":106.9517333,"STATUS":"BUKA","TANGGAL PENGUMPULAN":"Q2 2025","TANGGAL UPDATE":"17/06/2025"}},{"type":"Feature","geometry":{"coordinates":[106.8621483,-6.5645872],"type":"Point"},"properties":{"NAMA":"PASAR SENTUL CITY","TIPE_1":"PERDAGANGAN DAN RETAIL","TIPE_2":"PASAR","TIPE_3":"PASAR TRADISIONAL","TELEPON":"","ALAMAT":"CITARINGGUL, KEC. BABAKAN MADANG, KABUPATEN BOGOR, JAWA BARAT 16810","ID_PROV":"32","PROVINSI":"JAWA BARAT","ID_KABKOT":"32.01","KABKOT":"BOGOR","ID_KEC":"32.01.05","KECAMATAN":"BABAKAN MADANG","ID_DESA":"32.01.05.2007","DESA":"CITARINGGUL","LATITUDE":-6.5645872,"LONGITUDE":106.8621483,"STATUS":"BUKA","TANGGAL PENGUMPULAN":"Q2 2025","TANGGAL UPDATE":"17/06/2025"}},{"type":"Feature","geometry":{"coordinates":[106.6709463,-6.6341675],"type":"Point"},"properties":{"NAMA":"PASAR SENEN CIBENING","TIPE_1":"PERDAGANGAN DAN RETAIL","TIPE_2":"PASAR","TIPE_3":"PASAR TRADISIONAL","TELEPON":"","ALAMAT":"JL. THAMRIN, CIBENING, KEC. PAMIJAHAN, KABUPATEN BOGOR, JAWA BARAT 16810","ID_PROV":"32","PROVINSI":"JAWA BARAT","ID_KABKOT":"32.01","KABKOT":"BOGOR","ID_KEC":"32.01.17","KECAMATAN":"PAMIJAHAN","ID_DESA":"32.01.17.2009","DESA":"CIBENING","LATITUDE":-6.6341675,"LONGITUDE":106.6709463,"STATUS":"BUKA","TANGGAL PENGUMPULAN":"Q2 2025","TANGGAL UPDATE":"17/06/2025"}},{"type":"Feature","geometry":{"coordinates":[106.4338915,-6.3661268],"type":"Point"},"properties":{"NAMA":"PASAR RABU JASINGA TENJO","TIPE_1":"PERDAGANGAN DAN RETAIL","TIPE_2":"PASAR","TIPE_3":"PASAR TRADISIONAL","TELEPON":"","ALAMAT":"JL. RAYA JASINGA TENJO, BOJONG, KEC. TENJO, KABUPATEN BOGOR, JAWA BARAT 16370","ID_PROV":"32","PROVINSI":"JAWA BARAT","ID_KABKOT":"32.01","KABKOT":"BOGOR","ID_KEC":"32.01.23","KECAMATAN":"TENJO","ID_DESA":"32.01.23.2009","DESA":"BOJONG","LATITUDE":-6.3661268,"LONGITUDE":106.4338915,"STATUS":"BUKA","TANGGAL PENGUMPULAN":"Q2 2025","TANGGAL UPDATE":"17/06/2025"}},{"type":"Feature","geometry":{"coordinates":[106.6809656,-6.3853082],"type":"Point"},"properties":{"NAMA":"PASAR PRUMPUNG GUNUNGSINDUR","TIPE_1":"PERDAGANGAN DAN RETAIL","TIPE_2":"PASAR","TIPE_3":"PASAR TRADISIONAL","TELEPON":"","ALAMAT":"PASAR PRUMPUNG, GN. SINDUR, KEC. GN. SINDUR, KABUPATEN BOGOR, JAWA BARAT 16340","ID_PROV":"32","PROVINSI":"JAWA BARAT","ID_KABKOT":"32.01","KABKOT":"BOGOR","ID_KEC":"32.01.11","KECAMATAN":"GUNUNG SINDUR","ID_DESA":"32.01.11.2005","DESA":"GUNUNGSINDUR","LATITUDE":-6.3853082,"LONGITUDE":106.6809656,"STATUS":"BUKA","TANGGAL PENGUMPULAN":"Q2 2025","TANGGAL UPDATE":"17/06/2025"}},{"type":"Feature","geometry":{"coordinates":[106.4362838,-6.3722317],"type":"Point"},"properties":{"NAMA":"PASAR REBO SENTRAL DESA BOJONG","TIPE_1":"PERDAGANGAN DAN RETAIL","TIPE_2":"PASAR","TIPE_3":"PASAR TRADISIONAL","TELEPON":"","ALAMAT":"BOJONG, KEC. TENJO, KABUPATEN BOGOR, JAWA BARAT 16370","ID_PROV":"32","PROVINSI":"JAWA BARAT","ID_KABKOT":"32.01","KABKOT":"BOGOR","ID_KEC":"32.01.23","KECAMATAN":"TENJO","ID_DESA":"32.01.23.2009","DESA":"BOJONG","LATITUDE":-6.3722317,"LONGITUDE":106.4362838,"STATUS":"BUKA","TANGGAL PENGUMPULAN":"Q2 2025","TANGGAL UPDATE":"17/06/2025"}},{"type":"Feature","geometry":{"coordinates":[106.7321528,-6.4231923],"type":"Point"},"properties":{"NAMA":"PASAR RAYA PARUNG","TIPE_1":"PERDAGANGAN DAN RETAIL","TIPE_2":"PASAR","TIPE_3":"PASAR TRADISIONAL","TELEPON":"","ALAMAT":"JL. RAYA PARUNG NO.654, PARUNG, KEC. PARUNG, KABUPATEN BOGOR, JAWA BARAT 16330","ID_PROV":"32","PROVINSI":"JAWA BARAT","ID_KABKOT":"32.01","KABKOT":"BOGOR","ID_KEC":"32.01.10","KECAMATAN":"PARUNG","ID_DESA":"32.01.10.2001","DESA":"PARUNG","LATITUDE":-6.4231923,"LONGITUDE":106.7321528,"STATUS":"BUKA","TANGGAL PENGUMPULAN":"Q2 2025","TANGGAL UPDATE":"17/06/2025"}},{"type":"Feature","geometry":{"coordinates":[107.1447352,-6.5945325],"type":"Point"},"properties":{"NAMA":"PASAR REBO DESA PASIRTANJUNG","TIPE_1":"PERDAGANGAN DAN RETAIL","TIPE_2":"PASAR","TIPE_3":"PASAR TRADISIONAL","TELEPON":"","ALAMAT":"RT.08/RW.03, PASIR TJ., KEC. TANJUNGSARI, KABUPATEN BOGOR, JAWA BARAT 16840","ID_PROV":"32","PROVINSI":"JAWA BARAT","ID_KABKOT":"32.01","KABKOT":"BOGOR","ID_KEC":"32.01.36","KECAMATAN":"TANJUNGSARI","ID_DESA":"32.01.36.2005","DESA":"PASIR TANJUNG","LATITUDE":-6.5945325,"LONGITUDE":107.1447352,"STATUS":"BUKA","TANGGAL PENGUMPULAN":"Q2 2025","TANGGAL UPDATE":"17/06/2025"}},{"type":"Feature","geometry":{"coordinates":[106.4800457,-6.4855974],"type":"Point"},"properties":{"NAMA":"PASAR RAYA JASINGA","TIPE_1":"PERDAGANGAN DAN RETAIL","TIPE_2":"PASAR","TIPE_3":"PASAR TRADISIONAL","TELEPON":"","ALAMAT":"JL. RAYA JASINGA NO.27 BLOK A NO. 123, SIPAK, KEC. JASINGA, KABUPATEN BOGOR, JAWA BARAT 16670","ID_PROV":"32","PROVINSI":"JAWA BARAT","ID_KABKOT":"32.01","KABKOT":"BOGOR","ID_KEC":"32.01.19","KECAMATAN":"JASINGA","ID_DESA":"32.01.19.2004","DESA":"SIPAK","LATITUDE":-6.4855974,"LONGITUDE":106.4800457,"STATUS":"BUKA","TANGGAL PENGUMPULAN":"Q2 2025","TANGGAL UPDATE":"17/06/2025"}},{"type":"Feature","geometry":{"coordinates":[106.9907682,-6.3633587],"type":"Point"},"properties":{"NAMA":"PASAR RAWA BANGO","TIPE_1":"PERDAGANGAN DAN RETAIL","TIPE_2":"PASAR","TIPE_3":"PASAR TRADISIONAL","TELEPON":"","ALAMAT":"JL. SURYANI BLOK D11 NO.32, RT.009/RW.008, CIKETING UDIK, BANTAR GEBANG, BEKASI, WEST JAVA 17153","ID_PROV":"32","PROVINSI":"JAWA BARAT","ID_KABKOT":"32.01","KABKOT":"BOGOR","ID_KEC":"32.01.07","KECAMATAN":"CILEUNGSI","ID_DESA":"32.01.07.2001","DESA":"PASIRANGIN","LATITUDE":-6.3633587,"LONGITUDE":106.9907682,"STATUS":"BUKA","TANGGAL PENGUMPULAN":"Q2 2025","TANGGAL UPDATE":"17/06/2025"}},{"type":"Feature","geometry":{"coordinates":[106.9913105,-6.391347],"type":"Point"},"properties":{"NAMA":"PASAR PAGI RAWA GEDE","TIPE_1":"PERDAGANGAN DAN RETAIL","TIPE_2":"PASAR","TIPE_3":"PASAR TRADISIONAL","TELEPON":"","ALAMAT":"SEKTOR 7 METLAND, CIPENJO, KEC. CILEUNGSI, KABUPATEN BOGOR, JAWA BARAT 16820","ID_PROV":"32","PROVINSI":"JAWA BARAT","ID_KABKOT":"32.01","KABKOT":"BOGOR","ID_KEC":"32.01.07","KECAMATAN":"CILEUNGSI","ID_DESA":"32.01.07.2010","DESA":"CIPENJO","LATITUDE":-6.391347,"LONGITUDE":106.9913105,"STATUS":"BUKA","TANGGAL PENGUMPULAN":"Q2 2025","TANGGAL UPDATE":"17/06/2025"}},{"type":"Feature","geometry":{"coordinates":[106.50944709999999,-6.3555745],"type":"Point"},"properties":{"NAMA":"PASAR NYOMPLONG","TIPE_1":"PERDAGANGAN DAN RETAIL","TIPE_2":"PASAR","TIPE_3":"PASAR TRADISIONAL","TELEPON":"","ALAMAT":"JL. ST. CILEJIT, BATOK, KEC. TENJO, KABUPATEN BOGOR, JAWA BARAT 16370","ID_PROV":"32","PROVINSI":"JAWA BARAT","ID_KABKOT":"32.01","KABKOT":"BOGOR","ID_KEC":"32.01.23","KECAMATAN":"TENJO","ID_DESA":"32.01.23.2003","DESA":"BATOK","LATITUDE":-6.3555745,"LONGITUDE":106.5094471,"STATUS":"BUKA","TANGGAL PENGUMPULAN":"Q2 2025","TANGGAL UPDATE":"17/06/2025"}},{"type":"Feature","geometry":{"coordinates":[106.6485475,-6.4585109],"type":"Point"},"properties":{"NAMA":"PASAR NYUNGCUNG","TIPE_1":"PERDAGANGAN DAN RETAIL","TIPE_2":"PASAR","TIPE_3":"PASAR TRADISIONAL","TELEPON":"0856-9495-2317","ALAMAT":"KP. SAWAH, KEC. RUMPIN, KABUPATEN BOGOR, JAWA BARAT 16350","ID_PROV":"32","PROVINSI":"JAWA BARAT","ID_KABKOT":"32.01","KABKOT":"BOGOR","ID_KEC":"32.01.18","KECAMATAN":"RUMPIN","ID_DESA":"32.01.18.2007","DESA":"KAMPUNGSAWAH","LATITUDE":-6.4585109,"LONGITUDE":106.6485475,"STATUS":"BUKA","TANGGAL PENGUMPULAN":"Q2 2025","TANGGAL UPDATE":"17/06/2025"}},{"type":"Feature","geometry":{"coordinates":[106.7291494,-6.4214726],"type":"Point"},"properties":{"NAMA":"PASAR PARUNG","TIPE_1":"PERDAGANGAN DAN RETAIL","TIPE_2":"PASAR","TIPE_3":"PASAR TRADISIONAL","TELEPON":"","ALAMAT":"PS. PARUNG, WARU, KEC. PARUNG, KABUPATEN BOGOR, JAWA BARAT 16330","ID_PROV":"32","PROVINSI":"JAWA BARAT","ID_KABKOT":"32.01","KABKOT":"BOGOR","ID_KEC":"32.01.10","KECAMATAN":"PARUNG","ID_DESA":"32.01.10.2004","DESA":"WARU","LATITUDE":-6.4214726,"LONGITUDE":106.7291494,"STATUS":"BUKA","TANGGAL PENGUMPULAN":"Q2 2025","TANGGAL UPDATE":"17/06/2025"}},{"type":"Feature","geometry":{"coordinates":[106.9006163,-6.6878543],"type":"Point"},"properties":{"NAMA":"PASAR PASIR MUNCANG","TIPE_1":"PERDAGANGAN DAN RETAIL","TIPE_2":"PASAR","TIPE_3":"PASAR TRADISIONAL","TELEPON":"","ALAMAT":"JL. RAYA PASIR MUNCANG, SUKAMANAH, KEC. MEGAMENDUNG, KABUPATEN BOGOR, JAWA BARAT 16770","ID_PROV":"32","PROVINSI":"JAWA BARAT","ID_KABKOT":"32.01","KABKOT":"BOGOR","ID_KEC":"32.01.26","KECAMATAN":"MEGAMENDUNG","ID_DESA":"32.01.26.2007","DESA":"SUKAMANAH","LATITUDE":-6.6878543,"LONGITUDE":106.9006163,"STATUS":"BUKA","TANGGAL PENGUMPULAN":"Q2 2025","TANGGAL UPDATE":"17/06/2025"}},{"type":"Feature","geometry":{"coordinates":[106.9108816,-6.6542256],"type":"Point"},"properties":{"NAMA":"PASAR PARABAKTI BOGOR","TIPE_1":"PERDAGANGAN DAN RETAIL","TIPE_2":"PASAR","TIPE_3":"PASAR TRADISIONAL","TELEPON":"0813-1895-0488","ALAMAT":"CIMORY, LEUWIMALANG, KEC. CISARUA, KABUPATEN BOGOR, JAWA BARAT 16750","ID_PROV":"32","PROVINSI":"JAWA BARAT","ID_KABKOT":"32.01","KABKOT":"BOGOR","ID_KEC":"32.01.25","KECAMATAN":"CISARUA","ID_DESA":"32.01.25.2004","DESA":"CILEMBER","LATITUDE":-6.6542256,"LONGITUDE":106.9108816,"STATUS":"BUKA","TANGGAL PENGUMPULAN":"Q2 2025","TANGGAL UPDATE":"17/06/2025"}}]}