{"type":"FeatureCollection","features":[{"type":"Feature","geometry":{"coordinates":[106.5757563,-6.2525524],"type":"Point"},"properties":{"NAMA":"PASAR MODERN ARYANA KARAWACI","TIPE_1":"PERDAGANGAN DAN RETAIL","TIPE_2":"PASAR","TIPE_3":"PASAR MODERN","TELEPON":"","ALAMAT":"SUKA BAKTI, KEC. CURUG, KABUPATEN TANGERANG, BANTEN 15810","ID_PROV":"36","PROVINSI":"BANTEN","ID_KABKOT":"36.03","KABKOT":"TANGERANG","ID_KEC":"36.03.17","KECAMATAN":"CURUG","ID_DESA":"36.03.17.1006","DESA":"BINONG","LATITUDE":-6.2525524,"LONGITUDE":106.5757563,"STATUS":"BUKA","TANGGAL PENGUMPULAN":"Q2 2025","TANGGAL UPDATE":"17/06/2025"}},{"type":"Feature","geometry":{"coordinates":[106.5820491,-6.2507408],"type":"Point"},"properties":{"NAMA":"PASAR MODERN BINONG","TIPE_1":"PERDAGANGAN DAN RETAIL","TIPE_2":"PASAR","TIPE_3":"PASAR MODERN","TELEPON":"0877-8665-2883","ALAMAT":"JL. KP. BABAKAN NO.53C, RT.004/RW.004, SUKA BAKTI, CURUG, TANGERANG REGENCY, BANTEN 15810","ID_PROV":"36","PROVINSI":"BANTEN","ID_KABKOT":"36.03","KABKOT":"TANGERANG","ID_KEC":"36.03.17","KECAMATAN":"CURUG","ID_DESA":"36.03.17.1006","DESA":"BINONG","LATITUDE":-6.2507408,"LONGITUDE":106.5820491,"STATUS":"BUKA","TANGGAL PENGUMPULAN":"Q2 2025","TANGGAL UPDATE":"17/06/2025"}},{"type":"Feature","geometry":{"coordinates":[106.5949605,-6.2193214],"type":"Point"},"properties":{"NAMA":"PASAR MODERN MUTIARA KARAWACI","TIPE_1":"PERDAGANGAN DAN RETAIL","TIPE_2":"PASAR","TIPE_3":"PASAR MODERN","TELEPON":"","ALAMAT":"RUKO MUTIARA KARAWACI, RUKO PASAR MODERN, JL. EMPU TANTULAR RAYA, BENCONGAN, KEC. KLP. DUA, KABUPATEN TANGERANG, BANTEN 15810","ID_PROV":"36","PROVINSI":"BANTEN","ID_KABKOT":"36.03","KABKOT":"TANGERANG","ID_KEC":"36.03.28","KECAMATAN":"KELAPA DUA","ID_DESA":"36.03.28.1003","DESA":"BENCONGAN INDAH","LATITUDE":-6.2193214,"LONGITUDE":106.5949605,"STATUS":"BUKA","TANGGAL PENGUMPULAN":"Q2 2025","TANGGAL UPDATE":"17/06/2025"}},{"type":"Feature","geometry":{"coordinates":[106.6229183,-6.2489644],"type":"Point"},"properties":{"NAMA":"PASAR MODERN PARAMOUNT","TIPE_1":"PERDAGANGAN DAN RETAIL","TIPE_2":"PASAR","TIPE_3":"PASAR MODERN","TELEPON":"","ALAMAT":"JL. BOULEVARD RAYA GADING SERPONG, CURUG SANGERENG, KEC. KLP. DUA, KABUPATEN TANGERANG, BANTEN 15810","ID_PROV":"36","PROVINSI":"BANTEN","ID_KABKOT":"36.03","KABKOT":"TANGERANG","ID_KEC":"36.03.28","KECAMATAN":"KELAPA DUA","ID_DESA":"36.03.28.2006","DESA":"CURUG SANGERENG","LATITUDE":-6.2489644,"LONGITUDE":106.6229183,"STATUS":"BUKA","TANGGAL PENGUMPULAN":"Q2 2025","TANGGAL UPDATE":"17/06/2025"}},{"type":"Feature","geometry":{"coordinates":[106.52714,-6.169469],"type":"Point"},"properties":{"NAMA":"PASAR MODERN PASAR KEMIS","TIPE_1":"PERDAGANGAN DAN RETAIL","TIPE_2":"PASAR","TIPE_3":"PASAR MODERN","TELEPON":"","ALAMAT":"PONDOK KP, JL. RAYA PS. KEMIS, SINDANG PANON, KEC. SINDANG JAYA, 15560 TANGERANG, BANTEN 15560","ID_PROV":"36","PROVINSI":"BANTEN","ID_KABKOT":"36.03","KABKOT":"TANGERANG","ID_KEC":"36.03.29","KECAMATAN":"SINDANG JAYA","ID_DESA":"36.03.29.2005","DESA":"SINDANGPANON","LATITUDE":-6.169469,"LONGITUDE":106.52714,"STATUS":"BUKA","TANGGAL PENGUMPULAN":"Q2 2025","TANGGAL UPDATE":"17/06/2025"}},{"type":"Feature","geometry":{"coordinates":[106.5210417,-6.25512],"type":"Point"},"properties":{"NAMA":"PASAR CITRA CITY MARKET","TIPE_1":"PERDAGANGAN DAN RETAIL","TIPE_2":"PASAR","TIPE_3":"PASAR MODERN","TELEPON":"","ALAMAT":"JL. CITRA RAYA BOULEVARD RUKO CITY MARKET BLK. T02 NO.2, MEKAR BAKTI, PANONGAN, TANGERANG REGENCY, BANTEN 15710","ID_PROV":"36","PROVINSI":"BANTEN","ID_KABKOT":"36.03","KABKOT":"TANGERANG","ID_KEC":"36.03.19","KECAMATAN":"PANONGAN","ID_DESA":"36.03.19.1002","DESA":"MEKAR BAKTI","LATITUDE":-6.25512,"LONGITUDE":106.5210417,"STATUS":"BUKA","TANGGAL PENGUMPULAN":"Q2 2025","TANGGAL UPDATE":"17/06/2025"}},{"type":"Feature","geometry":{"coordinates":[106.5833838,-6.157313],"type":"Point"},"properties":{"NAMA":"PASAR BERSIH MODERN","TIPE_1":"PERDAGANGAN DAN RETAIL","TIPE_2":"PASAR","TIPE_3":"PASAR MODERN","TELEPON":"(021) 59312222","ALAMAT":"RUKO TOMANG BARU SQUARE, JL. VILLA TOMANG BARU, KUTA JAYA, KEC. PS. KEMIS, KABUPATEN TANGERANG, BANTEN 15159","ID_PROV":"36","PROVINSI":"BANTEN","ID_KABKOT":"36.03","KABKOT":"TANGERANG","ID_KEC":"36.03.12","KECAMATAN":"PASAR KEMIS","ID_DESA":"36.03.12.2013","DESA":"GELAM JAYA","LATITUDE":-6.157313,"LONGITUDE":106.5833838,"STATUS":"BUKA","TANGGAL PENGUMPULAN":"Q2 2025","TANGGAL UPDATE":"17/06/2025"}},{"type":"Feature","geometry":{"coordinates":[106.4953233,-6.2827735],"type":"Point"},"properties":{"NAMA":"PASAR MODERN MARGASARI TANGERANG","TIPE_1":"PERDAGANGAN DAN RETAIL","TIPE_2":"PASAR","TIPE_3":"PASAR MODERN","TELEPON":"","ALAMAT":"JL. RAYA MARGASARI, MARGA SARI, KEC. TIGARAKSA, KABUPATEN TANGERANG, BANTEN 15720","ID_PROV":"36","PROVINSI":"BANTEN","ID_KABKOT":"36.03","KABKOT":"TANGERANG","ID_KEC":"36.03.03","KECAMATAN":"TIGARAKSA","ID_DESA":"36.03.03.2010","DESA":"MARGASARI","LATITUDE":-6.2827735,"LONGITUDE":106.4953233,"STATUS":"BUKA","TANGGAL PENGUMPULAN":"Q2 2025","TANGGAL UPDATE":"17/06/2025"}},{"type":"Feature","geometry":{"coordinates":[106.5616167,-6.2454248],"type":"Point"},"properties":{"NAMA":"PASAR MODERN PARAMOUNT PETALS","TIPE_1":"PERDAGANGAN DAN RETAIL","TIPE_2":"PASAR","TIPE_3":"PASAR MODERN","TELEPON":"","ALAMAT":"JL. CURUG PINANG NO.54, KADU JAYA, CURUG, TANGERANG REGENCY, BANTEN 15810","ID_PROV":"36","PROVINSI":"BANTEN","ID_KABKOT":"36.03","KABKOT":"TANGERANG","ID_KEC":"36.03.17","KECAMATAN":"CURUG","ID_DESA":"36.03.17.2010","DESA":"CUKANGGALIH","LATITUDE":-6.2454248,"LONGITUDE":106.5616167,"STATUS":"BUKA","TANGGAL PENGUMPULAN":"Q2 2025","TANGGAL UPDATE":"17/06/2025"}},{"type":"Feature","geometry":{"coordinates":[106.64332669999999,-6.3201773],"type":"Point"},"properties":{"NAMA":"PASAR MODERN INTERMODA BSD CITY","TIPE_1":"PERDAGANGAN DAN RETAIL","TIPE_2":"PASAR","TIPE_3":"PASAR MODERN","TELEPON":"0881-1401-140","ALAMAT":"JL. RAYA SERPONG - CISAUK, SAMPORA, KEC. CISAUK, KABUPATEN TANGERANG, BANTEN 15345","ID_PROV":"36","PROVINSI":"BANTEN","ID_KABKOT":"36.03","KABKOT":"TANGERANG","ID_KEC":"36.03.23","KECAMATAN":"CISAUK","ID_DESA":"36.03.23.2006","DESA":"SAMPORA","LATITUDE":-6.3201773,"LONGITUDE":106.6433267,"STATUS":"BUKA","TANGGAL PENGUMPULAN":"Q2 2025","TANGGAL UPDATE":"17/06/2025"}}]}