{"type":"FeatureCollection","features":[{"type":"Feature","geometry":{"coordinates":[106.666115,-6.2460983],"type":"Point"},"properties":{"NAMA":"PASAR MALM BLAKANG APARTEMEN ALEXANDRIA","TIPE_1":"PERDAGANGAN DAN RETAIL","TIPE_2":"PASAR","TIPE_3":"PASAR TRADISIONAL","TELEPON":"","ALAMAT":"JALAN NN NO.71, RT.4/RW.5, PD. JAGUNG TIM., KEC. SERPONG UTARA, KOTA TANGERANG SELATAN, BANTEN 15326","ID_PROV":"36","PROVINSI":"BANTEN","ID_KABKOT":"36.74","KABKOT":"KOTA TANGERANG SELATAN","ID_KEC":"36.74.02","KECAMATAN":"SERPONG UTARA","ID_DESA":"36.74.02.1005","DESA":"PONDOK JAGUNG TIMUR","LATITUDE":-6.2460983,"LONGITUDE":106.666115,"STATUS":"BUKA","TANGGAL PENGUMPULAN":"Q2 2025","TANGGAL UPDATE":"17/06/2025"}},{"type":"Feature","geometry":{"coordinates":[106.6940458,-6.3575798],"type":"Point"},"properties":{"NAMA":"PASAR MODERN SERPONG CITY PARADISE","TIPE_1":"PERDAGANGAN DAN RETAIL","TIPE_2":"PASAR","TIPE_3":"PASAR MODERN","TELEPON":"","ALAMAT":"JL. PS. JENGKOL, BABAKAN, KEC. SETU, KOTA TANGERANG SELATAN, BANTEN","ID_PROV":"36","PROVINSI":"BANTEN","ID_KABKOT":"36.74","KABKOT":"KOTA TANGERANG SELATAN","ID_KEC":"36.74.07","KECAMATAN":"SETU","ID_DESA":"36.74.07.1005","DESA":"BABAKAN","LATITUDE":-6.3575798,"LONGITUDE":106.6940458,"STATUS":"BUKA","TANGGAL PENGUMPULAN":"Q2 2025","TANGGAL UPDATE":"17/06/2025"}},{"type":"Feature","geometry":{"coordinates":[106.71935579999999,-6.2794422],"type":"Point"},"properties":{"NAMA":"PASAR MODERN BINTARO JAYA","TIPE_1":"PERDAGANGAN DAN RETAIL","TIPE_2":"PASAR","TIPE_3":"PASAR MODERN","TELEPON":"","ALAMAT":"BAN KO KO . WA 15220, JL. TEGAL ROTAN RAYA NO.9, PD. PUCUNG, KEC. PD. AREN, KOTA TANGERANG SELATAN, BANTEN 15220","ID_PROV":"36","PROVINSI":"BANTEN","ID_KABKOT":"36.74","KABKOT":"KOTA TANGERANG SELATAN","ID_KEC":"36.74.03","KECAMATAN":"PONDOK AREN","ID_DESA":"36.74.03.1004","DESA":"PONDOK JAYA","LATITUDE":-6.2794422,"LONGITUDE":106.7193558,"STATUS":"BUKA","TANGGAL PENGUMPULAN":"Q2 2025","TANGGAL UPDATE":"17/06/2025"}},{"type":"Feature","geometry":{"coordinates":[106.746088,-6.311035],"type":"Point"},"properties":{"NAMA":"PASAR MINI CIPUTAT","TIPE_1":"PERDAGANGAN DAN RETAIL","TIPE_2":"PASAR","TIPE_3":"PASAR TRADISIONAL","TELEPON":"0812-1430-2052","ALAMAT":"PASAR MINI, JL. H. USMAN, RW.08, BELAKANG PASAR, KEC. CIPUTAT, KOTA TANGERANG SELATAN, BANTEN 15411","ID_PROV":"36","PROVINSI":"BANTEN","ID_KABKOT":"36.74","KABKOT":"KOTA TANGERANG SELATAN","ID_KEC":"36.74.04","KECAMATAN":"CIPUTAT","ID_DESA":"36.74.04.1003","DESA":"CIPUTAT","LATITUDE":-6.311035,"LONGITUDE":106.746088,"STATUS":"BUKA","TANGGAL PENGUMPULAN":"Q2 2025","TANGGAL UPDATE":"17/06/2025"}},{"type":"Feature","geometry":{"coordinates":[106.7042724,-6.3334745],"type":"Point"},"properties":{"NAMA":"PASAR MALAM JUM AT PONDOK BENDA BARAT","TIPE_1":"PERDAGANGAN DAN RETAIL","TIPE_2":"PASAR","TIPE_3":"PASAR TRADISIONAL","TELEPON":"","ALAMAT":"PD. BENDA, KEC. PAMULANG, KOTA TANGERANG SELATAN, BANTEN","ID_PROV":"36","PROVINSI":"BANTEN","ID_KABKOT":"36.74","KABKOT":"KOTA TANGERANG SELATAN","ID_KEC":"36.74.06","KECAMATAN":"PAMULANG","ID_DESA":"36.74.06.1003","DESA":"PONDOK BENDA","LATITUDE":-6.3334745,"LONGITUDE":106.7042724,"STATUS":"BUKA","TANGGAL PENGUMPULAN":"Q2 2025","TANGGAL UPDATE":"17/06/2025"}},{"type":"Feature","geometry":{"coordinates":[106.6694384,-6.3418982],"type":"Point"},"properties":{"NAMA":"PASAR MALAM KADEMANGAN HK","TIPE_1":"PERDAGANGAN DAN RETAIL","TIPE_2":"PASAR","TIPE_3":"PASAR TRADISIONAL","TELEPON":"","ALAMAT":"JL. HUTAMA KARYA, KADEMANGAN, KEC. SETU, KOTA TANGERANG SELATAN, BANTEN 15314","ID_PROV":"36","PROVINSI":"BANTEN","ID_KABKOT":"36.74","KABKOT":"KOTA TANGERANG SELATAN","ID_KEC":"36.74.07","KECAMATAN":"SETU","ID_DESA":"36.74.07.1004","DESA":"KADEMANGAN","LATITUDE":-6.3418982,"LONGITUDE":106.6694384,"STATUS":"BUKA","TANGGAL PENGUMPULAN":"Q2 2025","TANGGAL UPDATE":"17/06/2025"}},{"type":"Feature","geometry":{"coordinates":[106.7122335,-6.3241454],"type":"Point"},"properties":{"NAMA":"PASAR MALAM GROSIR PERUMAHAN SEBELAH","TIPE_1":"PERDAGANGAN DAN RETAIL","TIPE_2":"PASAR","TIPE_3":"PASAR TRADISIONAL","TELEPON":"","ALAMAT":"JL. PERUMAHAN BUKIT INDAH NO.9 BLOK M2, RT.6/RW.7, SERUA, KEC. CIPUTAT, KOTA TANGERANG SELATAN, BANTEN 15414","ID_PROV":"36","PROVINSI":"BANTEN","ID_KABKOT":"36.74","KABKOT":"KOTA TANGERANG SELATAN","ID_KEC":"36.74.04","KECAMATAN":"CIPUTAT","ID_DESA":"36.74.04.1002","DESA":"SERUA","LATITUDE":-6.3241454,"LONGITUDE":106.7122335,"STATUS":"BUKA","TANGGAL PENGUMPULAN":"Q2 2025","TANGGAL UPDATE":"17/06/2025"}},{"type":"Feature","geometry":{"coordinates":[106.693038,-6.2480691],"type":"Point"},"properties":{"NAMA":"PASAR MAHARTA","TIPE_1":"PERDAGANGAN DAN RETAIL","TIPE_2":"PASAR","TIPE_3":"PASAR TRADISIONAL","TELEPON":"","ALAMAT":"JL. MAHARTA XIII NO.17, PD. KACANG TIM., KEC. PD. AREN, KOTA TANGERANG SELATAN, BANTEN 15226","ID_PROV":"36","PROVINSI":"BANTEN","ID_KABKOT":"36.74","KABKOT":"KOTA TANGERANG SELATAN","ID_KEC":"36.74.03","KECAMATAN":"PONDOK AREN","ID_DESA":"36.74.03.1007","DESA":"PONDOK KACANG TIMUR","LATITUDE":-6.2480691,"LONGITUDE":106.693038,"STATUS":"BUKA","TANGGAL PENGUMPULAN":"Q2 2025","TANGGAL UPDATE":"17/06/2025"}},{"type":"Feature","geometry":{"coordinates":[106.7342377,-6.3432004],"type":"Point"},"properties":{"NAMA":"PASAR KAGET PAMULANG PERMAI","TIPE_1":"PERDAGANGAN DAN RETAIL","TIPE_2":"PASAR","TIPE_3":"PASAR TRADISIONAL","TELEPON":"","ALAMAT":"JL. PAMULANG PERMAI RAYA, PAMULANG BAR., KEC. PAMULANG, KOTA TANGERANG SELATAN, BANTEN 15417","ID_PROV":"36","PROVINSI":"BANTEN","ID_KABKOT":"36.74","KABKOT":"KOTA TANGERANG SELATAN","ID_KEC":"36.74.06","KECAMATAN":"PAMULANG","ID_DESA":"36.74.06.1001","DESA":"PAMULANG BARAT","LATITUDE":-6.3432004,"LONGITUDE":106.7342377,"STATUS":"BUKA","TANGGAL PENGUMPULAN":"Q2 2025","TANGGAL UPDATE":"17/06/2025"}},{"type":"Feature","geometry":{"coordinates":[106.7118744,-6.2960525],"type":"Point"},"properties":{"NAMA":"PASAR JOMBANG","TIPE_1":"PERDAGANGAN DAN RETAIL","TIPE_2":"PASAR","TIPE_3":"PASAR TRADISIONAL","TELEPON":"","ALAMAT":"JL. JOMBANG RAYA NO.41, RT.4/RW.13, JOMBANG, KEC. CIPUTAT, KOTA TANGERANG SELATAN, BANTEN 15414","ID_PROV":"36","PROVINSI":"BANTEN","ID_KABKOT":"36.74","KABKOT":"KOTA TANGERANG SELATAN","ID_KEC":"36.74.04","KECAMATAN":"CIPUTAT","ID_DESA":"36.74.04.1006","DESA":"JOMBANG","LATITUDE":-6.2960525,"LONGITUDE":106.7118744,"STATUS":"BUKA","TANGGAL PENGUMPULAN":"Q2 2025","TANGGAL UPDATE":"17/06/2025"}},{"type":"Feature","geometry":{"coordinates":[106.7622735,-6.3000638],"type":"Point"},"properties":{"NAMA":"PASAR GINTUNG","TIPE_1":"PERDAGANGAN DAN RETAIL","TIPE_2":"PASAR","TIPE_3":"PASAR TRADISIONAL","TELEPON":"0858-2002-8628","ALAMAT":"JL. IR H. JUANDA NO.3A, REMPOA, KEC. CIPUTAT TIM., KOTA TANGERANG SELATAN, BANTEN 15412","ID_PROV":"36","PROVINSI":"BANTEN","ID_KABKOT":"36.74","KABKOT":"KOTA TANGERANG SELATAN","ID_KEC":"36.74.05","KECAMATAN":"CIPUTAT TIMUR","ID_DESA":"36.74.05.1005","DESA":"REMPOA","LATITUDE":-6.3000638,"LONGITUDE":106.7622735,"STATUS":"BUKA","TANGGAL PENGUMPULAN":"Q2 2025","TANGGAL UPDATE":"17/06/2025"}},{"type":"Feature","geometry":{"coordinates":[106.6883852,-6.3186566],"type":"Point"},"properties":{"NAMA":"PASAR FLOHMAK","TIPE_1":"PERDAGANGAN DAN RETAIL","TIPE_2":"PASAR","TIPE_3":"PASAR TRADISIONAL","TELEPON":"","ALAMAT":"JL. WANA KENCANA I NO.63A, RW. BUNTU, KEC. SERPONG, KOTA TANGERANG SELATAN, BANTEN 15310","ID_PROV":"36","PROVINSI":"BANTEN","ID_KABKOT":"36.74","KABKOT":"KOTA TANGERANG SELATAN","ID_KEC":"36.74.01","KECAMATAN":"SERPONG","ID_DESA":"36.74.01.1002","DESA":"RAWABUNTU","LATITUDE":-6.3186566,"LONGITUDE":106.6883852,"STATUS":"BUKA","TANGGAL PENGUMPULAN":"Q2 2025","TANGGAL UPDATE":"17/06/2025"}},{"type":"Feature","geometry":{"coordinates":[106.6518781,-6.2396738],"type":"Point"},"properties":{"NAMA":"PASAR DELAPAN ALAM SUTERA","TIPE_1":"PERDAGANGAN DAN RETAIL","TIPE_2":"PASAR","TIPE_3":"PASAR MODERN","TELEPON":"(021) 29005003","ALAMAT":"ALAM SUTERA, JL. ALAM UTAMA, PAKULONAN, KEC. SERPONG, KOTA TANGERANG SELATAN, BANTEN 15325","ID_PROV":"36","PROVINSI":"BANTEN","ID_KABKOT":"36.74","KABKOT":"KOTA TANGERANG SELATAN","ID_KEC":"36.74.02","KECAMATAN":"SERPONG UTARA","ID_DESA":"36.74.02.1001","DESA":"PAKULONAN","LATITUDE":-6.2396738,"LONGITUDE":106.6518781,"STATUS":"BUKA","TANGGAL PENGUMPULAN":"Q2 2025","TANGGAL UPDATE":"17/06/2025"}},{"type":"Feature","geometry":{"coordinates":[106.7462851,-6.3134514],"type":"Point"},"properties":{"NAMA":"PASAR CIPUTAT","TIPE_1":"PERDAGANGAN DAN RETAIL","TIPE_2":"PASAR","TIPE_3":"PASAR TRADISIONAL","TELEPON":"","ALAMAT":"JALAN CIPUTAT RAYA KEBAYORAN LAMA UTARA KECAMATAN KEBAYORAN LAMA KOTA JAKARTA SELATAN DAERAH KHUSUS IBUKOTA JAKARTA, CIPUTAT, KEC. CIPUTAT, KOTA TANGERANG SELATAN, BANTEN 15411","ID_PROV":"36","PROVINSI":"BANTEN","ID_KABKOT":"36.74","KABKOT":"KOTA TANGERANG SELATAN","ID_KEC":"36.74.04","KECAMATAN":"CIPUTAT","ID_DESA":"36.74.04.1003","DESA":"CIPUTAT","LATITUDE":-6.3134514,"LONGITUDE":106.7462851,"STATUS":"BUKA","TANGGAL PENGUMPULAN":"Q2 2025","TANGGAL UPDATE":"17/06/2025"}},{"type":"Feature","geometry":{"coordinates":[106.7459415,-6.3240161],"type":"Point"},"properties":{"NAMA":"PASAR CIMANGGIS, CIPUTAT","TIPE_1":"PERDAGANGAN DAN RETAIL","TIPE_2":"PASAR","TIPE_3":"PASAR TRADISIONAL","TELEPON":"0838-1939-0949","ALAMAT":"KEC. CIPUTAT, KOTA TANGERANG SELATAN, BANTEN 15411","ID_PROV":"36","PROVINSI":"BANTEN","ID_KABKOT":"36.74","KABKOT":"KOTA TANGERANG SELATAN","ID_KEC":"36.74.04","KECAMATAN":"CIPUTAT","ID_DESA":"36.74.04.1003","DESA":"CIPUTAT","LATITUDE":-6.3240161,"LONGITUDE":106.7459415,"STATUS":"BUKA","TANGGAL PENGUMPULAN":"Q2 2025","TANGGAL UPDATE":"17/06/2025"}},{"type":"Feature","geometry":{"coordinates":[106.7205976,-6.262705],"type":"Point"},"properties":{"NAMA":"PASAR CEGER","TIPE_1":"PERDAGANGAN DAN RETAIL","TIPE_2":"PASAR","TIPE_3":"PASAR TRADISIONAL","TELEPON":"0821-1495-0660","ALAMAT":"JL. CEGER RAYA NO.1, JURANG MANGU BARAT, KEC. PD. AREN, KOTA TANGERANG SELATAN, BANTEN 15223","ID_PROV":"36","PROVINSI":"BANTEN","ID_KABKOT":"36.74","KABKOT":"KOTA TANGERANG SELATAN","ID_KEC":"36.74.03","KECAMATAN":"PONDOK AREN","ID_DESA":"36.74.03.1010","DESA":"JURANGMANGU BARAT","LATITUDE":-6.262705,"LONGITUDE":106.7205976,"STATUS":"BUKA","TANGGAL PENGUMPULAN":"Q2 2025","TANGGAL UPDATE":"17/06/2025"}},{"type":"Feature","geometry":{"coordinates":[106.6735304,-6.3005766],"type":"Point"},"properties":{"NAMA":"PASAR CANDI4D","TIPE_1":"PERDAGANGAN DAN RETAIL","TIPE_2":"PASAR","TIPE_3":"PASAR TRADISIONAL","TELEPON":"","ALAMAT":"RW. BUNTU, KEC. SERPONG, KOTA TANGERANG SELATAN, BANTEN 15318","ID_PROV":"36","PROVINSI":"BANTEN","ID_KABKOT":"36.74","KABKOT":"KOTA TANGERANG SELATAN","ID_KEC":"36.74.01","KECAMATAN":"SERPONG","ID_DESA":"36.74.01.1002","DESA":"RAWABUNTU","LATITUDE":-6.3005766,"LONGITUDE":106.6735304,"STATUS":"BUKA","TANGGAL PENGUMPULAN":"Q2 2025","TANGGAL UPDATE":"17/06/2025"}},{"type":"Feature","geometry":{"coordinates":[106.7169835,-6.3092338],"type":"Point"},"properties":{"NAMA":"PASAR BUKIT NUSA INDAH","TIPE_1":"PERDAGANGAN DAN RETAIL","TIPE_2":"PASAR","TIPE_3":"PASAR TRADISIONAL","TELEPON":"","ALAMAT":"JL. NUSA INDAH NO.1854, SERUA, KEC. CIPUTAT, KOTA TANGERANG SELATAN, BANTEN 15414","ID_PROV":"36","PROVINSI":"BANTEN","ID_KABKOT":"36.74","KABKOT":"KOTA TANGERANG SELATAN","ID_KEC":"36.74.04","KECAMATAN":"CIPUTAT","ID_DESA":"36.74.04.1002","DESA":"SERUA","LATITUDE":-6.3092338,"LONGITUDE":106.7169835,"STATUS":"BUKA","TANGGAL PENGUMPULAN":"Q2 2025","TANGGAL UPDATE":"17/06/2025"}},{"type":"Feature","geometry":{"coordinates":[106.7118575,-6.3245633],"type":"Point"},"properties":{"NAMA":"PASAR BUKIT PAMULANG DUA","TIPE_1":"PERDAGANGAN DAN RETAIL","TIPE_2":"PASAR","TIPE_3":"PASAR TRADISIONAL","TELEPON":"","ALAMAT":"BLOK. D13, JL. BENDA TIMUR XIV BLOK E 23 NO.14, PD. BENDA, KEC. PAMULANG, KOTA TANGERANG SELATAN, BANTEN 15416","ID_PROV":"36","PROVINSI":"BANTEN","ID_KABKOT":"36.74","KABKOT":"KOTA TANGERANG SELATAN","ID_KEC":"36.74.04","KECAMATAN":"CIPUTAT","ID_DESA":"36.74.04.1002","DESA":"SERUA","LATITUDE":-6.3245633,"LONGITUDE":106.7118575,"STATUS":"BUKA","TANGGAL PENGUMPULAN":"Q2 2025","TANGGAL UPDATE":"17/06/2025"}},{"type":"Feature","geometry":{"coordinates":[106.7468065,-6.3136966],"type":"Point"},"properties":{"NAMA":"PASAR ARIA PUTRA","TIPE_1":"PERDAGANGAN DAN RETAIL","TIPE_2":"PASAR","TIPE_3":"PASAR TRADISIONAL","TELEPON":"","ALAMAT":"JL. ARIA PUTRA, CIPUTAT, KEC. CIPUTAT, KOTA TANGERANG SELATAN, BANTEN 15411","ID_PROV":"36","PROVINSI":"BANTEN","ID_KABKOT":"36.74","KABKOT":"KOTA TANGERANG SELATAN","ID_KEC":"36.74.04","KECAMATAN":"CIPUTAT","ID_DESA":"36.74.04.1003","DESA":"CIPUTAT","LATITUDE":-6.3136966,"LONGITUDE":106.7468065,"STATUS":"BUKA","TANGGAL PENGUMPULAN":"Q2 2025","TANGGAL UPDATE":"17/06/2025"}},{"type":"Feature","geometry":{"coordinates":[106.7144148,-6.283653],"type":"Point"},"properties":{"NAMA":"PASAR AMAL MASJID RAYA BINTARO","TIPE_1":"PERDAGANGAN DAN RETAIL","TIPE_2":"PASAR","TIPE_3":"PASAR TRADISIONAL","TELEPON":"","ALAMAT":"PD. PUCUNG, KEC. PD. AREN, KOTA TANGERANG SELATAN, BANTEN 15229","ID_PROV":"36","PROVINSI":"BANTEN","ID_KABKOT":"36.74","KABKOT":"KOTA TANGERANG SELATAN","ID_KEC":"36.74.03","KECAMATAN":"PONDOK AREN","ID_DESA":"36.74.03.1002","DESA":"PONDOK PUCUNG","LATITUDE":-6.283653,"LONGITUDE":106.7144148,"STATUS":"BUKA","TANGGAL PENGUMPULAN":"Q2 2025","TANGGAL UPDATE":"17/06/2025"}},{"type":"Feature","geometry":{"coordinates":[106.6633117,-6.3195543],"type":"Point"},"properties":{"NAMA":"PASAR TRADISIONAL","TIPE_1":"PERDAGANGAN DAN RETAIL","TIPE_2":"PASAR","TIPE_3":"PASAR TRADISIONAL","TELEPON":"0877-5365-7345","ALAMAT":"JL. RAYA SERPONG NO.5 A, RT.1/RW.2, SERPONG, SERPONG SUB-DISTRICT, SOUTH TANGERANG CITY, BANTEN 15310","ID_PROV":"36","PROVINSI":"BANTEN","ID_KABKOT":"36.74","KABKOT":"KOTA TANGERANG SELATAN","ID_KEC":"36.74.01","KECAMATAN":"SERPONG","ID_DESA":"36.74.01.1009","DESA":"SERPONG","LATITUDE":-6.3195543,"LONGITUDE":106.6633117,"STATUS":"BUKA","TANGGAL PENGUMPULAN":"Q2 2025","TANGGAL UPDATE":"17/06/2025"}},{"type":"Feature","geometry":{"coordinates":[106.7446168,-6.2860194],"type":"Point"},"properties":{"NAMA":"PASAR TRADISIONAL PONDOK RANJI","TIPE_1":"PERDAGANGAN DAN RETAIL","TIPE_2":"PASAR","TIPE_3":"PASAR TRADISIONAL","TELEPON":"","ALAMAT":"PONDOK RANJI, CIPUTAT TIMUR, SOUTH TANGERANG CITY, BANTEN 15412","ID_PROV":"36","PROVINSI":"BANTEN","ID_KABKOT":"36.74","KABKOT":"KOTA TANGERANG SELATAN","ID_KEC":"36.74.05","KECAMATAN":"CIPUTAT TIMUR","ID_DESA":"36.74.05.1002","DESA":"PONDOK RANJI","LATITUDE":-6.2860194,"LONGITUDE":106.7446168,"STATUS":"BUKA","TANGGAL PENGUMPULAN":"Q2 2025","TANGGAL UPDATE":"17/06/2025"}},{"type":"Feature","geometry":{"coordinates":[106.6519001,-6.2398436],"type":"Point"},"properties":{"NAMA":"PASAR MODERN TANGERANG","TIPE_1":"PERDAGANGAN DAN RETAIL","TIPE_2":"PASAR","TIPE_3":"PASAR MODERN","TELEPON":"0811-8087-550","ALAMAT":"JL. ALAM UTAMA, PAKULONAN, KEC. SERPONG UTARA, KOTA TANGERANG SELATAN, BANTEN 15325","ID_PROV":"36","PROVINSI":"BANTEN","ID_KABKOT":"36.74","KABKOT":"KOTA TANGERANG SELATAN","ID_KEC":"36.74.02","KECAMATAN":"SERPONG UTARA","ID_DESA":"36.74.02.1001","DESA":"PAKULONAN","LATITUDE":-6.2398436,"LONGITUDE":106.6519001,"STATUS":"BUKA","TANGGAL PENGUMPULAN":"Q2 2025","TANGGAL UPDATE":"17/06/2025"}},{"type":"Feature","geometry":{"coordinates":[106.6848223,-6.3045281],"type":"Point"},"properties":{"NAMA":"PASAR MODERN BSD CITY","TIPE_1":"PERDAGANGAN DAN RETAIL","TIPE_2":"PASAR","TIPE_3":"PASAR MODERN","TELEPON":"","ALAMAT":"JL. LETNAN SUTOPO, RW. MEKAR JAYA, KEC. SERPONG, KOTA TANGERANG SELATAN, BANTEN 15310","ID_PROV":"36","PROVINSI":"BANTEN","ID_KABKOT":"36.74","KABKOT":"KOTA TANGERANG SELATAN","ID_KEC":"36.74.01","KECAMATAN":"SERPONG","ID_DESA":"36.74.01.1003","DESA":"RAWA MEKAR JAYA","LATITUDE":-6.3045281,"LONGITUDE":106.6848223,"STATUS":"BUKA","TANGGAL PENGUMPULAN":"Q2 2025","TANGGAL UPDATE":"17/06/2025"}},{"type":"Feature","geometry":{"coordinates":[106.6756281,-6.2587274],"type":"Point"},"properties":{"NAMA":"PASAR TRADISIONAL JELUPANG","TIPE_1":"PERDAGANGAN DAN RETAIL","TIPE_2":"PASAR","TIPE_3":"PASAR TRADISIONAL","TELEPON":"","ALAMAT":"JL. RAYA PD. JAGUNG, JELUPANG, KEC. SERPONG UTARA, KOTA TANGERANG SELATAN, BANTEN 15323","ID_PROV":"36","PROVINSI":"BANTEN","ID_KABKOT":"36.74","KABKOT":"KOTA TANGERANG SELATAN","ID_KEC":"36.74.02","KECAMATAN":"SERPONG UTARA","ID_DESA":"36.74.02.1006","DESA":"JELUPANG","LATITUDE":-6.2587274,"LONGITUDE":106.6756281,"STATUS":"BUKA","TANGGAL PENGUMPULAN":"Q2 2025","TANGGAL UPDATE":"17/06/2025"}},{"type":"Feature","geometry":{"coordinates":[106.7102909,-6.3230616],"type":"Point"},"properties":{"NAMA":"PASAR UNIK89","TIPE_1":"PERDAGANGAN DAN RETAIL","TIPE_2":"PASAR","TIPE_3":"PASAR TRADISIONAL","TELEPON":"(021) 32892989","ALAMAT":"JL. MUALI, A2/3 PAMULANG, TANGERANG SELATAN, RUKO CENDANA RESIDENCE, SERUA, KEC. CIPUTAT, KOTA TANGERANG SELATAN, BANTEN 15418","ID_PROV":"36","PROVINSI":"BANTEN","ID_KABKOT":"36.74","KABKOT":"KOTA TANGERANG SELATAN","ID_KEC":"36.74.04","KECAMATAN":"CIPUTAT","ID_DESA":"36.74.04.1002","DESA":"SERUA","LATITUDE":-6.3230616,"LONGITUDE":106.7102909,"STATUS":"BUKA","TANGGAL PENGUMPULAN":"Q2 2025","TANGGAL UPDATE":"17/06/2025"}},{"type":"Feature","geometry":{"coordinates":[106.7086597,-6.2823336],"type":"Point"},"properties":{"NAMA":"PASAR SYARIAH","TIPE_1":"PERDAGANGAN DAN RETAIL","TIPE_2":"PASAR","TIPE_3":"PASAR TRADISIONAL","TELEPON":"0812-8306-6111","ALAMAT":"HJ 3/2, JL. SENAYAN BINTARO JAYA, PD. PUCUNG, KEC. PD. AREN, KOTA TANGERANG SELATAN, BANTEN 15229","ID_PROV":"36","PROVINSI":"BANTEN","ID_KABKOT":"36.74","KABKOT":"KOTA TANGERANG SELATAN","ID_KEC":"36.74.03","KECAMATAN":"PONDOK AREN","ID_DESA":"36.74.03.1002","DESA":"PONDOK PUCUNG","LATITUDE":-6.2823336,"LONGITUDE":106.7086597,"STATUS":"BUKA","TANGGAL PENGUMPULAN":"Q2 2025","TANGGAL UPDATE":"17/06/2025"}},{"type":"Feature","geometry":{"coordinates":[106.6518024,-6.2393584],"type":"Point"},"properties":{"NAMA":"PASAR SEGAR 88","TIPE_1":"PERDAGANGAN DAN RETAIL","TIPE_2":"PASAR","TIPE_3":"PASAR MODERN","TELEPON":"0812-9332-5479","ALAMAT":"ALAM SUTERA, JL. JALUR SUTERA, PAKULONAN, PINANG, TANGERANG CITY, BANTEN 15143","ID_PROV":"36","PROVINSI":"BANTEN","ID_KABKOT":"36.74","KABKOT":"KOTA TANGERANG SELATAN","ID_KEC":"36.74.02","KECAMATAN":"SERPONG UTARA","ID_DESA":"36.74.02.1001","DESA":"PAKULONAN","LATITUDE":-6.2393584,"LONGITUDE":106.6518024,"STATUS":"BUKA","TANGGAL PENGUMPULAN":"Q2 2025","TANGGAL UPDATE":"17/06/2025"}},{"type":"Feature","geometry":{"coordinates":[106.6725662,-6.2496251],"type":"Point"},"properties":{"NAMA":"PASAR SEGAR GRAHA RAYA BINTARO","TIPE_1":"PERDAGANGAN DAN RETAIL","TIPE_2":"PASAR","TIPE_3":"PASAR TRADISIONAL","TELEPON":"(021) 53140591","ALAMAT":"JL. GRAHA RAYA BINTARO, PD. JAGUNG TIM., KEC. SERPONG UTARA, KOTA TANGERANG SELATAN, BANTEN 15326","ID_PROV":"36","PROVINSI":"BANTEN","ID_KABKOT":"36.74","KABKOT":"KOTA TANGERANG SELATAN","ID_KEC":"36.74.02","KECAMATAN":"SERPONG UTARA","ID_DESA":"36.74.02.1005","DESA":"PONDOK JAGUNG TIMUR","LATITUDE":-6.2496251,"LONGITUDE":106.6725662,"STATUS":"BUKA","TANGGAL PENGUMPULAN":"Q2 2025","TANGGAL UPDATE":"17/06/2025"}},{"type":"Feature","geometry":{"coordinates":[106.6730731,-6.2497169],"type":"Point"},"properties":{"NAMA":"PASAR SEGAR PONDOK JAGUNG","TIPE_1":"PERDAGANGAN DAN RETAIL","TIPE_2":"PASAR","TIPE_3":"PASAR MODERN","TELEPON":"","ALAMAT":"JL. MELATI III, PD. JAGUNG TIM., KEC. SERPONG UTARA, KOTA TANGERANG SELATAN, BANTEN 15326","ID_PROV":"36","PROVINSI":"BANTEN","ID_KABKOT":"36.74","KABKOT":"KOTA TANGERANG SELATAN","ID_KEC":"36.74.02","KECAMATAN":"SERPONG UTARA","ID_DESA":"36.74.02.1005","DESA":"PONDOK JAGUNG TIMUR","LATITUDE":-6.2497169,"LONGITUDE":106.6730731,"STATUS":"BUKA","TANGGAL PENGUMPULAN":"Q2 2025","TANGGAL UPDATE":"17/06/2025"}},{"type":"Feature","geometry":{"coordinates":[106.6637218,-6.3215727],"type":"Point"},"properties":{"NAMA":"PASAR SERPONG TANGSEL","TIPE_1":"PERDAGANGAN DAN RETAIL","TIPE_2":"PASAR","TIPE_3":"PASAR TRADISIONAL","TELEPON":"","ALAMAT":"JL. TOL JKT - SERPONG, SERPONG, KEC. SERPONG, KOTA TANGERANG SELATAN, BANTEN","ID_PROV":"36","PROVINSI":"BANTEN","ID_KABKOT":"36.74","KABKOT":"KOTA TANGERANG SELATAN","ID_KEC":"36.74.01","KECAMATAN":"SERPONG","ID_DESA":"36.74.01.1009","DESA":"SERPONG","LATITUDE":-6.3215727,"LONGITUDE":106.6637218,"STATUS":"BUKA","TANGGAL PENGUMPULAN":"Q2 2025","TANGGAL UPDATE":"17/06/2025"}},{"type":"Feature","geometry":{"coordinates":[106.7240929,-6.3546662],"type":"Point"},"properties":{"NAMA":"PASAR PAGI PONDOK BENDA","TIPE_1":"PERDAGANGAN DAN RETAIL","TIPE_2":"PASAR","TIPE_3":"PASAR TRADISIONAL","TELEPON":"","ALAMAT":"JL. BALI I, PD. BENDA, KEC. PAMULANG, KOTA TANGERANG SELATAN, BANTEN 15416","ID_PROV":"36","PROVINSI":"BANTEN","ID_KABKOT":"36.74","KABKOT":"KOTA TANGERANG SELATAN","ID_KEC":"36.74.06","KECAMATAN":"PAMULANG","ID_DESA":"36.74.06.1003","DESA":"PONDOK BENDA","LATITUDE":-6.3546662,"LONGITUDE":106.7240929,"STATUS":"BUKA","TANGGAL PENGUMPULAN":"Q2 2025","TANGGAL UPDATE":"17/06/2025"}}]}