{"type":"FeatureCollection","features":[{"type":"Feature","geometry":{"coordinates":[106.7997307,-6.1318944],"type":"Point"},"properties":{"NAMA":"CIPLUK MARKET","TIPE_1":"PERDAGANGAN DAN RETAIL","TIPE_2":"PASAR","TIPE_3":"PASAR TRADISIONAL","TELEPON":"(021) 6623160","ALAMAT":"JL. TANAH PASIR NO.16, RT.12/RW.11, PENJARINGAN, NORTH JAKARTA CITY, JAKARTA 14440","ID_PROV":"31","PROVINSI":"DKI JAKARTA","ID_KABKOT":"31.72","KABKOT":"KOTA ADM. JAKARTA UTARA","ID_KEC":"31.72.01","KECAMATAN":"PENJARINGAN","ID_DESA":"31.72.01.1001","DESA":"PENJARINGAN","LATITUDE":-6.1318944,"LONGITUDE":106.7997307,"STATUS":"BUKA","TANGGAL PENGUMPULAN":"Q2 2025","TANGGAL UPDATE":"17/06/2025"}},{"type":"Feature","geometry":{"coordinates":[106.8705251,-6.1219294],"type":"Point"},"properties":{"NAMA":"KOBER MARKET","TIPE_1":"PERDAGANGAN DAN RETAIL","TIPE_2":"PASAR","TIPE_3":"PASAR TRADISIONAL","TELEPON":"","ALAMAT":"NO, JL. BELIMBING NO.2, RT.14/RW.8, PAPANGGO, KEC. TJ. PRIOK, JKT UTARA, DAERAH KHUSUS IBUKOTA JAKARTA 14340","ID_PROV":"31","PROVINSI":"DKI JAKARTA","ID_KABKOT":"31.72","KABKOT":"KOTA ADM. JAKARTA UTARA","ID_KEC":"31.72.02","KECAMATAN":"TANJUNG PRIOK","ID_DESA":"31.72.02.1003","DESA":"PAPANGGO","LATITUDE":-6.1219294,"LONGITUDE":106.8705251,"STATUS":"BUKA","TANGGAL PENGUMPULAN":"Q2 2025","TANGGAL UPDATE":"17/06/2025"}},{"type":"Feature","geometry":{"coordinates":[106.87931,-6.1145254],"type":"Point"},"properties":{"NAMA":"PASAR ANYAR BAHARI","TIPE_1":"PERDAGANGAN DAN RETAIL","TIPE_2":"PASAR","TIPE_3":"PASAR TRADISIONAL","TELEPON":"","ALAMAT":"RT.1/RW.1, WARAKAS, KEC. TJ. PRIOK, JKT UTARA, DAERAH KHUSUS IBUKOTA JAKARTA 14310","ID_PROV":"31","PROVINSI":"DKI JAKARTA","ID_KABKOT":"31.72","KABKOT":"KOTA ADM. JAKARTA UTARA","ID_KEC":"31.72.02","KECAMATAN":"TANJUNG PRIOK","ID_DESA":"31.72.02.1001","DESA":"TANJUNG PRIOK","LATITUDE":-6.1145254,"LONGITUDE":106.87931,"STATUS":"BUKA","TANGGAL PENGUMPULAN":"Q2 2025","TANGGAL UPDATE":"17/06/2025"}},{"type":"Feature","geometry":{"coordinates":[106.8554748,-6.132016],"type":"Point"},"properties":{"NAMA":"PASAR BAMBU KUNING","TIPE_1":"PERDAGANGAN DAN RETAIL","TIPE_2":"PASAR","TIPE_3":"PASAR TRADISIONAL","TELEPON":"","ALAMAT":"JL. BAMBU KUNING NO.9 15, RT.3/RW.8, SUNTER AGUNG, KEC. TJ. PRIOK, JKT UTARA, DAERAH KHUSUS IBUKOTA JAKARTA 14350","ID_PROV":"31","PROVINSI":"DKI JAKARTA","ID_KABKOT":"31.72","KABKOT":"KOTA ADM. JAKARTA UTARA","ID_KEC":"31.72.02","KECAMATAN":"TANJUNG PRIOK","ID_DESA":"31.72.02.1006","DESA":"SUNTER AGUNG","LATITUDE":-6.132016,"LONGITUDE":106.8554748,"STATUS":"BUKA","TANGGAL PENGUMPULAN":"Q2 2025","TANGGAL UPDATE":"17/06/2025"}},{"type":"Feature","geometry":{"coordinates":[106.8520332,-6.1316563],"type":"Point"},"properties":{"NAMA":"PASAR BELEK","TIPE_1":"PERDAGANGAN DAN RETAIL","TIPE_2":"PASAR","TIPE_3":"PASAR TRADISIONAL","TELEPON":"","ALAMAT":"JALAN ANCOL SELATAN RT.12/RW.1, SUNTER AGUNG, TANJUNG PRIOK, RT.12/RW.1, RT.12/RW.1, SUNTER AGUNG, KEC. TJ. PRIOK, JKT UTARA, DAERAH KHUSUS IBUKOTA JAKARTA 14350","ID_PROV":"31","PROVINSI":"DKI JAKARTA","ID_KABKOT":"31.72","KABKOT":"KOTA ADM. JAKARTA UTARA","ID_KEC":"31.72.02","KECAMATAN":"TANJUNG PRIOK","ID_DESA":"31.72.02.1006","DESA":"SUNTER AGUNG","LATITUDE":-6.1316563,"LONGITUDE":106.8520332,"STATUS":"BUKA","TANGGAL PENGUMPULAN":"Q2 2025","TANGGAL UPDATE":"17/06/2025"}},{"type":"Feature","geometry":{"coordinates":[106.9182267,-6.1156723],"type":"Point"},"properties":{"NAMA":"PASAR BELIMBING","TIPE_1":"PERDAGANGAN DAN RETAIL","TIPE_2":"PASAR","TIPE_3":"PASAR TRADISIONAL","TELEPON":"","ALAMAT":"JL. BELIMBING NO.8, RT.16/RW.8, SEMPER BAR., KEC. CILINCING, JKT UTARA, DAERAH KHUSUS IBUKOTA JAKARTA 14130","ID_PROV":"31","PROVINSI":"DKI JAKARTA","ID_KABKOT":"31.72","KABKOT":"KOTA ADM. JAKARTA UTARA","ID_KEC":"31.72.04","KECAMATAN":"CILINCING","ID_DESA":"31.72.04.1007","DESA":"SEMPER BARAT","LATITUDE":-6.1156723,"LONGITUDE":106.9182267,"STATUS":"BUKA","TANGGAL PENGUMPULAN":"Q2 2025","TANGGAL UPDATE":"17/06/2025"}},{"type":"Feature","geometry":{"coordinates":[106.92398689999999,-6.1454917],"type":"Point"},"properties":{"NAMA":"PASAR BULOG","TIPE_1":"PERDAGANGAN DAN RETAIL","TIPE_2":"PASAR","TIPE_3":"PASAR TRADISIONAL","TELEPON":"","ALAMAT":"JL. TIPAR CAKUNG NO.2, RT.2/RW.1, SUKAPURA, KEC. CILINCING, JKT UTARA, DAERAH KHUSUS IBUKOTA JAKARTA 14140","ID_PROV":"31","PROVINSI":"DKI JAKARTA","ID_KABKOT":"31.72","KABKOT":"KOTA ADM. JAKARTA UTARA","ID_KEC":"31.72.04","KECAMATAN":"CILINCING","ID_DESA":"31.72.04.1002","DESA":"SUKAPURA","LATITUDE":-6.1454917,"LONGITUDE":106.9239869,"STATUS":"BUKA","TANGGAL PENGUMPULAN":"Q2 2025","TANGGAL UPDATE":"17/06/2025"}},{"type":"Feature","geometry":{"coordinates":[106.8005102,-6.1306486],"type":"Point"},"properties":{"NAMA":"PASAR DALAM TANAH PASIR","TIPE_1":"PERDAGANGAN DAN RETAIL","TIPE_2":"PASAR","TIPE_3":"PASAR TRADISIONAL","TELEPON":"0895-0140-9607","ALAMAT":"JL. TANAH PASIR NO.2, RT.3/RW.8, PENJARINGAN, KEC. PENJARINGAN, JKT UTARA, DAERAH KHUSUS IBUKOTA JAKARTA 14440","ID_PROV":"31","PROVINSI":"DKI JAKARTA","ID_KABKOT":"31.72","KABKOT":"KOTA ADM. JAKARTA UTARA","ID_KEC":"31.72.01","KECAMATAN":"PENJARINGAN","ID_DESA":"31.72.01.1001","DESA":"PENJARINGAN","LATITUDE":-6.1306486,"LONGITUDE":106.8005102,"STATUS":"BUKA","TANGGAL PENGUMPULAN":"Q2 2025","TANGGAL UPDATE":"17/06/2025"}},{"type":"Feature","geometry":{"coordinates":[106.7687816,-6.1327649],"type":"Point"},"properties":{"NAMA":"PASAR DARURAT VIKAMAS","TIPE_1":"PERDAGANGAN DAN RETAIL","TIPE_2":"PASAR","TIPE_3":"PASAR TRADISIONAL","TELEPON":"","ALAMAT":"RT.14/RW.5, KAPUK MUARA, PENJARINGAN, NORTH JAKARTA CITY, JAKARTA 14460","ID_PROV":"31","PROVINSI":"DKI JAKARTA","ID_KABKOT":"31.72","KABKOT":"KOTA ADM. JAKARTA UTARA","ID_KEC":"31.72.01","KECAMATAN":"PENJARINGAN","ID_DESA":"31.72.01.1003","DESA":"KAPUK MUARA","LATITUDE":-6.1327649,"LONGITUDE":106.7687816,"STATUS":"BUKA","TANGGAL PENGUMPULAN":"Q2 2025","TANGGAL UPDATE":"17/06/2025"}},{"type":"Feature","geometry":{"coordinates":[106.8101687,-6.1307241],"type":"Point"},"properties":{"NAMA":"PASAR EVILES","TIPE_1":"PERDAGANGAN DAN RETAIL","TIPE_2":"PASAR","TIPE_3":"PASAR TRADISIONAL","TELEPON":"0812-8197-0982","ALAMAT":"RT.7/RW.4, PENJARINGAN, KEC. PENJARINGAN, JKT UTARA, DAERAH KHUSUS IBUKOTA JAKARTA 14440","ID_PROV":"31","PROVINSI":"DKI JAKARTA","ID_KABKOT":"31.72","KABKOT":"KOTA ADM. JAKARTA UTARA","ID_KEC":"31.72.01","KECAMATAN":"PENJARINGAN","ID_DESA":"31.72.01.1001","DESA":"PENJARINGAN","LATITUDE":-6.1307241,"LONGITUDE":106.8101687,"STATUS":"BUKA","TANGGAL PENGUMPULAN":"Q2 2025","TANGGAL UPDATE":"17/06/2025"}},{"type":"Feature","geometry":{"coordinates":[106.8777535,-6.1214582],"type":"Point"},"properties":{"NAMA":"PASAR GG 8","TIPE_1":"PERDAGANGAN DAN RETAIL","TIPE_2":"PASAR","TIPE_3":"PASAR TRADISIONAL","TELEPON":"","ALAMAT":"GG. XI NO.47 8, RT.11/RW.6, WARAKAS, KEC. TJ. PRIOK, JKT UTARA, DAERAH KHUSUS IBUKOTA JAKARTA 14370","ID_PROV":"31","PROVINSI":"DKI JAKARTA","ID_KABKOT":"31.72","KABKOT":"KOTA ADM. JAKARTA UTARA","ID_KEC":"31.72.02","KECAMATAN":"TANJUNG PRIOK","ID_DESA":"31.72.02.1007","DESA":"WARAKAS","LATITUDE":-6.1214582,"LONGITUDE":106.8777535,"STATUS":"BUKA","TANGGAL PENGUMPULAN":"Q2 2025","TANGGAL UPDATE":"17/06/2025"}},{"type":"Feature","geometry":{"coordinates":[106.9518456,-6.15178],"type":"Point"},"properties":{"NAMA":"PASAR GREEN GARDEN ROROTAN","TIPE_1":"PERDAGANGAN DAN RETAIL","TIPE_2":"PASAR","TIPE_3":"PASAR TRADISIONAL","TELEPON":"","ALAMAT":"JL. GREEN GARDEN 1 NO.1, RT.1/RW.1, ROROTAN, CILINCING, NORTH JAKARTA CITY, JAKARTA 14140","ID_PROV":"31","PROVINSI":"DKI JAKARTA","ID_KABKOT":"31.72","KABKOT":"KOTA ADM. JAKARTA UTARA","ID_KEC":"31.72.04","KECAMATAN":"CILINCING","ID_DESA":"31.72.04.1006","DESA":"ROROTAN","LATITUDE":-6.15178,"LONGITUDE":106.9518456,"STATUS":"BUKA","TANGGAL PENGUMPULAN":"Q2 2025","TANGGAL UPDATE":"17/06/2025"}},{"type":"Feature","geometry":{"coordinates":[106.8008413,-6.1102505],"type":"Point"},"properties":{"NAMA":"PASAR IKAN MODERN BLOK M ","TIPE_1":"PERDAGANGAN DAN RETAIL","TIPE_2":"PASAR","TIPE_3":"PASAR MODERN","TELEPON":"","ALAMAT":"N O, 21, JL. PS. LELANG IKAN MUARA BARU NO.34, RT.21/RW.17, PENJARINGAN, KEC. PENJARINGAN, JKT UTARA, DAERAH KHUSUS IBUKOTA JAKARTA 14440","ID_PROV":"31","PROVINSI":"DKI JAKARTA","ID_KABKOT":"31.72","KABKOT":"KOTA ADM. JAKARTA UTARA","ID_KEC":"31.72.01","KECAMATAN":"PENJARINGAN","ID_DESA":"31.72.01.1001","DESA":"PENJARINGAN","LATITUDE":-6.1102505,"LONGITUDE":106.8008413,"STATUS":"BUKA","TANGGAL PENGUMPULAN":"Q2 2025","TANGGAL UPDATE":"17/06/2025"}},{"type":"Feature","geometry":{"coordinates":[106.9062953,-6.175765],"type":"Point"},"properties":{"NAMA":"PASAR INPRES KELAPA GADING","TIPE_1":"PERDAGANGAN DAN RETAIL","TIPE_2":"PASAR","TIPE_3":"PASAR TRADISIONAL","TELEPON":"","ALAMAT":"RT.6/RW.6, KLP. GADING TIM., KEC. KLP. GADING, JKT UTARA, DAERAH KHUSUS IBUKOTA JAKARTA 14240","ID_PROV":"31","PROVINSI":"DKI JAKARTA","ID_KABKOT":"31.72","KABKOT":"KOTA ADM. JAKARTA UTARA","ID_KEC":"31.72.06","KECAMATAN":"KELAPA GADING","ID_DESA":"31.72.06.1001","DESA":"KELAPA GADING TIMUR","LATITUDE":-6.175765,"LONGITUDE":106.9062953,"STATUS":"BUKA","TANGGAL PENGUMPULAN":"Q2 2025","TANGGAL UPDATE":"17/06/2025"}},{"type":"Feature","geometry":{"coordinates":[106.9263575,-6.1020168],"type":"Point"},"properties":{"NAMA":"PASAR JALAN BARU","TIPE_1":"PERDAGANGAN DAN RETAIL","TIPE_2":"PASAR","TIPE_3":"PASAR TRADISIONAL","TELEPON":"","ALAMAT":"JL. KALI BARU TIMUR I NO.16-28, RT.14/RW.3, KALI BARU, KEC. CILINCING, JKT UTARA, DAERAH KHUSUS IBUKOTA JAKARTA 14110","ID_PROV":"31","PROVINSI":"DKI JAKARTA","ID_KABKOT":"31.72","KABKOT":"KOTA ADM. JAKARTA UTARA","ID_KEC":"31.72.04","KECAMATAN":"CILINCING","ID_DESA":"31.72.04.1004","DESA":"KALIBARU","LATITUDE":-6.1020168,"LONGITUDE":106.9263575,"STATUS":"BUKA","TANGGAL PENGUMPULAN":"Q2 2025","TANGGAL UPDATE":"17/06/2025"}},{"type":"Feature","geometry":{"coordinates":[106.9346718,-6.1050876],"type":"Point"},"properties":{"NAMA":"PASAR JAYA CILINCING","TIPE_1":"PERDAGANGAN DAN RETAIL","TIPE_2":"PASAR","TIPE_3":"PASAR TRADISIONAL","TELEPON":"","ALAMAT":"CILINCING, KEC. CILINCING, JKT UTARA, DAERAH KHUSUS IBUKOTA JAKARTA","ID_PROV":"31","PROVINSI":"DKI JAKARTA","ID_KABKOT":"31.72","KABKOT":"KOTA ADM. JAKARTA UTARA","ID_KEC":"31.72.04","KECAMATAN":"CILINCING","ID_DESA":"31.72.04.1001","DESA":"CILINCING","LATITUDE":-6.1050876,"LONGITUDE":106.9346718,"STATUS":"BUKA","TANGGAL PENGUMPULAN":"Q2 2025","TANGGAL UPDATE":"17/06/2025"}},{"type":"Feature","geometry":{"coordinates":[106.9062219,-6.175859],"type":"Point"},"properties":{"NAMA":"PASAR JAYA KELAPA GADING","TIPE_1":"PERDAGANGAN DAN RETAIL","TIPE_2":"PASAR","TIPE_3":"PASAR MODERN","TELEPON":"","ALAMAT":"KOMPLEK PT HII KELAPA GADING, JL. PASAR INPRES, RT.6/RW.6, KLP. GADING TIM., KEC. KLP. GADING, JKT UTARA, DAERAH KHUSUS IBUKOTA JAKARTA 14240","ID_PROV":"31","PROVINSI":"DKI JAKARTA","ID_KABKOT":"31.72","KABKOT":"KOTA ADM. JAKARTA UTARA","ID_KEC":"31.72.06","KECAMATAN":"KELAPA GADING","ID_DESA":"31.72.06.1001","DESA":"KELAPA GADING TIMUR","LATITUDE":-6.175859,"LONGITUDE":106.9062219,"STATUS":"BUKA","TANGGAL PENGUMPULAN":"Q2 2025","TANGGAL UPDATE":"17/06/2025"}},{"type":"Feature","geometry":{"coordinates":[106.915718,-6.1215624],"type":"Point"},"properties":{"NAMA":"PASAR JAYA KOJA BARU","TIPE_1":"PERDAGANGAN DAN RETAIL","TIPE_2":"PASAR","TIPE_3":"PASAR TRADISIONAL","TELEPON":"0812-6148-4431","ALAMAT":"JL. BHAYANGKARA, RT.8/RW.1, TUGU UTARA, KEC. KOJA, JKT UTARA, DAERAH KHUSUS IBUKOTA JAKARTA 14260","ID_PROV":"31","PROVINSI":"DKI JAKARTA","ID_KABKOT":"31.72","KABKOT":"KOTA ADM. JAKARTA UTARA","ID_KEC":"31.72.03","KECAMATAN":"KOJA","ID_DESA":"31.72.03.1002","DESA":"TUGU UTARA","LATITUDE":-6.1215624,"LONGITUDE":106.915718,"STATUS":"BUKA","TANGGAL PENGUMPULAN":"Q2 2025","TANGGAL UPDATE":"17/06/2025"}},{"type":"Feature","geometry":{"coordinates":[106.7888782,-6.121167],"type":"Point"},"properties":{"NAMA":"PASAR JAYA PLUIT","TIPE_1":"PERDAGANGAN DAN RETAIL","TIPE_2":"PASAR","TIPE_3":"PASAR MODERN","TELEPON":"","ALAMAT":"JL. TAMAN PLUIT KENCANA DALAM NO.23, RT.4/RW.6, PLUIT, KEC. PENJARINGAN, JKT UTARA, DAERAH KHUSUS IBUKOTA JAKARTA 14450","ID_PROV":"31","PROVINSI":"DKI JAKARTA","ID_KABKOT":"31.72","KABKOT":"KOTA ADM. JAKARTA UTARA","ID_KEC":"31.72.01","KECAMATAN":"PENJARINGAN","ID_DESA":"31.72.01.1005","DESA":"PLUIT","LATITUDE":-6.121167,"LONGITUDE":106.7888782,"STATUS":"BUKA","TANGGAL PENGUMPULAN":"Q2 2025","TANGGAL UPDATE":"17/06/2025"}},{"type":"Feature","geometry":{"coordinates":[106.88597259999999,-6.1143823],"type":"Point"},"properties":{"NAMA":"PASAR JL KEBON BAWANG XIV.","TIPE_1":"PERDAGANGAN DAN RETAIL","TIPE_2":"PASAR","TIPE_3":"PASAR TRADISIONAL","TELEPON":"","ALAMAT":"JL. KB. BAWANG XIV NO.19 19, RT.19/RW.2, KB. BAWANG, KEC. TJ. PRIOK, JKT UTARA, DAERAH KHUSUS IBUKOTA JAKARTA 14320","ID_PROV":"31","PROVINSI":"DKI JAKARTA","ID_KABKOT":"31.72","KABKOT":"KOTA ADM. JAKARTA UTARA","ID_KEC":"31.72.02","KECAMATAN":"TANJUNG PRIOK","ID_DESA":"31.72.02.1005","DESA":"KEBON BAWANG","LATITUDE":-6.1143823,"LONGITUDE":106.8859726,"STATUS":"BUKA","TANGGAL PENGUMPULAN":"Q2 2025","TANGGAL UPDATE":"17/06/2025"}},{"type":"Feature","geometry":{"coordinates":[106.9342249,-6.108997],"type":"Point"},"properties":{"NAMA":"PASAR JONGKOK","TIPE_1":"PERDAGANGAN DAN RETAIL","TIPE_2":"PASAR","TIPE_3":"PASAR TRADISIONAL","TELEPON":"","ALAMAT":"JL. PEDONGKELAN RAYA NO.7 1, RT.2/RW.6, SEMPER TIM., KEC. CILINCING, JKT UTARA, DAERAH KHUSUS IBUKOTA JAKARTA 14130","ID_PROV":"31","PROVINSI":"DKI JAKARTA","ID_KABKOT":"31.72","KABKOT":"KOTA ADM. JAKARTA UTARA","ID_KEC":"31.72.04","KECAMATAN":"CILINCING","ID_DESA":"31.72.04.1005","DESA":"SEMPER TIMUR","LATITUDE":-6.108997,"LONGITUDE":106.9342249,"STATUS":"BUKA","TANGGAL PENGUMPULAN":"Q2 2025","TANGGAL UPDATE":"17/06/2025"}},{"type":"Feature","geometry":{"coordinates":[106.90378229999999,-6.1332326],"type":"Point"},"properties":{"NAMA":"PASAR KAGET","TIPE_1":"PERDAGANGAN DAN RETAIL","TIPE_2":"PASAR","TIPE_3":"PASAR TRADISIONAL","TELEPON":"","ALAMAT":"JL. BENDUNGAN MELAYU NO.1, RT.1/RW.1, TUGU SEL., KEC. KOJA, JKT UTARA, DAERAH KHUSUS IBUKOTA JAKARTA","ID_PROV":"31","PROVINSI":"DKI JAKARTA","ID_KABKOT":"31.72","KABKOT":"KOTA ADM. JAKARTA UTARA","ID_KEC":"31.72.03","KECAMATAN":"KOJA","ID_DESA":"31.72.03.1006","DESA":"RAWA BADAK SELATAN","LATITUDE":-6.1332326,"LONGITUDE":106.9037823,"STATUS":"BUKA","TANGGAL PENGUMPULAN":"Q2 2025","TANGGAL UPDATE":"17/06/2025"}},{"type":"Feature","geometry":{"coordinates":[106.9036455,-6.1311698],"type":"Point"},"properties":{"NAMA":"PASAR KAGET BENDLAY","TIPE_1":"PERDAGANGAN DAN RETAIL","TIPE_2":"PASAR","TIPE_3":"PASAR TRADISIONAL","TELEPON":"","ALAMAT":"JL. PLUMPANG SEMPER NO.RT.8, RT.8/RW.1, TUGU SEL., KEC. KOJA, JKT UTARA, DAERAH KHUSUS IBUKOTA JAKARTA 14260","ID_PROV":"31","PROVINSI":"DKI JAKARTA","ID_KABKOT":"31.72","KABKOT":"KOTA ADM. JAKARTA UTARA","ID_KEC":"31.72.03","KECAMATAN":"KOJA","ID_DESA":"31.72.03.1006","DESA":"RAWA BADAK SELATAN","LATITUDE":-6.1311698,"LONGITUDE":106.9036455,"STATUS":"BUKA","TANGGAL PENGUMPULAN":"Q2 2025","TANGGAL UPDATE":"17/06/2025"}},{"type":"Feature","geometry":{"coordinates":[106.9529141,-6.1592045],"type":"Point"},"properties":{"NAMA":"PASAR KAGET H. DALIH","TIPE_1":"PERDAGANGAN DAN RETAIL","TIPE_2":"PASAR","TIPE_3":"PASAR TRADISIONAL","TELEPON":"","ALAMAT":"JL. ROROTAN 2 NO.2, RT.2/RW.10, CAKUNG TIM., KEC. CAKUNG, KOTA JAKARTA TIMUR, DAERAH KHUSUS IBUKOTA JAKARTA 14140","ID_PROV":"31","PROVINSI":"DKI JAKARTA","ID_KABKOT":"31.72","KABKOT":"KOTA ADM. JAKARTA UTARA","ID_KEC":"31.72.04","KECAMATAN":"CILINCING","ID_DESA":"31.72.04.1006","DESA":"ROROTAN","LATITUDE":-6.1592045,"LONGITUDE":106.9529141,"STATUS":"BUKA","TANGGAL PENGUMPULAN":"Q2 2025","TANGGAL UPDATE":"17/06/2025"}},{"type":"Feature","geometry":{"coordinates":[106.93133,-6.10107],"type":"Point"},"properties":{"NAMA":"PASAR KALIBARU","TIPE_1":"PERDAGANGAN DAN RETAIL","TIPE_2":"PASAR","TIPE_3":"PASAR TRADISIONAL","TELEPON":"","ALAMAT":"KALI BARU, KEC. CILINCING, JKT UTARA, DAERAH KHUSUS IBUKOTA JAKARTA","ID_PROV":"31","PROVINSI":"DKI JAKARTA","ID_KABKOT":"31.72","KABKOT":"KOTA ADM. JAKARTA UTARA","ID_KEC":"31.72.04","KECAMATAN":"CILINCING","ID_DESA":"31.72.04.1004","DESA":"KALIBARU","LATITUDE":-6.10107,"LONGITUDE":106.93133,"STATUS":"BUKA","TANGGAL PENGUMPULAN":"Q2 2025","TANGGAL UPDATE":"17/06/2025"}},{"type":"Feature","geometry":{"coordinates":[106.8858614,-6.1205163],"type":"Point"},"properties":{"NAMA":"PASAR KEBON BAWANG","TIPE_1":"PERDAGANGAN DAN RETAIL","TIPE_2":"PASAR","TIPE_3":"PASAR TRADISIONAL","TELEPON":"","ALAMAT":"JL. SWASEMBADA BARAT XVI, RT.2/RW.14, KB. BAWANG, KEC. TJ. PRIOK, JKT UTARA, DAERAH KHUSUS IBUKOTA JAKARTA 14320","ID_PROV":"31","PROVINSI":"DKI JAKARTA","ID_KABKOT":"31.72","KABKOT":"KOTA ADM. JAKARTA UTARA","ID_KEC":"31.72.02","KECAMATAN":"TANJUNG PRIOK","ID_DESA":"31.72.02.1005","DESA":"KEBON BAWANG","LATITUDE":-6.1205163,"LONGITUDE":106.8858614,"STATUS":"BUKA","TANGGAL PENGUMPULAN":"Q2 2025","TANGGAL UPDATE":"17/06/2025"}},{"type":"Feature","geometry":{"coordinates":[106.910118,-6.1435573],"type":"Point"},"properties":{"NAMA":"PASAR KELAPA GADING","TIPE_1":"PERDAGANGAN DAN RETAIL","TIPE_2":"PASAR","TIPE_3":"PASAR TRADISIONAL","TELEPON":"","ALAMAT":"JL. GADING AYU I BLOK RA28 NO.17, RT.11/RW.15, PEGANGSAAN DUA, KEC. KLP. GADING, JKT UTARA, DAERAH KHUSUS IBUKOTA JAKARTA 14250","ID_PROV":"31","PROVINSI":"DKI JAKARTA","ID_KABKOT":"31.72","KABKOT":"KOTA ADM. JAKARTA UTARA","ID_KEC":"31.72.06","KECAMATAN":"KELAPA GADING","ID_DESA":"31.72.06.1002","DESA":"PEGANGSAAN DUA","LATITUDE":-6.1435573,"LONGITUDE":106.910118,"STATUS":"BUKA","TANGGAL PENGUMPULAN":"Q2 2025","TANGGAL UPDATE":"17/06/2025"}},{"type":"Feature","geometry":{"coordinates":[106.9085475,-6.1601818],"type":"Point"},"properties":{"NAMA":"PASAR KHUSUS MANDIRI BLOK M KELAPA GADING","TIPE_1":"PERDAGANGAN DAN RETAIL","TIPE_2":"PASAR","TIPE_3":"PASAR TRADISIONAL","TELEPON":"","ALAMAT":"JL. RAYA GADING INDAH BLOK MOHAMMAD4C NO.3, RT.13/RW.18, KLP. GADING TIM., KEC. KLP. GADING, JKT UTARA, DAERAH KHUSUS IBUKOTA JAKARTA 14240","ID_PROV":"31","PROVINSI":"DKI JAKARTA","ID_KABKOT":"31.72","KABKOT":"KOTA ADM. JAKARTA UTARA","ID_KEC":"31.72.06","KECAMATAN":"KELAPA GADING","ID_DESA":"31.72.06.1001","DESA":"KELAPA GADING TIMUR","LATITUDE":-6.1601818,"LONGITUDE":106.9085475,"STATUS":"BUKA","TANGGAL PENGUMPULAN":"Q2 2025","TANGGAL UPDATE":"17/06/2025"}},{"type":"Feature","geometry":{"coordinates":[106.9134392,-6.1215418],"type":"Point"},"properties":{"NAMA":"PASAR KOJA BARU","TIPE_1":"PERDAGANGAN DAN RETAIL","TIPE_2":"PASAR","TIPE_3":"PASAR TRADISIONAL","TELEPON":"","ALAMAT":"JL. BHAYANGKARA GG. BARU NO.KELURAHAN, RT.5/RW.1, TUGU UTARA, KEC. KOJA, JKT UTARA, DAERAH KHUSUS IBUKOTA JAKARTA 14260","ID_PROV":"31","PROVINSI":"DKI JAKARTA","ID_KABKOT":"31.72","KABKOT":"KOTA ADM. JAKARTA UTARA","ID_KEC":"31.72.03","KECAMATAN":"KOJA","ID_DESA":"31.72.03.1002","DESA":"TUGU UTARA","LATITUDE":-6.1215418,"LONGITUDE":106.9134392,"STATUS":"BUKA","TANGGAL PENGUMPULAN":"Q2 2025","TANGGAL UPDATE":"17/06/2025"}},{"type":"Feature","geometry":{"coordinates":[106.9166661,-6.1237137],"type":"Point"},"properties":{"NAMA":"PASAR KOJA BARU BLOK A","TIPE_1":"PERDAGANGAN DAN RETAIL","TIPE_2":"PASAR","TIPE_3":"PASAR TRADISIONAL","TELEPON":"","ALAMAT":"PS. KOJA, TUGU UTARA, KEC. KOJA, JKT UTARA, DAERAH KHUSUS IBUKOTA JAKARTA 14260","ID_PROV":"31","PROVINSI":"DKI JAKARTA","ID_KABKOT":"31.72","KABKOT":"KOTA ADM. JAKARTA UTARA","ID_KEC":"31.72.03","KECAMATAN":"KOJA","ID_DESA":"31.72.03.1002","DESA":"TUGU UTARA","LATITUDE":-6.1237137,"LONGITUDE":106.9166661,"STATUS":"BUKA","TANGGAL PENGUMPULAN":"Q2 2025","TANGGAL UPDATE":"17/06/2025"}},{"type":"Feature","geometry":{"coordinates":[106.917631,-6.1161328],"type":"Point"},"properties":{"NAMA":"PASAR KRAMAT TUNGGAK","TIPE_1":"PERDAGANGAN DAN RETAIL","TIPE_2":"PASAR","TIPE_3":"PASAR TRADISIONAL","TELEPON":"","ALAMAT":"RT.7/RW.7, SEMPER BAR., KEC. CILINCING, JKT UTARA, DAERAH KHUSUS IBUKOTA JAKARTA 14130","ID_PROV":"31","PROVINSI":"DKI JAKARTA","ID_KABKOT":"31.72","KABKOT":"KOTA ADM. JAKARTA UTARA","ID_KEC":"31.72.04","KECAMATAN":"CILINCING","ID_DESA":"31.72.04.1007","DESA":"SEMPER BARAT","LATITUDE":-6.1161328,"LONGITUDE":106.917631,"STATUS":"BUKA","TANGGAL PENGUMPULAN":"Q2 2025","TANGGAL UPDATE":"17/06/2025"}},{"type":"Feature","geometry":{"coordinates":[106.910661,-6.1190851],"type":"Point"},"properties":{"NAMA":"PASAR LONTAR","TIPE_1":"PERDAGANGAN DAN RETAIL","TIPE_2":"PASAR","TIPE_3":"PASAR TRADISIONAL","TELEPON":"","ALAMAT":"JL. MANGGAR NO.2, RT.1/RW.18, LAGOA, KEC. KOJA, JKT UTARA, DAERAH KHUSUS IBUKOTA JAKARTA 14260","ID_PROV":"31","PROVINSI":"DKI JAKARTA","ID_KABKOT":"31.72","KABKOT":"KOTA ADM. JAKARTA UTARA","ID_KEC":"31.72.03","KECAMATAN":"KOJA","ID_DESA":"31.72.03.1002","DESA":"TUGU UTARA","LATITUDE":-6.1190851,"LONGITUDE":106.910661,"STATUS":"BUKA","TANGGAL PENGUMPULAN":"Q2 2025","TANGGAL UPDATE":"17/06/2025"}},{"type":"Feature","geometry":{"coordinates":[106.9039759,-6.1187858],"type":"Point"},"properties":{"NAMA":"PASAR MAJA RAWABADAK","TIPE_1":"PERDAGANGAN DAN RETAIL","TIPE_2":"PASAR","TIPE_3":"PASAR TRADISIONAL","TELEPON":"","ALAMAT":"JL. MAJA NO.22 8, RT.1/RW.6, TUGU UTARA, KEC. KOJA, JKT UTARA, DAERAH KHUSUS IBUKOTA JAKARTA 14260","ID_PROV":"31","PROVINSI":"DKI JAKARTA","ID_KABKOT":"31.72","KABKOT":"KOTA ADM. JAKARTA UTARA","ID_KEC":"31.72.03","KECAMATAN":"KOJA","ID_DESA":"31.72.03.1003","DESA":"LAGOA","LATITUDE":-6.1187858,"LONGITUDE":106.9039759,"STATUS":"BUKA","TANGGAL PENGUMPULAN":"Q2 2025","TANGGAL UPDATE":"17/06/2025"}},{"type":"Feature","geometry":{"coordinates":[106.9546788,-6.1402584],"type":"Point"},"properties":{"NAMA":"PASAR MALAKA","TIPE_1":"PERDAGANGAN DAN RETAIL","TIPE_2":"PASAR","TIPE_3":"PASAR TRADISIONAL","TELEPON":"","ALAMAT":"GG. ROROTAN 5 NO.7 4, RT.4/RW.5, ROROTAN, KEC. CILINCING, JKT UTARA, DAERAH KHUSUS IBUKOTA JAKARTA 14140","ID_PROV":"31","PROVINSI":"DKI JAKARTA","ID_KABKOT":"31.72","KABKOT":"KOTA ADM. JAKARTA UTARA","ID_KEC":"31.72.04","KECAMATAN":"CILINCING","ID_DESA":"31.72.04.1006","DESA":"ROROTAN","LATITUDE":-6.1402584,"LONGITUDE":106.9546788,"STATUS":"BUKA","TANGGAL PENGUMPULAN":"Q2 2025","TANGGAL UPDATE":"17/06/2025"}},{"type":"Feature","geometry":{"coordinates":[106.9024031,-6.17103],"type":"Point"},"properties":{"NAMA":"PASAR MANDIRI SUMMARECON KELAPA GADING","TIPE_1":"PERDAGANGAN DAN RETAIL","TIPE_2":"PASAR","TIPE_3":"PASAR TRADISIONAL","TELEPON":"0838-1373-7599","ALAMAT":"JL. SUMAGUNG 3 NO.2 13, RT.13/RW.2, KLP. GADING TIM., KEC. KLP. GADING, JKT UTARA, DAERAH KHUSUS IBUKOTA JAKARTA 14240","ID_PROV":"31","PROVINSI":"DKI JAKARTA","ID_KABKOT":"31.72","KABKOT":"KOTA ADM. JAKARTA UTARA","ID_KEC":"31.72.06","KECAMATAN":"KELAPA GADING","ID_DESA":"31.72.06.1001","DESA":"KELAPA GADING TIMUR","LATITUDE":-6.17103,"LONGITUDE":106.9024031,"STATUS":"BUKA","TANGGAL PENGUMPULAN":"Q2 2025","TANGGAL UPDATE":"17/06/2025"}},{"type":"Feature","geometry":{"coordinates":[106.9603262,-6.0987219],"type":"Point"},"properties":{"NAMA":"PASAR MARHAMAS","TIPE_1":"PERDAGANGAN DAN RETAIL","TIPE_2":"PASAR","TIPE_3":"PASAR TRADISIONAL","TELEPON":"(021) 22418292","ALAMAT":"JL. AKSES RUMAH SI PITUNG, RT.3/RW.7, MARUNDA, CILINCING, KOTA JKT UTARA, DAERAH KHUSUS IBUKOTA JAKARTA, RT.7/RW.7, MARUNDA, KEC. CILINCING, JKT UTARA, DAERAH KHUSUS IBUKOTA JAKARTA 14150","ID_PROV":"31","PROVINSI":"DKI JAKARTA","ID_KABKOT":"31.72","KABKOT":"KOTA ADM. JAKARTA UTARA","ID_KEC":"31.72.04","KECAMATAN":"CILINCING","ID_DESA":"31.72.04.1003","DESA":"MARUNDA","LATITUDE":-6.0987219,"LONGITUDE":106.9603262,"STATUS":"BUKA","TANGGAL PENGUMPULAN":"Q2 2025","TANGGAL UPDATE":"17/06/2025"}},{"type":"Feature","geometry":{"coordinates":[106.9172062,-6.1362525],"type":"Point"},"properties":{"NAMA":"PASAR MODERN BENDUNGAN BATIK","TIPE_1":"PERDAGANGAN DAN RETAIL","TIPE_2":"PASAR","TIPE_3":"PASAR MODERN","TELEPON":"","ALAMAT":"JL. BEND. BATIK NO.8, RT.10/RW.4, TUGU SEL., KEC. KOJA, JKT UTARA, DAERAH KHUSUS IBUKOTA JAKARTA 14260","ID_PROV":"31","PROVINSI":"DKI JAKARTA","ID_KABKOT":"31.72","KABKOT":"KOTA ADM. JAKARTA UTARA","ID_KEC":"31.72.03","KECAMATAN":"KOJA","ID_DESA":"31.72.03.1005","DESA":"TUGU SELATAN","LATITUDE":-6.1362525,"LONGITUDE":106.9172062,"STATUS":"BUKA","TANGGAL PENGUMPULAN":"Q2 2025","TANGGAL UPDATE":"17/06/2025"}},{"type":"Feature","geometry":{"coordinates":[106.7413898,-6.1032437],"type":"Point"},"properties":{"NAMA":"PASAR MODERN PIK","TIPE_1":"PERDAGANGAN DAN RETAIL","TIPE_2":"PASAR","TIPE_3":"PASAR MODERN","TELEPON":"","ALAMAT":"PANTAI INDAH KAPUK ST NO.30, RT.6/RW.2, KAMAL MUARA, PENJARINGAN, NORTH JAKARTA CITY, JAKARTA 14470","ID_PROV":"31","PROVINSI":"DKI JAKARTA","ID_KABKOT":"31.72","KABKOT":"KOTA ADM. JAKARTA UTARA","ID_KEC":"31.72.01","KECAMATAN":"PENJARINGAN","ID_DESA":"31.72.01.1002","DESA":"KAMAL MUARA","LATITUDE":-6.1032437,"LONGITUDE":106.7413898,"STATUS":"BUKA","TANGGAL PENGUMPULAN":"Q2 2025","TANGGAL UPDATE":"17/06/2025"}},{"type":"Feature","geometry":{"coordinates":[106.8926783,-6.1529558],"type":"Point"},"properties":{"NAMA":"PASAR MOI","TIPE_1":"PERDAGANGAN DAN RETAIL","TIPE_2":"PASAR","TIPE_3":"PASAR TRADISIONAL","TELEPON":"0838-7778-6000","ALAMAT":"JL. BOULEVARD BAR. RAYA, RT.18/RW.8, WEST KELAPA GADING, KELAPA GADING, NORTH JAKARTA CITY, JAKARTA 14240","ID_PROV":"31","PROVINSI":"DKI JAKARTA","ID_KABKOT":"31.72","KABKOT":"KOTA ADM. JAKARTA UTARA","ID_KEC":"31.72.06","KECAMATAN":"KELAPA GADING","ID_DESA":"31.72.06.1003","DESA":"KELAPA GADING BARAT","LATITUDE":-6.1529558,"LONGITUDE":106.8926783,"STATUS":"BUKA","TANGGAL PENGUMPULAN":"Q2 2025","TANGGAL UPDATE":"17/06/2025"}},{"type":"Feature","geometry":{"coordinates":[106.7729312,-6.1093556],"type":"Point"},"properties":{"NAMA":"PASAR MUARA ANGKE","TIPE_1":"PERDAGANGAN DAN RETAIL","TIPE_2":"PASAR","TIPE_3":"PASAR TRADISIONAL","TELEPON":"(021) 8756345","ALAMAT":"JL. DERMAGA JL. MUARA ANGKE NO.11, RT.11/RW.11, PLUIT, KEC. PENJARINGAN, JKT UTARA, DAERAH KHUSUS IBUKOTA JAKARTA 14450","ID_PROV":"31","PROVINSI":"DKI JAKARTA","ID_KABKOT":"31.72","KABKOT":"KOTA ADM. JAKARTA UTARA","ID_KEC":"31.72.01","KECAMATAN":"PENJARINGAN","ID_DESA":"31.72.01.1005","DESA":"PLUIT","LATITUDE":-6.1093556,"LONGITUDE":106.7729312,"STATUS":"BUKA","TANGGAL PENGUMPULAN":"Q2 2025","TANGGAL UPDATE":"17/06/2025"}},{"type":"Feature","geometry":{"coordinates":[106.80147559999999,-6.1103617],"type":"Point"},"properties":{"NAMA":"PASAR MUARA BARU","TIPE_1":"PERDAGANGAN DAN RETAIL","TIPE_2":"PASAR","TIPE_3":"PASAR TRADISIONAL","TELEPON":"","ALAMAT":"JL. MUARA BARU NO.27 BLOK 3, RT.21/RW.7, PENJARINGAN, KEC. PENJARINGAN, JKT UTARA, DAERAH KHUSUS IBUKOTA JAKARTA 14440","ID_PROV":"31","PROVINSI":"DKI JAKARTA","ID_KABKOT":"31.72","KABKOT":"KOTA ADM. JAKARTA UTARA","ID_KEC":"31.72.01","KECAMATAN":"PENJARINGAN","ID_DESA":"31.72.01.1001","DESA":"PENJARINGAN","LATITUDE":-6.1103617,"LONGITUDE":106.8014756,"STATUS":"BUKA","TANGGAL PENGUMPULAN":"Q2 2025","TANGGAL UPDATE":"17/06/2025"}},{"type":"Feature","geometry":{"coordinates":[106.83593409999999,-6.1299915],"type":"Point"},"properties":{"NAMA":"PASAR NALO","TIPE_1":"PERDAGANGAN DAN RETAIL","TIPE_2":"PASAR","TIPE_3":"PASAR TRADISIONAL","TELEPON":"","ALAMAT":"RT.15/RW.12, PADEMANGAN BAR., KEC. PADEMANGAN, JKT UTARA, DAERAH KHUSUS IBUKOTA JAKARTA 14420","ID_PROV":"31","PROVINSI":"DKI JAKARTA","ID_KABKOT":"31.72","KABKOT":"KOTA ADM. JAKARTA UTARA","ID_KEC":"31.72.05","KECAMATAN":"PADEMANGAN","ID_DESA":"31.72.05.1002","DESA":"PADEMANGAN BARAT","LATITUDE":-6.1299915,"LONGITUDE":106.8359341,"STATUS":"BUKA","TANGGAL PENGUMPULAN":"Q2 2025","TANGGAL UPDATE":"17/06/2025"}},{"type":"Feature","geometry":{"coordinates":[106.84003279999999,-6.1353951],"type":"Point"},"properties":{"NAMA":"PASAR PADEMANGAN BARAT","TIPE_1":"PERDAGANGAN DAN RETAIL","TIPE_2":"PASAR","TIPE_3":"PASAR TRADISIONAL","TELEPON":"","ALAMAT":"JL. WASPADA RAYA NO.1, RT.9/RW.10, PADEMANGAN BAR., KEC. PADEMANGAN, JKT UTARA, DAERAH KHUSUS IBUKOTA JAKARTA 14420","ID_PROV":"31","PROVINSI":"DKI JAKARTA","ID_KABKOT":"31.72","KABKOT":"KOTA ADM. JAKARTA UTARA","ID_KEC":"31.72.05","KECAMATAN":"PADEMANGAN","ID_DESA":"31.72.05.1002","DESA":"PADEMANGAN BARAT","LATITUDE":-6.1353951,"LONGITUDE":106.8400328,"STATUS":"BUKA","TANGGAL PENGUMPULAN":"Q2 2025","TANGGAL UPDATE":"17/06/2025"}},{"type":"Feature","geometry":{"coordinates":[106.84301389999999,-6.1350455],"type":"Point"},"properties":{"NAMA":"PASAR PADEMANGAN TIMUR","TIPE_1":"PERDAGANGAN DAN RETAIL","TIPE_2":"PASAR","TIPE_3":"PASAR TRADISIONAL","TELEPON":"(021) 6453657","ALAMAT":"JL. PADEMANGAN 3 RAYA NO.004/02, RT.11/RW.2, EAST PADEMANGAN, PADEMANGAN, NORTH JAKARTA CITY, JAKARTA 14410","ID_PROV":"31","PROVINSI":"DKI JAKARTA","ID_KABKOT":"31.72","KABKOT":"KOTA ADM. JAKARTA UTARA","ID_KEC":"31.72.05","KECAMATAN":"PADEMANGAN","ID_DESA":"31.72.05.1001","DESA":"PADEMANGAN TIMUR","LATITUDE":-6.1350455,"LONGITUDE":106.8430139,"STATUS":"BUKA","TANGGAL PENGUMPULAN":"Q2 2025","TANGGAL UPDATE":"17/06/2025"}},{"type":"Feature","geometry":{"coordinates":[106.9240676,-6.1467873],"type":"Point"},"properties":{"NAMA":"PASAR PANCONG","TIPE_1":"PERDAGANGAN DAN RETAIL","TIPE_2":"PASAR","TIPE_3":"PASAR TRADISIONAL","TELEPON":"","ALAMAT":"GG. H. PACONG NO.1, RT.8/RW.2, SUKAPURA, KEC. CILINCING, JKT UTARA, DAERAH KHUSUS IBUKOTA JAKARTA 14140","ID_PROV":"31","PROVINSI":"DKI JAKARTA","ID_KABKOT":"31.72","KABKOT":"KOTA ADM. JAKARTA UTARA","ID_KEC":"31.72.04","KECAMATAN":"CILINCING","ID_DESA":"31.72.04.1002","DESA":"SUKAPURA","LATITUDE":-6.1467873,"LONGITUDE":106.9240676,"STATUS":"BUKA","TANGGAL PENGUMPULAN":"Q2 2025","TANGGAL UPDATE":"17/06/2025"}},{"type":"Feature","geometry":{"coordinates":[106.7537,-6.1283],"type":"Point"},"properties":{"NAMA":"PASAR PANTAI INDAH KAPUK","TIPE_1":"PERDAGANGAN DAN RETAIL","TIPE_2":"PASAR","TIPE_3":"PASAR TRADISIONAL","TELEPON":"","ALAMAT":"PS. PANTAI INDAH KAPUK, JL. PANTAI INDAH UTARA SEKTOR TIMUR, RT.4/RW.6, KAPUK MUARA, KEC. PENJARINGAN, JKT UTARA, DAERAH KHUSUS IBUKOTA JAKARTA 14460","ID_PROV":"31","PROVINSI":"DKI JAKARTA","ID_KABKOT":"31.72","KABKOT":"KOTA ADM. JAKARTA UTARA","ID_KEC":"31.72.01","KECAMATAN":"PENJARINGAN","ID_DESA":"31.72.01.1003","DESA":"KAPUK MUARA","LATITUDE":-6.1283,"LONGITUDE":106.7537,"STATUS":"BUKA","TANGGAL PENGUMPULAN":"Q2 2025","TANGGAL UPDATE":"17/06/2025"}},{"type":"Feature","geometry":{"coordinates":[106.8814446,-6.1651279],"type":"Point"},"properties":{"NAMA":"PASAR PEDONGKELAN","TIPE_1":"PERDAGANGAN DAN RETAIL","TIPE_2":"PASAR","TIPE_3":"PASAR TRADISIONAL","TELEPON":"","ALAMAT":"JL. TRAMPIL IV NO.30 4, RT.4/RW.2, KLP. GADING BAR., KEC. KLP. GADING, JKT UTARA, DAERAH KHUSUS IBUKOTA JAKARTA 14240","ID_PROV":"31","PROVINSI":"DKI JAKARTA","ID_KABKOT":"31.72","KABKOT":"KOTA ADM. JAKARTA UTARA","ID_KEC":"31.72.06","KECAMATAN":"KELAPA GADING","ID_DESA":"31.72.06.1003","DESA":"KELAPA GADING BARAT","LATITUDE":-6.1651279,"LONGITUDE":106.8814446,"STATUS":"BUKA","TANGGAL PENGUMPULAN":"Q2 2025","TANGGAL UPDATE":"17/06/2025"}},{"type":"Feature","geometry":{"coordinates":[106.8836795,-6.1272501],"type":"Point"},"properties":{"NAMA":"PASAR PELITA","TIPE_1":"PERDAGANGAN DAN RETAIL","TIPE_2":"PASAR","TIPE_3":"PASAR TRADISIONAL","TELEPON":"","ALAMAT":"JL. SUNGAI BAMBU NO.RT.13, RT.2/RW.7, PAPANGGO, KEC. TJ. PRIOK, JKT UTARA, DAERAH KHUSUS IBUKOTA JAKARTA 14370","ID_PROV":"31","PROVINSI":"DKI JAKARTA","ID_KABKOT":"31.72","KABKOT":"KOTA ADM. JAKARTA UTARA","ID_KEC":"31.72.02","KECAMATAN":"TANJUNG PRIOK","ID_DESA":"31.72.02.1003","DESA":"PAPANGGO","LATITUDE":-6.1272501,"LONGITUDE":106.8836795,"STATUS":"BUKA","TANGGAL PENGUMPULAN":"Q2 2025","TANGGAL UPDATE":"17/06/2025"}},{"type":"Feature","geometry":{"coordinates":[106.8914077,-6.1287933],"type":"Point"},"properties":{"NAMA":"PASAR PELITA","TIPE_1":"PERDAGANGAN DAN RETAIL","TIPE_2":"PASAR","TIPE_3":"PASAR TRADISIONAL","TELEPON":"","ALAMAT":"SUNGAI BAMBU, KEC. TJ. PRIOK, JKT UTARA, DAERAH KHUSUS IBUKOTA JAKARTA","ID_PROV":"31","PROVINSI":"DKI JAKARTA","ID_KABKOT":"31.72","KABKOT":"KOTA ADM. JAKARTA UTARA","ID_KEC":"31.72.02","KECAMATAN":"TANJUNG PRIOK","ID_DESA":"31.72.02.1004","DESA":"SUNGAI BAMBU","LATITUDE":-6.1287933,"LONGITUDE":106.8914077,"STATUS":"BUKA","TANGGAL PENGUMPULAN":"Q2 2025","TANGGAL UPDATE":"17/06/2025"}},{"type":"Feature","geometry":{"coordinates":[106.7888134,-6.1214796],"type":"Point"},"properties":{"NAMA":"PASAR PLUIT","TIPE_1":"PERDAGANGAN DAN RETAIL","TIPE_2":"PASAR","TIPE_3":"PASAR TRADISIONAL","TELEPON":"","ALAMAT":"JL. TAMAN PLUIT KENCANA DALAM NO.13, RT.4/RW.6, PLUIT, KEC. PENJARINGAN, JKT UTARA, DAERAH KHUSUS IBUKOTA JAKARTA 14450","ID_PROV":"31","PROVINSI":"DKI JAKARTA","ID_KABKOT":"31.72","KABKOT":"KOTA ADM. JAKARTA UTARA","ID_KEC":"31.72.01","KECAMATAN":"PENJARINGAN","ID_DESA":"31.72.01.1005","DESA":"PLUIT","LATITUDE":-6.1214796,"LONGITUDE":106.7888134,"STATUS":"BUKA","TANGGAL PENGUMPULAN":"Q2 2025","TANGGAL UPDATE":"17/06/2025"}},{"type":"Feature","geometry":{"coordinates":[106.9258584,-6.1526589],"type":"Point"},"properties":{"NAMA":"PASAR PROYEK SUKAPURA","TIPE_1":"PERDAGANGAN DAN RETAIL","TIPE_2":"PASAR","TIPE_3":"PASAR TRADISIONAL","TELEPON":"","ALAMAT":"PS. PROYEK SUKAPURA, JL. MANUNGGAL JUANG II NO.2, RT.2/RW.4, SUKAPURA, KEC. CILINCING, JKT UTARA, DAERAH KHUSUS IBUKOTA JAKARTA 14140","ID_PROV":"31","PROVINSI":"DKI JAKARTA","ID_KABKOT":"31.72","KABKOT":"KOTA ADM. JAKARTA UTARA","ID_KEC":"31.72.04","KECAMATAN":"CILINCING","ID_DESA":"31.72.04.1002","DESA":"SUKAPURA","LATITUDE":-6.1526589,"LONGITUDE":106.9258584,"STATUS":"BUKA","TANGGAL PENGUMPULAN":"Q2 2025","TANGGAL UPDATE":"17/06/2025"}},{"type":"Feature","geometry":{"coordinates":[106.89266339999999,-6.1554057],"type":"Point"},"properties":{"NAMA":"PASAR PRUNGPUNG","TIPE_1":"PERDAGANGAN DAN RETAIL","TIPE_2":"PASAR","TIPE_3":"PASAR TRADISIONAL","TELEPON":"","ALAMAT":"KLP. GADING BAR., KEC. KLP. GADING, JKT UTARA, DAERAH KHUSUS IBUKOTA JAKARTA","ID_PROV":"31","PROVINSI":"DKI JAKARTA","ID_KABKOT":"31.72","KABKOT":"KOTA ADM. JAKARTA UTARA","ID_KEC":"31.72.06","KECAMATAN":"KELAPA GADING","ID_DESA":"31.72.06.1003","DESA":"KELAPA GADING BARAT","LATITUDE":-6.1554057,"LONGITUDE":106.8926634,"STATUS":"BUKA","TANGGAL PENGUMPULAN":"Q2 2025","TANGGAL UPDATE":"17/06/2025"}},{"type":"Feature","geometry":{"coordinates":[106.8958777,-6.1143337],"type":"Point"},"properties":{"NAMA":"PASAR RAWA BADAK","TIPE_1":"PERDAGANGAN DAN RETAIL","TIPE_2":"PASAR","TIPE_3":"PASAR TRADISIONAL","TELEPON":"0838-0655-5669","ALAMAT":"JL. SINDANG NO.3A 5, RT.5/RW.12, KOJA, KEC. KOJA, JKT UTARA, DAERAH KHUSUS IBUKOTA JAKARTA 14230","ID_PROV":"31","PROVINSI":"DKI JAKARTA","ID_KABKOT":"31.72","KABKOT":"KOTA ADM. JAKARTA UTARA","ID_KEC":"31.72.03","KECAMATAN":"KOJA","ID_DESA":"31.72.03.1004","DESA":"RAWA BADAK UTARA","LATITUDE":-6.1143337,"LONGITUDE":106.8958777,"STATUS":"BUKA","TANGGAL PENGUMPULAN":"Q2 2025","TANGGAL UPDATE":"17/06/2025"}},{"type":"Feature","geometry":{"coordinates":[106.8956037,-6.1152067],"type":"Point"},"properties":{"NAMA":"PASAR RAWABADAK","TIPE_1":"PERDAGANGAN DAN RETAIL","TIPE_2":"PASAR","TIPE_3":"PASAR TRADISIONAL","TELEPON":"(021) 43935251","ALAMAT":"JALAN ANGGREK RT.5/RW.12, RAWABADAK UTARA, KOJA, RT.5/RW.12, RAWABADAK UTARA, KEC. KOJA, JKT UTARA, DAERAH KHUSUS IBUKOTA JAKARTA 14230","ID_PROV":"31","PROVINSI":"DKI JAKARTA","ID_KABKOT":"31.72","KABKOT":"KOTA ADM. JAKARTA UTARA","ID_KEC":"31.72.03","KECAMATAN":"KOJA","ID_DESA":"31.72.03.1004","DESA":"RAWA BADAK UTARA","LATITUDE":-6.1152067,"LONGITUDE":106.8956037,"STATUS":"BUKA","TANGGAL PENGUMPULAN":"Q2 2025","TANGGAL UPDATE":"17/06/2025"}},{"type":"Feature","geometry":{"coordinates":[106.7804746,-6.143658],"type":"Point"},"properties":{"NAMA":"PASAR SAYURAN","TIPE_1":"PERDAGANGAN DAN RETAIL","TIPE_2":"PASAR","TIPE_3":"PASAR TRADISIONAL","TELEPON":"","ALAMAT":"RT.1/RW.7, PEJAGALAN, KEC. PENJARINGAN, JKT UTARA, DAERAH KHUSUS IBUKOTA JAKARTA 14450","ID_PROV":"31","PROVINSI":"DKI JAKARTA","ID_KABKOT":"31.72","KABKOT":"KOTA ADM. JAKARTA UTARA","ID_KEC":"31.72.01","KECAMATAN":"PENJARINGAN","ID_DESA":"31.72.01.1004","DESA":"PEJAGALAN","LATITUDE":-6.143658,"LONGITUDE":106.7804746,"STATUS":"BUKA","TANGGAL PENGUMPULAN":"Q2 2025","TANGGAL UPDATE":"17/06/2025"}},{"type":"Feature","geometry":{"coordinates":[106.8966744,-6.1118982],"type":"Point"},"properties":{"NAMA":"PASAR SINDANG","TIPE_1":"PERDAGANGAN DAN RETAIL","TIPE_2":"PASAR","TIPE_3":"PASAR TRADISIONAL","TELEPON":"","ALAMAT":"PS. SANDANG, JL. SINDANG NO.30, RT.6/RW.9, KOJA, KEC. KOJA, JKT UTARA, DAERAH KHUSUS IBUKOTA JAKARTA 14220","ID_PROV":"31","PROVINSI":"DKI JAKARTA","ID_KABKOT":"31.72","KABKOT":"KOTA ADM. JAKARTA UTARA","ID_KEC":"31.72.03","KECAMATAN":"KOJA","ID_DESA":"31.72.03.1001","DESA":"KOJA","LATITUDE":-6.1118982,"LONGITUDE":106.8966744,"STATUS":"BUKA","TANGGAL PENGUMPULAN":"Q2 2025","TANGGAL UPDATE":"17/06/2025"}},{"type":"Feature","geometry":{"coordinates":[106.9223133,-6.140859],"type":"Point"},"properties":{"NAMA":"PASAR SUKAPURA","TIPE_1":"PERDAGANGAN DAN RETAIL","TIPE_2":"PASAR","TIPE_3":"PASAR TRADISIONAL","TELEPON":"","ALAMAT":"JALAN TIPAR CAKUNG, RT.4/RW.5, SUKAPURA, KEC. CILINCING, JKT UTARA, DAERAH KHUSUS IBUKOTA JAKARTA 14140","ID_PROV":"31","PROVINSI":"DKI JAKARTA","ID_KABKOT":"31.72","KABKOT":"KOTA ADM. JAKARTA UTARA","ID_KEC":"31.72.04","KECAMATAN":"CILINCING","ID_DESA":"31.72.04.1002","DESA":"SUKAPURA","LATITUDE":-6.140859,"LONGITUDE":106.9223133,"STATUS":"BUKA","TANGGAL PENGUMPULAN":"Q2 2025","TANGGAL UPDATE":"17/06/2025"}},{"type":"Feature","geometry":{"coordinates":[106.8730903,-6.1580724],"type":"Point"},"properties":{"NAMA":"PASAR SUNTER KIRANA","TIPE_1":"PERDAGANGAN DAN RETAIL","TIPE_2":"PASAR","TIPE_3":"PASAR TRADISIONAL","TELEPON":"","ALAMAT":"PASAR SUNTER KIRANA, RT.7/RW.9, SUNTER JAYA, KEC. TJ. PRIOK, JKT UTARA, DAERAH KHUSUS IBUKOTA JAKARTA 14350","ID_PROV":"31","PROVINSI":"DKI JAKARTA","ID_KABKOT":"31.72","KABKOT":"KOTA ADM. JAKARTA UTARA","ID_KEC":"31.72.02","KECAMATAN":"TANJUNG PRIOK","ID_DESA":"31.72.02.1002","DESA":"SUNTER JAYA","LATITUDE":-6.1580724,"LONGITUDE":106.8730903,"STATUS":"BUKA","TANGGAL PENGUMPULAN":"Q2 2025","TANGGAL UPDATE":"17/06/2025"}},{"type":"Feature","geometry":{"coordinates":[106.8703051,-6.1389796],"type":"Point"},"properties":{"NAMA":"PASAR SUNTER PODOMORO","TIPE_1":"PERDAGANGAN DAN RETAIL","TIPE_2":"PASAR","TIPE_3":"PASAR TRADISIONAL","TELEPON":"","ALAMAT":"JL. SUNTER KARYA UTARA II NO.14 1, RT.14/RW.13, SUNTER AGUNG, KEC. TJ. PRIOK, JKT UTARA, DAERAH KHUSUS IBUKOTA JAKARTA 14350","ID_PROV":"31","PROVINSI":"DKI JAKARTA","ID_KABKOT":"31.72","KABKOT":"KOTA ADM. JAKARTA UTARA","ID_KEC":"31.72.02","KECAMATAN":"TANJUNG PRIOK","ID_DESA":"31.72.02.1006","DESA":"SUNTER AGUNG","LATITUDE":-6.1389796,"LONGITUDE":106.8703051,"STATUS":"BUKA","TANGGAL PENGUMPULAN":"Q2 2025","TANGGAL UPDATE":"17/06/2025"}},{"type":"Feature","geometry":{"coordinates":[106.7786046,-6.1387015],"type":"Point"},"properties":{"NAMA":"PASAR TELUK GONG","TIPE_1":"PERDAGANGAN DAN RETAIL","TIPE_2":"PASAR","TIPE_3":"PASAR TRADISIONAL","TELEPON":"","ALAMAT":"JL. TELUK GONG RAYA, RT.8/RW.8, PEJAGALAN, KEC. PENJARINGAN, JKT UTARA, DAERAH KHUSUS IBUKOTA JAKARTA 14450","ID_PROV":"31","PROVINSI":"DKI JAKARTA","ID_KABKOT":"31.72","KABKOT":"KOTA ADM. JAKARTA UTARA","ID_KEC":"31.72.01","KECAMATAN":"PENJARINGAN","ID_DESA":"31.72.01.1004","DESA":"PEJAGALAN","LATITUDE":-6.1387015,"LONGITUDE":106.7786046,"STATUS":"BUKA","TANGGAL PENGUMPULAN":"Q2 2025","TANGGAL UPDATE":"17/06/2025"}},{"type":"Feature","geometry":{"coordinates":[106.781442,-6.1380507],"type":"Point"},"properties":{"NAMA":"PASAR TELUK GONG 2","TIPE_1":"PERDAGANGAN DAN RETAIL","TIPE_2":"PASAR","TIPE_3":"PASAR TRADISIONAL","TELEPON":"0811-9929-049","ALAMAT":"JALAN TELUK GONG RAYA.3 (SEBELAH PUSKESMAS PENJARINGAN, RT.8/RW.10, PEJAGALAN, KEC. PENJARINGAN, JKT UTARA, DAERAH KHUSUS IBUKOTA JAKARTA 14440","ID_PROV":"31","PROVINSI":"DKI JAKARTA","ID_KABKOT":"31.72","KABKOT":"KOTA ADM. JAKARTA UTARA","ID_KEC":"31.72.01","KECAMATAN":"PENJARINGAN","ID_DESA":"31.72.01.1004","DESA":"PEJAGALAN","LATITUDE":-6.1380507,"LONGITUDE":106.781442,"STATUS":"BUKA","TANGGAL PENGUMPULAN":"Q2 2025","TANGGAL UPDATE":"17/06/2025"}},{"type":"Feature","geometry":{"coordinates":[106.9177253,-6.1024701],"type":"Point"},"properties":{"NAMA":"PASAR TRADISIONAL IKAN ASIN","TIPE_1":"PERDAGANGAN DAN RETAIL","TIPE_2":"PASAR","TIPE_3":"PASAR TRADISIONAL","TELEPON":"0813-9860-3236","ALAMAT":"JL. KALI BARU BARAT 14 NO.8 2, RT.2/RW.9, KALI BARU, KEC. CILINCING, JKT UTARA, DAERAH KHUSUS IBUKOTA JAKARTA 14110","ID_PROV":"31","PROVINSI":"DKI JAKARTA","ID_KABKOT":"31.72","KABKOT":"KOTA ADM. JAKARTA UTARA","ID_KEC":"31.72.04","KECAMATAN":"CILINCING","ID_DESA":"31.72.04.1004","DESA":"KALIBARU","LATITUDE":-6.1024701,"LONGITUDE":106.9177253,"STATUS":"BUKA","TANGGAL PENGUMPULAN":"Q2 2025","TANGGAL UPDATE":"17/06/2025"}},{"type":"Feature","geometry":{"coordinates":[106.9111691,-6.1435476],"type":"Point"},"properties":{"NAMA":"PASAR TRADISIONAL KELAPA GADING","TIPE_1":"PERDAGANGAN DAN RETAIL","TIPE_2":"PASAR","TIPE_3":"PASAR TRADISIONAL","TELEPON":"0813-1932-2779","ALAMAT":"JL. TANAH MERAH, RT.10/RW.15, PEGANGSAAN DUA, KEC. KLP. GADING, JKT UTARA, DAERAH KHUSUS IBUKOTA JAKARTA 14250","ID_PROV":"31","PROVINSI":"DKI JAKARTA","ID_KABKOT":"31.72","KABKOT":"KOTA ADM. JAKARTA UTARA","ID_KEC":"31.72.06","KECAMATAN":"KELAPA GADING","ID_DESA":"31.72.06.1002","DESA":"PEGANGSAAN DUA","LATITUDE":-6.1435476,"LONGITUDE":106.9111691,"STATUS":"BUKA","TANGGAL PENGUMPULAN":"Q2 2025","TANGGAL UPDATE":"17/06/2025"}},{"type":"Feature","geometry":{"coordinates":[106.8038822,-6.1235212],"type":"Point"},"properties":{"NAMA":"PASAR TRADISIONAL MUARA BARU","TIPE_1":"PERDAGANGAN DAN RETAIL","TIPE_2":"PASAR","TIPE_3":"PASAR TRADISIONAL","TELEPON":"","ALAMAT":"JL. LUAR BATANG II NO.1, RT.2/RW.4, PENJARINGAN, NORTH JAKARTA CITY, JAKARTA 14440","ID_PROV":"31","PROVINSI":"DKI JAKARTA","ID_KABKOT":"31.72","KABKOT":"KOTA ADM. JAKARTA UTARA","ID_KEC":"31.72.01","KECAMATAN":"PENJARINGAN","ID_DESA":"31.72.01.1001","DESA":"PENJARINGAN","LATITUDE":-6.1235212,"LONGITUDE":106.8038822,"STATUS":"BUKA","TANGGAL PENGUMPULAN":"Q2 2025","TANGGAL UPDATE":"17/06/2025"}},{"type":"Feature","geometry":{"coordinates":[106.8989991,-6.1264385],"type":"Point"},"properties":{"NAMA":"PASAR WALANG BARU","TIPE_1":"PERDAGANGAN DAN RETAIL","TIPE_2":"PASAR","TIPE_3":"PASAR TRADISIONAL","TELEPON":"","ALAMAT":"JL. WALANG BARU RAYA, RT.1/RW.6, RAWABADAK SEL., KEC. KOJA, JKT UTARA, DAERAH KHUSUS IBUKOTA JAKARTA 14230","ID_PROV":"31","PROVINSI":"DKI JAKARTA","ID_KABKOT":"31.72","KABKOT":"KOTA ADM. JAKARTA UTARA","ID_KEC":"31.72.03","KECAMATAN":"KOJA","ID_DESA":"31.72.03.1006","DESA":"RAWA BADAK SELATAN","LATITUDE":-6.1264385,"LONGITUDE":106.8989991,"STATUS":"BUKA","TANGGAL PENGUMPULAN":"Q2 2025","TANGGAL UPDATE":"17/06/2025"}},{"type":"Feature","geometry":{"coordinates":[106.8790411,-6.1154648],"type":"Point"},"properties":{"NAMA":"PASAR WARAKAS 1","TIPE_1":"PERDAGANGAN DAN RETAIL","TIPE_2":"PASAR","TIPE_3":"PASAR TRADISIONAL","TELEPON":"","ALAMAT":"GG. 5 NO.2, RT.2/RW.1, WARAKAS, TANJUNG PRIOK, NORTH JAKARTA CITY, JAKARTA 14370","ID_PROV":"31","PROVINSI":"DKI JAKARTA","ID_KABKOT":"31.72","KABKOT":"KOTA ADM. JAKARTA UTARA","ID_KEC":"31.72.02","KECAMATAN":"TANJUNG PRIOK","ID_DESA":"31.72.02.1007","DESA":"WARAKAS","LATITUDE":-6.1154648,"LONGITUDE":106.8790411,"STATUS":"BUKA","TANGGAL PENGUMPULAN":"Q2 2025","TANGGAL UPDATE":"17/06/2025"}},{"type":"Feature","geometry":{"coordinates":[106.9142132,-6.1094938],"type":"Point"},"properties":{"NAMA":"PASAR WARU JAYA","TIPE_1":"PERDAGANGAN DAN RETAIL","TIPE_2":"PASAR","TIPE_3":"PASAR TRADISIONAL","TELEPON":"","ALAMAT":"JL. RAYA CILINCING NO.16 3, RT.3/RW.1, LAGOA, KEC. KOJA, JKT UTARA, DAERAH KHUSUS IBUKOTA JAKARTA 14270","ID_PROV":"31","PROVINSI":"DKI JAKARTA","ID_KABKOT":"31.72","KABKOT":"KOTA ADM. JAKARTA UTARA","ID_KEC":"31.72.03","KECAMATAN":"KOJA","ID_DESA":"31.72.03.1003","DESA":"LAGOA","LATITUDE":-6.1094938,"LONGITUDE":106.9142132,"STATUS":"BUKA","TANGGAL PENGUMPULAN":"Q2 2025","TANGGAL UPDATE":"17/06/2025"}}]}