{"type":"FeatureCollection","features":[{"type":"Feature","geometry":{"coordinates":[106.7792084,-6.1077144],"type":"Point"},"properties":{"NAMA":"BAYWALK MALL","TIPE_1":"HIBURAN DAN KESENIAN","TIPE_2":"PUSAT PERBELANJAAN","TIPE_3":"-","TELEPON":"(021) 29628000","ALAMAT":"JL. PLUIT KARANG AYU BARAT BLOK B.1 UTARA, RT.20/RW.2, PLUIT, KEC. PENJARINGAN, JKT UTARA, DAERAH KHUSUS IBUKOTA JAKARTA 14450","ID_PROV":"31","PROVINSI":"DKI JAKARTA","ID_KABKOT":"31.72","KABKOT":"KOTA ADM. JAKARTA UTARA","ID_KEC":"31.72.01","KECAMATAN":"PENJARINGAN","ID_DESA":"31.72.01.1005","DESA":"PLUIT","LONGITUDE":"106.7792084","LATITUDE":"-6.1077144","STATUS":"BUKA","TANGGAL PE":"Q2 2025","TANGGAL UP":"27/05/2025"}},{"type":"Feature","geometry":{"coordinates":[106.7909758,-6.1272711],"type":"Point"},"properties":{"NAMA":"EMPORIUM PLUIT MALL","TIPE_1":"HIBURAN DAN KESENIAN","TIPE_2":"PUSAT PERBELANJAAN","TIPE_3":"-","TELEPON":"(021) 66676288","ALAMAT":"JL. PLUIT SELATAN RAYA NO.1, PENJARINGAN, KEC. PENJARINGAN, JKT UTARA, DAERAH KHUSUS IBUKOTA JAKARTA 14440","ID_PROV":"31","PROVINSI":"DKI JAKARTA","ID_KABKOT":"31.72","KABKOT":"KOTA ADM. JAKARTA UTARA","ID_KEC":"31.72.01","KECAMATAN":"PENJARINGAN","ID_DESA":"31.72.01.1001","DESA":"PENJARINGAN","LONGITUDE":"106.7909758","LATITUDE":"-6.1272711","STATUS":"BUKA","TANGGAL PE":"Q2 2025","TANGGAL UP":"27/05/2025"}},{"type":"Feature","geometry":{"coordinates":[106.9161213,-6.1225948],"type":"Point"},"properties":{"NAMA":"KOJA TRADE MALL","TIPE_1":"HIBURAN DAN KESENIAN","TIPE_2":"PUSAT PERBELANJAAN","TIPE_3":"-","TELEPON":"(021) 43800888","ALAMAT":"JL. KRAMAT JAYA RAYA NO.30, TUGU UTARA, KEC. KOJA, JKT UTARA, DAERAH KHUSUS IBUKOTA JAKARTA 14260","ID_PROV":"31","PROVINSI":"DKI JAKARTA","ID_KABKOT":"31.72","KABKOT":"KOTA ADM. JAKARTA UTARA","ID_KEC":"31.72.03","KECAMATAN":"KOJA","ID_DESA":"31.72.03.1002","DESA":"TUGU UTARA","LONGITUDE":"106.9161213","LATITUDE":"-6.1225948","STATUS":"BUKA","TANGGAL PE":"Q2 2025","TANGGAL UP":"27/05/2025"}},{"type":"Feature","geometry":{"coordinates":[106.8919187,-6.1457739],"type":"Point"},"properties":{"NAMA":"MALL ARTHA GADING JAKARTA","TIPE_1":"HIBURAN DAN KESENIAN","TIPE_2":"PUSAT PERBELANJAAN","TIPE_3":"-","TELEPON":"(021) 45864000","ALAMAT":"JL. ARTHA GADING SEL. NO.1, KLP. GADING BAR., KEC. KLP. GADING, JKT UTARA, DAERAH KHUSUS IBUKOTA JAKARTA 14240","ID_PROV":"31","PROVINSI":"DKI JAKARTA","ID_KABKOT":"31.72","KABKOT":"KOTA ADM. JAKARTA UTARA","ID_KEC":"31.72.06","KECAMATAN":"KELAPA GADING","ID_DESA":"31.72.06.1003","DESA":"KELAPA GADING BARAT","LONGITUDE":"106.89191869999999","LATITUDE":"-6.1457739","STATUS":"BUKA","TANGGAL PE":"Q2 2025","TANGGAL UP":"27/05/2025"}},{"type":"Feature","geometry":{"coordinates":[106.9095658,-6.1552675],"type":"Point"},"properties":{"NAMA":"MALL KELAPA GADING","TIPE_1":"HIBURAN DAN KESENIAN","TIPE_2":"PUSAT PERBELANJAAN","TIPE_3":"-","TELEPON":"","ALAMAT":"JL. MANDIRI UTARA NO.13, RT.13/RW.18, KLP. GADING TIM., KEC. KLP. GADING, JKT UTARA, DAERAH KHUSUS IBUKOTA JAKARTA 14240","ID_PROV":"31","PROVINSI":"DKI JAKARTA","ID_KABKOT":"31.72","KABKOT":"KOTA ADM. JAKARTA UTARA","ID_KEC":"31.72.06","KECAMATAN":"KELAPA GADING","ID_DESA":"31.72.06.1001","DESA":"KELAPA GADING TIMUR","LONGITUDE":"106.9095658","LATITUDE":"-6.1552675","STATUS":"BUKA","TANGGAL PE":"Q2 2025","TANGGAL UP":"27/05/2025"}},{"type":"Feature","geometry":{"coordinates":[106.9088864,-6.1562465],"type":"Point"},"properties":{"NAMA":"MALL KELAPA GADING 3","TIPE_1":"HIBURAN DAN KESENIAN","TIPE_2":"PUSAT PERBELANJAAN","TIPE_3":"-","TELEPON":"","ALAMAT":"JL. BOULEVARD RAYA NO.13, RT.13/RW.18, EAST KELAPA GADING, KELAPA GADING, NORTH JAKARTA CITY, JAKARTA 14240","ID_PROV":"31","PROVINSI":"DKI JAKARTA","ID_KABKOT":"31.72","KABKOT":"KOTA ADM. JAKARTA UTARA","ID_KEC":"31.72.06","KECAMATAN":"KELAPA GADING","ID_DESA":"31.72.06.1001","DESA":"KELAPA GADING TIMUR","LONGITUDE":"106.9088864","LATITUDE":"-6.1562465","STATUS":"BUKA","TANGGAL PE":"Q2 2025","TANGGAL UP":"27/05/2025"}},{"type":"Feature","geometry":{"coordinates":[106.910945,-6.1567385],"type":"Point"},"properties":{"NAMA":"MALL KELAPA GADING 5","TIPE_1":"HIBURAN DAN KESENIAN","TIPE_2":"PUSAT PERBELANJAAN","TIPE_3":"-","TELEPON":"(021) 4531101","ALAMAT":"JL. BOULEVARD RAYA, RT.13/RW.18, KLP. GADING TIM., KEC. KLP. GADING, JKT UTARA, DAERAH KHUSUS IBUKOTA JAKARTA 14240","ID_PROV":"31","PROVINSI":"DKI JAKARTA","ID_KABKOT":"31.72","KABKOT":"KOTA ADM. JAKARTA UTARA","ID_KEC":"31.72.06","KECAMATAN":"KELAPA GADING","ID_DESA":"31.72.06.1001","DESA":"KELAPA GADING TIMUR","LONGITUDE":"106.910945","LATITUDE":"-6.156738499999999","STATUS":"BUKA","TANGGAL PE":"Q2 2025","TANGGAL UP":"27/05/2025"}},{"type":"Feature","geometry":{"coordinates":[106.846533,-6.1500902],"type":"Point"},"properties":{"NAMA":"MALL MENARA JAKARTA KEMAYORAN","TIPE_1":"HIBURAN DAN KESENIAN","TIPE_2":"PUSAT PERBELANJAAN","TIPE_3":"-","TELEPON":"","ALAMAT":"ARENA PEKAN RAYA JKT - KEMAYORAN, JL. H. BENYAMIN SUEB NO.10, RW.10, SOUTH GUNUNG SAHARI, KEMAYORAN, NORTH JAKARTA CITY, JAKARTA 14410","ID_PROV":"31","PROVINSI":"DKI JAKARTA","ID_KABKOT":"31.72","KABKOT":"KOTA ADM. JAKARTA UTARA","ID_KEC":"31.72.05","KECAMATAN":"PADEMANGAN","ID_DESA":"31.72.05.1001","DESA":"PADEMANGAN TIMUR","LONGITUDE":"106.846533","LATITUDE":"-6.150090199999999","STATUS":"BUKA","TANGGAL PE":"Q2 2025","TANGGAL UP":"27/05/2025"}},{"type":"Feature","geometry":{"coordinates":[106.8918949,-6.1514549],"type":"Point"},"properties":{"NAMA":"MALL OF INDONESIA","TIPE_1":"HIBURAN DAN KESENIAN","TIPE_2":"PUSAT PERBELANJAAN","TIPE_3":"-","TELEPON":"(021) 45867888","ALAMAT":"JL. BOULEVARD BAR. RAYA NO.12, RT.18/RW.19, KLP. GADING BAR., KEC. KLP. GADING, JKT UTARA, DAERAH KHUSUS IBUKOTA JAKARTA 14240","ID_PROV":"31","PROVINSI":"DKI JAKARTA","ID_KABKOT":"31.72","KABKOT":"KOTA ADM. JAKARTA UTARA","ID_KEC":"31.72.06","KECAMATAN":"KELAPA GADING","ID_DESA":"31.72.06.1003","DESA":"KELAPA GADING BARAT","LONGITUDE":"106.8918949","LATITUDE":"-6.1514549","STATUS":"BUKA","TANGGAL PE":"Q2 2025","TANGGAL UP":"27/05/2025"}},{"type":"Feature","geometry":{"coordinates":[106.8731676,-6.1369481],"type":"Point"},"properties":{"NAMA":"METRO SUNTER PLAZA","TIPE_1":"HIBURAN DAN KESENIAN","TIPE_2":"PUSAT PERBELANJAAN","TIPE_3":"-","TELEPON":"(021) 6506495","ALAMAT":"10, JL. DANAU SUNTER UTARA METRO SUNTER PLAZA NO.10, RT.10/RW.4, PAPANGGO, KEC. TJ. PRIOK, JKT UTARA, DAERAH KHUSUS IBUKOTA JAKARTA 14350","ID_PROV":"31","PROVINSI":"DKI JAKARTA","ID_KABKOT":"31.72","KABKOT":"KOTA ADM. JAKARTA UTARA","ID_KEC":"31.72.02","KECAMATAN":"TANJUNG PRIOK","ID_DESA":"31.72.02.1003","DESA":"PAPANGGO","LONGITUDE":"106.8731676","LATITUDE":"-6.1369481","STATUS":"BUKA","TANGGAL PE":"Q2 2025","TANGGAL UP":"27/05/2025"}},{"type":"Feature","geometry":{"coordinates":[106.7524654,-6.1128295],"type":"Point"},"properties":{"NAMA":"OZONE EATERY MALL","TIPE_1":"HIBURAN DAN KESENIAN","TIPE_2":"PUSAT PERBELANJAAN","TIPE_3":"-","TELEPON":"(021) 29673664","ALAMAT":"PANTAI INDAH KAPUK JL. PANTAI INDAH UTARA 3, RT.7/RW.2, KAPUK MUARA, PENJARINGAN, NORTH JAKARTA CITY, JAKARTA 14460","ID_PROV":"31","PROVINSI":"DKI JAKARTA","ID_KABKOT":"31.72","KABKOT":"KOTA ADM. JAKARTA UTARA","ID_KEC":"31.72.01","KECAMATAN":"PENJARINGAN","ID_DESA":"31.72.01.1003","DESA":"KAPUK MUARA","LONGITUDE":"106.75246539999999","LATITUDE":"-6.1128295","STATUS":"BUKA","TANGGAL PE":"Q2 2025","TANGGAL UP":"27/05/2025"}},{"type":"Feature","geometry":{"coordinates":[106.7904532,-6.1263873],"type":"Point"},"properties":{"NAMA":"PLUIT JUNCTION MALL","TIPE_1":"HIBURAN DAN KESENIAN","TIPE_2":"PUSAT PERBELANJAAN","TIPE_3":"-","TELEPON":"(021) 66607388","ALAMAT":"RT.21/RW.8, PENJARINGAN, KEC. PENJARINGAN, JKT UTARA, DAERAH KHUSUS IBUKOTA JAKARTA 14440","ID_PROV":"31","PROVINSI":"DKI JAKARTA","ID_KABKOT":"31.72","KABKOT":"KOTA ADM. JAKARTA UTARA","ID_KEC":"31.72.01","KECAMATAN":"PENJARINGAN","ID_DESA":"31.72.01.1001","DESA":"PENJARINGAN","LONGITUDE":"106.7904532","LATITUDE":"-6.126387299999999","STATUS":"BUKA","TANGGAL PE":"Q2 2025","TANGGAL UP":"27/05/2025"}},{"type":"Feature","geometry":{"coordinates":[106.7896199,-6.1164462],"type":"Point"},"properties":{"NAMA":"PLUIT VILLAGE MALL","TIPE_1":"HIBURAN DAN KESENIAN","TIPE_2":"PUSAT PERBELANJAAN","TIPE_3":"-","TELEPON":"(021) 6683888","ALAMAT":"JL. PLUIT INDAH, RT.6/RW.4, PLUIT, KEC. PENJARINGAN, JKT UTARA, DAERAH KHUSUS IBUKOTA JAKARTA 14450","ID_PROV":"31","PROVINSI":"DKI JAKARTA","ID_KABKOT":"31.72","KABKOT":"KOTA ADM. JAKARTA UTARA","ID_KEC":"31.72.01","KECAMATAN":"PENJARINGAN","ID_DESA":"31.72.01.1005","DESA":"PLUIT","LONGITUDE":"106.78961989999999","LATITUDE":"-6.1164462","STATUS":"BUKA","TANGGAL PE":"Q2 2025","TANGGAL UP":"27/05/2025"}},{"type":"Feature","geometry":{"coordinates":[106.9084263,-6.1572666],"type":"Point"},"properties":{"NAMA":"SUMMARECON MALL KELAPA GADING","TIPE_1":"HIBURAN DAN KESENIAN","TIPE_2":"PUSAT PERBELANJAAN","TIPE_3":"-","TELEPON":"(021) 4531101","ALAMAT":"JL. BOULEVARD RAYA, KLP. GADING TIM., KEC. KLP. GADING, JKT UTARA, DAERAH KHUSUS IBUKOTA JAKARTA 14240","ID_PROV":"31","PROVINSI":"DKI JAKARTA","ID_KABKOT":"31.72","KABKOT":"KOTA ADM. JAKARTA UTARA","ID_KEC":"31.72.06","KECAMATAN":"KELAPA GADING","ID_DESA":"31.72.06.1001","DESA":"KELAPA GADING TIMUR","LONGITUDE":"106.9084263","LATITUDE":"-6.1572666","STATUS":"BUKA","TANGGAL PE":"Q2 2025","TANGGAL UP":"27/05/2025"}},{"type":"Feature","geometry":{"coordinates":[106.8708677,-6.137975],"type":"Point"},"properties":{"NAMA":"SUNTER MALL","TIPE_1":"HIBURAN DAN KESENIAN","TIPE_2":"PUSAT PERBELANJAAN","TIPE_3":"-","TELEPON":"(021) 65832000","ALAMAT":"JL. DANAU SUNTER UTARA KAV. II BLOK G7, RT.1/RW.13, SUNTER AGUNG, KEC. TJ. PRIOK, JAKARTA, DAERAH KHUSUS IBUKOTA JAKARTA 14350","ID_PROV":"31","PROVINSI":"DKI JAKARTA","ID_KABKOT":"31.72","KABKOT":"KOTA ADM. JAKARTA UTARA","ID_KEC":"31.72.02","KECAMATAN":"TANJUNG PRIOK","ID_DESA":"31.72.02.1006","DESA":"SUNTER AGUNG","LONGITUDE":"106.87086769999999","LATITUDE":"-6.137975","STATUS":"BUKA","TANGGAL PE":"Q2 2025","TANGGAL UP":"27/05/2025"}}]}