{"type":"FeatureCollection","features":[{"type":"Feature","geometry":{"coordinates":[106.7276002,-6.2853789],"type":"Point"},"properties":{"NAMA":"BINTARO JAYA XCHANGE MALL","TIPE_1":"HIBURAN DAN KESENIAN","TIPE_2":"PUSAT PERBELANJAAN","TIPE_3":"-","TELEPON":"(021) 29865000","ALAMAT":"JL. LKR. JAYA NO.24, PD. JAYA, KEC. PD. AREN, TANGERANG, BANTEN 15227","ID_PROV":"36","PROVINSI":"BANTEN","ID_KABKOT":"36.74","KABKOT":"KOTA TANGERANG SELATAN","ID_KEC":"36.74.03","KECAMATAN":"PONDOK AREN","ID_DESA":"36.74.03.1004","DESA":"PONDOK JAYA","LONGITUDE":"106.7276002","LATITUDE":"-6.2853789","STATUS":"BUKA","TANGGAL PE":"Q2 2025","TANGGAL UP":"27/05/2025"}},{"type":"Feature","geometry":{"coordinates":[106.7292823,-6.2857762],"type":"Point"},"properties":{"NAMA":"BINTARO JAYA XCHANGE MALL 2","TIPE_1":"HIBURAN DAN KESENIAN","TIPE_2":"PUSAT PERBELANJAAN","TIPE_3":"-","TELEPON":"","ALAMAT":"JL. LKR. JAYA NO.12, PD. JAYA, KEC. PD. AREN, KOTA TANGERANG SELATAN, BANTEN 15220","ID_PROV":"36","PROVINSI":"BANTEN","ID_KABKOT":"36.74","KABKOT":"KOTA TANGERANG SELATAN","ID_KEC":"36.74.03","KECAMATAN":"PONDOK AREN","ID_DESA":"36.74.03.1004","DESA":"PONDOK JAYA","LONGITUDE":"106.7292823","LATITUDE":"-6.2857762","STATUS":"BUKA","TANGGAL PE":"Q2 2025","TANGGAL UP":"27/05/2025"}},{"type":"Feature","geometry":{"coordinates":[106.7424398,-6.2728272],"type":"Point"},"properties":{"NAMA":"BINTARO PLAZA","TIPE_1":"HIBURAN DAN KESENIAN","TIPE_2":"PUSAT PERBELANJAAN","TIPE_3":"-","TELEPON":"0815-4888-0003","ALAMAT":"JL. BINTARO UTAMA 3A NO.81, PD. KARYA, KEC. PD. AREN, KOTA TANGERANG SELATAN, BANTEN 15225","ID_PROV":"36","PROVINSI":"BANTEN","ID_KABKOT":"36.74","KABKOT":"KOTA TANGERANG SELATAN","ID_KEC":"36.74.03","KECAMATAN":"PONDOK AREN","ID_DESA":"36.74.03.1003","DESA":"PONDOK KARYA","LONGITUDE":"106.7424398","LATITUDE":"-6.2728272","STATUS":"BUKA","TANGGAL PE":"Q2 2025","TANGGAL UP":"27/05/2025"}},{"type":"Feature","geometry":{"coordinates":[106.6625764,-6.2794797],"type":"Point"},"properties":{"NAMA":"BSD PLAZA","TIPE_1":"HIBURAN DAN KESENIAN","TIPE_2":"PUSAT PERBELANJAAN","TIPE_3":"-","TELEPON":"(021) 5371171","ALAMAT":"JL. PAHLAWAN SERIBU SEKTOR 4, LENGKONG WETAN, SERPONG SUB-DISTRICT, SOUTH TANGERANG CITY, BANTEN 15322","ID_PROV":"36","PROVINSI":"BANTEN","ID_KABKOT":"36.74","KABKOT":"KOTA TANGERANG SELATAN","ID_KEC":"36.74.01","KECAMATAN":"SERPONG","ID_DESA":"36.74.01.1005","DESA":"LENGKONG WETAN","LONGITUDE":"106.66257639999999","LATITUDE":"-6.2794797","STATUS":"BUKA","TANGGAL PE":"Q2 2025","TANGGAL UP":"27/05/2025"}},{"type":"Feature","geometry":{"coordinates":[106.76518689999999,-6.2978618],"type":"Point"},"properties":{"NAMA":"LIVING PLAZA CIPUTAT","TIPE_1":"HIBURAN DAN KESENIAN","TIPE_2":"PUSAT PERBELANJAAN","TIPE_3":"-","TELEPON":"0858-8588-0328","ALAMAT":"7, JL. CIPUTAT RAYA NO.83, RT.7/RW.2, CIREUNDEU, KEC. CIPUTAT TIM., KOTA TANGERANG SELATAN, BANTEN 15412","ID_PROV":"36","PROVINSI":"BANTEN","ID_KABKOT":"36.74","KABKOT":"KOTA TANGERANG SELATAN","ID_KEC":"36.74.05","KECAMATAN":"CIPUTAT TIMUR","ID_DESA":"36.74.05.1004","DESA":"CIREUNDEU","LONGITUDE":"106.76518689999999","LATITUDE":"-6.2978618","STATUS":"BUKA","TANGGAL PE":"Q2 2025","TANGGAL UP":"27/05/2025"}},{"type":"Feature","geometry":{"coordinates":[106.7325188,-6.3431957],"type":"Point"},"properties":{"NAMA":"LIVING PLAZA PAMULANG","TIPE_1":"HIBURAN DAN KESENIAN","TIPE_2":"PUSAT PERBELANJAAN","TIPE_3":"-","TELEPON":"0858-8588-0328","ALAMAT":"JL. PERMAI RAYA BLOK HS NO.13 KEC, JL. PERMAI RAYA BLOK HS NO.13, PAMULANG BAR., KEC. PAMULANG, KOTA TANGERANG SELATAN, BANTEN 15417","ID_PROV":"36","PROVINSI":"BANTEN","ID_KABKOT":"36.74","KABKOT":"KOTA TANGERANG SELATAN","ID_KEC":"36.74.06","KECAMATAN":"PAMULANG","ID_DESA":"36.74.06.1001","DESA":"PAMULANG BARAT","LONGITUDE":"106.7325188","LATITUDE":"-6.3431957","STATUS":"BUKA","TANGGAL PE":"Q2 2025","TANGGAL UP":"27/05/2025"}},{"type":"Feature","geometry":{"coordinates":[106.7499749,-6.3461091],"type":"Point"},"properties":{"NAMA":"LIVING PLAZA PONDOK CABE GAPLEK POINT","TIPE_1":"HIBURAN DAN KESENIAN","TIPE_2":"PUSAT PERBELANJAAN","TIPE_3":"-","TELEPON":"","ALAMAT":"JL. RE MARTADINATA NO.13A, PD. CABE UDIK, KEC. PAMULANG, KOTA TANGERANG SELATAN, BANTEN 15417","ID_PROV":"36","PROVINSI":"BANTEN","ID_KABKOT":"36.74","KABKOT":"KOTA TANGERANG SELATAN","ID_KEC":"36.74.04","KECAMATAN":"CIPUTAT","ID_DESA":"36.74.04.1007","DESA":"CIPAYUNG","LONGITUDE":"106.7499749","LATITUDE":"-6.3461091","STATUS":"BUKA","TANGGAL PE":"Q2 2025","TANGGAL UP":"27/05/2025"}},{"type":"Feature","geometry":{"coordinates":[106.6944207,-6.3485883],"type":"Point"},"properties":{"NAMA":"MALL PARADISE WALK SERPONG","TIPE_1":"HIBURAN DAN KESENIAN","TIPE_2":"PUSAT PERBELANJAAN","TIPE_3":"-","TELEPON":"","ALAMAT":"PARADISE WALK SERPONG, JL. RAYA PUSPITEK, RAYA, KEC. SERPONG, KOTA TANGERANG SELATAN, BANTEN 15315","ID_PROV":"36","PROVINSI":"BANTEN","ID_KABKOT":"36.74","KABKOT":"KOTA TANGERANG SELATAN","ID_KEC":"36.74.07","KECAMATAN":"SETU","ID_DESA":"36.74.07.1005","DESA":"BABAKAN","LONGITUDE":"106.6944207","LATITUDE":"-6.348588299999999","STATUS":"BUKA","TANGGAL PE":"Q2 2025","TANGGAL UP":"27/05/2025"}},{"type":"Feature","geometry":{"coordinates":[106.6554279,-6.2662992],"type":"Point"},"properties":{"NAMA":"MALL WTC MATAHARI","TIPE_1":"HIBURAN DAN KESENIAN","TIPE_2":"PUSAT PERBELANJAAN","TIPE_3":"-","TELEPON":"0877-0060-3939","ALAMAT":"JL. RAYA SERPONG NO.39, PD. JAGUNG, KEC. SERPONG UTARA, KOTA TANGERANG SELATAN, BANTEN 15326","ID_PROV":"36","PROVINSI":"BANTEN","ID_KABKOT":"36.74","KABKOT":"KOTA TANGERANG SELATAN","ID_KEC":"36.74.02","KECAMATAN":"SERPONG UTARA","ID_DESA":"36.74.02.1004","DESA":"PONDOK JAGUNG","LONGITUDE":"106.65542789999999","LATITUDE":"-6.2662992","STATUS":"BUKA","TANGGAL PE":"Q2 2025","TANGGAL UP":"27/05/2025"}},{"type":"Feature","geometry":{"coordinates":[106.7468024,-6.3121909],"type":"Point"},"properties":{"NAMA":"PLAZA CIPUTAT","TIPE_1":"HIBURAN DAN KESENIAN","TIPE_2":"PUSAT PERBELANJAAN","TIPE_3":"-","TELEPON":"","ALAMAT":"JL. DEWI SARTIKA NO.4, CIPAYUNG, KEC. CIPUTAT, KOTA TANGERANG SELATAN, BANTEN 15411","ID_PROV":"36","PROVINSI":"BANTEN","ID_KABKOT":"36.74","KABKOT":"KOTA TANGERANG SELATAN","ID_KEC":"36.74.04","KECAMATAN":"CIPUTAT","ID_DESA":"36.74.04.1007","DESA":"CIPAYUNG","LONGITUDE":"106.74680239999999","LATITUDE":"-6.3121909","STATUS":"BUKA","TANGGAL PE":"Q2 2025","TANGGAL UP":"27/05/2025"}},{"type":"Feature","geometry":{"coordinates":[106.7582964,-6.306086],"type":"Point"},"properties":{"NAMA":"PLAZA KERTAMUKTI","TIPE_1":"HIBURAN DAN KESENIAN","TIPE_2":"PUSAT PERBELANJAAN","TIPE_3":"-","TELEPON":"","ALAMAT":"CIREUNDEU, KEC. CIPUTAT TIM., KOTA TANGERANG SELATAN, BANTEN 15419","ID_PROV":"36","PROVINSI":"BANTEN","ID_KABKOT":"36.74","KABKOT":"KOTA TANGERANG SELATAN","ID_KEC":"36.74.05","KECAMATAN":"CIPUTAT TIMUR","ID_DESA":"36.74.05.1004","DESA":"CIREUNDEU","LONGITUDE":"106.75829639999999","LATITUDE":"-6.306086","STATUS":"BUKA","TANGGAL PE":"Q2 2025","TANGGAL UP":"27/05/2025"}},{"type":"Feature","geometry":{"coordinates":[106.71930719999999,-6.2776232],"type":"Point"},"properties":{"NAMA":"TRANSPARK MALL BINTARO","TIPE_1":"HIBURAN DAN KESENIAN","TIPE_2":"PUSAT PERBELANJAAN","TIPE_3":"-","TELEPON":"","ALAMAT":"JL. HR RASUNA SAID NO.5, PD. JAYA, KEC. PD. AREN, KOTA TANGERANG SELATAN, BANTEN 15220","ID_PROV":"36","PROVINSI":"BANTEN","ID_KABKOT":"36.74","KABKOT":"KOTA TANGERANG SELATAN","ID_KEC":"36.74.03","KECAMATAN":"PONDOK AREN","ID_DESA":"36.74.03.1004","DESA":"PONDOK JAYA","LONGITUDE":"106.71930719999999","LATITUDE":"-6.2776232","STATUS":"BUKA","TANGGAL PE":"Q2 2025","TANGGAL UP":"27/05/2025"}}]}