{"type":"FeatureCollection","features":[{"type":"Feature","geometry":{"coordinates":[106.81878359999999,-6.1607576],"type":"Point"},"properties":{"NAMA":"GAJAH MADA PLAZA MALL","TIPE_1":"HIBURAN DAN KESENIAN","TIPE_2":"PUSAT PERBELANJAAN","TIPE_3":"-","TELEPON":"(021) 63858888","ALAMAT":"JL. GAJAH MADA NO.19 26, RT.2/RW.1, NORTH PETOJO, GAMBIR, CENTRAL JAKARTA CITY, JAKARTA 10130","ID_PROV":"31","PROVINSI":"DKI JAKARTA","ID_KABKOT":"31.71","KABKOT":"KOTA ADM. JAKARTA PUSAT","ID_KEC":"31.71.01","KECAMATAN":"GAMBIR","ID_DESA":"31.71.01.1003","DESA":"PETOJO UTARA","LONGITUDE":"106.81878359999999","LATITUDE":"-6.160757599999999","STATUS":"BUKA","TANGGAL PE":"Q2 2025","TANGGAL UP":"27/05/2025"}},{"type":"Feature","geometry":{"coordinates":[106.874247,-6.188692],"type":"Point"},"properties":{"NAMA":"GREEN PRAMUKA SQUARE MALL.","TIPE_1":"HIBURAN DAN KESENIAN","TIPE_2":"PUSAT PERBELANJAAN","TIPE_3":"-","TELEPON":"(021) 29624747","ALAMAT":"JL. JENDERAL AHMAD YANI NO.KAV .49, RAWASARI, KEC. CEMP. PUTIH, KOTA JAKARTA PUSAT, DAERAH KHUSUS IBUKOTA JAKARTA 10570","ID_PROV":"31","PROVINSI":"DKI JAKARTA","ID_KABKOT":"31.71","KABKOT":"KOTA ADM. JAKARTA PUSAT","ID_KEC":"31.71.05","KECAMATAN":"CEMPAKA PUTIH","ID_DESA":"31.71.05.1003","DESA":"RAWASARI","LONGITUDE":"106.874247","LATITUDE":"-6.188692","STATUS":"BUKA","TANGGAL PE":"Q2 2025","TANGGAL UP":"27/05/2025"}},{"type":"Feature","geometry":{"coordinates":[106.8771367,-6.167535],"type":"Point"},"properties":{"NAMA":"LIPPO MALL EAST SIDE (LMES)","TIPE_1":"HIBURAN DAN KESENIAN","TIPE_2":"PUSAT PERBELANJAAN","TIPE_3":"-","TELEPON":"","ALAMAT":"JALAN LETJEN. SUPRAPTO KAV.60 NO.1, RT.10/RW.7, EAST CEMPAKA PUTIH, CEMPAKA PUTIH, CENTRAL JAKARTA CITY, JAKARTA 10510","ID_PROV":"31","PROVINSI":"DKI JAKARTA","ID_KABKOT":"31.71","KABKOT":"KOTA ADM. JAKARTA PUSAT","ID_KEC":"31.71.05","KECAMATAN":"CEMPAKA PUTIH","ID_DESA":"31.71.05.1001","DESA":"CEMPAKA PUTIH TIMUR","LONGITUDE":"106.8771367","LATITUDE":"-6.167535","STATUS":"BUKA","TANGGAL PE":"Q2 2025","TANGGAL UP":"27/05/2025"}},{"type":"Feature","geometry":{"coordinates":[106.7993027,-6.2255918],"type":"Point"},"properties":{"NAMA":"MALL PLAZA SENAYAN","TIPE_1":"HIBURAN DAN KESENIAN","TIPE_2":"PUSAT PERBELANJAAN","TIPE_3":"-","TELEPON":"(021) 5725555","ALAMAT":"JL. ASIA AFRIKA NO.8, RT.1/RW.3, GELORA, KECAMATAN TANAH ABANG, KOTA JAKARTA PUSAT, DAERAH KHUSUS IBUKOTA JAKARTA 10270","ID_PROV":"31","PROVINSI":"DKI JAKARTA","ID_KABKOT":"31.71","KABKOT":"KOTA ADM. JAKARTA PUSAT","ID_KEC":"31.71.07","KECAMATAN":"TANAH ABANG","ID_DESA":"31.71.07.1001","DESA":"GELORA","LONGITUDE":"106.7993027","LATITUDE":"-6.2255918","STATUS":"BUKA","TANGGAL PE":"Q2 2025","TANGGAL UP":"27/05/2025"}},{"type":"Feature","geometry":{"coordinates":[106.7970117,-6.2271953],"type":"Point"},"properties":{"NAMA":"MALL SENAYAN CITY","TIPE_1":"HIBURAN DAN KESENIAN","TIPE_2":"PUSAT PERBELANJAAN","TIPE_3":"-","TELEPON":"(021) 72781000","ALAMAT":"JL. ASIA AFRIKA NO.LOT 19, GELORA, KECAMATAN TANAH ABANG, KOTA JAKARTA PUSAT, DAERAH KHUSUS IBUKOTA JAKARTA 10270","ID_PROV":"31","PROVINSI":"DKI JAKARTA","ID_KABKOT":"31.71","KABKOT":"KOTA ADM. JAKARTA PUSAT","ID_KEC":"31.71.07","KECAMATAN":"TANAH ABANG","ID_DESA":"31.71.07.1001","DESA":"GELORA","LONGITUDE":"106.7970117","LATITUDE":"-6.2271953","STATUS":"BUKA","TANGGAL PE":"Q2 2025","TANGGAL UP":"27/05/2025"}},{"type":"Feature","geometry":{"coordinates":[106.8165473,-6.1943235],"type":"Point"},"properties":{"NAMA":"MALL THAMRIN CITY","TIPE_1":"HIBURAN DAN KESENIAN","TIPE_2":"PUSAT PERBELANJAAN","TIPE_3":"-","TELEPON":"","ALAMAT":"JL. TLK. BETUNG BLVD, KB. MELATI, KECAMATAN TANAH ABANG, KOTA JAKARTA PUSAT, DAERAH KHUSUS IBUKOTA JAKARTA 10230","ID_PROV":"31","PROVINSI":"DKI JAKARTA","ID_KABKOT":"31.71","KABKOT":"KOTA ADM. JAKARTA PUSAT","ID_KEC":"31.71.07","KECAMATAN":"TANAH ABANG","ID_DESA":"31.71.07.1005","DESA":"KEBON MELATI","LONGITUDE":"106.8165473","LATITUDE":"-6.194323499999999","STATUS":"BUKA","TANGGAL PE":"Q2 2025","TANGGAL UP":"27/05/2025"}},{"type":"Feature","geometry":{"coordinates":[106.82305,-6.1370399],"type":"Point"},"properties":{"NAMA":"MANGGA DUA MALL","TIPE_1":"HIBURAN DAN KESENIAN","TIPE_2":"PUSAT PERBELANJAAN","TIPE_3":"-","TELEPON":"(021) 6126000","ALAMAT":"JL. MANGGA DUA RAYA NO.1, MANGGA DUA SEL., KECAMATAN SAWAH BESAR, KOTA JAKARTA PUSAT, DAERAH KHUSUS IBUKOTA JAKARTA 10730","ID_PROV":"31","PROVINSI":"DKI JAKARTA","ID_KABKOT":"31.71","KABKOT":"KOTA ADM. JAKARTA PUSAT","ID_KEC":"31.71.02","KECAMATAN":"SAWAH BESAR","ID_DESA":"31.71.02.1005","DESA":"MANGGA DUA SELATAN","LONGITUDE":"106.82305","LATITUDE":"-6.1370399","STATUS":"BUKA","TANGGAL PE":"Q2 2025","TANGGAL UP":"27/05/2025"}},{"type":"Feature","geometry":{"coordinates":[106.8327003,-6.1613126],"type":"Point"},"properties":{"NAMA":"METRO ATOM PLAZA","TIPE_1":"HIBURAN DAN KESENIAN","TIPE_2":"PUSAT PERBELANJAAN","TIPE_3":"-","TELEPON":"(021) 26071113","ALAMAT":"6, JL. SAMANHUDI NO.1, RT.1/RW.3, PS. BARU, KECAMATAN SAWAH BESAR, KOTA JAKARTA PUSAT, DAERAH KHUSUS IBUKOTA JAKARTA 10710","ID_PROV":"31","PROVINSI":"DKI JAKARTA","ID_KABKOT":"31.71","KABKOT":"KOTA ADM. JAKARTA PUSAT","ID_KEC":"31.71.02","KECAMATAN":"SAWAH BESAR","ID_DESA":"31.71.02.1001","DESA":"PASAR BARU","LONGITUDE":"106.8327003","LATITUDE":"-6.1613126","STATUS":"BUKA","TANGGAL PE":"Q2 2025","TANGGAL UP":"27/05/2025"}},{"type":"Feature","geometry":{"coordinates":[106.8484873,-6.1548562],"type":"Point"},"properties":{"NAMA":"MGK MALLL","TIPE_1":"HIBURAN DAN KESENIAN","TIPE_2":"PUSAT PERBELANJAAN","TIPE_3":"-","TELEPON":"","ALAMAT":"JL. BENYAMIN SUEB, RW.10, PADEMANGAN TIM., KEC. PADEMANGAN, JKT UTARA, DAERAH KHUSUS IBUKOTA JAKARTA 14410","ID_PROV":"31","PROVINSI":"DKI JAKARTA","ID_KABKOT":"31.71","KABKOT":"KOTA ADM. JAKARTA PUSAT","ID_KEC":"31.71.03","KECAMATAN":"KEMAYORAN","ID_DESA":"31.71.03.1005","DESA":"GUNUNG SAHARI SELATAN","LONGITUDE":"106.8484873","LATITUDE":"-6.154856199999999","STATUS":"BUKA","TANGGAL PE":"Q2 2025","TANGGAL UP":"27/05/2025"}},{"type":"Feature","geometry":{"coordinates":[106.8415448,-6.177522],"type":"Point"},"properties":{"NAMA":"MILLENNIUM MALL","TIPE_1":"HIBURAN DAN KESENIAN","TIPE_2":"PUSAT PERBELANJAAN","TIPE_3":"-","TELEPON":"(021) 3867862","ALAMAT":"JL. SENEN RAYA NO.135, SENEN, KEC. SENEN, KOTA JAKARTA PUSAT, DAERAH KHUSUS IBUKOTA JAKARTA 10410","ID_PROV":"31","PROVINSI":"DKI JAKARTA","ID_KABKOT":"31.71","KABKOT":"KOTA ADM. JAKARTA PUSAT","ID_KEC":"31.71.04","KECAMATAN":"SENEN","ID_DESA":"31.71.04.1001","DESA":"SENEN","LONGITUDE":"106.8415448","LATITUDE":"-6.177522","STATUS":"BUKA","TANGGAL PE":"Q2 2025","TANGGAL UP":"27/05/2025"}},{"type":"Feature","geometry":{"coordinates":[106.841573,-6.177541],"type":"Point"},"properties":{"NAMA":"PLAZA ATRIUM","TIPE_1":"HIBURAN DAN KESENIAN","TIPE_2":"PUSAT PERBELANJAAN","TIPE_3":"-","TELEPON":"","ALAMAT":"JL. SENEN RAYA NO.135, RW.2, SENEN, KEC. SENEN, KOTA JAKARTA PUSAT, DAERAH KHUSUS IBUKOTA JAKARTA 10410","ID_PROV":"31","PROVINSI":"DKI JAKARTA","ID_KABKOT":"31.71","KABKOT":"KOTA ADM. JAKARTA PUSAT","ID_KEC":"31.71.04","KECAMATAN":"SENEN","ID_DESA":"31.71.04.1001","DESA":"SENEN","LONGITUDE":"106.841573","LATITUDE":"-6.177541","STATUS":"BUKA","TANGGAL PE":"Q2 2025","TANGGAL UP":"27/05/2025"}},{"type":"Feature","geometry":{"coordinates":[106.8219468,-6.1935977],"type":"Point"},"properties":{"NAMA":"PLAZA INDONESIA","TIPE_1":"HIBURAN DAN KESENIAN","TIPE_2":"PUSAT PERBELANJAAN","TIPE_3":"-","TELEPON":"(021) 29920000","ALAMAT":"JL. M.H. THAMRIN NO.KAV.28-30, GONDANGDIA, KEC. MENTENG, KOTA JAKARTA PUSAT, DAERAH KHUSUS IBUKOTA JAKARTA 10350","ID_PROV":"31","PROVINSI":"DKI JAKARTA","ID_KABKOT":"31.71","KABKOT":"KOTA ADM. JAKARTA PUSAT","ID_KEC":"31.71.06","KECAMATAN":"MENTENG","ID_DESA":"31.71.06.1004","DESA":"GONDANGDIA","LONGITUDE":"106.82194679999999","LATITUDE":"-6.1935977","STATUS":"BUKA","TANGGAL PE":"Q2 2025","TANGGAL UP":"27/05/2025"}},{"type":"Feature","geometry":{"coordinates":[106.8482658,-6.1916658],"type":"Point"},"properties":{"NAMA":"PLAZA KENARI MAS","TIPE_1":"HIBURAN DAN KESENIAN","TIPE_2":"PUSAT PERBELANJAAN","TIPE_3":"-","TELEPON":"","ALAMAT":"JL. KRAMAT RAYA NO.101 LANTAI 4, RT.18/RW.1, PASEBAN, KEC. SENEN, KOTA JAKARTA PUSAT, DAERAH KHUSUS IBUKOTA JAKARTA 10440","ID_PROV":"31","PROVINSI":"DKI JAKARTA","ID_KABKOT":"31.71","KABKOT":"KOTA ADM. JAKARTA PUSAT","ID_KEC":"31.71.04","KECAMATAN":"SENEN","ID_DESA":"31.71.04.1003","DESA":"PASEBAN","LONGITUDE":"106.8482658","LATITUDE":"-6.1916658","STATUS":"BUKA","TANGGAL PE":"Q2 2025","TANGGAL UP":"27/05/2025"}},{"type":"Feature","geometry":{"coordinates":[106.8287882,-6.1969114],"type":"Point"},"properties":{"NAMA":"PLAZA MENTENG","TIPE_1":"HIBURAN DAN KESENIAN","TIPE_2":"PUSAT PERBELANJAAN","TIPE_3":"-","TELEPON":"(021) 31935709","ALAMAT":"JL. HOS. COKROAMINOTO NO.79 3, RT.3/RW.5, MENTENG, KEC. MENTENG, KOTA JAKARTA PUSAT, DAERAH KHUSUS IBUKOTA JAKARTA 10310","ID_PROV":"31","PROVINSI":"DKI JAKARTA","ID_KABKOT":"31.71","KABKOT":"KOTA ADM. JAKARTA PUSAT","ID_KEC":"31.71.06","KECAMATAN":"MENTENG","ID_DESA":"31.71.06.1001","DESA":"MENTENG","LONGITUDE":"106.82878819999999","LATITUDE":"-6.196911399999999","STATUS":"BUKA","TANGGAL PE":"Q2 2025","TANGGAL UP":"27/05/2025"}},{"type":"Feature","geometry":{"coordinates":[106.8752488,-6.1770753],"type":"Point"},"properties":{"NAMA":"PLAZA WARLY","TIPE_1":"HIBURAN DAN KESENIAN","TIPE_2":"PUSAT PERBELANJAAN","TIPE_3":"-","TELEPON":"(021) 21473999","ALAMAT":"JL. CEMPAKA PUTIH RAYA, RT.8/RW.3, CEMP. PUTIH TIM., KEC. CEMP. PUTIH, KOTA JAKARTA PUSAT, DAERAH KHUSUS IBUKOTA JAKARTA 10510","ID_PROV":"31","PROVINSI":"DKI JAKARTA","ID_KABKOT":"31.71","KABKOT":"KOTA ADM. JAKARTA PUSAT","ID_KEC":"31.71.05","KECAMATAN":"CEMPAKA PUTIH","ID_DESA":"31.71.05.1001","DESA":"CEMPAKA PUTIH TIMUR","LONGITUDE":"106.8752488","LATITUDE":"-6.177075299999999","STATUS":"BUKA","TANGGAL PE":"Q2 2025","TANGGAL UP":"27/05/2025"}},{"type":"Feature","geometry":{"coordinates":[106.8015903,-6.2266481],"type":"Point"},"properties":{"NAMA":"RATU PLAZA","TIPE_1":"HIBURAN DAN KESENIAN","TIPE_2":"PUSAT PERBELANJAAN","TIPE_3":"-","TELEPON":"(021) 7394499","ALAMAT":"JL. JENDERAL SUDIRMAN NO.KAV. 9, RT.1/RW.3, GELORA, KECAMATAN TANAH ABANG, KOTA JAKARTA PUSAT, DAERAH KHUSUS IBUKOTA JAKARTA 10270","ID_PROV":"31","PROVINSI":"DKI JAKARTA","ID_KABKOT":"31.71","KABKOT":"KOTA ADM. JAKARTA PUSAT","ID_KEC":"31.71.07","KECAMATAN":"TANAH ABANG","ID_DESA":"31.71.07.1001","DESA":"GELORA","LONGITUDE":"106.8015903","LATITUDE":"-6.226648099999999","STATUS":"BUKA","TANGGAL PE":"Q2 2025","TANGGAL UP":"27/05/2025"}}]}