{"type":"FeatureCollection","features":[{"type":"Feature","geometry":{"coordinates":[106.78699909999999,-6.1725181],"type":"Point"},"properties":{"NAMA":"CENTRAL PARK MALL","TIPE_1":"HIBURAN DAN KESENIAN","TIPE_2":"PUSAT PERBELANJAAN","TIPE_3":"-","TELEPON":"","ALAMAT":"JL. TANJUNG DUREN UTARA I NO.12 12, RT.12/RW.2, TJ. DUREN UTARA, KEC. GROGOL PETAMBURAN, KOTA JAKARTA BARAT, DAERAH KHUSUS IBUKOTA JAKARTA 11470","ID_PROV":"31","PROVINSI":"DKI JAKARTA","ID_KABKOT":"31.73","KABKOT":"KOTA ADM. JAKARTA BARAT","ID_KEC":"31.73.02","KECAMATAN":"GROGOL PETAMBURAN","ID_DESA":"31.73.02.1002","DESA":"TANJUNG DUREN UTARA","LONGITUDE":"106.78699909999999","LATITUDE":"-6.1725181","STATUS":"BUKA","TANGGAL PE":"Q2 2025","TANGGAL UP":"27/05/2025"}},{"type":"Feature","geometry":{"coordinates":[106.7136712,-6.1519453],"type":"Point"},"properties":{"NAMA":"DM MALL","TIPE_1":"HIBURAN DAN KESENIAN","TIPE_2":"PUSAT PERBELANJAAN","TIPE_3":"-","TELEPON":"","ALAMAT":"JL. DAAN MOGOT, RT.8/RW.12, MALL, KEC. KALIDERES, KOTA JAKARTA BARAT, DAERAH KHUSUS IBUKOTA JAKARTA 11840","ID_PROV":"31","PROVINSI":"DKI JAKARTA","ID_KABKOT":"31.73","KABKOT":"KOTA ADM. JAKARTA BARAT","ID_KEC":"31.73.06","KECAMATAN":"KALIDERES","ID_DESA":"31.73.06.1001","DESA":"KALIDERES","LONGITUDE":"106.7136712","LATITUDE":"-6.1519453","STATUS":"BUKA","TANGGAL PE":"Q2 2025","TANGGAL UP":"27/05/2025"}},{"type":"Feature","geometry":{"coordinates":[106.8165287,-6.1422294],"type":"Point"},"properties":{"NAMA":"GLODOK PLAZA","TIPE_1":"HIBURAN DAN KESENIAN","TIPE_2":"PUSAT PERBELANJAAN","TIPE_3":"-","TELEPON":"(021) 6280888","ALAMAT":"JL. PINANGSIA RAYA NO.1, RT.1/RW.6, MANGGA BESAR, KEC. TAMAN SARI, KOTA JAKARTA BARAT, DAERAH KHUSUS IBUKOTA JAKARTA 11180","ID_PROV":"31","PROVINSI":"DKI JAKARTA","ID_KABKOT":"31.73","KABKOT":"KOTA ADM. JAKARTA BARAT","ID_KEC":"31.73.03","KECAMATAN":"TAMAN SARI","ID_DESA":"31.73.03.1005","DESA":"MANGGA BESAR","LONGITUDE":"106.81652869999999","LATITUDE":"-6.1422294","STATUS":"BUKA","TANGGAL PE":"Q2 2025","TANGGAL UP":"27/05/2025"}},{"type":"Feature","geometry":{"coordinates":[106.8163609,-6.1517956],"type":"Point"},"properties":{"NAMA":"GRAND PARAGON MALL","TIPE_1":"HIBURAN DAN KESENIAN","TIPE_2":"PUSAT PERBELANJAAN","TIPE_3":"-","TELEPON":"(021) 29073377","ALAMAT":"12, JL. KEAMANAN NO.8, RT.13/RW.8, KEAGUNGAN, KEC. TAMAN SARI, KOTA JAKARTA BARAT, DAERAH KHUSUS IBUKOTA JAKARTA 11130","ID_PROV":"31","PROVINSI":"DKI JAKARTA","ID_KABKOT":"31.73","KABKOT":"KOTA ADM. JAKARTA BARAT","ID_KEC":"31.73.03","KECAMATAN":"TAMAN SARI","ID_DESA":"31.73.03.1006","DESA":"KEAGUNGAN","LONGITUDE":"106.81636089999999","LATITUDE":"-6.1517956","STATUS":"BUKA","TANGGAL PE":"Q2 2025","TANGGAL UP":"27/05/2025"}},{"type":"Feature","geometry":{"coordinates":[106.7287214,-6.1388522],"type":"Point"},"properties":{"NAMA":"GREEN SEDAYU MALL","TIPE_1":"HIBURAN DAN KESENIAN","TIPE_2":"PUSAT PERBELANJAAN","TIPE_3":"-","TELEPON":"0813-8663-5688","ALAMAT":"BLK. B17, JL. TAMAN PALEM LESTARI NO.2, RT.7/RW.13, CENGKARENG BAR., KECAMATAN CENGKARENG, KOTA JAKARTA BARAT, DAERAH KHUSUS IBUKOTA JAKARTA 11730","ID_PROV":"31","PROVINSI":"DKI JAKARTA","ID_KABKOT":"31.73","KABKOT":"KOTA ADM. JAKARTA BARAT","ID_KEC":"31.73.01","KECAMATAN":"CENGKARENG","ID_DESA":"31.73.01.1001","DESA":"CENGKARENG BARAT","LONGITUDE":"106.7287214","LATITUDE":"-6.1388522","STATUS":"BUKA","TANGGAL PE":"Q2 2025","TANGGAL UP":"27/05/2025"}},{"type":"Feature","geometry":{"coordinates":[106.7389094,-6.1884554],"type":"Point"},"properties":{"NAMA":"LIPPO MALL PURI","TIPE_1":"HIBURAN DAN KESENIAN","TIPE_2":"PUSAT PERBELANJAAN","TIPE_3":"-","TELEPON":"(021) 29111111","ALAMAT":"JL. PURI INDAH RAYA BLOK U 1, RT.3/RW.2, KEMBANGAN SEL., KEC. KEMBANGAN, KOTA JAKARTA BARAT, DAERAH KHUSUS IBUKOTA JAKARTA 11610","ID_PROV":"31","PROVINSI":"DKI JAKARTA","ID_KABKOT":"31.73","KABKOT":"KOTA ADM. JAKARTA BARAT","ID_KEC":"31.73.08","KECAMATAN":"KEMBANGAN","ID_DESA":"31.73.08.1006","DESA":"KEMBANGAN SELATAN","LONGITUDE":"106.7389094","LATITUDE":"-6.1884554","STATUS":"BUKA","TANGGAL PE":"Q2 2025","TANGGAL UP":"27/05/2025"}},{"type":"Feature","geometry":{"coordinates":[106.7379002,-6.1884137],"type":"Point"},"properties":{"NAMA":"LIVING PLAZA PURI","TIPE_1":"HIBURAN DAN KESENIAN","TIPE_2":"PUSAT PERBELANJAAN","TIPE_3":"-","TELEPON":"","ALAMAT":"PURI HARUM NO.2, RT.3/RW.2, KEMBANGAN SEL., KEC. KEMBANGAN, KOTA JAKARTA BARAT, DAERAH KHUSUS IBUKOTA JAKARTA 11610","ID_PROV":"31","PROVINSI":"DKI JAKARTA","ID_KABKOT":"31.73","KABKOT":"KOTA ADM. JAKARTA BARAT","ID_KEC":"31.73.08","KECAMATAN":"KEMBANGAN","ID_DESA":"31.73.08.1006","DESA":"KEMBANGAN SELATAN","LONGITUDE":"106.7379002","LATITUDE":"-6.1884137","STATUS":"BUKA","TANGGAL PE":"Q2 2025","TANGGAL UP":"27/05/2025"}},{"type":"Feature","geometry":{"coordinates":[106.7143072,-6.1516476],"type":"Point"},"properties":{"NAMA":"MALL MATAHARI DAAN MOGOT","TIPE_1":"HIBURAN DAN KESENIAN","TIPE_2":"PUSAT PERBELANJAAN","TIPE_3":"-","TELEPON":"(021) 54390154","ALAMAT":"JL. DAAN MOGOT, RT.8/RW.12, KALIDERES, KEC. KALIDERES, KOTA JAKARTA BARAT, DAERAH KHUSUS IBUKOTA JAKARTA 11820","ID_PROV":"31","PROVINSI":"DKI JAKARTA","ID_KABKOT":"31.73","KABKOT":"KOTA ADM. JAKARTA BARAT","ID_KEC":"31.73.06","KECAMATAN":"KALIDERES","ID_DESA":"31.73.06.1001","DESA":"KALIDERES","LONGITUDE":"106.7143072","LATITUDE":"-6.1516476","STATUS":"BUKA","TANGGAL PE":"Q2 2025","TANGGAL UP":"27/05/2025"}},{"type":"Feature","geometry":{"coordinates":[106.8048323,-6.1516272],"type":"Point"},"properties":{"NAMA":"MALL SEASON CITY","TIPE_1":"HIBURAN DAN KESENIAN","TIPE_2":"PUSAT PERBELANJAAN","TIPE_3":"-","TELEPON":"","ALAMAT":"JL. KRENDANG RAYA NO.61 8, RT.8/RW.1, DURI UTARA, KEC. TAMBORA, KOTA JAKARTA BARAT, DAERAH KHUSUS IBUKOTA JAKARTA 11270","ID_PROV":"31","PROVINSI":"DKI JAKARTA","ID_KABKOT":"31.73","KABKOT":"KOTA ADM. JAKARTA BARAT","ID_KEC":"31.73.04","KECAMATAN":"TAMBORA","ID_DESA":"31.73.04.1003","DESA":"DURI UTARA","LONGITUDE":"106.8048323","LATITUDE":"-6.1516272","STATUS":"BUKA","TANGGAL PE":"Q2 2025","TANGGAL UP":"27/05/2025"}},{"type":"Feature","geometry":{"coordinates":[106.7927014,-6.1786943],"type":"Point"},"properties":{"NAMA":"MALL TAMAN ANGGREK","TIPE_1":"HIBURAN DAN KESENIAN","TIPE_2":"PUSAT PERBELANJAAN","TIPE_3":"-","TELEPON":"(021) 5643777","ALAMAT":"JL. LETJEN S. PARMAN NO.KAV 21, RT.12/RW.1, TJ. DUREN SEL., KEC. GROGOL PETAMBURAN, KOTA JAKARTA BARAT, DAERAH KHUSUS IBUKOTA JAKARTA 11470","ID_PROV":"31","PROVINSI":"DKI JAKARTA","ID_KABKOT":"31.73","KABKOT":"KOTA ADM. JAKARTA BARAT","ID_KEC":"31.73.02","KECAMATAN":"GROGOL PETAMBURAN","ID_DESA":"31.73.02.1005","DESA":"TANJUNG DUREN SELATAN","LONGITUDE":"106.7927014","LATITUDE":"-6.1786943","STATUS":"BUKA","TANGGAL PE":"Q2 2025","TANGGAL UP":"27/05/2025"}},{"type":"Feature","geometry":{"coordinates":[106.7308668,-6.1394461],"type":"Point"},"properties":{"NAMA":"MALL TAMAN PALEM","TIPE_1":"HIBURAN DAN KESENIAN","TIPE_2":"PUSAT PERBELANJAAN","TIPE_3":"-","TELEPON":"","ALAMAT":"JL. KAMAL RAYA OUTER RING ROAD, CENGKARENG TIM., KECAMATAN CENGKARENG, KOTA JAKARTA BARAT, DAERAH KHUSUS IBUKOTA JAKARTA 11730","ID_PROV":"31","PROVINSI":"DKI JAKARTA","ID_KABKOT":"31.73","KABKOT":"KOTA ADM. JAKARTA BARAT","ID_KEC":"31.73.01","KECAMATAN":"CENGKARENG","ID_DESA":"31.73.01.1006","DESA":"CENGKARENG TIMUR","LONGITUDE":"106.7308668","LATITUDE":"-6.1394461","STATUS":"BUKA","TANGGAL PE":"Q2 2025","TANGGAL UP":"27/05/2025"}},{"type":"Feature","geometry":{"coordinates":[106.7900134,-6.174963],"type":"Point"},"properties":{"NAMA":"NEO SOHO MALL","TIPE_1":"HIBURAN DAN KESENIAN","TIPE_2":"PUSAT PERBELANJAAN","TIPE_3":"-","TELEPON":"","ALAMAT":"JL. LETJEN S. PARMAN NO.28, RT.3/RW.5, TJ. DUREN SEL., KEC. GROGOL PETAMBURAN, KOTA JAKARTA BARAT, DAERAH KHUSUS IBUKOTA JAKARTA 11470","ID_PROV":"31","PROVINSI":"DKI JAKARTA","ID_KABKOT":"31.73","KABKOT":"KOTA ADM. JAKARTA BARAT","ID_KEC":"31.73.02","KECAMATAN":"GROGOL PETAMBURAN","ID_DESA":"31.73.02.1005","DESA":"TANJUNG DUREN SELATAN","LONGITUDE":"106.79001339999999","LATITUDE":"-6.174963","STATUS":"BUKA","TANGGAL PE":"Q2 2025","TANGGAL UP":"27/05/2025"}},{"type":"Feature","geometry":{"coordinates":[106.7965048,-6.1892704],"type":"Point"},"properties":{"NAMA":"PLAZA SLIPI JAYA","TIPE_1":"HIBURAN DAN KESENIAN","TIPE_2":"PUSAT PERBELANJAAN","TIPE_3":"-","TELEPON":"(021) 5304023","ALAMAT":"JL. LETJEN S. PARMAN, RT.14/RW.1, KEMANGGISAN, KEC. PALMERAH, KOTA JAKARTA BARAT, DAERAH KHUSUS IBUKOTA JAKARTA 11480","ID_PROV":"31","PROVINSI":"DKI JAKARTA","ID_KABKOT":"31.73","KABKOT":"KOTA ADM. JAKARTA BARAT","ID_KEC":"31.73.07","KECAMATAN":"PAL MERAH","ID_DESA":"31.73.07.1005","DESA":"KEMANGGISAN","LONGITUDE":"106.7965048","LATITUDE":"-6.1892704","STATUS":"BUKA","TANGGAL PE":"Q2 2025","TANGGAL UP":"27/05/2025"}},{"type":"Feature","geometry":{"coordinates":[106.7334903,-6.1890657],"type":"Point"},"properties":{"NAMA":"PURI INDAH EXPANSION MALL","TIPE_1":"HIBURAN DAN KESENIAN","TIPE_2":"PUSAT PERBELANJAAN","TIPE_3":"-","TELEPON":"","ALAMAT":"MALL PURI INDAH, JL. PURI INDAH RAYA, RT.1/RW.8, SOUTH KEMBANGAN, KEMBANGAN, WEST JAKARTA CITY, JAKARTA 11610","ID_PROV":"31","PROVINSI":"DKI JAKARTA","ID_KABKOT":"31.73","KABKOT":"KOTA ADM. JAKARTA BARAT","ID_KEC":"31.73.08","KECAMATAN":"KEMBANGAN","ID_DESA":"31.73.08.1006","DESA":"KEMBANGAN SELATAN","LONGITUDE":"106.7334903","LATITUDE":"-6.1890657","STATUS":"BUKA","TANGGAL PE":"Q2 2025","TANGGAL UP":"27/05/2025"}},{"type":"Feature","geometry":{"coordinates":[106.7334914,-6.1890746],"type":"Point"},"properties":{"NAMA":"PURI INDAH MALL","TIPE_1":"HIBURAN DAN KESENIAN","TIPE_2":"PUSAT PERBELANJAAN","TIPE_3":"-","TELEPON":"(021) 5822582","ALAMAT":"JL. PURI AGUNG NO.1, KEMBANGAN SEL., KEC. KEMBANGAN, KOTA JAKARTA BARAT, DAERAH KHUSUS IBUKOTA JAKARTA 11610","ID_PROV":"31","PROVINSI":"DKI JAKARTA","ID_KABKOT":"31.73","KABKOT":"KOTA ADM. JAKARTA BARAT","ID_KEC":"31.73.08","KECAMATAN":"KEMBANGAN","ID_DESA":"31.73.08.1006","DESA":"KEMBANGAN SELATAN","LONGITUDE":"106.73349139999999","LATITUDE":"-6.1890746","STATUS":"BUKA","TANGGAL PE":"Q2 2025","TANGGAL UP":"27/05/2025"}},{"type":"Feature","geometry":{"coordinates":[106.7329946,-6.1874669],"type":"Point"},"properties":{"NAMA":"PURI INDAH MALL 2","TIPE_1":"HIBURAN DAN KESENIAN","TIPE_2":"PUSAT PERBELANJAAN","TIPE_3":"-","TELEPON":"(021) 5822582","ALAMAT":"JL. PURI INDAH RAYA NO.RT.1 BLOK Q.2, RT.1/RW.2, SOUTH KEMBANGAN, KEMBANGAN, WEST JAKARTA CITY, JAKARTA 11610","ID_PROV":"31","PROVINSI":"DKI JAKARTA","ID_KABKOT":"31.73","KABKOT":"KOTA ADM. JAKARTA BARAT","ID_KEC":"31.73.08","KECAMATAN":"KEMBANGAN","ID_DESA":"31.73.08.1006","DESA":"KEMBANGAN SELATAN","LONGITUDE":"106.7329946","LATITUDE":"-6.1874669","STATUS":"BUKA","TANGGAL PE":"Q2 2025","TANGGAL UP":"27/05/2025"}},{"type":"Feature","geometry":{"coordinates":[106.8163765,-6.1424079],"type":"Point"},"properties":{"NAMA":"TEXTRONIX PLAZA","TIPE_1":"HIBURAN DAN KESENIAN","TIPE_2":"PUSAT PERBELANJAAN","TIPE_3":"-","TELEPON":"(021) 6395266","ALAMAT":"JL. MANGGA BESAR 1 NO.25, RT.1/RW.6, MANGGA BESAR, KEC. TAMAN SARI, KOTA JAKARTA BARAT, DAERAH KHUSUS IBUKOTA JAKARTA 11180","ID_PROV":"31","PROVINSI":"DKI JAKARTA","ID_KABKOT":"31.73","KABKOT":"KOTA ADM. JAKARTA BARAT","ID_KEC":"31.73.03","KECAMATAN":"TAMAN SARI","ID_DESA":"31.73.03.1005","DESA":"MANGGA BESAR","LONGITUDE":"106.81637649999999","LATITUDE":"-6.142407899999999","STATUS":"BUKA","TANGGAL PE":"Q2 2025","TANGGAL UP":"27/05/2025"}},{"type":"Feature","geometry":{"coordinates":[106.7659789,-6.1729507],"type":"Point"},"properties":{"NAMA":"WANG PLAZA","TIPE_1":"HIBURAN DAN KESENIAN","TIPE_2":"PUSAT PERBELANJAAN","TIPE_3":"-","TELEPON":"0852-1064-0248","ALAMAT":"JL. PANJANG NO.KAV 17, RT.14/RW.7, KEDOYA UTARA, KEC. KB. JERUK, JAKARTA, DAERAH KHUSUS IBUKOTA JAKARTA 11520","ID_PROV":"31","PROVINSI":"DKI JAKARTA","ID_KABKOT":"31.73","KABKOT":"KOTA ADM. JAKARTA BARAT","ID_KEC":"31.73.05","KECAMATAN":"KEBON JERUK","ID_DESA":"31.73.05.1006","DESA":"KEDOYA UTARA","LONGITUDE":"106.7659789","LATITUDE":"-6.172950699999999","STATUS":"BUKA","TANGGAL PE":"Q2 2025","TANGGAL UP":"27/05/2025"}}]}