{"type":"FeatureCollection","features":[{"type":"Feature","geometry":{"coordinates":[106.991489,-6.2466482],"type":"Point"},"properties":{"NAMA":"BEKASI CYBER PARK MALL","TIPE_1":"HIBURAN DAN KESENIAN","TIPE_2":"PUSAT PERBELANJAAN","TIPE_3":"-","TELEPON":"","ALAMAT":"JL. KH. NOER ALI NO.177, RT.001/RW.005, KAYURINGIN JAYA, KEC. BEKASI SEL., KOTA BKS, JAWA BARAT 17144","ID_PROV":"32","PROVINSI":"JAWA BARAT","ID_KABKOT":"32.75","KABKOT":"KOTA BEKASI","ID_KEC":"32.75.04","KECAMATAN":"BEKASI SELATAN","ID_DESA":"32.75.04.1005","DESA":"KAYURINGINJAYA","LONGITUDE":"106.991489","LATITUDE":"-6.2466482","STATUS":"BUKA","TANGGAL PE":"Q2 2025","TANGGAL UP":"27/05/2025"}},{"type":"Feature","geometry":{"coordinates":[107.0202758,-6.2596012],"type":"Point"},"properties":{"NAMA":"BEKASI TRADE CENTER MALL 1","TIPE_1":"HIBURAN DAN KESENIAN","TIPE_2":"PUSAT PERBELANJAAN","TIPE_3":"-","TELEPON":"","ALAMAT":"JL. HM. JOYO MARTONO, RT.002/RW.021, MARGAHAYU, BEKASI TIMUR, BEKASI, WEST JAVA","ID_PROV":"32","PROVINSI":"JAWA BARAT","ID_KABKOT":"32.75","KABKOT":"KOTA BEKASI","ID_KEC":"32.75.01","KECAMATAN":"BEKASI TIMUR","ID_DESA":"32.75.01.1002","DESA":"MARGAHAYU","LONGITUDE":"107.0202758","LATITUDE":"-6.2596012","STATUS":"BUKA","TANGGAL PE":"Q2 2025","TANGGAL UP":"27/05/2025"}},{"type":"Feature","geometry":{"coordinates":[107.021227,-6.2583401],"type":"Point"},"properties":{"NAMA":"BEKASI TRADE CENTER MALL 2","TIPE_1":"HIBURAN DAN KESENIAN","TIPE_2":"PUSAT PERBELANJAAN","TIPE_3":"-","TELEPON":"","ALAMAT":"JL. HM. JOYO MARTONO NO.42 DE, RT.003/RW.021, MARGAHAYU, KEC. BEKASI TIM., KOTA BKS, JAWA BARAT 17113","ID_PROV":"32","PROVINSI":"JAWA BARAT","ID_KABKOT":"32.75","KABKOT":"KOTA BEKASI","ID_KEC":"32.75.01","KECAMATAN":"BEKASI TIMUR","ID_DESA":"32.75.01.1002","DESA":"MARGAHAYU","LONGITUDE":"107.021227","LATITUDE":"-6.2583401","STATUS":"BUKA","TANGGAL PE":"Q2 2025","TANGGAL UP":"27/05/2025"}},{"type":"Feature","geometry":{"coordinates":[107.0078702,-6.2559998],"type":"Point"},"properties":{"NAMA":"BLU PLAZA","TIPE_1":"HIBURAN DAN KESENIAN","TIPE_2":"PUSAT PERBELANJAAN","TIPE_3":"-","TELEPON":"(021) 8823555","ALAMAT":"JL. CHAIRIL ANWAR NO.27-36, RT.004/RW.009, MARGAHAYU, BEKASI TIMUR, BEKASI, WEST JAVA 17113","ID_PROV":"32","PROVINSI":"JAWA BARAT","ID_KABKOT":"32.75","KABKOT":"KOTA BEKASI","ID_KEC":"32.75.01","KECAMATAN":"BEKASI TIMUR","ID_DESA":"32.75.01.1002","DESA":"MARGAHAYU","LONGITUDE":"107.0078702","LATITUDE":"-6.2559998","STATUS":"BUKA","TANGGAL PE":"Q2 2025","TANGGAL UP":"27/05/2025"}},{"type":"Feature","geometry":{"coordinates":[107.0212132,-6.2583361],"type":"Point"},"properties":{"NAMA":"BTC MALL (GP MALL)","TIPE_1":"HIBURAN DAN KESENIAN","TIPE_2":"PUSAT PERBELANJAAN","TIPE_3":"-","TELEPON":"","ALAMAT":"JL. HM. JOYO MARTONO, RT.003/RW.021, MARGAHAYU, KEC. BEKASI TIM., KOTA BKS, JAWA BARAT 17113","ID_PROV":"32","PROVINSI":"JAWA BARAT","ID_KABKOT":"32.75","KABKOT":"KOTA BEKASI","ID_KEC":"32.75.01","KECAMATAN":"BEKASI TIMUR","ID_DESA":"32.75.01.1002","DESA":"MARGAHAYU","LONGITUDE":"107.02121319999999","LATITUDE":"-6.258336099999999","STATUS":"BUKA","TANGGAL PE":"Q2 2025","TANGGAL UP":"27/05/2025"}},{"type":"Feature","geometry":{"coordinates":[107.0193067,-6.2619468],"type":"Point"},"properties":{"NAMA":"GREEN WALK MALL","TIPE_1":"HIBURAN DAN KESENIAN","TIPE_2":"PUSAT PERBELANJAAN","TIPE_3":"-","TELEPON":"0858-8032-2464","ALAMAT":"JL. HM. JOYO MARTONO NO.KM 16, MARGAHAYU, KEC. BEKASI TIM., KOTA BKS, JAWA BARAT 17113","ID_PROV":"32","PROVINSI":"JAWA BARAT","ID_KABKOT":"32.75","KABKOT":"KOTA BEKASI","ID_KEC":"32.75.01","KECAMATAN":"BEKASI TIMUR","ID_DESA":"32.75.01.1002","DESA":"MARGAHAYU","LONGITUDE":"107.0193067","LATITUDE":"-6.2619468","STATUS":"BUKA","TANGGAL PE":"Q2 2025","TANGGAL UP":"27/05/2025"}},{"type":"Feature","geometry":{"coordinates":[106.98490179999999,-6.2491992],"type":"Point"},"properties":{"NAMA":"JEMBATAN GRAND METROMALL","TIPE_1":"HIBURAN DAN KESENIAN","TIPE_2":"PUSAT PERBELANJAAN","TIPE_3":"-","TELEPON":"0821-2285-3948","ALAMAT":"GRAND METROPOLITAN, JL. KH. NOER ALI, RT.007/RW.003, PEKAYON JAYA, KEC. BEKASI SEL., KOTA BKS, JAWA BARAT 17148","ID_PROV":"32","PROVINSI":"JAWA BARAT","ID_KABKOT":"32.75","KABKOT":"KOTA BEKASI","ID_KEC":"32.75.04","KECAMATAN":"BEKASI SELATAN","ID_DESA":"32.75.04.1001","DESA":"PEKAYONJAYA","LONGITUDE":"106.98490179999999","LATITUDE":"-6.2491992","STATUS":"BUKA","TANGGAL PE":"Q2 2025","TANGGAL UP":"27/05/2025"}},{"type":"Feature","geometry":{"coordinates":[106.97860809999999,-6.2508211],"type":"Point"},"properties":{"NAMA":"LAGOON AVENUE MALL BEKASI","TIPE_1":"HIBURAN DAN KESENIAN","TIPE_2":"PUSAT PERBELANJAAN","TIPE_3":"-","TELEPON":"(021) 82773177","ALAMAT":"KAWASAN GRAND KAMALA LAGOON, JL CHANDRABHAGA, RT.006/RW.003, PEKAYON JAYA, KEC. BEKASI SEL., KOTA BKS, JAWA BARAT 17148","ID_PROV":"32","PROVINSI":"JAWA BARAT","ID_KABKOT":"32.75","KABKOT":"KOTA BEKASI","ID_KEC":"32.75.04","KECAMATAN":"BEKASI SELATAN","ID_DESA":"32.75.04.1001","DESA":"PEKAYONJAYA","LONGITUDE":"106.97860809999999","LATITUDE":"-6.2508211","STATUS":"BUKA","TANGGAL PE":"Q2 2025","TANGGAL UP":"27/05/2025"}},{"type":"Feature","geometry":{"coordinates":[106.9744469,-6.1842945],"type":"Point"},"properties":{"NAMA":"LIVING PLAZA - KOTA HARAPAN INDAH","TIPE_1":"HIBURAN DAN KESENIAN","TIPE_2":"PUSAT PERBELANJAAN","TIPE_3":"-","TELEPON":"","ALAMAT":"JL. HARAPAN INDAH BOULEVARD, RT.005/RW.010, MEDAN SATRIA, KECAMATAN MEDAN SATRIA, KOTA BKS, JAWA BARAT 17132","ID_PROV":"32","PROVINSI":"JAWA BARAT","ID_KABKOT":"32.75","KABKOT":"KOTA BEKASI","ID_KEC":"32.75.06","KECAMATAN":"MEDANSATRIA","ID_DESA":"32.75.06.1001","DESA":"MEDANSATRIA","LONGITUDE":"106.97444689999999","LATITUDE":"-6.1842945","STATUS":"BUKA","TANGGAL PE":"Q2 2025","TANGGAL UP":"27/05/2025"}},{"type":"Feature","geometry":{"coordinates":[106.9259408,-6.3830901],"type":"Point"},"properties":{"NAMA":"MALL CITRA GRAND","TIPE_1":"HIBURAN DAN KESENIAN","TIPE_2":"PUSAT PERBELANJAAN","TIPE_3":"-","TELEPON":"","ALAMAT":"RT.005/RW.011, JATIKARYA, KEC. JATISAMPURNA, KOTA BKS, JAWA BARAT 17435","ID_PROV":"32","PROVINSI":"JAWA BARAT","ID_KABKOT":"32.75","KABKOT":"KOTA BEKASI","ID_KEC":"32.75.10","KECAMATAN":"JATISAMPURNA","ID_DESA":"32.75.10.1002","DESA":"JATIKARYA","LONGITUDE":"106.92594079999999","LATITUDE":"-6.3830901","STATUS":"BUKA","TANGGAL PE":"Q2 2025","TANGGAL UP":"27/05/2025"}},{"type":"Feature","geometry":{"coordinates":[106.9845353,-6.2491162],"type":"Point"},"properties":{"NAMA":"MALL GRAND METROPOLITAN BEKASI","TIPE_1":"HIBURAN DAN KESENIAN","TIPE_2":"PUSAT PERBELANJAAN","TIPE_3":"-","TELEPON":"(021) 29464646","ALAMAT":"JL. KH. NOER ALI, RT.007/RW.003, PEKAYON JAYA, KEC. BEKASI SEL., KOTA BKS, JAWA BARAT 17148","ID_PROV":"32","PROVINSI":"JAWA BARAT","ID_KABKOT":"32.75","KABKOT":"KOTA BEKASI","ID_KEC":"32.75.04","KECAMATAN":"BEKASI SELATAN","ID_DESA":"32.75.04.1001","DESA":"PEKAYONJAYA","LONGITUDE":"106.98453529999999","LATITUDE":"-6.2491162","STATUS":"BUKA","TANGGAL PE":"Q2 2025","TANGGAL UP":"27/05/2025"}},{"type":"Feature","geometry":{"coordinates":[106.9926132,-6.2495371],"type":"Point"},"properties":{"NAMA":"MEGA BEKASI HYPERMALL","TIPE_1":"HIBURAN DAN KESENIAN","TIPE_2":"PUSAT PERBELANJAAN","TIPE_3":"-","TELEPON":"","ALAMAT":"JL. AHMAD YANI NO.1, RT.004/RW.001, MARGA JAYA, KEC. BEKASI SEL., KOTA BKS, JAWA BARAT 17141","ID_PROV":"32","PROVINSI":"JAWA BARAT","ID_KABKOT":"32.75","KABKOT":"KOTA BEKASI","ID_KEC":"32.75.04","KECAMATAN":"BEKASI SELATAN","ID_DESA":"32.75.04.1002","DESA":"MARGAJAYA","LONGITUDE":"106.9926132","LATITUDE":"-6.2495371","STATUS":"BUKA","TANGGAL PE":"Q2 2025","TANGGAL UP":"27/05/2025"}},{"type":"Feature","geometry":{"coordinates":[106.9911162,-6.248458],"type":"Point"},"properties":{"NAMA":"METROPOLITAN MALL BEKASI","TIPE_1":"HIBURAN DAN KESENIAN","TIPE_2":"PUSAT PERBELANJAAN","TIPE_3":"-","TELEPON":"(021) 8855555","ALAMAT":"JL. KH. NOER ALI, PEKAYON JAYA, KEC. BEKASI SEL., KOTA BKS, JAWA BARAT 17148","ID_PROV":"32","PROVINSI":"JAWA BARAT","ID_KABKOT":"32.75","KABKOT":"KOTA BEKASI","ID_KEC":"32.75.04","KECAMATAN":"BEKASI SELATAN","ID_DESA":"32.75.04.1001","DESA":"PEKAYONJAYA","LONGITUDE":"106.9911162","LATITUDE":"-6.248457999999999","STATUS":"BUKA","TANGGAL PE":"Q2 2025","TANGGAL UP":"27/05/2025"}},{"type":"Feature","geometry":{"coordinates":[106.9896919,-6.2558744],"type":"Point"},"properties":{"NAMA":"PAKUWON MALL BEKASI","TIPE_1":"HIBURAN DAN KESENIAN","TIPE_2":"PUSAT PERBELANJAAN","TIPE_3":"-","TELEPON":"(021) 80609888","ALAMAT":"JL. RAYA PEKAYON NO.002, PEKAYON JAYA, KEC. BEKASI SEL., KOTA BKS, JAWA BARAT 17148","ID_PROV":"32","PROVINSI":"JAWA BARAT","ID_KABKOT":"32.75","KABKOT":"KOTA BEKASI","ID_KEC":"32.75.04","KECAMATAN":"BEKASI SELATAN","ID_DESA":"32.75.04.1001","DESA":"PEKAYONJAYA","LONGITUDE":"106.9896919","LATITUDE":"-6.2558744","STATUS":"BUKA","TANGGAL PE":"Q2 2025","TANGGAL UP":"27/05/2025"}},{"type":"Feature","geometry":{"coordinates":[106.9950768,-6.1832795],"type":"Point"},"properties":{"NAMA":"PLAZA TAMAN HARAPAN BARU","TIPE_1":"HIBURAN DAN KESENIAN","TIPE_2":"PUSAT PERBELANJAAN","TIPE_3":"-","TELEPON":"","ALAMAT":"RT.001/RW.021, PEJUANG, MEDAN SATRIA, BEKASI, WEST JAVA 17125","ID_PROV":"32","PROVINSI":"JAWA BARAT","ID_KABKOT":"32.75","KABKOT":"KOTA BEKASI","ID_KEC":"32.75.06","KECAMATAN":"MEDANSATRIA","ID_DESA":"32.75.06.1003","DESA":"PEJUANG","LONGITUDE":"106.99507679999999","LATITUDE":"-6.183279499999999","STATUS":"BUKA","TANGGAL PE":"Q2 2025","TANGGAL UP":"27/05/2025"}},{"type":"Feature","geometry":{"coordinates":[107.0149775,-6.2208106],"type":"Point"},"properties":{"NAMA":"PRIMA TRADEMALL BEKASI","TIPE_1":"HIBURAN DAN KESENIAN","TIPE_2":"PUSAT PERBELANJAAN","TIPE_3":"-","TELEPON":"(021) 22163967","ALAMAT":"JL. RAYA PERJUANGAN NO.1, RT.001/RW.012, HARAPAN BARU, KEC. BEKASI UTARA, KOTA BKS, JAWA BARAT 17123","ID_PROV":"32","PROVINSI":"JAWA BARAT","ID_KABKOT":"32.75","KABKOT":"KOTA BEKASI","ID_KEC":"32.75.03","KECAMATAN":"BEKASI UTARA","ID_DESA":"32.75.03.1003","DESA":"HARAPANBARU","LONGITUDE":"107.0149775","LATITUDE":"-6.2208106","STATUS":"BUKA","TANGGAL PE":"Q2 2025","TANGGAL UP":"27/05/2025"}},{"type":"Feature","geometry":{"coordinates":[106.9898243,-6.2548794],"type":"Point"},"properties":{"NAMA":"REVO MALL","TIPE_1":"HIBURAN DAN KESENIAN","TIPE_2":"PUSAT PERBELANJAAN","TIPE_3":"-","TELEPON":"(021) 82432212","ALAMAT":"JL. AHMAD YANI NO.KAV. 1, RT.005/RW.002, PEKAYON JAYA, KEC. BEKASI SEL., KOTA BKS, JAWA BARAT 17148","ID_PROV":"32","PROVINSI":"JAWA BARAT","ID_KABKOT":"32.75","KABKOT":"KOTA BEKASI","ID_KEC":"32.75.04","KECAMATAN":"BEKASI SELATAN","ID_DESA":"32.75.04.1001","DESA":"PEKAYONJAYA","LONGITUDE":"106.9898243","LATITUDE":"-6.2548794","STATUS":"BUKA","TANGGAL PE":"Q2 2025","TANGGAL UP":"27/05/2025"}},{"type":"Feature","geometry":{"coordinates":[107.0027109,-6.2344898],"type":"Point"},"properties":{"NAMA":"SUMARECON MALL","TIPE_1":"HIBURAN DAN KESENIAN","TIPE_2":"PUSAT PERBELANJAAN","TIPE_3":"-","TELEPON":"","ALAMAT":"GG. BAMBU KUNING NO.35, RT.002/RW.008, MARGA MULYA, KEC. BEKASI UTARA, KOTA BKS, JAWA BARAT 17142","ID_PROV":"32","PROVINSI":"JAWA BARAT","ID_KABKOT":"32.75","KABKOT":"KOTA BEKASI","ID_KEC":"32.75.03","KECAMATAN":"BEKASI UTARA","ID_DESA":"32.75.03.1005","DESA":"MARGAMULYA","LONGITUDE":"107.0027109","LATITUDE":"-6.2344898","STATUS":"BUKA","TANGGAL PE":"Q2 2025","TANGGAL UP":"27/05/2025"}},{"type":"Feature","geometry":{"coordinates":[107.00107639999999,-6.2261276],"type":"Point"},"properties":{"NAMA":"SUMMARECON MALL BEKASI","TIPE_1":"HIBURAN DAN KESENIAN","TIPE_2":"PUSAT PERBELANJAAN","TIPE_3":"-","TELEPON":"(021) 29572888","ALAMAT":"SENTRA SUMMARECON BEKASI, JL. BOULEVARD AHMAD YANI, MARGA MULYA, KEC. BEKASI UTARA, KOTA BKS, JAWA BARAT 17142","ID_PROV":"32","PROVINSI":"JAWA BARAT","ID_KABKOT":"32.75","KABKOT":"KOTA BEKASI","ID_KEC":"32.75.03","KECAMATAN":"BEKASI UTARA","ID_DESA":"32.75.03.1005","DESA":"MARGAMULYA","LONGITUDE":"107.00107639999999","LATITUDE":"-6.2261276","STATUS":"BUKA","TANGGAL PE":"Q2 2025","TANGGAL UP":"27/05/2025"}},{"type":"Feature","geometry":{"coordinates":[107.0221717,-6.2111906],"type":"Point"},"properties":{"NAMA":"SUMMARECON MALL BEKASI","TIPE_1":"HIBURAN DAN KESENIAN","TIPE_2":"PUSAT PERBELANJAAN","TIPE_3":"-","TELEPON":"","ALAMAT":"RT.012/RW.014, HARAPAN BARU, KEC. BEKASI UTARA, KOTA BKS, JAWA BARAT 17123","ID_PROV":"32","PROVINSI":"JAWA BARAT","ID_KABKOT":"32.75","KABKOT":"KOTA BEKASI","ID_KEC":"32.75.03","KECAMATAN":"BEKASI UTARA","ID_DESA":"32.75.03.1003","DESA":"HARAPANBARU","LONGITUDE":"107.0221717","LATITUDE":"-6.2111906","STATUS":"BUKA","TANGGAL PE":"Q2 2025","TANGGAL UP":"27/05/2025"}},{"type":"Feature","geometry":{"coordinates":[107.0076131,-6.2558628],"type":"Point"},"properties":{"NAMA":"TRANSMART BLUE MALL BEKASI","TIPE_1":"HIBURAN DAN KESENIAN","TIPE_2":"PUSAT PERBELANJAAN","TIPE_3":"-","TELEPON":"","ALAMAT":"RT.006/RW.009, MARGAHAYU, KEC. BEKASI TIM., KOTA BKS, JAWA BARAT 17113","ID_PROV":"32","PROVINSI":"JAWA BARAT","ID_KABKOT":"32.75","KABKOT":"KOTA BEKASI","ID_KEC":"32.75.01","KECAMATAN":"BEKASI TIMUR","ID_DESA":"32.75.01.1002","DESA":"MARGAHAYU","LONGITUDE":"107.0076131","LATITUDE":"-6.2558628","STATUS":"BUKA","TANGGAL PE":"Q2 2025","TANGGAL UP":"27/05/2025"}}]}