{"type":"FeatureCollection","features":[{"type":"Feature","geometry":{"coordinates":[106.6432014,-6.3052093],"type":"Point"},"properties":{"NAMA":"AEON MALL BSD CITY","TIPE_1":"HIBURAN DAN KESENIAN","TIPE_2":"PUSAT PERBELANJAAN","TIPE_3":"-","TELEPON":"(021) 29168585","ALAMAT":"JL. BSD RAYA UTAMA, PAGEDANGAN, KEC. PAGEDANGAN, KABUPATEN TANGERANG, BANTEN 15339","ID_PROV":"36","PROVINSI":"BANTEN","ID_KABKOT":"36.03","KABKOT":"TANGERANG","ID_KEC":"36.03.22","KECAMATAN":"PAGEDANGAN","ID_DESA":"36.03.22.2003","DESA":"PAGEDANGAN","LONGITUDE":"106.6432014","LATITUDE":"-6.3052093","STATUS":"BUKA","TANGGAL PE":"Q2 2025","TANGGAL UP":"27/05/2025"}},{"type":"Feature","geometry":{"coordinates":[106.4575507,-6.1977892],"type":"Point"},"properties":{"NAMA":"BALARAJA PLAZA","TIPE_1":"HIBURAN DAN KESENIAN","TIPE_2":"PUSAT PERBELANJAAN","TIPE_3":"-","TELEPON":"","ALAMAT":"JL. RAYA SERANG, BALARAJA, KEC. BALARAJA, KABUPATEN TANGERANG, BANTEN 15610","ID_PROV":"36","PROVINSI":"BANTEN","ID_KABKOT":"36.03","KABKOT":"TANGERANG","ID_KEC":"36.03.01","KECAMATAN":"BALARAJA","ID_DESA":"36.03.01.2005","DESA":"TALAGASARI","LONGITUDE":"106.4575507","LATITUDE":"-6.1977892","STATUS":"BUKA","TANGGAL PE":"Q2 2025","TANGGAL UP":"27/05/2025"}},{"type":"Feature","geometry":{"coordinates":[106.6921236,-6.0924118],"type":"Point"},"properties":{"NAMA":"BANDARA CITY MALL","TIPE_1":"HIBURAN DAN KESENIAN","TIPE_2":"PUSAT PERBELANJAAN","TIPE_3":"-","TELEPON":"(021) 5555268","ALAMAT":"JL. WIJAYA KUSUMA 3 NO.21, RT.2/RW.7, DADAP, KEC. KOSAMBI, KABUPATEN TANGERANG, BANTEN 15211","ID_PROV":"36","PROVINSI":"BANTEN","ID_KABKOT":"36.03","KABKOT":"TANGERANG","ID_KEC":"36.03.14","KECAMATAN":"KOSAMBI","ID_DESA":"36.03.14.1010","DESA":"DADAP","LONGITUDE":"106.6921236","LATITUDE":"-6.0924118","STATUS":"BUKA","TANGGAL PE":"Q2 2025","TANGGAL UP":"27/05/2025"}},{"type":"Feature","geometry":{"coordinates":[106.6306189,-6.2699041],"type":"Point"},"properties":{"NAMA":"CARSTENSZ MALL","TIPE_1":"HIBURAN DAN KESENIAN","TIPE_2":"PUSAT PERBELANJAAN","TIPE_3":"-","TELEPON":"0812-9070-0800","ALAMAT":"JL. JENDERAL SUDIRMAN NO.1, CIHUNI, KEC. PAGEDANGAN, KABUPATEN TANGERANG, BANTEN 15332","ID_PROV":"36","PROVINSI":"BANTEN","ID_KABKOT":"36.03","KABKOT":"TANGERANG","ID_KEC":"36.03.22","KECAMATAN":"PAGEDANGAN","ID_DESA":"36.03.22.1004","DESA":"MEDANG","LONGITUDE":"106.6306189","LATITUDE":"-6.2699041","STATUS":"BUKA","TANGGAL PE":"Q2 2025","TANGGAL UP":"27/05/2025"}},{"type":"Feature","geometry":{"coordinates":[106.5808019,-6.153098],"type":"Point"},"properties":{"NAMA":"CITIPLAZA KUTABUMI","TIPE_1":"HIBURAN DAN KESENIAN","TIPE_2":"PUSAT PERBELANJAAN","TIPE_3":"-","TELEPON":"(021) 59715050","ALAMAT":"JL. RAYA KUTABUMI NO.9, RT.5/RW.5, KUTA BARU, KEC. PS. KEMIS, KABUPATEN TANGERANG, BANTEN 15560","ID_PROV":"36","PROVINSI":"BANTEN","ID_KABKOT":"36.03","KABKOT":"TANGERANG","ID_KEC":"36.03.12","KECAMATAN":"PASAR KEMIS","ID_DESA":"36.03.12.1014","DESA":"KUTA BARU","LONGITUDE":"106.5808019","LATITUDE":"-6.153098","STATUS":"BUKA","TANGGAL PE":"Q2 2025","TANGGAL UP":"27/05/2025"}},{"type":"Feature","geometry":{"coordinates":[106.69243979999999,-6.0921165],"type":"Point"},"properties":{"NAMA":"GRAND DADAP CITY MALL","TIPE_1":"HIBURAN DAN KESENIAN","TIPE_2":"PUSAT PERBELANJAAN","TIPE_3":"-","TELEPON":"(021) 22556688","ALAMAT":"JL. VILLA TAMAN BANDARA, DADAP, KEC. KOSAMBI, KABUPATEN TANGERANG, BANTEN 15211","ID_PROV":"36","PROVINSI":"BANTEN","ID_KABKOT":"36.03","KABKOT":"TANGERANG","ID_KEC":"36.03.14","KECAMATAN":"KOSAMBI","ID_DESA":"36.03.14.1010","DESA":"DADAP","LONGITUDE":"106.69243979999999","LATITUDE":"-6.092116499999999","STATUS":"BUKA","TANGGAL PE":"Q2 2025","TANGGAL UP":"27/05/2025"}},{"type":"Feature","geometry":{"coordinates":[106.6163965,-6.2569783],"type":"Point"},"properties":{"NAMA":"SDC MALL SCIENTIA","TIPE_1":"HIBURAN DAN KESENIAN","TIPE_2":"PUSAT PERBELANJAAN","TIPE_3":"-","TELEPON":"","ALAMAT":"JL. SCIENTIA BOULEVARD, CURUG SANGERENG, KEC. KLP. DUA, KABUPATEN TANGERANG, BANTEN 15810","ID_PROV":"36","PROVINSI":"BANTEN","ID_KABKOT":"36.03","KABKOT":"TANGERANG","ID_KEC":"36.03.28","KECAMATAN":"KELAPA DUA","ID_DESA":"36.03.28.2006","DESA":"CURUG SANGERENG","LONGITUDE":"106.6163965","LATITUDE":"-6.2569783","STATUS":"BUKA","TANGGAL PE":"Q2 2025","TANGGAL UP":"27/05/2025"}},{"type":"Feature","geometry":{"coordinates":[106.6288212,-6.2409034],"type":"Point"},"properties":{"NAMA":"SUMMARECON MALL SERPONG","TIPE_1":"HIBURAN DAN KESENIAN","TIPE_2":"PUSAT PERBELANJAAN","TIPE_3":"-","TELEPON":"(021) 5460888","ALAMAT":"JL. BOULEVARD RAYA GADING SERPONG, PAKULONAN BAR., KEC. KLP. DUA, KABUPATEN TANGERANG, BANTEN 15810","ID_PROV":"36","PROVINSI":"BANTEN","ID_KABKOT":"36.03","KABKOT":"TANGERANG","ID_KEC":"36.03.28","KECAMATAN":"KELAPA DUA","ID_DESA":"36.03.28.1004","DESA":"PAKULONAN BARAT","LONGITUDE":"106.62882119999999","LATITUDE":"-6.2409034","STATUS":"BUKA","TANGGAL PE":"Q2 2025","TANGGAL UP":"27/05/2025"}}]}