{"type":"FeatureCollection","features":[{"type":"Feature","geometry":{"coordinates":[106.775631,-6.5563204],"type":"Point"},"properties":{"NAMA":"BOGOR GREAT MALL","TIPE_1":"HIBURAN DAN KESENIAN","TIPE_2":"PUSAT PERBELANJAAN","TIPE_3":"-","TELEPON":"","ALAMAT":"JL. KH. R. ABDULLAH BIN NUH, RT.05/RW.04, CIBADAK, KEC. TANAH SEREAL, KOTA BOGOR, JAWA BARAT 16166","ID_PROV":"32","PROVINSI":"JAWA BARAT","ID_KABKOT":"32.71","KABKOT":"KOTA BOGOR","ID_KEC":"32.71.06","KECAMATAN":"TANAH SAREAL","ID_DESA":"32.71.06.1011","DESA":"CIBADAK","LONGITUDE":"106.77563099999999","LATITUDE":"-6.5563204","STATUS":"BUKA","TANGGAL PE":"Q2 2025","TANGGAL UP":"27/05/2025"}},{"type":"Feature","geometry":{"coordinates":[106.7994546,-6.6036077],"type":"Point"},"properties":{"NAMA":"BOGOR YOGYA PLAZA","TIPE_1":"HIBURAN DAN KESENIAN","TIPE_2":"PUSAT PERBELANJAAN","TIPE_3":"-","TELEPON":"(0251) 83125278","ALAMAT":"JL. SURYAKENCANA NO.3, RT.03/RW.07, BABAKAN PS., KECAMATAN BOGOR TENGAH, KOTA BOGOR, JAWA BARAT 16126","ID_PROV":"32","PROVINSI":"JAWA BARAT","ID_KABKOT":"32.71","KABKOT":"KOTA BOGOR","ID_KEC":"32.71.03","KECAMATAN":"BOGOR TENGAH","ID_DESA":"32.71.03.1008","DESA":"BABAKAN PASAR","LONGITUDE":"106.79945459999999","LATITUDE":"-6.6036077","STATUS":"BUKA","TANGGAL PE":"Q2 2025","TANGGAL UP":"27/05/2025"}},{"type":"Feature","geometry":{"coordinates":[106.8267075,-6.6336406],"type":"Point"},"properties":{"NAMA":"BOXIES 123 MALL BOGOR","TIPE_1":"HIBURAN DAN KESENIAN","TIPE_2":"PUSAT PERBELANJAAN","TIPE_3":"-","TELEPON":"(0251) 8578123","ALAMAT":"JL. RAYA TAJUR NO.123, RT.01/RW.06, TAJUR, KEC. BOGOR TIM., KOTA BOGOR, JAWA BARAT 16141","ID_PROV":"32","PROVINSI":"JAWA BARAT","ID_KABKOT":"32.71","KABKOT":"KOTA BOGOR","ID_KEC":"32.71.02","KECAMATAN":"BOGOR TIMUR","ID_DESA":"32.71.02.1006","DESA":"TAJUR","LONGITUDE":"106.8267075","LATITUDE":"-6.6336406","STATUS":"BUKA","TANGGAL PE":"Q2 2025","TANGGAL UP":"27/05/2025"}},{"type":"Feature","geometry":{"coordinates":[106.7859461,-6.5957238],"type":"Point"},"properties":{"NAMA":"BTW MALL","TIPE_1":"HIBURAN DAN KESENIAN","TIPE_2":"PUSAT PERBELANJAAN","TIPE_3":"-","TELEPON":"","ALAMAT":"JL. VETERAN, RT.01/RW.03, PANARAGAN, KECAMATAN BOGOR TENGAH, KOTA BOGOR, JAWA BARAT 16125","ID_PROV":"32","PROVINSI":"JAWA BARAT","ID_KABKOT":"32.71","KABKOT":"KOTA BOGOR","ID_KEC":"32.71.03","KECAMATAN":"BOGOR TENGAH","ID_DESA":"32.71.03.1009","DESA":"PANARAGAN","LONGITUDE":"106.78594609999999","LATITUDE":"-6.5957238","STATUS":"BUKA","TANGGAL PE":"Q2 2025","TANGGAL UP":"27/05/2025"}},{"type":"Feature","geometry":{"coordinates":[106.7870817,-6.5958157],"type":"Point"},"properties":{"NAMA":"CITI PLAZA BOGOR (CIPAZ)","TIPE_1":"HIBURAN DAN KESENIAN","TIPE_2":"PUSAT PERBELANJAAN","TIPE_3":"-","TELEPON":"(0251) 8316288","ALAMAT":"JL. VETERAN NO.31, RT.01/RW.03, PANARAGAN, KECAMATAN BOGOR TENGAH, KOTA BOGOR, JAWA BARAT 16125","ID_PROV":"32","PROVINSI":"JAWA BARAT","ID_KABKOT":"32.71","KABKOT":"KOTA BOGOR","ID_KEC":"32.71.03","KECAMATAN":"BOGOR TENGAH","ID_DESA":"32.71.03.1009","DESA":"PANARAGAN","LONGITUDE":"106.7870817","LATITUDE":"-6.595815699999999","STATUS":"BUKA","TANGGAL PE":"Q2 2025","TANGGAL UP":"27/05/2025"}},{"type":"Feature","geometry":{"coordinates":[106.79250049999999,-6.5895112],"type":"Point"},"properties":{"NAMA":"DEWI SARTIKA PLAZA","TIPE_1":"HIBURAN DAN KESENIAN","TIPE_2":"PUSAT PERBELANJAAN","TIPE_3":"-","TELEPON":"(0251) 8314188","ALAMAT":"JALAN DEWI SARTIKA NO.1, CIBOGOR, RT.02/RW.01, PABATON, BOGOR TENGAH, BOGOR CITY, WEST JAVA 16124","ID_PROV":"32","PROVINSI":"JAWA BARAT","ID_KABKOT":"32.71","KABKOT":"KOTA BOGOR","ID_KEC":"32.71.03","KECAMATAN":"BOGOR TENGAH","ID_DESA":"32.71.03.1004","DESA":"CIBOGOR","LONGITUDE":"106.79250049999999","LATITUDE":"-6.5895112","STATUS":"BUKA","TANGGAL PE":"Q2 2025","TANGGAL UP":"27/05/2025"}},{"type":"Feature","geometry":{"coordinates":[106.8170643,-6.6216357],"type":"Point"},"properties":{"NAMA":"LIPPO PLAZA EKALOKASARI","TIPE_1":"HIBURAN DAN KESENIAN","TIPE_2":"PUSAT PERBELANJAAN","TIPE_3":"-","TELEPON":"(0251) 8318788","ALAMAT":"JL. SILIWANGI NO.123, RT.02/RW.01, SUKASARI, KEC. BOGOR TIM., KOTA BOGOR, JAWA BARAT 16142","ID_PROV":"32","PROVINSI":"JAWA BARAT","ID_KABKOT":"32.71","KABKOT":"KOTA BOGOR","ID_KEC":"32.71.02","KECAMATAN":"BOGOR TIMUR","ID_DESA":"32.71.02.1001","DESA":"SUKASARI","LONGITUDE":"106.8170643","LATITUDE":"-6.6216357","STATUS":"BUKA","TANGGAL PE":"Q2 2025","TANGGAL UP":"27/05/2025"}},{"type":"Feature","geometry":{"coordinates":[106.8057665,-6.5954656],"type":"Point"},"properties":{"NAMA":"LIPPO PLAZA KEBOEN RAYA","TIPE_1":"HIBURAN DAN KESENIAN","TIPE_2":"PUSAT PERBELANJAAN","TIPE_3":"-","TELEPON":"","ALAMAT":"JL. MALABAR 2 NO.17A, BABAKAN, KECAMATAN BOGOR TENGAH, KOTA BOGOR, JAWA BARAT 16129","ID_PROV":"32","PROVINSI":"JAWA BARAT","ID_KABKOT":"32.71","KABKOT":"KOTA BOGOR","ID_KEC":"32.71.03","KECAMATAN":"BOGOR TENGAH","ID_DESA":"32.71.03.1005","DESA":"BABAKAN","LONGITUDE":"106.80576649999999","LATITUDE":"-6.5954656","STATUS":"BUKA","TANGGAL PE":"Q2 2025","TANGGAL UP":"27/05/2025"}},{"type":"Feature","geometry":{"coordinates":[106.79579969999999,-6.6047283],"type":"Point"},"properties":{"NAMA":"MALL BTM BOGOR","TIPE_1":"HIBURAN DAN KESENIAN","TIPE_2":"PUSAT PERBELANJAAN","TIPE_3":"-","TELEPON":"(0251) 8401000","ALAMAT":"JL. IR. H. JUANDA NO.68, RT.01/RW.13, PALEDANG, KECAMATAN BOGOR TENGAH, KOTA BOGOR, JAWA BARAT 16122","ID_PROV":"32","PROVINSI":"JAWA BARAT","ID_KABKOT":"32.71","KABKOT":"KOTA BOGOR","ID_KEC":"32.71.03","KECAMATAN":"BOGOR TENGAH","ID_DESA":"32.71.03.1002","DESA":"PALEDANG","LONGITUDE":"106.79579969999999","LATITUDE":"-6.6047283","STATUS":"BUKA","TANGGAL PE":"Q2 2025","TANGGAL UP":"27/05/2025"}},{"type":"Feature","geometry":{"coordinates":[106.7937216,-6.6346217],"type":"Point"},"properties":{"NAMA":"MALL THE JUNGLE","TIPE_1":"HIBURAN DAN KESENIAN","TIPE_2":"PUSAT PERBELANJAAN","TIPE_3":"-","TELEPON":"","ALAMAT":"UNNAMED ROAD, RT.05/RW.12, MULYAHARJA, KEC. BOGOR SEL., KOTA BOGOR, JAWA BARAT 16135","ID_PROV":"32","PROVINSI":"JAWA BARAT","ID_KABKOT":"32.71","KABKOT":"KOTA BOGOR","ID_KEC":"32.71.01","KECAMATAN":"BOGOR SELATAN","ID_DESA":"32.71.01.1007","DESA":"MULYA HARJA","LONGITUDE":"106.7937216","LATITUDE":"-6.634621699999999","STATUS":"BUKA","TANGGAL PE":"Q2 2025","TANGGAL UP":"27/05/2025"}},{"type":"Feature","geometry":{"coordinates":[106.7872409,-6.5957131],"type":"Point"},"properties":{"NAMA":"PLAZA JEMBATAN MERAH","TIPE_1":"HIBURAN DAN KESENIAN","TIPE_2":"PUSAT PERBELANJAAN","TIPE_3":"-","TELEPON":"","ALAMAT":"JL. MANTARENA NO.19, RT.01/RW.03, PANARAGAN, KECAMATAN BOGOR TENGAH, KOTA BOGOR, JAWA BARAT 16125","ID_PROV":"32","PROVINSI":"JAWA BARAT","ID_KABKOT":"32.71","KABKOT":"KOTA BOGOR","ID_KEC":"32.71.03","KECAMATAN":"BOGOR TENGAH","ID_DESA":"32.71.03.1009","DESA":"PANARAGAN","LONGITUDE":"106.7872409","LATITUDE":"-6.595713099999999","STATUS":"BUKA","TANGGAL PE":"Q2 2025","TANGGAL UP":"27/05/2025"}},{"type":"Feature","geometry":{"coordinates":[106.8357784,-6.6412663],"type":"Point"},"properties":{"NAMA":"TAJUR TRADE MALL","TIPE_1":"HIBURAN DAN KESENIAN","TIPE_2":"PUSAT PERBELANJAAN","TIPE_3":"-","TELEPON":"","ALAMAT":"JL. RAYA TAJUR NO.112A, RT.02/RW.07, MUARASARI, KEC. BOGOR SEL., KOTA BOGOR, JAWA BARAT 16137","ID_PROV":"32","PROVINSI":"JAWA BARAT","ID_KABKOT":"32.71","KABKOT":"KOTA BOGOR","ID_KEC":"32.71.01","KECAMATAN":"BOGOR SELATAN","ID_DESA":"32.71.01.1013","DESA":"MUARA SARI","LONGITUDE":"106.8357784","LATITUDE":"-6.6412663","STATUS":"BUKA","TANGGAL PE":"Q2 2025","TANGGAL UP":"27/05/2025"}},{"type":"Feature","geometry":{"coordinates":[106.79308549999999,-6.5618493],"type":"Point"},"properties":{"NAMA":"YOGYA BOGOR INDAH PLAZA CIMANGGU","TIPE_1":"HIBURAN DAN KESENIAN","TIPE_2":"PUSAT PERBELANJAAN","TIPE_3":"-","TELEPON":"(0251) 8382093","ALAMAT":"JL. SHOLEH ISKANDAR NO.3, RT.04/RW.09, KEDUNGBADAK, KEC. TANAH SEREAL, KOTA BOGOR, JAWA BARAT 16165","ID_PROV":"32","PROVINSI":"JAWA BARAT","ID_KABKOT":"32.71","KABKOT":"KOTA BOGOR","ID_KEC":"32.71.06","KECAMATAN":"TANAH SAREAL","ID_DESA":"32.71.06.1003","DESA":"KEDUNG BADAK","LONGITUDE":"106.79308549999999","LATITUDE":"-6.5618493","STATUS":"BUKA","TANGGAL PE":"Q2 2025","TANGGAL UP":"27/05/2025"}}]}