{"type":"FeatureCollection","features":[{"type":"Feature","geometry":{"coordinates":[106.8568163,-6.5678648],"type":"Point"},"properties":{"NAMA":"AEON MALL SENTUL CITY","TIPE_1":"HIBURAN DAN KESENIAN","TIPE_2":"PUSAT PERBELANJAAN","TIPE_3":"-","TELEPON":"(021) 84214540","ALAMAT":"JL. MH. THAMRIN, CITARINGGUL, KEC. BABAKAN MADANG, KABUPATEN BOGOR, JAWA BARAT 16810","ID_PROV":"32","PROVINSI":"JAWA BARAT","ID_KABKOT":"32.01","KABKOT":"BOGOR","ID_KEC":"32.01.05","KECAMATAN":"BABAKAN MADANG","ID_DESA":"32.01.05.2007","DESA":"CITARINGGUL","LONGITUDE":"106.85681629999999","LATITUDE":"-6.5678648","STATUS":"BUKA","TANGGAL PE":"Q2 2025","TANGGAL UP":"27/05/2025"}},{"type":"Feature","geometry":{"coordinates":[106.8443585,-6.5667059],"type":"Point"},"properties":{"NAMA":"BELLANOVA COUNTRY MALL","TIPE_1":"HIBURAN DAN KESENIAN","TIPE_2":"PUSAT PERBELANJAAN","TIPE_3":"-","TELEPON":"(021) 87923840","ALAMAT":"JL. MH. THAMRIN NO.8, CIPAMBUAN, KEC. BABAKAN MADANG, KABUPATEN BOGOR, JAWA BARAT 16810","ID_PROV":"32","PROVINSI":"JAWA BARAT","ID_KABKOT":"32.01","KABKOT":"BOGOR","ID_KEC":"32.01.05","KECAMATAN":"BABAKAN MADANG","ID_DESA":"32.01.05.2005","DESA":"CIPAMBUAN","LONGITUDE":"106.8443585","LATITUDE":"-6.5667059","STATUS":"BUKA","TANGGAL PE":"Q2 2025","TANGGAL UP":"27/05/2025"}},{"type":"Feature","geometry":{"coordinates":[106.84236759999999,-6.4845183],"type":"Point"},"properties":{"NAMA":"CIBINONG CITY MALL","TIPE_1":"HIBURAN DAN KESENIAN","TIPE_2":"PUSAT PERBELANJAAN","TIPE_3":"-","TELEPON":"(021) 29860099","ALAMAT":"JL. TEGAR BERIMAN NO.1, PAKANSARI, KEC. CIBINONG, KABUPATEN BOGOR, JAWA BARAT 16914","ID_PROV":"32","PROVINSI":"JAWA BARAT","ID_KABKOT":"32.01","KABKOT":"BOGOR","ID_KEC":"32.01.01","KECAMATAN":"CIBINONG","ID_DESA":"32.01.01.1007","DESA":"PAKANSARI","LONGITUDE":"106.84236759999999","LATITUDE":"-6.4845183","STATUS":"BUKA","TANGGAL PE":"Q2 2025","TANGGAL UP":"27/05/2025"}},{"type":"Feature","geometry":{"coordinates":[106.8407274,-6.4844817],"type":"Point"},"properties":{"NAMA":"CIBINONG CITY MALL 2","TIPE_1":"HIBURAN DAN KESENIAN","TIPE_2":"PUSAT PERBELANJAAN","TIPE_3":"-","TELEPON":"","ALAMAT":"JL. TEGAR BERIMAN NO.1, PAKANSARI, KEC. CIBINONG, KABUPATEN BOGOR, JAWA BARAT 16915","ID_PROV":"32","PROVINSI":"JAWA BARAT","ID_KABKOT":"32.01","KABKOT":"BOGOR","ID_KEC":"32.01.01","KECAMATAN":"CIBINONG","ID_DESA":"32.01.01.1007","DESA":"PAKANSARI","LONGITUDE":"106.84072739999999","LATITUDE":"-6.4844817","STATUS":"BUKA","TANGGAL PE":"Q2 2025","TANGGAL UP":"27/05/2025"}},{"type":"Feature","geometry":{"coordinates":[106.8631444,-6.4799006],"type":"Point"},"properties":{"NAMA":"CIBINONG MALL","TIPE_1":"HIBURAN DAN KESENIAN","TIPE_2":"PUSAT PERBELANJAAN","TIPE_3":"-","TELEPON":"(021) 87920069","ALAMAT":"JL. RAYA MAYOR OKING JAYA ATMAJA NO.11, CIBINONG, KEC. CIBINONG, KABUPATEN BOGOR, JAWA BARAT 16911","ID_PROV":"32","PROVINSI":"JAWA BARAT","ID_KABKOT":"32.01","KABKOT":"BOGOR","ID_KEC":"32.01.01","KECAMATAN":"CIBINONG","ID_DESA":"32.01.01.1006","DESA":"CIBINONG","LONGITUDE":"106.8631444","LATITUDE":"-6.4799006","STATUS":"BUKA","TANGGAL PE":"Q2 2025","TANGGAL UP":"27/05/2025"}},{"type":"Feature","geometry":{"coordinates":[106.7337246,-6.4192157],"type":"Point"},"properties":{"NAMA":"HONDA BINTANG MALL PARUNG","TIPE_1":"HIBURAN DAN KESENIAN","TIPE_2":"PUSAT PERBELANJAAN","TIPE_3":"-","TELEPON":"0877-7000-3011","ALAMAT":"JL. RAYA PARUNG, WARU, KEC. PARUNG, KABUPATEN BOGOR, JAWA BARAT 16330","ID_PROV":"32","PROVINSI":"JAWA BARAT","ID_KABKOT":"32.01","KABKOT":"BOGOR","ID_KEC":"32.01.10","KECAMATAN":"PARUNG","ID_DESA":"32.01.10.2001","DESA":"PARUNG","LONGITUDE":"106.7337246","LATITUDE":"-6.4192157","STATUS":"BUKA","TANGGAL PE":"Q2 2025","TANGGAL UP":"27/05/2025"}},{"type":"Feature","geometry":{"coordinates":[106.9616158,-6.4085306],"type":"Point"},"properties":{"NAMA":"MALL CILEUNGSI TRADE CENTER","TIPE_1":"HIBURAN DAN KESENIAN","TIPE_2":"PUSAT PERBELANJAAN","TIPE_3":"-","TELEPON":"(021) 8233279","ALAMAT":"KM.23 NO.38, JL. RAYA NAROGONG, CILEUNGSI KIDUL, KEC. CILEUNGSI, KABUPATEN BOGOR, JAWA BARAT 16820","ID_PROV":"32","PROVINSI":"JAWA BARAT","ID_KABKOT":"32.01","KABKOT":"BOGOR","ID_KEC":"32.01.07","KECAMATAN":"CILEUNGSI","ID_DESA":"32.01.07.2007","DESA":"CILEUNGSI KIDUL","LONGITUDE":"106.96161579999999","LATITUDE":"-6.4085306","STATUS":"BUKA","TANGGAL PE":"Q2 2025","TANGGAL UP":"27/05/2025"}},{"type":"Feature","geometry":{"coordinates":[106.6291304,-6.5517758],"type":"Point"},"properties":{"NAMA":"MALL CIMANGGIS","TIPE_1":"HIBURAN DAN KESENIAN","TIPE_2":"PUSAT PERBELANJAAN","TIPE_3":"-","TELEPON":"","ALAMAT":"KAREHKEL, KEC. LEUWILIANG, KABUPATEN BOGOR, JAWA BARAT","ID_PROV":"32","PROVINSI":"JAWA BARAT","ID_KABKOT":"32.01","KABKOT":"BOGOR","ID_KEC":"32.01.14","KECAMATAN":"LEUWILIANG","ID_DESA":"32.01.14.2011","DESA":"KAREHKEL","LONGITUDE":"106.6291304","LATITUDE":"-6.5517758","STATUS":"BUKA","TANGGAL PE":"Q2 2025","TANGGAL UP":"27/05/2025"}},{"type":"Feature","geometry":{"coordinates":[106.7953694,-6.4930811],"type":"Point"},"properties":{"NAMA":"MALL LIPPO CIKARANG","TIPE_1":"HIBURAN DAN KESENIAN","TIPE_2":"PUSAT PERBELANJAAN","TIPE_3":"-","TELEPON":"","ALAMAT":"JL. BELAKANG ST., BOJONGGEDE, KECAMATAN BOJONGGEDE, KABUPATEN BOGOR, JAWA BARAT 16923","ID_PROV":"32","PROVINSI":"JAWA BARAT","ID_KABKOT":"32.01","KABKOT":"BOGOR","ID_KEC":"32.01.13","KECAMATAN":"BOJONG GEDE","ID_DESA":"32.01.13.2005","DESA":"KEDUNGWARINGIN","LONGITUDE":"106.7953694","LATITUDE":"-6.493081099999999","STATUS":"BUKA","TANGGAL PE":"Q2 2025","TANGGAL UP":"27/05/2025"}},{"type":"Feature","geometry":{"coordinates":[106.97539959999999,-6.3994502],"type":"Point"},"properties":{"NAMA":"METROPOLITAN MALL CILEUNGSI","TIPE_1":"HIBURAN DAN KESENIAN","TIPE_2":"PUSAT PERBELANJAAN","TIPE_3":"-","TELEPON":"(021) 80488888","ALAMAT":"JL. KOTA TAMAN METROPOLITAN, CILEUNGSI KIDUL, KEC. CILEUNGSI, KABUPATEN BOGOR, JAWA BARAT 16820","ID_PROV":"32","PROVINSI":"JAWA BARAT","ID_KABKOT":"32.01","KABKOT":"BOGOR","ID_KEC":"32.01.07","KECAMATAN":"CILEUNGSI","ID_DESA":"32.01.07.2011","DESA":"LIMUSNUNGGAL","LONGITUDE":"106.97539959999999","LATITUDE":"-6.3994502","STATUS":"BUKA","TANGGAL PE":"Q2 2025","TANGGAL UP":"27/05/2025"}},{"type":"Feature","geometry":{"coordinates":[106.8558192,-6.5677591],"type":"Point"},"properties":{"NAMA":"VIVO MALL","TIPE_1":"HIBURAN DAN KESENIAN","TIPE_2":"PUSAT PERBELANJAAN","TIPE_3":"-","TELEPON":"","ALAMAT":"CITARINGGUL, KEC. BABAKAN MADANG, KABUPATEN BOGOR, JAWA BARAT 16810","ID_PROV":"32","PROVINSI":"JAWA BARAT","ID_KABKOT":"32.01","KABKOT":"BOGOR","ID_KEC":"32.01.05","KECAMATAN":"BABAKAN MADANG","ID_DESA":"32.01.05.2007","DESA":"CITARINGGUL","LONGITUDE":"106.8558192","LATITUDE":"-6.5677591","STATUS":"BUKA","TANGGAL PE":"Q2 2025","TANGGAL UP":"27/05/2025"}},{"type":"Feature","geometry":{"coordinates":[106.8305698,-6.5324858],"type":"Point"},"properties":{"NAMA":"VIVO MALL","TIPE_1":"HIBURAN DAN KESENIAN","TIPE_2":"PUSAT PERBELANJAAN","TIPE_3":"-","TELEPON":"","ALAMAT":"JL. JEMB. PARI NO.15, CIJUJUNG, KEC. SUKARAJA, KABUPATEN BOGOR, JAWA BARAT 16710","ID_PROV":"32","PROVINSI":"JAWA BARAT","ID_KABKOT":"32.01","KABKOT":"BOGOR","ID_KEC":"32.01.04","KECAMATAN":"SUKARAJA","ID_DESA":"32.01.04.2011","DESA":"CIJUJUNG","LONGITUDE":"106.83056979999999","LATITUDE":"-6.5324858","STATUS":"BUKA","TANGGAL PE":"Q2 2025","TANGGAL UP":"27/05/2025"}},{"type":"Feature","geometry":{"coordinates":[106.8318903,-6.5257907],"type":"Point"},"properties":{"NAMA":"VIVO MALL SENTUL","TIPE_1":"HIBURAN DAN KESENIAN","TIPE_2":"PUSAT PERBELANJAAN","TIPE_3":"-","TELEPON":"","ALAMAT":"CIMANDALA, JL. RAYA JAKARTA-BOGOR NO.KM 50, SENTUL, KEC. SUKARAJA, KABUPATEN BOGOR, JAWA BARAT 16710","ID_PROV":"32","PROVINSI":"JAWA BARAT","ID_KABKOT":"32.01","KABKOT":"BOGOR","ID_KEC":"32.01.04","KECAMATAN":"SUKARAJA","ID_DESA":"32.01.04.2010","DESA":"CIMANDALA","LONGITUDE":"106.8318903","LATITUDE":"-6.5257907","STATUS":"BUKA","TANGGAL PE":"Q2 2025","TANGGAL UP":"27/05/2025"}}]}