{"type":"FeatureCollection","features":[{"type":"Feature","geometry":{"coordinates":[107.1954494,-6.3519407],"type":"Point"},"properties":{"NAMA":"AEON MALL DELTAMAS","TIPE_1":"HIBURAN DAN KESENIAN","TIPE_2":"PUSAT PERBELANJAAN","TIPE_3":"-","TELEPON":"(021) 38733333","ALAMAT":"JL. GANESHA BOULEVARD, KOTA DELTAMAS, KEC. CIKARANG PUSAT, KABUPATEN BEKASI, JAWA BARAT 17530","ID_PROV":"32","PROVINSI":"JAWA BARAT","ID_KABKOT":"32.16","KABKOT":"BEKASI","ID_KEC":"32.16.20","KECAMATAN":"CIKARANG PUSAT","ID_DESA":"32.16.20.2004","DESA":"HEGARMUKTI","LONGITUDE":"107.1954494","LATITUDE":"-6.3519407","STATUS":"BUKA","TANGGAL PE":"Q2 2025","TANGGAL UP":"27/05/2025"}},{"type":"Feature","geometry":{"coordinates":[107.1369509,-6.3340604],"type":"Point"},"properties":{"NAMA":"LIPPO MALL CIKARANG","TIPE_1":"HIBURAN DAN KESENIAN","TIPE_2":"PUSAT PERBELANJAAN","TIPE_3":"-","TELEPON":"(0621) 89905971","ALAMAT":"JL. MH. THAMRIN, CIBATU, CIKARANG SEL., KABUPATEN BEKASI, JAWA BARAT 17530","ID_PROV":"32","PROVINSI":"JAWA BARAT","ID_KABKOT":"32.16","KABKOT":"BEKASI","ID_KEC":"32.16.19","KECAMATAN":"CIKARANG SELATAN","ID_DESA":"32.16.19.2001","DESA":"CIBATU","LONGITUDE":"107.1369509","LATITUDE":"-6.334060399999999","STATUS":"BUKA","TANGGAL PE":"Q2 2025","TANGGAL UP":"27/05/2025"}},{"type":"Feature","geometry":{"coordinates":[107.1501829,-6.2997822],"type":"Point"},"properties":{"NAMA":"LIVING PLAZA JABABEKA","TIPE_1":"HIBURAN DAN KESENIAN","TIPE_2":"PUSAT PERBELANJAAN","TIPE_3":"-","TELEPON":"0812-9568-4879","ALAMAT":"JL. NIAGA RAYA JL. JABABEKA RAYA NO.2, MEKARMUKTI, KEC. CIKARANG UTARA, KABUPATEN BEKASI, JAWA BARAT 17530","ID_PROV":"32","PROVINSI":"JAWA BARAT","ID_KABKOT":"32.16","KABKOT":"BEKASI","ID_KEC":"32.16.09","KECAMATAN":"CIKARANG UTARA","ID_DESA":"32.16.09.2010","DESA":"MEKARMUKTI","LONGITUDE":"107.15018289999999","LATITUDE":"-6.2997822","STATUS":"BUKA","TANGGAL PE":"Q2 2025","TANGGAL UP":"27/05/2025"}},{"type":"Feature","geometry":{"coordinates":[107.0729753,-6.2658245],"type":"Point"},"properties":{"NAMA":"PLAZA METROPOLITAN","TIPE_1":"HIBURAN DAN KESENIAN","TIPE_2":"PUSAT PERBELANJAAN","TIPE_3":"-","TELEPON":"","ALAMAT":"JL. SULTAN HASANUDIN, TAMBUN, KEC. TAMBUN SEL., KABUPATEN BEKASI, JAWA BARAT 17510","ID_PROV":"32","PROVINSI":"JAWA BARAT","ID_KABKOT":"32.16","KABKOT":"BEKASI","ID_KEC":"32.16.06","KECAMATAN":"TAMBUN SELATAN","ID_DESA":"32.16.06.2004","DESA":"TAMBUN","LONGITUDE":"107.0729753","LATITUDE":"-6.2658245","STATUS":"BUKA","TANGGAL PE":"Q2 2025","TANGGAL UP":"27/05/2025"}},{"type":"Feature","geometry":{"coordinates":[107.1607377,-6.2997029],"type":"Point"},"properties":{"NAMA":"PLAZA ROXY","TIPE_1":"HIBURAN DAN KESENIAN","TIPE_2":"PUSAT PERBELANJAAN","TIPE_3":"-","TELEPON":"(021) 8934570","ALAMAT":"JALAN KASUARI RAYA, CIKARANG BARU, MEKARMUKTI, CIKARANG UTARA, MEKARMUKTI, KEC. CIKARANG UTARA, KABUPATEN BEKASI, JAWA BARAT 17530","ID_PROV":"32","PROVINSI":"JAWA BARAT","ID_KABKOT":"32.16","KABKOT":"BEKASI","ID_KEC":"32.16.09","KECAMATAN":"CIKARANG UTARA","ID_DESA":"32.16.09.2010","DESA":"MEKARMUKTI","LONGITUDE":"107.1607377","LATITUDE":"-6.2997029","STATUS":"BUKA","TANGGAL PE":"Q2 2025","TANGGAL UP":"27/05/2025"}},{"type":"Feature","geometry":{"coordinates":[107.1416496,-6.3124464],"type":"Point"},"properties":{"NAMA":"POLLUX MALL CIKARANG","TIPE_1":"HIBURAN DAN KESENIAN","TIPE_2":"PUSAT PERBELANJAAN","TIPE_3":"-","TELEPON":"(021) 89328777","ALAMAT":"JL. RAYA CIKARANG - CIBARUSAH, PASIRSARI, CIKARANG SEL., KABUPATEN BEKASI, JAWA BARAT 17530","ID_PROV":"32","PROVINSI":"JAWA BARAT","ID_KABKOT":"32.16","KABKOT":"BEKASI","ID_KEC":"32.16.19","KECAMATAN":"CIKARANG SELATAN","ID_DESA":"32.16.19.2007","DESA":"PASIRSARI","LONGITUDE":"107.1416496","LATITUDE":"-6.3124464","STATUS":"BUKA","TANGGAL PE":"Q2 2025","TANGGAL UP":"27/05/2025"}},{"type":"Feature","geometry":{"coordinates":[107.1464532,-6.258497],"type":"Point"},"properties":{"NAMA":"SGC MALL","TIPE_1":"HIBURAN DAN KESENIAN","TIPE_2":"PUSAT PERBELANJAAN","TIPE_3":"-","TELEPON":"(021) 89111111","ALAMAT":"JL. RE. MARTADINATA NO.95, CIKARANG KOTA, KEC. CIKARANG UTARA, KABUPATEN BEKASI, JAWA BARAT 17530","ID_PROV":"32","PROVINSI":"JAWA BARAT","ID_KABKOT":"32.16","KABKOT":"BEKASI","ID_KEC":"32.16.09","KECAMATAN":"CIKARANG UTARA","ID_DESA":"32.16.09.2001","DESA":"CIKARANGKOTA","LONGITUDE":"107.1464532","LATITUDE":"-6.258496999999999","STATUS":"BUKA","TANGGAL PE":"Q2 2025","TANGGAL UP":"27/05/2025"}}]}