{"type":"FeatureCollection","features":[{"type":"Feature","geometry":{"coordinates":[106.78243889999999,-6.3174008],"type":"Point"},"properties":{"NAMA":"CINERE BELLEVUE MALL","TIPE_1":"HIBURAN DAN KESENIAN","TIPE_2":"PUSAT PERBELANJAAN","TIPE_3":"-","TELEPON":"(021) 29403838","ALAMAT":"JL. MERAWAN NO.23, PANGKALAN JATI, KEC. CINERE, KOTA DEPOK, JAWA BARAT 16514","ID_PROV":"32","PROVINSI":"JAWA BARAT","ID_KABKOT":"32.76","KABKOT":"KOTA DEPOK","ID_KEC":"32.76.09","KECAMATAN":"CINERE","ID_DESA":"32.76.09.1003","DESA":"PANGKALAN JATI","LONGITUDE":"106.78243889999999","LATITUDE":"-6.3174008","STATUS":"BUKA","TANGGAL PE":"Q2 2025","TANGGAL UP":"27/05/2025"}},{"type":"Feature","geometry":{"coordinates":[106.859793,-6.357264],"type":"Point"},"properties":{"NAMA":"CITIMALL CIMANGGIS","TIPE_1":"HIBURAN DAN KESENIAN","TIPE_2":"PUSAT PERBELANJAAN","TIPE_3":"-","TELEPON":"(021) 29378293","ALAMAT":"JL. RAYA BOGOR KM 29 NO. 29, MEKARSARI, KEC. CIMANGGIS, KOTA DEPOK, JAWA BARAT 16452","ID_PROV":"32","PROVINSI":"JAWA BARAT","ID_KABKOT":"32.76","KABKOT":"KOTA DEPOK","ID_KEC":"32.76.02","KECAMATAN":"CIMANGGIS","ID_DESA":"32.76.02.1010","DESA":"MEKARSARI","LONGITUDE":"106.859793","LATITUDE":"-6.357264","STATUS":"BUKA","TANGGAL PE":"Q2 2025","TANGGAL UP":"27/05/2025"}},{"type":"Feature","geometry":{"coordinates":[106.827347,-6.387138],"type":"Point"},"properties":{"NAMA":"D'MALL DEPOK","TIPE_1":"HIBURAN DAN KESENIAN","TIPE_2":"PUSAT PERBELANJAAN","TIPE_3":"-","TELEPON":"","ALAMAT":"JL. MARGONDA RAYA NO.88, KEMIRI MUKA, KECAMATAN BEJI, KOTA DEPOK, JAWA BARAT 16423","ID_PROV":"32","PROVINSI":"JAWA BARAT","ID_KABKOT":"32.76","KABKOT":"KOTA DEPOK","ID_KEC":"32.76.06","KECAMATAN":"BEJI","ID_DESA":"32.76.06.1004","DESA":"KEMIRI MUKA","LONGITUDE":"106.82734699999999","LATITUDE":"-6.387137999999999","STATUS":"BUKA","TANGGAL PE":"Q2 2025","TANGGAL UP":"27/05/2025"}},{"type":"Feature","geometry":{"coordinates":[106.859123,-6.364831],"type":"Point"},"properties":{"NAMA":"GRAND MALL CIMANGGIS","TIPE_1":"HIBURAN DAN KESENIAN","TIPE_2":"PUSAT PERBELANJAAN","TIPE_3":"-","TELEPON":"0856-9619-5691","ALAMAT":"JL. RAYA BOGOR NO.30, TUGU, KEC. CIMANGGIS, KOTA DEPOK, JAWA BARAT 16451","ID_PROV":"32","PROVINSI":"JAWA BARAT","ID_KABKOT":"32.76","KABKOT":"KOTA DEPOK","ID_KEC":"32.76.02","KECAMATAN":"CIMANGGIS","ID_DESA":"32.76.02.1009","DESA":"TUGU","LONGITUDE":"106.859123","LATITUDE":"-6.364831","STATUS":"BUKA","TANGGAL PE":"Q2 2025","TANGGAL UP":"27/05/2025"}},{"type":"Feature","geometry":{"coordinates":[106.7827599,-6.3326503],"type":"Point"},"properties":{"NAMA":"LIVING PLAZA CINERE","TIPE_1":"HIBURAN DAN KESENIAN","TIPE_2":"PUSAT PERBELANJAAN","TIPE_3":"-","TELEPON":"0858-8588-0328","ALAMAT":"RT/RW 003/06, JL. CINERE RAYA NO.100, CINERE, DEPOK CITY, WEST JAVA 16514","ID_PROV":"32","PROVINSI":"JAWA BARAT","ID_KABKOT":"32.76","KABKOT":"KOTA DEPOK","ID_KEC":"32.76.09","KECAMATAN":"CINERE","ID_DESA":"32.76.09.1001","DESA":"CINERE","LONGITUDE":"106.7827599","LATITUDE":"-6.3326503","STATUS":"BUKA","TANGGAL PE":"Q2 2025","TANGGAL UP":"27/05/2025"}},{"type":"Feature","geometry":{"coordinates":[106.7852753,-6.3296468],"type":"Point"},"properties":{"NAMA":"MALL CINERE","TIPE_1":"HIBURAN DAN KESENIAN","TIPE_2":"PUSAT PERBELANJAAN","TIPE_3":"-","TELEPON":"","ALAMAT":"GG. MUNDO NO.3, RW.7, CINERE, KEC. CINERE, KOTA DEPOK, JAWA BARAT 16514","ID_PROV":"32","PROVINSI":"JAWA BARAT","ID_KABKOT":"32.76","KABKOT":"KOTA DEPOK","ID_KEC":"32.76.09","KECAMATAN":"CINERE","ID_DESA":"32.76.09.1001","DESA":"CINERE","LONGITUDE":"106.7852753","LATITUDE":"-6.3296468","STATUS":"BUKA","TANGGAL PE":"Q2 2025","TANGGAL UP":"27/05/2025"}},{"type":"Feature","geometry":{"coordinates":[106.8439769,-6.3804838],"type":"Point"},"properties":{"NAMA":"MALL PESONA SQUARE","TIPE_1":"HIBURAN DAN KESENIAN","TIPE_2":"PUSAT PERBELANJAAN","TIPE_3":"-","TELEPON":"","ALAMAT":"JL. IR. H. JUANDA NO.22A, BAKTI JAYA, KEC. SUKMAJAYA, KOTA DEPOK, JAWA BARAT 16418","ID_PROV":"32","PROVINSI":"JAWA BARAT","ID_KABKOT":"32.76","KABKOT":"KOTA DEPOK","ID_KEC":"32.76.05","KECAMATAN":"SUKMAJAYA","ID_DESA":"32.76.05.1005","DESA":"BAKTIJAYA","LONGITUDE":"106.8439769","LATITUDE":"-6.380483799999999","STATUS":"BUKA","TANGGAL PE":"Q2 2025","TANGGAL UP":"27/05/2025"}},{"type":"Feature","geometry":{"coordinates":[106.742322,-6.4023542],"type":"Point"},"properties":{"NAMA":"SARI PLAZA BOJONGSARI","TIPE_1":"HIBURAN DAN KESENIAN","TIPE_2":"PUSAT PERBELANJAAN","TIPE_3":"-","TELEPON":"","ALAMAT":"BOJONGSARI LAMA, KEC. BOJONGSARI, KOTA DEPOK, JAWA BARAT 16516","ID_PROV":"32","PROVINSI":"JAWA BARAT","ID_KABKOT":"32.76","KABKOT":"KOTA DEPOK","ID_KEC":"32.76.11","KECAMATAN":"BOJONGSARI","ID_DESA":"32.76.11.1001","DESA":"BOJONGSARI","LONGITUDE":"106.742322","LATITUDE":"-6.4023542","STATUS":"BUKA","TANGGAL PE":"Q2 2025","TANGGAL UP":"27/05/2025"}},{"type":"Feature","geometry":{"coordinates":[106.9019455,-6.3756707],"type":"Point"},"properties":{"NAMA":"TRANS STUDIO MALL CIBUBUR","TIPE_1":"HIBURAN DAN KESENIAN","TIPE_2":"PUSAT PERBELANJAAN","TIPE_3":"-","TELEPON":"(021) 39705050","ALAMAT":"JL. ALTERNATIF CIBUBUR NO.230 A, HARJAMUKTI, KEC. CIMANGGIS, KOTA DEPOK, JAWA BARAT 16454","ID_PROV":"32","PROVINSI":"JAWA BARAT","ID_KABKOT":"32.76","KABKOT":"KOTA DEPOK","ID_KEC":"32.76.02","KECAMATAN":"CIMANGGIS","ID_DESA":"32.76.02.1007","DESA":"HARJAMUKTI","LONGITUDE":"106.9019455","LATITUDE":"-6.3756707","STATUS":"BUKA","TANGGAL PE":"Q2 2025","TANGGAL UP":"27/05/2025"}}]}