{"type":"FeatureCollection","features":[{"type":"Feature","geometry":{"coordinates":[106.9522209,-6.1721883],"type":"Point"},"properties":{"NAMA":"AEON MALL JAKARTA GARDEN CITY","TIPE_1":"HIBURAN DAN KESENIAN","TIPE_2":"PUSAT PERBELANJAAN","TIPE_3":"-","TELEPON":"(021) 22462525","ALAMAT":"JL. JKT GARDEN CITY BOULEVARD NO.1, RT.8/RW.6, CAKUNG TIM., KEC. CAKUNG, KOTA JAKARTA TIMUR, DAERAH KHUSUS IBUKOTA JAKARTA 13910","ID_PROV":"31","PROVINSI":"DKI JAKARTA","ID_KABKOT":"31.75","KABKOT":"KOTA ADM. JAKARTA TIMUR","ID_KEC":"31.75.06","KECAMATAN":"CAKUNG","ID_DESA":"31.75.06.1004","DESA":"CAKUNG TIMUR","LONGITUDE":"106.9522209","LATITUDE":"-6.172188299999999","STATUS":"BUKA","TANGGAL PE":"Q2 2025","TANGGAL UP":"27/05/2025"}},{"type":"Feature","geometry":{"coordinates":[106.890485,-6.1938923],"type":"Point"},"properties":{"NAMA":"ARION MALL","TIPE_1":"HIBURAN DAN KESENIAN","TIPE_2":"PUSAT PERBELANJAAN","TIPE_3":"-","TELEPON":"(021) 4711652","ALAMAT":"JL. PEMUDA NO.KAVLING 3-4, RT.2/RW.7, RAWAMANGUN, KEC. PULO GADUNG, KOTA JAKARTA TIMUR, DAERAH KHUSUS IBUKOTA JAKARTA 13220","ID_PROV":"31","PROVINSI":"DKI JAKARTA","ID_KABKOT":"31.75","KABKOT":"KOTA ADM. JAKARTA TIMUR","ID_KEC":"31.75.02","KECAMATAN":"PULOGADUNG","ID_DESA":"31.75.02.1005","DESA":"RAWAMANGUN","LONGITUDE":"106.890485","LATITUDE":"-6.1938923","STATUS":"BUKA","TANGGAL PE":"Q2 2025","TANGGAL UP":"27/05/2025"}},{"type":"Feature","geometry":{"coordinates":[106.9241921,-6.2177497],"type":"Point"},"properties":{"NAMA":"BUARAN PLAZA","TIPE_1":"HIBURAN DAN KESENIAN","TIPE_2":"PUSAT PERBELANJAAN","TIPE_3":"-","TELEPON":"","ALAMAT":"JL. RADIN INTEN II, KLENDER, DURENSAWIT, EAST JAKARTA CITY, JAKARTA 13460","ID_PROV":"31","PROVINSI":"DKI JAKARTA","ID_KABKOT":"31.75","KABKOT":"KOTA ADM. JAKARTA TIMUR","ID_KEC":"31.75.07","KECAMATAN":"DUREN SAWIT","ID_DESA":"31.75.07.1003","DESA":"KLENDER","LONGITUDE":"106.9241921","LATITUDE":"-6.2177497","STATUS":"BUKA","TANGGAL PE":"Q2 2025","TANGGAL UP":"27/05/2025"}},{"type":"Feature","geometry":{"coordinates":[106.864403,-6.213879],"type":"Point"},"properties":{"NAMA":"CITYPLAZA JATINEGARA","TIPE_1":"HIBURAN DAN KESENIAN","TIPE_2":"PUSAT PERBELANJAAN","TIPE_3":"-","TELEPON":"(021) 85909222","ALAMAT":"JL. MATRAMAN RAYA NO.173-175, RT.7/RW.6, BALI MESTER, KECAMATAN JATINEGARA, KOTA JAKARTA TIMUR, DAERAH KHUSUS IBUKOTA JAKARTA 13310","ID_PROV":"31","PROVINSI":"DKI JAKARTA","ID_KABKOT":"31.75","KABKOT":"KOTA ADM. JAKARTA TIMUR","ID_KEC":"31.75.03","KECAMATAN":"JATINEGARA","ID_DESA":"31.75.03.1003","DESA":"BALI MESTER","LONGITUDE":"106.864403","LATITUDE":"-6.213878999999999","STATUS":"BUKA","TANGGAL PE":"Q2 2025","TANGGAL UP":"27/05/2025"}},{"type":"Feature","geometry":{"coordinates":[106.8771324,-6.2244394],"type":"Point"},"properties":{"NAMA":"EAST LOBBY MALL BASSURA","TIPE_1":"HIBURAN DAN KESENIAN","TIPE_2":"PUSAT PERBELANJAAN","TIPE_3":"-","TELEPON":"","ALAMAT":"RT.8/RW.10, SOUTH CIPINANG BESAR, JATINEGARA, EAST JAKARTA CITY, JAKARTA 13410","ID_PROV":"31","PROVINSI":"DKI JAKARTA","ID_KABKOT":"31.75","KABKOT":"KOTA ADM. JAKARTA TIMUR","ID_KEC":"31.75.03","KECAMATAN":"JATINEGARA","ID_DESA":"31.75.03.1008","DESA":"CIPINANG BESAR UTARA","LONGITUDE":"106.8771324","LATITUDE":"-6.2244394","STATUS":"BUKA","TANGGAL PE":"Q2 2025","TANGGAL UP":"27/05/2025"}},{"type":"Feature","geometry":{"coordinates":[106.8680692,-6.2707526],"type":"Point"},"properties":{"NAMA":"LIPPO PLAZA KRAMAT JATI","TIPE_1":"HIBURAN DAN KESENIAN","TIPE_2":"PUSAT PERBELANJAAN","TIPE_3":"-","TELEPON":"(021) 8095558","ALAMAT":"JL. RAYA JAKARTA-BOGOR NO.KM 19, RT.14/RW.6, KRAMAT JATI, KEC. KRAMAT JATI, KOTA JAKARTA TIMUR, DAERAH KHUSUS IBUKOTA JAKARTA 13510","ID_PROV":"31","PROVINSI":"DKI JAKARTA","ID_KABKOT":"31.75","KABKOT":"KOTA ADM. JAKARTA TIMUR","ID_KEC":"31.75.04","KECAMATAN":"KRAMATJATI","ID_DESA":"31.75.04.1001","DESA":"KRAMATJATI","LONGITUDE":"106.8680692","LATITUDE":"-6.2707526","STATUS":"BUKA","TANGGAL PE":"Q2 2025","TANGGAL UP":"27/05/2025"}},{"type":"Feature","geometry":{"coordinates":[106.8620154,-6.312566],"type":"Point"},"properties":{"NAMA":"MALL CIJANTUNG","TIPE_1":"HIBURAN DAN KESENIAN","TIPE_2":"PUSAT PERBELANJAAN","TIPE_3":"-","TELEPON":"0858-9111-1850","ALAMAT":"JL. PENDIDIKAN, RT.1/RW.4, CIJANTUNG, KEC. PS. REBO, KOTA JAKARTA TIMUR, DAERAH KHUSUS IBUKOTA JAKARTA 13770","ID_PROV":"31","PROVINSI":"DKI JAKARTA","ID_KABKOT":"31.75","KABKOT":"KOTA ADM. JAKARTA TIMUR","ID_KEC":"31.75.05","KECAMATAN":"PASAR REBO","ID_DESA":"31.75.05.1003","DESA":"CIJANTUNG","LONGITUDE":"106.86201539999999","LATITUDE":"-6.312565999999999","STATUS":"BUKA","TANGGAL PE":"Q2 2025","TANGGAL UP":"27/05/2025"}},{"type":"Feature","geometry":{"coordinates":[106.8943481,-6.2393646],"type":"Point"},"properties":{"NAMA":"MALL CIPINANG INDAH","TIPE_1":"HIBURAN DAN KESENIAN","TIPE_2":"PUSAT PERBELANJAAN","TIPE_3":"-","TELEPON":"(021) 29483757","ALAMAT":"JL. RAYA KALIMALANG NO.18, RT.18/RW.3, PD. BAMBU, KEC. DUREN SAWIT, KOTA JAKARTA TIMUR, DAERAH KHUSUS IBUKOTA JAKARTA 13430","ID_PROV":"31","PROVINSI":"DKI JAKARTA","ID_KABKOT":"31.75","KABKOT":"KOTA ADM. JAKARTA TIMUR","ID_KEC":"31.75.07","KECAMATAN":"DUREN SAWIT","ID_DESA":"31.75.07.1002","DESA":"PONDOK BAMBU","LONGITUDE":"106.8943481","LATITUDE":"-6.2393646","STATUS":"BUKA","TANGGAL PE":"Q2 2025","TANGGAL UP":"27/05/2025"}},{"type":"Feature","geometry":{"coordinates":[106.856072,-6.202931],"type":"Point"},"properties":{"NAMA":"MALL GRAHA MATRAMAN","TIPE_1":"HIBURAN DAN KESENIAN","TIPE_2":"PUSAT PERBELANJAAN","TIPE_3":"-","TELEPON":"","ALAMAT":"RT.12/RW.2, KEBON MANGGIS, MATRAMAN, EAST JAKARTA CITY, JAKARTA 13150","ID_PROV":"31","PROVINSI":"DKI JAKARTA","ID_KABKOT":"31.75","KABKOT":"KOTA ADM. JAKARTA TIMUR","ID_KEC":"31.75.01","KECAMATAN":"MATRAMAN","ID_DESA":"31.75.01.1005","DESA":"KEBON MANGGIS","LONGITUDE":"106.856072","LATITUDE":"-6.202931","STATUS":"BUKA","TANGGAL PE":"Q2 2025","TANGGAL UP":"27/05/2025"}},{"type":"Feature","geometry":{"coordinates":[106.9588868,-6.1867509],"type":"Point"},"properties":{"NAMA":"MALL GRAND CAKUNG","TIPE_1":"HIBURAN DAN KESENIAN","TIPE_2":"PUSAT PERBELANJAAN","TIPE_3":"-","TELEPON":"(021) 46802222","ALAMAT":"JL. SRI SULTAN HAMENGKUBUWONO IX NO.KM. 25, UJUNG MENTENG, KEC. CAKUNG, KOTA JAKARTA TIMUR, DAERAH KHUSUS IBUKOTA JAKARTA 13960","ID_PROV":"31","PROVINSI":"DKI JAKARTA","ID_KABKOT":"31.75","KABKOT":"KOTA ADM. JAKARTA TIMUR","ID_KEC":"31.75.06","KECAMATAN":"CAKUNG","ID_DESA":"31.75.06.1006","DESA":"UJUNG MENTENG","LONGITUDE":"106.9588868","LATITUDE":"-6.1867509","STATUS":"BUKA","TANGGAL PE":"Q2 2025","TANGGAL UP":"27/05/2025"}},{"type":"Feature","geometry":{"coordinates":[106.882201,-6.2906592],"type":"Point"},"properties":{"NAMA":"MALL TAMINI SQUARE PINTU AW","TIPE_1":"HIBURAN DAN KESENIAN","TIPE_2":"PUSAT PERBELANJAAN","TIPE_3":"-","TELEPON":"","ALAMAT":"JL. RAYA PD. GEDE JL. PINANG RANTI NO.3, RT.3/RW.2, PINANG RANTI, KEC. MAKASAR, KOTA JAKARTA TIMUR, DAERAH KHUSUS IBUKOTA JAKARTA 13560","ID_PROV":"31","PROVINSI":"DKI JAKARTA","ID_KABKOT":"31.75","KABKOT":"KOTA ADM. JAKARTA TIMUR","ID_KEC":"31.75.08","KECAMATAN":"MAKASAR","ID_DESA":"31.75.08.1002","DESA":"PINANGRANTI","LONGITUDE":"106.882201","LATITUDE":"-6.290659199999999","STATUS":"BUKA","TANGGAL PE":"Q2 2025","TANGGAL UP":"27/05/2025"}}]}