{"type":"FeatureCollection","features":[{"type":"Feature","geometry":{"coordinates":[106.7086511,-6.2233723],"type":"Point"},"properties":{"NAMA":"CBD CILEDUG FAMILY MALL","TIPE_1":"HIBURAN DAN KESENIAN","TIPE_2":"PUSAT PERBELANJAAN","TIPE_3":"-","TELEPON":"(021) 73452000","ALAMAT":"JL. HOS COKROAMINOTO NO.93, RT.001/RW.001, KARANG TENGAH, KEC. KARANG TENGAH, KOTA TANGERANG, BANTEN 15157","ID_PROV":"36","PROVINSI":"BANTEN","ID_KABKOT":"36.71","KABKOT":"KOTA TANGERANG","ID_KEC":"36.71.12","KECAMATAN":"KARANG TENGAH","ID_DESA":"36.71.12.1001","DESA":"KARANG TENGAH","LONGITUDE":"106.7086511","LATITUDE":"-6.223372299999999","STATUS":"BUKA","TANGGAL PE":"Q2 2025","TANGGAL UP":"27/05/2025"}},{"type":"Feature","geometry":{"coordinates":[106.6327042,-6.2219969],"type":"Point"},"properties":{"NAMA":"GRAND SERPONG MALL","TIPE_1":"HIBURAN DAN KESENIAN","TIPE_2":"PUSAT PERBELANJAAN","TIPE_3":"-","TELEPON":"","ALAMAT":"JL. MH. THAMRIN KM 2.7, KEBON NANAS, RT.007/RW.001, PANUNGGANGAN UTARA, KEC. PINANG, KOTA TANGERANG, BANTEN 15143","ID_PROV":"36","PROVINSI":"BANTEN","ID_KABKOT":"36.71","KABKOT":"KOTA TANGERANG","ID_KEC":"36.71.11","KECAMATAN":"PINANG","ID_DESA":"36.71.11.1010","DESA":"PANUNGGANGAN UTARA","LONGITUDE":"106.63270419999999","LATITUDE":"-6.2219969","STATUS":"BUKA","TANGGAL PE":"Q2 2025","TANGGAL UP":"27/05/2025"}},{"type":"Feature","geometry":{"coordinates":[106.6149962,-6.2194065],"type":"Point"},"properties":{"NAMA":"LIVING PLAZA PALEM SEMI","TIPE_1":"HIBURAN DAN KESENIAN","TIPE_2":"PUSAT PERBELANJAAN","TIPE_3":"-","TELEPON":"0858-8588-0328","ALAMAT":"JL. PALEM SEMI, RT.001/RW.009, PANUNGGANGAN BAR., KEC. CIBODAS, KOTA TANGERANG, BANTEN","ID_PROV":"36","PROVINSI":"BANTEN","ID_KABKOT":"36.71","KABKOT":"KOTA TANGERANG","ID_KEC":"36.71.09","KECAMATAN":"CIBODAS","ID_DESA":"36.71.09.1004","DESA":"PANUNGGANGAN BARAT","LONGITUDE":"106.6149962","LATITUDE":"-6.2194065","STATUS":"BUKA","TANGGAL PE":"Q2 2025","TANGGAL UP":"27/05/2025"}},{"type":"Feature","geometry":{"coordinates":[106.6428523,-6.1795856],"type":"Point"},"properties":{"NAMA":"MALL BALEKOTA TANGERANG","TIPE_1":"HIBURAN DAN KESENIAN","TIPE_2":"PUSAT PERBELANJAAN","TIPE_3":"-","TELEPON":"(021) 29519555","ALAMAT":"JL. JENDERAL SUDIRMAN NO.3, RT.002/RW.012, BUARAN INDAH, KEC. TANGERANG, KOTA TANGERANG, BANTEN 15119","ID_PROV":"36","PROVINSI":"BANTEN","ID_KABKOT":"36.71","KABKOT":"KOTA TANGERANG","ID_KEC":"36.71.01","KECAMATAN":"TANGERANG","ID_DESA":"36.71.01.1004","DESA":"BUARAN INDAH","LONGITUDE":"106.6428523","LATITUDE":"-6.179585599999999","STATUS":"BUKA","TANGGAL PE":"Q2 2025","TANGGAL UP":"27/05/2025"}},{"type":"Feature","geometry":{"coordinates":[106.6372866,-6.1969581],"type":"Point"},"properties":{"NAMA":"MALL MATROPOLIS","TIPE_1":"HIBURAN DAN KESENIAN","TIPE_2":"PUSAT PERBELANJAAN","TIPE_3":"-","TELEPON":"","ALAMAT":"RT.003/RW.006, KLP. INDAH, KEC. TANGERANG, KOTA TANGERANG, BANTEN 15117","ID_PROV":"36","PROVINSI":"BANTEN","ID_KABKOT":"36.71","KABKOT":"KOTA TANGERANG","ID_KEC":"36.71.01","KECAMATAN":"TANGERANG","ID_DESA":"36.71.01.1008","DESA":"BABAKAN","LONGITUDE":"106.6372866","LATITUDE":"-6.1969581","STATUS":"BUKA","TANGGAL PE":"Q2 2025","TANGGAL UP":"27/05/2025"}},{"type":"Feature","geometry":{"coordinates":[106.7081059,-6.2252549],"type":"Point"},"properties":{"NAMA":"PLAZA BARU CILEDUG","TIPE_1":"HIBURAN DAN KESENIAN","TIPE_2":"PUSAT PERBELANJAAN","TIPE_3":"-","TELEPON":"0811-1161-116","ALAMAT":"PLAZA BARU, JL. HOS COKROAMINOTO NO.90, RT.003/RW.003, SUDIMARA BAR., KEC. CILEDUG, KOTA TANGERANG, BANTEN 15151","ID_PROV":"36","PROVINSI":"BANTEN","ID_KABKOT":"36.71","KABKOT":"KOTA TANGERANG","ID_KEC":"36.71.06","KECAMATAN":"CILEDUG","ID_DESA":"36.71.06.1002","DESA":"SUDIMARA BARAT","LONGITUDE":"106.70810589999999","LATITUDE":"-6.225254899999999","STATUS":"BUKA","TANGGAL PE":"Q2 2025","TANGGAL UP":"27/05/2025"}},{"type":"Feature","geometry":{"coordinates":[106.616507,-6.1948195],"type":"Point"},"properties":{"NAMA":"PLAZA SHINTA CIMONE","TIPE_1":"HIBURAN DAN KESENIAN","TIPE_2":"PUSAT PERBELANJAAN","TIPE_3":"-","TELEPON":"","ALAMAT":"JL. TEUKU UMAR NO.10-9, RT.001/RW.001, CIMONE JAYA, KEC. KARAWACI, KOTA TANGERANG, BANTEN 15114","ID_PROV":"36","PROVINSI":"BANTEN","ID_KABKOT":"36.71","KABKOT":"KOTA TANGERANG","ID_KEC":"36.71.07","KECAMATAN":"KARAWACI","ID_DESA":"36.71.07.1006","DESA":"CIMONE JAYA","LONGITUDE":"106.616507","LATITUDE":"-6.194819499999999","STATUS":"BUKA","TANGGAL PE":"Q2 2025","TANGGAL UP":"27/05/2025"}},{"type":"Feature","geometry":{"coordinates":[106.6341002,-6.1939327],"type":"Point"},"properties":{"NAMA":"TANGCITY MALL","TIPE_1":"HIBURAN DAN KESENIAN","TIPE_2":"PUSAT PERBELANJAAN","TIPE_3":"-","TELEPON":"(021) 55733333","ALAMAT":"JL. JENDERAL SUDIRMAN NO.1, CIKOKOL, KEC. TANGERANG, KOTA TANGERANG, BANTEN 15117","ID_PROV":"36","PROVINSI":"BANTEN","ID_KABKOT":"36.71","KABKOT":"KOTA TANGERANG","ID_KEC":"36.71.01","KECAMATAN":"TANGERANG","ID_DESA":"36.71.01.1008","DESA":"BABAKAN","LONGITUDE":"106.63410019999999","LATITUDE":"-6.1939327","STATUS":"BUKA","TANGGAL PE":"Q2 2025","TANGGAL UP":"27/05/2025"}}]}