{"type":"FeatureCollection","features":[{"type":"Feature","geometry":{"coordinates":[106.4254849,-6.2624096],"type":"Point"},"properties":{"NAMA":"PUSKESMAS CISOKA","TIPE_1":"KESEHATAN DAN PENGOBATAN","TIPE_2":"LAYANAN MASYARAKAT","TIPE_3":"PUSKESMAS","TELEPON":"","ALAMAT":"JL. CISOKA - TIGARAKSA, CISOKA, KEC. CISOKA, KABUPATEN TANGERANG, BANTEN 15730","ID_PROV":"36","PROVINSI":"BANTEN","ID_KABKOT":"36.03","KABKOT":"TANGERANG","ID_KEC":"36.03.05","KECAMATAN":"CISOKA","ID_DESA":"36.03.05.2001","DESA":"CISOKA","LONGITUDE":106.4254849,"LATITUDE":-6.2624096,"STATUS":"BUKA","TANGGAL PENGUMPULAN":"Q1 2024","TANGGAL UPDATE":"28/02/2025"}},{"type":"Feature","geometry":{"coordinates":[106.4236212,-6.1518889],"type":"Point"},"properties":{"NAMA":"PUSKESMAS SUKAMULYA","TIPE_1":"KESEHATAN DAN PENGOBATAN","TIPE_2":"LAYANAN MASYARAKAT","TIPE_3":"PUSKESMAS","TELEPON":"(021) 59433586","ALAMAT":"JL. RAYA KRONJO, KALIASIN, KEC. SUKAMULYA, KABUPATEN TANGERANG, BANTEN 15610","ID_PROV":"36","PROVINSI":"BANTEN","ID_KABKOT":"36.03","KABKOT":"TANGERANG","ID_KEC":"36.03.27","KECAMATAN":"SUKAMULYA","ID_DESA":"36.03.27.2003","DESA":"KALIASIN","LONGITUDE":106.4236212,"LATITUDE":-6.1518889,"STATUS":"BUKA","TANGGAL PENGUMPULAN":"Q1 2024","TANGGAL UPDATE":"28/02/2025"}},{"type":"Feature","geometry":{"coordinates":[106.4170044,-6.2169933],"type":"Point"},"properties":{"NAMA":"PUSKESMAS GEMBONG","TIPE_1":"KESEHATAN DAN PENGOBATAN","TIPE_2":"LAYANAN MASYARAKAT","TIPE_3":"PUSKESMAS","TELEPON":"","ALAMAT":"JL. RAYA GEMBONG KP. DANGADEUR, GEMBONG, KEC. BALARAJA, KABUPATEN TANGERANG, BANTEN 15610","ID_PROV":"36","PROVINSI":"BANTEN","ID_KABKOT":"36.03","KABKOT":"TANGERANG","ID_KEC":"36.03.02","KECAMATAN":"JAYANTI","ID_DESA":"36.03.02.2005","DESA":"SUMUR BANDUNG","LONGITUDE":106.4170044,"LATITUDE":-6.2169933,"STATUS":"BUKA","TANGGAL PENGUMPULAN":"Q1 2024","TANGGAL UPDATE":"28/02/2025"}},{"type":"Feature","geometry":{"coordinates":[106.3752915,-6.076156],"type":"Point"},"properties":{"NAMA":"PUSKESMAS SIDOKO","TIPE_1":"KESEHATAN DAN PENGOBATAN","TIPE_2":"LAYANAN MASYARAKAT","TIPE_3":"PUSKESMAS","TELEPON":"","ALAMAT":"SIDOKO, KEC. GN. KALER, KABUPATEN TANGERANG, BANTEN 15620","ID_PROV":"36","PROVINSI":"BANTEN","ID_KABKOT":"36.03","KABKOT":"TANGERANG","ID_KEC":"36.03.32","KECAMATAN":"GUNUNG KALER","ID_DESA":"36.03.32.2002","DESA":"SIDOKO","LONGITUDE":106.3752915,"LATITUDE":-6.076156,"STATUS":"BUKA","TANGGAL PENGUMPULAN":"Q1 2024","TANGGAL UPDATE":"28/02/2025"}},{"type":"Feature","geometry":{"coordinates":[106.4170394,-6.217121],"type":"Point"},"properties":{"NAMA":"PUSKESMAS GEMBONG GEDUNG BARU","TIPE_1":"KESEHATAN DAN PENGOBATAN","TIPE_2":"LAYANAN MASYARAKAT","TIPE_3":"PUSKESMAS","TELEPON":"","ALAMAT":"JL. RAYA SERANG NO.91, GEMBONG, KEC. BALARAJA, KABUPATEN TANGERANG, BANTEN 15610","ID_PROV":"36","PROVINSI":"BANTEN","ID_KABKOT":"36.03","KABKOT":"TANGERANG","ID_KEC":"36.03.02","KECAMATAN":"JAYANTI","ID_DESA":"36.03.02.2005","DESA":"SUMUR BANDUNG","LONGITUDE":106.4170394,"LATITUDE":-6.217121,"STATUS":"BUKA","TANGGAL PENGUMPULAN":"Q1 2024","TANGGAL UPDATE":"28/02/2025"}},{"type":"Feature","geometry":{"coordinates":[106.4256329,-6.2919406],"type":"Point"},"properties":{"NAMA":"PUSKESMAS PEMBANTU DESA PASANGGRAHAN","TIPE_1":"KESEHATAN DAN PENGOBATAN","TIPE_2":"LAYANAN MASYARAKAT","TIPE_3":"PUSKESMAS","TELEPON":"","ALAMAT":"JL. CIBOGO, PASANGGRAHAN, KEC. SOLEAR, KABUPATEN TANGERANG, BANTEN 15730","ID_PROV":"36","PROVINSI":"BANTEN","ID_KABKOT":"36.03","KABKOT":"TANGERANG","ID_KEC":"36.03.31","KECAMATAN":"SOLEAR","ID_DESA":"36.03.31.2006","DESA":"PASANGGRAHAN","LONGITUDE":106.4256329,"LATITUDE":-6.2919406,"STATUS":"BUKA","TANGGAL PENGUMPULAN":"Q1 2024","TANGGAL UPDATE":"28/02/2025"}},{"type":"Feature","geometry":{"coordinates":[106.3595629,-6.0865039],"type":"Point"},"properties":{"NAMA":"PUSKESMAS GUNUNG KALER","TIPE_1":"KESEHATAN DAN PENGOBATAN","TIPE_2":"LAYANAN MASYARAKAT","TIPE_3":"PUSKESMAS","TELEPON":"","ALAMAT":"JALAN RAYA SYECH NAWAWI TANARA ALBANTANI NO.22, GN. KALER, KABUPATEN TANGERANG, BANTEN 15834","ID_PROV":"36","PROVINSI":"BANTEN","ID_KABKOT":"36.03","KABKOT":"TANGERANG","ID_KEC":"36.03.32","KECAMATAN":"GUNUNG KALER","ID_DESA":"36.03.32.2006","DESA":"ONYAM","LONGITUDE":106.3595629,"LATITUDE":-6.0865039,"STATUS":"BUKA","TANGGAL PENGUMPULAN":"Q1 2024","TANGGAL UPDATE":"28/02/2025"}},{"type":"Feature","geometry":{"coordinates":[106.3787192,-6.1338874],"type":"Point"},"properties":{"NAMA":"PUSKESMAS KRESEK","TIPE_1":"KESEHATAN DAN PENGOBATAN","TIPE_2":"LAYANAN MASYARAKAT","TIPE_3":"PUSKESMAS","TELEPON":"(021) 59380617","ALAMAT":"JL. RAYA SYECH NAWAWI NO.2, KRESEK, KEC. KRESEK, KABUPATEN TANGERANG, BANTEN 15620","ID_PROV":"36","PROVINSI":"BANTEN","ID_KABKOT":"36.03","KABKOT":"TANGERANG","ID_KEC":"36.03.06","KECAMATAN":"KRESEK","ID_DESA":"36.03.06.2018","DESA":"KRESEK","LONGITUDE":106.3787192,"LATITUDE":-6.1338874,"STATUS":"BUKA","TANGGAL PENGUMPULAN":"Q1 2024","TANGGAL UPDATE":"28/02/2025"}},{"type":"Feature","geometry":{"coordinates":[106.3861996,-6.2068671],"type":"Point"},"properties":{"NAMA":"PUSKESMAS JAYANTI","TIPE_1":"KESEHATAN DAN PENGOBATAN","TIPE_2":"LAYANAN MASYARAKAT","TIPE_3":"PUSKESMAS","TELEPON":"0812-9486-456","ALAMAT":"JL. RAYA SERANG NO.KM.35, CIKANDE, KEC. JAYANTI, KABUPATEN TANGERANG, BANTEN 15610","ID_PROV":"36","PROVINSI":"BANTEN","ID_KABKOT":"36.03","KABKOT":"TANGERANG","ID_KEC":"36.03.02","KECAMATAN":"JAYANTI","ID_DESA":"36.03.02.2008","DESA":"CIKANDE","LONGITUDE":106.3861996,"LATITUDE":-6.2068671,"STATUS":"BUKA","TANGGAL PENGUMPULAN":"Q1 2024","TANGGAL UPDATE":"28/02/2025"}},{"type":"Feature","geometry":{"coordinates":[106.4489761,-6.1673078],"type":"Point"},"properties":{"NAMA":"PUSKESMAS PEMBANTU BALARAJA","TIPE_1":"KESEHATAN DAN PENGOBATAN","TIPE_2":"LAYANAN MASYARAKAT","TIPE_3":"PUSKESMAS","TELEPON":"0812-9450-5917","ALAMAT":"JL. PERUM VILA BALARAJA NO.7, SAGA, KEC. BALARAJA, KABUPATEN TANGERANG, BANTEN 15610","ID_PROV":"36","PROVINSI":"BANTEN","ID_KABKOT":"36.03","KABKOT":"TANGERANG","ID_KEC":"36.03.01","KECAMATAN":"BALARAJA","ID_DESA":"36.03.01.2014","DESA":"SAGA","LONGITUDE":106.4489761,"LATITUDE":-6.1673078,"STATUS":"BUKA","TANGGAL PENGUMPULAN":"Q1 2024","TANGGAL UPDATE":"28/02/2025"}},{"type":"Feature","geometry":{"coordinates":[106.665203,-6.0428368],"type":"Point"},"properties":{"NAMA":"PUSKESMAS TEGAL ANGUS","TIPE_1":"KESEHATAN DAN PENGOBATAN","TIPE_2":"LAYANAN MASYARAKAT","TIPE_3":"PUSKESMAS","TELEPON":"","ALAMAT":"JL. TJ. PASIR NO.KM 2.5, TEGAL ANGUS, KEC. TELUKNAGA, KABUPATEN TANGERANG, BANTEN 15510","ID_PROV":"36","PROVINSI":"BANTEN","ID_KABKOT":"36.03","KABKOT":"TANGERANG","ID_KEC":"36.03.13","KECAMATAN":"TELUKNAGA","ID_DESA":"36.03.13.2011","DESA":"TEGAL ANGUS","LONGITUDE":106.665203,"LATITUDE":-6.0428368,"STATUS":"BUKA","TANGGAL PENGUMPULAN":"Q1 2024","TANGGAL UPDATE":"28/02/2025"}},{"type":"Feature","geometry":{"coordinates":[106.5219438,-6.2737603],"type":"Point"},"properties":{"NAMA":"PUSKESMAS PANONGAN","TIPE_1":"KESEHATAN DAN PENGOBATAN","TIPE_2":"LAYANAN MASYARAKAT","TIPE_3":"PUSKESMAS","TELEPON":"","ALAMAT":"JL. RAYA PANONGAN, PANONGAN, KEC. PANONGAN, KABUPATEN TANGERANG, BANTEN 15710","ID_PROV":"36","PROVINSI":"BANTEN","ID_KABKOT":"36.03","KABKOT":"TANGERANG","ID_KEC":"36.03.19","KECAMATAN":"PANONGAN","ID_DESA":"36.03.19.2008","DESA":"PANONGAN","LONGITUDE":106.5219438,"LATITUDE":-6.2737603,"STATUS":"BUKA","TANGGAL PENGUMPULAN":"Q1 2024","TANGGAL UPDATE":"28/02/2025"}},{"type":"Feature","geometry":{"coordinates":[106.6005098,-6.2137181],"type":"Point"},"properties":{"NAMA":"PUSKESMAS JALAN EMAS","TIPE_1":"KESEHATAN DAN PENGOBATAN","TIPE_2":"LAYANAN MASYARAKAT","TIPE_3":"PUSKESMAS","TELEPON":"(021) 55657854","ALAMAT":"PUSKESMAS JL. EMAS, JL. EMAS RAYA NO.9A, BENCONGAN, KEC. KLP. DUA, KABUPATEN TANGERANG, BANTEN 15810","ID_PROV":"36","PROVINSI":"BANTEN","ID_KABKOT":"36.03","KABKOT":"TANGERANG","ID_KEC":"36.03.28","KECAMATAN":"KELAPA DUA","ID_DESA":"36.03.28.1002","DESA":"BENCONGAN","LONGITUDE":106.6005098,"LATITUDE":-6.2137181,"STATUS":"BUKA","TANGGAL PENGUMPULAN":"Q1 2024","TANGGAL UPDATE":"28/02/2025"}},{"type":"Feature","geometry":{"coordinates":[106.5620252,-6.3303806],"type":"Point"},"properties":{"NAMA":"PUSKESMAS BOJONG KAMAL","TIPE_1":"KESEHATAN DAN PENGOBATAN","TIPE_2":"LAYANAN MASYARAKAT","TIPE_3":"PUSKESMAS","TELEPON":"","ALAMAT":"JL. RAYA H. TABRI NO.17, CIRARAB, KEC. LEGOK, KABUPATEN TANGERANG, BANTEN 15820","ID_PROV":"36","PROVINSI":"BANTEN","ID_KABKOT":"36.03","KABKOT":"TANGERANG","ID_KEC":"36.03.20","KECAMATAN":"LEGOK","ID_DESA":"36.03.20.2012","DESA":"CIRARAB","LONGITUDE":106.5620252,"LATITUDE":-6.3303806,"STATUS":"BUKA","TANGGAL PENGUMPULAN":"Q1 2024","TANGGAL UPDATE":"28/02/2025"}},{"type":"Feature","geometry":{"coordinates":[106.6417704,-6.3236142],"type":"Point"},"properties":{"NAMA":"PUSKESMAS CISAUK","TIPE_1":"KESEHATAN DAN PENGOBATAN","TIPE_2":"LAYANAN MASYARAKAT","TIPE_3":"PUSKESMAS","TELEPON":"(021) 75791075","ALAMAT":"JL. RAYA CISAUK LAPAN, SAMPORA, KEC. CISAUK, KABUPATEN TANGERANG, BANTEN 15345","ID_PROV":"36","PROVINSI":"BANTEN","ID_KABKOT":"36.03","KABKOT":"TANGERANG","ID_KEC":"36.03.23","KECAMATAN":"CISAUK","ID_DESA":"36.03.23.2006","DESA":"SAMPORA","LONGITUDE":106.6417704,"LATITUDE":-6.3236142,"STATUS":"BUKA","TANGGAL PENGUMPULAN":"Q1 2024","TANGGAL UPDATE":"28/02/2025"}},{"type":"Feature","geometry":{"coordinates":[106.5814821,-6.318032],"type":"Point"},"properties":{"NAMA":"PUSKESMAS CARINGIN","TIPE_1":"KESEHATAN DAN PENGOBATAN","TIPE_2":"LAYANAN MASYARAKAT","TIPE_3":"PUSKESMAS","TELEPON":"0852-1923-5480","ALAMAT":"JL. RAYA PARUNG PANJANG NO.81, CARINGIN, KEC. LEGOK, KABUPATEN TANGERANG, BANTEN 15820","ID_PROV":"36","PROVINSI":"BANTEN","ID_KABKOT":"36.03","KABKOT":"TANGERANG","ID_KEC":"36.03.20","KECAMATAN":"LEGOK","ID_DESA":"36.03.20.2002","DESA":"CARINGIN","LONGITUDE":106.5814821,"LATITUDE":-6.318032,"STATUS":"BUKA","TANGGAL PENGUMPULAN":"Q1 2024","TANGGAL UPDATE":"28/02/2025"}},{"type":"Feature","geometry":{"coordinates":[106.4242667,-6.0610167],"type":"Point"},"properties":{"NAMA":"PUSKESMAS KRONJO","TIPE_1":"KESEHATAN DAN PENGOBATAN","TIPE_2":"LAYANAN MASYARAKAT","TIPE_3":"PUSKESMAS","TELEPON":"(021) 59390764","ALAMAT":"SMA NEGERI 9 KAB. TANGERAN, JL IR. SUTAMI, NO. 16, KRONJO, JL. RAYA PS. BARU NO.1, KRONJO, KEC. KRONJO, KABUPATEN TANGERANG, BANTEN 15550","ID_PROV":"36","PROVINSI":"BANTEN","ID_KABKOT":"36.03","KABKOT":"TANGERANG","ID_KEC":"36.03.07","KECAMATAN":"KRONJO","ID_DESA":"36.03.07.2001","DESA":"KRONJO","LONGITUDE":106.4242667,"LATITUDE":-6.0610167,"STATUS":"BUKA","TANGGAL PENGUMPULAN":"Q1 2024","TANGGAL UPDATE":"28/02/2025"}},{"type":"Feature","geometry":{"coordinates":[106.4610698,-6.1931803],"type":"Point"},"properties":{"NAMA":"PUSKESMAS BALARAJA","TIPE_1":"KESEHATAN DAN PENGOBATAN","TIPE_2":"LAYANAN MASYARAKAT","TIPE_3":"PUSKESMAS","TELEPON":"","ALAMAT":"JL. RAYA SERANG NO.KM. 24, TALAGASARI, KEC. BALARAJA, KABUPATEN TANGERANG, BANTEN 15610","ID_PROV":"36","PROVINSI":"BANTEN","ID_KABKOT":"36.03","KABKOT":"TANGERANG","ID_KEC":"36.03.01","KECAMATAN":"BALARAJA","ID_DESA":"36.03.01.2005","DESA":"TALAGASARI","LONGITUDE":106.4610698,"LATITUDE":-6.1931803,"STATUS":"BUKA","TANGGAL PENGUMPULAN":"Q1 2024","TANGGAL UPDATE":"28/02/2025"}},{"type":"Feature","geometry":{"coordinates":[106.5339166,-6.1983416],"type":"Point"},"properties":{"NAMA":"PUSKESMAS PASIR JAYA","TIPE_1":"KESEHATAN DAN PENGOBATAN","TIPE_2":"LAYANAN MASYARAKAT","TIPE_3":"PUSKESMAS","TELEPON":"","ALAMAT":"BLOK A4 NO, JL. PERUM BUKIT TIARA NO.18, PASIR JAYA, KEC. CIKUPA, KABUPATEN TANGERANG, BANTEN 15710","ID_PROV":"36","PROVINSI":"BANTEN","ID_KABKOT":"36.03","KABKOT":"TANGERANG","ID_KEC":"36.03.18","KECAMATAN":"CIKUPA","ID_DESA":"36.03.18.2012","DESA":"PASIR JAYA","LONGITUDE":106.5339166,"LATITUDE":-6.1983416,"STATUS":"BUKA","TANGGAL PENGUMPULAN":"Q1 2024","TANGGAL UPDATE":"28/02/2025"}},{"type":"Feature","geometry":{"coordinates":[106.5734238,-6.1158235],"type":"Point"},"properties":{"NAMA":"PUSKESMAS SEPATAN","TIPE_1":"KESEHATAN DAN PENGOBATAN","TIPE_2":"LAYANAN MASYARAKAT","TIPE_3":"PUSKESMAS","TELEPON":"(021) 59372087","ALAMAT":"JL. RAYA MAUK NO.KM11, SEPATAN, KEC. SEPATAN, KABUPATEN TANGERANG, BANTEN 15520","ID_PROV":"36","PROVINSI":"BANTEN","ID_KABKOT":"36.03","KABKOT":"TANGERANG","ID_KEC":"36.03.16","KECAMATAN":"SEPATAN","ID_DESA":"36.03.16.1001","DESA":"SEPATAN","LONGITUDE":106.5734238,"LATITUDE":-6.1158235,"STATUS":"BUKA","TANGGAL PENGUMPULAN":"Q1 2024","TANGGAL UPDATE":"28/02/2025"}},{"type":"Feature","geometry":{"coordinates":[106.4682792,-6.2638098],"type":"Point"},"properties":{"NAMA":"PUSKESMAS TIGARAKSA","TIPE_1":"KESEHATAN DAN PENGOBATAN","TIPE_2":"LAYANAN MASYARAKAT","TIPE_3":"PUSKESMAS","TELEPON":"(021) 5992170","ALAMAT":"JL. KONGSI NO.12, RT.05/RW.03, TIGARAKSA, KEC. TIGARAKSA, KABUPATEN TANGERANG, BANTEN 15720","ID_PROV":"36","PROVINSI":"BANTEN","ID_KABKOT":"36.03","KABKOT":"TANGERANG","ID_KEC":"36.03.03","KECAMATAN":"TIGARAKSA","ID_DESA":"36.03.03.1001","DESA":"TIGARAKSA","LONGITUDE":106.4682792,"LATITUDE":-6.2638098,"STATUS":"BUKA","TANGGAL PENGUMPULAN":"Q1 2024","TANGGAL UPDATE":"28/02/2025"}},{"type":"Feature","geometry":{"coordinates":[106.519475,-6.2277217],"type":"Point"},"properties":{"NAMA":"PUSKESMAS CIKUPA","TIPE_1":"KESEHATAN DAN PENGOBATAN","TIPE_2":"LAYANAN MASYARAKAT","TIPE_3":"PUSKESMAS","TELEPON":"(021) 22018896","ALAMAT":"JL. RAYA SERANG, TALAGASARI, KEC. CIKUPA, KABUPATEN TANGERANG, BANTEN 15710","ID_PROV":"36","PROVINSI":"BANTEN","ID_KABKOT":"36.03","KABKOT":"TANGERANG","ID_KEC":"36.03.18","KECAMATAN":"CIKUPA","ID_DESA":"36.03.18.2005","DESA":"TALAGASARI","LONGITUDE":106.519475,"LATITUDE":-6.2277217,"STATUS":"BUKA","TANGGAL PENGUMPULAN":"Q1 2024","TANGGAL UPDATE":"28/02/2025"}},{"type":"Feature","geometry":{"coordinates":[106.5104527,-6.0613307],"type":"Point"},"properties":{"NAMA":"PUSKESMAS MAUK","TIPE_1":"KESEHATAN DAN PENGOBATAN","TIPE_2":"LAYANAN MASYARAKAT","TIPE_3":"PUSKESMAS","TELEPON":"","ALAMAT":"NO.,, JL. RAYA RAJEG TANJAKAN NO.2, MAUK TIM., KEC. MAUK, KABUPATEN TANGERANG, BANTEN 15330","ID_PROV":"36","PROVINSI":"BANTEN","ID_KABKOT":"36.03","KABKOT":"TANGERANG","ID_KEC":"36.03.08","KECAMATAN":"MAUK","ID_DESA":"36.03.08.1002","DESA":"MAUK TIMUR","LONGITUDE":106.5104527,"LATITUDE":-6.0613307,"STATUS":"BUKA","TANGGAL PENGUMPULAN":"Q1 2024","TANGGAL UPDATE":"28/02/2025"}},{"type":"Feature","geometry":{"coordinates":[106.56241,-6.2515115],"type":"Point"},"properties":{"NAMA":"UPTD PUSKESMAS CURUG","TIPE_1":"KESEHATAN DAN PENGOBATAN","TIPE_2":"LAYANAN MASYARAKAT","TIPE_3":"PUSKESMAS","TELEPON":"(021) 5980801","ALAMAT":"JL. RAYA STPI CURUG, SUKA BAKTI, KEC. CURUG, KABUPATEN TANGERANG, BANTEN 15810","ID_PROV":"36","PROVINSI":"BANTEN","ID_KABKOT":"36.03","KABKOT":"TANGERANG","ID_KEC":"36.03.17","KECAMATAN":"CURUG","ID_DESA":"36.03.17.1005","DESA":"SUKABAKTI","LONGITUDE":106.56241,"LATITUDE":-6.2515115,"STATUS":"BUKA","TANGGAL PENGUMPULAN":"Q1 2024","TANGGAL UPDATE":"28/02/2025"}},{"type":"Feature","geometry":{"coordinates":[106.6804542,-6.0865512],"type":"Point"},"properties":{"NAMA":"PUSKESMAS KOSAMBI","TIPE_1":"KESEHATAN DAN PENGOBATAN","TIPE_2":"LAYANAN MASYARAKAT","TIPE_3":"PUSKESMAS","TELEPON":"(021) 55932241","ALAMAT":"JALAN RAYA BOJONG RENGED NO.KM, RW.5, CENGKLONG, KEC. KOSAMBI, KABUPATEN TANGERANG, BANTEN 15213","ID_PROV":"36","PROVINSI":"BANTEN","ID_KABKOT":"36.03","KABKOT":"TANGERANG","ID_KEC":"36.03.14","KECAMATAN":"KOSAMBI","ID_DESA":"36.03.14.2007","DESA":"CENGKLONG","LONGITUDE":106.6804542,"LATITUDE":-6.0865512,"STATUS":"BUKA","TANGGAL PENGUMPULAN":"Q1 2024","TANGGAL UPDATE":"28/02/2025"}},{"type":"Feature","geometry":{"coordinates":[106.5704757,-6.1559451],"type":"Point"},"properties":{"NAMA":"UPTD PUSKESMAS KUTABUMI BARU","TIPE_1":"KESEHATAN DAN PENGOBATAN","TIPE_2":"LAYANAN MASYARAKAT","TIPE_3":"PUSKESMAS","TELEPON":"","ALAMAT":"KUTA BARU, KEC. PS. KEMIS, KABUPATEN TANGERANG, BANTEN 15560","ID_PROV":"36","PROVINSI":"BANTEN","ID_KABKOT":"36.03","KABKOT":"TANGERANG","ID_KEC":"36.03.12","KECAMATAN":"PASAR KEMIS","ID_DESA":"36.03.12.1014","DESA":"KUTA BARU","LONGITUDE":106.5704757,"LATITUDE":-6.1559451,"STATUS":"BUKA","TANGGAL PENGUMPULAN":"Q1 2024","TANGGAL UPDATE":"28/02/2025"}},{"type":"Feature","geometry":{"coordinates":[106.5268925,-6.2135272],"type":"Point"},"properties":{"NAMA":"PUSKESMAS CIMANGGU","TIPE_1":"KESEHATAN DAN PENGOBATAN","TIPE_2":"LAYANAN MASYARAKAT","TIPE_3":"PUSKESMAS","TELEPON":"0811-152-255","ALAMAT":"JL RAYA CIBALIUNG-SUMUR KM 12 POLOS CIMANGGU, PANDEGLANG, PASIR GADUNG, KEC. CIKUPA, KABUPATEN TANGERANG, BANTEN 15710","ID_PROV":"36","PROVINSI":"BANTEN","ID_KABKOT":"36.03","KABKOT":"TANGERANG","ID_KEC":"36.03.18","KECAMATAN":"CIKUPA","ID_DESA":"36.03.18.2010","DESA":"PASIR GADUNG","LONGITUDE":106.5268925,"LATITUDE":-6.2135272,"STATUS":"BUKA","TANGGAL PENGUMPULAN":"Q1 2024","TANGGAL UPDATE":"28/02/2025"}},{"type":"Feature","geometry":{"coordinates":[106.6231938,-6.2362389],"type":"Point"},"properties":{"NAMA":"PUSKESMAS KELAPA DUA","TIPE_1":"KESEHATAN DAN PENGOBATAN","TIPE_2":"LAYANAN MASYARAKAT","TIPE_3":"PUSKESMAS","TELEPON":"0811-8880-8485","ALAMAT":"JL. LAYAR IV PERUM, KLP. DUA, KEC. KLP. DUA, KABUPATEN TANGERANG, BANTEN 15810","ID_PROV":"36","PROVINSI":"BANTEN","ID_KABKOT":"36.03","KABKOT":"TANGERANG","ID_KEC":"36.03.28","KECAMATAN":"KELAPA DUA","ID_DESA":"36.03.28.1001","DESA":"KELAPA DUA","LONGITUDE":106.6231938,"LATITUDE":-6.2362389,"STATUS":"BUKA","TANGGAL PENGUMPULAN":"Q1 2024","TANGGAL UPDATE":"28/02/2025"}},{"type":"Feature","geometry":{"coordinates":[106.6058268,-6.1232803],"type":"Point"},"properties":{"NAMA":"PUSKESMAS KEDAUNG BARAT","TIPE_1":"KESEHATAN DAN PENGOBATAN","TIPE_2":"LAYANAN MASYARAKAT","TIPE_3":"PUSKESMAS","TELEPON":"(021) 59372515","ALAMAT":"JALAN RAYA, KEDAUNG BAR., KEC. SEPATAN TIM., KABUPATEN TANGERANG, BANTEN 15520","ID_PROV":"36","PROVINSI":"BANTEN","ID_KABKOT":"36.03","KABKOT":"TANGERANG","ID_KEC":"36.03.30","KECAMATAN":"SEPATAN TIMUR","ID_DESA":"36.03.30.2001","DESA":"KEDAUNG BARAT","LONGITUDE":106.6058268,"LATITUDE":-6.1232803,"STATUS":"BUKA","TANGGAL PENGUMPULAN":"Q1 2024","TANGGAL UPDATE":"28/02/2025"}},{"type":"Feature","geometry":{"coordinates":[106.4550266,-6.2808747],"type":"Point"},"properties":{"NAMA":"PUSKESMAS PEMBANTU MUNJUL","TIPE_1":"KESEHATAN DAN PENGOBATAN","TIPE_2":"LAYANAN MASYARAKAT","TIPE_3":"PUSKESMAS","TELEPON":"","ALAMAT":"JL. RAYA MUNJUL, MUNJUL, KEC. SOLEAR, KABUPATEN TANGERANG, BANTEN 15730","ID_PROV":"36","PROVINSI":"BANTEN","ID_KABKOT":"36.03","KABKOT":"TANGERANG","ID_KEC":"36.03.31","KECAMATAN":"SOLEAR","ID_DESA":"36.03.31.2007","DESA":"MUNJUL","LONGITUDE":106.4550266,"LATITUDE":-6.2808747,"STATUS":"BUKA","TANGGAL PENGUMPULAN":"Q1 2024","TANGGAL UPDATE":"28/02/2025"}},{"type":"Feature","geometry":{"coordinates":[106.5844563,-6.0391943],"type":"Point"},"properties":{"NAMA":"PUSKESMAS SUKAWALI","TIPE_1":"KESEHATAN DAN PENGOBATAN","TIPE_2":"LAYANAN MASYARAKAT","TIPE_3":"PUSKESMAS","TELEPON":"","ALAMAT":"JL. DESA SUKAWALI, SUKAWALI, KECAMATAN PAKUHAJI, KABUPATEN TANGERANG, BANTEN 15570","ID_PROV":"36","PROVINSI":"BANTEN","ID_KABKOT":"36.03","KABKOT":"TANGERANG","ID_KEC":"36.03.15","KECAMATAN":"PAKUHAJI","ID_DESA":"36.03.15.2010","DESA":"SUKAWALI","LONGITUDE":106.5844563,"LATITUDE":-6.0391943,"STATUS":"BUKA","TANGGAL PENGUMPULAN":"Q1 2024","TANGGAL UPDATE":"28/02/2025"}},{"type":"Feature","geometry":{"coordinates":[106.5096822,-6.2547493],"type":"Point"},"properties":{"NAMA":"PUSKESMAS PEMBANTU MEKAR BAKTI","TIPE_1":"KESEHATAN DAN PENGOBATAN","TIPE_2":"LAYANAN MASYARAKAT","TIPE_3":"PUSKESMAS","TELEPON":"0821-2218-6272","ALAMAT":"JALAN MEKAR BAKTI 1, KABUPATEN TANGERANG, MEKAR BAKTI, KEC. PANONGAN, KABUPATEN TANGERANG, BANTEN 15710","ID_PROV":"36","PROVINSI":"BANTEN","ID_KABKOT":"36.03","KABKOT":"TANGERANG","ID_KEC":"36.03.19","KECAMATAN":"PANONGAN","ID_DESA":"36.03.19.1002","DESA":"MEKAR BAKTI","LONGITUDE":106.5096822,"LATITUDE":-6.2547493,"STATUS":"BUKA","TANGGAL PENGUMPULAN":"Q1 2024","TANGGAL UPDATE":"28/02/2025"}},{"type":"Feature","geometry":{"coordinates":[106.4802007,-6.3137419],"type":"Point"},"properties":{"NAMA":"PUSKESMAS JAMBE","TIPE_1":"KESEHATAN DAN PENGOBATAN","TIPE_2":"LAYANAN MASYARAKAT","TIPE_3":"PUSKESMAS","TELEPON":"(021) 59986582","ALAMAT":"JL. RAYA TIPAR - DARU NO.7, RT./RW/RW.001/006, TIPAR RAYA, KEC. JAMBE, KABUPATEN TANGERANG, BANTEN 15720","ID_PROV":"36","PROVINSI":"BANTEN","ID_KABKOT":"36.03","KABKOT":"TANGERANG","ID_KEC":"36.03.04","KECAMATAN":"JAMBE","ID_DESA":"36.03.04.2003","DESA":"TIPAR RAYA","LONGITUDE":106.4802007,"LATITUDE":-6.3137419,"STATUS":"BUKA","TANGGAL PENGUMPULAN":"Q1 2024","TANGGAL UPDATE":"28/02/2025"}},{"type":"Feature","geometry":{"coordinates":[106.5066601,-6.2159753],"type":"Point"},"properties":{"NAMA":"PUSKESMAS","TIPE_1":"KESEHATAN DAN PENGOBATAN","TIPE_2":"LAYANAN MASYARAKAT","TIPE_3":"PUSKESMAS","TELEPON":"0812-7756-4432","ALAMAT":"TALAGA, KEC. CIKUPA, KABUPATEN TANGERANG, BANTEN 15710","ID_PROV":"36","PROVINSI":"BANTEN","ID_KABKOT":"36.03","KABKOT":"TANGERANG","ID_KEC":"36.03.18","KECAMATAN":"CIKUPA","ID_DESA":"36.03.18.2004","DESA":"TALAGA","LONGITUDE":106.5066601,"LATITUDE":-6.2159753,"STATUS":"BUKA","TANGGAL PENGUMPULAN":"Q1 2024","TANGGAL UPDATE":"28/02/2025"}},{"type":"Feature","geometry":{"coordinates":[106.4706895,-6.2524567],"type":"Point"},"properties":{"NAMA":"PUSKESMAS PASIR NANGKA","TIPE_1":"KESEHATAN DAN PENGOBATAN","TIPE_2":"LAYANAN MASYARAKAT","TIPE_3":"PUSKESMAS","TELEPON":"","ALAMAT":"JL. ARIA JAYA SANTIKA NO.DS, PASIR NANGKA, KEC. TIGARAKSA, KABUPATEN TANGERANG, BANTEN 15720","ID_PROV":"36","PROVINSI":"BANTEN","ID_KABKOT":"36.03","KABKOT":"TANGERANG","ID_KEC":"36.03.03","KECAMATAN":"TIGARAKSA","ID_DESA":"36.03.03.2004","DESA":"PASIR NANGKA","LONGITUDE":106.4706895,"LATITUDE":-6.2524567,"STATUS":"BUKA","TANGGAL PENGUMPULAN":"Q1 2024","TANGGAL UPDATE":"28/02/2025"}},{"type":"Feature","geometry":{"coordinates":[106.5292526,-6.1704571],"type":"Point"},"properties":{"NAMA":"PUSKESMAS SINDANG JAYA","TIPE_1":"KESEHATAN DAN PENGOBATAN","TIPE_2":"LAYANAN MASYARAKAT","TIPE_3":"PUSKESMAS","TELEPON":"(021) 5905713","ALAMAT":"JL. KP. PONDOK, SUKA HARJA, KEC. SINDANG JAYA, KABUPATEN TANGERANG, BANTEN 15560","ID_PROV":"36","PROVINSI":"BANTEN","ID_KABKOT":"36.03","KABKOT":"TANGERANG","ID_KEC":"36.03.29","KECAMATAN":"SINDANG JAYA","ID_DESA":"36.03.29.2003","DESA":"SUKAHARJA","LONGITUDE":106.5292526,"LATITUDE":-6.1704571,"STATUS":"BUKA","TANGGAL PENGUMPULAN":"Q1 2024","TANGGAL UPDATE":"28/02/2025"}},{"type":"Feature","geometry":{"coordinates":[106.5267202,-6.1273905],"type":"Point"},"properties":{"NAMA":"PUSKESMAS RAJEG","TIPE_1":"KESEHATAN DAN PENGOBATAN","TIPE_2":"LAYANAN MASYARAKAT","TIPE_3":"PUSKESMAS","TELEPON":"","ALAMAT":"JL. RAYA RAJEK-MAUK, MEKARSARI, KEC. RAJEG, KABUPATEN TANGERANG, BANTEN 15540","ID_PROV":"36","PROVINSI":"BANTEN","ID_KABKOT":"36.03","KABKOT":"TANGERANG","ID_KEC":"36.03.11","KECAMATAN":"RAJEG","ID_DESA":"36.03.11.2014","DESA":"MEKARSARI","LONGITUDE":106.5267202,"LATITUDE":-6.1273905,"STATUS":"BUKA","TANGGAL PENGUMPULAN":"Q1 2024","TANGGAL UPDATE":"28/02/2025"}},{"type":"Feature","geometry":{"coordinates":[106.5906751,-6.2986645],"type":"Point"},"properties":{"NAMA":"PUSKESMAS LEGOK","TIPE_1":"KESEHATAN DAN PENGOBATAN","TIPE_2":"LAYANAN MASYARAKAT","TIPE_3":"PUSKESMAS","TELEPON":"","ALAMAT":"JALAN RAYA, KARAWACI, KEC. LEGOK, KABUPATEN TANGERANG, BANTEN 15820","ID_PROV":"36","PROVINSI":"BANTEN","ID_KABKOT":"36.03","KABKOT":"TANGERANG","ID_KEC":"36.03.20","KECAMATAN":"LEGOK","ID_DESA":"36.03.20.1011","DESA":"BABAKAN","LONGITUDE":106.5906751,"LATITUDE":-6.2986645,"STATUS":"BUKA","TANGGAL PENGUMPULAN":"Q1 2024","TANGGAL UPDATE":"28/02/2025"}},{"type":"Feature","geometry":{"coordinates":[106.5901117,-6.2338561],"type":"Point"},"properties":{"NAMA":"PUSKESMAS BINONG","TIPE_1":"KESEHATAN DAN PENGOBATAN","TIPE_2":"LAYANAN MASYARAKAT","TIPE_3":"PUSKESMAS","TELEPON":"(021) 59490220","ALAMAT":"JL. JALUR PIPA GAS PERTAMINA, BINONG, KEC. CURUG, KABUPATEN TANGERANG, BANTEN 15810","ID_PROV":"36","PROVINSI":"BANTEN","ID_KABKOT":"36.03","KABKOT":"TANGERANG","ID_KEC":"36.03.17","KECAMATAN":"CURUG","ID_DESA":"36.03.17.1006","DESA":"BINONG","LONGITUDE":106.5901117,"LATITUDE":-6.2338561,"STATUS":"BUKA","TANGGAL PENGUMPULAN":"Q1 2024","TANGGAL UPDATE":"28/02/2025"}},{"type":"Feature","geometry":{"coordinates":[106.5577865,-6.067278],"type":"Point"},"properties":{"NAMA":"PUSKESMAS SUKADIRI","TIPE_1":"KESEHATAN DAN PENGOBATAN","TIPE_2":"LAYANAN MASYARAKAT","TIPE_3":"PUSKESMAS","TELEPON":"","ALAMAT":"RW. KIDANG, KEC. SUKADIRI, KABUPATEN TANGERANG, BANTEN 15330","ID_PROV":"36","PROVINSI":"BANTEN","ID_KABKOT":"36.03","KABKOT":"TANGERANG","ID_KEC":"36.03.10","KECAMATAN":"SUKADIRI","ID_DESA":"36.03.10.2001","DESA":"SUKADIRI","LONGITUDE":106.5577865,"LATITUDE":-6.067278,"STATUS":"BUKA","TANGGAL PENGUMPULAN":"Q1 2024","TANGGAL UPDATE":"28/02/2025"}},{"type":"Feature","geometry":{"coordinates":[106.5707909,-6.1559598],"type":"Point"},"properties":{"NAMA":"PUSKESMAS KUTABUMI","TIPE_1":"KESEHATAN DAN PENGOBATAN","TIPE_2":"LAYANAN MASYARAKAT","TIPE_3":"PUSKESMAS","TELEPON":"","ALAMAT":"JLN.GUNUNG CIREMAI BLOK B 3 NO 23 RT 01/09, KUTA BARU, KEC. PS. KEMIS, KABUPATEN TANGERANG, BANTEN 15561","ID_PROV":"36","PROVINSI":"BANTEN","ID_KABKOT":"36.03","KABKOT":"TANGERANG","ID_KEC":"36.03.12","KECAMATAN":"PASAR KEMIS","ID_DESA":"36.03.12.1014","DESA":"KUTA BARU","LONGITUDE":106.5707909,"LATITUDE":-6.1559598,"STATUS":"BUKA","TANGGAL PENGUMPULAN":"Q1 2024","TANGGAL UPDATE":"28/02/2025"}},{"type":"Feature","geometry":{"coordinates":[106.4998278,-6.1273567],"type":"Point"},"properties":{"NAMA":"PUSKESMAS SUKATANI","TIPE_1":"KESEHATAN DAN PENGOBATAN","TIPE_2":"LAYANAN MASYARAKAT","TIPE_3":"PUSKESMAS","TELEPON":"","ALAMAT":"SUKATANI, KEC. RAJEG, KABUPATEN TANGERANG, BANTEN 15540","ID_PROV":"36","PROVINSI":"BANTEN","ID_KABKOT":"36.03","KABKOT":"TANGERANG","ID_KEC":"36.03.11","KECAMATAN":"RAJEG","ID_DESA":"36.03.11.1010","DESA":"SUKATANI","LONGITUDE":106.4998278,"LATITUDE":-6.1273567,"STATUS":"BUKA","TANGGAL PENGUMPULAN":"Q1 2024","TANGGAL UPDATE":"28/02/2025"}},{"type":"Feature","geometry":{"coordinates":[106.5987928,-6.2258517],"type":"Point"},"properties":{"NAMA":"PUSKESMAS SILOAM","TIPE_1":"KESEHATAN DAN PENGOBATAN","TIPE_2":"LAYANAN MASYARAKAT","TIPE_3":"PUSKESMAS","TELEPON":"","ALAMAT":"BENCONGAN, KEC. KLP. DUA, KABUPATEN TANGERANG, BANTEN 15810","ID_PROV":"36","PROVINSI":"BANTEN","ID_KABKOT":"36.03","KABKOT":"TANGERANG","ID_KEC":"36.03.28","KECAMATAN":"KELAPA DUA","ID_DESA":"36.03.28.1003","DESA":"BENCONGAN INDAH","LONGITUDE":106.5987928,"LATITUDE":-6.2258517,"STATUS":"BUKA","TANGGAL PENGUMPULAN":"Q1 2024","TANGGAL UPDATE":"28/02/2025"}},{"type":"Feature","geometry":{"coordinates":[106.5693038,-6.1527502],"type":"Point"},"properties":{"NAMA":"GEDUNG BERSALIN PUSKESMAS KUTABUMI","TIPE_1":"KESEHATAN DAN PENGOBATAN","TIPE_2":"LAYANAN MASYARAKAT","TIPE_3":"PUSKESMAS","TELEPON":"","ALAMAT":"KUTABUMI, KEC. PS. KEMIS, KABUPATEN TANGERANG, BANTEN 15560","ID_PROV":"36","PROVINSI":"BANTEN","ID_KABKOT":"36.03","KABKOT":"TANGERANG","ID_KEC":"36.03.12","KECAMATAN":"PASAR KEMIS","ID_DESA":"36.03.12.1010","DESA":"KUTABUMI","LONGITUDE":106.5693038,"LATITUDE":-6.1527502,"STATUS":"BUKA","TANGGAL PENGUMPULAN":"Q1 2024","TANGGAL UPDATE":"28/02/2025"}},{"type":"Feature","geometry":{"coordinates":[106.6687348,-6.077071],"type":"Point"},"properties":{"NAMA":"PUSKESMAS SALEMBARAN JAYA","TIPE_1":"KESEHATAN DAN PENGOBATAN","TIPE_2":"LAYANAN MASYARAKAT","TIPE_3":"PUSKESMAS","TELEPON":"","ALAMAT":"JL. PUTRI 3 NO.KELURAHAN, SALEMBARAN JAYA, KEC. KOSAMBI, KABUPATEN TANGERANG, BANTEN 15214","ID_PROV":"36","PROVINSI":"BANTEN","ID_KABKOT":"36.03","KABKOT":"TANGERANG","ID_KEC":"36.03.14","KECAMATAN":"KOSAMBI","ID_DESA":"36.03.14.1003","DESA":"SALEMBARAN JAYA","LONGITUDE":106.6687348,"LATITUDE":-6.077071,"STATUS":"BUKA","TANGGAL PENGUMPULAN":"Q1 2024","TANGGAL UPDATE":"28/02/2025"}},{"type":"Feature","geometry":{"coordinates":[106.6465411,-6.0711654],"type":"Point"},"properties":{"NAMA":"PUSKESMAS TELUKNAGA","TIPE_1":"KESEHATAN DAN PENGOBATAN","TIPE_2":"LAYANAN MASYARAKAT","TIPE_3":"PUSKESMAS","TELEPON":"","ALAMAT":"JL. RAYA KAMPUNG MELAYU NO.KM.2, KP. MELAYU TIMUR, KEC. TELUKNAGA, KABUPATEN TANGERANG, BANTEN 15510","ID_PROV":"36","PROVINSI":"BANTEN","ID_KABKOT":"36.03","KABKOT":"TANGERANG","ID_KEC":"36.03.13","KECAMATAN":"TELUKNAGA","ID_DESA":"36.03.13.2006","DESA":"KMP MELAYU TIM","LONGITUDE":106.6465411,"LATITUDE":-6.0711654,"STATUS":"BUKA","TANGGAL PENGUMPULAN":"Q1 2024","TANGGAL UPDATE":"28/02/2025"}},{"type":"Feature","geometry":{"coordinates":[106.6204571,-6.2354713],"type":"Point"},"properties":{"NAMA":"PUSKESMAS KELAPA DUA (SEMENTARA)","TIPE_1":"KESEHATAN DAN PENGOBATAN","TIPE_2":"LAYANAN MASYARAKAT","TIPE_3":"PUSKESMAS","TELEPON":"0811-8880-8485","ALAMAT":"JL. DANAU KLP. DUA RAYA, KLP. DUA, KEC. KLP. DUA, KABUPATEN TANGERANG, BANTEN 15810","ID_PROV":"36","PROVINSI":"BANTEN","ID_KABKOT":"36.03","KABKOT":"TANGERANG","ID_KEC":"36.03.28","KECAMATAN":"KELAPA DUA","ID_DESA":"36.03.28.1001","DESA":"KELAPA DUA","LONGITUDE":106.6204571,"LATITUDE":-6.2354713,"STATUS":"BUKA","TANGGAL PENGUMPULAN":"Q1 2024","TANGGAL UPDATE":"28/02/2025"}},{"type":"Feature","geometry":{"coordinates":[106.6027712,-6.2219644],"type":"Point"},"properties":{"NAMA":"PUSKESMAS JALAN KUTAI","TIPE_1":"KESEHATAN DAN PENGOBATAN","TIPE_2":"LAYANAN MASYARAKAT","TIPE_3":"PUSKESMAS","TELEPON":"(021) 5915574","ALAMAT":"JL. RAYA HARAPAN KITA, BENCONGAN INDAH, KEC. KLP. DUA, KABUPATEN TANGERANG, BANTEN 15811","ID_PROV":"36","PROVINSI":"BANTEN","ID_KABKOT":"36.03","KABKOT":"TANGERANG","ID_KEC":"36.03.28","KECAMATAN":"KELAPA DUA","ID_DESA":"36.03.28.1003","DESA":"BENCONGAN INDAH","LONGITUDE":106.6027712,"LATITUDE":-6.2219644,"STATUS":"BUKA","TANGGAL PENGUMPULAN":"Q1 2024","TANGGAL UPDATE":"28/02/2025"}},{"type":"Feature","geometry":{"coordinates":[106.6347176,-6.3598241],"type":"Point"},"properties":{"NAMA":"PUSKESMAS SURADITA","TIPE_1":"KESEHATAN DAN PENGOBATAN","TIPE_2":"LAYANAN MASYARAKAT","TIPE_3":"PUSKESMAS","TELEPON":"0812-6086-2169","ALAMAT":"JL. ANGGREK RAYA, RT.18/RW.04, SURADITA, KEC. CISAUK, KABUPATEN TANGERANG, BANTEN 15343","ID_PROV":"36","PROVINSI":"BANTEN","ID_KABKOT":"36.03","KABKOT":"TANGERANG","ID_KEC":"36.03.23","KECAMATAN":"CISAUK","ID_DESA":"36.03.23.2005","DESA":"SURADITA","LONGITUDE":106.6347176,"LATITUDE":-6.3598241,"STATUS":"BUKA","TANGGAL PENGUMPULAN":"Q1 2024","TANGGAL UPDATE":"28/02/2025"}},{"type":"Feature","geometry":{"coordinates":[106.6001045,-6.2544254],"type":"Point"},"properties":{"NAMA":"PUSKESMAS BOJONG NANGKA","TIPE_1":"KESEHATAN DAN PENGOBATAN","TIPE_2":"LAYANAN MASYARAKAT","TIPE_3":"PUSKESMAS","TELEPON":"(021) 5476423","ALAMAT":"JL. PERUM DASANA INDAH, BOJONG NANGKA, KEC. KLP. DUA, KABUPATEN TANGERANG, BANTEN 15810","ID_PROV":"36","PROVINSI":"BANTEN","ID_KABKOT":"36.03","KABKOT":"TANGERANG","ID_KEC":"36.03.28","KECAMATAN":"KELAPA DUA","ID_DESA":"36.03.28.1005","DESA":"BOJONG NANGKA","LONGITUDE":106.6001045,"LATITUDE":-6.2544254,"STATUS":"BUKA","TANGGAL PENGUMPULAN":"Q1 2024","TANGGAL UPDATE":"28/02/2025"}},{"type":"Feature","geometry":{"coordinates":[106.5492149,-6.1559718],"type":"Point"},"properties":{"NAMA":"UPT PUSKESMAS PASAR KEMIS","TIPE_1":"KESEHATAN DAN PENGOBATAN","TIPE_2":"LAYANAN MASYARAKAT","TIPE_3":"PUSKESMAS","TELEPON":"","ALAMAT":"PERUM BUMI INDAH TAHAP 3, SUKAMANTRI, KEC. PS. KEMIS, KABUPATEN TANGERANG, BANTEN 15560","ID_PROV":"36","PROVINSI":"BANTEN","ID_KABKOT":"36.03","KABKOT":"TANGERANG","ID_KEC":"36.03.12","KECAMATAN":"PASAR KEMIS","ID_DESA":"36.03.12.2008","DESA":"SUKAMANTRI","LONGITUDE":106.5492149,"LATITUDE":-6.1559718,"STATUS":"BUKA","TANGGAL PENGUMPULAN":"Q1 2024","TANGGAL UPDATE":"28/02/2025"}},{"type":"Feature","geometry":{"coordinates":[106.6304481,-6.2939387],"type":"Point"},"properties":{"NAMA":"PUSKESMAS PAGEDANGAN","TIPE_1":"KESEHATAN DAN PENGOBATAN","TIPE_2":"LAYANAN MASYARAKAT","TIPE_3":"PUSKESMAS","TELEPON":"(021) 5387942","ALAMAT":"JL. RAYA PAGEDANGAN, RT.02/RW.01, PAGEDANGAN, KEC. PAGEDANGAN, KABUPATEN TANGERANG, BANTEN 15339","ID_PROV":"36","PROVINSI":"BANTEN","ID_KABKOT":"36.03","KABKOT":"TANGERANG","ID_KEC":"36.03.22","KECAMATAN":"PAGEDANGAN","ID_DESA":"36.03.22.2003","DESA":"PAGEDANGAN","LONGITUDE":106.6304481,"LATITUDE":-6.2939387,"STATUS":"BUKA","TANGGAL PENGUMPULAN":"Q1 2024","TANGGAL UPDATE":"28/02/2025"}},{"type":"Feature","geometry":{"coordinates":[106.465443,-6.1054793],"type":"Point"},"properties":{"NAMA":"UPTD PUSKESMAS KEMIRI","TIPE_1":"KESEHATAN DAN PENGOBATAN","TIPE_2":"LAYANAN MASYARAKAT","TIPE_3":"PUSKESMAS","TELEPON":"","ALAMAT":"JL. RAYA KEMIRI, RT.013/RW.04, KEMIRI, KEC. KEMIRI, KABUPATEN TANGERANG, BANTEN 15530","ID_PROV":"36","PROVINSI":"BANTEN","ID_KABKOT":"36.03","KABKOT":"TANGERANG","ID_KEC":"36.03.09","KECAMATAN":"KEMIRI","ID_DESA":"36.03.09.2004","DESA":"KEMIRI","LONGITUDE":106.465443,"LATITUDE":-6.1054793,"STATUS":"BUKA","TANGGAL PENGUMPULAN":"Q1 2024","TANGGAL UPDATE":"28/02/2025"}},{"type":"Feature","geometry":{"coordinates":[106.5788659,-6.2477889],"type":"Point"},"properties":{"NAMA":"PUSKESMAS PEMBANTU BINONG PERMAI","TIPE_1":"KESEHATAN DAN PENGOBATAN","TIPE_2":"LAYANAN MASYARAKAT","TIPE_3":"PUSKESMAS","TELEPON":"","ALAMAT":"JL. NN NO.B59, RW.3, SUKA BAKTI, KEC. CURUG, KABUPATEN TANGERANG, BANTEN 15810","ID_PROV":"36","PROVINSI":"BANTEN","ID_KABKOT":"36.03","KABKOT":"TANGERANG","ID_KEC":"36.03.17","KECAMATAN":"CURUG","ID_DESA":"36.03.17.1006","DESA":"BINONG","LONGITUDE":106.5788659,"LATITUDE":-6.2477889,"STATUS":"BUKA","TANGGAL PENGUMPULAN":"Q1 2024","TANGGAL UPDATE":"28/02/2025"}},{"type":"Feature","geometry":{"coordinates":[106.6466649,-6.07117],"type":"Point"},"properties":{"NAMA":"PUSKESMAS KAMPUNG MELAYU","TIPE_1":"KESEHATAN DAN PENGOBATAN","TIPE_2":"LAYANAN MASYARAKAT","TIPE_3":"PUSKESMAS","TELEPON":"","ALAMAT":"JL. TELADAN II NO.12, KP. MELAYU BARAT, KEC. TELUKNAGA, KABUPATEN TANGERANG, BANTEN 15510","ID_PROV":"36","PROVINSI":"BANTEN","ID_KABKOT":"36.03","KABKOT":"TANGERANG","ID_KEC":"36.03.13","KECAMATAN":"TELUKNAGA","ID_DESA":"36.03.13.2006","DESA":"KMP MELAYU TIM","LONGITUDE":106.6466649,"LATITUDE":-6.07117,"STATUS":"BUKA","TANGGAL PENGUMPULAN":"Q1 2024","TANGGAL UPDATE":"28/02/2025"}},{"type":"Feature","geometry":{"coordinates":[106.5705126,-6.1560008],"type":"Point"},"properties":{"NAMA":"BLUD PUSKESMAS KUTABUMI","TIPE_1":"KESEHATAN DAN PENGOBATAN","TIPE_2":"LAYANAN MASYARAKAT","TIPE_3":"PUSKESMAS","TELEPON":"","ALAMAT":"JL. KESEHATAN, RT/RW 01/09, KUTABUMI, PASAR KEMIS, BELAKANG, KUTABUMI, PLAZA, KABUPATEN TANGERANG, BANTEN 15560","ID_PROV":"36","PROVINSI":"BANTEN","ID_KABKOT":"36.03","KABKOT":"TANGERANG","ID_KEC":"36.03.12","KECAMATAN":"PASAR KEMIS","ID_DESA":"36.03.12.1014","DESA":"KUTA BARU","LONGITUDE":106.5705126,"LATITUDE":-6.1560008,"STATUS":"BUKA","TANGGAL PENGUMPULAN":"Q1 2024","TANGGAL UPDATE":"28/02/2025"}},{"type":"Feature","geometry":{"coordinates":[106.5824438,-6.0389083],"type":"Point"},"properties":{"NAMA":"PUSKESMAS SUKAWALI - GEDUNG BARU","TIPE_1":"KESEHATAN DAN PENGOBATAN","TIPE_2":"LAYANAN MASYARAKAT","TIPE_3":"PUSKESMAS","TELEPON":"","ALAMAT":"JALAN RAYA, SUKAWALI, KECAMATAN PAKUHAJI, KABUPATEN TANGERANG, BANTEN 15570","ID_PROV":"36","PROVINSI":"BANTEN","ID_KABKOT":"36.03","KABKOT":"TANGERANG","ID_KEC":"36.03.15","KECAMATAN":"PAKUHAJI","ID_DESA":"36.03.15.2010","DESA":"SUKAWALI","LONGITUDE":106.5824438,"LATITUDE":-6.0389083,"STATUS":"BUKA","TANGGAL PENGUMPULAN":"Q1 2024","TANGGAL UPDATE":"28/02/2025"}},{"type":"Feature","geometry":{"coordinates":[106.5510978,-6.0919341],"type":"Point"},"properties":{"NAMA":"PUSKESMAS PEMBANTU DESA GINTUNG","TIPE_1":"KESEHATAN DAN PENGOBATAN","TIPE_2":"LAYANAN MASYARAKAT","TIPE_3":"PUSKESMAS","TELEPON":"","ALAMAT":"GINTUNG, KEC. SUKADIRI, KABUPATEN TANGERANG, BANTEN 15330","ID_PROV":"36","PROVINSI":"BANTEN","ID_KABKOT":"36.03","KABKOT":"TANGERANG","ID_KEC":"36.03.10","KECAMATAN":"SUKADIRI","ID_DESA":"36.03.10.2008","DESA":"GINTUNG","LONGITUDE":106.5510978,"LATITUDE":-6.0919341,"STATUS":"BUKA","TANGGAL PENGUMPULAN":"Q1 2024","TANGGAL UPDATE":"28/02/2025"}},{"type":"Feature","geometry":{"coordinates":[106.6155241,-6.0966061],"type":"Point"},"properties":{"NAMA":"PUSKESMAS PEMBANTU","TIPE_1":"KESEHATAN DAN PENGOBATAN","TIPE_2":"LAYANAN MASYARAKAT","TIPE_3":"PUSKESMAS","TELEPON":"","ALAMAT":"KIARA PAYUNG, KECAMATAN PAKUHAJI, KABUPATEN TANGERANG, BANTEN 15570","ID_PROV":"36","PROVINSI":"BANTEN","ID_KABKOT":"36.03","KABKOT":"TANGERANG","ID_KEC":"36.03.15","KECAMATAN":"PAKUHAJI","ID_DESA":"36.03.15.2012","DESA":"KIARA PAYUNG","LONGITUDE":106.6155241,"LATITUDE":-6.0966061,"STATUS":"BUKA","TANGGAL PENGUMPULAN":"Q1 2024","TANGGAL UPDATE":"28/02/2025"}},{"type":"Feature","geometry":{"coordinates":[106.4193154,-6.3261776],"type":"Point"},"properties":{"NAMA":"PUSKESMAS CIKUYA","TIPE_1":"KESEHATAN DAN PENGOBATAN","TIPE_2":"LAYANAN MASYARAKAT","TIPE_3":"PUSKESMAS","TELEPON":"(021) 59750981","ALAMAT":"JL. PERUM TAMAN ADIYASA NO.1, CIKUYA, KEC. SOLEAR, KABUPATEN TANGERANG, BANTEN 15730","ID_PROV":"36","PROVINSI":"BANTEN","ID_KABKOT":"36.03","KABKOT":"TANGERANG","ID_KEC":"36.03.31","KECAMATAN":"SOLEAR","ID_DESA":"36.03.31.2002","DESA":"CIKUYA","LONGITUDE":106.4193154,"LATITUDE":-6.3261776,"STATUS":"BUKA","TANGGAL PENGUMPULAN":"Q1 2024","TANGGAL UPDATE":"28/02/2025"}}]}