{"type":"FeatureCollection","features":[{"type":"Feature","geometry":{"coordinates":[106.7356027,-6.3450687],"type":"Point"},"properties":{"NAMA":"UPT. PUSKESMAS PAMULANG - TANGERANG SELATAN","TIPE_1":"KESEHATAN DAN PENGOBATAN","TIPE_2":"LAYANAN MASYARAKAT","TIPE_3":"PUSKESMAS","TELEPON":"0858-8348-0514","ALAMAT":"JL. SURYA KENCANA NO.1, PAMULANG BAR., KEC. PAMULANG, KOTA TANGERANG SELATAN, BANTEN 15417","ID_PROV":"36","PROVINSI":"BANTEN","ID_KABKOT":"36.74","KABKOT":"KOTA TANGERANG SELATAN","ID_KEC":"36.74.06","KECAMATAN":"PAMULANG","ID_DESA":"36.74.06.1001","DESA":"PAMULANG BARAT","LONGITUDE":106.7356027,"LATITUDE":-6.3450687,"STATUS":"BUKA","TANGGAL PENGUMPULAN":"Q1 2024","TANGGAL UPDATE":"28/02/2025"}},{"type":"Feature","geometry":{"coordinates":[106.7646106,-6.3537191],"type":"Point"},"properties":{"NAMA":"PUSKESMAS PEMBANTU PONDOK CABE UDIK","TIPE_1":"KESEHATAN DAN PENGOBATAN","TIPE_2":"LAYANAN MASYARAKAT","TIPE_3":"PUSKESMAS","TELEPON":"","ALAMAT":"JL. PALA RAYA, PD. CABE UDIK, KEC. PAMULANG, KOTA TANGERANG SELATAN, BANTEN 15418","ID_PROV":"36","PROVINSI":"BANTEN","ID_KABKOT":"36.74","KABKOT":"KOTA TANGERANG SELATAN","ID_KEC":"36.74.06","KECAMATAN":"PAMULANG","ID_DESA":"36.74.06.1004","DESA":"PONDOK CABE UDIK","LONGITUDE":106.7646106,"LATITUDE":-6.3537191,"STATUS":"BUKA","TANGGAL PENGUMPULAN":"Q1 2024","TANGGAL UPDATE":"28/02/2025"}},{"type":"Feature","geometry":{"coordinates":[106.7305497,-6.2644248],"type":"Point"},"properties":{"NAMA":"PUSKESMAS JURANGMANGU","TIPE_1":"KESEHATAN DAN PENGOBATAN","TIPE_2":"LAYANAN MASYARAKAT","TIPE_3":"PUSKESMAS","TELEPON":"(021) 73881743","ALAMAT":"JL. RAYA JURANG MANGU TIMUR, KEL. JURANG MANGU KEC., PONDOK AREN, JURANG MANGGU TIM., KEC. PD. AREN, KOTA TANGERANG SELATAN, BANTEN 15222","ID_PROV":"36","PROVINSI":"BANTEN","ID_KABKOT":"36.74","KABKOT":"KOTA TANGERANG SELATAN","ID_KEC":"36.74.03","KECAMATAN":"PONDOK AREN","ID_DESA":"36.74.03.1011","DESA":"JURANGMANGU TIMUR","LONGITUDE":106.7305497,"LATITUDE":-6.2644248,"STATUS":"BUKA","TANGGAL PENGUMPULAN":"Q1 2024","TANGGAL UPDATE":"28/02/2025"}},{"type":"Feature","geometry":{"coordinates":[106.7153234,-6.3302185],"type":"Point"},"properties":{"NAMA":"PUSKESMAS BENDA BARU","TIPE_1":"KESEHATAN DAN PENGOBATAN","TIPE_2":"LAYANAN MASYARAKAT","TIPE_3":"PUSKESMAS","TELEPON":"(021) 74645873","ALAMAT":"KOMPLEKS PERUMAHAN, JL. VILA DAGO RAYA, BENDA BARU, KEC. PAMULANG, KOTA TANGERANG SELATAN, BANTEN 15415","ID_PROV":"36","PROVINSI":"BANTEN","ID_KABKOT":"36.74","KABKOT":"KOTA TANGERANG SELATAN","ID_KEC":"36.74.06","KECAMATAN":"PAMULANG","ID_DESA":"36.74.06.1002","DESA":"BENDA BARU","LONGITUDE":106.7153234,"LATITUDE":-6.3302185,"STATUS":"BUKA","TANGGAL PENGUMPULAN":"Q1 2024","TANGGAL UPDATE":"28/02/2025"}},{"type":"Feature","geometry":{"coordinates":[106.7070735,-6.2801675],"type":"Point"},"properties":{"NAMA":"UPT PUSKESMAS PONDOK PUCUNG","TIPE_1":"KESEHATAN DAN PENGOBATAN","TIPE_2":"LAYANAN MASYARAKAT","TIPE_3":"PUSKESMAS","TELEPON":"0811-9927-976","ALAMAT":"JL. SANTUNAN JAYA NO.03, PD. PUCUNG, KEC. PD. AREN, KOTA TANGERANG SELATAN, BANTEN 15224","ID_PROV":"36","PROVINSI":"BANTEN","ID_KABKOT":"36.74","KABKOT":"KOTA TANGERANG SELATAN","ID_KEC":"36.74.03","KECAMATAN":"PONDOK AREN","ID_DESA":"36.74.03.1002","DESA":"PONDOK PUCUNG","LONGITUDE":106.7070735,"LATITUDE":-6.2801675,"STATUS":"BUKA","TANGGAL PENGUMPULAN":"Q1 2024","TANGGAL UPDATE":"28/02/2025"}},{"type":"Feature","geometry":{"coordinates":[106.7694755,-6.3399397],"type":"Point"},"properties":{"NAMA":"PUSKESMAS KELURAHAN PONDOK CABE ILIR","TIPE_1":"KESEHATAN DAN PENGOBATAN","TIPE_2":"LAYANAN MASYARAKAT","TIPE_3":"PUSKESMAS","TELEPON":"(021) 74632300","ALAMAT":"JL. KUBIS IV NO.30, RT.06/RW.05, PD. CABE ILIR, KEC. PAMULANG, KOTA TANGERANG SELATAN, BANTEN 15418","ID_PROV":"36","PROVINSI":"BANTEN","ID_KABKOT":"36.74","KABKOT":"KOTA TANGERANG SELATAN","ID_KEC":"36.74.06","KECAMATAN":"PAMULANG","ID_DESA":"36.74.06.1005","DESA":"PONDOK CABE ILIR","LONGITUDE":106.7694755,"LATITUDE":-6.3399397,"STATUS":"BUKA","TANGGAL PENGUMPULAN":"Q1 2024","TANGGAL UPDATE":"28/02/2025"}},{"type":"Feature","geometry":{"coordinates":[106.7075862,-6.3252614],"type":"Point"},"properties":{"NAMA":"PUSKESMAS PONDOK BENDA","TIPE_1":"KESEHATAN DAN PENGOBATAN","TIPE_2":"LAYANAN MASYARAKAT","TIPE_3":"PUSKESMAS","TELEPON":"(021) 74639677","ALAMAT":"JL. BENDA BARAT XIV A, PD. BENDA, KEC. PAMULANG, KOTA TANGERANG SELATAN, BANTEN 15416","ID_PROV":"36","PROVINSI":"BANTEN","ID_KABKOT":"36.74","KABKOT":"KOTA TANGERANG SELATAN","ID_KEC":"36.74.06","KECAMATAN":"PAMULANG","ID_DESA":"36.74.06.1003","DESA":"PONDOK BENDA","LONGITUDE":106.7075862,"LATITUDE":-6.3252614,"STATUS":"BUKA","TANGGAL PENGUMPULAN":"Q1 2024","TANGGAL UPDATE":"28/02/2025"}},{"type":"Feature","geometry":{"coordinates":[106.7623845,-6.2983257],"type":"Point"},"properties":{"NAMA":"UPT PUSKESMAS CIPUTAT TIMUR","TIPE_1":"KESEHATAN DAN PENGOBATAN","TIPE_2":"LAYANAN MASYARAKAT","TIPE_3":"PUSKESMAS","TELEPON":"(021) 7440312","ALAMAT":"JL. ANGGUR I NO.1, REMPOA, KEC. CIPUTAT TIM., KOTA TANGERANG SELATAN, BANTEN 15412","ID_PROV":"36","PROVINSI":"BANTEN","ID_KABKOT":"36.74","KABKOT":"KOTA TANGERANG SELATAN","ID_KEC":"36.74.05","KECAMATAN":"CIPUTAT TIMUR","ID_DESA":"36.74.05.1005","DESA":"REMPOA","LONGITUDE":106.7623845,"LATITUDE":-6.2983257,"STATUS":"BUKA","TANGGAL PENGUMPULAN":"Q1 2024","TANGGAL UPDATE":"28/02/2025"}},{"type":"Feature","geometry":{"coordinates":[106.7526495,-6.3202259],"type":"Point"},"properties":{"NAMA":"PUSKESMAS PISANGAN","TIPE_1":"KESEHATAN DAN PENGOBATAN","TIPE_2":"LAYANAN MASYARAKAT","TIPE_3":"PUSKESMAS","TELEPON":"(021) 22740820","ALAMAT":"JL. HIJAU LESTARI VII, PISANGAN, KEC. CIPUTAT TIM., KOTA TANGERANG SELATAN, BANTEN 15419","ID_PROV":"36","PROVINSI":"BANTEN","ID_KABKOT":"36.74","KABKOT":"KOTA TANGERANG SELATAN","ID_KEC":"36.74.05","KECAMATAN":"CIPUTAT TIMUR","ID_DESA":"36.74.05.1003","DESA":"PISANGAN","LONGITUDE":106.7526495,"LATITUDE":-6.3202259,"STATUS":"BUKA","TANGGAL PENGUMPULAN":"Q1 2024","TANGGAL UPDATE":"28/02/2025"}},{"type":"Feature","geometry":{"coordinates":[106.7472388,-6.3095216],"type":"Point"},"properties":{"NAMA":"PUSKESMAS CIPUTAT","TIPE_1":"KESEHATAN DAN PENGOBATAN","TIPE_2":"LAYANAN MASYARAKAT","TIPE_3":"PUSKESMAS","TELEPON":"(021) 74702350","ALAMAT":"JALAN KI HAJAR DEWANTARA, CIPUTAT, KEC. CIPUTAT, KOTA TANGERANG SELATAN, BANTEN 15411","ID_PROV":"36","PROVINSI":"BANTEN","ID_KABKOT":"36.74","KABKOT":"KOTA TANGERANG SELATAN","ID_KEC":"36.74.04","KECAMATAN":"CIPUTAT","ID_DESA":"36.74.04.1003","DESA":"CIPUTAT","LONGITUDE":106.7472388,"LATITUDE":-6.3095216,"STATUS":"BUKA","TANGGAL PENGUMPULAN":"Q1 2024","TANGGAL UPDATE":"28/02/2025"}},{"type":"Feature","geometry":{"coordinates":[106.7703717,-6.3144995],"type":"Point"},"properties":{"NAMA":"PUSKESMAS CIREUNDEU","TIPE_1":"KESEHATAN DAN PENGOBATAN","TIPE_2":"LAYANAN MASYARAKAT","TIPE_3":"PUSKESMAS","TELEPON":"(021) 74790795","ALAMAT":"CIREUNDEU, KEC. CIPUTAT TIM., KOTA TANGERANG SELATAN, BANTEN 15419","ID_PROV":"36","PROVINSI":"BANTEN","ID_KABKOT":"36.74","KABKOT":"KOTA TANGERANG SELATAN","ID_KEC":"36.74.05","KECAMATAN":"CIPUTAT TIMUR","ID_DESA":"36.74.05.1004","DESA":"CIREUNDEU","LONGITUDE":106.7703717,"LATITUDE":-6.3144995,"STATUS":"BUKA","TANGGAL PENGUMPULAN":"Q1 2024","TANGGAL UPDATE":"28/02/2025"}},{"type":"Feature","geometry":{"coordinates":[106.7481231,-6.2607312],"type":"Point"},"properties":{"NAMA":"PUSKESMAS PONDOK BETUNG","TIPE_1":"KESEHATAN DAN PENGOBATAN","TIPE_2":"LAYANAN MASYARAKAT","TIPE_3":"PUSKESMAS","TELEPON":"(021) 73492694","ALAMAT":"JL. PD. BETUNG RAYA, RT.4/RW.5, PD. BETUNG, KEC. PD. AREN, KOTA TANGERANG SELATAN, BANTEN 15221","ID_PROV":"36","PROVINSI":"BANTEN","ID_KABKOT":"36.74","KABKOT":"KOTA TANGERANG SELATAN","ID_KEC":"36.74.03","KECAMATAN":"PONDOK AREN","ID_DESA":"36.74.03.1001","DESA":"PONDOK BETUNG","LONGITUDE":106.7481231,"LATITUDE":-6.2607312,"STATUS":"BUKA","TANGGAL PENGUMPULAN":"Q1 2024","TANGGAL UPDATE":"28/02/2025"}},{"type":"Feature","geometry":{"coordinates":[106.7173756,-6.2875809],"type":"Point"},"properties":{"NAMA":"PUSKESMAS SAWAH BARU","TIPE_1":"KESEHATAN DAN PENGOBATAN","TIPE_2":"LAYANAN MASYARAKAT","TIPE_3":"PUSKESMAS","TELEPON":"","ALAMAT":"JL. PALEM PURI 1, RT.3/RW.6, SAWAH BARU, KEC. CIPUTAT, KOTA TANGERANG SELATAN, BANTEN 15413","ID_PROV":"36","PROVINSI":"BANTEN","ID_KABKOT":"36.74","KABKOT":"KOTA TANGERANG SELATAN","ID_KEC":"36.74.04","KECAMATAN":"CIPUTAT","ID_DESA":"36.74.04.1001","DESA":"SAWAH BARU","LONGITUDE":106.7173756,"LATITUDE":-6.2875809,"STATUS":"BUKA","TANGGAL PENGUMPULAN":"Q1 2024","TANGGAL UPDATE":"28/02/2025"}},{"type":"Feature","geometry":{"coordinates":[106.6808499,-6.318421],"type":"Point"},"properties":{"NAMA":"UPT PUSKESMAS RAWA BUNTU","TIPE_1":"KESEHATAN DAN PENGOBATAN","TIPE_2":"LAYANAN MASYARAKAT","TIPE_3":"PUSKESMAS","TELEPON":"(021) 75674739","ALAMAT":"JL. RAYA RAWA BUNTU, RT.05/RW.02, RW. BUNTU, KEC. SERPONG, KOTA TANGERANG SELATAN, BANTEN 15310","ID_PROV":"36","PROVINSI":"BANTEN","ID_KABKOT":"36.74","KABKOT":"KOTA TANGERANG SELATAN","ID_KEC":"36.74.01","KECAMATAN":"SERPONG","ID_DESA":"36.74.01.1002","DESA":"RAWABUNTU","LONGITUDE":106.6808499,"LATITUDE":-6.318421,"STATUS":"BUKA","TANGGAL PENGUMPULAN":"Q1 2024","TANGGAL UPDATE":"28/02/2025"}},{"type":"Feature","geometry":{"coordinates":[106.6924173,-6.2742756],"type":"Point"},"properties":{"NAMA":"PUSKESMAS PARIGI","TIPE_1":"KESEHATAN DAN PENGOBATAN","TIPE_2":"LAYANAN MASYARAKAT","TIPE_3":"PUSKESMAS","TELEPON":"(021) 29520869","ALAMAT":"JALAN KOMPLEK PERKANTORAN, PARIGI BARU, KEC. PD. AREN, KOTA TANGERANG SELATAN, BANTEN 15228","ID_PROV":"36","PROVINSI":"BANTEN","ID_KABKOT":"36.74","KABKOT":"KOTA TANGERANG SELATAN","ID_KEC":"36.74.03","KECAMATAN":"PONDOK AREN","ID_DESA":"36.74.03.1009","DESA":"PARIGI BARU","LONGITUDE":106.6924173,"LATITUDE":-6.2742756,"STATUS":"BUKA","TANGGAL PENGUMPULAN":"Q1 2024","TANGGAL UPDATE":"28/02/2025"}},{"type":"Feature","geometry":{"coordinates":[106.7511785,-6.2782694],"type":"Point"},"properties":{"NAMA":"PUSKESMAS RENGAS","TIPE_1":"KESEHATAN DAN PENGOBATAN","TIPE_2":"LAYANAN MASYARAKAT","TIPE_3":"PUSKESMAS","TELEPON":"(021) 7350190","ALAMAT":"BINTARO SEKTOR 2, JL. KENARI RAYA NO.IV, RENGAS, KEC. CIPUTAT TIM., KOTA TANGERANG SELATAN, BANTEN 15412","ID_PROV":"36","PROVINSI":"BANTEN","ID_KABKOT":"36.74","KABKOT":"KOTA TANGERANG SELATAN","ID_KEC":"36.74.05","KECAMATAN":"CIPUTAT TIMUR","ID_DESA":"36.74.05.1006","DESA":"RENGAS","LONGITUDE":106.7511785,"LATITUDE":-6.2782694,"STATUS":"BUKA","TANGGAL PENGUMPULAN":"Q1 2024","TANGGAL UPDATE":"28/02/2025"}},{"type":"Feature","geometry":{"coordinates":[106.7386975,-6.2794392],"type":"Point"},"properties":{"NAMA":"PUSKESMAS PONDOK RANJI","TIPE_1":"KESEHATAN DAN PENGOBATAN","TIPE_2":"LAYANAN MASYARAKAT","TIPE_3":"PUSKESMAS","TELEPON":"(021) 7343398","ALAMAT":"JL. BERUANG II, RT.02/RW.02, PD. RANJI, KEC. CIPUTAT TIM., KOTA TANGERANG SELATAN, BANTEN 15412","ID_PROV":"36","PROVINSI":"BANTEN","ID_KABKOT":"36.74","KABKOT":"KOTA TANGERANG SELATAN","ID_KEC":"36.74.05","KECAMATAN":"CIPUTAT TIMUR","ID_DESA":"36.74.05.1002","DESA":"PONDOK RANJI","LONGITUDE":106.7386975,"LATITUDE":-6.2794392,"STATUS":"BUKA","TANGGAL PENGUMPULAN":"Q1 2024","TANGGAL UPDATE":"28/02/2025"}},{"type":"Feature","geometry":{"coordinates":[106.6986736,-6.3168571],"type":"Point"},"properties":{"NAMA":"PUSKESMAS CIATER","TIPE_1":"KESEHATAN DAN PENGOBATAN","TIPE_2":"LAYANAN MASYARAKAT","TIPE_3":"PUSKESMAS","TELEPON":"","ALAMAT":"CIATER, KEC. SERPONG, KOTA TANGERANG SELATAN, BANTEN 15310","ID_PROV":"36","PROVINSI":"BANTEN","ID_KABKOT":"36.74","KABKOT":"KOTA TANGERANG SELATAN","ID_KEC":"36.74.01","KECAMATAN":"SERPONG","ID_DESA":"36.74.01.1001","DESA":"CIATER","LONGITUDE":106.6986736,"LATITUDE":-6.3168571,"STATUS":"BUKA","TANGGAL PENGUMPULAN":"Q1 2024","TANGGAL UPDATE":"28/02/2025"}},{"type":"Feature","geometry":{"coordinates":[106.7134873,-6.3561661],"type":"Point"},"properties":{"NAMA":"UPT PUSKESMAS BAKTI JAYA","TIPE_1":"KESEHATAN DAN PENGOBATAN","TIPE_2":"LAYANAN MASYARAKAT","TIPE_3":"PUSKESMAS","TELEPON":"0813-1569-7801","ALAMAT":"KOMP. PERMATA PAMULANG, JL. RAYA PUSPITEK, BAKTI JAYA, KEC. SETU, KOTA TANGERANG SELATAN, BANTEN 15315","ID_PROV":"36","PROVINSI":"BANTEN","ID_KABKOT":"36.74","KABKOT":"KOTA TANGERANG SELATAN","ID_KEC":"36.74.07","KECAMATAN":"SETU","ID_DESA":"36.74.07.1006","DESA":"BAKTI JAYA","LONGITUDE":106.7134873,"LATITUDE":-6.3561661,"STATUS":"BUKA","TANGGAL PENGUMPULAN":"Q1 2024","TANGGAL UPDATE":"28/02/2025"}},{"type":"Feature","geometry":{"coordinates":[106.6889369,-6.3003788],"type":"Point"},"properties":{"NAMA":"PUSKESMAS RAWA MEKAR JAYA","TIPE_1":"KESEHATAN DAN PENGOBATAN","TIPE_2":"LAYANAN MASYARAKAT","TIPE_3":"PUSKESMAS","TELEPON":"(021) 55691026","ALAMAT":"JL. SUMATERA SEKTOR XIV UTARA NUSA LOKA BSD, RW. MEKAR JAYA, KEC. SERPONG, KOTA TANGERANG SELATAN, BANTEN 15310","ID_PROV":"36","PROVINSI":"BANTEN","ID_KABKOT":"36.74","KABKOT":"KOTA TANGERANG SELATAN","ID_KEC":"36.74.01","KECAMATAN":"SERPONG","ID_DESA":"36.74.01.1003","DESA":"RAWA MEKAR JAYA","LONGITUDE":106.6889369,"LATITUDE":-6.3003788,"STATUS":"BUKA","TANGGAL PENGUMPULAN":"Q1 2024","TANGGAL UPDATE":"28/02/2025"}},{"type":"Feature","geometry":{"coordinates":[106.6552935,-6.3473616],"type":"Point"},"properties":{"NAMA":"UPT PUSKESMAS KERANGGAN","TIPE_1":"KESEHATAN DAN PENGOBATAN","TIPE_2":"LAYANAN MASYARAKAT","TIPE_3":"PUSKESMAS","TELEPON":"0858-1321-7610","ALAMAT":"JL. LKR. SELATAN BLOK NN NO.7, KRANGGAN, KEC. SETU, KOTA TANGERANG SELATAN, BANTEN 15314","ID_PROV":"36","PROVINSI":"BANTEN","ID_KABKOT":"36.74","KABKOT":"KOTA TANGERANG SELATAN","ID_KEC":"36.74.07","KECAMATAN":"SETU","ID_DESA":"36.74.07.1003","DESA":"KERANGGAN","LONGITUDE":106.6552935,"LATITUDE":-6.3473616,"STATUS":"BUKA","TANGGAL PENGUMPULAN":"Q1 2024","TANGGAL UPDATE":"28/02/2025"}},{"type":"Feature","geometry":{"coordinates":[106.6896915,-6.2559078],"type":"Point"},"properties":{"NAMA":"UPTD. PUSKESMAS PONDOK KACANG TIMUR","TIPE_1":"KESEHATAN DAN PENGOBATAN","TIPE_2":"LAYANAN MASYARAKAT","TIPE_3":"PUSKESMAS","TELEPON":"(021) 22271323","ALAMAT":"JL. GELORA I NO.1A, PD. KACANG TIM., KEC. PD. AREN, KOTA TANGERANG SELATAN, BANTEN 15224","ID_PROV":"36","PROVINSI":"BANTEN","ID_KABKOT":"36.74","KABKOT":"KOTA TANGERANG SELATAN","ID_KEC":"36.74.03","KECAMATAN":"PONDOK AREN","ID_DESA":"36.74.03.1007","DESA":"PONDOK KACANG TIMUR","LONGITUDE":106.6896915,"LATITUDE":-6.2559078,"STATUS":"BUKA","TANGGAL PENGUMPULAN":"Q1 2024","TANGGAL UPDATE":"28/02/2025"}},{"type":"Feature","geometry":{"coordinates":[106.73594,-6.3451],"type":"Point"},"properties":{"NAMA":"PUSKESMAS PAMULANG","TIPE_1":"KESEHATAN DAN PENGOBATAN","TIPE_2":"LAYANAN MASYARAKAT","TIPE_3":"PUSKESMAS","TELEPON":"","ALAMAT":"PAMULANG BAR., KEC. PAMULANG, KOTA TANGERANG SELATAN, BANTEN","ID_PROV":"36","PROVINSI":"BANTEN","ID_KABKOT":"36.74","KABKOT":"KOTA TANGERANG SELATAN","ID_KEC":"36.74.06","KECAMATAN":"PAMULANG","ID_DESA":"36.74.06.1001","DESA":"PAMULANG BARAT","LONGITUDE":106.73594,"LATITUDE":-6.3451,"STATUS":"BUKA","TANGGAL PENGUMPULAN":"Q1 2024","TANGGAL UPDATE":"28/02/2025"}},{"type":"Feature","geometry":{"coordinates":[106.679194,-6.2839169],"type":"Point"},"properties":{"NAMA":"PUSKESMAS LENGKONG WETAN","TIPE_1":"KESEHATAN DAN PENGOBATAN","TIPE_2":"LAYANAN MASYARAKAT","TIPE_3":"PUSKESMAS","TELEPON":"(021) 22212020","ALAMAT":"TIDAK MASUK PERUMAHAN GSB, JALAN PERUM GSB, RT.03/RW.09, LENGKONG WETAN, KEC. SERPONG, KOTA TANGERANG SELATAN, BANTEN 15322","ID_PROV":"36","PROVINSI":"BANTEN","ID_KABKOT":"36.74","KABKOT":"KOTA TANGERANG SELATAN","ID_KEC":"36.74.01","KECAMATAN":"SERPONG","ID_DESA":"36.74.01.1005","DESA":"LENGKONG WETAN","LONGITUDE":106.679194,"LATITUDE":-6.2839169,"STATUS":"BUKA","TANGGAL PENGUMPULAN":"Q1 2024","TANGGAL UPDATE":"28/02/2025"}},{"type":"Feature","geometry":{"coordinates":[106.709565,-6.2957129],"type":"Point"},"properties":{"NAMA":"PUSKESMAS JOMBANG","TIPE_1":"KESEHATAN DAN PENGOBATAN","TIPE_2":"LAYANAN MASYARAKAT","TIPE_3":"PUSKESMAS","TELEPON":"(021) 74862115","ALAMAT":"JL. SUMATERA NO.3, JOMBANG, KEC. CIPUTAT, KOTA TANGERANG SELATAN, BANTEN 15414","ID_PROV":"36","PROVINSI":"BANTEN","ID_KABKOT":"36.74","KABKOT":"KOTA TANGERANG SELATAN","ID_KEC":"36.74.04","KECAMATAN":"CIPUTAT","ID_DESA":"36.74.04.1006","DESA":"JOMBANG","LONGITUDE":106.709565,"LATITUDE":-6.2957129,"STATUS":"BUKA","TANGGAL PENGUMPULAN":"Q1 2024","TANGGAL UPDATE":"28/02/2025"}},{"type":"Feature","geometry":{"coordinates":[106.6786429,-6.3477189],"type":"Point"},"properties":{"NAMA":"UPT PUSKESMAS SETU TANGSEL","TIPE_1":"KESEHATAN DAN PENGOBATAN","TIPE_2":"LAYANAN MASYARAKAT","TIPE_3":"PUSKESMAS","TELEPON":"0895-0124-9071","ALAMAT":"JL. KOMP. PUSPIPTEK NO.1, SETU, KEC. SETU, KOTA TANGERANG SELATAN, BANTEN 15314","ID_PROV":"36","PROVINSI":"BANTEN","ID_KABKOT":"36.74","KABKOT":"KOTA TANGERANG SELATAN","ID_KEC":"36.74.07","KECAMATAN":"SETU","ID_DESA":"36.74.07.1002","DESA":"SETU","LONGITUDE":106.6786429,"LATITUDE":-6.3477189,"STATUS":"BUKA","TANGGAL PENGUMPULAN":"Q1 2024","TANGGAL UPDATE":"28/02/2025"}},{"type":"Feature","geometry":{"coordinates":[106.6650197,-6.2346339],"type":"Point"},"properties":{"NAMA":"PUSKESMAS PAKU ALAM","TIPE_1":"KESEHATAN DAN PENGOBATAN","TIPE_2":"LAYANAN MASYARAKAT","TIPE_3":"PUSKESMAS","TELEPON":"(021) 29868769","ALAMAT":"JL. GRIYA HIJAU NO.1 BLOK M, PAKUALAM, KEC. SERPONG UTARA, KOTA TANGERANG SELATAN, BANTEN 15320","ID_PROV":"36","PROVINSI":"BANTEN","ID_KABKOT":"36.74","KABKOT":"KOTA TANGERANG SELATAN","ID_KEC":"36.74.02","KECAMATAN":"SERPONG UTARA","ID_DESA":"36.74.02.1002","DESA":"PAKUALAM","LONGITUDE":106.6650197,"LATITUDE":-6.2346339,"STATUS":"BUKA","TANGGAL PENGUMPULAN":"Q1 2024","TANGGAL UPDATE":"28/02/2025"}},{"type":"Feature","geometry":{"coordinates":[106.7428485,-6.3173702],"type":"Point"},"properties":{"NAMA":"PUSKESMAS KEDAUNG PAMULANG KOTA TANGERANG SELATAN","TIPE_1":"KESEHATAN DAN PENGOBATAN","TIPE_2":"LAYANAN MASYARAKAT","TIPE_3":"PUSKESMAS","TELEPON":"","ALAMAT":"JL. ARIA PUTRA NO.RT 07/18, KEDAUNG, KEC. PAMULANG, KOTA TANGERANG SELATAN, BANTEN 15431","ID_PROV":"36","PROVINSI":"BANTEN","ID_KABKOT":"36.74","KABKOT":"KOTA TANGERANG SELATAN","ID_KEC":"36.74.06","KECAMATAN":"PAMULANG","ID_DESA":"36.74.06.1006","DESA":"KEDAUNG","LONGITUDE":106.7428485,"LATITUDE":-6.3173702,"STATUS":"BUKA","TANGGAL PENGUMPULAN":"Q1 2024","TANGGAL UPDATE":"28/02/2025"}},{"type":"Feature","geometry":{"coordinates":[106.7177672,-6.263027],"type":"Point"},"properties":{"NAMA":"PUSKESMAS PONDOK AREN","TIPE_1":"KESEHATAN DAN PENGOBATAN","TIPE_2":"LAYANAN MASYARAKAT","TIPE_3":"PUSKESMAS","TELEPON":"(021) 73447624","ALAMAT":"JL. PUSKESMAS NO.55, PD. AREN, KEC. PD. AREN, KOTA TANGERANG SELATAN, BANTEN 15224","ID_PROV":"36","PROVINSI":"BANTEN","ID_KABKOT":"36.74","KABKOT":"KOTA TANGERANG SELATAN","ID_KEC":"36.74.03","KECAMATAN":"PONDOK AREN","ID_DESA":"36.74.03.1005","DESA":"PONDOK AREN","LONGITUDE":106.7177672,"LATITUDE":-6.263027,"STATUS":"BUKA","TANGGAL PENGUMPULAN":"Q1 2024","TANGGAL UPDATE":"28/02/2025"}},{"type":"Feature","geometry":{"coordinates":[106.7471575,-6.307965],"type":"Point"},"properties":{"NAMA":"PUSKESMAS CIPUTAT TANGERANG SELATAN","TIPE_1":"KESEHATAN DAN PENGOBATAN","TIPE_2":"LAYANAN MASYARAKAT","TIPE_3":"PUSKESMAS","TELEPON":"","ALAMAT":"JL. LIMA BENUA NO.28A, CIPUTAT, KEC. CIPUTAT, KOTA TANGERANG SELATAN, BANTEN 15411","ID_PROV":"36","PROVINSI":"BANTEN","ID_KABKOT":"36.74","KABKOT":"KOTA TANGERANG SELATAN","ID_KEC":"36.74.04","KECAMATAN":"CIPUTAT","ID_DESA":"36.74.04.1003","DESA":"CIPUTAT","LONGITUDE":106.7471575,"LATITUDE":-6.307965,"STATUS":"BUKA","TANGGAL PENGUMPULAN":"Q1 2024","TANGGAL UPDATE":"28/02/2025"}},{"type":"Feature","geometry":{"coordinates":[106.7162765,-6.3131707],"type":"Point"},"properties":{"NAMA":"PUSKESMAS SITU GINTUNG","TIPE_1":"KESEHATAN DAN PENGOBATAN","TIPE_2":"LAYANAN MASYARAKAT","TIPE_3":"PUSKESMAS","TELEPON":"(021) 70019967","ALAMAT":"JL. HIDUP BARU NO.44, SERUA, KEC. CIPUTAT, KOTA TANGERANG SELATAN, BANTEN 15414","ID_PROV":"36","PROVINSI":"BANTEN","ID_KABKOT":"36.74","KABKOT":"KOTA TANGERANG SELATAN","ID_KEC":"36.74.04","KECAMATAN":"CIPUTAT","ID_DESA":"36.74.04.1002","DESA":"SERUA","LONGITUDE":106.7162765,"LATITUDE":-6.3131707,"STATUS":"BUKA","TANGGAL PENGUMPULAN":"Q1 2024","TANGGAL UPDATE":"28/02/2025"}},{"type":"Feature","geometry":{"coordinates":[106.6962867,-6.2770859],"type":"Point"},"properties":{"NAMA":"PUSKESMAS PARIGI BARU","TIPE_1":"KESEHATAN DAN PENGOBATAN","TIPE_2":"LAYANAN MASYARAKAT","TIPE_3":"PUSKESMAS","TELEPON":"","ALAMAT":"NO., JL. TAMAN MAKAM BAHAGIA NO.44, PARIGI, KEC. PD. AREN, KOTA TANGERANG SELATAN, BANTEN 15228","ID_PROV":"36","PROVINSI":"BANTEN","ID_KABKOT":"36.74","KABKOT":"KOTA TANGERANG SELATAN","ID_KEC":"36.74.03","KECAMATAN":"PONDOK AREN","ID_DESA":"36.74.03.1009","DESA":"PARIGI BARU","LONGITUDE":106.6962867,"LATITUDE":-6.2770859,"STATUS":"BUKA","TANGGAL PENGUMPULAN":"Q1 2024","TANGGAL UPDATE":"28/02/2025"}},{"type":"Feature","geometry":{"coordinates":[106.7302254,-6.2918796],"type":"Point"},"properties":{"NAMA":"UPT PUSKESMAS KAMPUNG SAWAH","TIPE_1":"KESEHATAN DAN PENGOBATAN","TIPE_2":"LAYANAN MASYARAKAT","TIPE_3":"PUSKESMAS","TELEPON":"(021) 74700060","ALAMAT":"UPT PUSKESMAS KP. SAWAH, JL. GELATIK 1 NO.01, RT.06/RW.01, SAWAH LAMA, KEC. CIPUTAT, KOTA TANGERANG SELATAN, BANTEN 15413","ID_PROV":"36","PROVINSI":"BANTEN","ID_KABKOT":"36.74","KABKOT":"KOTA TANGERANG SELATAN","ID_KEC":"36.74.04","KECAMATAN":"CIPUTAT","ID_DESA":"36.74.04.1004","DESA":"SAWAH","LONGITUDE":106.7302254,"LATITUDE":-6.2918796,"STATUS":"BUKA","TANGGAL PENGUMPULAN":"Q1 2024","TANGGAL UPDATE":"28/02/2025"}},{"type":"Feature","geometry":{"coordinates":[106.6732048,-6.2769006],"type":"Point"},"properties":{"NAMA":"PUSKESMAS LENGKONG KARYA","TIPE_1":"KESEHATAN DAN PENGOBATAN","TIPE_2":"LAYANAN MASYARAKAT","TIPE_3":"PUSKESMAS","TELEPON":"(021) 53192766","ALAMAT":"JL. MASJID AL-BAROKAH NO.35, LENGKONG KARYA, KEC. SERPONG UTARA, KOTA TANGERANG SELATAN, BANTEN 15310","ID_PROV":"36","PROVINSI":"BANTEN","ID_KABKOT":"36.74","KABKOT":"KOTA TANGERANG SELATAN","ID_KEC":"36.74.02","KECAMATAN":"SERPONG UTARA","ID_DESA":"36.74.02.1007","DESA":"LENGKONG KARYA","LONGITUDE":106.6732048,"LATITUDE":-6.2769006,"STATUS":"BUKA","TANGGAL PENGUMPULAN":"Q1 2024","TANGGAL UPDATE":"28/02/2025"}},{"type":"Feature","geometry":{"coordinates":[106.6646209,-6.3248958],"type":"Point"},"properties":{"NAMA":"PUSKESMAS SERPONG II","TIPE_1":"KESEHATAN DAN PENGOBATAN","TIPE_2":"LAYANAN MASYARAKAT","TIPE_3":"PUSKESMAS","TELEPON":"0878-7587-9298","ALAMAT":"JL. CENDANA 2 KAVLING, SERPONG, KEC. SERPONG, KOTA TANGERANG SELATAN, BANTEN 15312","ID_PROV":"36","PROVINSI":"BANTEN","ID_KABKOT":"36.74","KABKOT":"KOTA TANGERANG SELATAN","ID_KEC":"36.74.01","KECAMATAN":"SERPONG","ID_DESA":"36.74.01.1009","DESA":"SERPONG","LONGITUDE":106.6646209,"LATITUDE":-6.3248958,"STATUS":"BUKA","TANGGAL PENGUMPULAN":"Q1 2024","TANGGAL UPDATE":"28/02/2025"}},{"type":"Feature","geometry":{"coordinates":[106.6638632,-6.3222412],"type":"Point"},"properties":{"NAMA":"UPT PUSKESMAS SERPONG 1","TIPE_1":"KESEHATAN DAN PENGOBATAN","TIPE_2":"LAYANAN MASYARAKAT","TIPE_3":"PUSKESMAS","TELEPON":"(021) 7566045","ALAMAT":"JL. RAYA, SERPONG, KEC. SERPONG, KOTA TANGERANG SELATAN, BANTEN 15310","ID_PROV":"36","PROVINSI":"BANTEN","ID_KABKOT":"36.74","KABKOT":"KOTA TANGERANG SELATAN","ID_KEC":"36.74.01","KECAMATAN":"SERPONG","ID_DESA":"36.74.01.1009","DESA":"SERPONG","LONGITUDE":106.6638632,"LATITUDE":-6.3222412,"STATUS":"BUKA","TANGGAL PENGUMPULAN":"Q1 2024","TANGGAL UPDATE":"28/02/2025"}},{"type":"Feature","geometry":{"coordinates":[106.6618415,-6.3343081],"type":"Point"},"properties":{"NAMA":"UPT. PUSKESMAS KERANGGAN \"POSYANDU ASTER\"","TIPE_1":"KESEHATAN DAN PENGOBATAN","TIPE_2":"LAYANAN MASYARAKAT","TIPE_3":"PUSKESMAS","TELEPON":"0895-3416-28818","ALAMAT":"JL. KP. KADEMANGAN NO.48, KADEMANGAN, KEC. SETU, KABUPATEN TANGERANG, BANTEN 15314","ID_PROV":"36","PROVINSI":"BANTEN","ID_KABKOT":"36.74","KABKOT":"KOTA TANGERANG SELATAN","ID_KEC":"36.74.07","KECAMATAN":"SETU","ID_DESA":"36.74.07.1004","DESA":"KADEMANGAN","LONGITUDE":106.6618415,"LATITUDE":-6.3343081,"STATUS":"BUKA","TANGGAL PENGUMPULAN":"Q1 2024","TANGGAL UPDATE":"28/02/2025"}},{"type":"Feature","geometry":{"coordinates":[106.6570098,-6.2654488],"type":"Point"},"properties":{"NAMA":"PUSKESMAS PONDOK JAGUNG","TIPE_1":"KESEHATAN DAN PENGOBATAN","TIPE_2":"LAYANAN MASYARAKAT","TIPE_3":"PUSKESMAS","TELEPON":"(021) 5372931","ALAMAT":"JL. RAYA SERPONG KILOMETER 7, PD. JAGUNG, KEC. SERPONG UTARA, KOTA TANGERANG SELATAN, BANTEN 15310","ID_PROV":"36","PROVINSI":"BANTEN","ID_KABKOT":"36.74","KABKOT":"KOTA TANGERANG SELATAN","ID_KEC":"36.74.02","KECAMATAN":"SERPONG UTARA","ID_DESA":"36.74.02.1004","DESA":"PONDOK JAGUNG","LONGITUDE":106.6570098,"LATITUDE":-6.2654488,"STATUS":"BUKA","TANGGAL PENGUMPULAN":"Q1 2024","TANGGAL UPDATE":"28/02/2025"}}]}