{"type":"FeatureCollection","features":[{"type":"Feature","geometry":{"coordinates":[107.264322,-6.1134439],"type":"Point"},"properties":{"NAMA":"PUSKESMAS KARANGHARJA","TIPE_1":"KESEHATAN DAN PENGOBATAN","TIPE_2":"LAYANAN MASYARAKAT","TIPE_3":"PUSKESMAS","TELEPON":"","ALAMAT":"SUMBERURIP, KEC. PEBAYURAN, KABUPATEN BEKASI, JAWA BARAT 17710","ID_PROV":"32","PROVINSI":"JAWA BARAT","ID_KABKOT":"32.16","KABKOT":"BEKASI","ID_KEC":"32.16.13","KECAMATAN":"PEBAYURAN","ID_DESA":"32.16.13.2003","DESA":"SUMBERURIP","LONGITUDE":107.264322,"LATITUDE":-6.1134439,"STATUS":"BUKA","TANGGAL PENGUMPULAN":"Q1 2024","TANGGAL UPDATE":"28/02/2025"}},{"type":"Feature","geometry":{"coordinates":[107.1108427,-6.2468241],"type":"Point"},"properties":{"NAMA":"PUSKESMAS WANAJAYA","TIPE_1":"KESEHATAN DAN PENGOBATAN","TIPE_2":"LAYANAN MASYARAKAT","TIPE_3":"PUSKESMAS","TELEPON":"(021) 29086754","ALAMAT":"PERUM KIRANA, BLOK F, WANAJAYA, KEC. CIBITUNG, KABUPATEN BEKASI, JAWA BARAT 17520","ID_PROV":"32","PROVINSI":"JAWA BARAT","ID_KABKOT":"32.16","KABKOT":"BEKASI","ID_KEC":"32.16.07","KECAMATAN":"CIBITUNG","ID_DESA":"32.16.07.2002","DESA":"WANAJAYA","LONGITUDE":107.1108427,"LATITUDE":-6.2468241,"STATUS":"BUKA","TANGGAL PENGUMPULAN":"Q1 2024","TANGGAL UPDATE":"28/02/2025"}},{"type":"Feature","geometry":{"coordinates":[107.1482849,-6.2404111],"type":"Point"},"properties":{"NAMA":"PUSKESMAS SUKAJAYA","TIPE_1":"KESEHATAN DAN PENGOBATAN","TIPE_2":"LAYANAN MASYARAKAT","TIPE_3":"PUSKESMAS","TELEPON":"(021) 89107119","ALAMAT":"SUKAJAYA, KEC. CIBITUNG, KABUPATEN BEKASI, JAWA BARAT 17520","ID_PROV":"32","PROVINSI":"JAWA BARAT","ID_KABKOT":"32.16","KABKOT":"BEKASI","ID_KEC":"32.16.07","KECAMATAN":"CIBITUNG","ID_DESA":"32.16.07.2006","DESA":"SUKAJAYA","LONGITUDE":107.1482849,"LATITUDE":-6.2404111,"STATUS":"BUKA","TANGGAL PENGUMPULAN":"Q1 2024","TANGGAL UPDATE":"28/02/2025"}},{"type":"Feature","geometry":{"coordinates":[107.0746053,-6.437564],"type":"Point"},"properties":{"NAMA":"PUSKESMAS CIBARUSAH","TIPE_1":"KESEHATAN DAN PENGOBATAN","TIPE_2":"LAYANAN MASYARAKAT","TIPE_3":"PUSKESMAS","TELEPON":"","ALAMAT":"JL. RAYA CIBARUSAH NO.11, CIBARUSAHJAYA, KEC. CIBARUSAH, KABUPATEN BEKASI, JAWA BARAT 17340","ID_PROV":"32","PROVINSI":"JAWA BARAT","ID_KABKOT":"32.16","KABKOT":"BEKASI","ID_KEC":"32.16.22","KECAMATAN":"CIBARUSAH","ID_DESA":"32.16.22.2005","DESA":"CIBARUSAH KOTA","LONGITUDE":107.0746053,"LATITUDE":-6.437564,"STATUS":"BUKA","TANGGAL PENGUMPULAN":"Q1 2024","TANGGAL UPDATE":"28/02/2025"}},{"type":"Feature","geometry":{"coordinates":[107.066335,-6.105517],"type":"Point"},"properties":{"NAMA":"PUSKESMAS SUKATENANG","TIPE_1":"KESEHATAN DAN PENGOBATAN","TIPE_2":"LAYANAN MASYARAKAT","TIPE_3":"PUSKESMAS","TELEPON":"","ALAMAT":"JL. RAYA SUKATENANG NO.1, SUKATENANG, KEC. SUKAWANGI, KABUPATEN BEKASI, JAWA BARAT 17620","ID_PROV":"32","PROVINSI":"JAWA BARAT","ID_KABKOT":"32.16","KABKOT":"BEKASI","ID_KEC":"32.16.03","KECAMATAN":"SUKAWANGI","ID_DESA":"32.16.03.2006","DESA":"SUKATENANG","LONGITUDE":107.066335,"LATITUDE":-6.105517,"STATUS":"BUKA","TANGGAL PENGUMPULAN":"Q1 2024","TANGGAL UPDATE":"28/02/2025"}},{"type":"Feature","geometry":{"coordinates":[107.1707159,-6.4643409],"type":"Point"},"properties":{"NAMA":"PUSKESMAS KARANG MULYA","TIPE_1":"KESEHATAN DAN PENGOBATAN","TIPE_2":"LAYANAN MASYARAKAT","TIPE_3":"PUSKESMAS","TELEPON":"","ALAMAT":"JL. KARANG MULYA, BOJONGMANGU, KARANGMULYA, KEC. BOJONGMANGU, KABUPATEN BEKASI, JAWA BARAT 17356","ID_PROV":"32","PROVINSI":"JAWA BARAT","ID_KABKOT":"32.16","KABKOT":"BEKASI","ID_KEC":"32.16.23","KECAMATAN":"BOJONGMANGU","ID_DESA":"32.16.23.2001","DESA":"KARANGMULYA","LONGITUDE":107.1707159,"LATITUDE":-6.4643409,"STATUS":"BUKA","TANGGAL PENGUMPULAN":"Q1 2024","TANGGAL UPDATE":"28/02/2025"}},{"type":"Feature","geometry":{"coordinates":[107.022815,-6.2688449],"type":"Point"},"properties":{"NAMA":"PUSKESMAS JATIMULYA","TIPE_1":"KESEHATAN DAN PENGOBATAN","TIPE_2":"LAYANAN MASYARAKAT","TIPE_3":"PUSKESMAS","TELEPON":"(021) 82406904","ALAMAT":"JL. JATIMULYA RAYA NO.500, JATIMULYA, KEC. TAMBUN SEL., KABUPATEN BEKASI, JAWA BARAT 17510","ID_PROV":"32","PROVINSI":"JAWA BARAT","ID_KABKOT":"32.16","KABKOT":"BEKASI","ID_KEC":"32.16.06","KECAMATAN":"TAMBUN SELATAN","ID_DESA":"32.16.06.1001","DESA":"JATIMULYA","LONGITUDE":107.022815,"LATITUDE":-6.2688449,"STATUS":"BUKA","TANGGAL PENGUMPULAN":"Q1 2024","TANGGAL UPDATE":"28/02/2025"}},{"type":"Feature","geometry":{"coordinates":[107.1772864,-6.2646481],"type":"Point"},"properties":{"NAMA":"PUSKESMAS WALUYA","TIPE_1":"KESEHATAN DAN PENGOBATAN","TIPE_2":"LAYANAN MASYARAKAT","TIPE_3":"PUSKESMAS","TELEPON":"","ALAMAT":"UNNAMED ROAD, WALUYA, KEC. CIKARANG UTARA, KABUPATEN BEKASI, JAWA BARAT 17530","ID_PROV":"32","PROVINSI":"JAWA BARAT","ID_KABKOT":"32.16","KABKOT":"BEKASI","ID_KEC":"32.16.09","KECAMATAN":"CIKARANG UTARA","ID_DESA":"32.16.09.2004","DESA":"WALUYA","LONGITUDE":107.1772864,"LATITUDE":-6.2646481,"STATUS":"BUKA","TANGGAL PENGUMPULAN":"Q1 2024","TANGGAL UPDATE":"28/02/2025"}},{"type":"Feature","geometry":{"coordinates":[107.0546217,-6.2604279],"type":"Point"},"properties":{"NAMA":"PUSKESMAS TAMBUN","TIPE_1":"KESEHATAN DAN PENGOBATAN","TIPE_2":"LAYANAN MASYARAKAT","TIPE_3":"PUSKESMAS","TELEPON":"","ALAMAT":"JL. SULTAN HASANUDIN NO.05, SETIADARMA, KEC. TAMBUN SEL., KABUPATEN BEKASI, JAWA BARAT 17510","ID_PROV":"32","PROVINSI":"JAWA BARAT","ID_KABKOT":"32.16","KABKOT":"BEKASI","ID_KEC":"32.16.06","KECAMATAN":"TAMBUN SELATAN","ID_DESA":"32.16.06.2005","DESA":"SETIADARMA","LONGITUDE":107.0546217,"LATITUDE":-6.2604279,"STATUS":"BUKA","TANGGAL PENGUMPULAN":"Q1 2024","TANGGAL UPDATE":"28/02/2025"}},{"type":"Feature","geometry":{"coordinates":[107.08217,-6.262692],"type":"Point"},"properties":{"NAMA":"PUSKESMAS WANASARI","TIPE_1":"KESEHATAN DAN PENGOBATAN","TIPE_2":"LAYANAN MASYARAKAT","TIPE_3":"PUSKESMAS","TELEPON":"(021) 8830881","ALAMAT":"JL. BOSIH RAYA, WANASARI, KEC. CIBITUNG, KABUPATEN BEKASI, JAWA BARAT 17520","ID_PROV":"32","PROVINSI":"JAWA BARAT","ID_KABKOT":"32.16","KABKOT":"BEKASI","ID_KEC":"32.16.07","KECAMATAN":"CIBITUNG","ID_DESA":"32.16.07.1001","DESA":"WANASARI","LONGITUDE":107.08217,"LATITUDE":-6.262692,"STATUS":"BUKA","TANGGAL PENGUMPULAN":"Q1 2024","TANGGAL UPDATE":"28/02/2025"}},{"type":"Feature","geometry":{"coordinates":[107.1183006,-6.3597343],"type":"Point"},"properties":{"NAMA":"PUSKESMAS SUKADAMI","TIPE_1":"KESEHATAN DAN PENGOBATAN","TIPE_2":"LAYANAN MASYARAKAT","TIPE_3":"PUSKESMAS","TELEPON":"0812-1325-1190","ALAMAT":"JL. RAYA SERANG CIBARUSAH NO.KM.1, RT.01/RW.06, SUKADAMI, CIKARANG SEL., KABUPATEN BEKASI, JAWA BARAT 17530","ID_PROV":"32","PROVINSI":"JAWA BARAT","ID_KABKOT":"32.16","KABKOT":"BEKASI","ID_KEC":"32.16.19","KECAMATAN":"CIKARANG SELATAN","ID_DESA":"32.16.19.2004","DESA":"SUKADAMI","LONGITUDE":107.1183006,"LATITUDE":-6.3597343,"STATUS":"BUKA","TANGGAL PENGUMPULAN":"Q1 2024","TANGGAL UPDATE":"28/02/2025"}},{"type":"Feature","geometry":{"coordinates":[107.1037664,-6.2730751],"type":"Point"},"properties":{"NAMA":"PUSKESMAS PEMBANTU","TIPE_1":"KESEHATAN DAN PENGOBATAN","TIPE_2":"LAYANAN MASYARAKAT","TIPE_3":"PUSKESMAS","TELEPON":"","ALAMAT":"JL. RAYA IMAM BONJOL NO.01, TELAGA ASIH, KEC. CIKARANG BAR., KABUPATEN BEKASI, JAWA BARAT 17530","ID_PROV":"32","PROVINSI":"JAWA BARAT","ID_KABKOT":"32.16","KABKOT":"BEKASI","ID_KEC":"32.16.08","KECAMATAN":"CIKARANG BARAT","ID_DESA":"32.16.08.1008","DESA":"TELAGA ASIH","LONGITUDE":107.1037664,"LATITUDE":-6.2730751,"STATUS":"BUKA","TANGGAL PENGUMPULAN":"Q1 2024","TANGGAL UPDATE":"28/02/2025"}},{"type":"Feature","geometry":{"coordinates":[107.1918852,-6.1869044],"type":"Point"},"properties":{"NAMA":"PUSKESMAS KARANG BAHAGIA","TIPE_1":"KESEHATAN DAN PENGOBATAN","TIPE_2":"LAYANAN MASYARAKAT","TIPE_3":"PUSKESMAS","TELEPON":"","ALAMAT":"JALAN BUYUT KAIFAH, KARANGBAHAGIA, KEC. KARANGBAHAGIA, KABUPATEN BEKASI, JAWA BARAT 17530","ID_PROV":"32","PROVINSI":"JAWA BARAT","ID_KABKOT":"32.16","KABKOT":"BEKASI","ID_KEC":"32.16.10","KECAMATAN":"KARANG BAHAGIA","ID_DESA":"32.16.10.2005","DESA":"KARANGBAHAGIA","LONGITUDE":107.1918852,"LATITUDE":-6.1869044,"STATUS":"BUKA","TANGGAL PENGUMPULAN":"Q1 2024","TANGGAL UPDATE":"28/02/2025"}},{"type":"Feature","geometry":{"coordinates":[107.1941348,-6.2751953],"type":"Point"},"properties":{"NAMA":"PUSKESMAS LEMAHABANG","TIPE_1":"KESEHATAN DAN PENGOBATAN","TIPE_2":"LAYANAN MASYARAKAT","TIPE_3":"PUSKESMAS","TELEPON":"0812-8780-4393","ALAMAT":"JL. RAYA CITARIK NO.01, JATIBARU, KEC. CIKARANG TIM., KABUPATEN BEKASI, JAWA BARAT 17530","ID_PROV":"32","PROVINSI":"JAWA BARAT","ID_KABKOT":"32.16","KABKOT":"BEKASI","ID_KEC":"32.16.11","KECAMATAN":"CIKARANG TIMUR","ID_DESA":"32.16.11.2005","DESA":"JATIBARU","LONGITUDE":107.1941348,"LATITUDE":-6.2751953,"STATUS":"BUKA","TANGGAL PENGUMPULAN":"Q1 2024","TANGGAL UPDATE":"28/02/2025"}},{"type":"Feature","geometry":{"coordinates":[107.0360328,-6.2228255],"type":"Point"},"properties":{"NAMA":"PUSKESMAS KARANG SATRIA","TIPE_1":"KESEHATAN DAN PENGOBATAN","TIPE_2":"LAYANAN MASYARAKAT","TIPE_3":"PUSKESMAS","TELEPON":"(021) 88345031","ALAMAT":"JL. RAYA KARANG SATRIA NO.218, KARANGSATRIA, KEC. TAMBUN UTARA, KABUPATEN BEKASI, JAWA BARAT 17510","ID_PROV":"32","PROVINSI":"JAWA BARAT","ID_KABKOT":"32.16","KABKOT":"BEKASI","ID_KEC":"32.16.05","KECAMATAN":"TAMBUN UTARA","ID_DESA":"32.16.05.2008","DESA":"KARANGSATRIA","LONGITUDE":107.0360328,"LATITUDE":-6.2228255,"STATUS":"BUKA","TANGGAL PENGUMPULAN":"Q1 2024","TANGGAL UPDATE":"28/02/2025"}},{"type":"Feature","geometry":{"coordinates":[107.0382982,-6.2808875],"type":"Point"},"properties":{"NAMA":"PUSKESMAS LAMBANG SARI","TIPE_1":"KESEHATAN DAN PENGOBATAN","TIPE_2":"LAYANAN MASYARAKAT","TIPE_3":"PUSKESMAS","TELEPON":"(021) 82604358","ALAMAT":"KOTA LEGENDA, JL. MUSTIKA JAYA, LAMBANGSARI, KEC. TAMBUN SEL., KABUPATEN BEKASI, JAWA BARAT 17510","ID_PROV":"32","PROVINSI":"JAWA BARAT","ID_KABKOT":"32.16","KABKOT":"BEKASI","ID_KEC":"32.16.06","KECAMATAN":"TAMBUN SELATAN","ID_DESA":"32.16.06.2002","DESA":"LAMBANGSARI","LONGITUDE":107.0382982,"LATITUDE":-6.2808875,"STATUS":"BUKA","TANGGAL PENGUMPULAN":"Q1 2024","TANGGAL UPDATE":"28/02/2025"}},{"type":"Feature","geometry":{"coordinates":[107.2131092,-6.1636503],"type":"Point"},"properties":{"NAMA":"PUSKESMAS DESA SUKALAKSANA","TIPE_1":"KESEHATAN DAN PENGOBATAN","TIPE_2":"LAYANAN MASYARAKAT","TIPE_3":"PUSKESMAS","TELEPON":"","ALAMAT":"SUKALAKSANA, KEC. SUKAKARYA, KABUPATEN BEKASI, JAWA BARAT 17630","ID_PROV":"32","PROVINSI":"JAWA BARAT","ID_KABKOT":"32.16","KABKOT":"BEKASI","ID_KEC":"32.16.14","KECAMATAN":"SUKAKARYA","ID_DESA":"32.16.14.2004","DESA":"SUKALAKSANA","LONGITUDE":107.2131092,"LATITUDE":-6.1636503,"STATUS":"BUKA","TANGGAL PENGUMPULAN":"Q1 2024","TANGGAL UPDATE":"28/02/2025"}},{"type":"Feature","geometry":{"coordinates":[107.1808031,-6.3700207],"type":"Point"},"properties":{"NAMA":"PUSKESMAS SUKAMAHI","TIPE_1":"KESEHATAN DAN PENGOBATAN","TIPE_2":"LAYANAN MASYARAKAT","TIPE_3":"PUSKESMAS","TELEPON":"(021) 89973201","ALAMAT":"SUKAMAHI, KEC. CIKARANG PUSAT, KABUPATEN BEKASI, JAWA BARAT 17530","ID_PROV":"32","PROVINSI":"JAWA BARAT","ID_KABKOT":"32.16","KABKOT":"BEKASI","ID_KEC":"32.16.20","KECAMATAN":"CIKARANG PUSAT","ID_DESA":"32.16.20.2002","DESA":"SUKAMAHI","LONGITUDE":107.1808031,"LATITUDE":-6.3700207,"STATUS":"BUKA","TANGGAL PENGUMPULAN":"Q1 2024","TANGGAL UPDATE":"28/02/2025"}},{"type":"Feature","geometry":{"coordinates":[107.1108615,-6.2468168],"type":"Point"},"properties":{"NAMA":"PUSKESMAS KIRANA CIBITUNG","TIPE_1":"KESEHATAN DAN PENGOBATAN","TIPE_2":"LAYANAN MASYARAKAT","TIPE_3":"PUSKESMAS","TELEPON":"","ALAMAT":"JL. KIRANA RAYA, WANAJAYA, KEC. CIBITUNG, KABUPATEN BEKASI, JAWA BARAT 17520","ID_PROV":"32","PROVINSI":"JAWA BARAT","ID_KABKOT":"32.16","KABKOT":"BEKASI","ID_KEC":"32.16.07","KECAMATAN":"CIBITUNG","ID_DESA":"32.16.07.2002","DESA":"WANAJAYA","LONGITUDE":107.1108615,"LATITUDE":-6.2468168,"STATUS":"BUKA","TANGGAL PENGUMPULAN":"Q1 2024","TANGGAL UPDATE":"28/02/2025"}},{"type":"Feature","geometry":{"coordinates":[107.1563159,-6.2566364],"type":"Point"},"properties":{"NAMA":"PUSKESMAS CIKARANG","TIPE_1":"KESEHATAN DAN PENGOBATAN","TIPE_2":"LAYANAN MASYARAKAT","TIPE_3":"PUSKESMAS","TELEPON":"(021) 89106060","ALAMAT":"JL. KI HAJAR DEWANTARA NO.24, KARANGASIH, KEC. CIKARANG UTARA, KABUPATEN BEKASI, JAWA BARAT 17530","ID_PROV":"32","PROVINSI":"JAWA BARAT","ID_KABKOT":"32.16","KABKOT":"BEKASI","ID_KEC":"32.16.09","KECAMATAN":"CIKARANG UTARA","ID_DESA":"32.16.09.2003","DESA":"KARANGASIH","LONGITUDE":107.1563159,"LATITUDE":-6.2566364,"STATUS":"BUKA","TANGGAL PENGUMPULAN":"Q1 2024","TANGGAL UPDATE":"28/02/2025"}},{"type":"Feature","geometry":{"coordinates":[107.2440901,-6.169763],"type":"Point"},"properties":{"NAMA":"PUSKESMAS KARANG REJA","TIPE_1":"KESEHATAN DAN PENGOBATAN","TIPE_2":"LAYANAN MASYARAKAT","TIPE_3":"PUSKESMAS","TELEPON":"","ALAMAT":"JL. RAYA RUMBIA, RT. 01 / RW. 01, KARANGREJA, PEBAYURAN, KARANGREJA, KEC. PEBAYURAN, KABUPATEN BEKASI, JAWA BARAT 17710","ID_PROV":"32","PROVINSI":"JAWA BARAT","ID_KABKOT":"32.16","KABKOT":"BEKASI","ID_KEC":"32.16.13","KECAMATAN":"PEBAYURAN","ID_DESA":"32.16.13.2005","DESA":"KARANGREJA","LONGITUDE":107.2440901,"LATITUDE":-6.169763,"STATUS":"BUKA","TANGGAL PENGUMPULAN":"Q1 2024","TANGGAL UPDATE":"28/02/2025"}},{"type":"Feature","geometry":{"coordinates":[107.2689878,-6.2695088],"type":"Point"},"properties":{"NAMA":"DINAS KESEHATAN PUSKESMAS KEDUNGWARINGIN","TIPE_1":"KESEHATAN DAN PENGOBATAN","TIPE_2":"LAYANAN MASYARAKAT","TIPE_3":"PUSKESMAS","TELEPON":"(021) 89141343","ALAMAT":"PUSKESMAS KEDUNG WARINGIN, JL. KEDUNG GEDE JL. KEDUNG WARINGIN NO.57, KEDUNGWARINGIN, KEC. KEDUNGWARINGIN, KABUPATEN BEKASI, JAWA BARAT 17540","ID_PROV":"32","PROVINSI":"JAWA BARAT","ID_KABKOT":"32.16","KABKOT":"BEKASI","ID_KEC":"32.16.12","KECAMATAN":"KEDUNG WARINGIN","ID_DESA":"32.16.12.2007","DESA":"KEDUNGWARINGIN","LONGITUDE":107.2689878,"LATITUDE":-6.2695088,"STATUS":"BUKA","TANGGAL PENGUMPULAN":"Q1 2024","TANGGAL UPDATE":"28/02/2025"}},{"type":"Feature","geometry":{"coordinates":[107.0893591,-6.3211083],"type":"Point"},"properties":{"NAMA":"PUSKESMAS JATIWANGI","TIPE_1":"KESEHATAN DAN PENGOBATAN","TIPE_2":"LAYANAN MASYARAKAT","TIPE_3":"PUSKESMAS","TELEPON":"","ALAMAT":"JL ALUN-ALUN CIKARANG BAR. 17530, JATIWANGI, KEC. CIKARANG BAR., KABUPATEN BEKASI, JAWA BARAT 17530","ID_PROV":"32","PROVINSI":"JAWA BARAT","ID_KABKOT":"32.16","KABKOT":"BEKASI","ID_KEC":"32.16.08","KECAMATAN":"CIKARANG BARAT","ID_DESA":"32.16.08.2003","DESA":"JATIWANGI","LONGITUDE":107.0893591,"LATITUDE":-6.3211083,"STATUS":"BUKA","TANGGAL PENGUMPULAN":"Q1 2024","TANGGAL UPDATE":"28/02/2025"}},{"type":"Feature","geometry":{"coordinates":[107.1070637,-6.3861503],"type":"Point"},"properties":{"NAMA":"PUSKESMAS SIRNAJAYA - KEC. SERANG BARU","TIPE_1":"KESEHATAN DAN PENGOBATAN","TIPE_2":"LAYANAN MASYARAKAT","TIPE_3":"PUSKESMAS","TELEPON":"","ALAMAT":"JALAN, SUKASARI, KEC. SERANG BARU, KABUPATEN BEKASI, JAWA BARAT 17330","ID_PROV":"32","PROVINSI":"JAWA BARAT","ID_KABKOT":"32.16","KABKOT":"BEKASI","ID_KEC":"32.16.21","KECAMATAN":"SERANG BARU","ID_DESA":"32.16.21.2003","DESA":"SUKASARI","LONGITUDE":107.1070637,"LATITUDE":-6.3861503,"STATUS":"BUKA","TANGGAL PENGUMPULAN":"Q1 2024","TANGGAL UPDATE":"28/02/2025"}},{"type":"Feature","geometry":{"coordinates":[107.0494309,-6.1873511],"type":"Point"},"properties":{"NAMA":"PUSKESMAS SRIAMUR","TIPE_1":"KESEHATAN DAN PENGOBATAN","TIPE_2":"LAYANAN MASYARAKAT","TIPE_3":"PUSKESMAS","TELEPON":"(021) 89239152","ALAMAT":"JL. SRIAMUR NO.43, SRIAMUR, KEC. TAMBUN UTARA, KABUPATEN BEKASI, JAWA BARAT 17510","ID_PROV":"32","PROVINSI":"JAWA BARAT","ID_KABKOT":"32.16","KABKOT":"BEKASI","ID_KEC":"32.16.05","KECAMATAN":"TAMBUN UTARA","ID_DESA":"32.16.05.2004","DESA":"SRIAMUR","LONGITUDE":107.0494309,"LATITUDE":-6.1873511,"STATUS":"BUKA","TANGGAL PENGUMPULAN":"Q1 2024","TANGGAL UPDATE":"28/02/2025"}},{"type":"Feature","geometry":{"coordinates":[107.0709199,-6.2574076],"type":"Point"},"properties":{"NAMA":"PUSKESMAS MEKARSARI","TIPE_1":"KESEHATAN DAN PENGOBATAN","TIPE_2":"LAYANAN MASYARAKAT","TIPE_3":"PUSKESMAS","TELEPON":"","ALAMAT":"KOMPAS INDAH, JL. APEL NO.1, MEKARSARI, KEC. TAMBUN SEL., KABUPATEN BEKASI, JAWA BARAT 17510","ID_PROV":"32","PROVINSI":"JAWA BARAT","ID_KABKOT":"32.16","KABKOT":"BEKASI","ID_KEC":"32.16.06","KECAMATAN":"TAMBUN SELATAN","ID_DESA":"32.16.06.2007","DESA":"MEKARSARI","LONGITUDE":107.0709199,"LATITUDE":-6.2574076,"STATUS":"BUKA","TANGGAL PENGUMPULAN":"Q1 2024","TANGGAL UPDATE":"28/02/2025"}},{"type":"Feature","geometry":{"coordinates":[107.0704159,-6.2371229],"type":"Point"},"properties":{"NAMA":"PUSKESMAS SUMBER JAYA","TIPE_1":"KESEHATAN DAN PENGOBATAN","TIPE_2":"LAYANAN MASYARAKAT","TIPE_3":"PUSKESMAS","TELEPON":"","ALAMAT":"JALAN RAYA TAMBUN TAMBALANG NO.25, SUMBERJAYA, KEC. TAMBUN SEL., KABUPATEN BEKASI, JAWA BARAT 17510","ID_PROV":"32","PROVINSI":"JAWA BARAT","ID_KABKOT":"32.16","KABKOT":"BEKASI","ID_KEC":"32.16.06","KECAMATAN":"TAMBUN SELATAN","ID_DESA":"32.16.06.2010","DESA":"SUMBERJAYA","LONGITUDE":107.0704159,"LATITUDE":-6.2371229,"STATUS":"BUKA","TANGGAL PENGUMPULAN":"Q1 2024","TANGGAL UPDATE":"28/02/2025"}},{"type":"Feature","geometry":{"coordinates":[107.0244695,-6.1899517],"type":"Point"},"properties":{"NAMA":"PUSKESMAS BAHAGIA BEKASI","TIPE_1":"KESEHATAN DAN PENGOBATAN","TIPE_2":"LAYANAN MASYARAKAT","TIPE_3":"PUSKESMAS","TELEPON":"(021) 89236770","ALAMAT":"JL. KH. A. TAJUDDIN NO.15C, BAHAGIA, KEC. BABELAN, KABUPATEN BEKASI, JAWA BARAT 17610","ID_PROV":"32","PROVINSI":"JAWA BARAT","ID_KABKOT":"32.16","KABKOT":"BEKASI","ID_KEC":"32.16.02","KECAMATAN":"BABELAN","ID_DESA":"32.16.02.1006","DESA":"BAHAGIA","LONGITUDE":107.0244695,"LATITUDE":-6.1899517,"STATUS":"BUKA","TANGGAL PENGUMPULAN":"Q1 2024","TANGGAL UPDATE":"28/02/2025"}},{"type":"Feature","geometry":{"coordinates":[107.1544215,-6.2892361],"type":"Point"},"properties":{"NAMA":"PUSKESMAS MEKARMUKTI","TIPE_1":"KESEHATAN DAN PENGOBATAN","TIPE_2":"LAYANAN MASYARAKAT","TIPE_3":"PUSKESMAS","TELEPON":"","ALAMAT":"JL. RAYA CIBARUSAH, MEKARMUKTI, KEC. CIKARANG UTARA, KABUPATEN BEKASI, JAWA BARAT 17530","ID_PROV":"32","PROVINSI":"JAWA BARAT","ID_KABKOT":"32.16","KABKOT":"BEKASI","ID_KEC":"32.16.09","KECAMATAN":"CIKARANG UTARA","ID_DESA":"32.16.09.2010","DESA":"MEKARMUKTI","LONGITUDE":107.1544215,"LATITUDE":-6.2892361,"STATUS":"BUKA","TANGGAL PENGUMPULAN":"Q1 2024","TANGGAL UPDATE":"28/02/2025"}},{"type":"Feature","geometry":{"coordinates":[107.0455836,-6.3350619],"type":"Point"},"properties":{"NAMA":"PUSKESMAS SETU I","TIPE_1":"KESEHATAN DAN PENGOBATAN","TIPE_2":"LAYANAN MASYARAKAT","TIPE_3":"PUSKESMAS","TELEPON":"(021) 82600333","ALAMAT":"JL. SUPRATMAN, NO. 1, SETU, LUBANG BUAYA, 17320, LUBANGBUAYA, KEC. SETU, KABUPATEN BEKASI, JAWA BARAT 17320","ID_PROV":"32","PROVINSI":"JAWA BARAT","ID_KABKOT":"32.16","KABKOT":"BEKASI","ID_KEC":"32.16.18","KECAMATAN":"SETU","ID_DESA":"32.16.18.2002","DESA":"LUBANGBUAYA","LONGITUDE":107.0455836,"LATITUDE":-6.3350619,"STATUS":"BUKA","TANGGAL PENGUMPULAN":"Q1 2024","TANGGAL UPDATE":"28/02/2025"}},{"type":"Feature","geometry":{"coordinates":[107.22092,-6.3063189],"type":"Point"},"properties":{"NAMA":"UPT PUSKESMAS CIPAYUNG KAB BEKASI","TIPE_1":"KESEHATAN DAN PENGOBATAN","TIPE_2":"LAYANAN MASYARAKAT","TIPE_3":"PUSKESMAS","TELEPON":"","ALAMAT":"CIPAYUNG, KEC. CIKARANG TIM., KABUPATEN BEKASI, JAWA BARAT 17530","ID_PROV":"32","PROVINSI":"JAWA BARAT","ID_KABKOT":"32.16","KABKOT":"BEKASI","ID_KEC":"32.16.11","KECAMATAN":"CIKARANG TIMUR","ID_DESA":"32.16.11.2002","DESA":"CIPAYUNG","LONGITUDE":107.22092,"LATITUDE":-6.3063189,"STATUS":"BUKA","TANGGAL PENGUMPULAN":"Q1 2024","TANGGAL UPDATE":"28/02/2025"}},{"type":"Feature","geometry":{"coordinates":[107.114711,-6.2702787],"type":"Point"},"properties":{"NAMA":"PUSKESMAS TELAGA MURNI","TIPE_1":"KESEHATAN DAN PENGOBATAN","TIPE_2":"LAYANAN MASYARAKAT","TIPE_3":"PUSKESMAS","TELEPON":"(021) 89107679","ALAMAT":"JL. RAYA IMAM BONJOL NO.59-17, TELAGAMURNI, KEC. CIKARANG BAR., KABUPATEN BEKASI, JAWA BARAT 17530","ID_PROV":"32","PROVINSI":"JAWA BARAT","ID_KABKOT":"32.16","KABKOT":"BEKASI","ID_KEC":"32.16.08","KECAMATAN":"CIKARANG BARAT","ID_DESA":"32.16.08.2001","DESA":"TELAGAMURNI","LONGITUDE":107.114711,"LATITUDE":-6.2702787,"STATUS":"BUKA","TANGGAL PENGUMPULAN":"Q1 2024","TANGGAL UPDATE":"28/02/2025"}},{"type":"Feature","geometry":{"coordinates":[107.0891915,-6.2145335],"type":"Point"},"properties":{"NAMA":"PUSTU MUKTIWARI","TIPE_1":"KESEHATAN DAN PENGOBATAN","TIPE_2":"LAYANAN MASYARAKAT","TIPE_3":"PUSKESMAS","TELEPON":"","ALAMAT":"UNNAMED ROAD, MUKTIWARI, KEC. CIBITUNG, KABUPATEN BEKASI, JAWA BARAT 17520","ID_PROV":"32","PROVINSI":"JAWA BARAT","ID_KABKOT":"32.16","KABKOT":"BEKASI","ID_KEC":"32.16.07","KECAMATAN":"CIBITUNG","ID_DESA":"32.16.07.2004","DESA":"MUKTIWARI","LONGITUDE":107.0891915,"LATITUDE":-6.2145335,"STATUS":"BUKA","TANGGAL PENGUMPULAN":"Q1 2024","TANGGAL UPDATE":"28/02/2025"}},{"type":"Feature","geometry":{"coordinates":[107.0456703,-6.2533375],"type":"Point"},"properties":{"NAMA":"PUSKESMAS SETIAMEKAR","TIPE_1":"KESEHATAN DAN PENGOBATAN","TIPE_2":"LAYANAN MASYARAKAT","TIPE_3":"PUSKESMAS","TELEPON":"","ALAMAT":"JL. ANGGREK VI NO.32, SETIAMEKAR, KEC. TAMBUN SEL., KABUPATEN BEKASI, JAWA BARAT 17111","ID_PROV":"32","PROVINSI":"JAWA BARAT","ID_KABKOT":"32.16","KABKOT":"BEKASI","ID_KEC":"32.16.06","KECAMATAN":"TAMBUN SELATAN","ID_DESA":"32.16.06.2006","DESA":"SETIAMEKAR","LONGITUDE":107.0456703,"LATITUDE":-6.2533375,"STATUS":"BUKA","TANGGAL PENGUMPULAN":"Q1 2024","TANGGAL UPDATE":"28/02/2025"}},{"type":"Feature","geometry":{"coordinates":[107.1121991,-6.2247073],"type":"Point"},"properties":{"NAMA":"PUSKESMAS KERTAMUKTI","TIPE_1":"KESEHATAN DAN PENGOBATAN","TIPE_2":"LAYANAN MASYARAKAT","TIPE_3":"PUSKESMAS","TELEPON":"","ALAMAT":"KERTAMUKTI, KEC. CIBITUNG, KABUPATEN BEKASI, JAWA BARAT 17520","ID_PROV":"32","PROVINSI":"JAWA BARAT","ID_KABKOT":"32.16","KABKOT":"BEKASI","ID_KEC":"32.16.07","KECAMATAN":"CIBITUNG","ID_DESA":"32.16.07.2003","DESA":"KERTAMUKTI","LONGITUDE":107.1121991,"LATITUDE":-6.2247073,"STATUS":"BUKA","TANGGAL PENGUMPULAN":"Q1 2024","TANGGAL UPDATE":"28/02/2025"}},{"type":"Feature","geometry":{"coordinates":[107.0831538,-6.271746],"type":"Point"},"properties":{"NAMA":"PUSKESMAS GANDASARI","TIPE_1":"KESEHATAN DAN PENGOBATAN","TIPE_2":"LAYANAN MASYARAKAT","TIPE_3":"PUSKESMAS","TELEPON":"","ALAMAT":"JL. ANDINI SAKTI NO.1, GANDASARI, KEC. CIKARANG BAR., KABUPATEN BEKASI, JAWA BARAT 17530","ID_PROV":"32","PROVINSI":"JAWA BARAT","ID_KABKOT":"32.16","KABKOT":"BEKASI","ID_KEC":"32.16.08","KECAMATAN":"CIKARANG BARAT","ID_DESA":"32.16.08.2006","DESA":"GANDASARI","LONGITUDE":107.0831538,"LATITUDE":-6.271746,"STATUS":"BUKA","TANGGAL PENGUMPULAN":"Q1 2024","TANGGAL UPDATE":"28/02/2025"}},{"type":"Feature","geometry":{"coordinates":[107.0100738,-6.3702726],"type":"Point"},"properties":{"NAMA":"PUSKESMAS SETU II","TIPE_1":"KESEHATAN DAN PENGOBATAN","TIPE_2":"LAYANAN MASYARAKAT","TIPE_3":"PUSKESMAS","TELEPON":"","ALAMAT":"JL. MT. HARYONO, RT.002/RW.002, TAMAN RAHAYU, KEC. SETU, KOTA BKS, JAWA BARAT 17320","ID_PROV":"32","PROVINSI":"JAWA BARAT","ID_KABKOT":"32.16","KABKOT":"BEKASI","ID_KEC":"32.16.18","KECAMATAN":"SETU","ID_DESA":"32.16.18.2007","DESA":"TAMAN RAHAYU","LONGITUDE":107.0100738,"LATITUDE":-6.3702726,"STATUS":"BUKA","TANGGAL PENGUMPULAN":"Q1 2024","TANGGAL UPDATE":"28/02/2025"}},{"type":"Feature","geometry":{"coordinates":[107.1790418,-6.1718021],"type":"Point"},"properties":{"NAMA":"UPTD PUSKESMAS SUKATANI KAB. BEKASI","TIPE_1":"KESEHATAN DAN PENGOBATAN","TIPE_2":"LAYANAN MASYARAKAT","TIPE_3":"PUSKESMAS","TELEPON":"0815-6492-0071","ALAMAT":"JL. RAYA NO.5, SUKADARMA, KEC. SUKATANI, KABUPATEN BEKASI, JAWA BARAT 17630","ID_PROV":"32","PROVINSI":"JAWA BARAT","ID_KABKOT":"32.16","KABKOT":"BEKASI","ID_KEC":"32.16.15","KECAMATAN":"SUKATANI","ID_DESA":"32.16.15.2007","DESA":"SUKADARMA","LONGITUDE":107.1790418,"LATITUDE":-6.1718021,"STATUS":"BUKA","TANGGAL PENGUMPULAN":"Q1 2024","TANGGAL UPDATE":"28/02/2025"}},{"type":"Feature","geometry":{"coordinates":[107.179,-6.1717],"type":"Point"},"properties":{"NAMA":"PUSKESMAS SUKATANI","TIPE_1":"KESEHATAN DAN PENGOBATAN","TIPE_2":"LAYANAN MASYARAKAT","TIPE_3":"PUSKESMAS","TELEPON":"(021) 89160186","ALAMAT":"JL. PONPES NO.21, RT.2/RW.1, SUKADARMA, KEC. SUKATANI, KABUPATEN BEKASI, JAWA BARAT 17630","ID_PROV":"32","PROVINSI":"JAWA BARAT","ID_KABKOT":"32.16","KABKOT":"BEKASI","ID_KEC":"32.16.15","KECAMATAN":"SUKATANI","ID_DESA":"32.16.15.2007","DESA":"SUKADARMA","LONGITUDE":107.179,"LATITUDE":-6.1717,"STATUS":"BUKA","TANGGAL PENGUMPULAN":"Q1 2024","TANGGAL UPDATE":"28/02/2025"}},{"type":"Feature","geometry":{"coordinates":[107.0396741,-6.1115294],"type":"Point"},"properties":{"NAMA":"PUSKESMAS BABELAN II CAGAR BETAWI","TIPE_1":"KESEHATAN DAN PENGOBATAN","TIPE_2":"LAYANAN MASYARAKAT","TIPE_3":"PUSKESMAS","TELEPON":"(021) 89443801","ALAMAT":"JL. RAYA BUNI BAKTI, BUNIBAKTI, KEC. BABELAN, KABUPATEN BEKASI, JAWA BARAT 17610","ID_PROV":"32","PROVINSI":"JAWA BARAT","ID_KABKOT":"32.16","KABKOT":"BEKASI","ID_KEC":"32.16.02","KECAMATAN":"BABELAN","ID_DESA":"32.16.02.2001","DESA":"BUNIBAKTI","LONGITUDE":107.0396741,"LATITUDE":-6.1115294,"STATUS":"BUKA","TANGGAL PENGUMPULAN":"Q1 2024","TANGGAL UPDATE":"28/02/2025"}},{"type":"Feature","geometry":{"coordinates":[107.0889511,-6.2150418],"type":"Point"},"properties":{"NAMA":"PUSKESMAS PEMBANTU","TIPE_1":"KESEHATAN DAN PENGOBATAN","TIPE_2":"LAYANAN MASYARAKAT","TIPE_3":"PUSKESMAS","TELEPON":"","ALAMAT":"MUKTIWARI, KEC. CIBITUNG, KABUPATEN BEKASI, JAWA BARAT 17520","ID_PROV":"32","PROVINSI":"JAWA BARAT","ID_KABKOT":"32.16","KABKOT":"BEKASI","ID_KEC":"32.16.07","KECAMATAN":"CIBITUNG","ID_DESA":"32.16.07.2004","DESA":"MUKTIWARI","LONGITUDE":107.0889511,"LATITUDE":-6.2150418,"STATUS":"BUKA","TANGGAL PENGUMPULAN":"Q1 2024","TANGGAL UPDATE":"28/02/2025"}},{"type":"Feature","geometry":{"coordinates":[107.0536647,-6.2456197],"type":"Point"},"properties":{"NAMA":"PUSKESMAS MANGUN JAYA","TIPE_1":"KESEHATAN DAN PENGOBATAN","TIPE_2":"LAYANAN MASYARAKAT","TIPE_3":"PUSKESMAS","TELEPON":"","ALAMAT":"PERUMAHAN PAPAN MAS JL. GARUDA X-XI BLOK D, KEC. TAMBUN SEL., KABUPATEN BEKASI, JAWA BARAT 17510","ID_PROV":"32","PROVINSI":"JAWA BARAT","ID_KABKOT":"32.16","KABKOT":"BEKASI","ID_KEC":"32.16.06","KECAMATAN":"TAMBUN SELATAN","ID_DESA":"32.16.06.2009","DESA":"MANGUNJAYA","LONGITUDE":107.0536647,"LATITUDE":-6.2456197,"STATUS":"BUKA","TANGGAL PENGUMPULAN":"Q1 2024","TANGGAL UPDATE":"28/02/2025"}},{"type":"Feature","geometry":{"coordinates":[107.0459756,-6.1708302],"type":"Point"},"properties":{"NAMA":"PUSKESMAS BABELAN 1","TIPE_1":"KESEHATAN DAN PENGOBATAN","TIPE_2":"LAYANAN MASYARAKAT","TIPE_3":"PUSKESMAS","TELEPON":"(021) 89132278","ALAMAT":"JL. RAYA BABELAN NO.3, RW.02, BABELAN KOTA, KEC. BABELAN, KABUPATEN BEKASI, JAWA BARAT 17610","ID_PROV":"32","PROVINSI":"JAWA BARAT","ID_KABKOT":"32.16","KABKOT":"BEKASI","ID_KEC":"32.16.02","KECAMATAN":"BABELAN","ID_DESA":"32.16.02.2008","DESA":"BABELANKOTA","LONGITUDE":107.0459756,"LATITUDE":-6.1708302,"STATUS":"BUKA","TANGGAL PENGUMPULAN":"Q1 2024","TANGGAL UPDATE":"28/02/2025"}},{"type":"Feature","geometry":{"coordinates":[107.0706383,-6.2474705],"type":"Point"},"properties":{"NAMA":"PUSKESMAS TRIDAYASAKTI","TIPE_1":"KESEHATAN DAN PENGOBATAN","TIPE_2":"LAYANAN MASYARAKAT","TIPE_3":"PUSKESMAS","TELEPON":"0812-8537-0701","ALAMAT":"JL. FLAMBOYAN 3 NO.B.6 BLOK B.6, RT.3/RW.3, TRIDAYA SAKTI, TAMBUN SELATAN, BEKASI REGENCY, WEST JAVA 17510","ID_PROV":"32","PROVINSI":"JAWA BARAT","ID_KABKOT":"32.16","KABKOT":"BEKASI","ID_KEC":"32.16.06","KECAMATAN":"TAMBUN SELATAN","ID_DESA":"32.16.06.2008","DESA":"TRIDAYA SAKTI","LONGITUDE":107.0706383,"LATITUDE":-6.2474705,"STATUS":"BUKA","TANGGAL PENGUMPULAN":"Q1 2024","TANGGAL UPDATE":"28/02/2025"}},{"type":"Feature","geometry":{"coordinates":[107.283035,-6.2137542],"type":"Point"},"properties":{"NAMA":"PUSKESMAS PEBAYURAN","TIPE_1":"KESEHATAN DAN PENGOBATAN","TIPE_2":"LAYANAN MASYARAKAT","TIPE_3":"PUSKESMAS","TELEPON":"","ALAMAT":"KERTASARI, KEC. PEBAYURAN, KABUPATEN BEKASI, JAWA BARAT 17710","ID_PROV":"32","PROVINSI":"JAWA BARAT","ID_KABKOT":"32.16","KABKOT":"BEKASI","ID_KEC":"32.16.13","KECAMATAN":"PEBAYURAN","ID_DESA":"32.16.13.1011","DESA":"KERTASARI","LONGITUDE":107.283035,"LATITUDE":-6.2137542,"STATUS":"BUKA","TANGGAL PENGUMPULAN":"Q1 2024","TANGGAL UPDATE":"28/02/2025"}},{"type":"Feature","geometry":{"coordinates":[107.2045045,-6.3405102],"type":"Point"},"properties":{"NAMA":"PUSKESMAS PEMBANTU PASIRTANJUNG","TIPE_1":"KESEHATAN DAN PENGOBATAN","TIPE_2":"LAYANAN MASYARAKAT","TIPE_3":"PUSKESMAS","TELEPON":"","ALAMAT":"JL. DESA PASIRTANJUNG NO.30, PASIRTANJUNG, KEC. CIKARANG PUSAT, KABUPATEN BEKASI, JAWA BARAT 17530","ID_PROV":"32","PROVINSI":"JAWA BARAT","ID_KABKOT":"32.16","KABKOT":"BEKASI","ID_KEC":"32.16.20","KECAMATAN":"CIKARANG PUSAT","ID_DESA":"32.16.20.2006","DESA":"PASIRTANJUNG","LONGITUDE":107.2045045,"LATITUDE":-6.3405102,"STATUS":"BUKA","TANGGAL PENGUMPULAN":"Q1 2024","TANGGAL UPDATE":"28/02/2025"}},{"type":"Feature","geometry":{"coordinates":[107.0863234,-6.347935],"type":"Point"},"properties":{"NAMA":"PUSKESMAS SUKASEJATI","TIPE_1":"KESEHATAN DAN PENGOBATAN","TIPE_2":"LAYANAN MASYARAKAT","TIPE_3":"PUSKESMAS","TELEPON":"0877-2593-2223","ALAMAT":"","ID_PROV":"32","PROVINSI":"JAWA BARAT","ID_KABKOT":"32.16","KABKOT":"BEKASI","ID_KEC":"32.16.19","KECAMATAN":"CIKARANG SELATAN","ID_DESA":"32.16.19.2002","DESA":"SUKASEJATI","LONGITUDE":107.0863234,"LATITUDE":-6.347935,"STATUS":"BUKA","TANGGAL PENGUMPULAN":"Q1 2024","TANGGAL UPDATE":"28/02/2025"}},{"type":"Feature","geometry":{"coordinates":[107.0494145,-6.187358],"type":"Point"},"properties":{"NAMA":"PUSKESMAS PONED RAWAT INAP SRIAMUR","TIPE_1":"KESEHATAN DAN PENGOBATAN","TIPE_2":"LAYANAN MASYARAKAT","TIPE_3":"PUSKESMAS","TELEPON":"(021) 8921985","ALAMAT":"JL. SRIAMUR, GABUS, SRIAMUR, KEC. TAMBUN UTARA, KABUPATEN BEKASI, JAWA BARAT 17510","ID_PROV":"32","PROVINSI":"JAWA BARAT","ID_KABKOT":"32.16","KABKOT":"BEKASI","ID_KEC":"32.16.05","KECAMATAN":"TAMBUN UTARA","ID_DESA":"32.16.05.2004","DESA":"SRIAMUR","LONGITUDE":107.0494145,"LATITUDE":-6.187358,"STATUS":"BUKA","TANGGAL PENGUMPULAN":"Q1 2024","TANGGAL UPDATE":"28/02/2025"}},{"type":"Feature","geometry":{"coordinates":[107.2322571,-6.2681458],"type":"Point"},"properties":{"NAMA":"PUSKESMAS KARANG SAMBUNG","TIPE_1":"KESEHATAN DAN PENGOBATAN","TIPE_2":"LAYANAN MASYARAKAT","TIPE_3":"PUSKESMAS","TELEPON":"(021) 89140708","ALAMAT":"KARANG SAMBUNG, KEDUNG WARINGIN, KARANGSAMBUNG, KEC. KEDUNGWARINGIN, KABUPATEN BEKASI, JAWA BARAT 17540","ID_PROV":"32","PROVINSI":"JAWA BARAT","ID_KABKOT":"32.16","KABKOT":"BEKASI","ID_KEC":"32.16.12","KECAMATAN":"KEDUNG WARINGIN","ID_DESA":"32.16.12.2001","DESA":"KARANGSAMBUNG","LONGITUDE":107.2322571,"LATITUDE":-6.2681458,"STATUS":"BUKA","TANGGAL PENGUMPULAN":"Q1 2024","TANGGAL UPDATE":"28/02/2025"}}]}