{"type":"FeatureCollection","features":[{"type":"Feature","geometry":{"coordinates":[106.8337547,-6.206937],"type":"Point"},"properties":{"NAMA":"PUSKESMAS KECAMATAN SETIABUDI","TIPE_1":"KESEHATAN DAN PENGOBATAN","TIPE_2":"LAYANAN MASYARAKAT","TIPE_3":"PUSKESMAS","TELEPON":"(021) 8295529","ALAMAT":"JL. HALIMUN RAYA NO.13 7, RT.8/RW.2, GUNTUR, KECAMATAN SETIABUDI, KOTA JAKARTA SELATAN, DAERAH KHUSUS IBUKOTA JAKARTA 12980","ID_PROV":"31","PROVINSI":"DKI JAKARTA","ID_KABKOT":"31.74","KABKOT":"KOTA ADM. JAKARTA SELATAN","ID_KEC":"31.74.02","KECAMATAN":"SETIABUDI","ID_DESA":"31.74.02.1007","DESA":"GUNTUR","LONGITUDE":106.8337547,"LATITUDE":-6.206937,"STATUS":"BUKA","TANGGAL PENGUMPULAN":"Q1 2024","TANGGAL UPDATE":"28/02/2025"}},{"type":"Feature","geometry":{"coordinates":[106.7792631,-6.2154351],"type":"Point"},"properties":{"NAMA":"PUSKESMAS KELURAHAN GROGOL UTARA 1","TIPE_1":"KESEHATAN DAN PENGOBATAN","TIPE_2":"LAYANAN MASYARAKAT","TIPE_3":"PUSKESMAS","TELEPON":"","ALAMAT":"JL. BIDURI BLOK O2 NO.2, RT.8/RW.1, GROGOL UTARA, KEC. KBY. LAMA, KOTA JAKARTA SELATAN, DAERAH KHUSUS IBUKOTA JAKARTA 12210","ID_PROV":"31","PROVINSI":"DKI JAKARTA","ID_KABKOT":"31.74","KABKOT":"KOTA ADM. JAKARTA SELATAN","ID_KEC":"31.74.05","KECAMATAN":"KEBAYORAN LAMA","ID_DESA":"31.74.05.1004","DESA":"GROGOL UTARA","LONGITUDE":106.7792631,"LATITUDE":-6.2154351,"STATUS":"BUKA","TANGGAL PENGUMPULAN":"Q1 2024","TANGGAL UPDATE":"28/02/2025"}},{"type":"Feature","geometry":{"coordinates":[106.7902989,-6.2098003],"type":"Point"},"properties":{"NAMA":"PUSKESMAS KELURAHAN GROGOL UTARA 2","TIPE_1":"KESEHATAN DAN PENGOBATAN","TIPE_2":"LAYANAN MASYARAKAT","TIPE_3":"PUSKESMAS","TELEPON":"","ALAMAT":"JL. INPRES JL. KEMANDORAN I NO.05 4, RT.4/RW.5, GROGOL UTARA, KEC. KBY. LAMA, KOTA JAKARTA SELATAN, DAERAH KHUSUS IBUKOTA JAKARTA 12210","ID_PROV":"31","PROVINSI":"DKI JAKARTA","ID_KABKOT":"31.74","KABKOT":"KOTA ADM. JAKARTA SELATAN","ID_KEC":"31.74.05","KECAMATAN":"KEBAYORAN LAMA","ID_DESA":"31.74.05.1004","DESA":"GROGOL UTARA","LONGITUDE":106.7902989,"LATITUDE":-6.2098003,"STATUS":"BUKA","TANGGAL PENGUMPULAN":"Q1 2024","TANGGAL UPDATE":"28/02/2025"}},{"type":"Feature","geometry":{"coordinates":[106.8442961,-6.2197161],"type":"Point"},"properties":{"NAMA":"PUSKESMAS KELURAHAN MENTENG ATAS","TIPE_1":"KESEHATAN DAN PENGOBATAN","TIPE_2":"LAYANAN MASYARAKAT","TIPE_3":"PUSKESMAS","TELEPON":"(021) 8305394","ALAMAT":"JL. MAKMUR RAYA RT. 001/08, MENTENG ATAS, RT.1/RW.8, MENTENG ATAS, KECAMATAN SETIABUDI, KOTA JAKARTA SELATAN, DAERAH KHUSUS IBUKOTA JAKARTA 12960","ID_PROV":"31","PROVINSI":"DKI JAKARTA","ID_KABKOT":"31.74","KABKOT":"KOTA ADM. JAKARTA SELATAN","ID_KEC":"31.74.02","KECAMATAN":"SETIABUDI","ID_DESA":"31.74.02.1005","DESA":"MENTENG ATAS","LONGITUDE":106.8442961,"LATITUDE":-6.2197161,"STATUS":"BUKA","TANGGAL PENGUMPULAN":"Q1 2024","TANGGAL UPDATE":"28/02/2025"}},{"type":"Feature","geometry":{"coordinates":[106.8245047,-6.2199177],"type":"Point"},"properties":{"NAMA":"PUSKESMAS KARET KUNINGAN","TIPE_1":"KESEHATAN DAN PENGOBATAN","TIPE_2":"LAYANAN MASYARAKAT","TIPE_3":"PUSKESMAS","TELEPON":"","ALAMAT":"JL. H. SIDIK NO.30 8, RT.6/RW.6, KUNINGAN, KARET KUNINGAN, KECAMATAN SETIABUDI, KOTA JAKARTA SELATAN, DAERAH KHUSUS IBUKOTA JAKARTA 12940","ID_PROV":"31","PROVINSI":"DKI JAKARTA","ID_KABKOT":"31.74","KABKOT":"KOTA ADM. JAKARTA SELATAN","ID_KEC":"31.74.02","KECAMATAN":"SETIABUDI","ID_DESA":"31.74.02.1003","DESA":"KARET KUNINGAN","LONGITUDE":106.8245047,"LATITUDE":-6.2199177,"STATUS":"BUKA","TANGGAL PENGUMPULAN":"Q1 2024","TANGGAL UPDATE":"28/02/2025"}},{"type":"Feature","geometry":{"coordinates":[106.8349439,-6.329994],"type":"Point"},"properties":{"NAMA":"PUSKESMAS","TIPE_1":"KESEHATAN DAN PENGOBATAN","TIPE_2":"LAYANAN MASYARAKAT","TIPE_3":"PUSKESMAS","TELEPON":"0857-7616-6153","ALAMAT":"JL. RAYA LENTENG AGUNG, LENTENG AGUNG, KEC. JAGAKARSA, KOTA JAKARTA SELATAN, DAERAH KHUSUS IBUKOTA JAKARTA","ID_PROV":"31","PROVINSI":"DKI JAKARTA","ID_KABKOT":"31.74","KABKOT":"KOTA ADM. JAKARTA SELATAN","ID_KEC":"31.74.09","KECAMATAN":"JAGAKARSA","ID_DESA":"31.74.09.1004","DESA":"LENTENG AGUNG","LONGITUDE":106.8349439,"LATITUDE":-6.329994,"STATUS":"BUKA","TANGGAL PENGUMPULAN":"Q1 2024","TANGGAL UPDATE":"28/02/2025"}},{"type":"Feature","geometry":{"coordinates":[106.825608,-6.2317842],"type":"Point"},"properties":{"NAMA":"PUSKESMAS KELURAHAN KUNINGAN TIMUR","TIPE_1":"KESEHATAN DAN PENGOBATAN","TIPE_2":"LAYANAN MASYARAKAT","TIPE_3":"PUSKESMAS","TELEPON":"","ALAMAT":"JL. MEGA KUNINGAN BARAT III NO.1, RT.6/RW.3, KUNINGAN, KUNINGAN TIM., KECAMATAN SETIABUDI, KOTA JAKARTA SELATAN, DAERAH KHUSUS IBUKOTA JAKARTA 12950","ID_PROV":"31","PROVINSI":"DKI JAKARTA","ID_KABKOT":"31.74","KABKOT":"KOTA ADM. JAKARTA SELATAN","ID_KEC":"31.74.02","KECAMATAN":"SETIABUDI","ID_DESA":"31.74.02.1008","DESA":"KUNINGAN TIMUR","LONGITUDE":106.825608,"LATITUDE":-6.2317842,"STATUS":"BUKA","TANGGAL PENGUMPULAN":"Q1 2024","TANGGAL UPDATE":"28/02/2025"}},{"type":"Feature","geometry":{"coordinates":[106.805342,-6.285821],"type":"Point"},"properties":{"NAMA":"PUSKESMAS KELURAHAN CILANDAK","TIPE_1":"KESEHATAN DAN PENGOBATAN","TIPE_2":"LAYANAN MASYARAKAT","TIPE_3":"PUSKESMAS","TELEPON":"","ALAMAT":"JL. MAWAR NO.123 4, RT.4/RW.7, CILANDAK BAR., KEC. CILANDAK, KOTA JAKARTA SELATAN, DAERAH KHUSUS IBUKOTA JAKARTA 12430","ID_PROV":"31","PROVINSI":"DKI JAKARTA","ID_KABKOT":"31.74","KABKOT":"KOTA ADM. JAKARTA SELATAN","ID_KEC":"31.74.06","KECAMATAN":"CILANDAK","ID_DESA":"31.74.06.1001","DESA":"CILANDAK BARAT","LONGITUDE":106.805342,"LATITUDE":-6.285821,"STATUS":"BUKA","TANGGAL PENGUMPULAN":"Q1 2024","TANGGAL UPDATE":"28/02/2025"}},{"type":"Feature","geometry":{"coordinates":[106.8245557,-6.2199239],"type":"Point"},"properties":{"NAMA":"PUSKESMAS KELURAHAN KARET KUNINGAN","TIPE_1":"KESEHATAN DAN PENGOBATAN","TIPE_2":"LAYANAN MASYARAKAT","TIPE_3":"PUSKESMAS","TELEPON":"","ALAMAT":"JL. H. SIDIK JL. BLUMBANG NO.22 5, RT.5/RW.6, KUNINGAN, KARET KUNINGAN, KECAMATAN SETIABUDI, KOTA JAKARTA SELATAN, DAERAH KHUSUS IBUKOTA JAKARTA 12940","ID_PROV":"31","PROVINSI":"DKI JAKARTA","ID_KABKOT":"31.74","KABKOT":"KOTA ADM. JAKARTA SELATAN","ID_KEC":"31.74.02","KECAMATAN":"SETIABUDI","ID_DESA":"31.74.02.1003","DESA":"KARET KUNINGAN","LONGITUDE":106.8245557,"LATITUDE":-6.2199239,"STATUS":"BUKA","TANGGAL PENGUMPULAN":"Q1 2024","TANGGAL UPDATE":"28/02/2025"}},{"type":"Feature","geometry":{"coordinates":[106.8141001,-6.3520101],"type":"Point"},"properties":{"NAMA":"PUSKESMAS KELURAHAN SRENGSENG SAWAH (BARU)","TIPE_1":"KESEHATAN DAN PENGOBATAN","TIPE_2":"LAYANAN MASYARAKAT","TIPE_3":"PUSKESMAS","TELEPON":"(021) 7864707","ALAMAT":"JL. BATU NO.1, RT.13/RW.9, SRENGSENG SAWAH, KEC. JAGAKARSA, KOTA JAKARTA SELATAN, DAERAH KHUSUS IBUKOTA JAKARTA 12630","ID_PROV":"31","PROVINSI":"DKI JAKARTA","ID_KABKOT":"31.74","KABKOT":"KOTA ADM. JAKARTA SELATAN","ID_KEC":"31.74.09","KECAMATAN":"JAGAKARSA","ID_DESA":"31.74.09.1002","DESA":"SRENGSENG SAWAH","LONGITUDE":106.8141001,"LATITUDE":-6.3520101,"STATUS":"BUKA","TANGGAL PENGUMPULAN":"Q1 2024","TANGGAL UPDATE":"28/02/2025"}},{"type":"Feature","geometry":{"coordinates":[106.8388827,-6.298113],"type":"Point"},"properties":{"NAMA":"PUSKESMAS KELURAHAN PASAR MINGGU 1","TIPE_1":"KESEHATAN DAN PENGOBATAN","TIPE_2":"LAYANAN MASYARAKAT","TIPE_3":"PUSKESMAS","TELEPON":"(021) 7829927","ALAMAT":"KOMP. TNI AL, JL. B2 RAWA BAMBU, RT.8/RW.7, PS. MINGGU, KOTA JAKARTA SELATAN, DAERAH KHUSUS IBUKOTA JAKARTA 12520","ID_PROV":"31","PROVINSI":"DKI JAKARTA","ID_KABKOT":"31.74","KABKOT":"KOTA ADM. JAKARTA SELATAN","ID_KEC":"31.74.04","KECAMATAN":"PASAR MINGGU","ID_DESA":"31.74.04.1001","DESA":"PASAR MINGGU","LONGITUDE":106.8388827,"LATITUDE":-6.298113,"STATUS":"BUKA","TANGGAL PENGUMPULAN":"Q1 2024","TANGGAL UPDATE":"28/02/2025"}},{"type":"Feature","geometry":{"coordinates":[106.8206833,-6.3012521],"type":"Point"},"properties":{"NAMA":"PUSKESMAS KELURAHAN RAGUNAN","TIPE_1":"KESEHATAN DAN PENGOBATAN","TIPE_2":"LAYANAN MASYARAKAT","TIPE_3":"PUSKESMAS","TELEPON":"(021) 7812770","ALAMAT":"JL. HARSONO. RM. RT. 007 / 004, RT.7/RW.4, RAGUNAN, PS. MINGGU, KOTA JAKARTA SELATAN, DAERAH KHUSUS IBUKOTA JAKARTA 12550","ID_PROV":"31","PROVINSI":"DKI JAKARTA","ID_KABKOT":"31.74","KABKOT":"KOTA ADM. JAKARTA SELATAN","ID_KEC":"31.74.04","KECAMATAN":"PASAR MINGGU","ID_DESA":"31.74.04.1004","DESA":"RAGUNAN","LONGITUDE":106.8206833,"LATITUDE":-6.3012521,"STATUS":"BUKA","TANGGAL PENGUMPULAN":"Q1 2024","TANGGAL UPDATE":"28/02/2025"}},{"type":"Feature","geometry":{"coordinates":[106.7932373,-6.3067591],"type":"Point"},"properties":{"NAMA":"PUSKESMAS KELURAHAN PONDOK LABU","TIPE_1":"KESEHATAN DAN PENGOBATAN","TIPE_2":"LAYANAN MASYARAKAT","TIPE_3":"PUSKESMAS","TELEPON":"(021) 7669456","ALAMAT":"JL. PD. LABU RAYA NO.7, RT.3/RW.7, PD. LABU, KEC. CILANDAK, KOTA JAKARTA SELATAN, DAERAH KHUSUS IBUKOTA JAKARTA 12450","ID_PROV":"31","PROVINSI":"DKI JAKARTA","ID_KABKOT":"31.74","KABKOT":"KOTA ADM. JAKARTA SELATAN","ID_KEC":"31.74.06","KECAMATAN":"CILANDAK","ID_DESA":"31.74.06.1003","DESA":"PONDOK LABU","LONGITUDE":106.7932373,"LATITUDE":-6.3067591,"STATUS":"BUKA","TANGGAL PENGUMPULAN":"Q1 2024","TANGGAL UPDATE":"28/02/2025"}},{"type":"Feature","geometry":{"coordinates":[106.8466812,-6.2524874],"type":"Point"},"properties":{"NAMA":"PUSKESMAS PEMBANTU DURENTIGA","TIPE_1":"KESEHATAN DAN PENGOBATAN","TIPE_2":"LAYANAN MASYARAKAT","TIPE_3":"PUSKESMAS","TELEPON":"(021) 7944040","ALAMAT":"JL. KH MAHMUD NO.18, RT.3/RW.4, DUREN TIGA, KEC. PANCORAN, KOTA JAKARTA SELATAN, DAERAH KHUSUS IBUKOTA JAKARTA 12760","ID_PROV":"31","PROVINSI":"DKI JAKARTA","ID_KABKOT":"31.74","KABKOT":"KOTA ADM. JAKARTA SELATAN","ID_KEC":"31.74.08","KECAMATAN":"PANCORAN","ID_DESA":"31.74.08.1004","DESA":"DUREN TIGA","LONGITUDE":106.8466812,"LATITUDE":-6.2524874,"STATUS":"BUKA","TANGGAL PENGUMPULAN":"Q1 2024","TANGGAL UPDATE":"28/02/2025"}},{"type":"Feature","geometry":{"coordinates":[106.8047086,-6.2760393],"type":"Point"},"properties":{"NAMA":"PUSKESMAS KELURAHAN CIPETE SELATAN","TIPE_1":"KESEHATAN DAN PENGOBATAN","TIPE_2":"LAYANAN MASYARAKAT","TIPE_3":"PUSKESMAS","TELEPON":"(021) 7669455","ALAMAT":"JL. ANGGUR II NO.122 9, RT.9/RW.3, CIPETE SEL., KEC. CILANDAK, KOTA JAKARTA SELATAN, DAERAH KHUSUS IBUKOTA JAKARTA 12410","ID_PROV":"31","PROVINSI":"DKI JAKARTA","ID_KABKOT":"31.74","KABKOT":"KOTA ADM. JAKARTA SELATAN","ID_KEC":"31.74.06","KECAMATAN":"CILANDAK","ID_DESA":"31.74.06.1005","DESA":"CIPETE SELATAN","LONGITUDE":106.8047086,"LATITUDE":-6.2760393,"STATUS":"BUKA","TANGGAL PENGUMPULAN":"Q1 2024","TANGGAL UPDATE":"28/02/2025"}},{"type":"Feature","geometry":{"coordinates":[106.7599413,-6.2237348],"type":"Point"},"properties":{"NAMA":"PUSKESMAS KECAMATAN PESANGGRAHAN","TIPE_1":"KESEHATAN DAN PENGOBATAN","TIPE_2":"LAYANAN MASYARAKAT","TIPE_3":"PUSKESMAS","TELEPON":"(021) 22545099","ALAMAT":"JL. PALEM VIII NO.1, RT.1/RW.8, PETUKANGAN UTARA, KEC. PESANGGRAHAN, KOTA JAKARTA SELATAN, DAERAH KHUSUS IBUKOTA JAKARTA 12260","ID_PROV":"31","PROVINSI":"DKI JAKARTA","ID_KABKOT":"31.74","KABKOT":"KOTA ADM. JAKARTA SELATAN","ID_KEC":"31.74.10","KECAMATAN":"PESANGGRAHAN","ID_DESA":"31.74.10.1003","DESA":"PETUKANGAN UTARA","LONGITUDE":106.7599413,"LATITUDE":-6.2237348,"STATUS":"BUKA","TANGGAL PENGUMPULAN":"Q1 2024","TANGGAL UPDATE":"28/02/2025"}},{"type":"Feature","geometry":{"coordinates":[106.8150229,-6.2793046],"type":"Point"},"properties":{"NAMA":"PUSKESMAS CILANDAK TIMUR","TIPE_1":"KESEHATAN DAN PENGOBATAN","TIPE_2":"LAYANAN MASYARAKAT","TIPE_3":"PUSKESMAS","TELEPON":"(021) 7814555","ALAMAT":"JL. MADRASAH NO. 11 RT 0010/04, RT.7/RW.6, CILANDAK TIM., PS. MINGGU, KOTA JAKARTA SELATAN, DAERAH KHUSUS IBUKOTA JAKARTA 12560","ID_PROV":"31","PROVINSI":"DKI JAKARTA","ID_KABKOT":"31.74","KABKOT":"KOTA ADM. JAKARTA SELATAN","ID_KEC":"31.74.04","KECAMATAN":"PASAR MINGGU","ID_DESA":"31.74.04.1003","DESA":"CILANDAK TIMUR","LONGITUDE":106.8150229,"LATITUDE":-6.2793046,"STATUS":"BUKA","TANGGAL PENGUMPULAN":"Q1 2024","TANGGAL UPDATE":"28/02/2025"}},{"type":"Feature","geometry":{"coordinates":[106.7931716,-6.2740781],"type":"Point"},"properties":{"NAMA":"PUSKESMAS KELURAHAN GANDARIA SELATAN","TIPE_1":"KESEHATAN DAN PENGOBATAN","TIPE_2":"LAYANAN MASYARAKAT","TIPE_3":"PUSKESMAS","TELEPON":"","ALAMAT":"JL. PONCOL NO.17 1, RT.1/RW.7, GANDARIA SEL., KEC. CILANDAK, KOTA JAKARTA SELATAN, DAERAH KHUSUS IBUKOTA JAKARTA 12420","ID_PROV":"31","PROVINSI":"DKI JAKARTA","ID_KABKOT":"31.74","KABKOT":"KOTA ADM. JAKARTA SELATAN","ID_KEC":"31.74.06","KECAMATAN":"CILANDAK","ID_DESA":"31.74.06.1004","DESA":"GANDARIA SELATAN","LONGITUDE":106.7931716,"LATITUDE":-6.2740781,"STATUS":"BUKA","TANGGAL PENGUMPULAN":"Q1 2024","TANGGAL UPDATE":"28/02/2025"}},{"type":"Feature","geometry":{"coordinates":[106.7932134,-6.2868199],"type":"Point"},"properties":{"NAMA":"PUSKESMAS KECAMATAN CILANDAK","TIPE_1":"KESEHATAN DAN PENGOBATAN","TIPE_2":"LAYANAN MASYARAKAT","TIPE_3":"PUSKESMAS","TELEPON":"(021) 7694279","ALAMAT":"JL. KOMPLEK BNI 46 NO.57, CILANDAK BARAT, CILANDAK, RT.4/RW.5, CILANDAK BARAT, RT.4/RW.5, CILANDAK BAR., KEC. CILANDAK, KOTA JAKARTA SELATAN, DAERAH KHUSUS IBUKOTA JAKARTA 12430","ID_PROV":"31","PROVINSI":"DKI JAKARTA","ID_KABKOT":"31.74","KABKOT":"KOTA ADM. JAKARTA SELATAN","ID_KEC":"31.74.06","KECAMATAN":"CILANDAK","ID_DESA":"31.74.06.1001","DESA":"CILANDAK BARAT","LONGITUDE":106.7932134,"LATITUDE":-6.2868199,"STATUS":"BUKA","TANGGAL PENGUMPULAN":"Q1 2024","TANGGAL UPDATE":"28/02/2025"}},{"type":"Feature","geometry":{"coordinates":[106.8567097,-6.235405],"type":"Point"},"properties":{"NAMA":"PUSKESMAS KECAMATAN TEBET","TIPE_1":"KESEHATAN DAN PENGOBATAN","TIPE_2":"LAYANAN MASYARAKAT","TIPE_3":"PUSKESMAS","TELEPON":"(021) 8350632","ALAMAT":"JL. TEBET TIMUR II NO.6, RT.6/RW.5, TEBET TIM., KEC. TEBET, KOTA JAKARTA SELATAN, DAERAH KHUSUS IBUKOTA JAKARTA 12820","ID_PROV":"31","PROVINSI":"DKI JAKARTA","ID_KABKOT":"31.74","KABKOT":"KOTA ADM. JAKARTA SELATAN","ID_KEC":"31.74.01","KECAMATAN":"TEBET","ID_DESA":"31.74.01.1001","DESA":"TEBET TIMUR","LONGITUDE":106.8567097,"LATITUDE":-6.235405,"STATUS":"BUKA","TANGGAL PENGUMPULAN":"Q1 2024","TANGGAL UPDATE":"28/02/2025"}},{"type":"Feature","geometry":{"coordinates":[106.8115113,-6.2489788],"type":"Point"},"properties":{"NAMA":"PUSKESMAS KECAMATAN MAMPANG PRAPATAN","TIPE_1":"KESEHATAN DAN PENGOBATAN","TIPE_2":"LAYANAN MASYARAKAT","TIPE_3":"PUSKESMAS","TELEPON":"(021) 22716699","ALAMAT":"JALAN LILIANA BLOK C24-25, RT.10/RW.11, PELA MAMPANG, KEC. MAMPANG PRPT., DAERAH KHUSUS IBUKOTA JAKARTA 12720","ID_PROV":"31","PROVINSI":"DKI JAKARTA","ID_KABKOT":"31.74","KABKOT":"KOTA ADM. JAKARTA SELATAN","ID_KEC":"31.74.03","KECAMATAN":"MAMPANG PRAPATAN","ID_DESA":"31.74.03.1003","DESA":"PELA MAMPANG","LONGITUDE":106.8115113,"LATITUDE":-6.2489788,"STATUS":"BUKA","TANGGAL PENGUMPULAN":"Q1 2024","TANGGAL UPDATE":"28/02/2025"}},{"type":"Feature","geometry":{"coordinates":[106.7782004,-6.2497888],"type":"Point"},"properties":{"NAMA":"PUSKESMAS KEBAYORAN LAMA","TIPE_1":"KESEHATAN DAN PENGOBATAN","TIPE_2":"LAYANAN MASYARAKAT","TIPE_3":"PUSKESMAS","TELEPON":"(021) 7245439","ALAMAT":"JL. CIPUTAT RAYA NO.3B, RT.9/RW.8, KBY. LAMA UTARA, KEC. KBY. LAMA, KOTA JAKARTA SELATAN, DAERAH KHUSUS IBUKOTA JAKARTA 12240","ID_PROV":"31","PROVINSI":"DKI JAKARTA","ID_KABKOT":"31.74","KABKOT":"KOTA ADM. JAKARTA SELATAN","ID_KEC":"31.74.05","KECAMATAN":"KEBAYORAN LAMA","ID_DESA":"31.74.05.1006","DESA":"KEBAYORAN LAMA SELATAN","LONGITUDE":106.7782004,"LATITUDE":-6.2497888,"STATUS":"BUKA","TANGGAL PENGUMPULAN":"Q1 2024","TANGGAL UPDATE":"28/02/2025"}},{"type":"Feature","geometry":{"coordinates":[106.8256876,-6.3207978],"type":"Point"},"properties":{"NAMA":"PUSKESMAS PASAR MINGGU","TIPE_1":"KESEHATAN DAN PENGOBATAN","TIPE_2":"LAYANAN MASYARAKAT","TIPE_3":"PUSKESMAS","TELEPON":"(021) 7811265","ALAMAT":"JL. KEBAGUSAN RAYA NO.4, RT.4/RW.4, KEBAGUSAN, PS. MINGGU, KOTA JAKARTA SELATAN, DAERAH KHUSUS IBUKOTA JAKARTA 12520","ID_PROV":"31","PROVINSI":"DKI JAKARTA","ID_KABKOT":"31.74","KABKOT":"KOTA ADM. JAKARTA SELATAN","ID_KEC":"31.74.04","KECAMATAN":"PASAR MINGGU","ID_DESA":"31.74.04.1007","DESA":"KEBAGUSAN","LONGITUDE":106.8256876,"LATITUDE":-6.3207978,"STATUS":"BUKA","TANGGAL PENGUMPULAN":"Q1 2024","TANGGAL UPDATE":"28/02/2025"}},{"type":"Feature","geometry":{"coordinates":[106.8392475,-6.2550267],"type":"Point"},"properties":{"NAMA":"PUSKESMAS PANCORAN","TIPE_1":"KESEHATAN DAN PENGOBATAN","TIPE_2":"LAYANAN MASYARAKAT","TIPE_3":"PUSKESMAS","TELEPON":"(021) 7974024","ALAMAT":"JL. POTLOT II NO.6 1, RT.1/RW.6, DUREN TIGA, KEC. PANCORAN, KOTA JAKARTA SELATAN, DAERAH KHUSUS IBUKOTA JAKARTA 12760","ID_PROV":"31","PROVINSI":"DKI JAKARTA","ID_KABKOT":"31.74","KABKOT":"KOTA ADM. JAKARTA SELATAN","ID_KEC":"31.74.08","KECAMATAN":"PANCORAN","ID_DESA":"31.74.08.1004","DESA":"DUREN TIGA","LONGITUDE":106.8392475,"LATITUDE":-6.2550267,"STATUS":"BUKA","TANGGAL PENGUMPULAN":"Q1 2024","TANGGAL UPDATE":"28/02/2025"}},{"type":"Feature","geometry":{"coordinates":[106.8055885,-6.2472758],"type":"Point"},"properties":{"NAMA":"PUSKESMAS KECAMATAN KEBAYORAN BARU","TIPE_1":"KESEHATAN DAN PENGOBATAN","TIPE_2":"LAYANAN MASYARAKAT","TIPE_3":"PUSKESMAS","TELEPON":"(021) 7264856","ALAMAT":"JL. ISKANDARSYAH RAYA NO.105 5, RT.5/RW.5, MELAWAI, KEC. KBY. BARU, KOTA JAKARTA SELATAN, DAERAH KHUSUS IBUKOTA JAKARTA 12160","ID_PROV":"31","PROVINSI":"DKI JAKARTA","ID_KABKOT":"31.74","KABKOT":"KOTA ADM. JAKARTA SELATAN","ID_KEC":"31.74.07","KECAMATAN":"KEBAYORAN BARU","ID_DESA":"31.74.07.1001","DESA":"MELAWAI","LONGITUDE":106.8055885,"LATITUDE":-6.2472758,"STATUS":"BUKA","TANGGAL PENGUMPULAN":"Q1 2024","TANGGAL UPDATE":"28/02/2025"}},{"type":"Feature","geometry":{"coordinates":[106.8241917,-6.2140954],"type":"Point"},"properties":{"NAMA":"PUSKESMAS KARET SETIABUDI","TIPE_1":"KESEHATAN DAN PENGOBATAN","TIPE_2":"LAYANAN MASYARAKAT","TIPE_3":"PUSKESMAS","TELEPON":"(021) 8295529","ALAMAT":"JL. KOMANDO RAYA NO.RT.010/02, RT.10/RW.2, KUNINGAN, KARET, KECAMATAN SETIABUDI, KOTA JAKARTA SELATAN, DAERAH KHUSUS IBUKOTA JAKARTA 12920","ID_PROV":"31","PROVINSI":"DKI JAKARTA","ID_KABKOT":"31.74","KABKOT":"KOTA ADM. JAKARTA SELATAN","ID_KEC":"31.74.02","KECAMATAN":"SETIABUDI","ID_DESA":"31.74.02.1004","DESA":"KARET","LONGITUDE":106.8241917,"LATITUDE":-6.2140954,"STATUS":"BUKA","TANGGAL PENGUMPULAN":"Q1 2024","TANGGAL UPDATE":"28/02/2025"}},{"type":"Feature","geometry":{"coordinates":[106.7643309,-6.2731759],"type":"Point"},"properties":{"NAMA":"PUSKESMAS KELURAHAN BINTARO","TIPE_1":"KESEHATAN DAN PENGOBATAN","TIPE_2":"LAYANAN MASYARAKAT","TIPE_3":"PUSKESMAS","TELEPON":"(021) 7356807","ALAMAT":"JL. MUFAKAT BLOK MUPAKAT NO.3, RT.3/RW.3, BINTARO, KEC. PESANGGRAHAN, KOTA JAKARTA SELATAN, DAERAH KHUSUS IBUKOTA JAKARTA 12330","ID_PROV":"31","PROVINSI":"DKI JAKARTA","ID_KABKOT":"31.74","KABKOT":"KOTA ADM. JAKARTA SELATAN","ID_KEC":"31.74.10","KECAMATAN":"PESANGGRAHAN","ID_DESA":"31.74.10.1002","DESA":"BINTARO","LONGITUDE":106.7643309,"LATITUDE":-6.2731759,"STATUS":"BUKA","TANGGAL PENGUMPULAN":"Q1 2024","TANGGAL UPDATE":"28/02/2025"}},{"type":"Feature","geometry":{"coordinates":[106.8201297,-6.329061],"type":"Point"},"properties":{"NAMA":"PUSKESMAS KELURAHAN JAGAKARSA","TIPE_1":"KESEHATAN DAN PENGOBATAN","TIPE_2":"LAYANAN MASYARAKAT","TIPE_3":"PUSKESMAS","TELEPON":"(021) 7873926","ALAMAT":"JALAN JAGAKARSA 1 NO. 15, RT.5/RW.2, JAGAKARSA, RT.3/RW.7, JAGAKARSA, KEC. JAGAKARSA, KOTA JAKARTA SELATAN, DAERAH KHUSUS IBUKOTA JAKARTA 12620","ID_PROV":"31","PROVINSI":"DKI JAKARTA","ID_KABKOT":"31.74","KABKOT":"KOTA ADM. JAKARTA SELATAN","ID_KEC":"31.74.09","KECAMATAN":"JAGAKARSA","ID_DESA":"31.74.09.1001","DESA":"JAGAKARSA","LONGITUDE":106.8201297,"LATITUDE":-6.329061,"STATUS":"BUKA","TANGGAL PENGUMPULAN":"Q1 2024","TANGGAL UPDATE":"28/02/2025"}},{"type":"Feature","geometry":{"coordinates":[106.8375884,-6.2698512],"type":"Point"},"properties":{"NAMA":"PUSKESMAS KELURAHAN PEJATEN BARAT 3","TIPE_1":"KESEHATAN DAN PENGOBATAN","TIPE_2":"LAYANAN MASYARAKAT","TIPE_3":"PUSKESMAS","TELEPON":"(021) 7943777","ALAMAT":"JL. SIAGA RAYA NO.1 12, RT.12/RW.4, PEJATEN BAR., PS. MINGGU, KOTA JAKARTA SELATAN, DAERAH KHUSUS IBUKOTA JAKARTA 12510","ID_PROV":"31","PROVINSI":"DKI JAKARTA","ID_KABKOT":"31.74","KABKOT":"KOTA ADM. JAKARTA SELATAN","ID_KEC":"31.74.04","KECAMATAN":"PASAR MINGGU","ID_DESA":"31.74.04.1006","DESA":"PEJATEN BARAT","LONGITUDE":106.8375884,"LATITUDE":-6.2698512,"STATUS":"BUKA","TANGGAL PENGUMPULAN":"Q1 2024","TANGGAL UPDATE":"28/02/2025"}},{"type":"Feature","geometry":{"coordinates":[106.7799062,-6.3074694],"type":"Point"},"properties":{"NAMA":"PUSKESMAS KELURAHAN LEBAK BULUS","TIPE_1":"KESEHATAN DAN PENGOBATAN","TIPE_2":"LAYANAN MASYARAKAT","TIPE_3":"PUSKESMAS","TELEPON":"(021) 7655710","ALAMAT":"JL. PUSKESMAS NO.51 14, RT.1/RW.3, LB. BULUS, KEC. CILANDAK, KOTA JAKARTA SELATAN, DAERAH KHUSUS IBUKOTA JAKARTA 12440","ID_PROV":"31","PROVINSI":"DKI JAKARTA","ID_KABKOT":"31.74","KABKOT":"KOTA ADM. JAKARTA SELATAN","ID_KEC":"31.74.06","KECAMATAN":"CILANDAK","ID_DESA":"31.74.06.1002","DESA":"LEBAK BULUS","LONGITUDE":106.7799062,"LATITUDE":-6.3074694,"STATUS":"BUKA","TANGGAL PENGUMPULAN":"Q1 2024","TANGGAL UPDATE":"28/02/2025"}},{"type":"Feature","geometry":{"coordinates":[106.8053664,-6.2857937],"type":"Point"},"properties":{"NAMA":"PUSKESMAS CILANDAK BARAT","TIPE_1":"KESEHATAN DAN PENGOBATAN","TIPE_2":"LAYANAN MASYARAKAT","TIPE_3":"PUSKESMAS","TELEPON":"(021) 7663586","ALAMAT":"JL. SAKURA NO.127 4, RT.4/RW.7, CILANDAK BAR., KEC. CILANDAK, KOTA JAKARTA SELATAN, DAERAH KHUSUS IBUKOTA JAKARTA 12430","ID_PROV":"31","PROVINSI":"DKI JAKARTA","ID_KABKOT":"31.74","KABKOT":"KOTA ADM. JAKARTA SELATAN","ID_KEC":"31.74.06","KECAMATAN":"CILANDAK","ID_DESA":"31.74.06.1001","DESA":"CILANDAK BARAT","LONGITUDE":106.8053664,"LATITUDE":-6.2857937,"STATUS":"BUKA","TANGGAL PENGUMPULAN":"Q1 2024","TANGGAL UPDATE":"28/02/2025"}},{"type":"Feature","geometry":{"coordinates":[106.7724425,-6.2772056],"type":"Point"},"properties":{"NAMA":"PUSKESMAS PONDOK PINANG","TIPE_1":"KESEHATAN DAN PENGOBATAN","TIPE_2":"LAYANAN MASYARAKAT","TIPE_3":"PUSKESMAS","TELEPON":"","ALAMAT":"JL. CIPUTAT RAYA NO.8 1, RT.1/RW.8, PD. PINANG, KEC. KBY. LAMA, KOTA JAKARTA SELATAN, DAERAH KHUSUS IBUKOTA JAKARTA 12310","ID_PROV":"31","PROVINSI":"DKI JAKARTA","ID_KABKOT":"31.74","KABKOT":"KOTA ADM. JAKARTA SELATAN","ID_KEC":"31.74.05","KECAMATAN":"KEBAYORAN LAMA","ID_DESA":"31.74.05.1002","DESA":"PONDOK PINANG","LONGITUDE":106.7724425,"LATITUDE":-6.2772056,"STATUS":"BUKA","TANGGAL PENGUMPULAN":"Q1 2024","TANGGAL UPDATE":"28/02/2025"}},{"type":"Feature","geometry":{"coordinates":[106.7725345,-6.2463721],"type":"Point"},"properties":{"NAMA":"PUSKESMAS KELURAHAN KEBAYORAN LAMA UTARA","TIPE_1":"KESEHATAN DAN PENGOBATAN","TIPE_2":"LAYANAN MASYARAKAT","TIPE_3":"PUSKESMAS","TELEPON":"(021) 7238750","ALAMAT":"JL. DELMAN UTAMA I NO.35 5, RT.5/RW.11, KBY. LAMA UTARA, KEC. KBY. LAMA, KOTA JAKARTA SELATAN, DAERAH KHUSUS IBUKOTA JAKARTA 12240","ID_PROV":"31","PROVINSI":"DKI JAKARTA","ID_KABKOT":"31.74","KABKOT":"KOTA ADM. JAKARTA SELATAN","ID_KEC":"31.74.05","KECAMATAN":"KEBAYORAN LAMA","ID_DESA":"31.74.05.1001","DESA":"KEBAYORAN LAMA UTARA","LONGITUDE":106.7725345,"LATITUDE":-6.2463721,"STATUS":"BUKA","TANGGAL PENGUMPULAN":"Q1 2024","TANGGAL UPDATE":"28/02/2025"}},{"type":"Feature","geometry":{"coordinates":[106.830548,-6.2789281],"type":"Point"},"properties":{"NAMA":"PUSKESMAS KELURAHAN PEJATEN BARAT I","TIPE_1":"KESEHATAN DAN PENGOBATAN","TIPE_2":"LAYANAN MASYARAKAT","TIPE_3":"PUSKESMAS","TELEPON":"(021) 7949636","ALAMAT":"JL. PEJATEN RAYA NO.02, RT.1/RW.7, PEJATEN BAR., PS. MINGGU, KOTA JAKARTA SELATAN, DAERAH KHUSUS IBUKOTA JAKARTA 12510","ID_PROV":"31","PROVINSI":"DKI JAKARTA","ID_KABKOT":"31.74","KABKOT":"KOTA ADM. JAKARTA SELATAN","ID_KEC":"31.74.04","KECAMATAN":"PASAR MINGGU","ID_DESA":"31.74.04.1006","DESA":"PEJATEN BARAT","LONGITUDE":106.830548,"LATITUDE":-6.2789281,"STATUS":"BUKA","TANGGAL PENGUMPULAN":"Q1 2024","TANGGAL UPDATE":"28/02/2025"}},{"type":"Feature","geometry":{"coordinates":[106.8238609,-6.2083336],"type":"Point"},"properties":{"NAMA":"PUSKESMAS KELURAHAN SETIABUDI","TIPE_1":"KESEHATAN DAN PENGOBATAN","TIPE_2":"LAYANAN MASYARAKAT","TIPE_3":"PUSKESMAS","TELEPON":"0878-8881-9820","ALAMAT":"JL. SETIA BUDI BARAT NO.8 5, RT.3/RW.3, KUNINGAN, SETIA BUDI, KECAMATAN SETIABUDI, KOTA JAKARTA SELATAN, DAERAH KHUSUS IBUKOTA JAKARTA 12910","ID_PROV":"31","PROVINSI":"DKI JAKARTA","ID_KABKOT":"31.74","KABKOT":"KOTA ADM. JAKARTA SELATAN","ID_KEC":"31.74.02","KECAMATAN":"SETIABUDI","ID_DESA":"31.74.02.1001","DESA":"SETIA BUDI","LONGITUDE":106.8238609,"LATITUDE":-6.2083336,"STATUS":"BUKA","TANGGAL PENGUMPULAN":"Q1 2024","TANGGAL UPDATE":"28/02/2025"}},{"type":"Feature","geometry":{"coordinates":[106.8480448,-6.2154145],"type":"Point"},"properties":{"NAMA":"PUSKESMAS KELURAHAN MANGGARAI","TIPE_1":"KESEHATAN DAN PENGOBATAN","TIPE_2":"LAYANAN MASYARAKAT","TIPE_3":"PUSKESMAS","TELEPON":"(021) 8305391","ALAMAT":"JL. SWADAYA 1 NO.1, RT.8/RW.7, MANGGARAI, KEC. TEBET, KOTA JAKARTA SELATAN, DAERAH KHUSUS IBUKOTA JAKARTA 12850","ID_PROV":"31","PROVINSI":"DKI JAKARTA","ID_KABKOT":"31.74","KABKOT":"KOTA ADM. JAKARTA SELATAN","ID_KEC":"31.74.01","KECAMATAN":"TEBET","ID_DESA":"31.74.01.1007","DESA":"MANGGARAI","LONGITUDE":106.8480448,"LATITUDE":-6.2154145,"STATUS":"BUKA","TANGGAL PENGUMPULAN":"Q1 2024","TANGGAL UPDATE":"28/02/2025"}},{"type":"Feature","geometry":{"coordinates":[106.7621401,-6.245243],"type":"Point"},"properties":{"NAMA":"PUSKESMAS KELURAHAN ULUJAMI","TIPE_1":"KESEHATAN DAN PENGOBATAN","TIPE_2":"LAYANAN MASYARAKAT","TIPE_3":"PUSKESMAS","TELEPON":"(021) 7377862","ALAMAT":"JALAN ULUJAMI RAYA NO. 17, ULUJAMI, PESANGGRAHAN, RW.7, ULUJAMI, KEC. PESANGGRAHAN, KOTA JAKARTA SELATAN, DAERAH KHUSUS IBUKOTA JAKARTA 12250","ID_PROV":"31","PROVINSI":"DKI JAKARTA","ID_KABKOT":"31.74","KABKOT":"KOTA ADM. JAKARTA SELATAN","ID_KEC":"31.74.10","KECAMATAN":"PESANGGRAHAN","ID_DESA":"31.74.10.1005","DESA":"ULUJAMI","LONGITUDE":106.7621401,"LATITUDE":-6.245243,"STATUS":"BUKA","TANGGAL PENGUMPULAN":"Q1 2024","TANGGAL UPDATE":"28/02/2025"}},{"type":"Feature","geometry":{"coordinates":[106.8458565,-6.2610303],"type":"Point"},"properties":{"NAMA":"PUSKESMAS KALIBATA 1","TIPE_1":"KESEHATAN DAN PENGOBATAN","TIPE_2":"LAYANAN MASYARAKAT","TIPE_3":"PUSKESMAS","TELEPON":"(021) 7946642","ALAMAT":"JL. KALIBATA TIMUR IVE NO.1, RT.1/RW.8, KALIBATA, KEC. PANCORAN, KOTA JAKARTA SELATAN, DAERAH KHUSUS IBUKOTA JAKARTA 12740","ID_PROV":"31","PROVINSI":"DKI JAKARTA","ID_KABKOT":"31.74","KABKOT":"KOTA ADM. JAKARTA SELATAN","ID_KEC":"31.74.08","KECAMATAN":"PANCORAN","ID_DESA":"31.74.08.1002","DESA":"KALIBATA","LONGITUDE":106.8458565,"LATITUDE":-6.2610303,"STATUS":"BUKA","TANGGAL PENGUMPULAN":"Q1 2024","TANGGAL UPDATE":"28/02/2025"}},{"type":"Feature","geometry":{"coordinates":[106.8268423,-6.2975832],"type":"Point"},"properties":{"NAMA":"PUSKESMAS KELURAHAN KEBAGUSAN","TIPE_1":"KESEHATAN DAN PENGOBATAN","TIPE_2":"LAYANAN MASYARAKAT","TIPE_3":"PUSKESMAS","TELEPON":"","ALAMAT":"JL. KEBAGUSAN RAYA GG. PUSKESMAS NO.5, RT.2/RW.1, KEBAGUSAN, PS. MINGGU, KOTA JAKARTA SELATAN, DAERAH KHUSUS IBUKOTA JAKARTA 12520","ID_PROV":"31","PROVINSI":"DKI JAKARTA","ID_KABKOT":"31.74","KABKOT":"KOTA ADM. JAKARTA SELATAN","ID_KEC":"31.74.04","KECAMATAN":"PASAR MINGGU","ID_DESA":"31.74.04.1007","DESA":"KEBAGUSAN","LONGITUDE":106.8268423,"LATITUDE":-6.2975832,"STATUS":"BUKA","TANGGAL PENGUMPULAN":"Q1 2024","TANGGAL UPDATE":"28/02/2025"}},{"type":"Feature","geometry":{"coordinates":[106.8199151,-6.2712504],"type":"Point"},"properties":{"NAMA":"PUSKESMAS KELURAHAN BANGKA","TIPE_1":"KESEHATAN DAN PENGOBATAN","TIPE_2":"LAYANAN MASYARAKAT","TIPE_3":"PUSKESMAS","TELEPON":"(021) 7196578","ALAMAT":"JL. KEMANG DALAM III NO.3 4, RT.4/RW.3, BANGKA, KEC. MAMPANG PRPT., KOTA JAKARTA SELATAN, DAERAH KHUSUS IBUKOTA JAKARTA 12730","ID_PROV":"31","PROVINSI":"DKI JAKARTA","ID_KABKOT":"31.74","KABKOT":"KOTA ADM. JAKARTA SELATAN","ID_KEC":"31.74.03","KECAMATAN":"MAMPANG PRAPATAN","ID_DESA":"31.74.03.1002","DESA":"BANGKA","LONGITUDE":106.8199151,"LATITUDE":-6.2712504,"STATUS":"BUKA","TANGGAL PENGUMPULAN":"Q1 2024","TANGGAL UPDATE":"28/02/2025"}},{"type":"Feature","geometry":{"coordinates":[106.8472392,-6.2175922],"type":"Point"},"properties":{"NAMA":"PUSKESMAS KELURAHAN MANGGARAI SELATAN","TIPE_1":"KESEHATAN DAN PENGOBATAN","TIPE_2":"LAYANAN MASYARAKAT","TIPE_3":"PUSKESMAS","TELEPON":"(021) 8352992","ALAMAT":"JL. DOKTOR SAHARJO RT.04/RW.07, MANGGARAI SELATAN, TEBET, RT.4/RW.7, MANGGARAI SEL., KEC. TEBET, KOTA JAKARTA SELATAN, DAERAH KHUSUS IBUKOTA JAKARTA 12860","ID_PROV":"31","PROVINSI":"DKI JAKARTA","ID_KABKOT":"31.74","KABKOT":"KOTA ADM. JAKARTA SELATAN","ID_KEC":"31.74.01","KECAMATAN":"TEBET","ID_DESA":"31.74.01.1006","DESA":"MANGGARAI SELATAN","LONGITUDE":106.8472392,"LATITUDE":-6.2175922,"STATUS":"BUKA","TANGGAL PENGUMPULAN":"Q1 2024","TANGGAL UPDATE":"28/02/2025"}},{"type":"Feature","geometry":{"coordinates":[106.8175847,-6.3366454],"type":"Point"},"properties":{"NAMA":"PUSKESMAS KECAMATAN JAGAKARSA","TIPE_1":"KESEHATAN DAN PENGOBATAN","TIPE_2":"LAYANAN MASYARAKAT","TIPE_3":"PUSKESMAS","TELEPON":"","ALAMAT":"JL. MASJID AL AFIAH, RT.1/RW.2, JAGAKARSA, KEC. JAGAKARSA, KOTA JAKARTA SELATAN, DAERAH KHUSUS IBUKOTA JAKARTA 12620","ID_PROV":"31","PROVINSI":"DKI JAKARTA","ID_KABKOT":"31.74","KABKOT":"KOTA ADM. JAKARTA SELATAN","ID_KEC":"31.74.09","KECAMATAN":"JAGAKARSA","ID_DESA":"31.74.09.1001","DESA":"JAGAKARSA","LONGITUDE":106.8175847,"LATITUDE":-6.3366454,"STATUS":"BUKA","TANGGAL PENGUMPULAN":"Q1 2024","TANGGAL UPDATE":"28/02/2025"}},{"type":"Feature","geometry":{"coordinates":[106.8042476,-6.3368267],"type":"Point"},"properties":{"NAMA":"PUSKESMAS KELURAHAN CIGANJUR","TIPE_1":"KESEHATAN DAN PENGOBATAN","TIPE_2":"LAYANAN MASYARAKAT","TIPE_3":"PUSKESMAS","TELEPON":"(021) 7271519","ALAMAT":"JL. PASIR NO.1, RT.1/RW.6, CIGANJUR, KEC. JAGAKARSA, KOTA JAKARTA SELATAN, DAERAH KHUSUS IBUKOTA JAKARTA 12630","ID_PROV":"31","PROVINSI":"DKI JAKARTA","ID_KABKOT":"31.74","KABKOT":"KOTA ADM. JAKARTA SELATAN","ID_KEC":"31.74.09","KECAMATAN":"JAGAKARSA","ID_DESA":"31.74.09.1003","DESA":"CIGANJUR","LONGITUDE":106.8042476,"LATITUDE":-6.3368267,"STATUS":"BUKA","TANGGAL PENGUMPULAN":"Q1 2024","TANGGAL UPDATE":"28/02/2025"}},{"type":"Feature","geometry":{"coordinates":[106.845097,-6.2944029],"type":"Point"},"properties":{"NAMA":"PUSKESMAS PEJATEN TIMUR","TIPE_1":"KESEHATAN DAN PENGOBATAN","TIPE_2":"LAYANAN MASYARAKAT","TIPE_3":"PUSKESMAS","TELEPON":"(021) 7812870","ALAMAT":"JL. SWADAYA 1 NO.28, RT.5/RW.10, PEJATEN TIMUR, PS. MINGGU, KOTA JAKARTA SELATAN, DAERAH KHUSUS IBUKOTA JAKARTA 12510","ID_PROV":"31","PROVINSI":"DKI JAKARTA","ID_KABKOT":"31.74","KABKOT":"KOTA ADM. JAKARTA SELATAN","ID_KEC":"31.74.04","KECAMATAN":"PASAR MINGGU","ID_DESA":"31.74.04.1005","DESA":"PEJATEN TIMUR","LONGITUDE":106.845097,"LATITUDE":-6.2944029,"STATUS":"BUKA","TANGGAL PENGUMPULAN":"Q1 2024","TANGGAL UPDATE":"28/02/2025"}}]}