{"type":"FeatureCollection","features":[{"type":"Feature","geometry":{"coordinates":[106.708416,-6.1882167],"type":"Point"},"properties":{"NAMA":"PUSKESMAS PETIR","TIPE_1":"KESEHATAN DAN PENGOBATAN","TIPE_2":"LAYANAN MASYARAKAT","TIPE_3":"PUSKESMAS","TELEPON":"","ALAMAT":"JL. KH HASYIM ASHARI NO.7 5, RT.006/RW.002, PETIR, KEC. CIPONDOH, KOTA TANGERANG, BANTEN 15147","ID_PROV":"36","PROVINSI":"BANTEN","ID_KABKOT":"36.71","KABKOT":"KOTA TANGERANG","ID_KEC":"36.71.05","KECAMATAN":"CIPONDOH","ID_DESA":"36.71.05.1006","DESA":"PETIR","LONGITUDE":106.708416,"LATITUDE":-6.1882167,"STATUS":"BUKA","TANGGAL PENGUMPULAN":"Q1 2024","TANGGAL UPDATE":"28/02/2025"}},{"type":"Feature","geometry":{"coordinates":[106.6796806,-6.1736198],"type":"Point"},"properties":{"NAMA":"PUSKESMAS PORIS GAGA LAMA","TIPE_1":"KESEHATAN DAN PENGOBATAN","TIPE_2":"LAYANAN MASYARAKAT","TIPE_3":"PUSKESMAS","TELEPON":"(021) 29860716","ALAMAT":"JL. TAMAN PORIS NO.2, RT.002/RW.003, PORIS GAGA, KEC. BATUCEPER, KOTA TANGERANG, BANTEN 15122","ID_PROV":"36","PROVINSI":"BANTEN","ID_KABKOT":"36.71","KABKOT":"KOTA TANGERANG","ID_KEC":"36.71.03","KECAMATAN":"BATUCEPER","ID_DESA":"36.71.03.1003","DESA":"PORIS GAGA","LONGITUDE":106.6796806,"LATITUDE":-6.1736198,"STATUS":"BUKA","TANGGAL PENGUMPULAN":"Q1 2024","TANGGAL UPDATE":"28/02/2025"}},{"type":"Feature","geometry":{"coordinates":[106.6202887,-6.1344597],"type":"Point"},"properties":{"NAMA":"PUSKESMAS KEDAUNG WETAN","TIPE_1":"KESEHATAN DAN PENGOBATAN","TIPE_2":"LAYANAN MASYARAKAT","TIPE_3":"PUSKESMAS","TELEPON":"","ALAMAT":"KEDAUNG WETAN, KEC. NEGLASARI, KOTA TANGERANG, BANTEN","ID_PROV":"36","PROVINSI":"BANTEN","ID_KABKOT":"36.71","KABKOT":"KOTA TANGERANG","ID_KEC":"36.71.10","KECAMATAN":"NEGLASARI","ID_DESA":"36.71.10.1004","DESA":"KEDAUNG WETAN","LONGITUDE":106.6202887,"LATITUDE":-6.1344597,"STATUS":"BUKA","TANGGAL PENGUMPULAN":"Q1 2024","TANGGAL UPDATE":"28/02/2025"}},{"type":"Feature","geometry":{"coordinates":[106.6707712,-6.1631389],"type":"Point"},"properties":{"NAMA":"PUSKESMAS","TIPE_1":"KESEHATAN DAN PENGOBATAN","TIPE_2":"LAYANAN MASYARAKAT","TIPE_3":"PUSKESMAS","TELEPON":"","ALAMAT":"JL. RAYA DAAN MOGOT NO.285 5, RT.005/RW.003, BATUCEPER, KEC. BATUCEPER, KOTA TANGERANG, BANTEN 15122","ID_PROV":"36","PROVINSI":"BANTEN","ID_KABKOT":"36.71","KABKOT":"KOTA TANGERANG","ID_KEC":"36.71.03","KECAMATAN":"BATUCEPER","ID_DESA":"36.71.03.1001","DESA":"BATUCEPER","LONGITUDE":106.6707712,"LATITUDE":-6.1631389,"STATUS":"BUKA","TANGGAL PENGUMPULAN":"Q1 2024","TANGGAL UPDATE":"28/02/2025"}},{"type":"Feature","geometry":{"coordinates":[106.6536832,-6.1719755],"type":"Point"},"properties":{"NAMA":"PUSKESMAS TANAH TINGGI","TIPE_1":"KESEHATAN DAN PENGOBATAN","TIPE_2":"LAYANAN MASYARAKAT","TIPE_3":"PUSKESMAS","TELEPON":"","ALAMAT":"JL. MELATI X, RT.003/RW.003, TANAH TINGGI, KEC. TANGERANG, KOTA TANGERANG, BANTEN 15119","ID_PROV":"36","PROVINSI":"BANTEN","ID_KABKOT":"36.71","KABKOT":"KOTA TANGERANG","ID_KEC":"36.71.01","KECAMATAN":"TANGERANG","ID_DESA":"36.71.01.1003","DESA":"TANAH TINGGI","LONGITUDE":106.6536832,"LATITUDE":-6.1719755,"STATUS":"BUKA","TANGGAL PENGUMPULAN":"Q1 2024","TANGGAL UPDATE":"28/02/2025"}},{"type":"Feature","geometry":{"coordinates":[106.650034,-6.1766875],"type":"Point"},"properties":{"NAMA":"PUSKESMAS PANUNGGANGAN","TIPE_1":"KESEHATAN DAN PENGOBATAN","TIPE_2":"LAYANAN MASYARAKAT","TIPE_3":"PUSKESMAS","TELEPON":"0877-4881-1864","ALAMAT":"","ID_PROV":"36","PROVINSI":"BANTEN","ID_KABKOT":"36.71","KABKOT":"KOTA TANGERANG","ID_KEC":"36.71.01","KECAMATAN":"TANGERANG","ID_DESA":"36.71.01.1004","DESA":"BUARAN INDAH","LONGITUDE":106.650034,"LATITUDE":-6.1766875,"STATUS":"BUKA","TANGGAL PENGUMPULAN":"Q1 2024","TANGGAL UPDATE":"28/02/2025"}},{"type":"Feature","geometry":{"coordinates":[106.7025498,-6.1822171],"type":"Point"},"properties":{"NAMA":"PUSKESMAS KETAPANG","TIPE_1":"KESEHATAN DAN PENGOBATAN","TIPE_2":"LAYANAN MASYARAKAT","TIPE_3":"PUSKESMAS","TELEPON":"(021) 22302538","ALAMAT":"JL. DARUSSALAM XI, RT.005/RW.008, KETAPANG, CIPONDOH, TANGERANG CITY, BANTEN 15147","ID_PROV":"36","PROVINSI":"BANTEN","ID_KABKOT":"36.71","KABKOT":"KOTA TANGERANG","ID_KEC":"36.71.05","KECAMATAN":"CIPONDOH","ID_DESA":"36.71.05.1007","DESA":"KETAPANG","LONGITUDE":106.7025498,"LATITUDE":-6.1822171,"STATUS":"BUKA","TANGGAL PENGUMPULAN":"Q1 2024","TANGGAL UPDATE":"28/02/2025"}},{"type":"Feature","geometry":{"coordinates":[106.6950131,-6.1985727],"type":"Point"},"properties":{"NAMA":"PUSKESMAS GONDRONG","TIPE_1":"KESEHATAN DAN PENGOBATAN","TIPE_2":"LAYANAN MASYARAKAT","TIPE_3":"PUSKESMAS","TELEPON":"","ALAMAT":"JL. HM MANSYUR, RT.003/RW.003, GONDRONG, KEC. CIPONDOH, KOTA TANGERANG, BANTEN 15146","ID_PROV":"36","PROVINSI":"BANTEN","ID_KABKOT":"36.71","KABKOT":"KOTA TANGERANG","ID_KEC":"36.71.05","KECAMATAN":"CIPONDOH","ID_DESA":"36.71.05.1004","DESA":"GONDRONG","LONGITUDE":106.6950131,"LATITUDE":-6.1985727,"STATUS":"BUKA","TANGGAL PENGUMPULAN":"Q1 2024","TANGGAL UPDATE":"28/02/2025"}},{"type":"Feature","geometry":{"coordinates":[106.656321,-6.153855],"type":"Point"},"properties":{"NAMA":"PUSKESMAS BATUSARI","TIPE_1":"KESEHATAN DAN PENGOBATAN","TIPE_2":"LAYANAN MASYARAKAT","TIPE_3":"PUSKESMAS","TELEPON":"0813-8989-9199","ALAMAT":"JL. JUANDA NO.40, RT.002/RW.003, BATUSARI, KEC. BATUCEPER, KOTA TANGERANG, BANTEN 15121","ID_PROV":"36","PROVINSI":"BANTEN","ID_KABKOT":"36.71","KABKOT":"KOTA TANGERANG","ID_KEC":"36.71.03","KECAMATAN":"BATUCEPER","ID_DESA":"36.71.03.1006","DESA":"BATU SARI","LONGITUDE":106.656321,"LATITUDE":-6.153855,"STATUS":"BUKA","TANGGAL PENGUMPULAN":"Q1 2024","TANGGAL UPDATE":"28/02/2025"}},{"type":"Feature","geometry":{"coordinates":[106.6840364,-6.1400109],"type":"Point"},"properties":{"NAMA":"PUSKESMAS BENDA","TIPE_1":"KESEHATAN DAN PENGOBATAN","TIPE_2":"LAYANAN MASYARAKAT","TIPE_3":"PUSKESMAS","TELEPON":"(021) 54330639","ALAMAT":"JL. PERMATA BANDARA NO.21, JURUMUDI, KEC. BENDA, KOTA TANGERANG, BANTEN 15125","ID_PROV":"36","PROVINSI":"BANTEN","ID_KABKOT":"36.71","KABKOT":"KOTA TANGERANG","ID_KEC":"36.71.04","KECAMATAN":"BENDA","ID_DESA":"36.71.04.1002","DESA":"JURUMUDI","LONGITUDE":106.6840364,"LATITUDE":-6.1400109,"STATUS":"BUKA","TANGGAL PENGUMPULAN":"Q1 2024","TANGGAL UPDATE":"28/02/2025"}},{"type":"Feature","geometry":{"coordinates":[106.6716517,-6.217261],"type":"Point"},"properties":{"NAMA":"PUSKESMAS KUNCIRAN BARU","TIPE_1":"KESEHATAN DAN PENGOBATAN","TIPE_2":"LAYANAN MASYARAKAT","TIPE_3":"PUSKESMAS","TELEPON":"(021) 29672150","ALAMAT":"JL. SULTAN AGENG TIRTAYASA, RT.001/RW.005, KUNCIRAN INDAH, KEC. PINANG, KOTA TANGERANG, BANTEN 15144","ID_PROV":"36","PROVINSI":"BANTEN","ID_KABKOT":"36.71","KABKOT":"KOTA TANGERANG","ID_KEC":"36.71.11","KECAMATAN":"PINANG","ID_DESA":"36.71.11.1004","DESA":"KUNCIRAN","LONGITUDE":106.6716517,"LATITUDE":-6.217261,"STATUS":"BUKA","TANGGAL PENGUMPULAN":"Q1 2024","TANGGAL UPDATE":"28/02/2025"}},{"type":"Feature","geometry":{"coordinates":[106.6834566,-6.2293772],"type":"Point"},"properties":{"NAMA":"PUSKESMAS SUDIMARA PINANG","TIPE_1":"KESEHATAN DAN PENGOBATAN","TIPE_2":"LAYANAN MASYARAKAT","TIPE_3":"PUSKESMAS","TELEPON":"","ALAMAT":"JL. BOULEVARD GRAHA RAYA, RT.001/RW.004, SUDIMARA PINANG, KEC. PINANG, KOTA TANGERANG, BANTEN 15145","ID_PROV":"36","PROVINSI":"BANTEN","ID_KABKOT":"36.71","KABKOT":"KOTA TANGERANG","ID_KEC":"36.71.11","KECAMATAN":"PINANG","ID_DESA":"36.71.11.1002","DESA":"SUDIMARA PINANG","LONGITUDE":106.6834566,"LATITUDE":-6.2293772,"STATUS":"BUKA","TANGGAL PENGUMPULAN":"Q1 2024","TANGGAL UPDATE":"28/02/2025"}},{"type":"Feature","geometry":{"coordinates":[106.6740694,-6.1484762],"type":"Point"},"properties":{"NAMA":"PUSKESMAS JURUMUDI BARU","TIPE_1":"KESEHATAN DAN PENGOBATAN","TIPE_2":"LAYANAN MASYARAKAT","TIPE_3":"PUSKESMAS","TELEPON":"(021) 55796181","ALAMAT":"JL. HALIM PERDANA KUSUMA, RT.004/RW.001, JURUMUDI BARU, KEC. BENDA, KOTA TANGERANG, BANTEN 15123","ID_PROV":"36","PROVINSI":"BANTEN","ID_KABKOT":"36.71","KABKOT":"KOTA TANGERANG","ID_KEC":"36.71.04","KECAMATAN":"BENDA","ID_DESA":"36.71.04.1005","DESA":"JURUMUDI BARU","LONGITUDE":106.6740694,"LATITUDE":-6.1484762,"STATUS":"BUKA","TANGGAL PENGUMPULAN":"Q1 2024","TANGGAL UPDATE":"28/02/2025"}},{"type":"Feature","geometry":{"coordinates":[106.5915452,-6.168956],"type":"Point"},"properties":{"NAMA":"PUSAT KESEHATAN MASYARAKAT (PUSKESMAS) PORIS GAGA LAMA","TIPE_1":"KESEHATAN DAN PENGOBATAN","TIPE_2":"LAYANAN MASYARAKAT","TIPE_3":"PUSKESMAS","TELEPON":"(021) 70942811","ALAMAT":"JL. FLAMBOYAN II BLOK F4, RT.004/RW.007, GEBANG RAYA, KEC. PERIUK, KOTA TANGERANG, BANTEN 15810","ID_PROV":"36","PROVINSI":"BANTEN","ID_KABKOT":"36.71","KABKOT":"KOTA TANGERANG","ID_KEC":"36.71.08","KECAMATAN":"PERIUK","ID_DESA":"36.71.08.1003","DESA":"GEBANG RAYA","LONGITUDE":106.5915452,"LATITUDE":-6.168956,"STATUS":"BUKA","TANGGAL PENGUMPULAN":"Q1 2024","TANGGAL UPDATE":"28/02/2025"}},{"type":"Feature","geometry":{"coordinates":[106.7249626,-6.2374234],"type":"Point"},"properties":{"NAMA":"PUSKESMAS LARANGAN UTARA","TIPE_1":"KESEHATAN DAN PENGOBATAN","TIPE_2":"LAYANAN MASYARAKAT","TIPE_3":"PUSKESMAS","TELEPON":"(021) 22270145","ALAMAT":"JL. INPRES 6, LARANGAN UTARA, LARANGAN, RT.002/RW.007, LARANGAN UTARA, TANGERANG, KOTA TANGERANG, BANTEN 15154","ID_PROV":"36","PROVINSI":"BANTEN","ID_KABKOT":"36.71","KABKOT":"KOTA TANGERANG","ID_KEC":"36.71.13","KECAMATAN":"LARANGAN","ID_DESA":"36.71.13.1001","DESA":"LARANGAN UTARA","LONGITUDE":106.7249626,"LATITUDE":-6.2374234,"STATUS":"BUKA","TANGGAL PENGUMPULAN":"Q1 2024","TANGGAL UPDATE":"28/02/2025"}},{"type":"Feature","geometry":{"coordinates":[106.704401,-6.227895],"type":"Point"},"properties":{"NAMA":"PUSKESMAS CILEDUG","TIPE_1":"KESEHATAN DAN PENGOBATAN","TIPE_2":"LAYANAN MASYARAKAT","TIPE_3":"PUSKESMAS","TELEPON":"(021) 7327941","ALAMAT":"JL. RADEN FATAH NO.90, RT.002/RW.003, SUDIMARA BAR., KEC. CILEDUG, KOTA TANGERANG, BANTEN 15151","ID_PROV":"36","PROVINSI":"BANTEN","ID_KABKOT":"36.71","KABKOT":"KOTA TANGERANG","ID_KEC":"36.71.06","KECAMATAN":"CILEDUG","ID_DESA":"36.71.06.1002","DESA":"SUDIMARA BARAT","LONGITUDE":106.704401,"LATITUDE":-6.227895,"STATUS":"BUKA","TANGGAL PENGUMPULAN":"Q1 2024","TANGGAL UPDATE":"28/02/2025"}},{"type":"Feature","geometry":{"coordinates":[106.7355475,-6.2378854],"type":"Point"},"properties":{"NAMA":"PUSKESMAS CIPADU","TIPE_1":"KESEHATAN DAN PENGOBATAN","TIPE_2":"LAYANAN MASYARAKAT","TIPE_3":"PUSKESMAS","TELEPON":"","ALAMAT":"JL. MUTIARA NO.77, RT.001/RW.006, CIPADU, KEC. LARANGAN, KOTA TANGERANG, BANTEN 15155","ID_PROV":"36","PROVINSI":"BANTEN","ID_KABKOT":"36.71","KABKOT":"KOTA TANGERANG","ID_KEC":"36.71.13","KECAMATAN":"LARANGAN","ID_DESA":"36.71.13.1003","DESA":"CIPADU","LONGITUDE":106.7355475,"LATITUDE":-6.2378854,"STATUS":"BUKA","TANGGAL PENGUMPULAN":"Q1 2024","TANGGAL UPDATE":"28/02/2025"}},{"type":"Feature","geometry":{"coordinates":[106.7103797,-6.2099278],"type":"Point"},"properties":{"NAMA":"PUSKESMAS KARANG TENGAH","TIPE_1":"KESEHATAN DAN PENGOBATAN","TIPE_2":"LAYANAN MASYARAKAT","TIPE_3":"PUSKESMAS","TELEPON":"(021) 7330387","ALAMAT":"KOMP. KEUANGAN KELURAHAN, RT.003/RW.006, KARANG TENGAH, KEC. KARANG TENGAH, KOTA TANGERANG, BANTEN 15157","ID_PROV":"36","PROVINSI":"BANTEN","ID_KABKOT":"36.71","KABKOT":"KOTA TANGERANG","ID_KEC":"36.71.12","KECAMATAN":"KARANG TENGAH","ID_DESA":"36.71.12.1001","DESA":"KARANG TENGAH","LONGITUDE":106.7103797,"LATITUDE":-6.2099278,"STATUS":"BUKA","TANGGAL PENGUMPULAN":"Q1 2024","TANGGAL UPDATE":"28/02/2025"}},{"type":"Feature","geometry":{"coordinates":[106.6762218,-6.1943311],"type":"Point"},"properties":{"NAMA":"PUSKESMAS CIPONDOH","TIPE_1":"KESEHATAN DAN PENGOBATAN","TIPE_2":"LAYANAN MASYARAKAT","TIPE_3":"PUSKESMAS","TELEPON":"(021) 5541919","ALAMAT":"JL. KH.HASYIM ASHARI NO.67, RT.002/RW.001, CIPONDOH, KEC. CIPONDOH, KOTA TANGERANG, BANTEN 15148","ID_PROV":"36","PROVINSI":"BANTEN","ID_KABKOT":"36.71","KABKOT":"KOTA TANGERANG","ID_KEC":"36.71.05","KECAMATAN":"CIPONDOH","ID_DESA":"36.71.05.1001","DESA":"CIPONDOH","LONGITUDE":106.6762218,"LATITUDE":-6.1943311,"STATUS":"BUKA","TANGGAL PENGUMPULAN":"Q1 2024","TANGGAL UPDATE":"28/02/2025"}},{"type":"Feature","geometry":{"coordinates":[106.6516845,-6.1723302],"type":"Point"},"properties":{"NAMA":"PUSKESMAS TANAH TINGGI","TIPE_1":"KESEHATAN DAN PENGOBATAN","TIPE_2":"LAYANAN MASYARAKAT","TIPE_3":"PUSKESMAS","TELEPON":"(021) 29663127","ALAMAT":"JL. MUHAJIRIN, RT.002/RW.004, TANAH TINGGI, KEC. TANGERANG, KOTA TANGERANG, BANTEN 15119","ID_PROV":"36","PROVINSI":"BANTEN","ID_KABKOT":"36.71","KABKOT":"KOTA TANGERANG","ID_KEC":"36.71.01","KECAMATAN":"TANGERANG","ID_DESA":"36.71.01.1003","DESA":"TANAH TINGGI","LONGITUDE":106.6516845,"LATITUDE":-6.1723302,"STATUS":"BUKA","TANGGAL PENGUMPULAN":"Q1 2024","TANGGAL UPDATE":"28/02/2025"}},{"type":"Feature","geometry":{"coordinates":[106.6649571,-6.1750123],"type":"Point"},"properties":{"NAMA":"PUSKESMAS PORIS PLAWAD","TIPE_1":"KESEHATAN DAN PENGOBATAN","TIPE_2":"LAYANAN MASYARAKAT","TIPE_3":"PUSKESMAS","TELEPON":"(021) 55746146","ALAMAT":"JL. PS. ROYAL NO.2, RT.003/RW.009, PORIS PLAWAD, KEC. CIPONDOH, KOTA TANGERANG, BANTEN 15141","ID_PROV":"36","PROVINSI":"BANTEN","ID_KABKOT":"36.71","KABKOT":"KOTA TANGERANG","ID_KEC":"36.71.05","KECAMATAN":"CIPONDOH","ID_DESA":"36.71.05.1008","DESA":"PORIS PLAWAD","LONGITUDE":106.6649571,"LATITUDE":-6.1750123,"STATUS":"BUKA","TANGGAL PENGUMPULAN":"Q1 2024","TANGGAL UPDATE":"28/02/2025"}},{"type":"Feature","geometry":{"coordinates":[106.6423183,-6.1851783],"type":"Point"},"properties":{"NAMA":"PUSKESMAS SUKASARI","TIPE_1":"KESEHATAN DAN PENGOBATAN","TIPE_2":"LAYANAN MASYARAKAT","TIPE_3":"PUSKESMAS","TELEPON":"(021) 55792631","ALAMAT":"JL. VETERAN NO.1, RT.005/RW.013, SUKASARI, KEC. TANGERANG, KOTA TANGERANG, BANTEN 15118","ID_PROV":"36","PROVINSI":"BANTEN","ID_KABKOT":"36.71","KABKOT":"KOTA TANGERANG","ID_KEC":"36.71.01","KECAMATAN":"TANGERANG","ID_DESA":"36.71.01.1007","DESA":"SUKASARI","LONGITUDE":106.6423183,"LATITUDE":-6.1851783,"STATUS":"BUKA","TANGGAL PENGUMPULAN":"Q1 2024","TANGGAL UPDATE":"28/02/2025"}},{"type":"Feature","geometry":{"coordinates":[106.702192,-6.2026285],"type":"Point"},"properties":{"NAMA":"PUSKESMAS PONDOK BAHAR","TIPE_1":"KESEHATAN DAN PENGOBATAN","TIPE_2":"LAYANAN MASYARAKAT","TIPE_3":"PUSKESMAS","TELEPON":"(021) 55700732","ALAMAT":"KEL. PONDOK BAHAR KELURAHAN KARANG TENGAH, KECAMATAN KARANG TENGAH, RT.005/RW.002, PONDOK BAHAR, KARANG TENGAH, TANGERANG CITY, BANTEN 15159","ID_PROV":"36","PROVINSI":"BANTEN","ID_KABKOT":"36.71","KABKOT":"KOTA TANGERANG","ID_KEC":"36.71.12","KECAMATAN":"KARANG TENGAH","ID_DESA":"36.71.12.1003","DESA":"PONDOK BAHAR","LONGITUDE":106.702192,"LATITUDE":-6.2026285,"STATUS":"BUKA","TANGGAL PENGUMPULAN":"Q1 2024","TANGGAL UPDATE":"28/02/2025"}},{"type":"Feature","geometry":{"coordinates":[106.6690747,-6.1631312],"type":"Point"},"properties":{"NAMA":"PUSKESMAS BATU CEPER","TIPE_1":"KESEHATAN DAN PENGOBATAN","TIPE_2":"LAYANAN MASYARAKAT","TIPE_3":"PUSKESMAS","TELEPON":"(021) 5584508","ALAMAT":"DAAN MOGOT RD NO.KM.21, RT.005/RW.NO.257, BATUCEPER, TANGERANG CITY, BANTEN 15119","ID_PROV":"36","PROVINSI":"BANTEN","ID_KABKOT":"36.71","KABKOT":"KOTA TANGERANG","ID_KEC":"36.71.03","KECAMATAN":"BATUCEPER","ID_DESA":"36.71.03.1001","DESA":"BATUCEPER","LONGITUDE":106.6690747,"LATITUDE":-6.1631312,"STATUS":"BUKA","TANGGAL PENGUMPULAN":"Q1 2024","TANGGAL UPDATE":"28/02/2025"}},{"type":"Feature","geometry":{"coordinates":[106.6751044,-6.2300197],"type":"Point"},"properties":{"NAMA":"PUSKESMAS KUNCIRAN","TIPE_1":"KESEHATAN DAN PENGOBATAN","TIPE_2":"LAYANAN MASYARAKAT","TIPE_3":"PUSKESMAS","TELEPON":"(021) 53126613","ALAMAT":"JL. PEPABRI RAYA, RT.004/RW.012, KUNCIRAN, KEC. PINANG, KOTA TANGERANG, BANTEN 15144","ID_PROV":"36","PROVINSI":"BANTEN","ID_KABKOT":"36.71","KABKOT":"KOTA TANGERANG","ID_KEC":"36.71.11","KECAMATAN":"PINANG","ID_DESA":"36.71.11.1004","DESA":"KUNCIRAN","LONGITUDE":106.6751044,"LATITUDE":-6.2300197,"STATUS":"BUKA","TANGGAL PENGUMPULAN":"Q1 2024","TANGGAL UPDATE":"28/02/2025"}},{"type":"Feature","geometry":{"coordinates":[106.6889352,-6.238334],"type":"Point"},"properties":{"NAMA":"PUSKESMAS TAJUR","TIPE_1":"KESEHATAN DAN PENGOBATAN","TIPE_2":"LAYANAN MASYARAKAT","TIPE_3":"PUSKESMAS","TELEPON":"(021) 7321015","ALAMAT":"JL. WISMA TAJUR BLOK D2, RT.004/RW.007, TAJUR, KEC. CILEDUG, KOTA TANGERANG, BANTEN 15152","ID_PROV":"36","PROVINSI":"BANTEN","ID_KABKOT":"36.71","KABKOT":"KOTA TANGERANG","ID_KEC":"36.71.06","KECAMATAN":"CILEDUG","ID_DESA":"36.71.06.1004","DESA":"TAJUR","LONGITUDE":106.6889352,"LATITUDE":-6.238334,"STATUS":"BUKA","TANGGAL PENGUMPULAN":"Q1 2024","TANGGAL UPDATE":"28/02/2025"}},{"type":"Feature","geometry":{"coordinates":[106.7083011,-6.2426632],"type":"Point"},"properties":{"NAMA":"PUSKESMAS PANINGGILAN","TIPE_1":"KESEHATAN DAN PENGOBATAN","TIPE_2":"LAYANAN MASYARAKAT","TIPE_3":"PUSKESMAS","TELEPON":"","ALAMAT":"JL. CIPTO MANGUNKUSUMO NO.1, RT.001/RW.010, PANINGGILAN, KEC. CILEDUG, KOTA TANGERANG, BANTEN 15153","ID_PROV":"36","PROVINSI":"BANTEN","ID_KABKOT":"36.71","KABKOT":"KOTA TANGERANG","ID_KEC":"36.71.06","KECAMATAN":"CILEDUG","ID_DESA":"36.71.06.1001","DESA":"PANINGGILAN","LONGITUDE":106.7083011,"LATITUDE":-6.2426632,"STATUS":"BUKA","TANGGAL PENGUMPULAN":"Q1 2024","TANGGAL UPDATE":"28/02/2025"}},{"type":"Feature","geometry":{"coordinates":[106.632256,-6.1539357],"type":"Point"},"properties":{"NAMA":"UPT PUSKESMAS NEGLASARI","TIPE_1":"KESEHATAN DAN PENGOBATAN","TIPE_2":"LAYANAN MASYARAKAT","TIPE_3":"PUSKESMAS","TELEPON":"(021) 5538911","ALAMAT":"JL. MARSEKAL SURYADARMA NO.18, RT.002/RW.002, NEGLASARI, KEC. NEGLASARI, KOTA TANGERANG, BANTEN 15129","ID_PROV":"36","PROVINSI":"BANTEN","ID_KABKOT":"36.71","KABKOT":"KOTA TANGERANG","ID_KEC":"36.71.10","KECAMATAN":"NEGLASARI","ID_DESA":"36.71.10.1001","DESA":"NEGLASARI","LONGITUDE":106.632256,"LATITUDE":-6.1539357,"STATUS":"BUKA","TANGGAL PENGUMPULAN":"Q1 2024","TANGGAL UPDATE":"28/02/2025"}},{"type":"Feature","geometry":{"coordinates":[106.6437384,-6.2223971],"type":"Point"},"properties":{"NAMA":"PUSKESMAS PANUNGGANGAN","TIPE_1":"KESEHATAN DAN PENGOBATAN","TIPE_2":"LAYANAN MASYARAKAT","TIPE_3":"PUSKESMAS","TELEPON":"(021) 22353600","ALAMAT":"JL. KYAI MAJA NO.2, PANUNGGANGAN, KEC. PINANG, KOTA TANGERANG, BANTEN 15143","ID_PROV":"36","PROVINSI":"BANTEN","ID_KABKOT":"36.71","KABKOT":"KOTA TANGERANG","ID_KEC":"36.71.11","KECAMATAN":"PINANG","ID_DESA":"36.71.11.1009","DESA":"PANUNGGANGAN","LONGITUDE":106.6437384,"LATITUDE":-6.2223971,"STATUS":"BUKA","TANGGAL PENGUMPULAN":"Q1 2024","TANGGAL UPDATE":"28/02/2025"}},{"type":"Feature","geometry":{"coordinates":[106.5891298,-6.1904676],"type":"Point"},"properties":{"NAMA":"PUSKESMAS JATIUWUNG","TIPE_1":"KESEHATAN DAN PENGOBATAN","TIPE_2":"LAYANAN MASYARAKAT","TIPE_3":"PUSKESMAS","TELEPON":"(021) 5904138","ALAMAT":"JL. GATOT SUBROTO NO.6, RT.003/RW.001, JATIUWUNG, KEC. CIBODAS, KOTA TANGERANG, BANTEN 15138","ID_PROV":"36","PROVINSI":"BANTEN","ID_KABKOT":"36.71","KABKOT":"KOTA TANGERANG","ID_KEC":"36.71.02","KECAMATAN":"JATIUWUNG","ID_DESA":"36.71.02.1001","DESA":"KERONCONG","LONGITUDE":106.5891298,"LATITUDE":-6.1904676,"STATUS":"BUKA","TANGGAL PENGUMPULAN":"Q1 2024","TANGGAL UPDATE":"28/02/2025"}},{"type":"Feature","geometry":{"coordinates":[106.6127731,-6.1555445],"type":"Point"},"properties":{"NAMA":"PUSKESMAS PEMBANTU BAYUR","TIPE_1":"KESEHATAN DAN PENGOBATAN","TIPE_2":"LAYANAN MASYARAKAT","TIPE_3":"PUSKESMAS","TELEPON":"0856-9238-5397","ALAMAT":"KAMPUNG BAYUR RT05 RW 04, RT.005/RW.004, PERIUK JAYA, KEC. PERIUK, KOTA TANGERANG, BANTEN 15131","ID_PROV":"36","PROVINSI":"BANTEN","ID_KABKOT":"36.71","KABKOT":"KOTA TANGERANG","ID_KEC":"36.71.08","KECAMATAN":"PERIUK","ID_DESA":"36.71.08.1005","DESA":"PERIUK JAYA","LONGITUDE":106.6127731,"LATITUDE":-6.1555445,"STATUS":"BUKA","TANGGAL PENGUMPULAN":"Q1 2024","TANGGAL UPDATE":"28/02/2025"}},{"type":"Feature","geometry":{"coordinates":[106.5927662,-6.1714703],"type":"Point"},"properties":{"NAMA":"PUSKESMAS GEBANG RAYA","TIPE_1":"KESEHATAN DAN PENGOBATAN","TIPE_2":"LAYANAN MASYARAKAT","TIPE_3":"PUSKESMAS","TELEPON":"","ALAMAT":"JL. VILLA TANGERANG REGENCY NO.1-18, RT.001/RW.012, GEBANG RAYA, KEC. PERIUK, KOTA TANGERANG, BANTEN 15132","ID_PROV":"36","PROVINSI":"BANTEN","ID_KABKOT":"36.71","KABKOT":"KOTA TANGERANG","ID_KEC":"36.71.08","KECAMATAN":"PERIUK","ID_DESA":"36.71.08.1003","DESA":"GEBANG RAYA","LONGITUDE":106.5927662,"LATITUDE":-6.1714703,"STATUS":"BUKA","TANGGAL PENGUMPULAN":"Q1 2024","TANGGAL UPDATE":"28/02/2025"}},{"type":"Feature","geometry":{"coordinates":[106.6026231,-6.1642287],"type":"Point"},"properties":{"NAMA":"PUSKESMAS PERIUK JAYA","TIPE_1":"KESEHATAN DAN PENGOBATAN","TIPE_2":"LAYANAN MASYARAKAT","TIPE_3":"PUSKESMAS","TELEPON":"(021) 55771587","ALAMAT":"JL. PERIUK JAYA NO.RAYA, RT.001/RW.005, PERIUK JAYA, KEC. PERIUK, KOTA TANGERANG, BANTEN 15131","ID_PROV":"36","PROVINSI":"BANTEN","ID_KABKOT":"36.71","KABKOT":"KOTA TANGERANG","ID_KEC":"36.71.08","KECAMATAN":"PERIUK","ID_DESA":"36.71.08.1005","DESA":"PERIUK JAYA","LONGITUDE":106.6026231,"LATITUDE":-6.1642287,"STATUS":"BUKA","TANGGAL PENGUMPULAN":"Q1 2024","TANGGAL UPDATE":"28/02/2025"}},{"type":"Feature","geometry":{"coordinates":[106.6146123,-6.1996411],"type":"Point"},"properties":{"NAMA":"PUSKESMAS KARAWACI BARU","TIPE_1":"KESEHATAN DAN PENGOBATAN","TIPE_2":"LAYANAN MASYARAKAT","TIPE_3":"PUSKESMAS","TELEPON":"0819-7776-7677","ALAMAT":"JL. BERINGIN RAYA NO.75, RT.002/RW.004, KARAWACI BARU, KEC. KARAWACI, KOTA TANGERANG, BANTEN 15116","ID_PROV":"36","PROVINSI":"BANTEN","ID_KABKOT":"36.71","KABKOT":"KOTA TANGERANG","ID_KEC":"36.71.07","KECAMATAN":"KARAWACI","ID_DESA":"36.71.07.1003","DESA":"KARAWACI BARU","LONGITUDE":106.6146123,"LATITUDE":-6.1996411,"STATUS":"BUKA","TANGGAL PENGUMPULAN":"Q1 2024","TANGGAL UPDATE":"28/02/2025"}},{"type":"Feature","geometry":{"coordinates":[106.6280219,-6.2001059],"type":"Point"},"properties":{"NAMA":"PUSKESMAS CIKOKOL","TIPE_1":"KESEHATAN DAN PENGOBATAN","TIPE_2":"LAYANAN MASYARAKAT","TIPE_3":"PUSKESMAS","TELEPON":"(021) 55703103","ALAMAT":"JL. MH. THAMRIN, RT.003/RW.002, CIKOKOL, KEC. TANGERANG, KOTA TANGERANG, BANTEN 15117","ID_PROV":"36","PROVINSI":"BANTEN","ID_KABKOT":"36.71","KABKOT":"KOTA TANGERANG","ID_KEC":"36.71.01","KECAMATAN":"TANGERANG","ID_DESA":"36.71.01.1005","DESA":"CIKOKOL","LONGITUDE":106.6280219,"LATITUDE":-6.2001059,"STATUS":"BUKA","TANGGAL PENGUMPULAN":"Q1 2024","TANGGAL UPDATE":"28/02/2025"}},{"type":"Feature","geometry":{"coordinates":[106.624299,-6.133218],"type":"Point"},"properties":{"NAMA":"PUSKESMAS KEDAUNG WETAN","TIPE_1":"KESEHATAN DAN PENGOBATAN","TIPE_2":"LAYANAN MASYARAKAT","TIPE_3":"PUSKESMAS","TELEPON":"(021) 5500359","ALAMAT":"KOMP. KEL KEDAUNG WETAN, KECAMATAN NEGLASARI, RT.004/RW.004, KEDAUNG WETAN, NEGLASARI, TANGERANG CITY, BANTEN 15128","ID_PROV":"36","PROVINSI":"BANTEN","ID_KABKOT":"36.71","KABKOT":"KOTA TANGERANG","ID_KEC":"36.71.10","KECAMATAN":"NEGLASARI","ID_DESA":"36.71.10.1004","DESA":"KEDAUNG WETAN","LONGITUDE":106.624299,"LATITUDE":-6.133218,"STATUS":"BUKA","TANGGAL PENGUMPULAN":"Q1 2024","TANGGAL UPDATE":"28/02/2025"}},{"type":"Feature","geometry":{"coordinates":[106.6080344,-6.2105945],"type":"Point"},"properties":{"NAMA":"PUSKESMAS CIBODASARI","TIPE_1":"KESEHATAN DAN PENGOBATAN","TIPE_2":"LAYANAN MASYARAKAT","TIPE_3":"PUSKESMAS","TELEPON":"(021) 5917986","ALAMAT":"JL. PALEM RAYA NO.1, RT.006/RW.008, CIBODASARI, KEC. CIBODAS, KOTA TANGERANG, BANTEN 15138","ID_PROV":"36","PROVINSI":"BANTEN","ID_KABKOT":"36.71","KABKOT":"KOTA TANGERANG","ID_KEC":"36.71.09","KECAMATAN":"CIBODAS","ID_DESA":"36.71.09.1002","DESA":"CIBODAS SARI","LONGITUDE":106.6080344,"LATITUDE":-6.2105945,"STATUS":"BUKA","TANGGAL PENGUMPULAN":"Q1 2024","TANGGAL UPDATE":"28/02/2025"}},{"type":"Feature","geometry":{"coordinates":[106.6037988,-6.2065228],"type":"Point"},"properties":{"NAMA":"PUSKESMAS BAJA","TIPE_1":"KESEHATAN DAN PENGOBATAN","TIPE_2":"LAYANAN MASYARAKAT","TIPE_3":"PUSKESMAS","TELEPON":"(021) 5912802","ALAMAT":"JL. BAJA RAYA, CIBODAS BARU, KEC. CIBODAS, KOTA TANGERANG, BANTEN 15138","ID_PROV":"36","PROVINSI":"BANTEN","ID_KABKOT":"36.71","KABKOT":"KOTA TANGERANG","ID_KEC":"36.71.09","KECAMATAN":"CIBODAS","ID_DESA":"36.71.09.1003","DESA":"CIBODAS BARU","LONGITUDE":106.6037988,"LATITUDE":-6.2065228,"STATUS":"BUKA","TANGGAL PENGUMPULAN":"Q1 2024","TANGGAL UPDATE":"28/02/2025"}},{"type":"Feature","geometry":{"coordinates":[106.6126814,-6.1661646],"type":"Point"},"properties":{"NAMA":"PUSAT KESEHATAN MASYARAKAT (PUSKESMAS) PABUARAN TUMPENG","TIPE_1":"KESEHATAN DAN PENGOBATAN","TIPE_2":"LAYANAN MASYARAKAT","TIPE_3":"PUSKESMAS","TELEPON":"(021) 55794468","ALAMAT":"JL. RAYA BENUA NO.RAYA, RT.001/RW.010, PABUARAN TUMPENG, KEC. KARAWACI, KOTA TANGERANG, BANTEN 15112","ID_PROV":"36","PROVINSI":"BANTEN","ID_KABKOT":"36.71","KABKOT":"KOTA TANGERANG","ID_KEC":"36.71.07","KECAMATAN":"KARAWACI","ID_DESA":"36.71.07.1011","DESA":"PABUARAN TUMPENG","LONGITUDE":106.6126814,"LATITUDE":-6.1661646,"STATUS":"BUKA","TANGGAL PENGUMPULAN":"Q1 2024","TANGGAL UPDATE":"28/02/2025"}},{"type":"Feature","geometry":{"coordinates":[106.5830358,-6.1710987],"type":"Point"},"properties":{"NAMA":"PUSKESMAS GEMBOR","TIPE_1":"KESEHATAN DAN PENGOBATAN","TIPE_2":"LAYANAN MASYARAKAT","TIPE_3":"PUSKESMAS","TELEPON":"(021) 5926553","ALAMAT":"KOMP. TOTAL PERSADA, KELURAHAN GEMBOR, KECAMATAN PERIUK, RT.003/RW.007, PERIUK JAYA, KEC. PERIUK, KOTA TANGERANG, BANTEN 15133","ID_PROV":"36","PROVINSI":"BANTEN","ID_KABKOT":"36.71","KABKOT":"KOTA TANGERANG","ID_KEC":"36.71.08","KECAMATAN":"PERIUK","ID_DESA":"36.71.08.1002","DESA":"GEMBOR","LONGITUDE":106.5830358,"LATITUDE":-6.1710987,"STATUS":"BUKA","TANGGAL PENGUMPULAN":"Q1 2024","TANGGAL UPDATE":"28/02/2025"}},{"type":"Feature","geometry":{"coordinates":[106.6167813,-6.2149645],"type":"Point"},"properties":{"NAMA":"PUSKESMAS PANUNGGANGAN BARAT","TIPE_1":"KESEHATAN DAN PENGOBATAN","TIPE_2":"LAYANAN MASYARAKAT","TIPE_3":"PUSKESMAS","TELEPON":"","ALAMAT":"UNNAMED ROAD, JL. BARU, RT.002/RW.006, PANUNGGANGAN BAR., KEC. CIBODAS, KOTA TANGERANG, BANTEN 15138","ID_PROV":"36","PROVINSI":"BANTEN","ID_KABKOT":"36.71","KABKOT":"KOTA TANGERANG","ID_KEC":"36.71.09","KECAMATAN":"CIBODAS","ID_DESA":"36.71.09.1004","DESA":"PANUNGGANGAN BARAT","LONGITUDE":106.6167813,"LATITUDE":-6.2149645,"STATUS":"BUKA","TANGGAL PENGUMPULAN":"Q1 2024","TANGGAL UPDATE":"28/02/2025"}},{"type":"Feature","geometry":{"coordinates":[106.5958097,-6.1801736],"type":"Point"},"properties":{"NAMA":"PUSKESMAS SANGIANG","TIPE_1":"KESEHATAN DAN PENGOBATAN","TIPE_2":"LAYANAN MASYARAKAT","TIPE_3":"PUSKESMAS","TELEPON":"(021) 55735534","ALAMAT":"PERUMAHAN TAMAN CIBODAS, JL. CEMP. XIII, RT.002/RW.004, SANGIANG JAYA, KEC. PERIUK, KOTA TANGERANG, BANTEN 15132","ID_PROV":"36","PROVINSI":"BANTEN","ID_KABKOT":"36.71","KABKOT":"KOTA TANGERANG","ID_KEC":"36.71.08","KECAMATAN":"PERIUK","ID_DESA":"36.71.08.1004","DESA":"SANGIANG JAYA","LONGITUDE":106.5958097,"LATITUDE":-6.1801736,"STATUS":"BUKA","TANGGAL PENGUMPULAN":"Q1 2024","TANGGAL UPDATE":"28/02/2025"}}]}