{"type":"FeatureCollection","features":[{"type":"Feature","geometry":{"coordinates":[106.7327772,-6.4206614],"type":"Point"},"properties":{"NAMA":"PUSKESMAS PARUNG","TIPE_1":"KESEHATAN DAN PENGOBATAN","TIPE_2":"LAYANAN MASYARAKAT","TIPE_3":"PUSKESMAS","TELEPON":"0811-1446-426","ALAMAT":"JL. RAYA PARUNG BOGOR NO.575, WARU, KEC. PARUNG, KABUPATEN BOGOR, JAWA BARAT 16330","ID_PROV":"32","PROVINSI":"JAWA BARAT","ID_KABKOT":"32.01","KABKOT":"BOGOR","ID_KEC":"32.01.10","KECAMATAN":"PARUNG","ID_DESA":"32.01.10.2001","DESA":"PARUNG","LONGITUDE":106.7327772,"LATITUDE":-6.4206614,"STATUS":"BUKA","TANGGAL PENGUMPULAN":"Q1 2024","TANGGAL UPDATE":"28/02/2025"}},{"type":"Feature","geometry":{"coordinates":[106.8251783,-6.4633283],"type":"Point"},"properties":{"NAMA":"PUSKESMAS PONDOK RAJEG","TIPE_1":"KESEHATAN DAN PENGOBATAN","TIPE_2":"LAYANAN MASYARAKAT","TIPE_3":"PUSKESMAS","TELEPON":"","ALAMAT":"JL. KOMP. PD. RAJEG INDAH BLOK E NO.13, RT.2/RW.9, PD. RAJEG, KEC. CIBINONG, KABUPATEN BOGOR, JAWA BARAT 16413","ID_PROV":"32","PROVINSI":"JAWA BARAT","ID_KABKOT":"32.01","KABKOT":"BOGOR","ID_KEC":"32.01.01","KECAMATAN":"CIBINONG","ID_DESA":"32.01.01.1001","DESA":"PONDOK RAJEG","LONGITUDE":106.8251783,"LATITUDE":-6.4633283,"STATUS":"BUKA","TANGGAL PENGUMPULAN":"Q1 2024","TANGGAL UPDATE":"28/02/2025"}},{"type":"Feature","geometry":{"coordinates":[106.7762622,-6.4442069],"type":"Point"},"properties":{"NAMA":"PUSKESMAS RAGAJAYA","TIPE_1":"KESEHATAN DAN PENGOBATAN","TIPE_2":"LAYANAN MASYARAKAT","TIPE_3":"PUSKESMAS","TELEPON":"0813-9830-1505","ALAMAT":"JL. RAYA CITAYAM - PARUNG, RT.003/RW.011, RAGAJAYA, KECAMATAN BOJONGGEDE, KABUPATEN BOGOR, JAWA BARAT 16920","ID_PROV":"32","PROVINSI":"JAWA BARAT","ID_KABKOT":"32.01","KABKOT":"BOGOR","ID_KEC":"32.01.13","KECAMATAN":"BOJONG GEDE","ID_DESA":"32.01.13.2004","DESA":"RAGAJAYA","LONGITUDE":106.7762622,"LATITUDE":-6.4442069,"STATUS":"BUKA","TANGGAL PENGUMPULAN":"Q1 2024","TANGGAL UPDATE":"28/02/2025"}},{"type":"Feature","geometry":{"coordinates":[106.7818892,-6.6313991],"type":"Point"},"properties":{"NAMA":"PUSKESMAS KOTA BATU","TIPE_1":"KESEHATAN DAN PENGOBATAN","TIPE_2":"LAYANAN MASYARAKAT","TIPE_3":"PUSKESMAS","TELEPON":"","ALAMAT":"GG. H. MUKAROM NO.I, RT.03/RW.05, KOTA BATU, KEC. CIOMAS, KOTA BOGOR, JAWA BARAT 16610","ID_PROV":"32","PROVINSI":"JAWA BARAT","ID_KABKOT":"32.01","KABKOT":"BOGOR","ID_KEC":"32.01.29","KECAMATAN":"CIOMAS","ID_DESA":"32.01.29.2009","DESA":"KOTA BATU","LONGITUDE":106.7818892,"LATITUDE":-6.6313991,"STATUS":"BUKA","TANGGAL PENGUMPULAN":"Q1 2024","TANGGAL UPDATE":"28/02/2025"}},{"type":"Feature","geometry":{"coordinates":[106.7594524,-6.6017575],"type":"Point"},"properties":{"NAMA":"PUSKESMAS CIOMAS","TIPE_1":"KESEHATAN DAN PENGOBATAN","TIPE_2":"LAYANAN MASYARAKAT","TIPE_3":"PUSKESMAS","TELEPON":"(0251) 8636492","ALAMAT":"JL. RAYA CIOMAS KRETEG NO.1, PAGELARAN, KEC. CIOMAS, KABUPATEN BOGOR, JAWA BARAT 16610","ID_PROV":"32","PROVINSI":"JAWA BARAT","ID_KABKOT":"32.01","KABKOT":"BOGOR","ID_KEC":"32.01.29","KECAMATAN":"CIOMAS","ID_DESA":"32.01.29.2006","DESA":"PAGELARAN","LONGITUDE":106.7594524,"LATITUDE":-6.6017575,"STATUS":"BUKA","TANGGAL PENGUMPULAN":"Q1 2024","TANGGAL UPDATE":"28/02/2025"}},{"type":"Feature","geometry":{"coordinates":[106.5718385,-6.3416734],"type":"Point"},"properties":{"NAMA":"PUSKESMAS PARUNG PANJANG","TIPE_1":"KESEHATAN DAN PENGOBATAN","TIPE_2":"LAYANAN MASYARAKAT","TIPE_3":"PUSKESMAS","TELEPON":"(021) 5978820","ALAMAT":"JL. MOHAMAD TOHA NO.3, CIBUNAR, KEC. PARUNG PANJANG, KABUPATEN BOGOR, JAWA BARAT 16360","ID_PROV":"32","PROVINSI":"JAWA BARAT","ID_KABKOT":"32.01","KABKOT":"BOGOR","ID_KEC":"32.01.20","KECAMATAN":"PARUNG PANJANG","ID_DESA":"32.01.20.2006","DESA":"PARUNGPANJANG","LONGITUDE":106.5718385,"LATITUDE":-6.3416734,"STATUS":"BUKA","TANGGAL PENGUMPULAN":"Q1 2024","TANGGAL UPDATE":"28/02/2025"}},{"type":"Feature","geometry":{"coordinates":[106.4598111,-6.3285964],"type":"Point"},"properties":{"NAMA":"PUSKESMAS TENJO","TIPE_1":"KESEHATAN DAN PENGOBATAN","TIPE_2":"LAYANAN MASYARAKAT","TIPE_3":"PUSKESMAS","TELEPON":"","ALAMAT":"TENJO, KEC. TENJO, KABUPATEN BOGOR, JAWA BARAT 16370","ID_PROV":"32","PROVINSI":"JAWA BARAT","ID_KABKOT":"32.01","KABKOT":"BOGOR","ID_KEC":"32.01.23","KECAMATAN":"TENJO","ID_DESA":"32.01.23.2005","DESA":"TENJO","LONGITUDE":106.4598111,"LATITUDE":-6.3285964,"STATUS":"BUKA","TANGGAL PENGUMPULAN":"Q1 2024","TANGGAL UPDATE":"28/02/2025"}},{"type":"Feature","geometry":{"coordinates":[106.5549639,-6.4319942],"type":"Point"},"properties":{"NAMA":"PUSKESMAS LEBAKWANGI","TIPE_1":"KESEHATAN DAN PENGOBATAN","TIPE_2":"LAYANAN MASYARAKAT","TIPE_3":"PUSKESMAS","TELEPON":"0857-1577-9176","ALAMAT":"JALAN H. ISYAM NO.1, RT.001/RW.003, RENGASJAJAR, KEC. CIGUDEG, KABUPATEN BOGOR, JAWA BARAT 16660","ID_PROV":"32","PROVINSI":"JAWA BARAT","ID_KABKOT":"32.01","KABKOT":"BOGOR","ID_KEC":"32.01.22","KECAMATAN":"CIGUDEG","ID_DESA":"32.01.22.2008","DESA":"RENGASJAJAR","LONGITUDE":106.5549639,"LATITUDE":-6.4319942,"STATUS":"BUKA","TANGGAL PENGUMPULAN":"Q1 2024","TANGGAL UPDATE":"28/02/2025"}},{"type":"Feature","geometry":{"coordinates":[106.4668077,-6.4758118],"type":"Point"},"properties":{"NAMA":"PUSKESMAS JASINGA","TIPE_1":"KESEHATAN DAN PENGOBATAN","TIPE_2":"LAYANAN MASYARAKAT","TIPE_3":"PUSKESMAS","TELEPON":"","ALAMAT":"PAMAGERSARI, KEC. JASINGA, KABUPATEN BOGOR, JAWA BARAT 16670","ID_PROV":"32","PROVINSI":"JAWA BARAT","ID_KABKOT":"32.01","KABKOT":"BOGOR","ID_KEC":"32.01.19","KECAMATAN":"JASINGA","ID_DESA":"32.01.19.2012","DESA":"PAMAGERSARI","LONGITUDE":106.4668077,"LATITUDE":-6.4758118,"STATUS":"BUKA","TANGGAL PENGUMPULAN":"Q1 2024","TANGGAL UPDATE":"28/02/2025"}},{"type":"Feature","geometry":{"coordinates":[106.8582831,-6.5256227],"type":"Point"},"properties":{"NAMA":"PUSKESMAS KEC BABAKAN MADANG","TIPE_1":"KESEHATAN DAN PENGOBATAN","TIPE_2":"LAYANAN MASYARAKAT","TIPE_3":"PUSKESMAS","TELEPON":"(021) 87951877","ALAMAT":"JALAN PINTU 3 SIRKUIT SENTUL, SENTUL, KEC. BABAKAN MADANG, KABUPATEN BOGOR, JAWA BARAT 16810","ID_PROV":"32","PROVINSI":"JAWA BARAT","ID_KABKOT":"32.01","KABKOT":"BOGOR","ID_KEC":"32.01.05","KECAMATAN":"BABAKAN MADANG","ID_DESA":"32.01.05.2003","DESA":"SENTUL","LONGITUDE":106.8582831,"LATITUDE":-6.5256227,"STATUS":"BUKA","TANGGAL PENGUMPULAN":"Q1 2024","TANGGAL UPDATE":"28/02/2025"}},{"type":"Feature","geometry":{"coordinates":[106.854601,-6.4710474],"type":"Point"},"properties":{"NAMA":"PUSKESMAS CIBINONG","TIPE_1":"KESEHATAN DAN PENGOBATAN","TIPE_2":"LAYANAN MASYARAKAT","TIPE_3":"PUSKESMAS","TELEPON":"","ALAMAT":"JL. CIRIMEKAR NO.20, CIRIMEKAR, KEC. CIBINONG, KABUPATEN BOGOR, JAWA BARAT 16917","ID_PROV":"32","PROVINSI":"JAWA BARAT","ID_KABKOT":"32.01","KABKOT":"BOGOR","ID_KEC":"32.01.01","KECAMATAN":"CIBINONG","ID_DESA":"32.01.01.1011","DESA":"CIRIMEKAR","LONGITUDE":106.854601,"LATITUDE":-6.4710474,"STATUS":"BUKA","TANGGAL PENGUMPULAN":"Q1 2024","TANGGAL UPDATE":"28/02/2025"}},{"type":"Feature","geometry":{"coordinates":[106.8414765,-6.4590229],"type":"Point"},"properties":{"NAMA":"PUSKESMAS HARAPAN JAYA","TIPE_1":"KESEHATAN DAN PENGOBATAN","TIPE_2":"LAYANAN MASYARAKAT","TIPE_3":"PUSKESMAS","TELEPON":"","ALAMAT":"JL. APEL RAYA, HARAPAN JAYA, KEC. CIBINONG, KABUPATEN BOGOR, JAWA BARAT 16914","ID_PROV":"32","PROVINSI":"JAWA BARAT","ID_KABKOT":"32.01","KABKOT":"BOGOR","ID_KEC":"32.01.01","KECAMATAN":"CIBINONG","ID_DESA":"32.01.01.1003","DESA":"HARAPANJAYA","LONGITUDE":106.8414765,"LATITUDE":-6.4590229,"STATUS":"BUKA","TANGGAL PENGUMPULAN":"Q1 2024","TANGGAL UPDATE":"28/02/2025"}},{"type":"Feature","geometry":{"coordinates":[106.8024876,-6.4798486],"type":"Point"},"properties":{"NAMA":"PUSKESMAS BOJONG GEDE","TIPE_1":"KESEHATAN DAN PENGOBATAN","TIPE_2":"LAYANAN MASYARAKAT","TIPE_3":"PUSKESMAS","TELEPON":"(021) 8780053","ALAMAT":"JL. RAYA BOJONG GEDE NO.27, BOJONG BARU, KECAMATAN BOJONGGEDE, KABUPATEN BOGOR, JAWA BARAT 16920","ID_PROV":"32","PROVINSI":"JAWA BARAT","ID_KABKOT":"32.01","KABKOT":"BOGOR","ID_KEC":"32.01.13","KECAMATAN":"BOJONG GEDE","ID_DESA":"32.01.13.2001","DESA":"BOJONGBARU","LONGITUDE":106.8024876,"LATITUDE":-6.4798486,"STATUS":"BUKA","TANGGAL PENGUMPULAN":"Q1 2024","TANGGAL UPDATE":"28/02/2025"}},{"type":"Feature","geometry":{"coordinates":[106.736966,-6.551639],"type":"Point"},"properties":{"NAMA":"UPT PUSKESMAS CANGKURAWOK","TIPE_1":"KESEHATAN DAN PENGOBATAN","TIPE_2":"LAYANAN MASYARAKAT","TIPE_3":"PUSKESMAS","TELEPON":"0878-7925-2171","ALAMAT":"RT.04/RW.06, BABAKAN, KEC. DRAMAGA, KOTA BOGOR, JAWA BARAT 16680","ID_PROV":"32","PROVINSI":"JAWA BARAT","ID_KABKOT":"32.01","KABKOT":"BOGOR","ID_KEC":"32.01.30","KECAMATAN":"DRAMAGA","ID_DESA":"32.01.30.2007","DESA":"CIKARAWANG","LONGITUDE":106.736966,"LATITUDE":-6.551639,"STATUS":"BUKA","TANGGAL PENGUMPULAN":"Q1 2024","TANGGAL UPDATE":"28/02/2025"}},{"type":"Feature","geometry":{"coordinates":[106.635654,-6.5762457],"type":"Point"},"properties":{"NAMA":"PUSKESMAS LEUWILIANG","TIPE_1":"KESEHATAN DAN PENGOBATAN","TIPE_2":"LAYANAN MASYARAKAT","TIPE_3":"PUSKESMAS","TELEPON":"(0251) 8647163","ALAMAT":"JL. MOH NOOR NO.3, RT.01/RW.02, LEUWIMEKAR, KEC. LEUWILIANG, KABUPATEN BOGOR, JAWA BARAT 16640","ID_PROV":"32","PROVINSI":"JAWA BARAT","ID_KABKOT":"32.01","KABKOT":"BOGOR","ID_KEC":"32.01.14","KECAMATAN":"LEUWILIANG","ID_DESA":"32.01.14.2007","DESA":"LEUWIMEKAR","LONGITUDE":106.635654,"LATITUDE":-6.5762457,"STATUS":"BUKA","TANGGAL PENGUMPULAN":"Q1 2024","TANGGAL UPDATE":"28/02/2025"}},{"type":"Feature","geometry":{"coordinates":[106.9523368,-6.6842442],"type":"Point"},"properties":{"NAMA":"UPTD PUSKESMAS CISARUA","TIPE_1":"KESEHATAN DAN PENGOBATAN","TIPE_2":"LAYANAN MASYARAKAT","TIPE_3":"PUSKESMAS","TELEPON":"(0251) 8254829","ALAMAT":"JL. RAYA PUNCAK, KM. 83, 4, TUGU UTARA, CISARUA, TUGU UTARA, KEC. CISARUA, KABUPATEN BOGOR, JAWA BARAT 16750","ID_PROV":"32","PROVINSI":"JAWA BARAT","ID_KABKOT":"32.01","KABKOT":"BOGOR","ID_KEC":"32.01.25","KECAMATAN":"CISARUA","ID_DESA":"32.01.25.2009","DESA":"TUGU UTARA","LONGITUDE":106.9523368,"LATITUDE":-6.6842442,"STATUS":"BUKA","TANGGAL PENGUMPULAN":"Q1 2024","TANGGAL UPDATE":"28/02/2025"}},{"type":"Feature","geometry":{"coordinates":[106.823055,-6.4720424],"type":"Point"},"properties":{"NAMA":"PUSKESMAS KELURAHAN TENGAH","TIPE_1":"KESEHATAN DAN PENGOBATAN","TIPE_2":"LAYANAN MASYARAKAT","TIPE_3":"PUSKESMAS","TELEPON":"","ALAMAT":"TENGAH, KEC. CIBINONG, KABUPATEN BOGOR, JAWA BARAT 16914","ID_PROV":"32","PROVINSI":"JAWA BARAT","ID_KABKOT":"32.01","KABKOT":"BOGOR","ID_KEC":"32.01.01","KECAMATAN":"CIBINONG","ID_DESA":"32.01.01.1008","DESA":"TENGAH","LONGITUDE":106.823055,"LATITUDE":-6.4720424,"STATUS":"BUKA","TANGGAL PENGUMPULAN":"Q1 2024","TANGGAL UPDATE":"28/02/2025"}},{"type":"Feature","geometry":{"coordinates":[106.8084215,-6.5185779],"type":"Point"},"properties":{"NAMA":"PUSKESMAS KARADENAN","TIPE_1":"KESEHATAN DAN PENGOBATAN","TIPE_2":"LAYANAN MASYARAKAT","TIPE_3":"PUSKESMAS","TELEPON":"(0251) 8663546","ALAMAT":"JL. RAYA KARADENAN, RT.02/RW.04, KARADENAN, KEC. CIBINONG, KABUPATEN BOGOR, JAWA BARAT 16913","ID_PROV":"32","PROVINSI":"JAWA BARAT","ID_KABKOT":"32.01","KABKOT":"BOGOR","ID_KEC":"32.01.01","KECAMATAN":"CIBINONG","ID_DESA":"32.01.01.1002","DESA":"KARADENAN","LONGITUDE":106.8084215,"LATITUDE":-6.5185779,"STATUS":"BUKA","TANGGAL PENGUMPULAN":"Q1 2024","TANGGAL UPDATE":"28/02/2025"}},{"type":"Feature","geometry":{"coordinates":[106.8549337,-6.471044],"type":"Point"},"properties":{"NAMA":"PUSKESMAS CIRIMEKAR","TIPE_1":"KESEHATAN DAN PENGOBATAN","TIPE_2":"LAYANAN MASYARAKAT","TIPE_3":"PUSKESMAS","TELEPON":"(021) 8758555","ALAMAT":"JL. KAYU MANIS TIMUR NO.1 5, RT.2/RW.4, CIRIMEKAR, KEC. CIBINONG, KABUPATEN BOGOR, JAWA BARAT 16915","ID_PROV":"32","PROVINSI":"JAWA BARAT","ID_KABKOT":"32.01","KABKOT":"BOGOR","ID_KEC":"32.01.01","KECAMATAN":"CIBINONG","ID_DESA":"32.01.01.1011","DESA":"CIRIMEKAR","LONGITUDE":106.8549337,"LATITUDE":-6.471044,"STATUS":"BUKA","TANGGAL PENGUMPULAN":"Q1 2024","TANGGAL UPDATE":"28/02/2025"}},{"type":"Feature","geometry":{"coordinates":[106.9909065,-6.4483729],"type":"Point"},"properties":{"NAMA":"PUSKESMAS BOJONG","TIPE_1":"KESEHATAN DAN PENGOBATAN","TIPE_2":"LAYANAN MASYARAKAT","TIPE_3":"PUSKESMAS","TELEPON":"0813-1988-8840","ALAMAT":"JL. KLAPANUNGGAL CIPEUCANG, RT.13/RW.07, BOJONG, KEC. KLAPANUNGGAL, KABUPATEN BOGOR, JAWA BARAT 16710","ID_PROV":"32","PROVINSI":"JAWA BARAT","ID_KABKOT":"32.01","KABKOT":"BOGOR","ID_KEC":"32.01.32","KECAMATAN":"KLAPANUNGGAL","ID_DESA":"32.01.32.2002","DESA":"BOJONG","LONGITUDE":106.9909065,"LATITUDE":-6.4483729,"STATUS":"BUKA","TANGGAL PENGUMPULAN":"Q1 2024","TANGGAL UPDATE":"28/02/2025"}},{"type":"Feature","geometry":{"coordinates":[106.8441227,-6.5865397],"type":"Point"},"properties":{"NAMA":"UPP PUSKESMAS SUKARAJA","TIPE_1":"KESEHATAN DAN PENGOBATAN","TIPE_2":"LAYANAN MASYARAKAT","TIPE_3":"PUSKESMAS","TELEPON":"","ALAMAT":"JL. CIKEAS RAYA, CIKEAS, KEC. SUKARAJA, KABUPATEN BOGOR, JAWA BARAT 16710","ID_PROV":"32","PROVINSI":"JAWA BARAT","ID_KABKOT":"32.01","KABKOT":"BOGOR","ID_KEC":"32.01.04","KECAMATAN":"SUKARAJA","ID_DESA":"32.01.04.2008","DESA":"CIKEAS","LONGITUDE":106.8441227,"LATITUDE":-6.5865397,"STATUS":"BUKA","TANGGAL PENGUMPULAN":"Q1 2024","TANGGAL UPDATE":"28/02/2025"}},{"type":"Feature","geometry":{"coordinates":[106.8288928,-6.5333876],"type":"Point"},"properties":{"NAMA":"PUSKESMAS CIMANDALA","TIPE_1":"KESEHATAN DAN PENGOBATAN","TIPE_2":"LAYANAN MASYARAKAT","TIPE_3":"PUSKESMAS","TELEPON":"","ALAMAT":"JL. BINA HARJA, CIJUJUNG, KEC. SUKARAJA, KABUPATEN BOGOR, JAWA BARAT 16710","ID_PROV":"32","PROVINSI":"JAWA BARAT","ID_KABKOT":"32.01","KABKOT":"BOGOR","ID_KEC":"32.01.04","KECAMATAN":"SUKARAJA","ID_DESA":"32.01.04.2011","DESA":"CIJUJUNG","LONGITUDE":106.8288928,"LATITUDE":-6.5333876,"STATUS":"BUKA","TANGGAL PENGUMPULAN":"Q1 2024","TANGGAL UPDATE":"28/02/2025"}},{"type":"Feature","geometry":{"coordinates":[106.5396441,-6.5980586],"type":"Point"},"properties":{"NAMA":"PUSKESMAS NANGGUNG","TIPE_1":"KESEHATAN DAN PENGOBATAN","TIPE_2":"LAYANAN MASYARAKAT","TIPE_3":"PUSKESMAS","TELEPON":"","ALAMAT":"PARAKAN MUNCANG, KEC. NANGGUNG, KABUPATEN BOGOR, JAWA BARAT 16650","ID_PROV":"32","PROVINSI":"JAWA BARAT","ID_KABKOT":"32.01","KABKOT":"BOGOR","ID_KEC":"32.01.21","KECAMATAN":"NANGGUNG","ID_DESA":"32.01.21.2008","DESA":"PARAKANMUNCANG","LONGITUDE":106.5396441,"LATITUDE":-6.5980586,"STATUS":"BUKA","TANGGAL PENGUMPULAN":"Q1 2024","TANGGAL UPDATE":"28/02/2025"}},{"type":"Feature","geometry":{"coordinates":[106.8591451,-6.5117917],"type":"Point"},"properties":{"NAMA":"PUSKESMAS LEUWINUTUG","TIPE_1":"KESEHATAN DAN PENGOBATAN","TIPE_2":"LAYANAN MASYARAKAT","TIPE_3":"PUSKESMAS","TELEPON":"","ALAMAT":"JL. LEUWI NUTUG NO.35, LEUWINUTUG, KEC. CITEUREUP, KABUPATEN BOGOR, JAWA BARAT 16810","ID_PROV":"32","PROVINSI":"JAWA BARAT","ID_KABKOT":"32.01","KABKOT":"BOGOR","ID_KEC":"32.01.03","KECAMATAN":"CITEUREUP","ID_DESA":"32.01.03.2003","DESA":"LEUWINUTUG","LONGITUDE":106.8591451,"LATITUDE":-6.5117917,"STATUS":"BUKA","TANGGAL PENGUMPULAN":"Q1 2024","TANGGAL UPDATE":"28/02/2025"}},{"type":"Feature","geometry":{"coordinates":[107.0619119,-6.4672848],"type":"Point"},"properties":{"NAMA":"PUSKESMAS KOTA JONGGOL","TIPE_1":"KESEHATAN DAN PENGOBATAN","TIPE_2":"LAYANAN MASYARAKAT","TIPE_3":"PUSKESMAS","TELEPON":"","ALAMAT":"JL. RAYA PS. LAMA JONGGOL NO.127, JONGGOL, KEC. JONGGOL, KABUPATEN BOGOR, JAWA BARAT 16830","ID_PROV":"32","PROVINSI":"JAWA BARAT","ID_KABKOT":"32.01","KABKOT":"BOGOR","ID_KEC":"32.01.06","KECAMATAN":"JONGGOL","ID_DESA":"32.01.06.2009","DESA":"JONGGOL","LONGITUDE":107.0619119,"LATITUDE":-6.4672848,"STATUS":"BUKA","TANGGAL PENGUMPULAN":"Q1 2024","TANGGAL UPDATE":"28/02/2025"}},{"type":"Feature","geometry":{"coordinates":[106.8031289,-6.7441578],"type":"Point"},"properties":{"NAMA":"PUSKESMAS CIGOMBONG","TIPE_1":"KESEHATAN DAN PENGOBATAN","TIPE_2":"LAYANAN MASYARAKAT","TIPE_3":"PUSKESMAS","TELEPON":"(0251) 8221047","ALAMAT":"JL. MAYJEN H.R. EDI SUKMA NO.75, WATESJAYA, KEC. CIGOMBONG, KABUPATEN BOGOR, JAWA BARAT 16740","ID_PROV":"32","PROVINSI":"JAWA BARAT","ID_KABKOT":"32.01","KABKOT":"BOGOR","ID_KEC":"32.01.38","KECAMATAN":"CIGOMBONG","ID_DESA":"32.01.38.2001","DESA":"CIGOMBONG","LONGITUDE":106.8031289,"LATITUDE":-6.7441578,"STATUS":"BUKA","TANGGAL PENGUMPULAN":"Q1 2024","TANGGAL UPDATE":"28/02/2025"}},{"type":"Feature","geometry":{"coordinates":[106.6583795,-6.5535812],"type":"Point"},"properties":{"NAMA":"PUSKESMAS CIJUJUNG","TIPE_1":"KESEHATAN DAN PENGOBATAN","TIPE_2":"LAYANAN MASYARAKAT","TIPE_3":"PUSKESMAS","TELEPON":"","ALAMAT":"CIJUJUNG, KEC. CIBUNGBULANG, KABUPATEN BOGOR, JAWA BARAT 16630","ID_PROV":"32","PROVINSI":"JAWA BARAT","ID_KABKOT":"32.01","KABKOT":"BOGOR","ID_KEC":"32.01.16","KECAMATAN":"CIBUNGBULANG","ID_DESA":"32.01.16.2010","DESA":"CIJUJUNG","LONGITUDE":106.6583795,"LATITUDE":-6.5535812,"STATUS":"BUKA","TANGGAL PENGUMPULAN":"Q1 2024","TANGGAL UPDATE":"28/02/2025"}},{"type":"Feature","geometry":{"coordinates":[107.1305126,-6.502169],"type":"Point"},"properties":{"NAMA":"PUSKESMAS CARIU","TIPE_1":"KESEHATAN DAN PENGOBATAN","TIPE_2":"LAYANAN MASYARAKAT","TIPE_3":"PUSKESMAS","TELEPON":"(021) 89960941","ALAMAT":"JL. BRIGADIR JENDERAL DARSONO NO.13, CARIU, KEC. CARIU, KABUPATEN BOGOR, JAWA BARAT 16840","ID_PROV":"32","PROVINSI":"JAWA BARAT","ID_KABKOT":"32.01","KABKOT":"BOGOR","ID_KEC":"32.01.08","KECAMATAN":"CARIU","ID_DESA":"32.01.08.2005","DESA":"CARIU","LONGITUDE":107.1305126,"LATITUDE":-6.502169,"STATUS":"BUKA","TANGGAL PENGUMPULAN":"Q1 2024","TANGGAL UPDATE":"28/02/2025"}},{"type":"Feature","geometry":{"coordinates":[106.7964723,-6.6739907],"type":"Point"},"properties":{"NAMA":"PUSKESMAS CIJERUK","TIPE_1":"KESEHATAN DAN PENGOBATAN","TIPE_2":"LAYANAN MASYARAKAT","TIPE_3":"PUSKESMAS","TELEPON":"(0251) 8211340","ALAMAT":"JL. RE SUMANTA DIREJA NO.424, TJ. SARI, KEC. CIJERUK, KABUPATEN BOGOR, JAWA BARAT 16740","ID_PROV":"32","PROVINSI":"JAWA BARAT","ID_KABKOT":"32.01","KABKOT":"BOGOR","ID_KEC":"32.01.28","KECAMATAN":"CIJERUK","ID_DESA":"32.01.28.2009","DESA":"TANJUNGSARI","LONGITUDE":106.7964723,"LATITUDE":-6.6739907,"STATUS":"BUKA","TANGGAL PENGUMPULAN":"Q1 2024","TANGGAL UPDATE":"28/02/2025"}},{"type":"Feature","geometry":{"coordinates":[106.8827375,-6.4811001],"type":"Point"},"properties":{"NAMA":"PUSKESMAS CITEUREUP","TIPE_1":"KESEHATAN DAN PENGOBATAN","TIPE_2":"LAYANAN MASYARAKAT","TIPE_3":"PUSKESMAS","TELEPON":"0813-8849-6734","ALAMAT":"JL. PUSPA NEGARA NO.8, PUSPANEGARA, KEC. CITEUREUP, KABUPATEN BOGOR, JAWA BARAT 16810","ID_PROV":"32","PROVINSI":"JAWA BARAT","ID_KABKOT":"32.01","KABKOT":"BOGOR","ID_KEC":"32.01.03","KECAMATAN":"CITEUREUP","ID_DESA":"32.01.03.1006","DESA":"PUSPANEGARA","LONGITUDE":106.8827375,"LATITUDE":-6.4811001,"STATUS":"BUKA","TANGGAL PENGUMPULAN":"Q1 2024","TANGGAL UPDATE":"28/02/2025"}},{"type":"Feature","geometry":{"coordinates":[106.9870734,-6.3857403],"type":"Point"},"properties":{"NAMA":"PUSKESMAS PASIR ANGIN","TIPE_1":"KESEHATAN DAN PENGOBATAN","TIPE_2":"LAYANAN MASYARAKAT","TIPE_3":"PUSKESMAS","TELEPON":"(021) 82497967","ALAMAT":"JL. RAYA SETU RT1, RT.1, RW/RW.1, PASIR ANGIN, KEC. CILEUNGSI, KABUPATEN BOGOR, JAWA BARAT 16820","ID_PROV":"32","PROVINSI":"JAWA BARAT","ID_KABKOT":"32.01","KABKOT":"BOGOR","ID_KEC":"32.01.07","KECAMATAN":"CILEUNGSI","ID_DESA":"32.01.07.2001","DESA":"PASIRANGIN","LONGITUDE":106.9870734,"LATITUDE":-6.3857403,"STATUS":"BUKA","TANGGAL PENGUMPULAN":"Q1 2024","TANGGAL UPDATE":"28/02/2025"}},{"type":"Feature","geometry":{"coordinates":[106.7755165,-6.5054435],"type":"Point"},"properties":{"NAMA":"PUSKESMAS KEMUNING","TIPE_1":"KESEHATAN DAN PENGOBATAN","TIPE_2":"LAYANAN MASYARAKAT","TIPE_3":"PUSKESMAS","TELEPON":"","ALAMAT":"JL. RAYA TONJONG - SUDIMAMPIR, CIMANGGIS, KECAMATAN BOJONGGEDE, KABUPATEN BOGOR, JAWA BARAT 16920","ID_PROV":"32","PROVINSI":"JAWA BARAT","ID_KABKOT":"32.01","KABKOT":"BOGOR","ID_KEC":"32.01.13","KECAMATAN":"BOJONG GEDE","ID_DESA":"32.01.13.2002","DESA":"CIMANGGIS","LONGITUDE":106.7755165,"LATITUDE":-6.5054435,"STATUS":"BUKA","TANGGAL PENGUMPULAN":"Q1 2024","TANGGAL UPDATE":"28/02/2025"}},{"type":"Feature","geometry":{"coordinates":[106.8150945,-6.5332238],"type":"Point"},"properties":{"NAMA":"PUSKESMAS PEMBANTU PASIR JAMBU","TIPE_1":"KESEHATAN DAN PENGOBATAN","TIPE_2":"LAYANAN MASYARAKAT","TIPE_3":"PUSKESMAS","TELEPON":"","ALAMAT":"GG. JUMBO, RT.4/RW.1, PASIR JAMBU, KEC. SUKARAJA, KABUPATEN BOGOR, JAWA BARAT 16710","ID_PROV":"32","PROVINSI":"JAWA BARAT","ID_KABKOT":"32.01","KABKOT":"BOGOR","ID_KEC":"32.01.04","KECAMATAN":"SUKARAJA","ID_DESA":"32.01.04.2009","DESA":"PASIR JAMBU","LONGITUDE":106.8150945,"LATITUDE":-6.5332238,"STATUS":"BUKA","TANGGAL PENGUMPULAN":"Q1 2024","TANGGAL UPDATE":"28/02/2025"}},{"type":"Feature","geometry":{"coordinates":[106.6115814,-6.563275],"type":"Point"},"properties":{"NAMA":"PUSKESMAS LEUWISADENG","TIPE_1":"KESEHATAN DAN PENGOBATAN","TIPE_2":"LAYANAN MASYARAKAT","TIPE_3":"PUSKESMAS","TELEPON":"(0251) 8594912","ALAMAT":"LEUWISADENG, JALAN RAYA BOGOR JASINGA NO.KM.25, KEC. LEUWISADENG, KABUPATEN BOGOR, JAWA BARAT 16640","ID_PROV":"32","PROVINSI":"JAWA BARAT","ID_KABKOT":"32.01","KABKOT":"BOGOR","ID_KEC":"32.01.39","KECAMATAN":"LEUWISADENG","ID_DESA":"32.01.39.2001","DESA":"LEUWISADENG","LONGITUDE":106.6115814,"LATITUDE":-6.563275,"STATUS":"BUKA","TANGGAL PENGUMPULAN":"Q1 2024","TANGGAL UPDATE":"28/02/2025"}},{"type":"Feature","geometry":{"coordinates":[106.7289591,-6.6545807],"type":"Point"},"properties":{"NAMA":"PUSKESMAS TAMANSARI KAB. BOGOR","TIPE_1":"KESEHATAN DAN PENGOBATAN","TIPE_2":"LAYANAN MASYARAKAT","TIPE_3":"PUSKESMAS","TELEPON":"0858-8197-4706","ALAMAT":"SUKAJAYA, KEC. TAMANSARI, KABUPATEN BOGOR, JAWA BARAT 16610","ID_PROV":"32","PROVINSI":"JAWA BARAT","ID_KABKOT":"32.01","KABKOT":"BOGOR","ID_KEC":"32.01.31","KECAMATAN":"TAMANSARI","ID_DESA":"32.01.31.2007","DESA":"SUKAJAYA","LONGITUDE":106.7289591,"LATITUDE":-6.6545807,"STATUS":"BUKA","TANGGAL PENGUMPULAN":"Q1 2024","TANGGAL UPDATE":"28/02/2025"}},{"type":"Feature","geometry":{"coordinates":[106.9100625,-6.5188125],"type":"Point"},"properties":{"NAMA":"PUSKESMAS TAJUR","TIPE_1":"KESEHATAN DAN PENGOBATAN","TIPE_2":"LAYANAN MASYARAKAT","TIPE_3":"PUSKESMAS","TELEPON":"","ALAMAT":"JL. RAYA TAJUR LEUWI BILIK NO.KM 1, TAJUR, KEC. CITEUREUP, KABUPATEN BOGOR, JAWA BARAT 16810","ID_PROV":"32","PROVINSI":"JAWA BARAT","ID_KABKOT":"32.01","KABKOT":"BOGOR","ID_KEC":"32.01.03","KECAMATAN":"CITEUREUP","ID_DESA":"32.01.03.2004","DESA":"TAJUR","LONGITUDE":106.9100625,"LATITUDE":-6.5188125,"STATUS":"BUKA","TANGGAL PENGUMPULAN":"Q1 2024","TANGGAL UPDATE":"28/02/2025"}},{"type":"Feature","geometry":{"coordinates":[106.8582915,-6.5257733],"type":"Point"},"properties":{"NAMA":"PUSKESMAS SENTUL","TIPE_1":"KESEHATAN DAN PENGOBATAN","TIPE_2":"LAYANAN MASYARAKAT","TIPE_3":"PUSKESMAS","TELEPON":"(021) 87951490","ALAMAT":"JL. PINTU III JL. RAYA SIRKUIT SENTUL, KADUMANGU, KEC. BABAKAN MADANG, KABUPATEN BOGOR, JAWA BARAT 16810","ID_PROV":"32","PROVINSI":"JAWA BARAT","ID_KABKOT":"32.01","KABKOT":"BOGOR","ID_KEC":"32.01.05","KECAMATAN":"BABAKAN MADANG","ID_DESA":"32.01.05.2003","DESA":"SENTUL","LONGITUDE":106.8582915,"LATITUDE":-6.5257733,"STATUS":"BUKA","TANGGAL PENGUMPULAN":"Q1 2024","TANGGAL UPDATE":"28/02/2025"}},{"type":"Feature","geometry":{"coordinates":[106.8001928,-6.5321902],"type":"Point"},"properties":{"NAMA":"PUSKESMAS CILEBUT","TIPE_1":"KESEHATAN DAN PENGOBATAN","TIPE_2":"LAYANAN MASYARAKAT","TIPE_3":"PUSKESMAS","TELEPON":"(0251) 7543172","ALAMAT":"JALAN RAYA, RT.02/RW.03, CILEBUT TIM., KEC. SUKARAJA, KABUPATEN BOGOR, JAWA BARAT 16710","ID_PROV":"32","PROVINSI":"JAWA BARAT","ID_KABKOT":"32.01","KABKOT":"BOGOR","ID_KEC":"32.01.04","KECAMATAN":"SUKARAJA","ID_DESA":"32.01.04.2003","DESA":"CILEBUT BARAT","LONGITUDE":106.8001928,"LATITUDE":-6.5321902,"STATUS":"BUKA","TANGGAL PENGUMPULAN":"Q1 2024","TANGGAL UPDATE":"28/02/2025"}},{"type":"Feature","geometry":{"coordinates":[106.7563948,-6.5125246],"type":"Point"},"properties":{"NAMA":"PUSKESMAS KEMANG","TIPE_1":"KESEHATAN DAN PENGOBATAN","TIPE_2":"LAYANAN MASYARAKAT","TIPE_3":"PUSKESMAS","TELEPON":"(0251) 7595817","ALAMAT":"JL. KEMANG KIARA, RT.4/RW.6, PERAPATAN, KEC. KEMANG, KABUPATEN BOGOR, JAWA BARAT 16310","ID_PROV":"32","PROVINSI":"JAWA BARAT","ID_KABKOT":"32.01","KABKOT":"BOGOR","ID_KEC":"32.01.12","KECAMATAN":"KEMANG","ID_DESA":"32.01.12.2003","DESA":"KEMANG","LONGITUDE":106.7563948,"LATITUDE":-6.5125246,"STATUS":"BUKA","TANGGAL PENGUMPULAN":"Q1 2024","TANGGAL UPDATE":"28/02/2025"}},{"type":"Feature","geometry":{"coordinates":[106.7512117,-6.6128466],"type":"Point"},"properties":{"NAMA":"PUSKESMAS CIAPUS","TIPE_1":"KESEHATAN DAN PENGOBATAN","TIPE_2":"LAYANAN MASYARAKAT","TIPE_3":"PUSKESMAS","TELEPON":"0877-1618-5229","ALAMAT":"JL. RAYA SUKA MAKMUR, SUKAMAKMUR, KEC. CIOMAS, KABUPATEN BOGOR, JAWA BARAT 16610","ID_PROV":"32","PROVINSI":"JAWA BARAT","ID_KABKOT":"32.01","KABKOT":"BOGOR","ID_KEC":"32.01.29","KECAMATAN":"CIOMAS","ID_DESA":"32.01.29.2007","DESA":"SUKAMAKMUR","LONGITUDE":106.7512117,"LATITUDE":-6.6128466,"STATUS":"BUKA","TANGGAL PENGUMPULAN":"Q1 2024","TANGGAL UPDATE":"28/02/2025"}},{"type":"Feature","geometry":{"coordinates":[106.8424443,-6.5096784],"type":"Point"},"properties":{"NAMA":"PUSKESMAS CIBINONG","TIPE_1":"KESEHATAN DAN PENGOBATAN","TIPE_2":"LAYANAN MASYARAKAT","TIPE_3":"PUSKESMAS","TELEPON":"(021) 8750337","ALAMAT":"JL. RAYA JAKARTA-BOGOR NO.KM.47, RW.05, NANGGEWER, KEC. CIBINONG, KABUPATEN BOGOR, JAWA BARAT 16912","ID_PROV":"32","PROVINSI":"JAWA BARAT","ID_KABKOT":"32.01","KABKOT":"BOGOR","ID_KEC":"32.01.01","KECAMATAN":"CIBINONG","ID_DESA":"32.01.01.1005","DESA":"NANGGEWER MEKAR","LONGITUDE":106.8424443,"LATITUDE":-6.5096784,"STATUS":"BUKA","TANGGAL PENGUMPULAN":"Q1 2024","TANGGAL UPDATE":"28/02/2025"}}]}