{"type":"FeatureCollection","features":[{"type":"Feature","geometry":{"coordinates":[106.7913352,-6.2015554],"type":"Point"},"properties":{"NAMA":"PUSKESMAS KELURAHAN PALMERAH 1","TIPE_1":"KESEHATAN DAN PENGOBATAN","TIPE_2":"LAYANAN MASYARAKAT","TIPE_3":"PUSKESMAS","TELEPON":"(021) 5347484","ALAMAT":"JL. KEMANGGISAN PULO NO.20, RT.12/RW.3, PALMERAH, WEST JAKARTA CITY, JAKARTA 11480","ID_PROV":"31","PROVINSI":"DKI JAKARTA","ID_KABKOT":"31.73","KABKOT":"KOTA ADM. JAKARTA BARAT","ID_KEC":"31.73.07","KECAMATAN":"PAL MERAH","ID_DESA":"31.73.07.1001","DESA":"PALMERAH","LONGITUDE":106.7913352,"LATITUDE":-6.2015554,"STATUS":"BUKA","TANGGAL PENGUMPULAN":"Q1 2024","TANGGAL UPDATE":"28/02/2025"}},{"type":"Feature","geometry":{"coordinates":[106.8047599,-6.154758],"type":"Point"},"properties":{"NAMA":"PUSKESMAS KELURAHAN DURI UTARA","TIPE_1":"KESEHATAN DAN PENGOBATAN","TIPE_2":"LAYANAN MASYARAKAT","TIPE_3":"PUSKESMAS","TELEPON":"(021) 6301972","ALAMAT":"JL. DURI UTARA 1 NO.10, RT.10/RW.3, DURI UTARA, KEC. TAMBORA, KOTA JAKARTA BARAT, DAERAH KHUSUS IBUKOTA JAKARTA 11270","ID_PROV":"31","PROVINSI":"DKI JAKARTA","ID_KABKOT":"31.73","KABKOT":"KOTA ADM. JAKARTA BARAT","ID_KEC":"31.73.04","KECAMATAN":"TAMBORA","ID_DESA":"31.73.04.1003","DESA":"DURI UTARA","LONGITUDE":106.8047599,"LATITUDE":-6.154758,"STATUS":"BUKA","TANGGAL PENGUMPULAN":"Q1 2024","TANGGAL UPDATE":"28/02/2025"}},{"type":"Feature","geometry":{"coordinates":[106.761676,-6.138519],"type":"Point"},"properties":{"NAMA":"PUSKESMAS KELURAHAN KAPUK 2","TIPE_1":"KESEHATAN DAN PENGOBATAN","TIPE_2":"LAYANAN MASYARAKAT","TIPE_3":"PUSKESMAS","TELEPON":"(021) 29405649","ALAMAT":"JL. KAPUK KAMAL NO.28, RT.4/RW.5, KAPUK, KECAMATAN CENGKARENG, KOTA JAKARTA BARAT, DAERAH KHUSUS IBUKOTA JAKARTA 11720","ID_PROV":"31","PROVINSI":"DKI JAKARTA","ID_KABKOT":"31.73","KABKOT":"KOTA ADM. JAKARTA BARAT","ID_KEC":"31.73.01","KECAMATAN":"CENGKARENG","ID_DESA":"31.73.01.1005","DESA":"KAPUK","LONGITUDE":106.761676,"LATITUDE":-6.138519,"STATUS":"BUKA","TANGGAL PENGUMPULAN":"Q1 2024","TANGGAL UPDATE":"28/02/2025"}},{"type":"Feature","geometry":{"coordinates":[106.7031059,-6.1391697],"type":"Point"},"properties":{"NAMA":"PUSKESMAS PEGADUNGAN 1","TIPE_1":"KESEHATAN DAN PENGOBATAN","TIPE_2":"LAYANAN MASYARAKAT","TIPE_3":"PUSKESMAS","TELEPON":"0821-1004-0231","ALAMAT":"JL. KEHANGATAN 5 NO.510 2, RT.2/RW.6, PEGADUNGAN, KEC. KALIDERES, KOTA JAKARTA BARAT, DAERAH KHUSUS IBUKOTA JAKARTA 11830","ID_PROV":"31","PROVINSI":"DKI JAKARTA","ID_KABKOT":"31.73","KABKOT":"KOTA ADM. JAKARTA BARAT","ID_KEC":"31.73.06","KECAMATAN":"KALIDERES","ID_DESA":"31.73.06.1005","DESA":"PEGADUNGAN","LONGITUDE":106.7031059,"LATITUDE":-6.1391697,"STATUS":"BUKA","TANGGAL PENGUMPULAN":"Q1 2024","TANGGAL UPDATE":"28/02/2025"}},{"type":"Feature","geometry":{"coordinates":[106.7184968,-6.118876],"type":"Point"},"properties":{"NAMA":"PUSKESMAS PEMBANTU TEGAL ALUR I","TIPE_1":"KESEHATAN DAN PENGOBATAN","TIPE_2":"LAYANAN MASYARAKAT","TIPE_3":"PUSKESMAS","TELEPON":"(021) 22554956","ALAMAT":"JL. SUKATANI RAYA NO.12, RT.6/RW.2, TEGAL ALUR, KEC. KALIDERES, KOTA JAKARTA BARAT, DAERAH KHUSUS IBUKOTA JAKARTA 11820","ID_PROV":"31","PROVINSI":"DKI JAKARTA","ID_KABKOT":"31.73","KABKOT":"KOTA ADM. JAKARTA BARAT","ID_KEC":"31.73.06","KECAMATAN":"KALIDERES","ID_DESA":"31.73.06.1003","DESA":"TEGAL ALUR","LONGITUDE":106.7184968,"LATITUDE":-6.118876,"STATUS":"BUKA","TANGGAL PENGUMPULAN":"Q1 2024","TANGGAL UPDATE":"28/02/2025"}},{"type":"Feature","geometry":{"coordinates":[106.697508,-6.1409625],"type":"Point"},"properties":{"NAMA":"PUSKESMAS & RB KEL.KUMBANG","TIPE_1":"KESEHATAN DAN PENGOBATAN","TIPE_2":"LAYANAN MASYARAKAT","TIPE_3":"PUSKESMAS","TELEPON":"","ALAMAT":"JL. KUMBANG RAYA NO.2, RT.2/RW.1, PEGADUNGAN, KEC. KALIDERES, KOTA JAKARTA BARAT, DAERAH KHUSUS IBUKOTA JAKARTA 11830","ID_PROV":"31","PROVINSI":"DKI JAKARTA","ID_KABKOT":"31.73","KABKOT":"KOTA ADM. JAKARTA BARAT","ID_KEC":"31.73.06","KECAMATAN":"KALIDERES","ID_DESA":"31.73.06.1005","DESA":"PEGADUNGAN","LONGITUDE":106.697508,"LATITUDE":-6.1409625,"STATUS":"BUKA","TANGGAL PENGUMPULAN":"Q1 2024","TANGGAL UPDATE":"28/02/2025"}},{"type":"Feature","geometry":{"coordinates":[106.8032391,-6.1335386],"type":"Point"},"properties":{"NAMA":"PUSKESMAS KELURAHAN PEKOJAN 1","TIPE_1":"KESEHATAN DAN PENGOBATAN","TIPE_2":"LAYANAN MASYARAKAT","TIPE_3":"PUSKESMAS","TELEPON":"(021) 6906376","ALAMAT":"JL. BANDENGAN UTARA I NO.47 4, RT.4/RW.12, PEKOJAN, KEC. TAMBORA, KOTA JAKARTA BARAT, DAERAH KHUSUS IBUKOTA JAKARTA 11240","ID_PROV":"31","PROVINSI":"DKI JAKARTA","ID_KABKOT":"31.73","KABKOT":"KOTA ADM. JAKARTA BARAT","ID_KEC":"31.73.04","KECAMATAN":"TAMBORA","ID_DESA":"31.73.04.1009","DESA":"PEKOJAN","LONGITUDE":106.8032391,"LATITUDE":-6.1335386,"STATUS":"BUKA","TANGGAL PENGUMPULAN":"Q1 2024","TANGGAL UPDATE":"28/02/2025"}},{"type":"Feature","geometry":{"coordinates":[106.7033224,-6.1676139],"type":"Point"},"properties":{"NAMA":"PUSKESMAS KELURAHAN SEMANAN II","TIPE_1":"KESEHATAN DAN PENGOBATAN","TIPE_2":"LAYANAN MASYARAKAT","TIPE_3":"PUSKESMAS","TELEPON":"","ALAMAT":"JL. SEMANAN RAYA NO.50-57, RT.5/RW.3, SEMANAN, KEC. KALIDERES, KOTA JAKARTA BARAT, DAERAH KHUSUS IBUKOTA JAKARTA 11850","ID_PROV":"31","PROVINSI":"DKI JAKARTA","ID_KABKOT":"31.73","KABKOT":"KOTA ADM. JAKARTA BARAT","ID_KEC":"31.73.06","KECAMATAN":"KALIDERES","ID_DESA":"31.73.06.1002","DESA":"SEMANAN","LONGITUDE":106.7033224,"LATITUDE":-6.1676139,"STATUS":"BUKA","TANGGAL PENGUMPULAN":"Q1 2024","TANGGAL UPDATE":"28/02/2025"}},{"type":"Feature","geometry":{"coordinates":[106.7412949,-6.1996327],"type":"Point"},"properties":{"NAMA":"PUSKESMAS MERUYA UTARA","TIPE_1":"KESEHATAN DAN PENGOBATAN","TIPE_2":"LAYANAN MASYARAKAT","TIPE_3":"PUSKESMAS","TELEPON":"(021) 22546279","ALAMAT":"JL. MERUYA SELATAN NO.40 4, RT.4/RW.4, MERUYA UTARA, KEC. KEMBANGAN, KOTA JAKARTA BARAT, DAERAH KHUSUS IBUKOTA JAKARTA 11620","ID_PROV":"31","PROVINSI":"DKI JAKARTA","ID_KABKOT":"31.73","KABKOT":"KOTA ADM. JAKARTA BARAT","ID_KEC":"31.73.08","KECAMATAN":"KEMBANGAN","ID_DESA":"31.73.08.1002","DESA":"MERUYA UTARA","LONGITUDE":106.7412949,"LATITUDE":-6.1996327,"STATUS":"BUKA","TANGGAL PENGUMPULAN":"Q1 2024","TANGGAL UPDATE":"28/02/2025"}},{"type":"Feature","geometry":{"coordinates":[106.7698499,-6.2180012],"type":"Point"},"properties":{"NAMA":"PUSKESMAS KELURAHAN SUKABUMI SELATAN","TIPE_1":"KESEHATAN DAN PENGOBATAN","TIPE_2":"LAYANAN MASYARAKAT","TIPE_3":"PUSKESMAS","TELEPON":"(021) 5361034","ALAMAT":"JL. RAYA SUKABUMI SELATAN NO.03 8, RT.6/RW.6, SUKABUMI SEL., KEC. KB. JERUK, KOTA JAKARTA BARAT, DAERAH KHUSUS IBUKOTA JAKARTA 11560","ID_PROV":"31","PROVINSI":"DKI JAKARTA","ID_KABKOT":"31.73","KABKOT":"KOTA ADM. JAKARTA BARAT","ID_KEC":"31.73.05","KECAMATAN":"KEBON JERUK","ID_DESA":"31.73.05.1003","DESA":"SUKABUMI SELATAN","LONGITUDE":106.7698499,"LATITUDE":-6.2180012,"STATUS":"BUKA","TANGGAL PENGUMPULAN":"Q1 2024","TANGGAL UPDATE":"28/02/2025"}},{"type":"Feature","geometry":{"coordinates":[106.7744346,-6.2032819],"type":"Point"},"properties":{"NAMA":"PUSKESMAS KELURAHAN SUKABUMI UTARA","TIPE_1":"KESEHATAN DAN PENGOBATAN","TIPE_2":"LAYANAN MASYARAKAT","TIPE_3":"PUSKESMAS","TELEPON":"(021) 5362526","ALAMAT":"JL. HARUN RAYA NO.5 9, RT.9/RW.7, SUKABUMI UTARA, KEC. KB. JERUK, KOTA JAKARTA BARAT, DAERAH KHUSUS IBUKOTA JAKARTA 11540","ID_PROV":"31","PROVINSI":"DKI JAKARTA","ID_KABKOT":"31.73","KABKOT":"KOTA ADM. JAKARTA BARAT","ID_KEC":"31.73.05","KECAMATAN":"KEBON JERUK","ID_DESA":"31.73.05.1002","DESA":"SUKABUMI UTARA","LONGITUDE":106.7744346,"LATITUDE":-6.2032819,"STATUS":"BUKA","TANGGAL PENGUMPULAN":"Q1 2024","TANGGAL UPDATE":"28/02/2025"}},{"type":"Feature","geometry":{"coordinates":[106.7853545,-6.1804866],"type":"Point"},"properties":{"NAMA":"PUSKESMAS TANJUNG DUREN SELATAN","TIPE_1":"KESEHATAN DAN PENGOBATAN","TIPE_2":"LAYANAN MASYARAKAT","TIPE_3":"PUSKESMAS","TELEPON":"(021) 56941907","ALAMAT":"JL. TANJUNG DUREN TIMUR 5, TJ. DUREN SEL., KEC. GROGOL PETAMBURAN, KOTA JAKARTA BARAT, DAERAH KHUSUS IBUKOTA JAKARTA 11470","ID_PROV":"31","PROVINSI":"DKI JAKARTA","ID_KABKOT":"31.73","KABKOT":"KOTA ADM. JAKARTA BARAT","ID_KEC":"31.73.02","KECAMATAN":"GROGOL PETAMBURAN","ID_DESA":"31.73.02.1005","DESA":"TANJUNG DUREN SELATAN","LONGITUDE":106.7853545,"LATITUDE":-6.1804866,"STATUS":"BUKA","TANGGAL PENGUMPULAN":"Q1 2024","TANGGAL UPDATE":"28/02/2025"}},{"type":"Feature","geometry":{"coordinates":[106.7247372,-6.165074],"type":"Point"},"properties":{"NAMA":"PUSKESMAS DURI KOSAMBI 2","TIPE_1":"KESEHATAN DAN PENGOBATAN","TIPE_2":"LAYANAN MASYARAKAT","TIPE_3":"PUSKESMAS","TELEPON":"(021) 29405647","ALAMAT":"JL. PUSKESMAS 1 4, RT.4/RW.7, DURI KOSAMBI, KECAMATAN CENGKARENG, KOTA JAKARTA BARAT, DAERAH KHUSUS IBUKOTA JAKARTA 11750","ID_PROV":"31","PROVINSI":"DKI JAKARTA","ID_KABKOT":"31.73","KABKOT":"KOTA ADM. JAKARTA BARAT","ID_KEC":"31.73.01","KECAMATAN":"CENGKARENG","ID_DESA":"31.73.01.1002","DESA":"DURI KOSAMBI","LONGITUDE":106.7247372,"LATITUDE":-6.165074,"STATUS":"BUKA","TANGGAL PENGUMPULAN":"Q1 2024","TANGGAL UPDATE":"28/02/2025"}},{"type":"Feature","geometry":{"coordinates":[106.733594,-6.164249],"type":"Point"},"properties":{"NAMA":"PUSKESMAS RAWA BUAYA","TIPE_1":"KESEHATAN DAN PENGOBATAN","TIPE_2":"LAYANAN MASYARAKAT","TIPE_3":"PUSKESMAS","TELEPON":"(021) 58300444","ALAMAT":"JL. BOJONG RAYA NO.55, RT.2/RW.04, RW. BUAYA, KECAMATAN CENGKARENG, KOTA JAKARTA BARAT, DAERAH KHUSUS IBUKOTA JAKARTA 11740","ID_PROV":"31","PROVINSI":"DKI JAKARTA","ID_KABKOT":"31.73","KABKOT":"KOTA ADM. JAKARTA BARAT","ID_KEC":"31.73.01","KECAMATAN":"CENGKARENG","ID_DESA":"31.73.01.1003","DESA":"RAWA BUAYA","LONGITUDE":106.733594,"LATITUDE":-6.164249,"STATUS":"BUKA","TANGGAL PENGUMPULAN":"Q1 2024","TANGGAL UPDATE":"28/02/2025"}},{"type":"Feature","geometry":{"coordinates":[106.7843586,-6.1445738],"type":"Point"},"properties":{"NAMA":"PUSKESMAS KELURAHAN JELAMBAR BARU","TIPE_1":"KESEHATAN DAN PENGOBATAN","TIPE_2":"LAYANAN MASYARAKAT","TIPE_3":"PUSKESMAS","TELEPON":"(021) 56941906","ALAMAT":"GG. PESANTREN NO.46 13, RT.13/RW.10, JELAMBAR BARU, KEC. GROGOL PETAMBURAN, KOTA JAKARTA BARAT, DAERAH KHUSUS IBUKOTA JAKARTA 11460","ID_PROV":"31","PROVINSI":"DKI JAKARTA","ID_KABKOT":"31.73","KABKOT":"KOTA ADM. JAKARTA BARAT","ID_KEC":"31.73.02","KECAMATAN":"GROGOL PETAMBURAN","ID_DESA":"31.73.02.1006","DESA":"JELAMBAR BARU","LONGITUDE":106.7843586,"LATITUDE":-6.1445738,"STATUS":"BUKA","TANGGAL PENGUMPULAN":"Q1 2024","TANGGAL UPDATE":"28/02/2025"}},{"type":"Feature","geometry":{"coordinates":[106.743271,-6.1292896],"type":"Point"},"properties":{"NAMA":"PUSKESMAS KAPUK I","TIPE_1":"KESEHATAN DAN PENGOBATAN","TIPE_2":"LAYANAN MASYARAKAT","TIPE_3":"PUSKESMAS","TELEPON":"(021) 29405648","ALAMAT":"GG. WARAS JL. KAPUK KAMAL RAYA NO.8 3, RT.2/RW.3, KAPUK, KECAMATAN CENGKARENG, KOTA JAKARTA BARAT, DAERAH KHUSUS IBUKOTA JAKARTA 11720","ID_PROV":"31","PROVINSI":"DKI JAKARTA","ID_KABKOT":"31.73","KABKOT":"KOTA ADM. JAKARTA BARAT","ID_KEC":"31.73.01","KECAMATAN":"CENGKARENG","ID_DESA":"31.73.01.1005","DESA":"KAPUK","LONGITUDE":106.743271,"LATITUDE":-6.1292896,"STATUS":"BUKA","TANGGAL PENGUMPULAN":"Q1 2024","TANGGAL UPDATE":"28/02/2025"}},{"type":"Feature","geometry":{"coordinates":[106.8101935,-6.1453384],"type":"Point"},"properties":{"NAMA":"PUSKESMAS KELURAHAN TAMBORA","TIPE_1":"KESEHATAN DAN PENGOBATAN","TIPE_2":"LAYANAN MASYARAKAT","TIPE_3":"PUSKESMAS","TELEPON":"(021) 6319774","ALAMAT":"JL. TAMBORA I NO.11 8, RT.8/RW.3, KOTA TUA, KEC. TAMBORA, KOTA JAKARTA BARAT, DAERAH KHUSUS IBUKOTA JAKARTA 11220","ID_PROV":"31","PROVINSI":"DKI JAKARTA","ID_KABKOT":"31.73","KABKOT":"KOTA ADM. JAKARTA BARAT","ID_KEC":"31.73.04","KECAMATAN":"TAMBORA","ID_DESA":"31.73.04.1001","DESA":"TAMBORA","LONGITUDE":106.8101935,"LATITUDE":-6.1453384,"STATUS":"BUKA","TANGGAL PENGUMPULAN":"Q1 2024","TANGGAL UPDATE":"28/02/2025"}},{"type":"Feature","geometry":{"coordinates":[106.7615528,-6.1385013],"type":"Point"},"properties":{"NAMA":"PUSKESMAS","TIPE_1":"KESEHATAN DAN PENGOBATAN","TIPE_2":"LAYANAN MASYARAKAT","TIPE_3":"PUSKESMAS","TELEPON":"","ALAMAT":"JL. KAPUK RAYA NO.29B 4, RT.4/RW.5, KAPUK, KECAMATAN CENGKARENG, KOTA JAKARTA BARAT, DAERAH KHUSUS IBUKOTA JAKARTA 11720","ID_PROV":"31","PROVINSI":"DKI JAKARTA","ID_KABKOT":"31.73","KABKOT":"KOTA ADM. JAKARTA BARAT","ID_KEC":"31.73.01","KECAMATAN":"CENGKARENG","ID_DESA":"31.73.01.1005","DESA":"KAPUK","LONGITUDE":106.7615528,"LATITUDE":-6.1385013,"STATUS":"BUKA","TANGGAL PENGUMPULAN":"Q1 2024","TANGGAL UPDATE":"28/02/2025"}},{"type":"Feature","geometry":{"coordinates":[106.717789,-6.1281491],"type":"Point"},"properties":{"NAMA":"PUSKESMAS KELURAHAN TEGAL ALUR 2","TIPE_1":"KESEHATAN DAN PENGOBATAN","TIPE_2":"LAYANAN MASYARAKAT","TIPE_3":"PUSKESMAS","TELEPON":"","ALAMAT":"JL. KOMP. KEBERSIHAN, RT.7/RW.4, TEGAL ALUR, KEC. KALIDERES, KOTA JAKARTA BARAT, DAERAH KHUSUS IBUKOTA JAKARTA 11820","ID_PROV":"31","PROVINSI":"DKI JAKARTA","ID_KABKOT":"31.73","KABKOT":"KOTA ADM. JAKARTA BARAT","ID_KEC":"31.73.06","KECAMATAN":"KALIDERES","ID_DESA":"31.73.06.1003","DESA":"TEGAL ALUR","LONGITUDE":106.717789,"LATITUDE":-6.1281491,"STATUS":"BUKA","TANGGAL PENGUMPULAN":"Q1 2024","TANGGAL UPDATE":"28/02/2025"}},{"type":"Feature","geometry":{"coordinates":[106.8006533,-6.1504504],"type":"Point"},"properties":{"NAMA":"PUSAT KESEHATAN MASYARAKAT KELURAHAN JEMBATAN BESI","TIPE_1":"KESEHATAN DAN PENGOBATAN","TIPE_2":"LAYANAN MASYARAKAT","TIPE_3":"PUSKESMAS","TELEPON":"(021) 6320125","ALAMAT":"JL. JEMB. BESI II, RT.4/RW.4, JEMB. BESI, KEC. TAMBORA, KOTA JAKARTA BARAT, DAERAH KHUSUS IBUKOTA JAKARTA 11320","ID_PROV":"31","PROVINSI":"DKI JAKARTA","ID_KABKOT":"31.73","KABKOT":"KOTA ADM. JAKARTA BARAT","ID_KEC":"31.73.04","KECAMATAN":"TAMBORA","ID_DESA":"31.73.04.1006","DESA":"JEMBATAN BESI","LONGITUDE":106.8006533,"LATITUDE":-6.1504504,"STATUS":"BUKA","TANGGAL PENGUMPULAN":"Q1 2024","TANGGAL UPDATE":"28/02/2025"}},{"type":"Feature","geometry":{"coordinates":[106.7273229,-6.1200265],"type":"Point"},"properties":{"NAMA":"PUSKESMAS KELURAHAN TEGAL ALUR III","TIPE_1":"KESEHATAN DAN PENGOBATAN","TIPE_2":"LAYANAN MASYARAKAT","TIPE_3":"PUSKESMAS","TELEPON":"(021) 22554838","ALAMAT":"JL. KAYU BESAR DALAM NO.30 5, RT.4/RW.12, TEGAL ALUR, KEC. KALIDERES, KOTA JAKARTA BARAT, DAERAH KHUSUS IBUKOTA JAKARTA 11820","ID_PROV":"31","PROVINSI":"DKI JAKARTA","ID_KABKOT":"31.73","KABKOT":"KOTA ADM. JAKARTA BARAT","ID_KEC":"31.73.06","KECAMATAN":"KALIDERES","ID_DESA":"31.73.06.1003","DESA":"TEGAL ALUR","LONGITUDE":106.7273229,"LATITUDE":-6.1200265,"STATUS":"BUKA","TANGGAL PENGUMPULAN":"Q1 2024","TANGGAL UPDATE":"28/02/2025"}},{"type":"Feature","geometry":{"coordinates":[106.7109298,-6.1423471],"type":"Point"},"properties":{"NAMA":"PUSKESMAS PEGADUNGAN 4","TIPE_1":"KESEHATAN DAN PENGOBATAN","TIPE_2":"LAYANAN MASYARAKAT","TIPE_3":"PUSKESMAS","TELEPON":"(021) 54392924","ALAMAT":"JL. KESAYANGAN UTARA NO.2 BLOK M3, RT.10/RW.12, PEGADUNGAN, KEC. KALIDERES, KOTA JAKARTA BARAT, DAERAH KHUSUS IBUKOTA JAKARTA 11830","ID_PROV":"31","PROVINSI":"DKI JAKARTA","ID_KABKOT":"31.73","KABKOT":"KOTA ADM. JAKARTA BARAT","ID_KEC":"31.73.06","KECAMATAN":"KALIDERES","ID_DESA":"31.73.06.1005","DESA":"PEGADUNGAN","LONGITUDE":106.7109298,"LATITUDE":-6.1423471,"STATUS":"BUKA","TANGGAL PENGUMPULAN":"Q1 2024","TANGGAL UPDATE":"28/02/2025"}},{"type":"Feature","geometry":{"coordinates":[106.8090709,-6.1357277],"type":"Point"},"properties":{"NAMA":"PUSKESMAS KELURAHAN ROA MALAKA","TIPE_1":"KESEHATAN DAN PENGOBATAN","TIPE_2":"LAYANAN MASYARAKAT","TIPE_3":"PUSKESMAS","TELEPON":"(021) 6929267","ALAMAT":"JL. TIANG BENDERA 3 NO. 52, KEL. ROA MALAKA KEC. TAMBORA, RT.7/RW.3, ROA MALAKA, KEC. TAMBORA, KOTA JAKARTA BARAT, DAERAH KHUSUS IBUKOTA JAKARTA 11230","ID_PROV":"31","PROVINSI":"DKI JAKARTA","ID_KABKOT":"31.73","KABKOT":"KOTA ADM. JAKARTA BARAT","ID_KEC":"31.73.04","KECAMATAN":"TAMBORA","ID_DESA":"31.73.04.1010","DESA":"ROA MALAKA","LONGITUDE":106.8090709,"LATITUDE":-6.1357277,"STATUS":"BUKA","TANGGAL PENGUMPULAN":"Q1 2024","TANGGAL UPDATE":"28/02/2025"}},{"type":"Feature","geometry":{"coordinates":[106.7885118,-6.1637833],"type":"Point"},"properties":{"NAMA":"PUSKESMAS KELURAHAN JELAMBAR 1","TIPE_1":"KESEHATAN DAN PENGOBATAN","TIPE_2":"LAYANAN MASYARAKAT","TIPE_3":"PUSKESMAS","TELEPON":"(021) 56941906","ALAMAT":"JL. SATRIA 2 RT. 002 / 04, JELAMBAR, RT.4/RW.4, JELAMBAR, KEC. GROGOL PETAMBURAN, KOTA JAKARTA BARAT, DAERAH KHUSUS IBUKOTA JAKARTA 11460","ID_PROV":"31","PROVINSI":"DKI JAKARTA","ID_KABKOT":"31.73","KABKOT":"KOTA ADM. JAKARTA BARAT","ID_KEC":"31.73.02","KECAMATAN":"GROGOL PETAMBURAN","ID_DESA":"31.73.02.1004","DESA":"JELAMBAR","LONGITUDE":106.7885118,"LATITUDE":-6.1637833,"STATUS":"BUKA","TANGGAL PENGUMPULAN":"Q1 2024","TANGGAL UPDATE":"28/02/2025"}},{"type":"Feature","geometry":{"coordinates":[106.7337989,-6.1492298],"type":"Point"},"properties":{"NAMA":"PUSKESMAS CENGKARENG TIMUR","TIPE_1":"KESEHATAN DAN PENGOBATAN","TIPE_2":"LAYANAN MASYARAKAT","TIPE_3":"PUSKESMAS","TELEPON":"(021) 54360737","ALAMAT":"JL. PUSKESMAS NO.13 13, RT.5/RW.4, CENGKARENG TIM., KECAMATAN CENGKARENG, KOTA JAKARTA BARAT, DAERAH KHUSUS IBUKOTA JAKARTA 11730","ID_PROV":"31","PROVINSI":"DKI JAKARTA","ID_KABKOT":"31.73","KABKOT":"KOTA ADM. JAKARTA BARAT","ID_KEC":"31.73.01","KECAMATAN":"CENGKARENG","ID_DESA":"31.73.01.1006","DESA":"CENGKARENG TIMUR","LONGITUDE":106.7337989,"LATITUDE":-6.1492298,"STATUS":"BUKA","TANGGAL PENGUMPULAN":"Q1 2024","TANGGAL UPDATE":"28/02/2025"}},{"type":"Feature","geometry":{"coordinates":[106.795677,-6.1916366],"type":"Point"},"properties":{"NAMA":"PUSKESMAS PEMBANTU KEMANGGISAN","TIPE_1":"KESEHATAN DAN PENGOBATAN","TIPE_2":"LAYANAN MASYARAKAT","TIPE_3":"PUSKESMAS","TELEPON":"0812-1964-7773","ALAMAT":"JL. ANGGREK GARUDA D/I NO.4 BLOK D, RT.4/RW.2, KEMANGGISAN, KEC. PALMERAH, KOTA JAKARTA BARAT, DAERAH KHUSUS IBUKOTA JAKARTA 11480","ID_PROV":"31","PROVINSI":"DKI JAKARTA","ID_KABKOT":"31.73","KABKOT":"KOTA ADM. JAKARTA BARAT","ID_KEC":"31.73.07","KECAMATAN":"PAL MERAH","ID_DESA":"31.73.07.1005","DESA":"KEMANGGISAN","LONGITUDE":106.795677,"LATITUDE":-6.1916366,"STATUS":"BUKA","TANGGAL PENGUMPULAN":"Q1 2024","TANGGAL UPDATE":"28/02/2025"}},{"type":"Feature","geometry":{"coordinates":[106.8025354,-6.1973199],"type":"Point"},"properties":{"NAMA":"PUSKESMAS PEMBANTU SLIPI II","TIPE_1":"KESEHATAN DAN PENGOBATAN","TIPE_2":"LAYANAN MASYARAKAT","TIPE_3":"PUSKESMAS","TELEPON":"(021) 5306265","ALAMAT":"JL. KS TUBUN IV NO.140, RT.1/RW.7, SLIPI, KEC. PALMERAH, KOTA JAKARTA BARAT, DAERAH KHUSUS IBUKOTA JAKARTA 11410","ID_PROV":"31","PROVINSI":"DKI JAKARTA","ID_KABKOT":"31.73","KABKOT":"KOTA ADM. JAKARTA BARAT","ID_KEC":"31.73.07","KECAMATAN":"PAL MERAH","ID_DESA":"31.73.07.1002","DESA":"SLIPI","LONGITUDE":106.8025354,"LATITUDE":-6.1973199,"STATUS":"BUKA","TANGGAL PENGUMPULAN":"Q1 2024","TANGGAL UPDATE":"28/02/2025"}},{"type":"Feature","geometry":{"coordinates":[106.7995042,-6.1440836],"type":"Point"},"properties":{"NAMA":"PUSKESMAS KELURAHAN ANGKE","TIPE_1":"KESEHATAN DAN PENGOBATAN","TIPE_2":"LAYANAN MASYARAKAT","TIPE_3":"PUSKESMAS","TELEPON":"(021) 6347870","ALAMAT":"JL. ANGKE INDAH GG. 6, RT.14/RW.2, ANGKE, KEC. TAMBORA, KOTA JAKARTA BARAT, DAERAH KHUSUS IBUKOTA JAKARTA 11330","ID_PROV":"31","PROVINSI":"DKI JAKARTA","ID_KABKOT":"31.73","KABKOT":"KOTA ADM. JAKARTA BARAT","ID_KEC":"31.73.04","KECAMATAN":"TAMBORA","ID_DESA":"31.73.04.1007","DESA":"ANGKE","LONGITUDE":106.7995042,"LATITUDE":-6.1440836,"STATUS":"BUKA","TANGGAL PENGUMPULAN":"Q1 2024","TANGGAL UPDATE":"28/02/2025"}},{"type":"Feature","geometry":{"coordinates":[106.7315546,-6.2209791],"type":"Point"},"properties":{"NAMA":"PUSKESMAS PEMBANTU JOGLO I","TIPE_1":"KESEHATAN DAN PENGOBATAN","TIPE_2":"LAYANAN MASYARAKAT","TIPE_3":"PUSKESMAS","TELEPON":"(021) 5840451","ALAMAT":"KOMPLEK, JL. KAVLING HANKAM JL. AL-MUBAROK II NO.16 BLOK X2, RT.1/RW.8, JOGLO, KEC. KEMBANGAN, DAERAH KHUSUS IBUKOTA JAKARTA 11640","ID_PROV":"31","PROVINSI":"DKI JAKARTA","ID_KABKOT":"31.73","KABKOT":"KOTA ADM. JAKARTA BARAT","ID_KEC":"31.73.08","KECAMATAN":"KEMBANGAN","ID_DESA":"31.73.08.1005","DESA":"JOGLO","LONGITUDE":106.7315546,"LATITUDE":-6.2209791,"STATUS":"BUKA","TANGGAL PENGUMPULAN":"Q1 2024","TANGGAL UPDATE":"28/02/2025"}},{"type":"Feature","geometry":{"coordinates":[106.7384135,-6.2097622],"type":"Point"},"properties":{"NAMA":"PUSKESMAS KELURAHAN MERUYA SELATAN 1","TIPE_1":"KESEHATAN DAN PENGOBATAN","TIPE_2":"LAYANAN MASYARAKAT","TIPE_3":"PUSKESMAS","TELEPON":"(021) 58909707","ALAMAT":"4, RT.4/RW.1, MERUYA SEL., KEC. KEMBANGAN, KOTA JAKARTA BARAT, DAERAH KHUSUS IBUKOTA JAKARTA 11650","ID_PROV":"31","PROVINSI":"DKI JAKARTA","ID_KABKOT":"31.73","KABKOT":"KOTA ADM. JAKARTA BARAT","ID_KEC":"31.73.08","KECAMATAN":"KEMBANGAN","ID_DESA":"31.73.08.1003","DESA":"MERUYA SELATAN","LONGITUDE":106.7384135,"LATITUDE":-6.2097622,"STATUS":"BUKA","TANGGAL PENGUMPULAN":"Q1 2024","TANGGAL UPDATE":"28/02/2025"}},{"type":"Feature","geometry":{"coordinates":[106.769445,-6.2080567],"type":"Point"},"properties":{"NAMA":"PUSKESMAS KELURAHAN KELAPA DUA","TIPE_1":"KESEHATAN DAN PENGOBATAN","TIPE_2":"LAYANAN MASYARAKAT","TIPE_3":"PUSKESMAS","TELEPON":"","ALAMAT":"JL. RAYA KLP. DUA NO.32, RT.2/RW.2, KLP. DUA, KEC. KB. JERUK, KOTA JAKARTA BARAT, DAERAH KHUSUS IBUKOTA JAKARTA 11550","ID_PROV":"31","PROVINSI":"DKI JAKARTA","ID_KABKOT":"31.73","KABKOT":"KOTA ADM. JAKARTA BARAT","ID_KEC":"31.73.05","KECAMATAN":"KEBON JERUK","ID_DESA":"31.73.05.1004","DESA":"KELAPA DUA","LONGITUDE":106.769445,"LATITUDE":-6.2080567,"STATUS":"BUKA","TANGGAL PENGUMPULAN":"Q1 2024","TANGGAL UPDATE":"28/02/2025"}},{"type":"Feature","geometry":{"coordinates":[106.7872854,-6.1608033],"type":"Point"},"properties":{"NAMA":"PUSKESMAS KELURAHAN JELAMBAR II","TIPE_1":"KESEHATAN DAN PENGOBATAN","TIPE_2":"LAYANAN MASYARAKAT","TIPE_3":"PUSKESMAS","TELEPON":"(021) 56975053","ALAMAT":"JL. LATUMENTEN VI NO.1 21, JELAMBAR, KEC. GROGOL PETAMBURAN, KOTA JAKARTA BARAT, DAERAH KHUSUS IBUKOTA JAKARTA 11460","ID_PROV":"31","PROVINSI":"DKI JAKARTA","ID_KABKOT":"31.73","KABKOT":"KOTA ADM. JAKARTA BARAT","ID_KEC":"31.73.02","KECAMATAN":"GROGOL PETAMBURAN","ID_DESA":"31.73.02.1004","DESA":"JELAMBAR","LONGITUDE":106.7872854,"LATITUDE":-6.1608033,"STATUS":"BUKA","TANGGAL PENGUMPULAN":"Q1 2024","TANGGAL UPDATE":"28/02/2025"}},{"type":"Feature","geometry":{"coordinates":[106.8046899,-6.1481895],"type":"Point"},"properties":{"NAMA":"PUSKESMAS KECAMATAN TAMBORA","TIPE_1":"KESEHATAN DAN PENGOBATAN","TIPE_2":"LAYANAN MASYARAKAT","TIPE_3":"PUSKESMAS","TELEPON":"0817-7058-7313","ALAMAT":"JL. KRENDANG UTARA NO.04, RT.1/RW.3, KRENDANG, KEC. TAMBORA, KOTA JAKARTA BARAT, DAERAH KHUSUS IBUKOTA JAKARTA 11260","ID_PROV":"31","PROVINSI":"DKI JAKARTA","ID_KABKOT":"31.73","KABKOT":"KOTA ADM. JAKARTA BARAT","ID_KEC":"31.73.04","KECAMATAN":"TAMBORA","ID_DESA":"31.73.04.1005","DESA":"KRENDANG","LONGITUDE":106.8046899,"LATITUDE":-6.1481895,"STATUS":"BUKA","TANGGAL PENGUMPULAN":"Q1 2024","TANGGAL UPDATE":"28/02/2025"}},{"type":"Feature","geometry":{"coordinates":[106.8005861,-6.1393624],"type":"Point"},"properties":{"NAMA":"PUSKESMAS KELURAHAN PEKOJAN 2","TIPE_1":"KESEHATAN DAN PENGOBATAN","TIPE_2":"LAYANAN MASYARAKAT","TIPE_3":"PUSKESMAS","TELEPON":"(021) 6913719","ALAMAT":"JALAN KP.JANIS NO.50, RT.5/RW.9, PEKOJAN, KEC. TAMBORA, KOTA JAKARTA BARAT, DAERAH KHUSUS IBUKOTA JAKARTA 11240","ID_PROV":"31","PROVINSI":"DKI JAKARTA","ID_KABKOT":"31.73","KABKOT":"KOTA ADM. JAKARTA BARAT","ID_KEC":"31.73.04","KECAMATAN":"TAMBORA","ID_DESA":"31.73.04.1009","DESA":"PEKOJAN","LONGITUDE":106.8005861,"LATITUDE":-6.1393624,"STATUS":"BUKA","TANGGAL PENGUMPULAN":"Q1 2024","TANGGAL UPDATE":"28/02/2025"}},{"type":"Feature","geometry":{"coordinates":[106.7618171,-6.1553754],"type":"Point"},"properties":{"NAMA":"PUSKESMAS KEDAUNG KALI ANGKE","TIPE_1":"KESEHATAN DAN PENGOBATAN","TIPE_2":"LAYANAN MASYARAKAT","TIPE_3":"PUSKESMAS","TELEPON":"(021) 54366208","ALAMAT":"JL. KOMP. DEPARTEMEN AGAMA NO.7 3, RT.7/RW.3, KEDAUNG KALI ANGKE, KECAMATAN CENGKARENG, KOTA JAKARTA BARAT, DAERAH KHUSUS IBUKOTA JAKARTA 11710","ID_PROV":"31","PROVINSI":"DKI JAKARTA","ID_KABKOT":"31.73","KABKOT":"KOTA ADM. JAKARTA BARAT","ID_KEC":"31.73.01","KECAMATAN":"CENGKARENG","ID_DESA":"31.73.01.1004","DESA":"KEDAUNG KALI ANGKE","LONGITUDE":106.7618171,"LATITUDE":-6.1553754,"STATUS":"BUKA","TANGGAL PENGUMPULAN":"Q1 2024","TANGGAL UPDATE":"28/02/2025"}},{"type":"Feature","geometry":{"coordinates":[106.6974205,-6.1412837],"type":"Point"},"properties":{"NAMA":"PUSKESMAS KELURAHAN KALIDERES II","TIPE_1":"KESEHATAN DAN PENGOBATAN","TIPE_2":"LAYANAN MASYARAKAT","TIPE_3":"PUSKESMAS","TELEPON":"","ALAMAT":"JL. KUMBANG RAYA NO.45, RT.3/RW.18, PEGADUNGAN, KEC. KALIDERES, KOTA JAKARTA BARAT, DAERAH KHUSUS IBUKOTA JAKARTA 11830","ID_PROV":"31","PROVINSI":"DKI JAKARTA","ID_KABKOT":"31.73","KABKOT":"KOTA ADM. JAKARTA BARAT","ID_KEC":"31.73.06","KECAMATAN":"KALIDERES","ID_DESA":"31.73.06.1005","DESA":"PEGADUNGAN","LONGITUDE":106.6974205,"LATITUDE":-6.1412837,"STATUS":"BUKA","TANGGAL PENGUMPULAN":"Q1 2024","TANGGAL UPDATE":"28/02/2025"}},{"type":"Feature","geometry":{"coordinates":[106.7200123,-6.1812049],"type":"Point"},"properties":{"NAMA":"PUSKESMAS KELURAHAN DURI KOSAMBI I","TIPE_1":"KESEHATAN DAN PENGOBATAN","TIPE_2":"LAYANAN MASYARAKAT","TIPE_3":"PUSKESMAS","TELEPON":"(021) 5459413","ALAMAT":"JL. RAYA DURI KOSAMBI NO.10, RT.10/RW.2, DURI KOSAMBI, KECAMATAN CENGKARENG, KOTA JAKARTA BARAT, DAERAH KHUSUS IBUKOTA JAKARTA 11750","ID_PROV":"31","PROVINSI":"DKI JAKARTA","ID_KABKOT":"31.73","KABKOT":"KOTA ADM. JAKARTA BARAT","ID_KEC":"31.73.01","KECAMATAN":"CENGKARENG","ID_DESA":"31.73.01.1002","DESA":"DURI KOSAMBI","LONGITUDE":106.7200123,"LATITUDE":-6.1812049,"STATUS":"BUKA","TANGGAL PENGUMPULAN":"Q1 2024","TANGGAL UPDATE":"28/02/2025"}},{"type":"Feature","geometry":{"coordinates":[106.8074492,-6.1863674],"type":"Point"},"properties":{"NAMA":"PUSKESMAS KOTA BAMBU SELATAN","TIPE_1":"KESEHATAN DAN PENGOBATAN","TIPE_2":"LAYANAN MASYARAKAT","TIPE_3":"PUSKESMAS","TELEPON":"(021) 56940315","ALAMAT":"JL. KOTA BAMBU RAYA NO.25, RT.16/RW.3, KOTA BAMBU UTARA, KEC. PALMERAH, KOTA JAKARTA BARAT, DAERAH KHUSUS IBUKOTA JAKARTA 11420","ID_PROV":"31","PROVINSI":"DKI JAKARTA","ID_KABKOT":"31.73","KABKOT":"KOTA ADM. JAKARTA BARAT","ID_KEC":"31.73.07","KECAMATAN":"PAL MERAH","ID_DESA":"31.73.07.1003","DESA":"KOTA BAMBU UTARA","LONGITUDE":106.8074492,"LATITUDE":-6.1863674,"STATUS":"BUKA","TANGGAL PENGUMPULAN":"Q1 2024","TANGGAL UPDATE":"28/02/2025"}},{"type":"Feature","geometry":{"coordinates":[106.7683957,-6.1605654],"type":"Point"},"properties":{"NAMA":"PUSKESMAS KELURAHAN KEDOYA UTARA","TIPE_1":"KESEHATAN DAN PENGOBATAN","TIPE_2":"LAYANAN MASYARAKAT","TIPE_3":"PUSKESMAS","TELEPON":"(021) 56943877","ALAMAT":"JL. DAAN MOGOT NO. 1, RT. 003/02, KEDOYA UTARA, KEBON JERUK, RT.2/RW.2, RT.2/RW.2, KEDOYA UTARA, KEC. KB. JERUK, KOTA JAKARTA BARAT, DAERAH KHUSUS IBUKOTA JAKARTA 11520","ID_PROV":"31","PROVINSI":"DKI JAKARTA","ID_KABKOT":"31.73","KABKOT":"KOTA ADM. JAKARTA BARAT","ID_KEC":"31.73.05","KECAMATAN":"KEBON JERUK","ID_DESA":"31.73.05.1006","DESA":"KEDOYA UTARA","LONGITUDE":106.7683957,"LATITUDE":-6.1605654,"STATUS":"BUKA","TANGGAL PENGUMPULAN":"Q1 2024","TANGGAL UPDATE":"28/02/2025"}},{"type":"Feature","geometry":{"coordinates":[106.7219973,-6.145249],"type":"Point"},"properties":{"NAMA":"PUSKESMAS KELURAHAN CENGKARENG BARAT II","TIPE_1":"KESEHATAN DAN PENGOBATAN","TIPE_2":"LAYANAN MASYARAKAT","TIPE_3":"PUSKESMAS","TELEPON":"(021) 54371828","ALAMAT":"JL. NURI V NO.4, RT.6/RW.6, CENGKARENG BAR., KECAMATAN CENGKARENG, KOTA JAKARTA BARAT, DAERAH KHUSUS IBUKOTA JAKARTA 11730","ID_PROV":"31","PROVINSI":"DKI JAKARTA","ID_KABKOT":"31.73","KABKOT":"KOTA ADM. JAKARTA BARAT","ID_KEC":"31.73.01","KECAMATAN":"CENGKARENG","ID_DESA":"31.73.01.1001","DESA":"CENGKARENG BARAT","LONGITUDE":106.7219973,"LATITUDE":-6.145249,"STATUS":"BUKA","TANGGAL PENGUMPULAN":"Q1 2024","TANGGAL UPDATE":"28/02/2025"}},{"type":"Feature","geometry":{"coordinates":[106.78705,-6.2023671],"type":"Point"},"properties":{"NAMA":"PUSKESMAS KELURAHAN PALMERAH II","TIPE_1":"KESEHATAN DAN PENGOBATAN","TIPE_2":"LAYANAN MASYARAKAT","TIPE_3":"PUSKESMAS","TELEPON":"(021) 5347336","ALAMAT":"JL. SANDANG NO.10, RT.5/RW.10, PALMERAH, KEC. PALMERAH, KOTA JAKARTA BARAT, DAERAH KHUSUS IBUKOTA JAKARTA 11480","ID_PROV":"31","PROVINSI":"DKI JAKARTA","ID_KABKOT":"31.73","KABKOT":"KOTA ADM. JAKARTA BARAT","ID_KEC":"31.73.07","KECAMATAN":"PAL MERAH","ID_DESA":"31.73.07.1001","DESA":"PALMERAH","LONGITUDE":106.78705,"LATITUDE":-6.2023671,"STATUS":"BUKA","TANGGAL PENGUMPULAN":"Q1 2024","TANGGAL UPDATE":"28/02/2025"}},{"type":"Feature","geometry":{"coordinates":[106.7595886,-6.1800552],"type":"Point"},"properties":{"NAMA":"PUSKESMAS KELURAHAN KEDOYA SELATAN","TIPE_1":"KESEHATAN DAN PENGOBATAN","TIPE_2":"LAYANAN MASYARAKAT","TIPE_3":"PUSKESMAS","TELEPON":"(021) 58303182","ALAMAT":"JL. KEDOYA RAYA NO.47, RT.1/RW.3, KEDOYA SEL., KEC. KB. JERUK, KOTA JAKARTA BARAT, DAERAH KHUSUS IBUKOTA JAKARTA 11520","ID_PROV":"31","PROVINSI":"DKI JAKARTA","ID_KABKOT":"31.73","KABKOT":"KOTA ADM. JAKARTA BARAT","ID_KEC":"31.73.05","KECAMATAN":"KEBON JERUK","ID_DESA":"31.73.05.1007","DESA":"KEDOYA SELATAN","LONGITUDE":106.7595886,"LATITUDE":-6.1800552,"STATUS":"BUKA","TANGGAL PENGUMPULAN":"Q1 2024","TANGGAL UPDATE":"28/02/2025"}},{"type":"Feature","geometry":{"coordinates":[106.7250447,-6.2183134],"type":"Point"},"properties":{"NAMA":"PUSKESMAS JOGLO II","TIPE_1":"KESEHATAN DAN PENGOBATAN","TIPE_2":"LAYANAN MASYARAKAT","TIPE_3":"PUSKESMAS","TELEPON":"(021) 58902737","ALAMAT":"NO., JL. PEMADAM JOGLO NO.79, RT.11/RW.2, JOGLO, KEC. KEMBANGAN, KOTA JAKARTA BARAT, DAERAH KHUSUS IBUKOTA JAKARTA 11640","ID_PROV":"31","PROVINSI":"DKI JAKARTA","ID_KABKOT":"31.73","KABKOT":"KOTA ADM. JAKARTA BARAT","ID_KEC":"31.73.08","KECAMATAN":"KEMBANGAN","ID_DESA":"31.73.08.1005","DESA":"JOGLO","LONGITUDE":106.7250447,"LATITUDE":-6.2183134,"STATUS":"BUKA","TANGGAL PENGUMPULAN":"Q1 2024","TANGGAL UPDATE":"28/02/2025"}},{"type":"Feature","geometry":{"coordinates":[106.6975179,-6.1012174],"type":"Point"},"properties":{"NAMA":"PUSKESMAS KELURAHAN KAMAL II","TIPE_1":"KESEHATAN DAN PENGOBATAN","TIPE_2":"LAYANAN MASYARAKAT","TIPE_3":"PUSKESMAS","TELEPON":"","ALAMAT":"JL. KP. BELAKANG NO.54 7, RT.6/RW.3, KAMAL, KEC. KALIDERES, KOTA JAKARTA BARAT, DAERAH KHUSUS IBUKOTA JAKARTA 11810","ID_PROV":"31","PROVINSI":"DKI JAKARTA","ID_KABKOT":"31.73","KABKOT":"KOTA ADM. JAKARTA BARAT","ID_KEC":"31.73.06","KECAMATAN":"KALIDERES","ID_DESA":"31.73.06.1004","DESA":"KAMAL","LONGITUDE":106.6975179,"LATITUDE":-6.1012174,"STATUS":"BUKA","TANGGAL PENGUMPULAN":"Q1 2024","TANGGAL UPDATE":"28/02/2025"}},{"type":"Feature","geometry":{"coordinates":[106.7814123,-6.1709482],"type":"Point"},"properties":{"NAMA":"PUSKESMAS KELURAHAN TANJUNG DUREN UTARA","TIPE_1":"KESEHATAN DAN PENGOBATAN","TIPE_2":"LAYANAN MASYARAKAT","TIPE_3":"PUSKESMAS","TELEPON":"(021) 5641241","ALAMAT":"JL. TANJUNG DUREN UTARA VIIB NO.507 3, RT.3/RW.3, TJ. DUREN UTARA, KEC. GROGOL PETAMBURAN, KOTA JAKARTA BARAT, DAERAH KHUSUS IBUKOTA JAKARTA 11470","ID_PROV":"31","PROVINSI":"DKI JAKARTA","ID_KABKOT":"31.73","KABKOT":"KOTA ADM. JAKARTA BARAT","ID_KEC":"31.73.02","KECAMATAN":"GROGOL PETAMBURAN","ID_DESA":"31.73.02.1002","DESA":"TANJUNG DUREN UTARA","LONGITUDE":106.7814123,"LATITUDE":-6.1709482,"STATUS":"BUKA","TANGGAL PENGUMPULAN":"Q1 2024","TANGGAL UPDATE":"28/02/2025"}},{"type":"Feature","geometry":{"coordinates":[106.7076395,-6.102955],"type":"Point"},"properties":{"NAMA":"PUSKESMAS KELURAHAN KAMAL 1","TIPE_1":"KESEHATAN DAN PENGOBATAN","TIPE_2":"LAYANAN MASYARAKAT","TIPE_3":"PUSKESMAS","TELEPON":"","ALAMAT":"JL. KB. KLP. NO.22 7, RT.7/RW.1, KAMAL, KEC. KALIDERES, KOTA JAKARTA BARAT, DAERAH KHUSUS IBUKOTA JAKARTA 11810","ID_PROV":"31","PROVINSI":"DKI JAKARTA","ID_KABKOT":"31.73","KABKOT":"KOTA ADM. JAKARTA BARAT","ID_KEC":"31.73.06","KECAMATAN":"KALIDERES","ID_DESA":"31.73.06.1004","DESA":"KAMAL","LONGITUDE":106.7076395,"LATITUDE":-6.102955,"STATUS":"BUKA","TANGGAL PENGUMPULAN":"Q1 2024","TANGGAL UPDATE":"28/02/2025"}},{"type":"Feature","geometry":{"coordinates":[106.7935585,-6.1580516],"type":"Point"},"properties":{"NAMA":"PUSAT KESEHATAN MASYARAKAT (PUSKESMAS) KELURAHAN GROGOL 3","TIPE_1":"KESEHATAN DAN PENGOBATAN","TIPE_2":"LAYANAN MASYARAKAT","TIPE_3":"PUSKESMAS","TELEPON":"(021) 56968702","ALAMAT":"JALAN SEMERU 2 GROGOL PETAMBURAN JAKARTA BARAT, RT.8/RW.9, GROGOL, KEC. GROGOL PETAMBURAN, KOTA JAKARTA BARAT, DAERAH KHUSUS IBUKOTA JAKARTA 11450","ID_PROV":"31","PROVINSI":"DKI JAKARTA","ID_KABKOT":"31.73","KABKOT":"KOTA ADM. JAKARTA BARAT","ID_KEC":"31.73.02","KECAMATAN":"GROGOL PETAMBURAN","ID_DESA":"31.73.02.1001","DESA":"GROGOL","LONGITUDE":106.7935585,"LATITUDE":-6.1580516,"STATUS":"BUKA","TANGGAL PENGUMPULAN":"Q1 2024","TANGGAL UPDATE":"28/02/2025"}},{"type":"Feature","geometry":{"coordinates":[106.7956533,-6.160187],"type":"Point"},"properties":{"NAMA":"PUSKESMAS KELURAHAN GROGOL 1","TIPE_1":"KESEHATAN DAN PENGOBATAN","TIPE_2":"LAYANAN MASYARAKAT","TIPE_3":"PUSKESMAS","TELEPON":"(021) 56943089","ALAMAT":"JALAN DOKTER NURDIN I NO.35, RT.8/RW.7, GROGOL, KEC. GROGOL PETAMBURAN, KOTA JAKARTA BARAT, DAERAH KHUSUS IBUKOTA JAKARTA 11450","ID_PROV":"31","PROVINSI":"DKI JAKARTA","ID_KABKOT":"31.73","KABKOT":"KOTA ADM. JAKARTA BARAT","ID_KEC":"31.73.02","KECAMATAN":"GROGOL PETAMBURAN","ID_DESA":"31.73.02.1001","DESA":"GROGOL","LONGITUDE":106.7956533,"LATITUDE":-6.160187,"STATUS":"BUKA","TANGGAL PENGUMPULAN":"Q1 2024","TANGGAL UPDATE":"28/02/2025"}},{"type":"Feature","geometry":{"coordinates":[106.7033221,-6.1195161],"type":"Point"},"properties":{"NAMA":"KANTOR PUSKESMAS KECAMATAN KALIDERES","TIPE_1":"KESEHATAN DAN PENGOBATAN","TIPE_2":"LAYANAN MASYARAKAT","TIPE_3":"PUSKESMAS","TELEPON":"","ALAMAT":"JL. PERUMAHAN CITRA 5 C NO.10 9, RT.8/RW.10, PREPEDAN, KEC. KALIDERES, KOTA JAKARTA BARAT, DAERAH KHUSUS IBUKOTA JAKARTA 11820","ID_PROV":"31","PROVINSI":"DKI JAKARTA","ID_KABKOT":"31.73","KABKOT":"KOTA ADM. JAKARTA BARAT","ID_KEC":"31.73.06","KECAMATAN":"KALIDERES","ID_DESA":"31.73.06.1004","DESA":"KAMAL","LONGITUDE":106.7033221,"LATITUDE":-6.1195161,"STATUS":"BUKA","TANGGAL PENGUMPULAN":"Q1 2024","TANGGAL UPDATE":"28/02/2025"}},{"type":"Feature","geometry":{"coordinates":[106.797634,-6.1632779],"type":"Point"},"properties":{"NAMA":"PUSKESMAS KELURAHAN GROGOL 2","TIPE_1":"KESEHATAN DAN PENGOBATAN","TIPE_2":"LAYANAN MASYARAKAT","TIPE_3":"PUSKESMAS","TELEPON":"(021) 25561796","ALAMAT":"JL. RW. BAHAGIA RAYA NO.7, RT.7/RW.2, GROGOL, KEC. GROGOL PETAMBURAN, KOTA JAKARTA BARAT, DAERAH KHUSUS IBUKOTA JAKARTA 11450","ID_PROV":"31","PROVINSI":"DKI JAKARTA","ID_KABKOT":"31.73","KABKOT":"KOTA ADM. JAKARTA BARAT","ID_KEC":"31.73.02","KECAMATAN":"GROGOL PETAMBURAN","ID_DESA":"31.73.02.1001","DESA":"GROGOL","LONGITUDE":106.797634,"LATITUDE":-6.1632779,"STATUS":"BUKA","TANGGAL PENGUMPULAN":"Q1 2024","TANGGAL UPDATE":"28/02/2025"}},{"type":"Feature","geometry":{"coordinates":[106.8038849,-6.1769805],"type":"Point"},"properties":{"NAMA":"PUSKESMAS KELURAHAN JATIPULO I","TIPE_1":"KESEHATAN DAN PENGOBATAN","TIPE_2":"LAYANAN MASYARAKAT","TIPE_3":"PUSKESMAS","TELEPON":"(021) 56940307","ALAMAT":"13, RT.13/RW.3, JATIPULO, KEC. PALMERAH, KOTA JAKARTA BARAT, DAERAH KHUSUS IBUKOTA JAKARTA 11430","ID_PROV":"31","PROVINSI":"DKI JAKARTA","ID_KABKOT":"31.73","KABKOT":"KOTA ADM. JAKARTA BARAT","ID_KEC":"31.73.07","KECAMATAN":"PAL MERAH","ID_DESA":"31.73.07.1004","DESA":"JATIPULO","LONGITUDE":106.8038849,"LATITUDE":-6.1769805,"STATUS":"BUKA","TANGGAL PENGUMPULAN":"Q1 2024","TANGGAL UPDATE":"28/02/2025"}},{"type":"Feature","geometry":{"coordinates":[106.8231371,-6.1545074],"type":"Point"},"properties":{"NAMA":"PUSKESMAS KELURAHAN TAMAN SARI","TIPE_1":"KESEHATAN DAN PENGOBATAN","TIPE_2":"LAYANAN MASYARAKAT","TIPE_3":"PUSKESMAS","TELEPON":"(021) 6247319","ALAMAT":"JL. MANGGA BESAR NO. 4-P RT 011 RW 005 TAMAN SARI TAMAN SARI JAKARTA BARAT DKI JAKARTA, RT.11/RW.5, TAMAN SARI, KEC. TAMAN SARI, KOTA JAKARTA BARAT, DAERAH KHUSUS IBUKOTA JAKARTA 11150","ID_PROV":"31","PROVINSI":"DKI JAKARTA","ID_KABKOT":"31.73","KABKOT":"KOTA ADM. JAKARTA BARAT","ID_KEC":"31.73.03","KECAMATAN":"TAMAN SARI","ID_DESA":"31.73.03.1001","DESA":"TAMAN SARI","LONGITUDE":106.8231371,"LATITUDE":-6.1545074,"STATUS":"BUKA","TANGGAL PENGUMPULAN":"Q1 2024","TANGGAL UPDATE":"28/02/2025"}},{"type":"Feature","geometry":{"coordinates":[106.8006746,-6.1749425],"type":"Point"},"properties":{"NAMA":"PUSKESMAS KELURAHAN TOMANG","TIPE_1":"KESEHATAN DAN PENGOBATAN","TIPE_2":"LAYANAN MASYARAKAT","TIPE_3":"PUSKESMAS","TELEPON":"(021) 29119696","ALAMAT":"JL. PULO MACAN V NO.40, RT.14/RW.5, TOMANG, KEC. GROGOL PETAMBURAN, KOTA JAKARTA BARAT, DAERAH KHUSUS IBUKOTA JAKARTA 11440","ID_PROV":"31","PROVINSI":"DKI JAKARTA","ID_KABKOT":"31.73","KABKOT":"KOTA ADM. JAKARTA BARAT","ID_KEC":"31.73.02","KECAMATAN":"GROGOL PETAMBURAN","ID_DESA":"31.73.02.1003","DESA":"TOMANG","LONGITUDE":106.8006746,"LATITUDE":-6.1749425,"STATUS":"BUKA","TANGGAL PENGUMPULAN":"Q1 2024","TANGGAL UPDATE":"28/02/2025"}},{"type":"Feature","geometry":{"coordinates":[106.7236575,-6.1897906],"type":"Point"},"properties":{"NAMA":"PUSKESMAS KELURAHAN KEMBANGAN SELATAN","TIPE_1":"KESEHATAN DAN PENGOBATAN","TIPE_2":"LAYANAN MASYARAKAT","TIPE_3":"PUSKESMAS","TELEPON":"(021) 22580707","ALAMAT":"KEMBANGAN SEL., KEC. KEMBANGAN, KOTA JAKARTA BARAT, DAERAH KHUSUS IBUKOTA JAKARTA","ID_PROV":"31","PROVINSI":"DKI JAKARTA","ID_KABKOT":"31.73","KABKOT":"KOTA ADM. JAKARTA BARAT","ID_KEC":"31.73.08","KECAMATAN":"KEMBANGAN","ID_DESA":"31.73.08.1006","DESA":"KEMBANGAN SELATAN","LONGITUDE":106.7236575,"LATITUDE":-6.1897906,"STATUS":"BUKA","TANGGAL PENGUMPULAN":"Q1 2024","TANGGAL UPDATE":"28/02/2025"}},{"type":"Feature","geometry":{"coordinates":[106.7050033,-6.1593888],"type":"Point"},"properties":{"NAMA":"PUSKESMAS KELURAHAN SEMANAN I","TIPE_1":"KESEHATAN DAN PENGOBATAN","TIPE_2":"LAYANAN MASYARAKAT","TIPE_3":"PUSKESMAS","TELEPON":"","ALAMAT":"JL. SEMANAN RAYA NO.37, RT.6/RW.7, SEMANAN, KEC. KALIDERES, KOTA JAKARTA BARAT, DAERAH KHUSUS IBUKOTA JAKARTA 11850","ID_PROV":"31","PROVINSI":"DKI JAKARTA","ID_KABKOT":"31.73","KABKOT":"KOTA ADM. JAKARTA BARAT","ID_KEC":"31.73.06","KECAMATAN":"KALIDERES","ID_DESA":"31.73.06.1002","DESA":"SEMANAN","LONGITUDE":106.7050033,"LATITUDE":-6.1593888,"STATUS":"BUKA","TANGGAL PENGUMPULAN":"Q1 2024","TANGGAL UPDATE":"28/02/2025"}},{"type":"Feature","geometry":{"coordinates":[106.7913959,-6.2015693],"type":"Point"},"properties":{"NAMA":"PUSKESMAS","TIPE_1":"KESEHATAN DAN PENGOBATAN","TIPE_2":"LAYANAN MASYARAKAT","TIPE_3":"PUSKESMAS","TELEPON":"(021) 5347484","ALAMAT":"JL. KEMANGGISAN PULO NO.8, RT.3/RW.17, PALMERAH, WEST JAKARTA CITY, JAKARTA 11480","ID_PROV":"31","PROVINSI":"DKI JAKARTA","ID_KABKOT":"31.73","KABKOT":"KOTA ADM. JAKARTA BARAT","ID_KEC":"31.73.07","KECAMATAN":"PAL MERAH","ID_DESA":"31.73.07.1001","DESA":"PALMERAH","LONGITUDE":106.7913959,"LATITUDE":-6.2015693,"STATUS":"BUKA","TANGGAL PENGUMPULAN":"Q1 2024","TANGGAL UPDATE":"28/02/2025"}},{"type":"Feature","geometry":{"coordinates":[106.7260847,-6.1325212],"type":"Point"},"properties":{"NAMA":"PUSKESMAS CENGKARENG BARAT 1","TIPE_1":"KESEHATAN DAN PENGOBATAN","TIPE_2":"LAYANAN MASYARAKAT","TIPE_3":"PUSKESMAS","TELEPON":"(021) 55960714","ALAMAT":"JL. FLAMBOYAN NO.77, RT.10/RW.8, CENGKARENG BAR., KECAMATAN CENGKARENG, KOTA JAKARTA BARAT, DAERAH KHUSUS IBUKOTA JAKARTA 11730","ID_PROV":"31","PROVINSI":"DKI JAKARTA","ID_KABKOT":"31.73","KABKOT":"KOTA ADM. JAKARTA BARAT","ID_KEC":"31.73.01","KECAMATAN":"CENGKARENG","ID_DESA":"31.73.01.1001","DESA":"CENGKARENG BARAT","LONGITUDE":106.7260847,"LATITUDE":-6.1325212,"STATUS":"BUKA","TANGGAL PENGUMPULAN":"Q1 2024","TANGGAL UPDATE":"28/02/2025"}},{"type":"Feature","geometry":{"coordinates":[106.7798706,-6.1907],"type":"Point"},"properties":{"NAMA":"PUSKESMAS","TIPE_1":"KESEHATAN DAN PENGOBATAN","TIPE_2":"LAYANAN MASYARAKAT","TIPE_3":"PUSKESMAS","TELEPON":"","ALAMAT":"JL. KARMEL I NO.2 11, RT.11/RW.4, KB. JERUK, KEC. KB. JERUK, KOTA JAKARTA BARAT, DAERAH KHUSUS IBUKOTA JAKARTA 11530","ID_PROV":"31","PROVINSI":"DKI JAKARTA","ID_KABKOT":"31.73","KABKOT":"KOTA ADM. JAKARTA BARAT","ID_KEC":"31.73.05","KECAMATAN":"KEBON JERUK","ID_DESA":"31.73.05.1001","DESA":"KEBON JERUK","LONGITUDE":106.7798706,"LATITUDE":-6.1907,"STATUS":"BUKA","TANGGAL PENGUMPULAN":"Q1 2024","TANGGAL UPDATE":"28/02/2025"}},{"type":"Feature","geometry":{"coordinates":[106.776795,-6.1497088],"type":"Point"},"properties":{"NAMA":"PUSKESMAS KECAMATAN GROGOL PETAMBURAN","TIPE_1":"KESEHATAN DAN PENGOBATAN","TIPE_2":"LAYANAN MASYARAKAT","TIPE_3":"PUSKESMAS","TELEPON":"(021) 5648379","ALAMAT":"JL. WIJAYA 1 (TAMAN DUTA MAS) JL. WIJAYA III NO.14, RT.14/RW.9, WIJAYA KUSUMA, KEC. GROGOL PETAMBURAN, KOTA JAKARTA BARAT, DAERAH KHUSUS IBUKOTA JAKARTA 11460","ID_PROV":"31","PROVINSI":"DKI JAKARTA","ID_KABKOT":"31.73","KABKOT":"KOTA ADM. JAKARTA BARAT","ID_KEC":"31.73.02","KECAMATAN":"GROGOL PETAMBURAN","ID_DESA":"31.73.02.1007","DESA":"WIJAYA KUSUMA","LONGITUDE":106.776795,"LATITUDE":-6.1497088,"STATUS":"BUKA","TANGGAL PENGUMPULAN":"Q1 2024","TANGGAL UPDATE":"28/02/2025"}},{"type":"Feature","geometry":{"coordinates":[106.696562,-6.129865],"type":"Point"},"properties":{"NAMA":"PUSKESMAS KECAMATAN KALIDERES","TIPE_1":"KESEHATAN DAN PENGOBATAN","TIPE_2":"LAYANAN MASYARAKAT","TIPE_3":"PUSKESMAS","TELEPON":"(021) 54313154","ALAMAT":"JL. TANJUNG PURA II NO.14, RT.6/RW.5, PEGADUNGAN, KEC. KALIDERES, KOTA JAKARTA BARAT, DAERAH KHUSUS IBUKOTA JAKARTA 11830","ID_PROV":"31","PROVINSI":"DKI JAKARTA","ID_KABKOT":"31.73","KABKOT":"KOTA ADM. JAKARTA BARAT","ID_KEC":"31.73.06","KECAMATAN":"KALIDERES","ID_DESA":"31.73.06.1005","DESA":"PEGADUNGAN","LONGITUDE":106.696562,"LATITUDE":-6.129865,"STATUS":"BUKA","TANGGAL PENGUMPULAN":"Q1 2024","TANGGAL UPDATE":"28/02/2025"}},{"type":"Feature","geometry":{"coordinates":[106.7284863,-6.1444954],"type":"Point"},"properties":{"NAMA":"PUSKESMAS CENGKARENG","TIPE_1":"KESEHATAN DAN PENGOBATAN","TIPE_2":"LAYANAN MASYARAKAT","TIPE_3":"PUSKESMAS","TELEPON":"(021) 29038148","ALAMAT":"JL. KAMAL RAYA NO.2, CENGKARENG BAR., KECAMATAN CENGKARENG, KOTA JAKARTA BARAT, DAERAH KHUSUS IBUKOTA JAKARTA 11730","ID_PROV":"31","PROVINSI":"DKI JAKARTA","ID_KABKOT":"31.73","KABKOT":"KOTA ADM. JAKARTA BARAT","ID_KEC":"31.73.01","KECAMATAN":"CENGKARENG","ID_DESA":"31.73.01.1001","DESA":"CENGKARENG BARAT","LONGITUDE":106.7284863,"LATITUDE":-6.1444954,"STATUS":"BUKA","TANGGAL PENGUMPULAN":"Q1 2024","TANGGAL UPDATE":"28/02/2025"}},{"type":"Feature","geometry":{"coordinates":[106.7416704,-6.1817557],"type":"Point"},"properties":{"NAMA":"PUSKESMAS KEMBANGAN","TIPE_1":"KESEHATAN DAN PENGOBATAN","TIPE_2":"LAYANAN MASYARAKAT","TIPE_3":"PUSKESMAS","TELEPON":"(021) 22585720","ALAMAT":"JL. KEMBANGAN RAYA NO.52, RT.1/RW.3, KEMBANGAN UTARA, KEC. KEMBANGAN, KOTA JAKARTA BARAT, DAERAH KHUSUS IBUKOTA JAKARTA 11610","ID_PROV":"31","PROVINSI":"DKI JAKARTA","ID_KABKOT":"31.73","KABKOT":"KOTA ADM. JAKARTA BARAT","ID_KEC":"31.73.08","KECAMATAN":"KEMBANGAN","ID_DESA":"31.73.08.1001","DESA":"KEMBANGAN UTARA","LONGITUDE":106.7416704,"LATITUDE":-6.1817557,"STATUS":"BUKA","TANGGAL PENGUMPULAN":"Q1 2024","TANGGAL UPDATE":"28/02/2025"}},{"type":"Feature","geometry":{"coordinates":[106.8174476,-6.1450987],"type":"Point"},"properties":{"NAMA":"PUSKESMAS TAMAN SARI","TIPE_1":"KESEHATAN DAN PENGOBATAN","TIPE_2":"LAYANAN MASYARAKAT","TIPE_3":"PUSKESMAS","TELEPON":"(021) 22621354","ALAMAT":"JL. BLUSTRU NO.01, RT.1/RW.6, MANGGA BESAR, KEC. TAMAN SARI, KOTA JAKARTA BARAT, DAERAH KHUSUS IBUKOTA JAKARTA 11180","ID_PROV":"31","PROVINSI":"DKI JAKARTA","ID_KABKOT":"31.73","KABKOT":"KOTA ADM. JAKARTA BARAT","ID_KEC":"31.73.03","KECAMATAN":"TAMAN SARI","ID_DESA":"31.73.03.1005","DESA":"MANGGA BESAR","LONGITUDE":106.8174476,"LATITUDE":-6.1450987,"STATUS":"BUKA","TANGGAL PENGUMPULAN":"Q1 2024","TANGGAL UPDATE":"28/02/2025"}},{"type":"Feature","geometry":{"coordinates":[106.7652618,-6.1989053],"type":"Point"},"properties":{"NAMA":"PUSKESMAS KEC. KEBON JERUK","TIPE_1":"KESEHATAN DAN PENGOBATAN","TIPE_2":"LAYANAN MASYARAKAT","TIPE_3":"PUSKESMAS","TELEPON":"(021) 5309838","ALAMAT":"JL. RAYA KB. JERUK NO.2 9, RT.9/RW.1, KB. JERUK, KEC. KB. JERUK, KOTA JAKARTA BARAT, DAERAH KHUSUS IBUKOTA JAKARTA 11510","ID_PROV":"31","PROVINSI":"DKI JAKARTA","ID_KABKOT":"31.73","KABKOT":"KOTA ADM. JAKARTA BARAT","ID_KEC":"31.73.05","KECAMATAN":"KEBON JERUK","ID_DESA":"31.73.05.1001","DESA":"KEBON JERUK","LONGITUDE":106.7652618,"LATITUDE":-6.1989053,"STATUS":"BUKA","TANGGAL PENGUMPULAN":"Q1 2024","TANGGAL UPDATE":"28/02/2025"}},{"type":"Feature","geometry":{"coordinates":[106.7888963,-6.2080889],"type":"Point"},"properties":{"NAMA":"PUSKESMAS KECAMATAN PALMERAH","TIPE_1":"KESEHATAN DAN PENGOBATAN","TIPE_2":"LAYANAN MASYARAKAT","TIPE_3":"PUSKESMAS","TELEPON":"(021) 5483693","ALAMAT":"JL. PALMERAH BARAT NO.120, RT.6/RW.14, PALMERAH, KEC. PALMERAH, KOTA JAKARTA BARAT, DAERAH KHUSUS IBUKOTA JAKARTA 11480","ID_PROV":"31","PROVINSI":"DKI JAKARTA","ID_KABKOT":"31.73","KABKOT":"KOTA ADM. JAKARTA BARAT","ID_KEC":"31.73.07","KECAMATAN":"PAL MERAH","ID_DESA":"31.73.07.1001","DESA":"PALMERAH","LONGITUDE":106.7888963,"LATITUDE":-6.2080889,"STATUS":"BUKA","TANGGAL PENGUMPULAN":"Q1 2024","TANGGAL UPDATE":"28/02/2025"}},{"type":"Feature","geometry":{"coordinates":[106.7755446,-6.1805752],"type":"Point"},"properties":{"NAMA":"PUSKESMAS DURI KEPA","TIPE_1":"KESEHATAN DAN PENGOBATAN","TIPE_2":"LAYANAN MASYARAKAT","TIPE_3":"PUSKESMAS","TELEPON":"(021) 56944087","ALAMAT":"JL. ANGSANA RAYA NO.1, RT.15/RW.7, DURI KEPA, KEC. KB. JERUK, KOTA JAKARTA BARAT, DAERAH KHUSUS IBUKOTA JAKARTA 11720","ID_PROV":"31","PROVINSI":"DKI JAKARTA","ID_KABKOT":"31.73","KABKOT":"KOTA ADM. JAKARTA BARAT","ID_KEC":"31.73.05","KECAMATAN":"KEBON JERUK","ID_DESA":"31.73.05.1005","DESA":"DURI KEPA","LONGITUDE":106.7755446,"LATITUDE":-6.1805752,"STATUS":"BUKA","TANGGAL PENGUMPULAN":"Q1 2024","TANGGAL UPDATE":"28/02/2025"}},{"type":"Feature","geometry":{"coordinates":[106.7798367,-6.1510135],"type":"Point"},"properties":{"NAMA":"PUSKESMAS 24JAM. KECAMATAN GROGOL PETAMBURAN","TIPE_1":"KESEHATAN DAN PENGOBATAN","TIPE_2":"LAYANAN MASYARAKAT","TIPE_3":"PUSKESMAS","TELEPON":"0812-1159-4441","ALAMAT":"RW.9, WIJAYA KUSUMA, KEC. GROGOL PETAMBURAN, KOTA JAKARTA BARAT, DAERAH KHUSUS IBUKOTA JAKARTA 11460","ID_PROV":"31","PROVINSI":"DKI JAKARTA","ID_KABKOT":"31.73","KABKOT":"KOTA ADM. JAKARTA BARAT","ID_KEC":"31.73.02","KECAMATAN":"GROGOL PETAMBURAN","ID_DESA":"31.73.02.1007","DESA":"WIJAYA KUSUMA","LONGITUDE":106.7798367,"LATITUDE":-6.1510135,"STATUS":"BUKA","TANGGAL PENGUMPULAN":"Q1 2024","TANGGAL UPDATE":"28/02/2025"}},{"type":"Feature","geometry":{"coordinates":[106.8130193,-6.154048],"type":"Point"},"properties":{"NAMA":"PUSKESMAS KEAGUNGAN","TIPE_1":"KESEHATAN DAN PENGOBATAN","TIPE_2":"LAYANAN MASYARAKAT","TIPE_3":"PUSKESMAS","TELEPON":"(021) 6313624","ALAMAT":"JALAN KEBON SAYUR I NO.6 12, RT.8/RW.9, KEAGUNGAN, KEC. TAMAN SARI, KOTA JAKARTA BARAT, DAERAH KHUSUS IBUKOTA JAKARTA 11130","ID_PROV":"31","PROVINSI":"DKI JAKARTA","ID_KABKOT":"31.73","KABKOT":"KOTA ADM. JAKARTA BARAT","ID_KEC":"31.73.03","KECAMATAN":"TAMAN SARI","ID_DESA":"31.73.03.1006","DESA":"KEAGUNGAN","LONGITUDE":106.8130193,"LATITUDE":-6.154048,"STATUS":"BUKA","TANGGAL PENGUMPULAN":"Q1 2024","TANGGAL UPDATE":"28/02/2025"}},{"type":"Feature","geometry":{"coordinates":[106.8196296,-6.1561484],"type":"Point"},"properties":{"NAMA":"PUSKESMAS KELURAHAN MAPHAR","TIPE_1":"KESEHATAN DAN PENGOBATAN","TIPE_2":"LAYANAN MASYARAKAT","TIPE_3":"PUSKESMAS","TELEPON":"(021) 6592603","ALAMAT":"JL. KB. JERUK X NO.23, RT.7/RW.5, MAPHAR, KEC. TAMAN SARI, KOTA JAKARTA BARAT, DAERAH KHUSUS IBUKOTA JAKARTA 11160","ID_PROV":"31","PROVINSI":"DKI JAKARTA","ID_KABKOT":"31.73","KABKOT":"KOTA ADM. JAKARTA BARAT","ID_KEC":"31.73.03","KECAMATAN":"TAMAN SARI","ID_DESA":"31.73.03.1003","DESA":"MAPHAR","LONGITUDE":106.8196296,"LATITUDE":-6.1561484,"STATUS":"BUKA","TANGGAL PENGUMPULAN":"Q1 2024","TANGGAL UPDATE":"28/02/2025"}},{"type":"Feature","geometry":{"coordinates":[106.747397,-6.1636273],"type":"Point"},"properties":{"NAMA":"PUSKESMAS KELURAHAN CENGKARENG BARAT I","TIPE_1":"KESEHATAN DAN PENGOBATAN","TIPE_2":"LAYANAN MASYARAKAT","TIPE_3":"PUSKESMAS","TELEPON":"(021) 55960714","ALAMAT":"JL. FLAMBOYAN NO.10, RT.8/RW.8, RW. BUAYA, KECAMATAN CENGKARENG, KOTA JAKARTA BARAT, DAERAH KHUSUS IBUKOTA JAKARTA 11740","ID_PROV":"31","PROVINSI":"DKI JAKARTA","ID_KABKOT":"31.73","KABKOT":"KOTA ADM. JAKARTA BARAT","ID_KEC":"31.73.01","KECAMATAN":"CENGKARENG","ID_DESA":"31.73.01.1003","DESA":"RAWA BUAYA","LONGITUDE":106.747397,"LATITUDE":-6.1636273,"STATUS":"BUKA","TANGGAL PENGUMPULAN":"Q1 2024","TANGGAL UPDATE":"28/02/2025"}},{"type":"Feature","geometry":{"coordinates":[106.8153273,-6.1339776],"type":"Point"},"properties":{"NAMA":"PUSKESMAS KELURAHAN PINANGSIA","TIPE_1":"KESEHATAN DAN PENGOBATAN","TIPE_2":"LAYANAN MASYARAKAT","TIPE_3":"PUSKESMAS","TELEPON":"","ALAMAT":"BLOK C NO.,, JL. KEMUKUS NO.12, RT.9/RW.7, PINANGSIA, KEC. TAMAN SARI, KOTA JAKARTA BARAT, DAERAH KHUSUS IBUKOTA JAKARTA 11110","ID_PROV":"31","PROVINSI":"DKI JAKARTA","ID_KABKOT":"31.73","KABKOT":"KOTA ADM. JAKARTA BARAT","ID_KEC":"31.73.03","KECAMATAN":"TAMAN SARI","ID_DESA":"31.73.03.1008","DESA":"PINANGSIA","LONGITUDE":106.8153273,"LATITUDE":-6.1339776,"STATUS":"BUKA","TANGGAL PENGUMPULAN":"Q1 2024","TANGGAL UPDATE":"28/02/2025"}},{"type":"Feature","geometry":{"coordinates":[106.8024121,-6.1927371],"type":"Point"},"properties":{"NAMA":"PUSKESMAS KELURAHAN SLIPI I","TIPE_1":"KESEHATAN DAN PENGOBATAN","TIPE_2":"LAYANAN MASYARAKAT","TIPE_3":"PUSKESMAS","TELEPON":"(021) 5323118","ALAMAT":"13, RT.13/RW.1, SLIPI, KEC. PALMERAH, KOTA JAKARTA BARAT, DAERAH KHUSUS IBUKOTA JAKARTA 11410","ID_PROV":"31","PROVINSI":"DKI JAKARTA","ID_KABKOT":"31.73","KABKOT":"KOTA ADM. JAKARTA BARAT","ID_KEC":"31.73.07","KECAMATAN":"PAL MERAH","ID_DESA":"31.73.07.1002","DESA":"SLIPI","LONGITUDE":106.8024121,"LATITUDE":-6.1927371,"STATUS":"BUKA","TANGGAL PENGUMPULAN":"Q1 2024","TANGGAL UPDATE":"28/02/2025"}},{"type":"Feature","geometry":{"coordinates":[106.8083137,-6.1798411],"type":"Point"},"properties":{"NAMA":"PUSKESMAS KELURAHAN JATIPULO II","TIPE_1":"KESEHATAN DAN PENGOBATAN","TIPE_2":"LAYANAN MASYARAKAT","TIPE_3":"PUSKESMAS","TELEPON":"(021) 56940316","ALAMAT":"JL. SEMANGKA II NO.5, RT.6/RW.7, JATIPULO, KEC. PALMERAH, KOTA JAKARTA BARAT, DAERAH KHUSUS IBUKOTA JAKARTA 11430","ID_PROV":"31","PROVINSI":"DKI JAKARTA","ID_KABKOT":"31.73","KABKOT":"KOTA ADM. JAKARTA BARAT","ID_KEC":"31.73.07","KECAMATAN":"PAL MERAH","ID_DESA":"31.73.07.1004","DESA":"JATIPULO","LONGITUDE":106.8083137,"LATITUDE":-6.1798411,"STATUS":"BUKA","TANGGAL PENGUMPULAN":"Q1 2024","TANGGAL UPDATE":"28/02/2025"}},{"type":"Feature","geometry":{"coordinates":[106.6971384,-6.141158],"type":"Point"},"properties":{"NAMA":"PUSKESMAS PEGADUNGAN III","TIPE_1":"KESEHATAN DAN PENGOBATAN","TIPE_2":"LAYANAN MASYARAKAT","TIPE_3":"PUSKESMAS","TELEPON":"(021) 5443023","ALAMAT":"JL. KUMBANG RAYA NO.45, RT.2/RW.1, PEGADUNGAN, KEC. KALIDERES, KOTA JAKARTA BARAT, DAERAH KHUSUS IBUKOTA JAKARTA 11830","ID_PROV":"31","PROVINSI":"DKI JAKARTA","ID_KABKOT":"31.73","KABKOT":"KOTA ADM. JAKARTA BARAT","ID_KEC":"31.73.06","KECAMATAN":"KALIDERES","ID_DESA":"31.73.06.1005","DESA":"PEGADUNGAN","LONGITUDE":106.6971384,"LATITUDE":-6.141158,"STATUS":"BUKA","TANGGAL PENGUMPULAN":"Q1 2024","TANGGAL UPDATE":"28/02/2025"}},{"type":"Feature","geometry":{"coordinates":[106.8059482,-6.1527349],"type":"Point"},"properties":{"NAMA":"PUSKESMAS KELURAHAN DURI UTARA","TIPE_1":"KESEHATAN DAN PENGOBATAN","TIPE_2":"LAYANAN MASYARAKAT","TIPE_3":"PUSKESMAS","TELEPON":"(021) 6301972","ALAMAT":"JL. DURI UTARA II NO.23 12, RT.12/RW.1, DURI UTARA, KEC. TAMBORA, KOTA JAKARTA BARAT, DAERAH KHUSUS IBUKOTA JAKARTA 11270","ID_PROV":"31","PROVINSI":"DKI JAKARTA","ID_KABKOT":"31.73","KABKOT":"KOTA ADM. JAKARTA BARAT","ID_KEC":"31.73.04","KECAMATAN":"TAMBORA","ID_DESA":"31.73.04.1003","DESA":"DURI UTARA","LONGITUDE":106.8059482,"LATITUDE":-6.1527349,"STATUS":"BUKA","TANGGAL PENGUMPULAN":"Q1 2024","TANGGAL UPDATE":"28/02/2025"}},{"type":"Feature","geometry":{"coordinates":[106.7789896,-6.1902743],"type":"Point"},"properties":{"NAMA":"PUSKESMAS PEMBANTU KEBON JERUK","TIPE_1":"KESEHATAN DAN PENGOBATAN","TIPE_2":"LAYANAN MASYARAKAT","TIPE_3":"PUSKESMAS","TELEPON":"(021) 53679240","ALAMAT":"JL. KARMEL RAYA NO.2, RT.2/RW.4, KB. JERUK, KEC. KB. JERUK, KOTA JAKARTA BARAT, DAERAH KHUSUS IBUKOTA JAKARTA 11530","ID_PROV":"31","PROVINSI":"DKI JAKARTA","ID_KABKOT":"31.73","KABKOT":"KOTA ADM. JAKARTA BARAT","ID_KEC":"31.73.05","KECAMATAN":"KEBON JERUK","ID_DESA":"31.73.05.1001","DESA":"KEBON JERUK","LONGITUDE":106.7789896,"LATITUDE":-6.1902743,"STATUS":"BUKA","TANGGAL PENGUMPULAN":"Q1 2024","TANGGAL UPDATE":"28/02/2025"}},{"type":"Feature","geometry":{"coordinates":[106.8119437,-6.1549333],"type":"Point"},"properties":{"NAMA":"PUSKESMAS KELURAHAN KRUKUT II","TIPE_1":"KESEHATAN DAN PENGOBATAN","TIPE_2":"LAYANAN MASYARAKAT","TIPE_3":"PUSKESMAS","TELEPON":"(021) 6319817","ALAMAT":"JL. KRUKUT LIO NO.RT.02/03, RT.3/RW.2, KRUKUT, KEC. TAMAN SARI, KOTA JAKARTA BARAT, DAERAH KHUSUS IBUKOTA JAKARTA 11140","ID_PROV":"31","PROVINSI":"DKI JAKARTA","ID_KABKOT":"31.73","KABKOT":"KOTA ADM. JAKARTA BARAT","ID_KEC":"31.73.03","KECAMATAN":"TAMAN SARI","ID_DESA":"31.73.03.1002","DESA":"KRUKUT","LONGITUDE":106.8119437,"LATITUDE":-6.1549333,"STATUS":"BUKA","TANGGAL PENGUMPULAN":"Q1 2024","TANGGAL UPDATE":"28/02/2025"}},{"type":"Feature","geometry":{"coordinates":[106.7040987,-6.1539661],"type":"Point"},"properties":{"NAMA":"PUSKESMAS KELURAHAN KALIDERES","TIPE_1":"KESEHATAN DAN PENGOBATAN","TIPE_2":"LAYANAN MASYARAKAT","TIPE_3":"PUSKESMAS","TELEPON":"(021) 54390576","ALAMAT":"JL. KELURAHAN LAMA NO.7 8, RT.8/RW.1, KALIDERES, KEC. KALIDERES, KOTA JAKARTA BARAT, DAERAH KHUSUS IBUKOTA JAKARTA 11840","ID_PROV":"31","PROVINSI":"DKI JAKARTA","ID_KABKOT":"31.73","KABKOT":"KOTA ADM. JAKARTA BARAT","ID_KEC":"31.73.06","KECAMATAN":"KALIDERES","ID_DESA":"31.73.06.1001","DESA":"KALIDERES","LONGITUDE":106.7040987,"LATITUDE":-6.1539661,"STATUS":"BUKA","TANGGAL PENGUMPULAN":"Q1 2024","TANGGAL UPDATE":"28/02/2025"}},{"type":"Feature","geometry":{"coordinates":[106.7570593,-6.2037127],"type":"Point"},"properties":{"NAMA":"PUSKESMAS KELURAHAN SRENGSENG","TIPE_1":"KESEHATAN DAN PENGOBATAN","TIPE_2":"LAYANAN MASYARAKAT","TIPE_3":"PUSKESMAS","TELEPON":"(021) 22540298","ALAMAT":"JL. SRENGSENG RAYA NO.2A, SRENGSENG, KEC. KEMBANGAN, KOTA JAKARTA BARAT, DAERAH KHUSUS IBUKOTA JAKARTA 11630","ID_PROV":"31","PROVINSI":"DKI JAKARTA","ID_KABKOT":"31.73","KABKOT":"KOTA ADM. JAKARTA BARAT","ID_KEC":"31.73.08","KECAMATAN":"KEMBANGAN","ID_DESA":"31.73.08.1004","DESA":"SRENGSENG","LONGITUDE":106.7570593,"LATITUDE":-6.2037127,"STATUS":"BUKA","TANGGAL PENGUMPULAN":"Q1 2024","TANGGAL UPDATE":"28/02/2025"}},{"type":"Feature","geometry":{"coordinates":[106.7038605,-6.13193],"type":"Point"},"properties":{"NAMA":"PUSKESMAS KELURAHAN PEGADUNGAN 1","TIPE_1":"KESEHATAN DAN PENGOBATAN","TIPE_2":"LAYANAN MASYARAKAT","TIPE_3":"PUSKESMAS","TELEPON":"0821-1004-0231","ALAMAT":"","ID_PROV":"31","PROVINSI":"DKI JAKARTA","ID_KABKOT":"31.73","KABKOT":"KOTA ADM. JAKARTA BARAT","ID_KEC":"31.73.06","KECAMATAN":"KALIDERES","ID_DESA":"31.73.06.1005","DESA":"PEGADUNGAN","LONGITUDE":106.7038605,"LATITUDE":-6.13193,"STATUS":"BUKA","TANGGAL PENGUMPULAN":"Q1 2024","TANGGAL UPDATE":"28/02/2025"}}]}