{"type":"FeatureCollection","features":[{"type":"Feature","geometry":{"coordinates":[106.862408,-6.213832],"type":"Point"},"properties":{"NAMA":"PUSKESMAS KECAMATAN JATINEGARA","TIPE_1":"KESEHATAN DAN PENGOBATAN","TIPE_2":"LAYANAN MASYARAKAT","TIPE_3":"PUSKESMAS","TELEPON":"(021) 8195146","ALAMAT":"3, JL. MATRAMAN RAYA NO.220, RT.3/RW.6, BALI MESTER, KECAMATAN JATINEGARA, KOTA JAKARTA TIMUR, DAERAH KHUSUS IBUKOTA JAKARTA 13310","ID_PROV":"31","PROVINSI":"DKI JAKARTA","ID_KABKOT":"31.75","KABKOT":"KOTA ADM. JAKARTA TIMUR","ID_KEC":"31.75.03","KECAMATAN":"JATINEGARA","ID_DESA":"31.75.03.1003","DESA":"BALI MESTER","LONGITUDE":106.862408,"LATITUDE":-6.213832,"STATUS":"BUKA","TANGGAL PENGUMPULAN":"Q1 2024","TANGGAL UPDATE":"28/02/2025"}},{"type":"Feature","geometry":{"coordinates":[106.8719698,-6.2778645],"type":"Point"},"properties":{"NAMA":"PUSKESMAS KECAMATAN KRAMAT JATI","TIPE_1":"KESEHATAN DAN PENGOBATAN","TIPE_2":"LAYANAN MASYARAKAT","TIPE_3":"PUSKESMAS","TELEPON":"","ALAMAT":"JL. KERJA BAKTI NO.1 2, RT.2/RW.10, KRAMAT JATI, KEC. KRAMAT JATI, KOTA JAKARTA TIMUR, DAERAH KHUSUS IBUKOTA JAKARTA 13510","ID_PROV":"31","PROVINSI":"DKI JAKARTA","ID_KABKOT":"31.75","KABKOT":"KOTA ADM. JAKARTA TIMUR","ID_KEC":"31.75.04","KECAMATAN":"KRAMATJATI","ID_DESA":"31.75.04.1001","DESA":"KRAMATJATI","LONGITUDE":106.8719698,"LATITUDE":-6.2778645,"STATUS":"BUKA","TANGGAL PENGUMPULAN":"Q1 2024","TANGGAL UPDATE":"28/02/2025"}},{"type":"Feature","geometry":{"coordinates":[106.8621253,-6.2140762],"type":"Point"},"properties":{"NAMA":"PUSKESMAS PEMBINA","TIPE_1":"KESEHATAN DAN PENGOBATAN","TIPE_2":"LAYANAN MASYARAKAT","TIPE_3":"PUSKESMAS","TELEPON":"(021) 8191986","ALAMAT":"JL. MATRAMAN RAYA, RT.3/RW.6, BALI MESTER, KECAMATAN JATINEGARA, KOTA JAKARTA TIMUR, DAERAH KHUSUS IBUKOTA JAKARTA 13140","ID_PROV":"31","PROVINSI":"DKI JAKARTA","ID_KABKOT":"31.75","KABKOT":"KOTA ADM. JAKARTA TIMUR","ID_KEC":"31.75.03","KECAMATAN":"JATINEGARA","ID_DESA":"31.75.03.1003","DESA":"BALI MESTER","LONGITUDE":106.8621253,"LATITUDE":-6.2140762,"STATUS":"BUKA","TANGGAL PENGUMPULAN":"Q1 2024","TANGGAL UPDATE":"28/02/2025"}},{"type":"Feature","geometry":{"coordinates":[106.8723014,-6.2142729],"type":"Point"},"properties":{"NAMA":"PUSKESMAS KECAMATAN MATRAMAN","TIPE_1":"KESEHATAN DAN PENGOBATAN","TIPE_2":"LAYANAN MASYARAKAT","TIPE_3":"PUSKESMAS","TELEPON":"(021) 21011622","ALAMAT":"JL. PISANGAN BARU TIMUR NO.2A, RT.4/RW.9, PISANGAN BARU, KEC. MATRAMAN, KOTA JAKARTA TIMUR, DAERAH KHUSUS IBUKOTA JAKARTA 13110","ID_PROV":"31","PROVINSI":"DKI JAKARTA","ID_KABKOT":"31.75","KABKOT":"KOTA ADM. JAKARTA TIMUR","ID_KEC":"31.75.01","KECAMATAN":"MATRAMAN","ID_DESA":"31.75.01.1001","DESA":"PISANGAN BARU","LONGITUDE":106.8723014,"LATITUDE":-6.2142729,"STATUS":"BUKA","TANGGAL PENGUMPULAN":"Q1 2024","TANGGAL UPDATE":"28/02/2025"}},{"type":"Feature","geometry":{"coordinates":[106.8782558,-6.2823319],"type":"Point"},"properties":{"NAMA":"PUSKESMAS KECAMATAN MAKASAR","TIPE_1":"KESEHATAN DAN PENGOBATAN","TIPE_2":"LAYANAN MASYARAKAT","TIPE_3":"PUSKESMAS","TELEPON":"(021) 8003308","ALAMAT":"JL. PUSDIKLAT DEPNAKER NO.4, RT.8/RW.6, MAKASAR, KEC. MAKASAR, KOTA JAKARTA TIMUR, DAERAH KHUSUS IBUKOTA JAKARTA 13570","ID_PROV":"31","PROVINSI":"DKI JAKARTA","ID_KABKOT":"31.75","KABKOT":"KOTA ADM. JAKARTA TIMUR","ID_KEC":"31.75.08","KECAMATAN":"MAKASAR","ID_DESA":"31.75.08.1001","DESA":"MAKASAR","LONGITUDE":106.8782558,"LATITUDE":-6.2823319,"STATUS":"BUKA","TANGGAL PENGUMPULAN":"Q1 2024","TANGGAL UPDATE":"28/02/2025"}},{"type":"Feature","geometry":{"coordinates":[106.8955756,-6.1861348],"type":"Point"},"properties":{"NAMA":"PUSKESMAS KECAMATAN PULO GADUNG","TIPE_1":"KESEHATAN DAN PENGOBATAN","TIPE_2":"LAYANAN MASYARAKAT","TIPE_3":"PUSKESMAS","TELEPON":"(021) 4890519","ALAMAT":"KAYU PUTIH SELATAN III NO.2B, RT.8/RW.5, PULO GADUNG, KEC. PULO GADUNG, KOTA JAKARTA TIMUR, DAERAH KHUSUS IBUKOTA JAKARTA 13260","ID_PROV":"31","PROVINSI":"DKI JAKARTA","ID_KABKOT":"31.75","KABKOT":"KOTA ADM. JAKARTA TIMUR","ID_KEC":"31.75.02","KECAMATAN":"PULOGADUNG","ID_DESA":"31.75.02.1001","DESA":"PULO GADUNG","LONGITUDE":106.8955756,"LATITUDE":-6.1861348,"STATUS":"BUKA","TANGGAL PENGUMPULAN":"Q1 2024","TANGGAL UPDATE":"28/02/2025"}},{"type":"Feature","geometry":{"coordinates":[106.8995429,-6.3246339],"type":"Point"},"properties":{"NAMA":"PUSKESMAS KECAMATAN CIPAYUNG","TIPE_1":"KESEHATAN DAN PENGOBATAN","TIPE_2":"LAYANAN MASYARAKAT","TIPE_3":"PUSKESMAS","TELEPON":"(021) 84594940","ALAMAT":"JL. BAMBU HITAM NO.104 10, RT.4/RW.4, CIPAYUNG, KEC. CIPAYUNG, KOTA JAKARTA TIMUR, DAERAH KHUSUS IBUKOTA JAKARTA 13840","ID_PROV":"31","PROVINSI":"DKI JAKARTA","ID_KABKOT":"31.75","KABKOT":"KOTA ADM. JAKARTA TIMUR","ID_KEC":"31.75.10","KECAMATAN":"CIPAYUNG","ID_DESA":"31.75.10.1001","DESA":"CIPAYUNG","LONGITUDE":106.8995429,"LATITUDE":-6.3246339,"STATUS":"BUKA","TANGGAL PENGUMPULAN":"Q1 2024","TANGGAL UPDATE":"28/02/2025"}},{"type":"Feature","geometry":{"coordinates":[106.9054194,-6.1980386],"type":"Point"},"properties":{"NAMA":"PUSKESMAS CAKUNG","TIPE_1":"KESEHATAN DAN PENGOBATAN","TIPE_2":"LAYANAN MASYARAKAT","TIPE_3":"PUSKESMAS","TELEPON":"(021) 4610271","ALAMAT":"JL. RAYA BEKASI NO.KM. 18, RT.3/RW.11, JATINEGARA, KEC. CAKUNG, KOTA JAKARTA TIMUR, DAERAH KHUSUS IBUKOTA JAKARTA 13930","ID_PROV":"31","PROVINSI":"DKI JAKARTA","ID_KABKOT":"31.75","KABKOT":"KOTA ADM. JAKARTA TIMUR","ID_KEC":"31.75.06","KECAMATAN":"CAKUNG","ID_DESA":"31.75.06.1001","DESA":"JATINEGARA","LONGITUDE":106.9054194,"LATITUDE":-6.1980386,"STATUS":"BUKA","TANGGAL PENGUMPULAN":"Q1 2024","TANGGAL UPDATE":"28/02/2025"}},{"type":"Feature","geometry":{"coordinates":[106.9110905,-6.2420241],"type":"Point"},"properties":{"NAMA":"PUSKESMAS KECAMATAN DUREN SAWIT","TIPE_1":"KESEHATAN DAN PENGOBATAN","TIPE_2":"LAYANAN MASYARAKAT","TIPE_3":"PUSKESMAS","TELEPON":"(021) 86610522","ALAMAT":"JL. H. DOGOL NO.15A, RT.7/RW.16, DUREN SAWIT, KEC. DUREN SAWIT, KOTA JAKARTA TIMUR, DAERAH KHUSUS IBUKOTA JAKARTA 13420","ID_PROV":"31","PROVINSI":"DKI JAKARTA","ID_KABKOT":"31.75","KABKOT":"KOTA ADM. JAKARTA TIMUR","ID_KEC":"31.75.07","KECAMATAN":"DUREN SAWIT","ID_DESA":"31.75.07.1001","DESA":"DUREN SAWIT","LONGITUDE":106.9110905,"LATITUDE":-6.2420241,"STATUS":"BUKA","TANGGAL PENGUMPULAN":"Q1 2024","TANGGAL UPDATE":"28/02/2025"}},{"type":"Feature","geometry":{"coordinates":[106.8594455,-6.2146378],"type":"Point"},"properties":{"NAMA":"PUSKESMAS KELURAHAN KAMPUNG MELAYU","TIPE_1":"KESEHATAN DAN PENGOBATAN","TIPE_2":"LAYANAN MASYARAKAT","TIPE_3":"PUSKESMAS","TELEPON":"","ALAMAT":"NO.32, KELURAHAN, JL. KB. PALA I, RT.3/RW.5, BIDARA CINA, JATINEGARA, EAST JAKARTA CITY, JAKARTA 13320","ID_PROV":"31","PROVINSI":"DKI JAKARTA","ID_KABKOT":"31.75","KABKOT":"KOTA ADM. JAKARTA TIMUR","ID_KEC":"31.75.03","KECAMATAN":"JATINEGARA","ID_DESA":"31.75.03.1001","DESA":"KAMPUNG MELAYU","LONGITUDE":106.8594455,"LATITUDE":-6.2146378,"STATUS":"BUKA","TANGGAL PENGUMPULAN":"Q1 2024","TANGGAL UPDATE":"28/02/2025"}},{"type":"Feature","geometry":{"coordinates":[106.8797519,-6.2061922],"type":"Point"},"properties":{"NAMA":"PUSKESMAS KELURAHAN PISANGAN TIMUR 1","TIPE_1":"KESEHATAN DAN PENGOBATAN","TIPE_2":"LAYANAN MASYARAKAT","TIPE_3":"PUSKESMAS","TELEPON":"(021) 4755612","ALAMAT":"JL. GADING RAYA 1 NO.10 10, RT.10/RW.14, KP. RW., KEC. PULO GADUNG, KOTA JAKARTA TIMUR, DAERAH KHUSUS IBUKOTA JAKARTA 13230","ID_PROV":"31","PROVINSI":"DKI JAKARTA","ID_KABKOT":"31.75","KABKOT":"KOTA ADM. JAKARTA TIMUR","ID_KEC":"31.75.02","KECAMATAN":"PULOGADUNG","ID_DESA":"31.75.02.1002","DESA":"PISANGAN TIMUR","LONGITUDE":106.8797519,"LATITUDE":-6.2061922,"STATUS":"BUKA","TANGGAL PENGUMPULAN":"Q1 2024","TANGGAL UPDATE":"28/02/2025"}},{"type":"Feature","geometry":{"coordinates":[106.8516712,-6.2836936],"type":"Point"},"properties":{"NAMA":"PUSKESMAS KELURAHAN BALEKAMBANG","TIPE_1":"KESEHATAN DAN PENGOBATAN","TIPE_2":"LAYANAN MASYARAKAT","TIPE_3":"PUSKESMAS","TELEPON":"(021) 8013561","ALAMAT":"JL. GARDU, RT.1/RW.2, BALEKAMBANG, KEC. KRAMAT JATI, KOTA JAKARTA TIMUR, DAERAH KHUSUS IBUKOTA JAKARTA 13530","ID_PROV":"31","PROVINSI":"DKI JAKARTA","ID_KABKOT":"31.75","KABKOT":"KOTA ADM. JAKARTA TIMUR","ID_KEC":"31.75.04","KECAMATAN":"KRAMATJATI","ID_DESA":"31.75.04.1005","DESA":"BALEKAMBANG","LONGITUDE":106.8516712,"LATITUDE":-6.2836936,"STATUS":"BUKA","TANGGAL PENGUMPULAN":"Q1 2024","TANGGAL UPDATE":"28/02/2025"}},{"type":"Feature","geometry":{"coordinates":[106.894642,-6.2057337],"type":"Point"},"properties":{"NAMA":"PUSKESMAS KELURAHAN CIPINANG","TIPE_1":"KESEHATAN DAN PENGOBATAN","TIPE_2":"LAYANAN MASYARAKAT","TIPE_3":"PUSKESMAS","TELEPON":"(021) 4756139","ALAMAT":"GANG MASJID BAITUSALAM, JL. E NO.19, RT.10/RW.11, CIPINANG, KEC. PULO GADUNG, KOTA JAKARTA TIMUR, DAERAH KHUSUS IBUKOTA JAKARTA 13240","ID_PROV":"31","PROVINSI":"DKI JAKARTA","ID_KABKOT":"31.75","KABKOT":"KOTA ADM. JAKARTA TIMUR","ID_KEC":"31.75.02","KECAMATAN":"PULOGADUNG","ID_DESA":"31.75.02.1003","DESA":"CIPINANG","LONGITUDE":106.894642,"LATITUDE":-6.2057337,"STATUS":"BUKA","TANGGAL PENGUMPULAN":"Q1 2024","TANGGAL UPDATE":"28/02/2025"}},{"type":"Feature","geometry":{"coordinates":[106.899102,-6.190068],"type":"Point"},"properties":{"NAMA":"PUSKESMAS KELURAHAN JATI II","TIPE_1":"KESEHATAN DAN PENGOBATAN","TIPE_2":"LAYANAN MASYARAKAT","TIPE_3":"PUSKESMAS","TELEPON":"(021) 47868404","ALAMAT":"JL. KAPLONGAN I NO.6 12, RT.12/RW.4, JATI, KEC. PULO GADUNG, KOTA JAKARTA TIMUR, DAERAH KHUSUS IBUKOTA JAKARTA 13220","ID_PROV":"31","PROVINSI":"DKI JAKARTA","ID_KABKOT":"31.75","KABKOT":"KOTA ADM. JAKARTA TIMUR","ID_KEC":"31.75.02","KECAMATAN":"PULOGADUNG","ID_DESA":"31.75.02.1007","DESA":"JATI","LONGITUDE":106.899102,"LATITUDE":-6.190068,"STATUS":"BUKA","TANGGAL PENGUMPULAN":"Q1 2024","TANGGAL UPDATE":"28/02/2025"}},{"type":"Feature","geometry":{"coordinates":[106.9143656,-6.2305913],"type":"Point"},"properties":{"NAMA":"PUSKESMAS KELURAHAN DUREN SAWIT","TIPE_1":"KESEHATAN DAN PENGOBATAN","TIPE_2":"LAYANAN MASYARAKAT","TIPE_3":"PUSKESMAS","TELEPON":"(021) 86602052","ALAMAT":"JL. KELURAHAN RAYA NO.1 11, RT.11/RW.1, DUREN SAWIT, KEC. DUREN SAWIT, KOTA JAKARTA TIMUR, DAERAH KHUSUS IBUKOTA JAKARTA 13440","ID_PROV":"31","PROVINSI":"DKI JAKARTA","ID_KABKOT":"31.75","KABKOT":"KOTA ADM. JAKARTA TIMUR","ID_KEC":"31.75.07","KECAMATAN":"DUREN SAWIT","ID_DESA":"31.75.07.1001","DESA":"DUREN SAWIT","LONGITUDE":106.9143656,"LATITUDE":-6.2305913,"STATUS":"BUKA","TANGGAL PENGUMPULAN":"Q1 2024","TANGGAL UPDATE":"28/02/2025"}},{"type":"Feature","geometry":{"coordinates":[106.8777711,-6.2674122],"type":"Point"},"properties":{"NAMA":"PUSKESMAS HALIM 2","TIPE_1":"KESEHATAN DAN PENGOBATAN","TIPE_2":"LAYANAN MASYARAKAT","TIPE_3":"PUSKESMAS","TELEPON":"(021) 8808641","ALAMAT":"JL. HALIM GOLF KEL HALIM 7 5, RT.5/RW.5, HALIM PERDANA KUSUMAH, KEC. MAKASAR, KOTA JAKARTA TIMUR, DAERAH KHUSUS IBUKOTA JAKARTA 13610","ID_PROV":"31","PROVINSI":"DKI JAKARTA","ID_KABKOT":"31.75","KABKOT":"KOTA ADM. JAKARTA TIMUR","ID_KEC":"31.75.08","KECAMATAN":"MAKASAR","ID_DESA":"31.75.08.1004","DESA":"HALIM PERDANA KUSUMA","LONGITUDE":106.8777711,"LATITUDE":-6.2674122,"STATUS":"BUKA","TANGGAL PENGUMPULAN":"Q1 2024","TANGGAL UPDATE":"28/02/2025"}},{"type":"Feature","geometry":{"coordinates":[106.8929318,-6.1924282],"type":"Point"},"properties":{"NAMA":"PUSKESMAS KELURAHAN JATI 1","TIPE_1":"KESEHATAN DAN PENGOBATAN","TIPE_2":"LAYANAN MASYARAKAT","TIPE_3":"PUSKESMAS","TELEPON":"(021) 47868535","ALAMAT":"JL. PULO ASEM IV NO.19A, RT.2/RW.1, JATI, KEC. PULO GADUNG, KOTA JAKARTA TIMUR, DAERAH KHUSUS IBUKOTA JAKARTA 13220","ID_PROV":"31","PROVINSI":"DKI JAKARTA","ID_KABKOT":"31.75","KABKOT":"KOTA ADM. JAKARTA TIMUR","ID_KEC":"31.75.02","KECAMATAN":"PULOGADUNG","ID_DESA":"31.75.02.1007","DESA":"JATI","LONGITUDE":106.8929318,"LATITUDE":-6.1924282,"STATUS":"BUKA","TANGGAL PENGUMPULAN":"Q1 2024","TANGGAL UPDATE":"28/02/2025"}},{"type":"Feature","geometry":{"coordinates":[106.8847931,-6.1808569],"type":"Point"},"properties":{"NAMA":"PUSKESMAS KELURAHAN KAYU PUTIH","TIPE_1":"KESEHATAN DAN PENGOBATAN","TIPE_2":"LAYANAN MASYARAKAT","TIPE_3":"PUSKESMAS","TELEPON":"(021) 4710423","ALAMAT":"JL. PACUAN KUDA RAYA NO.8G, RT.12/RW.11, KAYU PUTIH, KEC. PULO GADUNG, KOTA JAKARTA TIMUR, DAERAH KHUSUS IBUKOTA JAKARTA 13210","ID_PROV":"31","PROVINSI":"DKI JAKARTA","ID_KABKOT":"31.75","KABKOT":"KOTA ADM. JAKARTA TIMUR","ID_KEC":"31.75.02","KECAMATAN":"PULOGADUNG","ID_DESA":"31.75.02.1006","DESA":"KAYU PUTIH","LONGITUDE":106.8847931,"LATITUDE":-6.1808569,"STATUS":"BUKA","TANGGAL PENGUMPULAN":"Q1 2024","TANGGAL UPDATE":"28/02/2025"}},{"type":"Feature","geometry":{"coordinates":[106.8749038,-6.3117622],"type":"Point"},"properties":{"NAMA":"PUSKESMAS KECAMATAN CIRACAS","TIPE_1":"KESEHATAN DAN PENGOBATAN","TIPE_2":"LAYANAN MASYARAKAT","TIPE_3":"PUSKESMAS","TELEPON":"","ALAMAT":"JL. H. BAPING NO.1, RT.10/RW.6, SUSUKAN, KEC. CIRACAS, KOTA JAKARTA TIMUR, DAERAH KHUSUS IBUKOTA JAKARTA 13750","ID_PROV":"31","PROVINSI":"DKI JAKARTA","ID_KABKOT":"31.75","KABKOT":"KOTA ADM. JAKARTA TIMUR","ID_KEC":"31.75.09","KECAMATAN":"CIRACAS","ID_DESA":"31.75.09.1004","DESA":"SUSUKAN","LONGITUDE":106.8749038,"LATITUDE":-6.3117622,"STATUS":"BUKA","TANGGAL PENGUMPULAN":"Q1 2024","TANGGAL UPDATE":"28/02/2025"}},{"type":"Feature","geometry":{"coordinates":[106.877691,-6.2081729],"type":"Point"},"properties":{"NAMA":"PUSKESMAS KELURAHAN PISANGAN TIMUR II","TIPE_1":"KESEHATAN DAN PENGOBATAN","TIPE_2":"LAYANAN MASYARAKAT","TIPE_3":"PUSKESMAS","TELEPON":"(021) 4756120","ALAMAT":"JL. H. MUGENI 3 NO.12, RT.12/RW.4, PISANGAN TIM., KEC. PULO GADUNG, KOTA JAKARTA TIMUR, DAERAH KHUSUS IBUKOTA JAKARTA 13230","ID_PROV":"31","PROVINSI":"DKI JAKARTA","ID_KABKOT":"31.75","KABKOT":"KOTA ADM. JAKARTA TIMUR","ID_KEC":"31.75.02","KECAMATAN":"PULOGADUNG","ID_DESA":"31.75.02.1002","DESA":"PISANGAN TIMUR","LONGITUDE":106.877691,"LATITUDE":-6.2081729,"STATUS":"BUKA","TANGGAL PENGUMPULAN":"Q1 2024","TANGGAL UPDATE":"28/02/2025"}},{"type":"Feature","geometry":{"coordinates":[106.900822,-6.2466829],"type":"Point"},"properties":{"NAMA":"PUSKESMAS KELURAHAN CIPINANG MELAYU","TIPE_1":"KESEHATAN DAN PENGOBATAN","TIPE_2":"LAYANAN MASYARAKAT","TIPE_3":"PUSKESMAS","TELEPON":"(021) 86609575","ALAMAT":"JL. HARAPAN II NO.36, RT.4/RW.10, CIPINANG MELAYU, KEC. MAKASAR, KOTA JAKARTA TIMUR, DAERAH KHUSUS IBUKOTA JAKARTA 13620","ID_PROV":"31","PROVINSI":"DKI JAKARTA","ID_KABKOT":"31.75","KABKOT":"KOTA ADM. JAKARTA TIMUR","ID_KEC":"31.75.08","KECAMATAN":"MAKASAR","ID_DESA":"31.75.08.1005","DESA":"CIPINANG MELAYU","LONGITUDE":106.900822,"LATITUDE":-6.2466829,"STATUS":"BUKA","TANGGAL PENGUMPULAN":"Q1 2024","TANGGAL UPDATE":"28/02/2025"}},{"type":"Feature","geometry":{"coordinates":[106.8836645,-6.347479],"type":"Point"},"properties":{"NAMA":"PUSKESMAS KELAPA DUA WETAN","TIPE_1":"KESEHATAN DAN PENGOBATAN","TIPE_2":"LAYANAN MASYARAKAT","TIPE_3":"PUSKESMAS","TELEPON":"(021) 87700222","ALAMAT":"JALAN RAYA 1, RT.1/RW.6, KLP. DUA WETAN, KEC. CIRACAS, KOTA JAKARTA TIMUR, DAERAH KHUSUS IBUKOTA JAKARTA 13730","ID_PROV":"31","PROVINSI":"DKI JAKARTA","ID_KABKOT":"31.75","KABKOT":"KOTA ADM. JAKARTA TIMUR","ID_KEC":"31.75.09","KECAMATAN":"CIRACAS","ID_DESA":"31.75.09.1003","DESA":"KELAPA DUA WETAN","LONGITUDE":106.8836645,"LATITUDE":-6.347479,"STATUS":"BUKA","TANGGAL PENGUMPULAN":"Q1 2024","TANGGAL UPDATE":"28/02/2025"}},{"type":"Feature","geometry":{"coordinates":[106.9050435,-6.2032352],"type":"Point"},"properties":{"NAMA":"PUSKESMAS KELURAHAN JATINEGARA","TIPE_1":"KESEHATAN DAN PENGOBATAN","TIPE_2":"LAYANAN MASYARAKAT","TIPE_3":"PUSKESMAS","TELEPON":"","ALAMAT":"JL. RAYA BEKASI NO.KM. 17, RT.6/RW.3, JATINEGARA, KEC. CAKUNG, KOTA JAKARTA TIMUR, DAERAH KHUSUS IBUKOTA JAKARTA 13930","ID_PROV":"31","PROVINSI":"DKI JAKARTA","ID_KABKOT":"31.75","KABKOT":"KOTA ADM. JAKARTA TIMUR","ID_KEC":"31.75.06","KECAMATAN":"CAKUNG","ID_DESA":"31.75.06.1001","DESA":"JATINEGARA","LONGITUDE":106.9050435,"LATITUDE":-6.2032352,"STATUS":"BUKA","TANGGAL PENGUMPULAN":"Q1 2024","TANGGAL UPDATE":"28/02/2025"}},{"type":"Feature","geometry":{"coordinates":[106.9544991,-6.2160631],"type":"Point"},"properties":{"NAMA":"PUSKESMAS PEMBANTU PULO GEBANG","TIPE_1":"KESEHATAN DAN PENGOBATAN","TIPE_2":"LAYANAN MASYARAKAT","TIPE_3":"PUSKESMAS","TELEPON":"(021) 4807828","ALAMAT":"JL. RAYA ST. CAKUNG NO.KM. 4, PULO GEBANG, KEC. CAKUNG, KOTA JAKARTA TIMUR, DAERAH KHUSUS IBUKOTA JAKARTA 13940","ID_PROV":"31","PROVINSI":"DKI JAKARTA","ID_KABKOT":"31.75","KABKOT":"KOTA ADM. JAKARTA TIMUR","ID_KEC":"31.75.06","KECAMATAN":"CAKUNG","ID_DESA":"31.75.06.1005","DESA":"PULO GEBANG","LONGITUDE":106.9544991,"LATITUDE":-6.2160631,"STATUS":"BUKA","TANGGAL PENGUMPULAN":"Q1 2024","TANGGAL UPDATE":"28/02/2025"}},{"type":"Feature","geometry":{"coordinates":[106.9581685,-6.1827027],"type":"Point"},"properties":{"NAMA":"PUSKESMAS PEMBANTU CAKUNG TIMUR","TIPE_1":"KESEHATAN DAN PENGOBATAN","TIPE_2":"LAYANAN MASYARAKAT","TIPE_3":"PUSKESMAS","TELEPON":"(021) 46829810","ALAMAT":"JL. BALAI RAKYAT NO.99, RT.12/RW.1, CAKUNG TIM., KEC. CAKUNG, KOTA JAKARTA TIMUR, DAERAH KHUSUS IBUKOTA JAKARTA 13910","ID_PROV":"31","PROVINSI":"DKI JAKARTA","ID_KABKOT":"31.75","KABKOT":"KOTA ADM. JAKARTA TIMUR","ID_KEC":"31.75.06","KECAMATAN":"CAKUNG","ID_DESA":"31.75.06.1004","DESA":"CAKUNG TIMUR","LONGITUDE":106.9581685,"LATITUDE":-6.1827027,"STATUS":"BUKA","TANGGAL PENGUMPULAN":"Q1 2024","TANGGAL UPDATE":"28/02/2025"}},{"type":"Feature","geometry":{"coordinates":[106.8616417,-6.3391964],"type":"Point"},"properties":{"NAMA":"PUSKESMAS KECAMATAN PASAR REBO","TIPE_1":"KESEHATAN DAN PENGOBATAN","TIPE_2":"LAYANAN MASYARAKAT","TIPE_3":"PUSKESMAS","TELEPON":"(021) 8720053","ALAMAT":"JL. KALISARI NO.1, RT.11/RW.1, PEKAYON, KEC. PS. REBO, KOTA JAKARTA TIMUR, DAERAH KHUSUS IBUKOTA JAKARTA 13710","ID_PROV":"31","PROVINSI":"DKI JAKARTA","ID_KABKOT":"31.75","KABKOT":"KOTA ADM. JAKARTA TIMUR","ID_KEC":"31.75.05","KECAMATAN":"PASAR REBO","ID_DESA":"31.75.05.1005","DESA":"PEKAYON","LONGITUDE":106.8616417,"LATITUDE":-6.3391964,"STATUS":"BUKA","TANGGAL PENGUMPULAN":"Q1 2024","TANGGAL UPDATE":"28/02/2025"}},{"type":"Feature","geometry":{"coordinates":[106.8515843,-6.3344725],"type":"Point"},"properties":{"NAMA":"PUSKESMAS KELURAHAN KALISARI","TIPE_1":"KESEHATAN DAN PENGOBATAN","TIPE_2":"LAYANAN MASYARAKAT","TIPE_3":"PUSKESMAS","TELEPON":"(021) 8708609","ALAMAT":"JL. PUSKESMAS NO.17, RT.3/RW.3, KALISARI, KEC. PS. REBO, KOTA JAKARTA TIMUR, DAERAH KHUSUS IBUKOTA JAKARTA 13790","ID_PROV":"31","PROVINSI":"DKI JAKARTA","ID_KABKOT":"31.75","KABKOT":"KOTA ADM. JAKARTA TIMUR","ID_KEC":"31.75.05","KECAMATAN":"PASAR REBO","ID_DESA":"31.75.05.1004","DESA":"KALISARI","LONGITUDE":106.8515843,"LATITUDE":-6.3344725,"STATUS":"BUKA","TANGGAL PENGUMPULAN":"Q1 2024","TANGGAL UPDATE":"28/02/2025"}},{"type":"Feature","geometry":{"coordinates":[106.8593386,-6.2844132],"type":"Point"},"properties":{"NAMA":"PUSKESMAS KELURAHAN BATU AMPAR","TIPE_1":"KESEHATAN DAN PENGOBATAN","TIPE_2":"LAYANAN MASYARAKAT","TIPE_3":"PUSKESMAS","TELEPON":"(021) 87781288","ALAMAT":"JL. WADAS JL. BATU AMPAR II, RT.8/RW.3, BATU AMPAR, KEC. KRAMAT JATI, KOTA JAKARTA TIMUR, DAERAH KHUSUS IBUKOTA JAKARTA 13520","ID_PROV":"31","PROVINSI":"DKI JAKARTA","ID_KABKOT":"31.75","KABKOT":"KOTA ADM. JAKARTA TIMUR","ID_KEC":"31.75.04","KECAMATAN":"KRAMATJATI","ID_DESA":"31.75.04.1004","DESA":"BATU AMPAR","LONGITUDE":106.8593386,"LATITUDE":-6.2844132,"STATUS":"BUKA","TANGGAL PENGUMPULAN":"Q1 2024","TANGGAL UPDATE":"28/02/2025"}},{"type":"Feature","geometry":{"coordinates":[106.8645203,-6.241257],"type":"Point"},"properties":{"NAMA":"PUSKESMAS KELURAHAN BIDARA CINA 2","TIPE_1":"KESEHATAN DAN PENGOBATAN","TIPE_2":"LAYANAN MASYARAKAT","TIPE_3":"PUSKESMAS","TELEPON":"(021) 8571147","ALAMAT":"JL. NILAM RT. 013 / 011, BIDAKARA, RT.6/RW.11, KAMPUNG MELAYU, JATINEGARA, RT.6/RW.11, BIDARA CINA, KECAMATAN JATINEGARA, KOTA JAKARTA TIMUR, DAERAH KHUSUS IBUKOTA JAKARTA 13790","ID_PROV":"31","PROVINSI":"DKI JAKARTA","ID_KABKOT":"31.75","KABKOT":"KOTA ADM. JAKARTA TIMUR","ID_KEC":"31.75.03","KECAMATAN":"JATINEGARA","ID_DESA":"31.75.03.1002","DESA":"BIDARA CINA","LONGITUDE":106.8645203,"LATITUDE":-6.241257,"STATUS":"BUKA","TANGGAL PENGUMPULAN":"Q1 2024","TANGGAL UPDATE":"28/02/2025"}},{"type":"Feature","geometry":{"coordinates":[106.8658779,-6.2529419],"type":"Point"},"properties":{"NAMA":"PUSKESMAS KELURAHAN KRAMAT JATI 1","TIPE_1":"KESEHATAN DAN PENGOBATAN","TIPE_2":"LAYANAN MASYARAKAT","TIPE_3":"PUSKESMAS","TELEPON":"(021) 22808415","ALAMAT":"JL. LANGGAR NO.010 6, RT.9/RW.10, CAWANG, KEC. KRAMAT JATI, KOTA JAKARTA TIMUR, DAERAH KHUSUS IBUKOTA JAKARTA 13630","ID_PROV":"31","PROVINSI":"DKI JAKARTA","ID_KABKOT":"31.75","KABKOT":"KOTA ADM. JAKARTA TIMUR","ID_KEC":"31.75.04","KECAMATAN":"KRAMATJATI","ID_DESA":"31.75.04.1007","DESA":"CAWANG","LONGITUDE":106.8658779,"LATITUDE":-6.2529419,"STATUS":"BUKA","TANGGAL PENGUMPULAN":"Q1 2024","TANGGAL UPDATE":"28/02/2025"}},{"type":"Feature","geometry":{"coordinates":[106.8678422,-6.2399115],"type":"Point"},"properties":{"NAMA":"PUSKESMAS KELURAHAN BIDARA CINA III","TIPE_1":"KESEHATAN DAN PENGOBATAN","TIPE_2":"LAYANAN MASYARAKAT","TIPE_3":"PUSKESMAS","TELEPON":"(021) 85917587","ALAMAT":"GG. KOBER DEPOK NO.19 4, RT.5/RW.6, BIDARA CINA, KECAMATAN JATINEGARA, KOTA JAKARTA TIMUR, DAERAH KHUSUS IBUKOTA JAKARTA 13330","ID_PROV":"31","PROVINSI":"DKI JAKARTA","ID_KABKOT":"31.75","KABKOT":"KOTA ADM. JAKARTA TIMUR","ID_KEC":"31.75.03","KECAMATAN":"JATINEGARA","ID_DESA":"31.75.03.1002","DESA":"BIDARA CINA","LONGITUDE":106.8678422,"LATITUDE":-6.2399115,"STATUS":"BUKA","TANGGAL PENGUMPULAN":"Q1 2024","TANGGAL UPDATE":"28/02/2025"}},{"type":"Feature","geometry":{"coordinates":[106.8660709,-6.2526803],"type":"Point"},"properties":{"NAMA":"PUSKESMAS KELURAHAN CAWANG","TIPE_1":"KESEHATAN DAN PENGOBATAN","TIPE_2":"LAYANAN MASYARAKAT","TIPE_3":"PUSKESMAS","TELEPON":"(021) 8091870","ALAMAT":"JL. MASJID BENDUNGAN I NO.55 9, RT.9/RW.10, CAWANG, KEC. KRAMAT JATI, KOTA JAKARTA TIMUR, DAERAH KHUSUS IBUKOTA JAKARTA 13630","ID_PROV":"31","PROVINSI":"DKI JAKARTA","ID_KABKOT":"31.75","KABKOT":"KOTA ADM. JAKARTA TIMUR","ID_KEC":"31.75.04","KECAMATAN":"KRAMATJATI","ID_DESA":"31.75.04.1007","DESA":"CAWANG","LONGITUDE":106.8660709,"LATITUDE":-6.2526803,"STATUS":"BUKA","TANGGAL PENGUMPULAN":"Q1 2024","TANGGAL UPDATE":"28/02/2025"}},{"type":"Feature","geometry":{"coordinates":[106.8523137,-6.3233439],"type":"Point"},"properties":{"NAMA":"PUSKESMAS KELURAHAN BARU","TIPE_1":"KESEHATAN DAN PENGOBATAN","TIPE_2":"LAYANAN MASYARAKAT","TIPE_3":"PUSKESMAS","TELEPON":"","ALAMAT":"JL. PUSKESMAS NO.8, RT.08/RW.1, BARU, KEC. PS. REBO, KOTA JAKARTA TIMUR, DAERAH KHUSUS IBUKOTA JAKARTA 13780","ID_PROV":"31","PROVINSI":"DKI JAKARTA","ID_KABKOT":"31.75","KABKOT":"KOTA ADM. JAKARTA TIMUR","ID_KEC":"31.75.05","KECAMATAN":"PASAR REBO","ID_DESA":"31.75.05.1002","DESA":"BARU","LONGITUDE":106.8523137,"LATITUDE":-6.3233439,"STATUS":"BUKA","TANGGAL PENGUMPULAN":"Q1 2024","TANGGAL UPDATE":"28/02/2025"}},{"type":"Feature","geometry":{"coordinates":[106.8579951,-6.2664262],"type":"Point"},"properties":{"NAMA":"PUSKESMAS KELURAHAN CILILITAN","TIPE_1":"KESEHATAN DAN PENGOBATAN","TIPE_2":"LAYANAN MASYARAKAT","TIPE_3":"PUSKESMAS","TELEPON":"(021) 22040076","ALAMAT":"JALAN BULUH, GG. H. SEBIN, NO.27, RT.4/RW.5, CILILITAN, KRAMATJATI, RT.7 16, RT.5/RW.16, CILILITAN, KEC. KRAMAT JATI, KOTA JAKARTA TIMUR, DAERAH KHUSUS IBUKOTA JAKARTA 13530","ID_PROV":"31","PROVINSI":"DKI JAKARTA","ID_KABKOT":"31.75","KABKOT":"KOTA ADM. JAKARTA TIMUR","ID_KEC":"31.75.04","KECAMATAN":"KRAMATJATI","ID_DESA":"31.75.04.1006","DESA":"CILILITAN","LONGITUDE":106.8579951,"LATITUDE":-6.2664262,"STATUS":"BUKA","TANGGAL PENGUMPULAN":"Q1 2024","TANGGAL UPDATE":"28/02/2025"}},{"type":"Feature","geometry":{"coordinates":[106.8799949,-6.301937],"type":"Point"},"properties":{"NAMA":"PUSKESMAS PEMBANTU DUKUH","TIPE_1":"KESEHATAN DAN PENGOBATAN","TIPE_2":"LAYANAN MASYARAKAT","TIPE_3":"PUSKESMAS","TELEPON":"","ALAMAT":"JL. PUSKESMAS NO.3, RT.10/RW.4, DUKUH, KEC. KRAMAT JATI, KOTA JAKARTA TIMUR, DAERAH KHUSUS IBUKOTA JAKARTA 13550","ID_PROV":"31","PROVINSI":"DKI JAKARTA","ID_KABKOT":"31.75","KABKOT":"KOTA ADM. JAKARTA TIMUR","ID_KEC":"31.75.04","KECAMATAN":"KRAMATJATI","ID_DESA":"31.75.04.1003","DESA":"DUKUH","LONGITUDE":106.8799949,"LATITUDE":-6.301937,"STATUS":"BUKA","TANGGAL PENGUMPULAN":"Q1 2024","TANGGAL UPDATE":"28/02/2025"}},{"type":"Feature","geometry":{"coordinates":[106.870303,-6.2212885],"type":"Point"},"properties":{"NAMA":"PUSKESMAS KELURAHAN RAWA BUNGA","TIPE_1":"KESEHATAN DAN PENGOBATAN","TIPE_2":"LAYANAN MASYARAKAT","TIPE_3":"PUSKESMAS","TELEPON":"(021) 8511689","ALAMAT":"JL. JATINEGARA TIMUR IV NO.1, RT.2/RW.7, RW. BUNGA, KECAMATAN JATINEGARA, KOTA JAKARTA TIMUR, DAERAH KHUSUS IBUKOTA JAKARTA 13310","ID_PROV":"31","PROVINSI":"DKI JAKARTA","ID_KABKOT":"31.75","KABKOT":"KOTA ADM. JAKARTA TIMUR","ID_KEC":"31.75.03","KECAMATAN":"JATINEGARA","ID_DESA":"31.75.03.1004","DESA":"RAWA BUNGA","LONGITUDE":106.870303,"LATITUDE":-6.2212885,"STATUS":"BUKA","TANGGAL PENGUMPULAN":"Q1 2024","TANGGAL UPDATE":"28/02/2025"}},{"type":"Feature","geometry":{"coordinates":[106.9079922,-6.216519],"type":"Point"},"properties":{"NAMA":"PUSKESMAS KELURAHAN KLENDER II","TIPE_1":"KESEHATAN DAN PENGOBATAN","TIPE_2":"LAYANAN MASYARAKAT","TIPE_3":"PUSKESMAS","TELEPON":"(021) 86603350","ALAMAT":"JL. BULAK TIMUR I NO.23 4, RT.8/RW.16, KLENDER, KEC. DUREN SAWIT, KOTA JAKARTA TIMUR, DAERAH KHUSUS IBUKOTA JAKARTA 13470","ID_PROV":"31","PROVINSI":"DKI JAKARTA","ID_KABKOT":"31.75","KABKOT":"KOTA ADM. JAKARTA TIMUR","ID_KEC":"31.75.07","KECAMATAN":"DUREN SAWIT","ID_DESA":"31.75.07.1003","DESA":"KLENDER","LONGITUDE":106.9079922,"LATITUDE":-6.216519,"STATUS":"BUKA","TANGGAL PENGUMPULAN":"Q1 2024","TANGGAL UPDATE":"28/02/2025"}},{"type":"Feature","geometry":{"coordinates":[106.8883065,-6.1971816],"type":"Point"},"properties":{"NAMA":"PUSKESMAS KELURAHAN RAWAMANGUN","TIPE_1":"KESEHATAN DAN PENGOBATAN","TIPE_2":"LAYANAN MASYARAKAT","TIPE_3":"PUSKESMAS","TELEPON":"(021) 47864411","ALAMAT":"JL. JERUK NO.3, RT.3/RW.8, RAWAMANGUN, KEC. PULO GADUNG, KOTA JAKARTA TIMUR, DAERAH KHUSUS IBUKOTA JAKARTA 13220","ID_PROV":"31","PROVINSI":"DKI JAKARTA","ID_KABKOT":"31.75","KABKOT":"KOTA ADM. JAKARTA TIMUR","ID_KEC":"31.75.02","KECAMATAN":"PULOGADUNG","ID_DESA":"31.75.02.1005","DESA":"RAWAMANGUN","LONGITUDE":106.8883065,"LATITUDE":-6.1971816,"STATUS":"BUKA","TANGGAL PENGUMPULAN":"Q1 2024","TANGGAL UPDATE":"28/02/2025"}},{"type":"Feature","geometry":{"coordinates":[106.8658389,-6.3025742],"type":"Point"},"properties":{"NAMA":"PUSKESMAS KELURAHAN GEDONG","TIPE_1":"KESEHATAN DAN PENGOBATAN","TIPE_2":"LAYANAN MASYARAKAT","TIPE_3":"PUSKESMAS","TELEPON":"0857-6091-5091","ALAMAT":"JL. H. TAIMAN NO.15, RT.7/RW.2, GEDONG, PASAR REBO, EAST JAKARTA CITY, JAKARTA 13760","ID_PROV":"31","PROVINSI":"DKI JAKARTA","ID_KABKOT":"31.75","KABKOT":"KOTA ADM. JAKARTA TIMUR","ID_KEC":"31.75.05","KECAMATAN":"PASAR REBO","ID_DESA":"31.75.05.1001","DESA":"GEDONG","LONGITUDE":106.8658389,"LATITUDE":-6.3025742,"STATUS":"BUKA","TANGGAL PENGUMPULAN":"Q1 2024","TANGGAL UPDATE":"28/02/2025"}},{"type":"Feature","geometry":{"coordinates":[106.8809709,-6.2613436],"type":"Point"},"properties":{"NAMA":"PUSKESMAS KELURAHAN KEBON PALA","TIPE_1":"KESEHATAN DAN PENGOBATAN","TIPE_2":"LAYANAN MASYARAKAT","TIPE_3":"PUSKESMAS","TELEPON":"","ALAMAT":"JL. CAKRAWALA NO.20 6, RT.11/RW.10, HALIM PERDANA KUSUMAH, KEC. MAKASAR, KOTA JAKARTA TIMUR, DAERAH KHUSUS IBUKOTA JAKARTA 13610","ID_PROV":"31","PROVINSI":"DKI JAKARTA","ID_KABKOT":"31.75","KABKOT":"KOTA ADM. JAKARTA TIMUR","ID_KEC":"31.75.08","KECAMATAN":"MAKASAR","ID_DESA":"31.75.08.1003","DESA":"KEBON PALA","LONGITUDE":106.8809709,"LATITUDE":-6.2613436,"STATUS":"BUKA","TANGGAL PENGUMPULAN":"Q1 2024","TANGGAL UPDATE":"28/02/2025"}},{"type":"Feature","geometry":{"coordinates":[106.868215,-6.2695998],"type":"Point"},"properties":{"NAMA":"PUSKESMAS KELURAHAN KRAMAT JATI","TIPE_1":"KESEHATAN DAN PENGOBATAN","TIPE_2":"LAYANAN MASYARAKAT","TIPE_3":"PUSKESMAS","TELEPON":"(021) 8092896","ALAMAT":"JL. RS. POLRI NO.RT.6 NO.4, RT.6/RW.4, KRAMAT JATI, EAST JAKARTA CITY, JAKARTA 13510","ID_PROV":"31","PROVINSI":"DKI JAKARTA","ID_KABKOT":"31.75","KABKOT":"KOTA ADM. JAKARTA TIMUR","ID_KEC":"31.75.04","KECAMATAN":"KRAMATJATI","ID_DESA":"31.75.04.1001","DESA":"KRAMATJATI","LONGITUDE":106.868215,"LATITUDE":-6.2695998,"STATUS":"BUKA","TANGGAL PENGUMPULAN":"Q1 2024","TANGGAL UPDATE":"28/02/2025"}},{"type":"Feature","geometry":{"coordinates":[106.8680702,-6.2387273],"type":"Point"},"properties":{"NAMA":"PUSKESMAS KELURAHAN BIDARA CINA 1","TIPE_1":"KESEHATAN DAN PENGOBATAN","TIPE_2":"LAYANAN MASYARAKAT","TIPE_3":"PUSKESMAS","TELEPON":"(021) 85903677","ALAMAT":"JL. OTISTA RAYA NO.82 7, RT.7/RW.6, KP. MELAYU, KECAMATAN JATINEGARA, KOTA JAKARTA TIMUR, DAERAH KHUSUS IBUKOTA JAKARTA 13330","ID_PROV":"31","PROVINSI":"DKI JAKARTA","ID_KABKOT":"31.75","KABKOT":"KOTA ADM. JAKARTA TIMUR","ID_KEC":"31.75.03","KECAMATAN":"JATINEGARA","ID_DESA":"31.75.03.1002","DESA":"BIDARA CINA","LONGITUDE":106.8680702,"LATITUDE":-6.2387273,"STATUS":"BUKA","TANGGAL PENGUMPULAN":"Q1 2024","TANGGAL UPDATE":"28/02/2025"}},{"type":"Feature","geometry":{"coordinates":[106.8957592,-6.2189882],"type":"Point"},"properties":{"NAMA":"PUSKESMAS CIPINANG MUARA","TIPE_1":"KESEHATAN DAN PENGOBATAN","TIPE_2":"LAYANAN MASYARAKAT","TIPE_3":"PUSKESMAS","TELEPON":"(021) 85907746","ALAMAT":"JL. BB I NO.54, CIPINANG MUARA, KECAMATAN JATINEGARA, KOTA JAKARTA TIMUR, DAERAH KHUSUS IBUKOTA JAKARTA 13420","ID_PROV":"31","PROVINSI":"DKI JAKARTA","ID_KABKOT":"31.75","KABKOT":"KOTA ADM. JAKARTA TIMUR","ID_KEC":"31.75.03","KECAMATAN":"JATINEGARA","ID_DESA":"31.75.03.1006","DESA":"CIPINANG MUARA","LONGITUDE":106.8957592,"LATITUDE":-6.2189882,"STATUS":"BUKA","TANGGAL PENGUMPULAN":"Q1 2024","TANGGAL UPDATE":"28/02/2025"}},{"type":"Feature","geometry":{"coordinates":[106.8723622,-6.2771285],"type":"Point"},"properties":{"NAMA":"PUSKESMAS KELURAHAN KRAMATJATI","TIPE_1":"KESEHATAN DAN PENGOBATAN","TIPE_2":"LAYANAN MASYARAKAT","TIPE_3":"PUSKESMAS","TELEPON":"(021) 8004381","ALAMAT":"JL. KERJA BAKTI NO.3A 1, RT.1/RW.10, KRAMAT JATI, KEC. KRAMAT JATI, KOTA JAKARTA TIMUR, DAERAH KHUSUS IBUKOTA JAKARTA 13510","ID_PROV":"31","PROVINSI":"DKI JAKARTA","ID_KABKOT":"31.75","KABKOT":"KOTA ADM. JAKARTA TIMUR","ID_KEC":"31.75.04","KECAMATAN":"KRAMATJATI","ID_DESA":"31.75.04.1001","DESA":"KRAMATJATI","LONGITUDE":106.8723622,"LATITUDE":-6.2771285,"STATUS":"BUKA","TANGGAL PENGUMPULAN":"Q1 2024","TANGGAL UPDATE":"28/02/2025"}},{"type":"Feature","geometry":{"coordinates":[106.891866,-6.289918],"type":"Point"},"properties":{"NAMA":"PUSKESMAS JATIRAHAYU","TIPE_1":"KESEHATAN DAN PENGOBATAN","TIPE_2":"LAYANAN MASYARAKAT","TIPE_3":"PUSKESMAS","TELEPON":"(021) 8488737","ALAMAT":"JL. RAWA BACANG RT 006 RW 13 JATIRAHAYU PONDOK GEDE BEKASI JAWA BARAT, RT.2/RW.1, HALIM PERDANA KUSUMAH, KEC. MAKASAR, KOTA JAKARTA TIMUR, DAERAH KHUSUS IBUKOTA JAKARTA 17415","ID_PROV":"31","PROVINSI":"DKI JAKARTA","ID_KABKOT":"31.75","KABKOT":"KOTA ADM. JAKARTA TIMUR","ID_KEC":"31.75.08","KECAMATAN":"MAKASAR","ID_DESA":"31.75.08.1004","DESA":"HALIM PERDANA KUSUMA","LONGITUDE":106.891866,"LATITUDE":-6.289918,"STATUS":"BUKA","TANGGAL PENGUMPULAN":"Q1 2024","TANGGAL UPDATE":"28/02/2025"}}]}