{"type":"FeatureCollection","features":[{"type":"Feature","geometry":{"coordinates":[106.9211595,-6.3678035],"type":"Point"},"properties":{"NAMA":"PUSKESMAS PONED JATISAMPURNA","TIPE_1":"KESEHATAN DAN PENGOBATAN","TIPE_2":"LAYANAN MASYARAKAT","TIPE_3":"PUSKESMAS","TELEPON":"","ALAMAT":"JL. MENDUT, RT.003/RW.001, JATISAMPURNA, KEC. JATISAMPURNA, KOTA BKS, JAWA BARAT 17433","ID_PROV":"32","PROVINSI":"JAWA BARAT","ID_KABKOT":"32.75","KABKOT":"KOTA BEKASI","ID_KEC":"32.75.10","KECAMATAN":"JATISAMPURNA","ID_DESA":"32.75.10.1001","DESA":"JATISAMPURNA","LONGITUDE":106.9211595,"LATITUDE":-6.3678035,"STATUS":"BUKA","TANGGAL PENGUMPULAN":"Q1 2024","TANGGAL UPDATE":"28/02/2025"}},{"type":"Feature","geometry":{"coordinates":[106.9906897,-6.2304976],"type":"Point"},"properties":{"NAMA":"PUSKESMAS HARAPAN MULYA, KOTA BEKASI","TIPE_1":"KESEHATAN DAN PENGOBATAN","TIPE_2":"LAYANAN MASYARAKAT","TIPE_3":"PUSKESMAS","TELEPON":"(021) 89467751","ALAMAT":"RT.004/RW.008, HARAPAN MULYA, MEDAN SATRIA, BEKASI, WEST JAVA 17143","ID_PROV":"32","PROVINSI":"JAWA BARAT","ID_KABKOT":"32.75","KABKOT":"KOTA BEKASI","ID_KEC":"32.75.06","KECAMATAN":"MEDANSATRIA","ID_DESA":"32.75.06.1002","DESA":"HARAPANMULYA","LONGITUDE":106.9906897,"LATITUDE":-6.2304976,"STATUS":"BUKA","TANGGAL PENGUMPULAN":"Q1 2024","TANGGAL UPDATE":"28/02/2025"}},{"type":"Feature","geometry":{"coordinates":[106.999349,-6.2745486],"type":"Point"},"properties":{"NAMA":"PUSKESMAS SEPANJANG JAYA","TIPE_1":"KESEHATAN DAN PENGOBATAN","TIPE_2":"LAYANAN MASYARAKAT","TIPE_3":"PUSKESMAS","TELEPON":"(021) 82413752","ALAMAT":"JL. SIAGA L BLOK NK NO.103, RT.009/RW.006, SEPANJANG JAYA, KEC. RAWALUMBU, KOTA BKS, JAWA BARAT 17114","ID_PROV":"32","PROVINSI":"JAWA BARAT","ID_KABKOT":"32.75","KABKOT":"KOTA BEKASI","ID_KEC":"32.75.05","KECAMATAN":"RAWALUMBU","ID_DESA":"32.75.05.1003","DESA":"SEPANJANGJAYA","LONGITUDE":106.999349,"LATITUDE":-6.2745486,"STATUS":"BUKA","TANGGAL PENGUMPULAN":"Q1 2024","TANGGAL UPDATE":"28/02/2025"}},{"type":"Feature","geometry":{"coordinates":[106.9489954,-6.2607598],"type":"Point"},"properties":{"NAMA":"PUSKESMAS JATIBENING","TIPE_1":"KESEHATAN DAN PENGOBATAN","TIPE_2":"LAYANAN MASYARAKAT","TIPE_3":"PUSKESMAS","TELEPON":"0811-1844-552","ALAMAT":"","ID_PROV":"32","PROVINSI":"JAWA BARAT","ID_KABKOT":"32.75","KABKOT":"KOTA BEKASI","ID_KEC":"32.75.08","KECAMATAN":"PONDOKGEDE","ID_DESA":"32.75.08.1002","DESA":"JATIBENING","LONGITUDE":106.9489954,"LATITUDE":-6.2607598,"STATUS":"BUKA","TANGGAL PENGUMPULAN":"Q1 2024","TANGGAL UPDATE":"28/02/2025"}},{"type":"Feature","geometry":{"coordinates":[106.9389928,-6.2958867],"type":"Point"},"properties":{"NAMA":"UPTD PUSKESMAS JATIMEKAR","TIPE_1":"KESEHATAN DAN PENGOBATAN","TIPE_2":"LAYANAN MASYARAKAT","TIPE_3":"PUSKESMAS","TELEPON":"0812-8108-3225","ALAMAT":"JL. RAYA KODAU NO.1, RT.003/RW.3, RW 2, KEC. JATIASIH, KOTA BKS, JAWA BARAT 17422","ID_PROV":"32","PROVINSI":"JAWA BARAT","ID_KABKOT":"32.75","KABKOT":"KOTA BEKASI","ID_KEC":"32.75.09","KECAMATAN":"JATIASIH","ID_DESA":"32.75.09.1001","DESA":"JATIMEKAR","LONGITUDE":106.9389928,"LATITUDE":-6.2958867,"STATUS":"BUKA","TANGGAL PENGUMPULAN":"Q1 2024","TANGGAL UPDATE":"28/02/2025"}},{"type":"Feature","geometry":{"coordinates":[107.0281809,-6.2494434],"type":"Point"},"properties":{"NAMA":"JL. PUSKESMAS RAYA","TIPE_1":"KESEHATAN DAN PENGOBATAN","TIPE_2":"LAYANAN MASYARAKAT","TIPE_3":"PUSKESMAS","TELEPON":"","ALAMAT":"JL. PUSKESMAS NO.2B, RT.005/RW.001, AREN JAYA, KEC. BEKASI TIM., KOTA BKS, JAWA BARAT 17111","ID_PROV":"32","PROVINSI":"JAWA BARAT","ID_KABKOT":"32.75","KABKOT":"KOTA BEKASI","ID_KEC":"32.75.01","KECAMATAN":"BEKASI TIMUR","ID_DESA":"32.75.01.1004","DESA":"ARENJAYA","LONGITUDE":107.0281809,"LATITUDE":-6.2494434,"STATUS":"BUKA","TANGGAL PENGUMPULAN":"Q1 2024","TANGGAL UPDATE":"28/02/2025"}},{"type":"Feature","geometry":{"coordinates":[106.970127,-6.2849775],"type":"Point"},"properties":{"NAMA":"PUSKESMAS JAKA SETIA","TIPE_1":"KESEHATAN DAN PENGOBATAN","TIPE_2":"LAYANAN MASYARAKAT","TIPE_3":"PUSKESMAS","TELEPON":"0878-8683-7051","ALAMAT":"","ID_PROV":"32","PROVINSI":"JAWA BARAT","ID_KABKOT":"32.75","KABKOT":"KOTA BEKASI","ID_KEC":"32.75.09","KECAMATAN":"JATIASIH","ID_DESA":"32.75.09.1004","DESA":"JATIRASA","LONGITUDE":106.970127,"LATITUDE":-6.2849775,"STATUS":"BUKA","TANGGAL PENGUMPULAN":"Q1 2024","TANGGAL UPDATE":"28/02/2025"}},{"type":"Feature","geometry":{"coordinates":[106.9261909,-6.2962628],"type":"Point"},"properties":{"NAMA":"PUSKESMAS RAWABACANG","TIPE_1":"KESEHATAN DAN PENGOBATAN","TIPE_2":"LAYANAN MASYARAKAT","TIPE_3":"PUSKESMAS","TELEPON":"","ALAMAT":"JL. PORIS RAYA NO.60, RT.001/RW.018, JATIRAHAYU, KEC. PD. MELATI, KOTA BKS, JAWA BARAT 17414","ID_PROV":"32","PROVINSI":"JAWA BARAT","ID_KABKOT":"32.75","KABKOT":"KOTA BEKASI","ID_KEC":"32.75.12","KECAMATAN":"PONDOKMELATI","ID_DESA":"32.75.12.1001","DESA":"JATIRAHAYU","LONGITUDE":106.9261909,"LATITUDE":-6.2962628,"STATUS":"BUKA","TANGGAL PENGUMPULAN":"Q1 2024","TANGGAL UPDATE":"28/02/2025"}},{"type":"Feature","geometry":{"coordinates":[106.9954639,-6.3001205],"type":"Point"},"properties":{"NAMA":"UPTD PUSKESMAS BOJONG MENTENG","TIPE_1":"KESEHATAN DAN PENGOBATAN","TIPE_2":"LAYANAN MASYARAKAT","TIPE_3":"PUSKESMAS","TELEPON":"","ALAMAT":"JL. JATI TIM. 5 NO.366 NO.365, RT.001/RW.010, BOJONG MENTENG, RAWA LUMBU, BEKASI, WEST JAVA 17117","ID_PROV":"32","PROVINSI":"JAWA BARAT","ID_KABKOT":"32.75","KABKOT":"KOTA BEKASI","ID_KEC":"32.75.05","KECAMATAN":"RAWALUMBU","ID_DESA":"32.75.05.1004","DESA":"BOJONGMENTENG","LONGITUDE":106.9954639,"LATITUDE":-6.3001205,"STATUS":"BUKA","TANGGAL PENGUMPULAN":"Q1 2024","TANGGAL UPDATE":"28/02/2025"}},{"type":"Feature","geometry":{"coordinates":[106.9323135,-6.3055322],"type":"Point"},"properties":{"NAMA":"PUSKESMAS JATI WARNA","TIPE_1":"KESEHATAN DAN PENGOBATAN","TIPE_2":"LAYANAN MASYARAKAT","TIPE_3":"PUSKESMAS","TELEPON":"(021) 84991722","ALAMAT":"JL. PELITA UTAMA NO.1, RT.005/RW.005, JATIWARNA, KEC. PD. MELATI, KOTA BKS, JAWA BARAT 17415","ID_PROV":"32","PROVINSI":"JAWA BARAT","ID_KABKOT":"32.75","KABKOT":"KOTA BEKASI","ID_KEC":"32.75.12","KECAMATAN":"PONDOKMELATI","ID_DESA":"32.75.12.1002","DESA":"JATIWARNA","LONGITUDE":106.9323135,"LATITUDE":-6.3055322,"STATUS":"BUKA","TANGGAL PENGUMPULAN":"Q1 2024","TANGGAL UPDATE":"28/02/2025"}},{"type":"Feature","geometry":{"coordinates":[106.9400184,-6.3511283],"type":"Point"},"properties":{"NAMA":"PUSKESMAS PEMBANTU JATI LUHUR BEKASI","TIPE_1":"KESEHATAN DAN PENGOBATAN","TIPE_2":"LAYANAN MASYARAKAT","TIPE_3":"PUSKESMAS","TELEPON":"","ALAMAT":"JL. JATISARI RAYA, RT.006/RW.006, JATISARI, KEC. JATIASIH, KOTA BKS, JAWA BARAT 17426","ID_PROV":"32","PROVINSI":"JAWA BARAT","ID_KABKOT":"32.75","KABKOT":"KOTA BEKASI","ID_KEC":"32.75.09","KECAMATAN":"JATIASIH","ID_DESA":"32.75.09.1006","DESA":"JATISARI","LONGITUDE":106.9400184,"LATITUDE":-6.3511283,"STATUS":"BUKA","TANGGAL PENGUMPULAN":"Q1 2024","TANGGAL UPDATE":"28/02/2025"}},{"type":"Feature","geometry":{"coordinates":[106.9686856,-6.2805798],"type":"Point"},"properties":{"NAMA":"UPTD PUSKESMAS JAKA MULYA","TIPE_1":"KESEHATAN DAN PENGOBATAN","TIPE_2":"LAYANAN MASYARAKAT","TIPE_3":"PUSKESMAS","TELEPON":"(021) 82772813","ALAMAT":"JL. KOMP. SURYA MANDALA, RT.014/RW.013, JAKA MULYA, KEC. BEKASI SEL., KOTA BKS, JAWA BARAT 17423","ID_PROV":"32","PROVINSI":"JAWA BARAT","ID_KABKOT":"32.75","KABKOT":"KOTA BEKASI","ID_KEC":"32.75.04","KECAMATAN":"BEKASI SELATAN","ID_DESA":"32.75.04.1003","DESA":"JAKAMULYA","LONGITUDE":106.9686856,"LATITUDE":-6.2805798,"STATUS":"BUKA","TANGGAL PENGUMPULAN":"Q1 2024","TANGGAL UPDATE":"28/02/2025"}},{"type":"Feature","geometry":{"coordinates":[106.9253538,-6.2752357],"type":"Point"},"properties":{"NAMA":"PUSKESMAS JATI MAKMUR","TIPE_1":"KESEHATAN DAN PENGOBATAN","TIPE_2":"LAYANAN MASYARAKAT","TIPE_3":"PUSKESMAS","TELEPON":"(021) 84994466","ALAMAT":"PERUM JATI WARINGIN, ASRI JL. KLAYAN NO.E1, RT.003/RW.017, JATIMAKMUR, KOTA BKS, JAWA BARAT 17413","ID_PROV":"32","PROVINSI":"JAWA BARAT","ID_KABKOT":"32.75","KABKOT":"KOTA BEKASI","ID_KEC":"32.75.08","KECAMATAN":"PONDOKGEDE","ID_DESA":"32.75.08.1003","DESA":"JATIMAKMUR","LONGITUDE":106.9253538,"LATITUDE":-6.2752357,"STATUS":"BUKA","TANGGAL PENGUMPULAN":"Q1 2024","TANGGAL UPDATE":"28/02/2025"}},{"type":"Feature","geometry":{"coordinates":[106.9261171,-6.295886],"type":"Point"},"properties":{"NAMA":"PUSKESMAS JATIRAHAYU","TIPE_1":"KESEHATAN DAN PENGOBATAN","TIPE_2":"LAYANAN MASYARAKAT","TIPE_3":"PUSKESMAS","TELEPON":"(021) 8488737","ALAMAT":"JL. KOMP. TVRI, JATIRAHAYU, KEC. PD. MELATI, KOTA BKS, JAWA BARAT 17414","ID_PROV":"32","PROVINSI":"JAWA BARAT","ID_KABKOT":"32.75","KABKOT":"KOTA BEKASI","ID_KEC":"32.75.12","KECAMATAN":"PONDOKMELATI","ID_DESA":"32.75.12.1001","DESA":"JATIRAHAYU","LONGITUDE":106.9261171,"LATITUDE":-6.295886,"STATUS":"BUKA","TANGGAL PENGUMPULAN":"Q1 2024","TANGGAL UPDATE":"28/02/2025"}},{"type":"Feature","geometry":{"coordinates":[106.9496717,-6.3199899],"type":"Point"},"properties":{"NAMA":"PUSKESMAS JATILUHUR","TIPE_1":"KESEHATAN DAN PENGOBATAN","TIPE_2":"LAYANAN MASYARAKAT","TIPE_3":"PUSKESMAS","TELEPON":"(021) 82741831","ALAMAT":"JL. H. DEHIR NO.39, RT.007/RW.002, JATILUHUR, KEC. JATIASIH, KOTA BKS, JAWA BARAT 17425","ID_PROV":"32","PROVINSI":"JAWA BARAT","ID_KABKOT":"32.75","KABKOT":"KOTA BEKASI","ID_KEC":"32.75.09","KECAMATAN":"JATIASIH","ID_DESA":"32.75.09.1005","DESA":"JATILUHUR","LONGITUDE":106.9496717,"LATITUDE":-6.3199899,"STATUS":"BUKA","TANGGAL PENGUMPULAN":"Q1 2024","TANGGAL UPDATE":"28/02/2025"}},{"type":"Feature","geometry":{"coordinates":[106.97055,-6.22635],"type":"Point"},"properties":{"NAMA":"UPTD PUSKESMAS KRANJI","TIPE_1":"KESEHATAN DAN PENGOBATAN","TIPE_2":"LAYANAN MASYARAKAT","TIPE_3":"PUSKESMAS","TELEPON":"","ALAMAT":"PERUM DUTA, JL. SAKURA, RT.006/RW.010, KRANJI, KEC. BEKASI BAR., KOTA BKS, JAWA BARAT 17135","ID_PROV":"32","PROVINSI":"JAWA BARAT","ID_KABKOT":"32.75","KABKOT":"KOTA BEKASI","ID_KEC":"32.75.02","KECAMATAN":"BEKASI BARAT","ID_DESA":"32.75.02.1002","DESA":"KRANJI","LONGITUDE":106.97055,"LATITUDE":-6.22635,"STATUS":"BUKA","TANGGAL PENGUMPULAN":"Q1 2024","TANGGAL UPDATE":"28/02/2025"}},{"type":"Feature","geometry":{"coordinates":[106.947417,-6.2395405],"type":"Point"},"properties":{"NAMA":"PUSKESMAS BINTARA JAYA","TIPE_1":"KESEHATAN DAN PENGOBATAN","TIPE_2":"LAYANAN MASYARAKAT","TIPE_3":"PUSKESMAS","TELEPON":"(021) 86900850","ALAMAT":"JL. TAMBORA NO.3 13, RT.006/RW.3, BINTARA JAYA, KEC. BEKASI BAR., KOTA BKS, JAWA BARAT 17136","ID_PROV":"32","PROVINSI":"JAWA BARAT","ID_KABKOT":"32.75","KABKOT":"KOTA BEKASI","ID_KEC":"32.75.02","KECAMATAN":"BEKASI BARAT","ID_DESA":"32.75.02.1004","DESA":"BINTARAJAYA","LONGITUDE":106.947417,"LATITUDE":-6.2395405,"STATUS":"BUKA","TANGGAL PENGUMPULAN":"Q1 2024","TANGGAL UPDATE":"28/02/2025"}},{"type":"Feature","geometry":{"coordinates":[106.909912,-6.276012],"type":"Point"},"properties":{"NAMA":"PUSKESMAS TAMALANREA","TIPE_1":"KESEHATAN DAN PENGOBATAN","TIPE_2":"LAYANAN MASYARAKAT","TIPE_3":"PUSKESMAS","TELEPON":"(0411) 494014","ALAMAT":"JL. KESEJAHTERAAN TIMUR, NO. 1 BTP, RT.003/RW.3, JATIWARINGIN, KEC. MAKASAR, KOTA BKS, JAWA BARAT 17411","ID_PROV":"32","PROVINSI":"JAWA BARAT","ID_KABKOT":"32.75","KABKOT":"KOTA BEKASI","ID_KEC":"32.75.08","KECAMATAN":"PONDOKGEDE","ID_DESA":"32.75.08.1001","DESA":"JATIWARINGIN","LONGITUDE":106.909912,"LATITUDE":-6.276012,"STATUS":"BUKA","TANGGAL PENGUMPULAN":"Q1 2024","TANGGAL UPDATE":"28/02/2025"}},{"type":"Feature","geometry":{"coordinates":[106.9408298,-6.3162763],"type":"Point"},"properties":{"NAMA":"UPTD PUSKESMAS JATIMELATI","TIPE_1":"KESEHATAN DAN PENGOBATAN","TIPE_2":"LAYANAN MASYARAKAT","TIPE_3":"PUSKESMAS","TELEPON":"","ALAMAT":"JL. PURI GADING UTARA RAYA, RT.004/RW.007, JATIMELATI, JATIASIH, BEKASI, WEST JAVA 17415","ID_PROV":"32","PROVINSI":"JAWA BARAT","ID_KABKOT":"32.75","KABKOT":"KOTA BEKASI","ID_KEC":"32.75.12","KECAMATAN":"PONDOKMELATI","ID_DESA":"32.75.12.1003","DESA":"JATIMELATI","LONGITUDE":106.9408298,"LATITUDE":-6.3162763,"STATUS":"BUKA","TANGGAL PENGUMPULAN":"Q1 2024","TANGGAL UPDATE":"28/02/2025"}},{"type":"Feature","geometry":{"coordinates":[106.9269993,-6.3386839],"type":"Point"},"properties":{"NAMA":"UPTD PUSKESMAS JATIRANGGON","TIPE_1":"KESEHATAN DAN PENGOBATAN","TIPE_2":"LAYANAN MASYARAKAT","TIPE_3":"PUSKESMAS","TELEPON":"","ALAMAT":"JL. RUMAKSO NO.59, RT.010/RW.005, JATIRANGGON, KEC. JATISAMPURNA, KOTA BKS, JAWA BARAT 17432","ID_PROV":"32","PROVINSI":"JAWA BARAT","ID_KABKOT":"32.75","KABKOT":"KOTA BEKASI","ID_KEC":"32.75.10","KECAMATAN":"JATISAMPURNA","ID_DESA":"32.75.10.1003","DESA":"JATIRANGGON","LONGITUDE":106.9269993,"LATITUDE":-6.3386839,"STATUS":"BUKA","TANGGAL PENGUMPULAN":"Q1 2024","TANGGAL UPDATE":"28/02/2025"}},{"type":"Feature","geometry":{"coordinates":[106.9341288,-6.3262452],"type":"Point"},"properties":{"NAMA":"UPTD PUSKESMAS JATIMURNI","TIPE_1":"KESEHATAN DAN PENGOBATAN","TIPE_2":"LAYANAN MASYARAKAT","TIPE_3":"PUSKESMAS","TELEPON":"0812-9090-4293","ALAMAT":"GG. RAMBUTAN, RT.005/RW.003, JATIMURNI, KEC. PD. MELATI, KOTA BKS, JAWA BARAT 17431","ID_PROV":"32","PROVINSI":"JAWA BARAT","ID_KABKOT":"32.75","KABKOT":"KOTA BEKASI","ID_KEC":"32.75.12","KECAMATAN":"PONDOKMELATI","ID_DESA":"32.75.12.1004","DESA":"JATIMURNI","LONGITUDE":106.9341288,"LATITUDE":-6.3262452,"STATUS":"BUKA","TANGGAL PENGUMPULAN":"Q1 2024","TANGGAL UPDATE":"28/02/2025"}},{"type":"Feature","geometry":{"coordinates":[106.9435105,-6.2626222],"type":"Point"},"properties":{"NAMA":"PUSKESMAS JATIBENING BARU","TIPE_1":"KESEHATAN DAN PENGOBATAN","TIPE_2":"LAYANAN MASYARAKAT","TIPE_3":"PUSKESMAS","TELEPON":"","ALAMAT":"RT.013/RW.008, JATIBENING BARU, KEC. PD. GEDE, KOTA BKS, JAWA BARAT 17412","ID_PROV":"32","PROVINSI":"JAWA BARAT","ID_KABKOT":"32.75","KABKOT":"KOTA BEKASI","ID_KEC":"32.75.08","KECAMATAN":"PONDOKGEDE","ID_DESA":"32.75.08.1006","DESA":"JATIBENING BARU","LONGITUDE":106.9435105,"LATITUDE":-6.2626222,"STATUS":"BUKA","TANGGAL PENGUMPULAN":"Q1 2024","TANGGAL UPDATE":"28/02/2025"}},{"type":"Feature","geometry":{"coordinates":[107.0100958,-6.2778548],"type":"Point"},"properties":{"NAMA":"DINAS KESEHATAN KOTA BEKASI UPTO PUSKESMAS PENGASINAN","TIPE_1":"KESEHATAN DAN PENGOBATAN","TIPE_2":"LAYANAN MASYARAKAT","TIPE_3":"PUSKESMAS","TELEPON":"0877-8787-7666","ALAMAT":"JL. NAROGONG JAYA RAYA F NO.66, RT.001/RW.019, PENGASINAN, KEC. RAWALUMBU, KOTA BKS, JAWA BARAT 17115","ID_PROV":"32","PROVINSI":"JAWA BARAT","ID_KABKOT":"32.75","KABKOT":"KOTA BEKASI","ID_KEC":"32.75.05","KECAMATAN":"RAWALUMBU","ID_DESA":"32.75.05.1002","DESA":"PENGASINAN","LONGITUDE":107.0100958,"LATITUDE":-6.2778548,"STATUS":"BUKA","TANGGAL PENGUMPULAN":"Q1 2024","TANGGAL UPDATE":"28/02/2025"}},{"type":"Feature","geometry":{"coordinates":[106.9309428,-6.2807609],"type":"Point"},"properties":{"NAMA":"PUSKESMAS KELURAHAN JATIMAKMUR","TIPE_1":"KESEHATAN DAN PENGOBATAN","TIPE_2":"LAYANAN MASYARAKAT","TIPE_3":"PUSKESMAS","TELEPON":"(021) 8475338","ALAMAT":"JL. RAYA JATI MAKMUR NO.21, RT.001/RW.011, JATIMAKMUR, KEC. PD. GEDE, KOTA BKS, JAWA BARAT 17413","ID_PROV":"32","PROVINSI":"JAWA BARAT","ID_KABKOT":"32.75","KABKOT":"KOTA BEKASI","ID_KEC":"32.75.08","KECAMATAN":"PONDOKGEDE","ID_DESA":"32.75.08.1003","DESA":"JATIMAKMUR","LONGITUDE":106.9309428,"LATITUDE":-6.2807609,"STATUS":"BUKA","TANGGAL PENGUMPULAN":"Q1 2024","TANGGAL UPDATE":"28/02/2025"}},{"type":"Feature","geometry":{"coordinates":[106.931032,-6.2807922],"type":"Point"},"properties":{"NAMA":"DINAS KESEHATAN PUSKESMAS PEMBANTU","TIPE_1":"KESEHATAN DAN PENGOBATAN","TIPE_2":"LAYANAN MASYARAKAT","TIPE_3":"PUSKESMAS","TELEPON":"","ALAMAT":"JL. RAYA JATI MAKMUR, RT.001/RW.011, JATIMAKMUR, KEC. PD. GEDE, KOTA BKS, JAWA BARAT 17413","ID_PROV":"32","PROVINSI":"JAWA BARAT","ID_KABKOT":"32.75","KABKOT":"KOTA BEKASI","ID_KEC":"32.75.08","KECAMATAN":"PONDOKGEDE","ID_DESA":"32.75.08.1003","DESA":"JATIMAKMUR","LONGITUDE":106.931032,"LATITUDE":-6.2807922,"STATUS":"BUKA","TANGGAL PENGUMPULAN":"Q1 2024","TANGGAL UPDATE":"28/02/2025"}},{"type":"Feature","geometry":{"coordinates":[106.9829257,-6.3258155],"type":"Point"},"properties":{"NAMA":"UPTD PUSKESMAS BANTARGEBANG","TIPE_1":"KESEHATAN DAN PENGOBATAN","TIPE_2":"LAYANAN MASYARAKAT","TIPE_3":"PUSKESMAS","TELEPON":"(021) 82621635","ALAMAT":"JL. RAYA NAROGONG NO.KM.11, RT.001/RW.008, BANTARGEBANG, KEC. BANTAR GEBANG, KOTA BKS, JAWA BARAT 17151","ID_PROV":"32","PROVINSI":"JAWA BARAT","ID_KABKOT":"32.75","KABKOT":"KOTA BEKASI","ID_KEC":"32.75.07","KECAMATAN":"BANTARGEBANG","ID_DESA":"32.75.07.1003","DESA":"BANTARGEBANG","LONGITUDE":106.9829257,"LATITUDE":-6.3258155,"STATUS":"BUKA","TANGGAL PENGUMPULAN":"Q1 2024","TANGGAL UPDATE":"28/02/2025"}},{"type":"Feature","geometry":{"coordinates":[106.9784733,-6.2192458],"type":"Point"},"properties":{"NAMA":"UPTD PUSKESMAS KALIBARU","TIPE_1":"KESEHATAN DAN PENGOBATAN","TIPE_2":"LAYANAN MASYARAKAT","TIPE_3":"PUSKESMAS","TELEPON":"0821-1461-4621","ALAMAT":"JL. RAWA BHAKTI 2, RT.007/RW.005, KALI BARU, KECAMATAN MEDAN SATRIA, KOTA BKS, JAWA BARAT 17132","ID_PROV":"32","PROVINSI":"JAWA BARAT","ID_KABKOT":"32.75","KABKOT":"KOTA BEKASI","ID_KEC":"32.75.06","KECAMATAN":"MEDANSATRIA","ID_DESA":"32.75.06.1004","DESA":"KALIBARU","LONGITUDE":106.9784733,"LATITUDE":-6.2192458,"STATUS":"BUKA","TANGGAL PENGUMPULAN":"Q1 2024","TANGGAL UPDATE":"28/02/2025"}},{"type":"Feature","geometry":{"coordinates":[106.9437775,-6.282805],"type":"Point"},"properties":{"NAMA":"UPTD / PUSKESMAS JATI KRAMAT","TIPE_1":"KESEHATAN DAN PENGOBATAN","TIPE_2":"LAYANAN MASYARAKAT","TIPE_3":"PUSKESMAS","TELEPON":"","ALAMAT":"RT.008/RW.003 JKI, JATIKRAMAT, KEC. JATIASIH, KOTA BKS, JAWA BARAT 17421","ID_PROV":"32","PROVINSI":"JAWA BARAT","ID_KABKOT":"32.75","KABKOT":"KOTA BEKASI","ID_KEC":"32.75.09","KECAMATAN":"JATIASIH","ID_DESA":"32.75.09.1003","DESA":"JATIKRAMAT","LONGITUDE":106.9437775,"LATITUDE":-6.282805,"STATUS":"BUKA","TANGGAL PENGUMPULAN":"Q1 2024","TANGGAL UPDATE":"28/02/2025"}},{"type":"Feature","geometry":{"coordinates":[106.9784261,-6.2762201],"type":"Point"},"properties":{"NAMA":"UPTD PUSKESMAS JAKASETIA","TIPE_1":"KESEHATAN DAN PENGOBATAN","TIPE_2":"LAYANAN MASYARAKAT","TIPE_3":"PUSKESMAS","TELEPON":"(021) 82736608","ALAMAT":"JL. ANGGREK NO.36, RT.003/RW.004, JAKA SETIA, KEC. BEKASI SEL., KOTA BKS, JAWA BARAT 17147","ID_PROV":"32","PROVINSI":"JAWA BARAT","ID_KABKOT":"32.75","KABKOT":"KOTA BEKASI","ID_KEC":"32.75.04","KECAMATAN":"BEKASI SELATAN","ID_DESA":"32.75.04.1004","DESA":"JAKASETIA","LONGITUDE":106.9784261,"LATITUDE":-6.2762201,"STATUS":"BUKA","TANGGAL PENGUMPULAN":"Q1 2024","TANGGAL UPDATE":"28/02/2025"}},{"type":"Feature","geometry":{"coordinates":[106.9561606,-6.2618138],"type":"Point"},"properties":{"NAMA":"UPTD PUSKESMAS JATIBENING","TIPE_1":"KESEHATAN DAN PENGOBATAN","TIPE_2":"LAYANAN MASYARAKAT","TIPE_3":"PUSKESMAS","TELEPON":"0812-9185-1844","ALAMAT":"JALAN AMARILIS, RT. 2 / RW. 12 PONDOK GEDE JATIBENING PONDOKGEDE RT.009, RT.009/RW.012, JATIBENING, KEC. PD. GEDE, KOTA BKS, JAWA BARAT 17412","ID_PROV":"32","PROVINSI":"JAWA BARAT","ID_KABKOT":"32.75","KABKOT":"KOTA BEKASI","ID_KEC":"32.75.08","KECAMATAN":"PONDOKGEDE","ID_DESA":"32.75.08.1002","DESA":"JATIBENING","LONGITUDE":106.9561606,"LATITUDE":-6.2618138,"STATUS":"BUKA","TANGGAL PENGUMPULAN":"Q1 2024","TANGGAL UPDATE":"28/02/2025"}},{"type":"Feature","geometry":{"coordinates":[106.942515,-6.278966],"type":"Point"},"properties":{"NAMA":"PUSKESMAS SUKA JAYA","TIPE_1":"KESEHATAN DAN PENGOBATAN","TIPE_2":"LAYANAN MASYARAKAT","TIPE_3":"PUSKESMAS","TELEPON":"(021) 89107119","ALAMAT":"JL. MASJID AL HUDA, RT. 06/03, CIBITUNG, SUKAJAYA, 17520, RT.005/RW.004, JATIKRAMAT, KEC. JATIASIH, KOTA BKS, JAWA BARAT 17421","ID_PROV":"32","PROVINSI":"JAWA BARAT","ID_KABKOT":"32.75","KABKOT":"KOTA BEKASI","ID_KEC":"32.75.09","KECAMATAN":"JATIASIH","ID_DESA":"32.75.09.1003","DESA":"JATIKRAMAT","LONGITUDE":106.942515,"LATITUDE":-6.278966,"STATUS":"BUKA","TANGGAL PENGUMPULAN":"Q1 2024","TANGGAL UPDATE":"28/02/2025"}},{"type":"Feature","geometry":{"coordinates":[106.9223362,-6.3818439],"type":"Point"},"properties":{"NAMA":"PUSKESMAS JATIKARYA","TIPE_1":"KESEHATAN DAN PENGOBATAN","TIPE_2":"LAYANAN MASYARAKAT","TIPE_3":"PUSKESMAS","TELEPON":"","ALAMAT":"RT.002/RW.010, JATIKARYA, JATISAMPURNA, BEKASI, WEST JAVA 17435","ID_PROV":"32","PROVINSI":"JAWA BARAT","ID_KABKOT":"32.75","KABKOT":"KOTA BEKASI","ID_KEC":"32.75.10","KECAMATAN":"JATISAMPURNA","ID_DESA":"32.75.10.1002","DESA":"JATIKARYA","LONGITUDE":106.9223362,"LATITUDE":-6.3818439,"STATUS":"BUKA","TANGGAL PENGUMPULAN":"Q1 2024","TANGGAL UPDATE":"28/02/2025"}},{"type":"Feature","geometry":{"coordinates":[106.9969461,-6.2972255],"type":"Point"},"properties":{"NAMA":"UPT. PUSKESMAS BOJONG MENTENG","TIPE_1":"KESEHATAN DAN PENGOBATAN","TIPE_2":"LAYANAN MASYARAKAT","TIPE_3":"PUSKESMAS","TELEPON":"","ALAMAT":"JL. JATI RAYA NO.109, RT.003/RW.008, BOJONG MENTENG, KEC. RAWALUMBU, KOTA BKS, JAWA BARAT 17117","ID_PROV":"32","PROVINSI":"JAWA BARAT","ID_KABKOT":"32.75","KABKOT":"KOTA BEKASI","ID_KEC":"32.75.05","KECAMATAN":"RAWALUMBU","ID_DESA":"32.75.05.1004","DESA":"BOJONGMENTENG","LONGITUDE":106.9969461,"LATITUDE":-6.2972255,"STATUS":"BUKA","TANGGAL PENGUMPULAN":"Q1 2024","TANGGAL UPDATE":"28/02/2025"}},{"type":"Feature","geometry":{"coordinates":[106.9570404,-6.2276556],"type":"Point"},"properties":{"NAMA":"UPTD PUSKESMAS BINTARA","TIPE_1":"KESEHATAN DAN PENGOBATAN","TIPE_2":"LAYANAN MASYARAKAT","TIPE_3":"PUSKESMAS","TELEPON":"(021) 8894849","ALAMAT":"JL. BINTARA VIII NO.89, RT.005/RW.003, BINTARA, KEC. BEKASI BAR., KOTA BKS, JAWA BARAT 17134","ID_PROV":"32","PROVINSI":"JAWA BARAT","ID_KABKOT":"32.75","KABKOT":"KOTA BEKASI","ID_KEC":"32.75.02","KECAMATAN":"BEKASI BARAT","ID_DESA":"32.75.02.1001","DESA":"BINTARA","LONGITUDE":106.9570404,"LATITUDE":-6.2276556,"STATUS":"BUKA","TANGGAL PENGUMPULAN":"Q1 2024","TANGGAL UPDATE":"28/02/2025"}},{"type":"Feature","geometry":{"coordinates":[106.980577,-6.233382],"type":"Point"},"properties":{"NAMA":"UPTD PUSKESMAS RAWA TEMBAGA","TIPE_1":"KESEHATAN DAN PENGOBATAN","TIPE_2":"LAYANAN MASYARAKAT","TIPE_3":"PUSKESMAS","TELEPON":"(021) 89455615","ALAMAT":"JL. KOMODO RAYA NO.1, RT.002/RW.004, KAYURINGIN JAYA, KEC. BEKASI SEL., KOTA BKS, JAWA BARAT 17144","ID_PROV":"32","PROVINSI":"JAWA BARAT","ID_KABKOT":"32.75","KABKOT":"KOTA BEKASI","ID_KEC":"32.75.04","KECAMATAN":"BEKASI SELATAN","ID_DESA":"32.75.04.1005","DESA":"KAYURINGINJAYA","LONGITUDE":106.980577,"LATITUDE":-6.233382,"STATUS":"BUKA","TANGGAL PENGUMPULAN":"Q1 2024","TANGGAL UPDATE":"28/02/2025"}},{"type":"Feature","geometry":{"coordinates":[106.9648128,-6.293047],"type":"Point"},"properties":{"NAMA":"PUSKESMAS KECAMATAN JATIASIH","TIPE_1":"KESEHATAN DAN PENGOBATAN","TIPE_2":"LAYANAN MASYARAKAT","TIPE_3":"PUSKESMAS","TELEPON":"(021) 82421312","ALAMAT":"JL. SWATANTRA IV NO.1, RT.005/RW.004, JATIASIH, KEC. JATIASIH, KOTA BKS, JAWA BARAT 17423","ID_PROV":"32","PROVINSI":"JAWA BARAT","ID_KABKOT":"32.75","KABKOT":"KOTA BEKASI","ID_KEC":"32.75.09","KECAMATAN":"JATIASIH","ID_DESA":"32.75.09.1002","DESA":"JATIASIH","LONGITUDE":106.9648128,"LATITUDE":-6.293047,"STATUS":"BUKA","TANGGAL PENGUMPULAN":"Q1 2024","TANGGAL UPDATE":"28/02/2025"}},{"type":"Feature","geometry":{"coordinates":[106.9805463,-6.2331972],"type":"Point"},"properties":{"NAMA":"PUSKESMAS PERUMNAS 1 BEKASI","TIPE_1":"KESEHATAN DAN PENGOBATAN","TIPE_2":"LAYANAN MASYARAKAT","TIPE_3":"PUSKESMAS","TELEPON":"","ALAMAT":"JL. KOMODO RAYA, RT.002/RW.004, KAYURINGIN JAYA, KEC. BEKASI SEL., KOTA BKS, JAWA BARAT 17144","ID_PROV":"32","PROVINSI":"JAWA BARAT","ID_KABKOT":"32.75","KABKOT":"KOTA BEKASI","ID_KEC":"32.75.02","KECAMATAN":"BEKASI BARAT","ID_DESA":"32.75.02.1002","DESA":"KRANJI","LONGITUDE":106.9805463,"LATITUDE":-6.2331972,"STATUS":"BUKA","TANGGAL PENGUMPULAN":"Q1 2024","TANGGAL UPDATE":"28/02/2025"}},{"type":"Feature","geometry":{"coordinates":[107.0221299,-6.2219492],"type":"Point"},"properties":{"NAMA":"PUSKESMAS HARAPAN BARU","TIPE_1":"KESEHATAN DAN PENGOBATAN","TIPE_2":"LAYANAN MASYARAKAT","TIPE_3":"PUSKESMAS","TELEPON":"","ALAMAT":"SDN HARAPAN BARU 3, JL. RAYA PERJUANGAN NO.44, RT.002/RW.003, HARAPAN BARU, KEC. BEKASI UTARA, KOTA BKS, JAWA BARAT 17123","ID_PROV":"32","PROVINSI":"JAWA BARAT","ID_KABKOT":"32.75","KABKOT":"KOTA BEKASI","ID_KEC":"32.75.03","KECAMATAN":"BEKASI UTARA","ID_DESA":"32.75.03.1003","DESA":"HARAPANBARU","LONGITUDE":107.0221299,"LATITUDE":-6.2219492,"STATUS":"BUKA","TANGGAL PENGUMPULAN":"Q1 2024","TANGGAL UPDATE":"28/02/2025"}},{"type":"Feature","geometry":{"coordinates":[106.9747826,-6.2669507],"type":"Point"},"properties":{"NAMA":"PUSKESMAS PEKAYON JAYA","TIPE_1":"KESEHATAN DAN PENGOBATAN","TIPE_2":"LAYANAN MASYARAKAT","TIPE_3":"PUSKESMAS","TELEPON":"","ALAMAT":"JL. PULO RIBUNG NO.2, RT.010/RW.013, PEKAYON JAYA, KEC. BEKASI SEL., KOTA BKS, JAWA BARAT 17148","ID_PROV":"32","PROVINSI":"JAWA BARAT","ID_KABKOT":"32.75","KABKOT":"KOTA BEKASI","ID_KEC":"32.75.04","KECAMATAN":"BEKASI SELATAN","ID_DESA":"32.75.04.1001","DESA":"PEKAYONJAYA","LONGITUDE":106.9747826,"LATITUDE":-6.2669507,"STATUS":"BUKA","TANGGAL PENGUMPULAN":"Q1 2024","TANGGAL UPDATE":"28/02/2025"}},{"type":"Feature","geometry":{"coordinates":[106.9891401,-6.2458174],"type":"Point"},"properties":{"NAMA":"PUSKESMAS PERUMNAS 2","TIPE_1":"KESEHATAN DAN PENGOBATAN","TIPE_2":"LAYANAN MASYARAKAT","TIPE_3":"PUSKESMAS","TELEPON":"(021) 88954619","ALAMAT":"JL. BELUT RAYA NO.1, RT.001/RW.006, KAYURINGIN JAYA, KEC. BEKASI SEL., KOTA BKS, JAWA BARAT 17144","ID_PROV":"32","PROVINSI":"JAWA BARAT","ID_KABKOT":"32.75","KABKOT":"KOTA BEKASI","ID_KEC":"32.75.04","KECAMATAN":"BEKASI SELATAN","ID_DESA":"32.75.04.1005","DESA":"KAYURINGINJAYA","LONGITUDE":106.9891401,"LATITUDE":-6.2458174,"STATUS":"BUKA","TANGGAL PENGUMPULAN":"Q1 2024","TANGGAL UPDATE":"28/02/2025"}},{"type":"Feature","geometry":{"coordinates":[106.968255,-6.2142527],"type":"Point"},"properties":{"NAMA":"PUSKESMAS KOTA BARU","TIPE_1":"KESEHATAN DAN PENGOBATAN","TIPE_2":"LAYANAN MASYARAKAT","TIPE_3":"PUSKESMAS","TELEPON":"(021) 8847590","ALAMAT":"JL. MELINJO NO.13, RT.010/RW.006, KOTA BARU, KEC. BEKASI BAR., KOTA BKS, JAWA BARAT 17133","ID_PROV":"32","PROVINSI":"JAWA BARAT","ID_KABKOT":"32.75","KABKOT":"KOTA BEKASI","ID_KEC":"32.75.02","KECAMATAN":"BEKASI BARAT","ID_DESA":"32.75.02.1003","DESA":"KOTABARU","LONGITUDE":106.968255,"LATITUDE":-6.2142527,"STATUS":"BUKA","TANGGAL PENGUMPULAN":"Q1 2024","TANGGAL UPDATE":"28/02/2025"}},{"type":"Feature","geometry":{"coordinates":[106.99897,-6.2776132],"type":"Point"},"properties":{"NAMA":"PUSKESMAS BOJONG RAWALUMBU","TIPE_1":"KESEHATAN DAN PENGOBATAN","TIPE_2":"LAYANAN MASYARAKAT","TIPE_3":"PUSKESMAS","TELEPON":"(021) 8206974","ALAMAT":"PERUM BUMI BEKASI BARU JALAN TRISATYA RAYA JEMBATAN 4-5, JL. PENGGALANG 1 NO.6, RT.001/RW.008, BOJONG RAWALUMBU, KEC. RAWALUMBU, KOTA BKS, JAWA BARAT 17116","ID_PROV":"32","PROVINSI":"JAWA BARAT","ID_KABKOT":"32.75","KABKOT":"KOTA BEKASI","ID_KEC":"32.75.05","KECAMATAN":"RAWALUMBU","ID_DESA":"32.75.05.1001","DESA":"BOJONG RAWALUMBU","LONGITUDE":106.99897,"LATITUDE":-6.2776132,"STATUS":"BUKA","TANGGAL PENGUMPULAN":"Q1 2024","TANGGAL UPDATE":"28/02/2025"}},{"type":"Feature","geometry":{"coordinates":[107.0045831,-6.2296221],"type":"Point"},"properties":{"NAMA":"UPTD PUSKESMAS MARGAMULYA","TIPE_1":"KESEHATAN DAN PENGOBATAN","TIPE_2":"LAYANAN MASYARAKAT","TIPE_3":"PUSKESMAS","TELEPON":"","ALAMAT":"JL. RAYA PERJUANGAN NO.1, RT.003/RW.008, MARGA MULYA, KEC. BEKASI UTARA, KOTA BKS, JAWA BARAT 17142","ID_PROV":"32","PROVINSI":"JAWA BARAT","ID_KABKOT":"32.75","KABKOT":"KOTA BEKASI","ID_KEC":"32.75.03","KECAMATAN":"BEKASI UTARA","ID_DESA":"32.75.03.1005","DESA":"MARGAMULYA","LONGITUDE":107.0045831,"LATITUDE":-6.2296221,"STATUS":"BUKA","TANGGAL PENGUMPULAN":"Q1 2024","TANGGAL UPDATE":"28/02/2025"}},{"type":"Feature","geometry":{"coordinates":[107.0047929,-6.343883],"type":"Point"},"properties":{"NAMA":"UPTD PUSKESMAS SUMURBATU","TIPE_1":"KESEHATAN DAN PENGOBATAN","TIPE_2":"LAYANAN MASYARAKAT","TIPE_3":"PUSKESMAS","TELEPON":"","ALAMAT":"JALAN RAYA SUMBER BATU NO.19, SUMUR BATU, KEC. BANTAR GEBANG, KOTA BKS, JAWA BARAT 17154","ID_PROV":"32","PROVINSI":"JAWA BARAT","ID_KABKOT":"32.75","KABKOT":"KOTA BEKASI","ID_KEC":"32.75.07","KECAMATAN":"BANTARGEBANG","ID_DESA":"32.75.07.1008","DESA":"SUMURBATU","LONGITUDE":107.0047929,"LATITUDE":-6.343883,"STATUS":"BUKA","TANGGAL PENGUMPULAN":"Q1 2024","TANGGAL UPDATE":"28/02/2025"}},{"type":"Feature","geometry":{"coordinates":[106.9890918,-6.2054099],"type":"Point"},"properties":{"NAMA":"UPTD PUSKESMAS SEROJA","TIPE_1":"KESEHATAN DAN PENGOBATAN","TIPE_2":"LAYANAN MASYARAKAT","TIPE_3":"PUSKESMAS","TELEPON":"0852-1956-0386","ALAMAT":"JL. DELIMA NO.21, RT.005/RW.005, HARAPAN JAYA, KEC. BEKASI UTARA, KOTA BKS, JAWA BARAT 17124","ID_PROV":"32","PROVINSI":"JAWA BARAT","ID_KABKOT":"32.75","KABKOT":"KOTA BEKASI","ID_KEC":"32.75.03","KECAMATAN":"BEKASI UTARA","ID_DESA":"32.75.03.1006","DESA":"HARAPANJAYA","LONGITUDE":106.9890918,"LATITUDE":-6.2054099,"STATUS":"BUKA","TANGGAL PENGUMPULAN":"Q1 2024","TANGGAL UPDATE":"28/02/2025"}},{"type":"Feature","geometry":{"coordinates":[106.9770669,-6.1942174],"type":"Point"},"properties":{"NAMA":"PUSKESMAS MEDAN SATRIA","TIPE_1":"KESEHATAN DAN PENGOBATAN","TIPE_2":"LAYANAN MASYARAKAT","TIPE_3":"PUSKESMAS","TELEPON":"","ALAMAT":"JL. HARAPAN INDAH, RT.003/RW.007, HARAPAN JAYA, KECAMATAN MEDAN SATRIA, KOTA BKS, JAWA BARAT 17124","ID_PROV":"32","PROVINSI":"JAWA BARAT","ID_KABKOT":"32.75","KABKOT":"KOTA BEKASI","ID_KEC":"32.75.06","KECAMATAN":"MEDANSATRIA","ID_DESA":"32.75.06.1001","DESA":"MEDANSATRIA","LONGITUDE":106.9770669,"LATITUDE":-6.1942174,"STATUS":"BUKA","TANGGAL PENGUMPULAN":"Q1 2024","TANGGAL UPDATE":"28/02/2025"}},{"type":"Feature","geometry":{"coordinates":[107.0101017,-6.2778316],"type":"Point"},"properties":{"NAMA":"UPTD PUSKESMAS PENGASINAN","TIPE_1":"KESEHATAN DAN PENGOBATAN","TIPE_2":"LAYANAN MASYARAKAT","TIPE_3":"PUSKESMAS","TELEPON":"0851-7955-4836","ALAMAT":"JL. NAROGONG INDAH, PENGASINAN, KEC. RAWALUMBU, KOTA BKS, JAWA BARAT 17115","ID_PROV":"32","PROVINSI":"JAWA BARAT","ID_KABKOT":"32.75","KABKOT":"KOTA BEKASI","ID_KEC":"32.75.05","KECAMATAN":"RAWALUMBU","ID_DESA":"32.75.05.1002","DESA":"PENGASINAN","LONGITUDE":107.0101017,"LATITUDE":-6.2778316,"STATUS":"BUKA","TANGGAL PENGUMPULAN":"Q1 2024","TANGGAL UPDATE":"28/02/2025"}},{"type":"Feature","geometry":{"coordinates":[106.9896554,-6.2115651],"type":"Point"},"properties":{"NAMA":"PUSKESMAS SEROJA \" EDELWEIS \"","TIPE_1":"KESEHATAN DAN PENGOBATAN","TIPE_2":"LAYANAN MASYARAKAT","TIPE_3":"PUSKESMAS","TELEPON":"","ALAMAT":"JL. INTAN NO.PERUM, RT.008/RW.013, HARAPAN JAYA, KEC. BEKASI UTARA, KOTA BKS, JAWA BARAT 17124","ID_PROV":"32","PROVINSI":"JAWA BARAT","ID_KABKOT":"32.75","KABKOT":"KOTA BEKASI","ID_KEC":"32.75.03","KECAMATAN":"BEKASI UTARA","ID_DESA":"32.75.03.1006","DESA":"HARAPANJAYA","LONGITUDE":106.9896554,"LATITUDE":-6.2115651,"STATUS":"BUKA","TANGGAL PENGUMPULAN":"Q1 2024","TANGGAL UPDATE":"28/02/2025"}},{"type":"Feature","geometry":{"coordinates":[106.987002,-6.349455],"type":"Point"},"properties":{"NAMA":"PUSKESMAS CIKETING UDIK","TIPE_1":"KESEHATAN DAN PENGOBATAN","TIPE_2":"LAYANAN MASYARAKAT","TIPE_3":"PUSKESMAS","TELEPON":"(021) 82623627","ALAMAT":"JL. CIKETING UDIK, RT.001/RW.003, CIKETING UDIK, KEC. BANTAR GEBANG, KOTA BKS, JAWA BARAT 17153","ID_PROV":"32","PROVINSI":"JAWA BARAT","ID_KABKOT":"32.75","KABKOT":"KOTA BEKASI","ID_KEC":"32.75.07","KECAMATAN":"BANTARGEBANG","ID_DESA":"32.75.07.1007","DESA":"CIKETINGUDIK","LONGITUDE":106.987002,"LATITUDE":-6.349455,"STATUS":"BUKA","TANGGAL PENGUMPULAN":"Q1 2024","TANGGAL UPDATE":"28/02/2025"}},{"type":"Feature","geometry":{"coordinates":[107.0226214,-6.235871],"type":"Point"},"properties":{"NAMA":"PUSKESMAS DUREN JAYA","TIPE_1":"KESEHATAN DAN PENGOBATAN","TIPE_2":"LAYANAN MASYARAKAT","TIPE_3":"PUSKESMAS","TELEPON":"(021) 8820345","ALAMAT":"JL. ANYER III PERUM, RT.007/RW.009, DUREN JAYA, KEC. BEKASI TIM., KOTA BKS, JAWA BARAT 17111","ID_PROV":"32","PROVINSI":"JAWA BARAT","ID_KABKOT":"32.75","KABKOT":"KOTA BEKASI","ID_KEC":"32.75.01","KECAMATAN":"BEKASI TIMUR","ID_DESA":"32.75.01.1003","DESA":"DURENJAYA","LONGITUDE":107.0226214,"LATITUDE":-6.235871,"STATUS":"BUKA","TANGGAL PENGUMPULAN":"Q1 2024","TANGGAL UPDATE":"28/02/2025"}},{"type":"Feature","geometry":{"coordinates":[107.0303787,-6.2186389],"type":"Point"},"properties":{"NAMA":"PUSKESMAS TELUK PUCUNG","TIPE_1":"KESEHATAN DAN PENGOBATAN","TIPE_2":"LAYANAN MASYARAKAT","TIPE_3":"PUSKESMAS","TELEPON":"","ALAMAT":"JL. RAYA PERJUANGAN NO.1, RT.002/RW.001, TLK. PUCUNG, KEC. BEKASI UTARA, KOTA BKS, JAWA BARAT 17121","ID_PROV":"32","PROVINSI":"JAWA BARAT","ID_KABKOT":"32.75","KABKOT":"KOTA BEKASI","ID_KEC":"32.75.03","KECAMATAN":"BEKASI UTARA","ID_DESA":"32.75.03.1004","DESA":"TELUK PUCUNG","LONGITUDE":107.0303787,"LATITUDE":-6.2186389,"STATUS":"BUKA","TANGGAL PENGUMPULAN":"Q1 2024","TANGGAL UPDATE":"28/02/2025"}},{"type":"Feature","geometry":{"coordinates":[107.0299367,-6.2490547],"type":"Point"},"properties":{"NAMA":"PUSKESMAS AREN JAYA","TIPE_1":"KESEHATAN DAN PENGOBATAN","TIPE_2":"LAYANAN MASYARAKAT","TIPE_3":"PUSKESMAS","TELEPON":"(021) 88347036","ALAMAT":"JL. PULO JAWA NO.RAYA, RT.001/RW.022, AREN JAYA, KEC. BEKASI TIM., KOTA BKS, JAWA BARAT 17111","ID_PROV":"32","PROVINSI":"JAWA BARAT","ID_KABKOT":"32.75","KABKOT":"KOTA BEKASI","ID_KEC":"32.75.01","KECAMATAN":"BEKASI TIMUR","ID_DESA":"32.75.01.1004","DESA":"ARENJAYA","LONGITUDE":107.0299367,"LATITUDE":-6.2490547,"STATUS":"BUKA","TANGGAL PENGUMPULAN":"Q1 2024","TANGGAL UPDATE":"28/02/2025"}},{"type":"Feature","geometry":{"coordinates":[107.0002742,-6.1756743],"type":"Point"},"properties":{"NAMA":"PUSKESMAS KALIABANG TENGAH","TIPE_1":"KESEHATAN DAN PENGOBATAN","TIPE_2":"LAYANAN MASYARAKAT","TIPE_3":"PUSKESMAS","TELEPON":"(021) 88970618","ALAMAT":"JALAN MAWAR INDAH A2 NO.2, JL. MAWAR INDAH NO.2 BLOK A2, RT.001/RW.009, KALIABANG TENGAH, KEC. BEKASI UTARA, KOTA BKS, JAWA BARAT 17125","ID_PROV":"32","PROVINSI":"JAWA BARAT","ID_KABKOT":"32.75","KABKOT":"KOTA BEKASI","ID_KEC":"32.75.03","KECAMATAN":"BEKASI UTARA","ID_DESA":"32.75.03.1001","DESA":"KALIABANG TENGAH","LONGITUDE":107.0002742,"LATITUDE":-6.1756743,"STATUS":"BUKA","TANGGAL PENGUMPULAN":"Q1 2024","TANGGAL UPDATE":"28/02/2025"}},{"type":"Feature","geometry":{"coordinates":[107.0121875,-6.2319375],"type":"Point"},"properties":{"NAMA":"UPTD PUSKESMAS BEKASI JAYA","TIPE_1":"KESEHATAN DAN PENGOBATAN","TIPE_2":"LAYANAN MASYARAKAT","TIPE_3":"PUSKESMAS","TELEPON":"(021) 88397038","ALAMAT":"RT.006/RW.003, BEKASI JAYA, KEC. BEKASI TIM., KOTA BKS, JAWA BARAT 17112","ID_PROV":"32","PROVINSI":"JAWA BARAT","ID_KABKOT":"32.75","KABKOT":"KOTA BEKASI","ID_KEC":"32.75.01","KECAMATAN":"BEKASI TIMUR","ID_DESA":"32.75.01.1001","DESA":"BEKASIJAYA","LONGITUDE":107.0121875,"LATITUDE":-6.2319375,"STATUS":"BUKA","TANGGAL PENGUMPULAN":"Q1 2024","TANGGAL UPDATE":"28/02/2025"}},{"type":"Feature","geometry":{"coordinates":[107.0271618,-6.289227],"type":"Point"},"properties":{"NAMA":"PUSKESMAS MUSTIKA JAYA","TIPE_1":"KESEHATAN DAN PENGOBATAN","TIPE_2":"LAYANAN MASYARAKAT","TIPE_3":"PUSKESMAS","TELEPON":"(021) 82617098","ALAMAT":"PERUM. MUTIARA GADING TIMUR BLOK F1, RT.008/RW.033, MUSTIKA JAYA, KEC. MUSTIKA JAYA, KOTA BKS, JAWA BARAT 17158","ID_PROV":"32","PROVINSI":"JAWA BARAT","ID_KABKOT":"32.75","KABKOT":"KOTA BEKASI","ID_KEC":"32.75.11","KECAMATAN":"MUSTIKAJAYA","ID_DESA":"32.75.11.1003","DESA":"MUSTIKAJAYA","LONGITUDE":107.0271618,"LATITUDE":-6.289227,"STATUS":"BUKA","TANGGAL PENGUMPULAN":"Q1 2024","TANGGAL UPDATE":"28/02/2025"}},{"type":"Feature","geometry":{"coordinates":[107.0085943,-6.3155683],"type":"Point"},"properties":{"NAMA":"PUSKESMAS PADURENAN","TIPE_1":"KESEHATAN DAN PENGOBATAN","TIPE_2":"LAYANAN MASYARAKAT","TIPE_3":"PUSKESMAS","TELEPON":"","ALAMAT":"RT.002/RW.007, PADURENAN, KEC. MUSTIKA JAYA, KOTA BKS, JAWA BARAT 16340","ID_PROV":"32","PROVINSI":"JAWA BARAT","ID_KABKOT":"32.75","KABKOT":"KOTA BEKASI","ID_KEC":"32.75.11","KECAMATAN":"MUSTIKAJAYA","ID_DESA":"32.75.11.1001","DESA":"PADURENAN","LONGITUDE":107.0085943,"LATITUDE":-6.3155683,"STATUS":"BUKA","TANGGAL PENGUMPULAN":"Q1 2024","TANGGAL UPDATE":"28/02/2025"}},{"type":"Feature","geometry":{"coordinates":[107.0260859,-6.3198346],"type":"Point"},"properties":{"NAMA":"PUSKESMAS CIMUNING","TIPE_1":"KESEHATAN DAN PENGOBATAN","TIPE_2":"LAYANAN MASYARAKAT","TIPE_3":"PUSKESMAS","TELEPON":"(021) 82622740","ALAMAT":"JL. BANTAR GEBANG SETU, RT.002/RW.001, CIMUNING, KEC. MUSTIKA JAYA, KOTA BKS, JAWA BARAT 17155","ID_PROV":"32","PROVINSI":"JAWA BARAT","ID_KABKOT":"32.75","KABKOT":"KOTA BEKASI","ID_KEC":"32.75.11","KECAMATAN":"MUSTIKAJAYA","ID_DESA":"32.75.11.1002","DESA":"CIMUNING","LONGITUDE":107.0260859,"LATITUDE":-6.3198346,"STATUS":"BUKA","TANGGAL PENGUMPULAN":"Q1 2024","TANGGAL UPDATE":"28/02/2025"}},{"type":"Feature","geometry":{"coordinates":[107.0163356,-6.2088184],"type":"Point"},"properties":{"NAMA":"UPTD PUSKESMAS HARAPAN BARU","TIPE_1":"KESEHATAN DAN PENGOBATAN","TIPE_2":"LAYANAN MASYARAKAT","TIPE_3":"PUSKESMAS","TELEPON":"","ALAMAT":"JL. PRIMA HARAPAN REGENCY, RT.015/RW.009, HARAPAN BARU, KEC. BEKASI UTARA, KOTA BKS, JAWA BARAT 17123","ID_PROV":"32","PROVINSI":"JAWA BARAT","ID_KABKOT":"32.75","KABKOT":"KOTA BEKASI","ID_KEC":"32.75.03","KECAMATAN":"BEKASI UTARA","ID_DESA":"32.75.03.1003","DESA":"HARAPANBARU","LONGITUDE":107.0163356,"LATITUDE":-6.2088184,"STATUS":"BUKA","TANGGAL PENGUMPULAN":"Q1 2024","TANGGAL UPDATE":"28/02/2025"}},{"type":"Feature","geometry":{"coordinates":[107.003475,-6.206957],"type":"Point"},"properties":{"NAMA":"PUSKESMAS PERWIRA","TIPE_1":"KESEHATAN DAN PENGOBATAN","TIPE_2":"LAYANAN MASYARAKAT","TIPE_3":"PUSKESMAS","TELEPON":"","ALAMAT":"JL. PERWIRA JAYA NO.55, RT.002/RW.012, PERWIRA, KEC. BEKASI UTARA, KOTA BKS, JAWA BARAT 17124","ID_PROV":"32","PROVINSI":"JAWA BARAT","ID_KABKOT":"32.75","KABKOT":"KOTA BEKASI","ID_KEC":"32.75.03","KECAMATAN":"BEKASI UTARA","ID_DESA":"32.75.03.1002","DESA":"PERWIRA","LONGITUDE":107.003475,"LATITUDE":-6.206957,"STATUS":"BUKA","TANGGAL PENGUMPULAN":"Q1 2024","TANGGAL UPDATE":"28/02/2025"}},{"type":"Feature","geometry":{"coordinates":[107.0110644,-6.2580143],"type":"Point"},"properties":{"NAMA":"PUSKESMAS KARANG KITRI","TIPE_1":"KESEHATAN DAN PENGOBATAN","TIPE_2":"LAYANAN MASYARAKAT","TIPE_3":"PUSKESMAS","TELEPON":"(021) 29566191","ALAMAT":"4, JL. CHAIRIL ANWAR NO.111, RT.004/RW.009, MARGAHAYU, KEC. BEKASI TIM., KOTA BKS, JAWA BARAT 17113","ID_PROV":"32","PROVINSI":"JAWA BARAT","ID_KABKOT":"32.75","KABKOT":"KOTA BEKASI","ID_KEC":"32.75.01","KECAMATAN":"BEKASI TIMUR","ID_DESA":"32.75.01.1002","DESA":"MARGAHAYU","LONGITUDE":107.0110644,"LATITUDE":-6.2580143,"STATUS":"BUKA","TANGGAL PENGUMPULAN":"Q1 2024","TANGGAL UPDATE":"28/02/2025"}},{"type":"Feature","geometry":{"coordinates":[106.9932666,-6.1986289],"type":"Point"},"properties":{"NAMA":"PUSKESMAS PEJUANG","TIPE_1":"KESEHATAN DAN PENGOBATAN","TIPE_2":"LAYANAN MASYARAKAT","TIPE_3":"PUSKESMAS","TELEPON":"(021) 88975352","ALAMAT":"JL. KALIABANG BUNGUR RAYA NO.2, PEJUANG, KECAMATAN MEDAN SATRIA, KOTA BKS, JAWA BARAT 17131","ID_PROV":"32","PROVINSI":"JAWA BARAT","ID_KABKOT":"32.75","KABKOT":"KOTA BEKASI","ID_KEC":"32.75.06","KECAMATAN":"MEDANSATRIA","ID_DESA":"32.75.06.1003","DESA":"PEJUANG","LONGITUDE":106.9932666,"LATITUDE":-6.1986289,"STATUS":"BUKA","TANGGAL PENGUMPULAN":"Q1 2024","TANGGAL UPDATE":"28/02/2025"}},{"type":"Feature","geometry":{"coordinates":[106.978988,-6.336311],"type":"Point"},"properties":{"NAMA":"PUSKESMAS CIKIWUL","TIPE_1":"KESEHATAN DAN PENGOBATAN","TIPE_2":"LAYANAN MASYARAKAT","TIPE_3":"PUSKESMAS","TELEPON":"","ALAMAT":"RT.004/RW.001, CIKIWUL, KEC. BANTAR GEBANG, KOTA BKS, JAWA BARAT","ID_PROV":"32","PROVINSI":"JAWA BARAT","ID_KABKOT":"32.75","KABKOT":"KOTA BEKASI","ID_KEC":"32.75.07","KECAMATAN":"BANTARGEBANG","ID_DESA":"32.75.07.1004","DESA":"CIKIWUL","LONGITUDE":106.978988,"LATITUDE":-6.336311,"STATUS":"BUKA","TANGGAL PENGUMPULAN":"Q1 2024","TANGGAL UPDATE":"28/02/2025"}}]}