{"type":"FeatureCollection","features":[{"type":"Feature","geometry":{"coordinates":[106.7809245,-6.1380338],"type":"Point"},"properties":{"NAMA":"PUSKESMAS KECAMATAN PENJARINGAN","TIPE_1":"KESEHATAN DAN PENGOBATAN","TIPE_2":"LAYANAN MASYARAKAT","TIPE_3":"PUSKESMAS","TELEPON":"(021) 66694917","ALAMAT":"JL. TELUK GONG RAYA NO.2 8, RT.8/RW.10, PEJAGALAN, KEC. PENJARINGAN, JKT UTARA, DAERAH KHUSUS IBUKOTA JAKARTA 14450","ID_PROV":"31","PROVINSI":"DKI JAKARTA","ID_KABKOT":"31.72","KABKOT":"KOTA ADM. JAKARTA UTARA","ID_KEC":"31.72.01","KECAMATAN":"PENJARINGAN","ID_DESA":"31.72.01.1004","DESA":"PEJAGALAN","LONGITUDE":106.7809245,"LATITUDE":-6.1380338,"STATUS":"BUKA","TANGGAL PENGUMPULAN":"Q1 2024","TANGGAL UPDATE":"28/02/2025"}},{"type":"Feature","geometry":{"coordinates":[106.8719077,-6.152689],"type":"Point"},"properties":{"NAMA":"PUSKESMAS SUNTER JAYA 2","TIPE_1":"KESEHATAN DAN PENGOBATAN","TIPE_2":"LAYANAN MASYARAKAT","TIPE_3":"PUSKESMAS","TELEPON":"(021) 6515132","ALAMAT":"JL. KENANGA NO.23 13, RT.13/RW.7, SUNTER JAYA, KEC. TJ. PRIOK, JKT UTARA, DAERAH KHUSUS IBUKOTA JAKARTA 14360","ID_PROV":"31","PROVINSI":"DKI JAKARTA","ID_KABKOT":"31.72","KABKOT":"KOTA ADM. JAKARTA UTARA","ID_KEC":"31.72.02","KECAMATAN":"TANJUNG PRIOK","ID_DESA":"31.72.02.1002","DESA":"SUNTER JAYA","LONGITUDE":106.8719077,"LATITUDE":-6.152689,"STATUS":"BUKA","TANGGAL PENGUMPULAN":"Q1 2024","TANGGAL UPDATE":"28/02/2025"}},{"type":"Feature","geometry":{"coordinates":[106.9191535,-6.1164331],"type":"Point"},"properties":{"NAMA":"PUSKESMAS KELURAHAN SEMPER BARAT 1","TIPE_1":"KESEHATAN DAN PENGOBATAN","TIPE_2":"LAYANAN MASYARAKAT","TIPE_3":"PUSKESMAS","TELEPON":"(021) 4400351","ALAMAT":"JL. DUREN NO.49, RT.2/RW.8, SEMPER BAR., KEC. CILINCING, JKT UTARA, DAERAH KHUSUS IBUKOTA JAKARTA 14130","ID_PROV":"31","PROVINSI":"DKI JAKARTA","ID_KABKOT":"31.72","KABKOT":"KOTA ADM. JAKARTA UTARA","ID_KEC":"31.72.04","KECAMATAN":"CILINCING","ID_DESA":"31.72.04.1007","DESA":"SEMPER BARAT","LONGITUDE":106.9191535,"LATITUDE":-6.1164331,"STATUS":"BUKA","TANGGAL PENGUMPULAN":"Q1 2024","TANGGAL UPDATE":"28/02/2025"}},{"type":"Feature","geometry":{"coordinates":[106.9111879,-6.1130361],"type":"Point"},"properties":{"NAMA":"PUSKESMAS KELURAHAN LAGOA","TIPE_1":"KESEHATAN DAN PENGOBATAN","TIPE_2":"LAYANAN MASYARAKAT","TIPE_3":"PUSKESMAS","TELEPON":"(021) 49302114","ALAMAT":"NO. 1, KOJA, JL. MENTENG, RT.1/RW.9, LAGOA, JAKARTA UTARA, JKT UTARA, DAERAH KHUSUS IBUKOTA JAKARTA 14270","ID_PROV":"31","PROVINSI":"DKI JAKARTA","ID_KABKOT":"31.72","KABKOT":"KOTA ADM. JAKARTA UTARA","ID_KEC":"31.72.03","KECAMATAN":"KOJA","ID_DESA":"31.72.03.1003","DESA":"LAGOA","LONGITUDE":106.9111879,"LATITUDE":-6.1130361,"STATUS":"BUKA","TANGGAL PENGUMPULAN":"Q1 2024","TANGGAL UPDATE":"28/02/2025"}},{"type":"Feature","geometry":{"coordinates":[106.8754982,-6.1206736],"type":"Point"},"properties":{"NAMA":"PUSKESMAS KELURAHAN WARAKAS","TIPE_1":"KESEHATAN DAN PENGOBATAN","TIPE_2":"LAYANAN MASYARAKAT","TIPE_3":"PUSKESMAS","TELEPON":"(021) 4308865","ALAMAT":"GG. 13 NO.22 6, RT.6/RW.11, WARAKAS, KEC. TJ. PRIOK, JKT UTARA, DAERAH KHUSUS IBUKOTA JAKARTA 14370","ID_PROV":"31","PROVINSI":"DKI JAKARTA","ID_KABKOT":"31.72","KABKOT":"KOTA ADM. JAKARTA UTARA","ID_KEC":"31.72.02","KECAMATAN":"TANJUNG PRIOK","ID_DESA":"31.72.02.1007","DESA":"WARAKAS","LONGITUDE":106.8754982,"LATITUDE":-6.1206736,"STATUS":"BUKA","TANGGAL PENGUMPULAN":"Q1 2024","TANGGAL UPDATE":"28/02/2025"}},{"type":"Feature","geometry":{"coordinates":[106.8988377,-6.1111037],"type":"Point"},"properties":{"NAMA":"PUSKESMAS KELURAHAN KOJA DELI","TIPE_1":"KESEHATAN DAN PENGOBATAN","TIPE_2":"LAYANAN MASYARAKAT","TIPE_3":"PUSKESMAS","TELEPON":"(021) 43908462","ALAMAT":"JL. LORONG 28 NO.2, RT.9/RW.3, KOJA, KEC. KOJA, JKT UTARA, DAERAH KHUSUS IBUKOTA JAKARTA 14220","ID_PROV":"31","PROVINSI":"DKI JAKARTA","ID_KABKOT":"31.72","KABKOT":"KOTA ADM. JAKARTA UTARA","ID_KEC":"31.72.03","KECAMATAN":"KOJA","ID_DESA":"31.72.03.1001","DESA":"KOJA","LONGITUDE":106.8988377,"LATITUDE":-6.1111037,"STATUS":"BUKA","TANGGAL PENGUMPULAN":"Q1 2024","TANGGAL UPDATE":"28/02/2025"}},{"type":"Feature","geometry":{"coordinates":[106.837863,-6.1355139],"type":"Point"},"properties":{"NAMA":"PUSKESMAS KELURAHAN PADEMANGAN BARAT II","TIPE_1":"KESEHATAN DAN PENGOBATAN","TIPE_2":"LAYANAN MASYARAKAT","TIPE_3":"PUSKESMAS","TELEPON":"(021) 6413841","ALAMAT":"JL. WASPADA RAYA GG. D. 1 NO.B2, PADEMANGAN BAR., KEC. PADEMANGAN, JKT UTARA, DAERAH KHUSUS IBUKOTA JAKARTA 14420","ID_PROV":"31","PROVINSI":"DKI JAKARTA","ID_KABKOT":"31.72","KABKOT":"KOTA ADM. JAKARTA UTARA","ID_KEC":"31.72.05","KECAMATAN":"PADEMANGAN","ID_DESA":"31.72.05.1002","DESA":"PADEMANGAN BARAT","LONGITUDE":106.837863,"LATITUDE":-6.1355139,"STATUS":"BUKA","TANGGAL PENGUMPULAN":"Q1 2024","TANGGAL UPDATE":"28/02/2025"}},{"type":"Feature","geometry":{"coordinates":[106.9242464,-6.1483942],"type":"Point"},"properties":{"NAMA":"PUSKESMAS SUKAPURA","TIPE_1":"KESEHATAN DAN PENGOBATAN","TIPE_2":"LAYANAN MASYARAKAT","TIPE_3":"PUSKESMAS","TELEPON":"(021) 44834952","ALAMAT":"JL. TIPAR CAKUNG NO.1, SUKAPURA, KEC. CILINCING, JKT UTARA, DAERAH KHUSUS IBUKOTA JAKARTA 14140","ID_PROV":"31","PROVINSI":"DKI JAKARTA","ID_KABKOT":"31.72","KABKOT":"KOTA ADM. JAKARTA UTARA","ID_KEC":"31.72.04","KECAMATAN":"CILINCING","ID_DESA":"31.72.04.1002","DESA":"SUKAPURA","LONGITUDE":106.9242464,"LATITUDE":-6.1483942,"STATUS":"BUKA","TANGGAL PENGUMPULAN":"Q1 2024","TANGGAL UPDATE":"28/02/2025"}},{"type":"Feature","geometry":{"coordinates":[106.9010227,-6.1193698],"type":"Point"},"properties":{"NAMA":"PUSKESMAS KELURAHAN RAWABADAK UTARA1","TIPE_1":"KESEHATAN DAN PENGOBATAN","TIPE_2":"LAYANAN MASYARAKAT","TIPE_3":"PUSKESMAS","TELEPON":"(021) 43933827","ALAMAT":"JL. RAWA BADAK BARAT NO.37, RT.6/RW.11, RAWABADAK UTARA, KEC. KOJA, JKT UTARA, DAERAH KHUSUS IBUKOTA JAKARTA 14230","ID_PROV":"31","PROVINSI":"DKI JAKARTA","ID_KABKOT":"31.72","KABKOT":"KOTA ADM. JAKARTA UTARA","ID_KEC":"31.72.03","KECAMATAN":"KOJA","ID_DESA":"31.72.03.1004","DESA":"RAWA BADAK UTARA","LONGITUDE":106.9010227,"LATITUDE":-6.1193698,"STATUS":"BUKA","TANGGAL PENGUMPULAN":"Q1 2024","TANGGAL UPDATE":"28/02/2025"}},{"type":"Feature","geometry":{"coordinates":[106.8769842,-6.1157501],"type":"Point"},"properties":{"NAMA":"PUSKESMAS KELURAHAN TANJUNG PRIOK","TIPE_1":"KESEHATAN DAN PENGOBATAN","TIPE_2":"LAYANAN MASYARAKAT","TIPE_3":"PUSKESMAS","TELEPON":"(021) 4371985","ALAMAT":"JL. BAHARI III NO.65 2, RT.1/RW.10, TJ. PRIOK, KEC. TJ. PRIOK, JKT UTARA, DAERAH KHUSUS IBUKOTA JAKARTA 14310","ID_PROV":"31","PROVINSI":"DKI JAKARTA","ID_KABKOT":"31.72","KABKOT":"KOTA ADM. JAKARTA UTARA","ID_KEC":"31.72.02","KECAMATAN":"TANJUNG PRIOK","ID_DESA":"31.72.02.1001","DESA":"TANJUNG PRIOK","LONGITUDE":106.8769842,"LATITUDE":-6.1157501,"STATUS":"BUKA","TANGGAL PENGUMPULAN":"Q1 2024","TANGGAL UPDATE":"28/02/2025"}},{"type":"Feature","geometry":{"coordinates":[106.8696172,-6.135833],"type":"Point"},"properties":{"NAMA":"PUSKESMAS SUNTER AGUNG III","TIPE_1":"KESEHATAN DAN PENGOBATAN","TIPE_2":"LAYANAN MASYARAKAT","TIPE_3":"PUSKESMAS","TELEPON":"(021) 6503209","ALAMAT":"3, JL. TAMAN NYIUR 7 NO.15, RT.3/RW.15, SUNTER AGUNG, KEC. TJ. PRIOK, JKT UTARA, DAERAH KHUSUS IBUKOTA JAKARTA 14350","ID_PROV":"31","PROVINSI":"DKI JAKARTA","ID_KABKOT":"31.72","KABKOT":"KOTA ADM. JAKARTA UTARA","ID_KEC":"31.72.02","KECAMATAN":"TANJUNG PRIOK","ID_DESA":"31.72.02.1006","DESA":"SUNTER AGUNG","LONGITUDE":106.8696172,"LATITUDE":-6.135833,"STATUS":"BUKA","TANGGAL PENGUMPULAN":"Q1 2024","TANGGAL UPDATE":"28/02/2025"}},{"type":"Feature","geometry":{"coordinates":[106.9195287,-6.1194525],"type":"Point"},"properties":{"NAMA":"PUSKESMAS KELURAHAN TUGU UTARA III","TIPE_1":"KESEHATAN DAN PENGOBATAN","TIPE_2":"LAYANAN MASYARAKAT","TIPE_3":"PUSKESMAS","TELEPON":"","ALAMAT":"NO.8,, JL. CAMAR 14 NO.6, RT.1/RW.18, TUGU UTARA, KEC. KOJA, JKT UTARA, DAERAH KHUSUS IBUKOTA JAKARTA 14130","ID_PROV":"31","PROVINSI":"DKI JAKARTA","ID_KABKOT":"31.72","KABKOT":"KOTA ADM. JAKARTA UTARA","ID_KEC":"31.72.03","KECAMATAN":"KOJA","ID_DESA":"31.72.03.1002","DESA":"TUGU UTARA","LONGITUDE":106.9195287,"LATITUDE":-6.1194525,"STATUS":"BUKA","TANGGAL PENGUMPULAN":"Q1 2024","TANGGAL UPDATE":"28/02/2025"}},{"type":"Feature","geometry":{"coordinates":[106.8722021,-6.1299741],"type":"Point"},"properties":{"NAMA":"PUSKESMAS PAPANGGO","TIPE_1":"KESEHATAN DAN PENGOBATAN","TIPE_2":"LAYANAN MASYARAKAT","TIPE_3":"PUSKESMAS","TELEPON":"","ALAMAT":"JL. BISMA RAYA, RT.10/RW.9, PAPANGGO, KEC. TJ. PRIOK, JKT UTARA, DAERAH KHUSUS IBUKOTA JAKARTA 14340","ID_PROV":"31","PROVINSI":"DKI JAKARTA","ID_KABKOT":"31.72","KABKOT":"KOTA ADM. JAKARTA UTARA","ID_KEC":"31.72.02","KECAMATAN":"TANJUNG PRIOK","ID_DESA":"31.72.02.1003","DESA":"PAPANGGO","LONGITUDE":106.8722021,"LATITUDE":-6.1299741,"STATUS":"BUKA","TANGGAL PENGUMPULAN":"Q1 2024","TANGGAL UPDATE":"28/02/2025"}},{"type":"Feature","geometry":{"coordinates":[106.8664843,-6.1554908],"type":"Point"},"properties":{"NAMA":"PUSKESMAS SUNTER JAYA 1","TIPE_1":"KESEHATAN DAN PENGOBATAN","TIPE_2":"LAYANAN MASYARAKAT","TIPE_3":"PUSKESMAS","TELEPON":"","ALAMAT":"JL. SUNTER JAYA IV A 4, RT.4/RW.3, SUNTER JAYA, KEC. TJ. PRIOK, JKT UTARA, DAERAH KHUSUS IBUKOTA JAKARTA 14360","ID_PROV":"31","PROVINSI":"DKI JAKARTA","ID_KABKOT":"31.72","KABKOT":"KOTA ADM. JAKARTA UTARA","ID_KEC":"31.72.02","KECAMATAN":"TANJUNG PRIOK","ID_DESA":"31.72.02.1002","DESA":"SUNTER JAYA","LONGITUDE":106.8664843,"LATITUDE":-6.1554908,"STATUS":"BUKA","TANGGAL PENGUMPULAN":"Q1 2024","TANGGAL UPDATE":"28/02/2025"}},{"type":"Feature","geometry":{"coordinates":[106.9215497,-6.1359498],"type":"Point"},"properties":{"NAMA":"PUSKESMAS KELURAHAN SEMPER BARAT II","TIPE_1":"KESEHATAN DAN PENGOBATAN","TIPE_2":"LAYANAN MASYARAKAT","TIPE_3":"PUSKESMAS","TELEPON":"(021) 4410227","ALAMAT":"JL. TIPAR CAKUNG NO.48, RT.6/RW.4, SEMPER BAR., KEC. CILINCING, JKT UTARA, DAERAH KHUSUS IBUKOTA JAKARTA 14140","ID_PROV":"31","PROVINSI":"DKI JAKARTA","ID_KABKOT":"31.72","KABKOT":"KOTA ADM. JAKARTA UTARA","ID_KEC":"31.72.04","KECAMATAN":"CILINCING","ID_DESA":"31.72.04.1007","DESA":"SEMPER BARAT","LONGITUDE":106.9215497,"LATITUDE":-6.1359498,"STATUS":"BUKA","TANGGAL PENGUMPULAN":"Q1 2024","TANGGAL UPDATE":"28/02/2025"}},{"type":"Feature","geometry":{"coordinates":[106.8619428,-6.1424338],"type":"Point"},"properties":{"NAMA":"PUSKESMAS","TIPE_1":"KESEHATAN DAN PENGOBATAN","TIPE_2":"LAYANAN MASYARAKAT","TIPE_3":"PUSKESMAS","TELEPON":"","ALAMAT":"JL. AGUNG BAR. 26 NO.9 7, RT.7/RW.10, SUNTER AGUNG, KEC. TJ. PRIOK, JKT UTARA, DAERAH KHUSUS IBUKOTA JAKARTA 14350","ID_PROV":"31","PROVINSI":"DKI JAKARTA","ID_KABKOT":"31.72","KABKOT":"KOTA ADM. JAKARTA UTARA","ID_KEC":"31.72.02","KECAMATAN":"TANJUNG PRIOK","ID_DESA":"31.72.02.1006","DESA":"SUNTER AGUNG","LONGITUDE":106.8619428,"LATITUDE":-6.1424338,"STATUS":"BUKA","TANGGAL PENGUMPULAN":"Q1 2024","TANGGAL UPDATE":"28/02/2025"}},{"type":"Feature","geometry":{"coordinates":[106.9135018,-6.1220252],"type":"Point"},"properties":{"NAMA":"PUSKESMAS KECAMATAN KOJA","TIPE_1":"KESEHATAN DAN PENGOBATAN","TIPE_2":"LAYANAN MASYARAKAT","TIPE_3":"PUSKESMAS","TELEPON":"(021) 43905753","ALAMAT":"JL. MAHONI NO.9, RT.9/RW.5, TUGU UTARA, KEC. KOJA, JKT UTARA, DAERAH KHUSUS IBUKOTA JAKARTA 14260","ID_PROV":"31","PROVINSI":"DKI JAKARTA","ID_KABKOT":"31.72","KABKOT":"KOTA ADM. JAKARTA UTARA","ID_KEC":"31.72.03","KECAMATAN":"KOJA","ID_DESA":"31.72.03.1002","DESA":"TUGU UTARA","LONGITUDE":106.9135018,"LATITUDE":-6.1220252,"STATUS":"BUKA","TANGGAL PENGUMPULAN":"Q1 2024","TANGGAL UPDATE":"28/02/2025"}},{"type":"Feature","geometry":{"coordinates":[106.9134143,-6.1208596],"type":"Point"},"properties":{"NAMA":"POLI GIGI PUSKESMAS KECAMATAN KOJA","TIPE_1":"KESEHATAN DAN PENGOBATAN","TIPE_2":"LAYANAN MASYARAKAT","TIPE_3":"PUSKESMAS","TELEPON":"0813-1100-5514","ALAMAT":"JL. MAHONI SELATAN NO.9, RT.1/RW.1, TUGU UTARA, KEC. KOJAUTARA, RT.9/RW.5, TUGU UTARA, KEC. KOJA, JKT UTARA, DAERAH KHUSUS IBUKOTA JAKARTA 14260","ID_PROV":"31","PROVINSI":"DKI JAKARTA","ID_KABKOT":"31.72","KABKOT":"KOTA ADM. JAKARTA UTARA","ID_KEC":"31.72.03","KECAMATAN":"KOJA","ID_DESA":"31.72.03.1002","DESA":"TUGU UTARA","LONGITUDE":106.9134143,"LATITUDE":-6.1208596,"STATUS":"BUKA","TANGGAL PENGUMPULAN":"Q1 2024","TANGGAL UPDATE":"28/02/2025"}},{"type":"Feature","geometry":{"coordinates":[106.9277171,-6.1020065],"type":"Point"},"properties":{"NAMA":"PUSKESMAS KALIBARU","TIPE_1":"KESEHATAN DAN PENGOBATAN","TIPE_2":"LAYANAN MASYARAKAT","TIPE_3":"PUSKESMAS","TELEPON":"","ALAMAT":"JL. KALI BARU TIMUR I NO.13 1, RT.14/RW.2, KALI BARU, KEC. CILINCING, JKT UTARA, DAERAH KHUSUS IBUKOTA JAKARTA 14110","ID_PROV":"31","PROVINSI":"DKI JAKARTA","ID_KABKOT":"31.72","KABKOT":"KOTA ADM. JAKARTA UTARA","ID_KEC":"31.72.04","KECAMATAN":"CILINCING","ID_DESA":"31.72.04.1004","DESA":"KALIBARU","LONGITUDE":106.9277171,"LATITUDE":-6.1020065,"STATUS":"BUKA","TANGGAL PENGUMPULAN":"Q1 2024","TANGGAL UPDATE":"28/02/2025"}},{"type":"Feature","geometry":{"coordinates":[106.9081558,-6.1347267],"type":"Point"},"properties":{"NAMA":"PUSKESMAS KELURAHAN TUGU SELATAN","TIPE_1":"KESEHATAN DAN PENGOBATAN","TIPE_2":"LAYANAN MASYARAKAT","TIPE_3":"PUSKESMAS","TELEPON":"(021) 43908519","ALAMAT":"JL. BENDUNGAN MELAYU SELATAN RT. 001 / RW. 05 TUGU SELATAN KOJA RT.1, RT.1/RW.5, TUGU SEL., KEC. KOJA, JKT UTARA, DAERAH KHUSUS IBUKOTA JAKARTA 14260","ID_PROV":"31","PROVINSI":"DKI JAKARTA","ID_KABKOT":"31.72","KABKOT":"KOTA ADM. JAKARTA UTARA","ID_KEC":"31.72.03","KECAMATAN":"KOJA","ID_DESA":"31.72.03.1005","DESA":"TUGU SELATAN","LONGITUDE":106.9081558,"LATITUDE":-6.1347267,"STATUS":"BUKA","TANGGAL PENGUMPULAN":"Q1 2024","TANGGAL UPDATE":"28/02/2025"}},{"type":"Feature","geometry":{"coordinates":[106.8769205,-6.1209463],"type":"Point"},"properties":{"NAMA":"PUSKESMAS","TIPE_1":"KESEHATAN DAN PENGOBATAN","TIPE_2":"LAYANAN MASYARAKAT","TIPE_3":"PUSKESMAS","TELEPON":"0877-6535-2414","ALAMAT":"KELURAHAN WARAKAS, JL. WARAKAS III GG. 10 NO.34, RT.6/RW.11, WARAKAS, KEC. TJ. PRIOK, JKT UTARA, DAERAH KHUSUS IBUKOTA JAKARTA 14370","ID_PROV":"31","PROVINSI":"DKI JAKARTA","ID_KABKOT":"31.72","KABKOT":"KOTA ADM. JAKARTA UTARA","ID_KEC":"31.72.02","KECAMATAN":"TANJUNG PRIOK","ID_DESA":"31.72.02.1007","DESA":"WARAKAS","LONGITUDE":106.8769205,"LATITUDE":-6.1209463,"STATUS":"BUKA","TANGGAL PENGUMPULAN":"Q1 2024","TANGGAL UPDATE":"28/02/2025"}},{"type":"Feature","geometry":{"coordinates":[106.8176116,-6.1241736],"type":"Point"},"properties":{"NAMA":"PUSKESMAS KELURAHAN ANCOL","TIPE_1":"KESEHATAN DAN PENGOBATAN","TIPE_2":"LAYANAN MASYARAKAT","TIPE_3":"PUSKESMAS","TELEPON":"(021) 6926483","ALAMAT":"JL. ANCOL BAR. III NO.2, RW.1, ANCOL, KEC. PADEMANGAN, JKT UTARA, DAERAH KHUSUS IBUKOTA JAKARTA 14430","ID_PROV":"31","PROVINSI":"DKI JAKARTA","ID_KABKOT":"31.72","KABKOT":"KOTA ADM. JAKARTA UTARA","ID_KEC":"31.72.05","KECAMATAN":"PADEMANGAN","ID_DESA":"31.72.05.1003","DESA":"ANCOL","LONGITUDE":106.8176116,"LATITUDE":-6.1241736,"STATUS":"BUKA","TANGGAL PENGUMPULAN":"Q1 2024","TANGGAL UPDATE":"28/02/2025"}},{"type":"Feature","geometry":{"coordinates":[106.8842389,-6.1108045],"type":"Point"},"properties":{"NAMA":"UPTD PUSKESMAS DERSALAM","TIPE_1":"KESEHATAN DAN PENGOBATAN","TIPE_2":"LAYANAN MASYARAKAT","TIPE_3":"PUSKESMAS","TELEPON":"(0291) 446021","ALAMAT":"JL. ENIM RAYA NO.6 8, RT.8/RW.16, TJ. PRIOK, KEC. TJ. PRIOK, JKT UTARA, DAERAH KHUSUS IBUKOTA JAKARTA 14310","ID_PROV":"31","PROVINSI":"DKI JAKARTA","ID_KABKOT":"31.72","KABKOT":"KOTA ADM. JAKARTA UTARA","ID_KEC":"31.72.02","KECAMATAN":"TANJUNG PRIOK","ID_DESA":"31.72.02.1001","DESA":"TANJUNG PRIOK","LONGITUDE":106.8842389,"LATITUDE":-6.1108045,"STATUS":"BUKA","TANGGAL PENGUMPULAN":"Q1 2024","TANGGAL UPDATE":"28/02/2025"}},{"type":"Feature","geometry":{"coordinates":[106.8611587,-6.1418625],"type":"Point"},"properties":{"NAMA":"PUSKESMAS KELURAHAN SUNTER AGUNG II","TIPE_1":"KESEHATAN DAN PENGOBATAN","TIPE_2":"LAYANAN MASYARAKAT","TIPE_3":"PUSKESMAS","TELEPON":"(021) 65833297","ALAMAT":"JL. AGUNG BARAT 25 NO.2 17, RT.7/RW.10, SUNTER AGUNG, KEC. TJ. PRIOK, JKT UTARA, DAERAH KHUSUS IBUKOTA JAKARTA 14350","ID_PROV":"31","PROVINSI":"DKI JAKARTA","ID_KABKOT":"31.72","KABKOT":"KOTA ADM. JAKARTA UTARA","ID_KEC":"31.72.02","KECAMATAN":"TANJUNG PRIOK","ID_DESA":"31.72.02.1006","DESA":"SUNTER AGUNG","LONGITUDE":106.8611587,"LATITUDE":-6.1418625,"STATUS":"BUKA","TANGGAL PENGUMPULAN":"Q1 2024","TANGGAL UPDATE":"28/02/2025"}},{"type":"Feature","geometry":{"coordinates":[106.8347543,-6.1366579],"type":"Point"},"properties":{"NAMA":"PUSKESMAS KELURAHAN PADEMANGAN BARAT I","TIPE_1":"KESEHATAN DAN PENGOBATAN","TIPE_2":"LAYANAN MASYARAKAT","TIPE_3":"PUSKESMAS","TELEPON":"(021) 6411276","ALAMAT":"JALAN AMPERA BESAR NO.11 RT.02/RW.6 PADEMANGAN BARAT 1, KEC. PADEMANGAN, JKT UTARA, DAERAH KHUSUS IBUKOTA JAKARTA 14420","ID_PROV":"31","PROVINSI":"DKI JAKARTA","ID_KABKOT":"31.72","KABKOT":"KOTA ADM. JAKARTA UTARA","ID_KEC":"31.72.05","KECAMATAN":"PADEMANGAN","ID_DESA":"31.72.05.1002","DESA":"PADEMANGAN BARAT","LONGITUDE":106.8347543,"LATITUDE":-6.1366579,"STATUS":"BUKA","TANGGAL PENGUMPULAN":"Q1 2024","TANGGAL UPDATE":"28/02/2025"}},{"type":"Feature","geometry":{"coordinates":[106.9365254,-6.1043888],"type":"Point"},"properties":{"NAMA":"PUSKESMAS KELURAHAN CILINCING I","TIPE_1":"KESEHATAN DAN PENGOBATAN","TIPE_2":"LAYANAN MASYARAKAT","TIPE_3":"PUSKESMAS","TELEPON":"(021) 4416419","ALAMAT":"JL. CILINCING PAGI II NO.11A, RT.5/RW.5, CILINCING, KEC. CILINCING, JKT UTARA, DAERAH KHUSUS IBUKOTA JAKARTA 14120","ID_PROV":"31","PROVINSI":"DKI JAKARTA","ID_KABKOT":"31.72","KABKOT":"KOTA ADM. JAKARTA UTARA","ID_KEC":"31.72.04","KECAMATAN":"CILINCING","ID_DESA":"31.72.04.1001","DESA":"CILINCING","LONGITUDE":106.9365254,"LATITUDE":-6.1043888,"STATUS":"BUKA","TANGGAL PENGUMPULAN":"Q1 2024","TANGGAL UPDATE":"28/02/2025"}},{"type":"Feature","geometry":{"coordinates":[106.8753002,-6.1210329],"type":"Point"},"properties":{"NAMA":"PUSKESMAS KECAMATAN TG PRIOK","TIPE_1":"KESEHATAN DAN PENGOBATAN","TIPE_2":"LAYANAN MASYARAKAT","TIPE_3":"PUSKESMAS","TELEPON":"","ALAMAT":"GG. 13 NO.24 5, RT.5/RW.11, WARAKAS, KEC. TJ. PRIOK, JKT UTARA, DAERAH KHUSUS IBUKOTA JAKARTA 14370","ID_PROV":"31","PROVINSI":"DKI JAKARTA","ID_KABKOT":"31.72","KABKOT":"KOTA ADM. JAKARTA UTARA","ID_KEC":"31.72.02","KECAMATAN":"TANJUNG PRIOK","ID_DESA":"31.72.02.1007","DESA":"WARAKAS","LONGITUDE":106.8753002,"LATITUDE":-6.1210329,"STATUS":"BUKA","TANGGAL PENGUMPULAN":"Q1 2024","TANGGAL UPDATE":"28/02/2025"}},{"type":"Feature","geometry":{"coordinates":[106.9181041,-6.1109149],"type":"Point"},"properties":{"NAMA":"PUSKESMAS KELURAHAN SEMPER BARAT 3","TIPE_1":"KESEHATAN DAN PENGOBATAN","TIPE_2":"LAYANAN MASYARAKAT","TIPE_3":"PUSKESMAS","TELEPON":"","ALAMAT":"JL. PEPAYA 5, RT.6/RW.16, SEMPER BAR., KEC. CILINCING, JKT UTARA, DAERAH KHUSUS IBUKOTA JAKARTA 14130","ID_PROV":"31","PROVINSI":"DKI JAKARTA","ID_KABKOT":"31.72","KABKOT":"KOTA ADM. JAKARTA UTARA","ID_KEC":"31.72.04","KECAMATAN":"CILINCING","ID_DESA":"31.72.04.1007","DESA":"SEMPER BARAT","LONGITUDE":106.9181041,"LATITUDE":-6.1109149,"STATUS":"BUKA","TANGGAL PENGUMPULAN":"Q1 2024","TANGGAL UPDATE":"28/02/2025"}},{"type":"Feature","geometry":{"coordinates":[106.9195025,-6.1194949],"type":"Point"},"properties":{"NAMA":"PUSKESMAS TUGU UTARA","TIPE_1":"KESEHATAN DAN PENGOBATAN","TIPE_2":"LAYANAN MASYARAKAT","TIPE_3":"PUSKESMAS","TELEPON":"","ALAMAT":"JL. CAMAR 14 NO.32, RT.1/RW.18, TUGU UTARA, KEC. KOJA, JKT UTARA, DAERAH KHUSUS IBUKOTA JAKARTA 14130","ID_PROV":"31","PROVINSI":"DKI JAKARTA","ID_KABKOT":"31.72","KABKOT":"KOTA ADM. JAKARTA UTARA","ID_KEC":"31.72.03","KECAMATAN":"KOJA","ID_DESA":"31.72.03.1002","DESA":"TUGU UTARA","LONGITUDE":106.9195025,"LATITUDE":-6.1194949,"STATUS":"BUKA","TANGGAL PENGUMPULAN":"Q1 2024","TANGGAL UPDATE":"28/02/2025"}},{"type":"Feature","geometry":{"coordinates":[106.9070017,-6.1271877],"type":"Point"},"properties":{"NAMA":"PUSKESMAS KECAMATAN KELAPA GADING","TIPE_1":"KESEHATAN DAN PENGOBATAN","TIPE_2":"LAYANAN MASYARAKAT","TIPE_3":"PUSKESMAS","TELEPON":"","ALAMAT":"JL. WALANG PERMAI NO.39 6, RT.6/RW.12, TUGU UTARA, KEC. KOJA, JKT UTARA, DAERAH KHUSUS IBUKOTA JAKARTA 14260","ID_PROV":"31","PROVINSI":"DKI JAKARTA","ID_KABKOT":"31.72","KABKOT":"KOTA ADM. JAKARTA UTARA","ID_KEC":"31.72.03","KECAMATAN":"KOJA","ID_DESA":"31.72.03.1002","DESA":"TUGU UTARA","LONGITUDE":106.9070017,"LATITUDE":-6.1271877,"STATUS":"BUKA","TANGGAL PENGUMPULAN":"Q1 2024","TANGGAL UPDATE":"28/02/2025"}},{"type":"Feature","geometry":{"coordinates":[106.8790242,-6.1270001],"type":"Point"},"properties":{"NAMA":"PUSKESMAS TANJUNG PRIOK","TIPE_1":"KESEHATAN DAN PENGOBATAN","TIPE_2":"LAYANAN MASYARAKAT","TIPE_3":"PUSKESMAS","TELEPON":"(021) 22434740","ALAMAT":"JL. PAPANGGO 2B NO.69, PAPANGGO, KEC. TJ. PRIOK, DKI JAKARTA, DAERAH KHUSUS IBUKOTA JAKARTA 14340","ID_PROV":"31","PROVINSI":"DKI JAKARTA","ID_KABKOT":"31.72","KABKOT":"KOTA ADM. JAKARTA UTARA","ID_KEC":"31.72.02","KECAMATAN":"TANJUNG PRIOK","ID_DESA":"31.72.02.1003","DESA":"PAPANGGO","LONGITUDE":106.8790242,"LATITUDE":-6.1270001,"STATUS":"BUKA","TANGGAL PENGUMPULAN":"Q1 2024","TANGGAL UPDATE":"28/02/2025"}},{"type":"Feature","geometry":{"coordinates":[106.939482,-6.1038417],"type":"Point"},"properties":{"NAMA":"PUSKESMAS KECAMATAN CILINCING","TIPE_1":"KESEHATAN DAN PENGOBATAN","TIPE_2":"LAYANAN MASYARAKAT","TIPE_3":"PUSKESMAS","TELEPON":"(021) 4418325","ALAMAT":"JL. SUNGAI LANDAK NO.26, RT.11/RW.8, CILINCING, KEC. CILINCING, JKT UTARA, DAERAH KHUSUS IBUKOTA JAKARTA 14120","ID_PROV":"31","PROVINSI":"DKI JAKARTA","ID_KABKOT":"31.72","KABKOT":"KOTA ADM. JAKARTA UTARA","ID_KEC":"31.72.04","KECAMATAN":"CILINCING","ID_DESA":"31.72.04.1001","DESA":"CILINCING","LONGITUDE":106.939482,"LATITUDE":-6.1038417,"STATUS":"BUKA","TANGGAL PENGUMPULAN":"Q1 2024","TANGGAL UPDATE":"28/02/2025"}},{"type":"Feature","geometry":{"coordinates":[106.8978487,-6.1174783],"type":"Point"},"properties":{"NAMA":"PUSKESMAS KELURAHAN RAWA BADAK UTARA II","TIPE_1":"KESEHATAN DAN PENGOBATAN","TIPE_2":"LAYANAN MASYARAKAT","TIPE_3":"PUSKESMAS","TELEPON":"","ALAMAT":"JL. RAWABINANGUN V NO.37A, RT.7/RW.8, RAWABADAK UTARA, KEC. KOJA, JKT UTARA, DAERAH KHUSUS IBUKOTA JAKARTA 14230","ID_PROV":"31","PROVINSI":"DKI JAKARTA","ID_KABKOT":"31.72","KABKOT":"KOTA ADM. JAKARTA UTARA","ID_KEC":"31.72.03","KECAMATAN":"KOJA","ID_DESA":"31.72.03.1004","DESA":"RAWA BADAK UTARA","LONGITUDE":106.8978487,"LATITUDE":-6.1174783,"STATUS":"BUKA","TANGGAL PENGUMPULAN":"Q1 2024","TANGGAL UPDATE":"28/02/2025"}},{"type":"Feature","geometry":{"coordinates":[106.843664,-6.1366964],"type":"Point"},"properties":{"NAMA":"PUSKESMAS KECAMATAN PADEMANGAN","TIPE_1":"KESEHATAN DAN PENGOBATAN","TIPE_2":"LAYANAN MASYARAKAT","TIPE_3":"PUSKESMAS","TELEPON":"(021) 64710433","ALAMAT":"GG. 22 NO.2, PADEMANGAN TIM., KEC. PADEMANGAN, JKT UTARA, DAERAH KHUSUS IBUKOTA JAKARTA 14410","ID_PROV":"31","PROVINSI":"DKI JAKARTA","ID_KABKOT":"31.72","KABKOT":"KOTA ADM. JAKARTA UTARA","ID_KEC":"31.72.05","KECAMATAN":"PADEMANGAN","ID_DESA":"31.72.05.1001","DESA":"PADEMANGAN TIMUR","LONGITUDE":106.843664,"LATITUDE":-6.1366964,"STATUS":"BUKA","TANGGAL PENGUMPULAN":"Q1 2024","TANGGAL UPDATE":"28/02/2025"}},{"type":"Feature","geometry":{"coordinates":[106.9198608,-6.1315482],"type":"Point"},"properties":{"NAMA":"PUSKESMAS KECAMATAN KELAPA GADING","TIPE_1":"KESEHATAN DAN PENGOBATAN","TIPE_2":"LAYANAN MASYARAKAT","TIPE_3":"PUSKESMAS","TELEPON":"","ALAMAT":"JL. TIPAR CAKUNG NO.18, RT.1/RW.1, SEMPER BAR., KEC. CILINCING, JKT UTARA, DAERAH KHUSUS IBUKOTA JAKARTA 14140","ID_PROV":"31","PROVINSI":"DKI JAKARTA","ID_KABKOT":"31.72","KABKOT":"KOTA ADM. JAKARTA UTARA","ID_KEC":"31.72.04","KECAMATAN":"CILINCING","ID_DESA":"31.72.04.1007","DESA":"SEMPER BARAT","LONGITUDE":106.9198608,"LATITUDE":-6.1315482,"STATUS":"BUKA","TANGGAL PENGUMPULAN":"Q1 2024","TANGGAL UPDATE":"28/02/2025"}},{"type":"Feature","geometry":{"coordinates":[106.9133761,-6.1210333],"type":"Point"},"properties":{"NAMA":"PUSKESMAS","TIPE_1":"KESEHATAN DAN PENGOBATAN","TIPE_2":"LAYANAN MASYARAKAT","TIPE_3":"PUSKESMAS","TELEPON":"","ALAMAT":"RT.9/RW.5, TUGU UTARA, KEC. KOJA, JKT UTARA, DAERAH KHUSUS IBUKOTA JAKARTA 14260","ID_PROV":"31","PROVINSI":"DKI JAKARTA","ID_KABKOT":"31.72","KABKOT":"KOTA ADM. JAKARTA UTARA","ID_KEC":"31.72.03","KECAMATAN":"KOJA","ID_DESA":"31.72.03.1002","DESA":"TUGU UTARA","LONGITUDE":106.9133761,"LATITUDE":-6.1210333,"STATUS":"BUKA","TANGGAL PENGUMPULAN":"Q1 2024","TANGGAL UPDATE":"28/02/2025"}},{"type":"Feature","geometry":{"coordinates":[106.9046538,-6.1558658],"type":"Point"},"properties":{"NAMA":"PUSKESMAS KECAMATAN KELAPA GADING","TIPE_1":"KESEHATAN DAN PENGOBATAN","TIPE_2":"LAYANAN MASYARAKAT","TIPE_3":"PUSKESMAS","TELEPON":"(021) 45853300","ALAMAT":"JL. RAYA PELEPAH INDAH BLOK HF 7, RT.4/RW.7, KLP. GADING BAR., KEC. KLP. GADING, JKT UTARA, DAERAH KHUSUS IBUKOTA JAKARTA 14240","ID_PROV":"31","PROVINSI":"DKI JAKARTA","ID_KABKOT":"31.72","KABKOT":"KOTA ADM. JAKARTA UTARA","ID_KEC":"31.72.06","KECAMATAN":"KELAPA GADING","ID_DESA":"31.72.06.1003","DESA":"KELAPA GADING BARAT","LONGITUDE":106.9046538,"LATITUDE":-6.1558658,"STATUS":"BUKA","TANGGAL PENGUMPULAN":"Q1 2024","TANGGAL UPDATE":"28/02/2025"}},{"type":"Feature","geometry":{"coordinates":[106.908,-6.16793],"type":"Point"},"properties":{"NAMA":"PUSKESMAS KELAPA GADING TIMUR 2","TIPE_1":"KESEHATAN DAN PENGOBATAN","TIPE_2":"LAYANAN MASYARAKAT","TIPE_3":"PUSKESMAS","TELEPON":"(021) 45879414","ALAMAT":"JL. MERAH JAMBU BLOK EJ1 NO.22-23, RT.19/RW.9, KLP. GADING TIM., KEC. KLP. GADING, JKT UTARA, DAERAH KHUSUS IBUKOTA JAKARTA 14240","ID_PROV":"31","PROVINSI":"DKI JAKARTA","ID_KABKOT":"31.72","KABKOT":"KOTA ADM. JAKARTA UTARA","ID_KEC":"31.72.06","KECAMATAN":"KELAPA GADING","ID_DESA":"31.72.06.1001","DESA":"KELAPA GADING TIMUR","LONGITUDE":106.908,"LATITUDE":-6.16793,"STATUS":"BUKA","TANGGAL PENGUMPULAN":"Q1 2024","TANGGAL UPDATE":"28/02/2025"}},{"type":"Feature","geometry":{"coordinates":[106.906487,-6.1771046],"type":"Point"},"properties":{"NAMA":"PUSKESMAS KELURAHAN KELAPA GADING TIMUR I","TIPE_1":"KESEHATAN DAN PENGOBATAN","TIPE_2":"LAYANAN MASYARAKAT","TIPE_3":"PUSKESMAS","TELEPON":"(021) 45845828","ALAMAT":"KOMP. DEP PERDAGANAGAN, JL. PUSKESMAS A NO.50, RT.5/RW.6, KLP. GADING TIM., KEC. KLP. GADING, JKT UTARA, DAERAH KHUSUS IBUKOTA JAKARTA 14240","ID_PROV":"31","PROVINSI":"DKI JAKARTA","ID_KABKOT":"31.72","KABKOT":"KOTA ADM. JAKARTA UTARA","ID_KEC":"31.72.06","KECAMATAN":"KELAPA GADING","ID_DESA":"31.72.06.1001","DESA":"KELAPA GADING TIMUR","LONGITUDE":106.906487,"LATITUDE":-6.1771046,"STATUS":"BUKA","TANGGAL PENGUMPULAN":"Q1 2024","TANGGAL UPDATE":"28/02/2025"}},{"type":"Feature","geometry":{"coordinates":[106.9643792,-6.0944599],"type":"Point"},"properties":{"NAMA":"POS KESEHATAN RUSUN MARUNDA","TIPE_1":"KESEHATAN DAN PENGOBATAN","TIPE_2":"LAYANAN MASYARAKAT","TIPE_3":"PUSKESMAS","TELEPON":"","ALAMAT":"RUSUNAWA MARUNDA CLUSTER B BLOK 8, MARUNDA, CILINCING, RT.5/RW.7, MARUNDA, KEC. CILINCING, JKT UTARA, DAERAH KHUSUS IBUKOTA JAKARTA 14150","ID_PROV":"31","PROVINSI":"DKI JAKARTA","ID_KABKOT":"31.72","KABKOT":"KOTA ADM. JAKARTA UTARA","ID_KEC":"31.72.04","KECAMATAN":"CILINCING","ID_DESA":"31.72.04.1003","DESA":"MARUNDA","LONGITUDE":106.9643792,"LATITUDE":-6.0944599,"STATUS":"BUKA","TANGGAL PENGUMPULAN":"Q1 2024","TANGGAL UPDATE":"28/02/2025"}}]}