{"type":"FeatureCollection","features":[{"type":"Feature","geometry":{"coordinates":[106.8144183,-6.1768733],"type":"Point"},"properties":{"NAMA":"PUSKESMAS KELURAHAN PETOJO SELATAN","TIPE_1":"KESEHATAN DAN PENGOBATAN","TIPE_2":"LAYANAN MASYARAKAT","TIPE_3":"PUSKESMAS","TELEPON":"(021) 3520246","ALAMAT":"JL. TAMAN TANAH ABANG III NO.8A 2, RT.2/RW.4, PETOJO SEL., KECAMATAN GAMBIR, KOTA JAKARTA PUSAT, DAERAH KHUSUS IBUKOTA JAKARTA 10160","ID_PROV":"31","PROVINSI":"DKI JAKARTA","ID_KABKOT":"31.71","KABKOT":"KOTA ADM. JAKARTA PUSAT","ID_KEC":"31.71.01","KECAMATAN":"GAMBIR","ID_DESA":"31.71.01.1004","DESA":"PETOJO SELATAN","LONGITUDE":106.8144183,"LATITUDE":-6.1768733,"STATUS":"BUKA","TANGGAL PENGUMPULAN":"Q1 2024","TANGGAL UPDATE":"28/02/2025"}},{"type":"Feature","geometry":{"coordinates":[106.8509023,-6.1874548],"type":"Point"},"properties":{"NAMA":"PUSKESMAS KELURAHAN KRAMAT","TIPE_1":"KESEHATAN DAN PENGOBATAN","TIPE_2":"LAYANAN MASYARAKAT","TIPE_3":"PUSKESMAS","TELEPON":"(021) 3919683","ALAMAT":"NO JL. KRAMAT SENTIONG NO.I/33, RT.10/RW.7, KRAMAT, KEC. SENEN, KOTA JAKARTA PUSAT, DAERAH KHUSUS IBUKOTA JAKARTA 10450","ID_PROV":"31","PROVINSI":"DKI JAKARTA","ID_KABKOT":"31.71","KABKOT":"KOTA ADM. JAKARTA PUSAT","ID_KEC":"31.71.04","KECAMATAN":"SENEN","ID_DESA":"31.71.04.1004","DESA":"KRAMAT","LONGITUDE":106.8509023,"LATITUDE":-6.1874548,"STATUS":"BUKA","TANGGAL PENGUMPULAN":"Q1 2024","TANGGAL UPDATE":"28/02/2025"}},{"type":"Feature","geometry":{"coordinates":[106.8385977,-6.1826008],"type":"Point"},"properties":{"NAMA":"PUSKESMAS KELURAHAN KWITANG","TIPE_1":"KESEHATAN DAN PENGOBATAN","TIPE_2":"LAYANAN MASYARAKAT","TIPE_3":"PUSKESMAS","TELEPON":"(021) 3146238","ALAMAT":"JL. KRAMAT KWITANG 1C NO.27 6, RT.6/RW.4, KWITANG, KEC. SENEN, KOTA JAKARTA PUSAT, DAERAH KHUSUS IBUKOTA JAKARTA 10420","ID_PROV":"31","PROVINSI":"DKI JAKARTA","ID_KABKOT":"31.71","KABKOT":"KOTA ADM. JAKARTA PUSAT","ID_KEC":"31.71.04","KECAMATAN":"SENEN","ID_DESA":"31.71.04.1005","DESA":"KWITANG","LONGITUDE":106.8385977,"LATITUDE":-6.1826008,"STATUS":"BUKA","TANGGAL PENGUMPULAN":"Q1 2024","TANGGAL UPDATE":"28/02/2025"}},{"type":"Feature","geometry":{"coordinates":[106.8454752,-6.1912159],"type":"Point"},"properties":{"NAMA":"PUSKESMAS KELURAHAN KENARI","TIPE_1":"KESEHATAN DAN PENGOBATAN","TIPE_2":"LAYANAN MASYARAKAT","TIPE_3":"PUSKESMAS","TELEPON":"","ALAMAT":"JL. JAMBRUT NO.22, RT.7/RW.2, KENARI, KEC. SENEN, KOTA JAKARTA PUSAT, DAERAH KHUSUS IBUKOTA JAKARTA 10430","ID_PROV":"31","PROVINSI":"DKI JAKARTA","ID_KABKOT":"31.71","KABKOT":"KOTA ADM. JAKARTA PUSAT","ID_KEC":"31.71.04","KECAMATAN":"SENEN","ID_DESA":"31.71.04.1002","DESA":"KENARI","LONGITUDE":106.8454752,"LATITUDE":-6.1912159,"STATUS":"BUKA","TANGGAL PENGUMPULAN":"Q1 2024","TANGGAL UPDATE":"28/02/2025"}},{"type":"Feature","geometry":{"coordinates":[106.8616331,-6.182007],"type":"Point"},"properties":{"NAMA":"PUSKESMAS JOHAR BARU","TIPE_1":"KESEHATAN DAN PENGOBATAN","TIPE_2":"LAYANAN MASYARAKAT","TIPE_3":"PUSKESMAS","TELEPON":"(021) 4256443","ALAMAT":"JL. MARDANI RAYA NO.36, RT.2/RW.5, JOHAR BARU, KEC. JOHAR BARU, KOTA JAKARTA PUSAT, DAERAH KHUSUS IBUKOTA JAKARTA 10560","ID_PROV":"31","PROVINSI":"DKI JAKARTA","ID_KABKOT":"31.71","KABKOT":"KOTA ADM. JAKARTA PUSAT","ID_KEC":"31.71.08","KECAMATAN":"JOHAR BARU","ID_DESA":"31.71.08.1001","DESA":"JOHAR BARU","LONGITUDE":106.8616331,"LATITUDE":-6.182007,"STATUS":"BUKA","TANGGAL PENGUMPULAN":"Q1 2024","TANGGAL UPDATE":"28/02/2025"}},{"type":"Feature","geometry":{"coordinates":[106.8605793,-6.1618951],"type":"Point"},"properties":{"NAMA":"PUSKESMAS KECAMATAN KEMAYORAN","TIPE_1":"KESEHATAN DAN PENGOBATAN","TIPE_2":"LAYANAN MASYARAKAT","TIPE_3":"PUSKESMAS","TELEPON":"(021) 4251018","ALAMAT":"JL. EKA V NO.12, RT.9/RW.4, SERDANG, KEC. KEMAYORAN, KOTA JAKARTA PUSAT, DAERAH KHUSUS IBUKOTA JAKARTA 10650","ID_PROV":"31","PROVINSI":"DKI JAKARTA","ID_KABKOT":"31.71","KABKOT":"KOTA ADM. JAKARTA PUSAT","ID_KEC":"31.71.03","KECAMATAN":"KEMAYORAN","ID_DESA":"31.71.03.1004","DESA":"SERDANG","LONGITUDE":106.8605793,"LATITUDE":-6.1618951,"STATUS":"BUKA","TANGGAL PENGUMPULAN":"Q1 2024","TANGGAL UPDATE":"28/02/2025"}},{"type":"Feature","geometry":{"coordinates":[106.8440224,-6.1823533],"type":"Point"},"properties":{"NAMA":"PUSKESMAS KECAMATAN SENEN KRAMAT BARU","TIPE_1":"KESEHATAN DAN PENGOBATAN","TIPE_2":"LAYANAN MASYARAKAT","TIPE_3":"PUSKESMAS","TELEPON":"","ALAMAT":"JL. KRAMAT BARU NO.4B 2, RT.2/RW.2, KRAMAT, KEC. SENEN, KOTA JAKARTA PUSAT, DAERAH KHUSUS IBUKOTA JAKARTA 10450","ID_PROV":"31","PROVINSI":"DKI JAKARTA","ID_KABKOT":"31.71","KABKOT":"KOTA ADM. JAKARTA PUSAT","ID_KEC":"31.71.04","KECAMATAN":"SENEN","ID_DESA":"31.71.04.1004","DESA":"KRAMAT","LONGITUDE":106.8440224,"LATITUDE":-6.1823533,"STATUS":"BUKA","TANGGAL PENGUMPULAN":"Q1 2024","TANGGAL UPDATE":"28/02/2025"}},{"type":"Feature","geometry":{"coordinates":[106.8545018,-6.1697869],"type":"Point"},"properties":{"NAMA":"PUSKESMAS KELURAHAN HARAPAN MULYA","TIPE_1":"KESEHATAN DAN PENGOBATAN","TIPE_2":"LAYANAN MASYARAKAT","TIPE_3":"PUSKESMAS","TELEPON":"(021) 4220947","ALAMAT":"JALAN HARAPAN MULIA BARAT NO.1, RT.005 RW.004, KELURAHAN HARAPAN MULIA, KECAMATAN KEMAYORAN, RT.12/RW.4, HARAPAN MULYA, KEC. KEMAYORAN, KOTA JAKARTA PUSAT, DAERAH KHUSUS IBUKOTA JAKARTA 10640","ID_PROV":"31","PROVINSI":"DKI JAKARTA","ID_KABKOT":"31.71","KABKOT":"KOTA ADM. JAKARTA PUSAT","ID_KEC":"31.71.03","KECAMATAN":"KEMAYORAN","ID_DESA":"31.71.03.1003","DESA":"HARAPAN MULIA","LONGITUDE":106.8545018,"LATITUDE":-6.1697869,"STATUS":"BUKA","TANGGAL PENGUMPULAN":"Q1 2024","TANGGAL UPDATE":"28/02/2025"}},{"type":"Feature","geometry":{"coordinates":[106.8085678,-6.2069032],"type":"Point"},"properties":{"NAMA":"PUSKESMAS KECAMATAN TANAH ABANG","TIPE_1":"KESEHATAN DAN PENGOBATAN","TIPE_2":"LAYANAN MASYARAKAT","TIPE_3":"PUSKESMAS","TELEPON":"(021) 5732767","ALAMAT":"JL. DANAU TOBA NO.1 BLOK A, RT.20/RW.4, BEND. HILIR, KECAMATAN TANAH ABANG, KOTA JAKARTA PUSAT, DAERAH KHUSUS IBUKOTA JAKARTA 10210","ID_PROV":"31","PROVINSI":"DKI JAKARTA","ID_KABKOT":"31.71","KABKOT":"KOTA ADM. JAKARTA PUSAT","ID_KEC":"31.71.07","KECAMATAN":"TANAH ABANG","ID_DESA":"31.71.07.1002","DESA":"BENDUNGAN HILIR","LONGITUDE":106.8085678,"LATITUDE":-6.2069032,"STATUS":"BUKA","TANGGAL PENGUMPULAN":"Q1 2024","TANGGAL UPDATE":"28/02/2025"}},{"type":"Feature","geometry":{"coordinates":[106.8413299,-6.1994351],"type":"Point"},"properties":{"NAMA":"PUSKESMAS KECAMATAN MENTENG","TIPE_1":"KESEHATAN DAN PENGOBATAN","TIPE_2":"LAYANAN MASYARAKAT","TIPE_3":"PUSKESMAS","TELEPON":"(021) 31935836","ALAMAT":"JL. PEGANGSAAN BARAT NO.14, RT.16/RW.5, MENTENG, KEC. MENTENG, KOTA JAKARTA PUSAT, DAERAH KHUSUS IBUKOTA JAKARTA 10310","ID_PROV":"31","PROVINSI":"DKI JAKARTA","ID_KABKOT":"31.71","KABKOT":"KOTA ADM. JAKARTA PUSAT","ID_KEC":"31.71.06","KECAMATAN":"MENTENG","ID_DESA":"31.71.06.1001","DESA":"MENTENG","LONGITUDE":106.8413299,"LATITUDE":-6.1994351,"STATUS":"BUKA","TANGGAL PENGUMPULAN":"Q1 2024","TANGGAL UPDATE":"28/02/2025"}},{"type":"Feature","geometry":{"coordinates":[106.8192654,-6.17075],"type":"Point"},"properties":{"NAMA":"PUSAT KESEHATAN MASYARAKAT KECAMATAN GAMBIR","TIPE_1":"KESEHATAN DAN PENGOBATAN","TIPE_2":"LAYANAN MASYARAKAT","TIPE_3":"PUSKESMAS","TELEPON":"(021) 3810051","ALAMAT":"JL. TANAH ABANG I NO.10, RT.11/RW.8, PETOJO SEL., KECAMATAN GAMBIR, KOTA JAKARTA PUSAT, DAERAH KHUSUS IBUKOTA JAKARTA 10160","ID_PROV":"31","PROVINSI":"DKI JAKARTA","ID_KABKOT":"31.71","KABKOT":"KOTA ADM. JAKARTA PUSAT","ID_KEC":"31.71.01","KECAMATAN":"GAMBIR","ID_DESA":"31.71.01.1004","DESA":"PETOJO SELATAN","LONGITUDE":106.8192654,"LATITUDE":-6.17075,"STATUS":"BUKA","TANGGAL PENGUMPULAN":"Q1 2024","TANGGAL UPDATE":"28/02/2025"}},{"type":"Feature","geometry":{"coordinates":[106.8528629,-6.1895449],"type":"Point"},"properties":{"NAMA":"PUSKESMAS SENEN","TIPE_1":"KESEHATAN DAN PENGOBATAN","TIPE_2":"LAYANAN MASYARAKAT","TIPE_3":"PUSKESMAS","TELEPON":"(021) 3146194","ALAMAT":"JL. KRAMAT SAWAH 7, RT.8/RW.7, PASEBAN, KEC. SENEN, KOTA JAKARTA PUSAT, DAERAH KHUSUS IBUKOTA JAKARTA 10440","ID_PROV":"31","PROVINSI":"DKI JAKARTA","ID_KABKOT":"31.71","KABKOT":"KOTA ADM. JAKARTA PUSAT","ID_KEC":"31.71.04","KECAMATAN":"SENEN","ID_DESA":"31.71.04.1003","DESA":"PASEBAN","LONGITUDE":106.8528629,"LATITUDE":-6.1895449,"STATUS":"BUKA","TANGGAL PENGUMPULAN":"Q1 2024","TANGGAL UPDATE":"28/02/2025"}},{"type":"Feature","geometry":{"coordinates":[106.8250613,-6.1836505],"type":"Point"},"properties":{"NAMA":"PUSKESMAS KELURAHAN KEBON SIRIH","TIPE_1":"KESEHATAN DAN PENGOBATAN","TIPE_2":"LAYANAN MASYARAKAT","TIPE_3":"PUSKESMAS","TELEPON":"","ALAMAT":"JL. H. AGUS SALIM NO.1, RT.1/RW.1, KB. SIRIH, KEC. MENTENG, KOTA JAKARTA PUSAT, DAERAH KHUSUS IBUKOTA JAKARTA 10340","ID_PROV":"31","PROVINSI":"DKI JAKARTA","ID_KABKOT":"31.71","KABKOT":"KOTA ADM. JAKARTA PUSAT","ID_KEC":"31.71.06","KECAMATAN":"MENTENG","ID_DESA":"31.71.06.1005","DESA":"KEBON SIRIH","LONGITUDE":106.8250613,"LATITUDE":-6.1836505,"STATUS":"BUKA","TANGGAL PENGUMPULAN":"Q1 2024","TANGGAL UPDATE":"28/02/2025"}},{"type":"Feature","geometry":{"coordinates":[106.8518274,-6.1819509],"type":"Point"},"properties":{"NAMA":"PUSKESMAS PEMBANTU JOHAR BARU 3","TIPE_1":"KESEHATAN DAN PENGOBATAN","TIPE_2":"LAYANAN MASYARAKAT","TIPE_3":"PUSKESMAS","TELEPON":"(021) 4219544","ALAMAT":"JL. KRAMAT JAYA BARU NO.6 BLOK E, RT.13/RW.1, JOHAR BARU, CENTRAL JAKARTA CITY, JAKARTA 10560","ID_PROV":"31","PROVINSI":"DKI JAKARTA","ID_KABKOT":"31.71","KABKOT":"KOTA ADM. JAKARTA PUSAT","ID_KEC":"31.71.08","KECAMATAN":"JOHAR BARU","ID_DESA":"31.71.08.1001","DESA":"JOHAR BARU","LONGITUDE":106.8518274,"LATITUDE":-6.1819509,"STATUS":"BUKA","TANGGAL PENGUMPULAN":"Q1 2024","TANGGAL UPDATE":"28/02/2025"}},{"type":"Feature","geometry":{"coordinates":[106.8652141,-6.1626564],"type":"Point"},"properties":{"NAMA":"PUSKESMAS KELURAHAN SUMUR BATU","TIPE_1":"KESEHATAN DAN PENGOBATAN","TIPE_2":"LAYANAN MASYARAKAT","TIPE_3":"PUSKESMAS","TELEPON":"(021) 4222510","ALAMAT":"7/, KEMAYORAN, JL. SUMUR BATU RAYA NO.1, RT.7/RW.1, SUMUR BATU, KEC. KEMAYORAN, KOTA JAKARTA PUSAT, DAERAH KHUSUS IBUKOTA JAKARTA 10640","ID_PROV":"31","PROVINSI":"DKI JAKARTA","ID_KABKOT":"31.71","KABKOT":"KOTA ADM. JAKARTA PUSAT","ID_KEC":"31.71.03","KECAMATAN":"KEMAYORAN","ID_DESA":"31.71.03.1007","DESA":"SUMUR BATU","LONGITUDE":106.8652141,"LATITUDE":-6.1626564,"STATUS":"BUKA","TANGGAL PENGUMPULAN":"Q1 2024","TANGGAL UPDATE":"28/02/2025"}},{"type":"Feature","geometry":{"coordinates":[106.8443654,-6.1692913],"type":"Point"},"properties":{"NAMA":"PUSKESMAS KELURAHAN BUNGUR","TIPE_1":"KESEHATAN DAN PENGOBATAN","TIPE_2":"LAYANAN MASYARAKAT","TIPE_3":"PUSKESMAS","TELEPON":"(021) 4215473","ALAMAT":"JALAN BUNGUR BESAR GANG IX NO. 20, RT.8/RW.1, BUNGUR, RT.8/RW.1, BUNGUR, KEC. SENEN, KOTA JAKARTA PUSAT, DAERAH KHUSUS IBUKOTA JAKARTA 10460","ID_PROV":"31","PROVINSI":"DKI JAKARTA","ID_KABKOT":"31.71","KABKOT":"KOTA ADM. JAKARTA PUSAT","ID_KEC":"31.71.04","KECAMATAN":"SENEN","ID_DESA":"31.71.04.1006","DESA":"BUNGUR","LONGITUDE":106.8443654,"LATITUDE":-6.1692913,"STATUS":"BUKA","TANGGAL PENGUMPULAN":"Q1 2024","TANGGAL UPDATE":"28/02/2025"}},{"type":"Feature","geometry":{"coordinates":[106.8541468,-6.1583425],"type":"Point"},"properties":{"NAMA":"PUSKESMAS KELURAHAN KEBON KOSONG II","TIPE_1":"KESEHATAN DAN PENGOBATAN","TIPE_2":"LAYANAN MASYARAKAT","TIPE_3":"PUSKESMAS","TELEPON":"(021) 21481691","ALAMAT":"JL. RAYA KEMAYORAN GEMPOL NO.18 6, RT.9/RW.6, KB. KOSONG, KEC. KEMAYORAN, KOTA JAKARTA PUSAT, DAERAH KHUSUS IBUKOTA JAKARTA 10630","ID_PROV":"31","PROVINSI":"DKI JAKARTA","ID_KABKOT":"31.71","KABKOT":"KOTA ADM. JAKARTA PUSAT","ID_KEC":"31.71.03","KECAMATAN":"KEMAYORAN","ID_DESA":"31.71.03.1002","DESA":"KEBON KOSONG","LONGITUDE":106.8541468,"LATITUDE":-6.1583425,"STATUS":"BUKA","TANGGAL PENGUMPULAN":"Q1 2024","TANGGAL UPDATE":"28/02/2025"}},{"type":"Feature","geometry":{"coordinates":[106.8706914,-6.1903403],"type":"Point"},"properties":{"NAMA":"PUSKESMAS KECAMATAN CEMPAKA PUTIH","TIPE_1":"KESEHATAN DAN PENGOBATAN","TIPE_2":"LAYANAN MASYARAKAT","TIPE_3":"PUSKESMAS","TELEPON":"(021) 4219548","ALAMAT":"JL. PRAMUKA SARI I, RT.14/RW.8, RAWASARI, KEC. CEMP. PUTIH, JAKARTA, DAERAH KHUSUS IBUKOTA JAKARTA 10570","ID_PROV":"31","PROVINSI":"DKI JAKARTA","ID_KABKOT":"31.71","KABKOT":"KOTA ADM. JAKARTA PUSAT","ID_KEC":"31.71.05","KECAMATAN":"CEMPAKA PUTIH","ID_DESA":"31.71.05.1003","DESA":"RAWASARI","LONGITUDE":106.8706914,"LATITUDE":-6.1903403,"STATUS":"BUKA","TANGGAL PENGUMPULAN":"Q1 2024","TANGGAL UPDATE":"28/02/2025"}},{"type":"Feature","geometry":{"coordinates":[106.8560579,-6.1623096],"type":"Point"},"properties":{"NAMA":"PUSKESMAS KELURAHAN UTAN PANJANG","TIPE_1":"KESEHATAN DAN PENGOBATAN","TIPE_2":"LAYANAN MASYARAKAT","TIPE_3":"PUSKESMAS","TELEPON":"(021) 4250857","ALAMAT":"JL. BEND. JAGO PUSKESMAS NO.RT 09 / 01 9, RT.9/RW.1, UTAN PANJANG, KEC. KEMAYORAN, KOTA JAKARTA PUSAT, DAERAH KHUSUS IBUKOTA JAKARTA 10650","ID_PROV":"31","PROVINSI":"DKI JAKARTA","ID_KABKOT":"31.71","KABKOT":"KOTA ADM. JAKARTA PUSAT","ID_KEC":"31.71.03","KECAMATAN":"KEMAYORAN","ID_DESA":"31.71.03.1008","DESA":"UTAN PANJANG","LONGITUDE":106.8560579,"LATITUDE":-6.1623096,"STATUS":"BUKA","TANGGAL PENGUMPULAN":"Q1 2024","TANGGAL UPDATE":"28/02/2025"}},{"type":"Feature","geometry":{"coordinates":[106.8553234,-6.1713906],"type":"Point"},"properties":{"NAMA":"PUSKESMAS KECAMATAN KEMAYORAN","TIPE_1":"KESEHATAN DAN PENGOBATAN","TIPE_2":"LAYANAN MASYARAKAT","TIPE_3":"PUSKESMAS","TELEPON":"(021) 4251018","ALAMAT":"PUSKESMAS KELURAHAN HATAPAN MULYA, JL. HARAPAN MULIA NO.1, RT.12/RW.4, HARAPAN MULYA, KEC. KEMAYORAN, KOTA JAKARTA PUSAT, DAERAH KHUSUS IBUKOTA JAKARTA 10640","ID_PROV":"31","PROVINSI":"DKI JAKARTA","ID_KABKOT":"31.71","KABKOT":"KOTA ADM. JAKARTA PUSAT","ID_KEC":"31.71.03","KECAMATAN":"KEMAYORAN","ID_DESA":"31.71.03.1003","DESA":"HARAPAN MULIA","LONGITUDE":106.8553234,"LATITUDE":-6.1713906,"STATUS":"BUKA","TANGGAL PENGUMPULAN":"Q1 2024","TANGGAL UPDATE":"28/02/2025"}},{"type":"Feature","geometry":{"coordinates":[106.8603161,-6.161639],"type":"Point"},"properties":{"NAMA":"PUSKESMAS KELURAHAN SERDANG","TIPE_1":"KESEHATAN DAN PENGOBATAN","TIPE_2":"LAYANAN MASYARAKAT","TIPE_3":"PUSKESMAS","TELEPON":"(021) 4256429","ALAMAT":"JL. EKA V NO.9, RT.9/RW.3, SERDANG, KEC. KEMAYORAN, KOTA JAKARTA PUSAT, DAERAH KHUSUS IBUKOTA JAKARTA 10640","ID_PROV":"31","PROVINSI":"DKI JAKARTA","ID_KABKOT":"31.71","KABKOT":"KOTA ADM. JAKARTA PUSAT","ID_KEC":"31.71.03","KECAMATAN":"KEMAYORAN","ID_DESA":"31.71.03.1004","DESA":"SERDANG","LONGITUDE":106.8603161,"LATITUDE":-6.161639,"STATUS":"BUKA","TANGGAL PENGUMPULAN":"Q1 2024","TANGGAL UPDATE":"28/02/2025"}},{"type":"Feature","geometry":{"coordinates":[106.8123884,-6.1902009],"type":"Point"},"properties":{"NAMA":"BLUD PUSKESMAS KECAMATAN TANAH ABANG","TIPE_1":"KESEHATAN DAN PENGOBATAN","TIPE_2":"LAYANAN MASYARAKAT","TIPE_3":"PUSKESMAS","TELEPON":"","ALAMAT":"JL. JATI BUNDER NO.96 16, RT.16/RW.9, KB. KACANG, KECAMATAN TANAH ABANG, KOTA JAKARTA PUSAT, DAERAH KHUSUS IBUKOTA JAKARTA 10240","ID_PROV":"31","PROVINSI":"DKI JAKARTA","ID_KABKOT":"31.71","KABKOT":"KOTA ADM. JAKARTA PUSAT","ID_KEC":"31.71.07","KECAMATAN":"TANAH ABANG","ID_DESA":"31.71.07.1006","DESA":"KEBON KACANG","LONGITUDE":106.8123884,"LATITUDE":-6.1902009,"STATUS":"BUKA","TANGGAL PENGUMPULAN":"Q1 2024","TANGGAL UPDATE":"28/02/2025"}},{"type":"Feature","geometry":{"coordinates":[106.84828,-6.20707],"type":"Point"},"properties":{"NAMA":"PUSKESMAS KELURAHAN PEGANGSAAN","TIPE_1":"KESEHATAN DAN PENGOBATAN","TIPE_2":"LAYANAN MASYARAKAT","TIPE_3":"PUSKESMAS","TELEPON":"(021) 3925445","ALAMAT":"KECAMATAN JL. TAMBAK NO.28 1, RT.1/RW.6, PEGANGSAAN, KEC. MENTENG, KOTA JAKARTA PUSAT, DAERAH KHUSUS IBUKOTA JAKARTA 10320","ID_PROV":"31","PROVINSI":"DKI JAKARTA","ID_KABKOT":"31.71","KABKOT":"KOTA ADM. JAKARTA PUSAT","ID_KEC":"31.71.06","KECAMATAN":"MENTENG","ID_DESA":"31.71.06.1002","DESA":"PEGANGSAAN","LONGITUDE":106.84828,"LATITUDE":-6.20707,"STATUS":"BUKA","TANGGAL PENGUMPULAN":"Q1 2024","TANGGAL UPDATE":"28/02/2025"}},{"type":"Feature","geometry":{"coordinates":[106.8473879,-6.1802127],"type":"Point"},"properties":{"NAMA":"PUSKESMAS PEMBANTU TANAH TINGGI","TIPE_1":"KESEHATAN DAN PENGOBATAN","TIPE_2":"LAYANAN MASYARAKAT","TIPE_3":"PUSKESMAS","TELEPON":"(021) 4229105","ALAMAT":"JL. TANAH TINGGI IV KEL NO.GG. 7, RT.9/RW.6, TANAH TINGGI, KEC. JOHAR BARU, KOTA JAKARTA PUSAT, DAERAH KHUSUS IBUKOTA JAKARTA 10540","ID_PROV":"31","PROVINSI":"DKI JAKARTA","ID_KABKOT":"31.71","KABKOT":"KOTA ADM. JAKARTA PUSAT","ID_KEC":"31.71.08","KECAMATAN":"JOHAR BARU","ID_DESA":"31.71.08.1004","DESA":"TANAH TINGGI","LONGITUDE":106.8473879,"LATITUDE":-6.1802127,"STATUS":"BUKA","TANGGAL PENGUMPULAN":"Q1 2024","TANGGAL UPDATE":"28/02/2025"}},{"type":"Feature","geometry":{"coordinates":[106.8561143,-6.1858078],"type":"Point"},"properties":{"NAMA":"PUSKESMAS PEMBANTU JOHAR BARU 2","TIPE_1":"KESEHATAN DAN PENGOBATAN","TIPE_2":"LAYANAN MASYARAKAT","TIPE_3":"PUSKESMAS","TELEPON":"(021) 4229102","ALAMAT":"JL. PERCETAKAN NEGARA IIA NO.38, RT.11/RW.6, JOHAR BARU, KEC. JOHAR BARU, KOTA JAKARTA PUSAT, DAERAH KHUSUS IBUKOTA JAKARTA 10560","ID_PROV":"31","PROVINSI":"DKI JAKARTA","ID_KABKOT":"31.71","KABKOT":"KOTA ADM. JAKARTA PUSAT","ID_KEC":"31.71.08","KECAMATAN":"JOHAR BARU","ID_DESA":"31.71.08.1001","DESA":"JOHAR BARU","LONGITUDE":106.8561143,"LATITUDE":-6.1858078,"STATUS":"BUKA","TANGGAL PENGUMPULAN":"Q1 2024","TANGGAL UPDATE":"28/02/2025"}},{"type":"Feature","geometry":{"coordinates":[106.8596879,-6.1716604],"type":"Point"},"properties":{"NAMA":"PUSKESMAS KELURAHAN CEMPAKA BARU","TIPE_1":"KESEHATAN DAN PENGOBATAN","TIPE_2":"LAYANAN MASYARAKAT","TIPE_3":"PUSKESMAS","TELEPON":"(021) 4229103","ALAMAT":"JL. CEMPAKA BARU TENGAH, RT.5/RW.6, CEMP. BARU, KEC. KEMAYORAN, KOTA JAKARTA PUSAT, DAERAH KHUSUS IBUKOTA JAKARTA 10640","ID_PROV":"31","PROVINSI":"DKI JAKARTA","ID_KABKOT":"31.71","KABKOT":"KOTA ADM. JAKARTA PUSAT","ID_KEC":"31.71.03","KECAMATAN":"KEMAYORAN","ID_DESA":"31.71.03.1006","DESA":"CEMPAKA BARU","LONGITUDE":106.8596879,"LATITUDE":-6.1716604,"STATUS":"BUKA","TANGGAL PENGUMPULAN":"Q1 2024","TANGGAL UPDATE":"28/02/2025"}},{"type":"Feature","geometry":{"coordinates":[106.8322949,-6.160418],"type":"Point"},"properties":{"NAMA":"PUSKESMAS KELURAHAN PASAR BARU","TIPE_1":"KESEHATAN DAN PENGOBATAN","TIPE_2":"LAYANAN MASYARAKAT","TIPE_3":"PUSKESMAS","TELEPON":"","ALAMAT":"JL. KREKOT BUNDER RAYA NO.10, RT.3/RW.6, PS. BARU, KECAMATAN SAWAH BESAR, KOTA JAKARTA PUSAT, DAERAH KHUSUS IBUKOTA JAKARTA 10710","ID_PROV":"31","PROVINSI":"DKI JAKARTA","ID_KABKOT":"31.71","KABKOT":"KOTA ADM. JAKARTA PUSAT","ID_KEC":"31.71.02","KECAMATAN":"SAWAH BESAR","ID_DESA":"31.71.02.1001","DESA":"PASAR BARU","LONGITUDE":106.8322949,"LATITUDE":-6.160418,"STATUS":"BUKA","TANGGAL PENGUMPULAN":"Q1 2024","TANGGAL UPDATE":"28/02/2025"}},{"type":"Feature","geometry":{"coordinates":[106.8318892,-6.153431],"type":"Point"},"properties":{"NAMA":"PUSKESMAS KELURAHAN KARTINI","TIPE_1":"KESEHATAN DAN PENGOBATAN","TIPE_2":"LAYANAN MASYARAKAT","TIPE_3":"PUSKESMAS","TELEPON":"(021) 62318830","ALAMAT":"DALAM NO.6B, JL. KARTINI RAYA NO.8, RT.2/RW.8, KARTINI, KECAMATAN SAWAH BESAR, KOTA JAKARTA PUSAT, DAERAH KHUSUS IBUKOTA JAKARTA 10750","ID_PROV":"31","PROVINSI":"DKI JAKARTA","ID_KABKOT":"31.71","KABKOT":"KOTA ADM. JAKARTA PUSAT","ID_KEC":"31.71.02","KECAMATAN":"SAWAH BESAR","ID_DESA":"31.71.02.1003","DESA":"KARTINI","LONGITUDE":106.8318892,"LATITUDE":-6.153431,"STATUS":"BUKA","TANGGAL PENGUMPULAN":"Q1 2024","TANGGAL UPDATE":"28/02/2025"}},{"type":"Feature","geometry":{"coordinates":[106.8098293,-6.1625526],"type":"Point"},"properties":{"NAMA":"PUSKESMAS DURI PULO","TIPE_1":"KESEHATAN DAN PENGOBATAN","TIPE_2":"LAYANAN MASYARAKAT","TIPE_3":"PUSKESMAS","TELEPON":"(021) 6338341","ALAMAT":"JL. PEMADAM NO.10 1, RT.1/RW.10, DURI PULO, KECAMATAN GAMBIR, KOTA JAKARTA PUSAT, DAERAH KHUSUS IBUKOTA JAKARTA 10140","ID_PROV":"31","PROVINSI":"DKI JAKARTA","ID_KABKOT":"31.71","KABKOT":"KOTA ADM. JAKARTA PUSAT","ID_KEC":"31.71.01","KECAMATAN":"GAMBIR","ID_DESA":"31.71.01.1006","DESA":"DURI PULO","LONGITUDE":106.8098293,"LATITUDE":-6.1625526,"STATUS":"BUKA","TANGGAL PENGUMPULAN":"Q1 2024","TANGGAL UPDATE":"28/02/2025"}},{"type":"Feature","geometry":{"coordinates":[106.8270589,-6.1378435],"type":"Point"},"properties":{"NAMA":"PUSKESMAS KELURAHAN MANGGA DUA SEL","TIPE_1":"KESEHATAN DAN PENGOBATAN","TIPE_2":"LAYANAN MASYARAKAT","TIPE_3":"PUSKESMAS","TELEPON":"(021) 6256101","ALAMAT":"JL. MANGGA DUA DALAM NO.1, RT.1/RW.12, MANGGA DUA SEL., KECAMATAN SAWAH BESAR, KOTA JAKARTA PUSAT, DAERAH KHUSUS IBUKOTA JAKARTA 10730","ID_PROV":"31","PROVINSI":"DKI JAKARTA","ID_KABKOT":"31.71","KABKOT":"KOTA ADM. JAKARTA PUSAT","ID_KEC":"31.71.02","KECAMATAN":"SAWAH BESAR","ID_DESA":"31.71.02.1005","DESA":"MANGGA DUA SELATAN","LONGITUDE":106.8270589,"LATITUDE":-6.1378435,"STATUS":"BUKA","TANGGAL PENGUMPULAN":"Q1 2024","TANGGAL UPDATE":"28/02/2025"}},{"type":"Feature","geometry":{"coordinates":[106.816476,-6.1609999],"type":"Point"},"properties":{"NAMA":"PUSKESMAS KELURAHAN DURI PULO","TIPE_1":"KESEHATAN DAN PENGOBATAN","TIPE_2":"LAYANAN MASYARAKAT","TIPE_3":"PUSKESMAS","TELEPON":"","ALAMAT":"JL. KYAI HAJI ZAINUL ARIFIN NO.73 4, RT.4/RW.1, DURI PULO, KECAMATAN GAMBIR, KOTA JAKARTA PUSAT, DAERAH KHUSUS IBUKOTA JAKARTA 10130","ID_PROV":"31","PROVINSI":"DKI JAKARTA","ID_KABKOT":"31.71","KABKOT":"KOTA ADM. JAKARTA PUSAT","ID_KEC":"31.71.01","KECAMATAN":"GAMBIR","ID_DESA":"31.71.01.1003","DESA":"PETOJO UTARA","LONGITUDE":106.816476,"LATITUDE":-6.1609999,"STATUS":"BUKA","TANGGAL PENGUMPULAN":"Q1 2024","TANGGAL UPDATE":"28/02/2025"}},{"type":"Feature","geometry":{"coordinates":[106.8084048,-6.1962734],"type":"Point"},"properties":{"NAMA":"PUSKESMAS KELURAHAN PETAMBURAN","TIPE_1":"KESEHATAN DAN PENGOBATAN","TIPE_2":"LAYANAN MASYARAKAT","TIPE_3":"PUSKESMAS","TELEPON":"(021) 53650696","ALAMAT":"JL. PETAMBURAN IV NO.31, RT.12/RW.4, PETAMBURAN, KECAMATAN TANAH ABANG, KOTA JAKARTA PUSAT, DAERAH KHUSUS IBUKOTA JAKARTA 10260","ID_PROV":"31","PROVINSI":"DKI JAKARTA","ID_KABKOT":"31.71","KABKOT":"KOTA ADM. JAKARTA PUSAT","ID_KEC":"31.71.07","KECAMATAN":"TANAH ABANG","ID_DESA":"31.71.07.1004","DESA":"PETAMBURAN","LONGITUDE":106.8084048,"LATITUDE":-6.1962734,"STATUS":"BUKA","TANGGAL PENGUMPULAN":"Q1 2024","TANGGAL UPDATE":"28/02/2025"}},{"type":"Feature","geometry":{"coordinates":[106.8215493,-6.1636496],"type":"Point"},"properties":{"NAMA":"PUSKESMAS KELURAHAN KEBON KELAPA","TIPE_1":"KESEHATAN DAN PENGOBATAN","TIPE_2":"LAYANAN MASYARAKAT","TIPE_3":"PUSKESMAS","TELEPON":"(021) 3810882","ALAMAT":"JL. BATU TULIS XIII NO.1, RT.6/RW.2, KB. KLP., KECAMATAN GAMBIR, KOTA JAKARTA PUSAT, DAERAH KHUSUS IBUKOTA JAKARTA 10120","ID_PROV":"31","PROVINSI":"DKI JAKARTA","ID_KABKOT":"31.71","KABKOT":"KOTA ADM. JAKARTA PUSAT","ID_KEC":"31.71.01","KECAMATAN":"GAMBIR","ID_DESA":"31.71.01.1005","DESA":"KEBON KELAPA","LONGITUDE":106.8215493,"LATITUDE":-6.1636496,"STATUS":"BUKA","TANGGAL PENGUMPULAN":"Q1 2024","TANGGAL UPDATE":"28/02/2025"}},{"type":"Feature","geometry":{"coordinates":[106.8169891,-6.185567],"type":"Point"},"properties":{"NAMA":"PUSKESMAS KELURAHAN KAMPUNG BALI","TIPE_1":"KESEHATAN DAN PENGOBATAN","TIPE_2":"LAYANAN MASYARAKAT","TIPE_3":"PUSKESMAS","TELEPON":"(021) 3915071","ALAMAT":"JL. KP. BALI 23, RT.9/RW.7, KP. BALI, JAKARTA PUSAT, KOTA JAKARTA PUSAT, DAERAH KHUSUS IBUKOTA JAKARTA 10250","ID_PROV":"31","PROVINSI":"DKI JAKARTA","ID_KABKOT":"31.71","KABKOT":"KOTA ADM. JAKARTA PUSAT","ID_KEC":"31.71.07","KECAMATAN":"TANAH ABANG","ID_DESA":"31.71.07.1007","DESA":"KAMPUNG BALI","LONGITUDE":106.8169891,"LATITUDE":-6.185567,"STATUS":"BUKA","TANGGAL PENGUMPULAN":"Q1 2024","TANGGAL UPDATE":"28/02/2025"}},{"type":"Feature","geometry":{"coordinates":[106.8270431,-6.1378298],"type":"Point"},"properties":{"NAMA":"PUSKESMAS KECAMATAN SAWAH BESAR","TIPE_1":"KESEHATAN DAN PENGOBATAN","TIPE_2":"LAYANAN MASYARAKAT","TIPE_3":"PUSKESMAS","TELEPON":"0858-1710-2104","ALAMAT":"JL. MANGGA DUA DALAM K NO.13, RT.1/RW.12, MANGGA DUA SEL., KECAMATAN SAWAH BESAR, JAKARA PUSAT, DAERAH KHUSUS IBUKOTA JAKARTA 10730","ID_PROV":"31","PROVINSI":"DKI JAKARTA","ID_KABKOT":"31.71","KABKOT":"KOTA ADM. JAKARTA PUSAT","ID_KEC":"31.71.02","KECAMATAN":"SAWAH BESAR","ID_DESA":"31.71.02.1005","DESA":"MANGGA DUA SELATAN","LONGITUDE":106.8270431,"LATITUDE":-6.1378298,"STATUS":"BUKA","TANGGAL PENGUMPULAN":"Q1 2024","TANGGAL UPDATE":"28/02/2025"}},{"type":"Feature","geometry":{"coordinates":[106.8151043,-6.212164],"type":"Point"},"properties":{"NAMA":"PUSKESMAS KELURAHAN KARET TENGSIN","TIPE_1":"KESEHATAN DAN PENGOBATAN","TIPE_2":"LAYANAN MASYARAKAT","TIPE_3":"PUSKESMAS","TELEPON":"(021) 5743287","ALAMAT":"JL. KARET PASAR BARU BARAT VII NO.19, RT.13/RW.2, KARET TENGSIN, KECAMATAN TANAH ABANG, KOTA JAKARTA PUSAT, DAERAH KHUSUS IBUKOTA JAKARTA 10220","ID_PROV":"31","PROVINSI":"DKI JAKARTA","ID_KABKOT":"31.71","KABKOT":"KOTA ADM. JAKARTA PUSAT","ID_KEC":"31.71.07","KECAMATAN":"TANAH ABANG","ID_DESA":"31.71.07.1003","DESA":"KARET TENGSIN","LONGITUDE":106.8151043,"LATITUDE":-6.212164,"STATUS":"BUKA","TANGGAL PENGUMPULAN":"Q1 2024","TANGGAL UPDATE":"28/02/2025"}},{"type":"Feature","geometry":{"coordinates":[106.864026,-6.158861],"type":"Point"},"properties":{"NAMA":"PUSKEMAS","TIPE_1":"KESEHATAN DAN PENGOBATAN","TIPE_2":"LAYANAN MASYARAKAT","TIPE_3":"PUSKESMAS","TELEPON":"","ALAMAT":"JL. SERDANG BARU NO.1 8, RT.9/RW.5, SERDANG, KEC. KEMAYORAN, KOTA JAKARTA PUSAT, DAERAH KHUSUS IBUKOTA JAKARTA 10650","ID_PROV":"31","PROVINSI":"DKI JAKARTA","ID_KABKOT":"31.71","KABKOT":"KOTA ADM. JAKARTA PUSAT","ID_KEC":"31.71.03","KECAMATAN":"KEMAYORAN","ID_DESA":"31.71.03.1004","DESA":"SERDANG","LONGITUDE":106.864026,"LATITUDE":-6.158861,"STATUS":"BUKA","TANGGAL PENGUMPULAN":"Q1 2024","TANGGAL UPDATE":"28/02/2025"}}]}