{"type":"FeatureCollection","features":[{"type":"Feature","geometry":{"coordinates":[106.8034356,-6.610157],"type":"Point"},"properties":{"NAMA":"PUSKESMAS GANG AUT","TIPE_1":"KESEHATAN DAN PENGOBATAN","TIPE_2":"LAYANAN MASYARAKAT","TIPE_3":"PUSKESMAS","TELEPON":"","ALAMAT":"GG. AUT NO.2, RT.02/RW.05, GUDANG, KECAMATAN BOGOR TENGAH, KOTA BOGOR, JAWA BARAT 16123","ID_PROV":"32","PROVINSI":"JAWA BARAT","ID_KABKOT":"32.71","KABKOT":"KOTA BOGOR","ID_KEC":"32.71.03","KECAMATAN":"BOGOR TENGAH","ID_DESA":"32.71.03.1001","DESA":"GUDANG","LONGITUDE":106.8034356,"LATITUDE":-6.610157,"STATUS":"BUKA","TANGGAL PENGUMPULAN":"Q1 2024","TANGGAL UPDATE":"28/02/2025"}},{"type":"Feature","geometry":{"coordinates":[106.800837,-6.6048479],"type":"Point"},"properties":{"NAMA":"PUSKESMAS BELONG","TIPE_1":"KESEHATAN DAN PENGOBATAN","TIPE_2":"LAYANAN MASYARAKAT","TIPE_3":"PUSKESMAS","TELEPON":"(0251) 8311361","ALAMAT":"JL. RODA NO.25, RT.02/RW.06, BABAKAN PS., KECAMATAN BOGOR TENGAH, KOTA BOGOR, JAWA BARAT 16126","ID_PROV":"32","PROVINSI":"JAWA BARAT","ID_KABKOT":"32.71","KABKOT":"KOTA BOGOR","ID_KEC":"32.71.03","KECAMATAN":"BOGOR TENGAH","ID_DESA":"32.71.03.1008","DESA":"BABAKAN PASAR","LONGITUDE":106.800837,"LATITUDE":-6.6048479,"STATUS":"BUKA","TANGGAL PENGUMPULAN":"Q1 2024","TANGGAL UPDATE":"28/02/2025"}},{"type":"Feature","geometry":{"coordinates":[106.821101,-6.6247882],"type":"Point"},"properties":{"NAMA":"PUSKESMAS","TIPE_1":"KESEHATAN DAN PENGOBATAN","TIPE_2":"LAYANAN MASYARAKAT","TIPE_3":"PUSKESMAS","TELEPON":"","ALAMAT":"JL. PD. TAJUR INDAH NO.9, RT.02/RW.01, TAJUR, KEC. BOGOR TIM., KOTA BOGOR, JAWA BARAT 16141","ID_PROV":"32","PROVINSI":"JAWA BARAT","ID_KABKOT":"32.71","KABKOT":"KOTA BOGOR","ID_KEC":"32.71.02","KECAMATAN":"BOGOR TIMUR","ID_DESA":"32.71.02.1006","DESA":"TAJUR","LONGITUDE":106.821101,"LATITUDE":-6.6247882,"STATUS":"BUKA","TANGGAL PENGUMPULAN":"Q1 2024","TANGGAL UPDATE":"28/02/2025"}},{"type":"Feature","geometry":{"coordinates":[106.7928423,-6.5641687],"type":"Point"},"properties":{"NAMA":"PUSKESMAS KEDUNG BADAK","TIPE_1":"KESEHATAN DAN PENGOBATAN","TIPE_2":"LAYANAN MASYARAKAT","TIPE_3":"PUSKESMAS","TELEPON":"(0251) 8336541","ALAMAT":"CIMANGGU PERMAI 1, JL. PANATARAN NO.01, KEDUNGBADAK, KEC. TANAH SEREAL, KOTA BOGOR, JAWA BARAT 16164","ID_PROV":"32","PROVINSI":"JAWA BARAT","ID_KABKOT":"32.71","KABKOT":"KOTA BOGOR","ID_KEC":"32.71.06","KECAMATAN":"TANAH SAREAL","ID_DESA":"32.71.06.1003","DESA":"KEDUNG BADAK","LONGITUDE":106.7928423,"LATITUDE":-6.5641687,"STATUS":"BUKA","TANGGAL PENGUMPULAN":"Q1 2024","TANGGAL UPDATE":"28/02/2025"}},{"type":"Feature","geometry":{"coordinates":[106.8082861,-6.6218741],"type":"Point"},"properties":{"NAMA":"PUSKESMAS BOGOR SELATAN - BALAI KAMBANG","TIPE_1":"KESEHATAN DAN PENGOBATAN","TIPE_2":"LAYANAN MASYARAKAT","TIPE_3":"PUSKESMAS","TELEPON":"(0251) 8323360","ALAMAT":"JL. BATU TULIS NO.82, RT.02/RW.08, BATUTULIS, KEC. BOGOR SEL., KOTA BOGOR, JAWA BARAT 16133","ID_PROV":"32","PROVINSI":"JAWA BARAT","ID_KABKOT":"32.71","KABKOT":"KOTA BOGOR","ID_KEC":"32.71.01","KECAMATAN":"BOGOR SELATAN","ID_DESA":"32.71.01.1001","DESA":"BATU TULIS","LONGITUDE":106.8082861,"LATITUDE":-6.6218741,"STATUS":"BUKA","TANGGAL PENGUMPULAN":"Q1 2024","TANGGAL UPDATE":"28/02/2025"}},{"type":"Feature","geometry":{"coordinates":[106.7725241,-6.5789106],"type":"Point"},"properties":{"NAMA":"PUSKESMAS GANG KELOR","TIPE_1":"KESEHATAN DAN PENGOBATAN","TIPE_2":"LAYANAN MASYARAKAT","TIPE_3":"PUSKESMAS","TELEPON":"(0251) 8352336","ALAMAT":"JL. DR. SEMERU GG. KELOR NO.6, RT.01/RW.09, MENTENG, KEC. BOGOR BAR., KOTA BOGOR, JAWA BARAT 16111","ID_PROV":"32","PROVINSI":"JAWA BARAT","ID_KABKOT":"32.71","KABKOT":"KOTA BOGOR","ID_KEC":"32.71.04","KECAMATAN":"BOGOR BARAT","ID_DESA":"32.71.04.1001","DESA":"MENTENG","LONGITUDE":106.7725241,"LATITUDE":-6.5789106,"STATUS":"BUKA","TANGGAL PENGUMPULAN":"Q1 2024","TANGGAL UPDATE":"28/02/2025"}},{"type":"Feature","geometry":{"coordinates":[106.7988177,-6.5758137],"type":"Point"},"properties":{"NAMA":"PUSKESMAS TANAH SAREAL","TIPE_1":"KESEHATAN DAN PENGOBATAN","TIPE_2":"LAYANAN MASYARAKAT","TIPE_3":"PUSKESMAS","TELEPON":"(0251) 8349729","ALAMAT":"JALAN RM TIRTO ADHI SOERJO NO 3, TANAH SAREAL, KEC. TANAH SEREAL, KOTA BOGOR, JAWA BARAT 16161","ID_PROV":"32","PROVINSI":"JAWA BARAT","ID_KABKOT":"32.71","KABKOT":"KOTA BOGOR","ID_KEC":"32.71.06","KECAMATAN":"TANAH SAREAL","ID_DESA":"32.71.06.1001","DESA":"TANAH SAREAL","LONGITUDE":106.7988177,"LATITUDE":-6.5758137,"STATUS":"BUKA","TANGGAL PENGUMPULAN":"Q1 2024","TANGGAL UPDATE":"28/02/2025"}},{"type":"Feature","geometry":{"coordinates":[106.7839457,-6.5424271],"type":"Point"},"properties":{"NAMA":"PUSKESMAS MEKAR WANGI","TIPE_1":"KESEHATAN DAN PENGOBATAN","TIPE_2":"LAYANAN MASYARAKAT","TIPE_3":"PUSKESMAS","TELEPON":"(0251) 7535957","ALAMAT":"JL. PABUARAN CIMANGGIS NO.46-111, RT.01/RW.01, MEKARWANGI, KEC. TANAH SEREAL, KOTA BOGOR, JAWA BARAT 16168","ID_PROV":"32","PROVINSI":"JAWA BARAT","ID_KABKOT":"32.71","KABKOT":"KOTA BOGOR","ID_KEC":"32.71.06","KECAMATAN":"TANAH SAREAL","ID_DESA":"32.71.06.1008","DESA":"MEKAR WANGI","LONGITUDE":106.7839457,"LATITUDE":-6.5424271,"STATUS":"BUKA","TANGGAL PENGUMPULAN":"Q1 2024","TANGGAL UPDATE":"28/02/2025"}},{"type":"Feature","geometry":{"coordinates":[106.8112181,-6.607055],"type":"Point"},"properties":{"NAMA":"PUSKESMAS BOGOR TIMUR","TIPE_1":"KESEHATAN DAN PENGOBATAN","TIPE_2":"LAYANAN MASYARAKAT","TIPE_3":"PUSKESMAS","TELEPON":"(0251) 8358271","ALAMAT":"JL. CIHEULEUT NO.6, RT.01/RW.11, BARANANGSIANG, KEC. BOGOR TIM., KOTA BOGOR, JAWA BARAT 16143","ID_PROV":"32","PROVINSI":"JAWA BARAT","ID_KABKOT":"32.71","KABKOT":"KOTA BOGOR","ID_KEC":"32.71.02","KECAMATAN":"BOGOR TIMUR","ID_DESA":"32.71.02.1002","DESA":"BARANANGSIANG","LONGITUDE":106.8112181,"LATITUDE":-6.607055,"STATUS":"BUKA","TANGGAL PENGUMPULAN":"Q1 2024","TANGGAL UPDATE":"28/02/2025"}},{"type":"Feature","geometry":{"coordinates":[106.8278122,-6.6205923],"type":"Point"},"properties":{"NAMA":"PUSKESMAS KATULAMPA","TIPE_1":"KESEHATAN DAN PENGOBATAN","TIPE_2":"LAYANAN MASYARAKAT","TIPE_3":"PUSKESMAS","TELEPON":"","ALAMAT":"RT.03/RW.01, KP. PARUNG JAMBU, KATULAMPA, KEC. BOGOR TIM., KOTA BOGOR, JAWA BARAT 16144","ID_PROV":"32","PROVINSI":"JAWA BARAT","ID_KABKOT":"32.71","KABKOT":"KOTA BOGOR","ID_KEC":"32.71.02","KECAMATAN":"BOGOR TIMUR","ID_DESA":"32.71.02.1003","DESA":"KATULAMPA","LONGITUDE":106.8278122,"LATITUDE":-6.6205923,"STATUS":"BUKA","TANGGAL PENGUMPULAN":"Q1 2024","TANGGAL UPDATE":"28/02/2025"}},{"type":"Feature","geometry":{"coordinates":[106.7622127,-6.5782608],"type":"Point"},"properties":{"NAMA":"UPTD PUSKESMAS SINDANGBARANG","TIPE_1":"KESEHATAN DAN PENGOBATAN","TIPE_2":"LAYANAN MASYARAKAT","TIPE_3":"PUSKESMAS","TELEPON":"(0251) 8629884","ALAMAT":"JL. SIRNASARI IV NO.3, RT.03/RW.09, SINDANGBARANG, KEC. BOGOR BAR., KOTA BOGOR, JAWA BARAT 16117","ID_PROV":"32","PROVINSI":"JAWA BARAT","ID_KABKOT":"32.71","KABKOT":"KOTA BOGOR","ID_KEC":"32.71.04","KECAMATAN":"BOGOR BARAT","ID_DESA":"32.71.04.1002","DESA":"SINDANG BARANG","LONGITUDE":106.7622127,"LATITUDE":-6.5782608,"STATUS":"BUKA","TANGGAL PENGUMPULAN":"Q1 2024","TANGGAL UPDATE":"28/02/2025"}},{"type":"Feature","geometry":{"coordinates":[106.7772083,-6.5320443],"type":"Point"},"properties":{"NAMA":"PUSKESMAS PEMBANTU MEKARWANGI","TIPE_1":"KESEHATAN DAN PENGOBATAN","TIPE_2":"LAYANAN MASYARAKAT","TIPE_3":"PUSKESMAS","TELEPON":"","ALAMAT":"JL. SETU ASEM RAYA KP SETU ASEM, RT.01/RW.14, MEKARWANGI, KEC. TANAH SEREAL, KOTA BOGOR, JAWA BARAT 16168","ID_PROV":"32","PROVINSI":"JAWA BARAT","ID_KABKOT":"32.71","KABKOT":"KOTA BOGOR","ID_KEC":"32.71.06","KECAMATAN":"TANAH SAREAL","ID_DESA":"32.71.06.1008","DESA":"MEKAR WANGI","LONGITUDE":106.7772083,"LATITUDE":-6.5320443,"STATUS":"BUKA","TANGGAL PENGUMPULAN":"Q1 2024","TANGGAL UPDATE":"28/02/2025"}},{"type":"Feature","geometry":{"coordinates":[106.7655998,-6.561563],"type":"Point"},"properties":{"NAMA":"PUSKESMAS SEMPLAK","TIPE_1":"KESEHATAN DAN PENGOBATAN","TIPE_2":"LAYANAN MASYARAKAT","TIPE_3":"PUSKESMAS","TELEPON":"(0251) 7534528","ALAMAT":"JL. KH. R. ABDULLAH BIN NUH NO.4, RT.05/RW.09, CURUGMEKAR, KEC. BOGOR BAR., KOTA BOGOR, JAWA BARAT 16113","ID_PROV":"32","PROVINSI":"JAWA BARAT","ID_KABKOT":"32.71","KABKOT":"KOTA BOGOR","ID_KEC":"32.71.04","KECAMATAN":"BOGOR BARAT","ID_DESA":"32.71.04.1010","DESA":"CURUG MEKAR","LONGITUDE":106.7655998,"LATITUDE":-6.561563,"STATUS":"BUKA","TANGGAL PENGUMPULAN":"Q1 2024","TANGGAL UPDATE":"28/02/2025"}},{"type":"Feature","geometry":{"coordinates":[106.810014,-6.6127994],"type":"Point"},"properties":{"NAMA":"PUSKESMAS PEMBANTU SUKAMULYA","TIPE_1":"KESEHATAN DAN PENGOBATAN","TIPE_2":"LAYANAN MASYARAKAT","TIPE_3":"PUSKESMAS","TELEPON":"","ALAMAT":"JL. SILIWANGI NO.41, RT.02/RW.03, SUKASARI, KEC. BOGOR TIM., KOTA BOGOR, JAWA BARAT 16142","ID_PROV":"32","PROVINSI":"JAWA BARAT","ID_KABKOT":"32.71","KABKOT":"KOTA BOGOR","ID_KEC":"32.71.02","KECAMATAN":"BOGOR TIMUR","ID_DESA":"32.71.02.1001","DESA":"SUKASARI","LONGITUDE":106.810014,"LATITUDE":-6.6127994,"STATUS":"BUKA","TANGGAL PENGUMPULAN":"Q1 2024","TANGGAL UPDATE":"28/02/2025"}},{"type":"Feature","geometry":{"coordinates":[106.7807505,-6.6466884],"type":"Point"},"properties":{"NAMA":"PUSKESMAS MULYAHARJA","TIPE_1":"KESEHATAN DAN PENGOBATAN","TIPE_2":"LAYANAN MASYARAKAT","TIPE_3":"PUSKESMAS","TELEPON":"(0251) 8416164","ALAMAT":"JL. RAYA CIBEURUEM NO.14, RT.03/RW.03, MULYAHARJA, KEC. BOGOR SEL., KOTA BOGOR, JAWA BARAT 16135","ID_PROV":"32","PROVINSI":"JAWA BARAT","ID_KABKOT":"32.71","KABKOT":"KOTA BOGOR","ID_KEC":"32.71.01","KECAMATAN":"BOGOR SELATAN","ID_DESA":"32.71.01.1007","DESA":"MULYA HARJA","LONGITUDE":106.7807505,"LATITUDE":-6.6466884,"STATUS":"BUKA","TANGGAL PENGUMPULAN":"Q1 2024","TANGGAL UPDATE":"28/02/2025"}},{"type":"Feature","geometry":{"coordinates":[106.8220728,-6.5473901],"type":"Point"},"properties":{"NAMA":"PUSKESMAS CIPARIGI","TIPE_1":"KESEHATAN DAN PENGOBATAN","TIPE_2":"LAYANAN MASYARAKAT","TIPE_3":"PUSKESMAS","TELEPON":"","ALAMAT":"RT.05/RW.02, CILUAR, KEC. BOGOR UTARA, KOTA BOGOR, JAWA BARAT 16157","ID_PROV":"32","PROVINSI":"JAWA BARAT","ID_KABKOT":"32.71","KABKOT":"KOTA BOGOR","ID_KEC":"32.71.05","KECAMATAN":"BOGOR UTARA","ID_DESA":"32.71.05.1004","DESA":"CIPARIGI","LONGITUDE":106.8220728,"LATITUDE":-6.5473901,"STATUS":"BUKA","TANGGAL PENGUMPULAN":"Q1 2024","TANGGAL UPDATE":"28/02/2025"}},{"type":"Feature","geometry":{"coordinates":[106.7945023,-6.5929059],"type":"Point"},"properties":{"NAMA":"UPTD PUSKESMAS BOGOR TENGAH","TIPE_1":"KESEHATAN DAN PENGOBATAN","TIPE_2":"LAYANAN MASYARAKAT","TIPE_3":"PUSKESMAS","TELEPON":"(0251) 8326540","ALAMAT":"JL. TELEPON NO.1, RT.002/RW.001, PABATON, KECAMATAN BOGOR TENGAH, KOTA BOGOR, JAWA BARAT 16121","ID_PROV":"32","PROVINSI":"JAWA BARAT","ID_KABKOT":"32.71","KABKOT":"KOTA BOGOR","ID_KEC":"32.71.03","KECAMATAN":"BOGOR TENGAH","ID_DESA":"32.71.03.1003","DESA":"PABATON","LONGITUDE":106.7945023,"LATITUDE":-6.5929059,"STATUS":"BUKA","TANGGAL PENGUMPULAN":"Q1 2024","TANGGAL UPDATE":"28/02/2025"}},{"type":"Feature","geometry":{"coordinates":[106.7880743,-6.5882665],"type":"Point"},"properties":{"NAMA":"PUSKESMAS MERDEKA","TIPE_1":"KESEHATAN DAN PENGOBATAN","TIPE_2":"LAYANAN MASYARAKAT","TIPE_3":"PUSKESMAS","TELEPON":"0858-9283-8025","ALAMAT":"JL. MERDEKA NO.114, CIWARINGIN, KECAMATAN BOGOR TENGAH, KOTA BOGOR, JAWA BARAT 16125","ID_PROV":"32","PROVINSI":"JAWA BARAT","ID_KABKOT":"32.71","KABKOT":"KOTA BOGOR","ID_KEC":"32.71.03","KECAMATAN":"BOGOR TENGAH","ID_DESA":"32.71.03.1010","DESA":"CIWARINGIN","LONGITUDE":106.7880743,"LATITUDE":-6.5882665,"STATUS":"BUKA","TANGGAL PENGUMPULAN":"Q1 2024","TANGGAL UPDATE":"28/02/2025"}},{"type":"Feature","geometry":{"coordinates":[106.778552,-6.594114],"type":"Point"},"properties":{"NAMA":"PUSKESMAS GUNUNG BATU","TIPE_1":"KESEHATAN DAN PENGOBATAN","TIPE_2":"LAYANAN MASYARAKAT","TIPE_3":"PUSKESMAS","TELEPON":"","ALAMAT":"JL. PURBASARI, RT.05/RW.03, GUNUNGBATU, KEC. BOGOR BAR., KOTA BOGOR, JAWA BARAT 16118","ID_PROV":"32","PROVINSI":"JAWA BARAT","ID_KABKOT":"32.71","KABKOT":"KOTA BOGOR","ID_KEC":"32.71.04","KECAMATAN":"BOGOR BARAT","ID_DESA":"32.71.04.1015","DESA":"GUNUNG BATU","LONGITUDE":106.778552,"LATITUDE":-6.594114,"STATUS":"BUKA","TANGGAL PENGUMPULAN":"Q1 2024","TANGGAL UPDATE":"28/02/2025"}},{"type":"Feature","geometry":{"coordinates":[106.8013056,-6.6120974],"type":"Point"},"properties":{"NAMA":"PUSKESMAS BONDONGAN","TIPE_1":"KESEHATAN DAN PENGOBATAN","TIPE_2":"LAYANAN MASYARAKAT","TIPE_3":"PUSKESMAS","TELEPON":"(0251) 8341983","ALAMAT":"JL. PAHLAWAN NO.106 68A, RT.02/RW.18, EMPANG, BOGOR SELATAN, BOGOR CITY, WEST JAVA 16132","ID_PROV":"32","PROVINSI":"JAWA BARAT","ID_KABKOT":"32.71","KABKOT":"KOTA BOGOR","ID_KEC":"32.71.01","KECAMATAN":"BOGOR SELATAN","ID_DESA":"32.71.01.1003","DESA":"EMPANG","LONGITUDE":106.8013056,"LATITUDE":-6.6120974,"STATUS":"BUKA","TANGGAL PENGUMPULAN":"Q1 2024","TANGGAL UPDATE":"28/02/2025"}},{"type":"Feature","geometry":{"coordinates":[106.8111877,-6.5689573],"type":"Point"},"properties":{"NAMA":"UPTD PUSKESMAS WARUNG JAMBU","TIPE_1":"KESEHATAN DAN PENGOBATAN","TIPE_2":"LAYANAN MASYARAKAT","TIPE_3":"PUSKESMAS","TELEPON":"(0251) 8356415","ALAMAT":"KOMPLEK PERUMAHAN BUMI INDRAPRASTA JL. GATOTKACA RAYA NO.1, RT.04/RW.01, BANTARJATI, KEC. BOGOR UTARA, KOTA BOGOR, JAWA BARAT 16133","ID_PROV":"32","PROVINSI":"JAWA BARAT","ID_KABKOT":"32.71","KABKOT":"KOTA BOGOR","ID_KEC":"32.71.05","KECAMATAN":"BOGOR UTARA","ID_DESA":"32.71.05.1001","DESA":"BANTARJATI","LONGITUDE":106.8111877,"LATITUDE":-6.5689573,"STATUS":"BUKA","TANGGAL PENGUMPULAN":"Q1 2024","TANGGAL UPDATE":"28/02/2025"}},{"type":"Feature","geometry":{"coordinates":[106.798355,-6.5840347],"type":"Point"},"properties":{"NAMA":"PUSKESMAS SEMPUR","TIPE_1":"KESEHATAN DAN PENGOBATAN","TIPE_2":"LAYANAN MASYARAKAT","TIPE_3":"PUSKESMAS","TELEPON":"(0251) 8576295","ALAMAT":"JL. SEMPUR KALER NO.100, RT.05/RW.02, SEMPUR, KECAMATAN BOGOR TENGAH, KOTA BOGOR, JAWA BARAT 16129","ID_PROV":"32","PROVINSI":"JAWA BARAT","ID_KABKOT":"32.71","KABKOT":"KOTA BOGOR","ID_KEC":"32.71.03","KECAMATAN":"BOGOR TENGAH","ID_DESA":"32.71.03.1006","DESA":"SEMPUR","LONGITUDE":106.798355,"LATITUDE":-6.5840347,"STATUS":"BUKA","TANGGAL PENGUMPULAN":"Q1 2024","TANGGAL UPDATE":"28/02/2025"}},{"type":"Feature","geometry":{"coordinates":[106.8210558,-6.624812],"type":"Point"},"properties":{"NAMA":"PUSKESMAS PULO ARMYN","TIPE_1":"KESEHATAN DAN PENGOBATAN","TIPE_2":"LAYANAN MASYARAKAT","TIPE_3":"PUSKESMAS","TELEPON":"(0251) 8370587","ALAMAT":"JL. RAYA TAJUR NO.40, RT.02/RW.01, TAJUR, KEC. BOGOR TIM., KOTA BOGOR, JAWA BARAT 16141","ID_PROV":"32","PROVINSI":"JAWA BARAT","ID_KABKOT":"32.71","KABKOT":"KOTA BOGOR","ID_KEC":"32.71.02","KECAMATAN":"BOGOR TIMUR","ID_DESA":"32.71.02.1006","DESA":"TAJUR","LONGITUDE":106.8210558,"LATITUDE":-6.624812,"STATUS":"BUKA","TANGGAL PENGUMPULAN":"Q1 2024","TANGGAL UPDATE":"28/02/2025"}},{"type":"Feature","geometry":{"coordinates":[106.8130898,-6.6275498],"type":"Point"},"properties":{"NAMA":"PUSKESMAS LAWANGGINTUNG BOGOR","TIPE_1":"KESEHATAN DAN PENGOBATAN","TIPE_2":"LAYANAN MASYARAKAT","TIPE_3":"PUSKESMAS","TELEPON":"","ALAMAT":"RT.06/RW.01, LAWANGGINTUNG, KEC. BOGOR SEL., KOTA BOGOR, JAWA BARAT 16134","ID_PROV":"32","PROVINSI":"JAWA BARAT","ID_KABKOT":"32.71","KABKOT":"KOTA BOGOR","ID_KEC":"32.71.01","KECAMATAN":"BOGOR SELATAN","ID_DESA":"32.71.01.1004","DESA":"LAWANGGINTUNG","LONGITUDE":106.8130898,"LATITUDE":-6.6275498,"STATUS":"BUKA","TANGGAL PENGUMPULAN":"Q1 2024","TANGGAL UPDATE":"28/02/2025"}},{"type":"Feature","geometry":{"coordinates":[106.8130731,-6.6207217],"type":"Point"},"properties":{"NAMA":"PUSKESMAS LAWANG GINTUNG","TIPE_1":"KESEHATAN DAN PENGOBATAN","TIPE_2":"LAYANAN MASYARAKAT","TIPE_3":"PUSKESMAS","TELEPON":"(0251) 8341139","ALAMAT":"KELURAHAN LAWANGGINTUNG, JL. LAWANG GINTUNG NO.12, RT.003/RW.005, LAWANGGINTUNG, KEC. BOGOR SEL., KOTA BOGOR, JAWA BARAT 16134","ID_PROV":"32","PROVINSI":"JAWA BARAT","ID_KABKOT":"32.71","KABKOT":"KOTA BOGOR","ID_KEC":"32.71.01","KECAMATAN":"BOGOR SELATAN","ID_DESA":"32.71.01.1004","DESA":"LAWANGGINTUNG","LONGITUDE":106.8130731,"LATITUDE":-6.6207217,"STATUS":"BUKA","TANGGAL PENGUMPULAN":"Q1 2024","TANGGAL UPDATE":"28/02/2025"}},{"type":"Feature","geometry":{"coordinates":[106.7899455,-6.6066856],"type":"Point"},"properties":{"NAMA":"UPTD PUSKESMAS PANCASAN","TIPE_1":"KESEHATAN DAN PENGOBATAN","TIPE_2":"LAYANAN MASYARAKAT","TIPE_3":"PUSKESMAS","TELEPON":"(0251) 8347063","ALAMAT":"JL. ARIA SURIALAGA NO.12, RT.03/RW.06, PASIR JAYA, KEC. BOGOR BAR., KOTA BOGOR, JAWA BARAT 16119","ID_PROV":"32","PROVINSI":"JAWA BARAT","ID_KABKOT":"32.71","KABKOT":"KOTA BOGOR","ID_KEC":"32.71.04","KECAMATAN":"BOGOR BARAT","ID_DESA":"32.71.04.1012","DESA":"PASIR JAYA","LONGITUDE":106.7899455,"LATITUDE":-6.6066856,"STATUS":"BUKA","TANGGAL PENGUMPULAN":"Q1 2024","TANGGAL UPDATE":"28/02/2025"}},{"type":"Feature","geometry":{"coordinates":[106.8108341,-6.6304738],"type":"Point"},"properties":{"NAMA":"UPTD PUSKESMAS CIPAKU","TIPE_1":"KESEHATAN DAN PENGOBATAN","TIPE_2":"LAYANAN MASYARAKAT","TIPE_3":"PUSKESMAS","TELEPON":"(0251) 8348076","ALAMAT":"JL. RAYA CIPAKU NO.1, RT.02/RW.10, CIPAKU, KEC. BOGOR SEL., KOTA BOGOR, JAWA BARAT 16133","ID_PROV":"32","PROVINSI":"JAWA BARAT","ID_KABKOT":"32.71","KABKOT":"KOTA BOGOR","ID_KEC":"32.71.01","KECAMATAN":"BOGOR SELATAN","ID_DESA":"32.71.01.1016","DESA":"CIPAKU","LONGITUDE":106.8108341,"LATITUDE":-6.6304738,"STATUS":"BUKA","TANGGAL PENGUMPULAN":"Q1 2024","TANGGAL UPDATE":"28/02/2025"}},{"type":"Feature","geometry":{"coordinates":[106.7779743,-6.5972988],"type":"Point"},"properties":{"NAMA":"PUSKESMAS PASIR MULYA","TIPE_1":"KESEHATAN DAN PENGOBATAN","TIPE_2":"LAYANAN MASYARAKAT","TIPE_3":"PUSKESMAS","TELEPON":"(0251) 8638926","ALAMAT":"JL. PASIR MULYA 3 NO.30, RT.01/RW.07, PASIRMULYA, KEC. BOGOR BAR., KOTA BOGOR, JAWA BARAT 16118","ID_PROV":"32","PROVINSI":"JAWA BARAT","ID_KABKOT":"32.71","KABKOT":"KOTA BOGOR","ID_KEC":"32.71.04","KECAMATAN":"BOGOR BARAT","ID_DESA":"32.71.04.1014","DESA":"PASIR MULYA","LONGITUDE":106.7779743,"LATITUDE":-6.5972988,"STATUS":"BUKA","TANGGAL PENGUMPULAN":"Q1 2024","TANGGAL UPDATE":"28/02/2025"}},{"type":"Feature","geometry":{"coordinates":[106.8375714,-6.6659661],"type":"Point"},"properties":{"NAMA":"PUSKESMAS PEMBANTU BOJONGKERTA","TIPE_1":"KESEHATAN DAN PENGOBATAN","TIPE_2":"LAYANAN MASYARAKAT","TIPE_3":"PUSKESMAS","TELEPON":"","ALAMAT":"JL. RANCAMAYA-BOJONGKERTA, RT.01/RW.04, KERTAMAYA, KEC. BOGOR SEL., KOTA BOGOR, JAWA BARAT 16138","ID_PROV":"32","PROVINSI":"JAWA BARAT","ID_KABKOT":"32.71","KABKOT":"KOTA BOGOR","ID_KEC":"32.71.01","KECAMATAN":"BOGOR SELATAN","ID_DESA":"32.71.01.1009","DESA":"BOJONG KERTA","LONGITUDE":106.8375714,"LATITUDE":-6.6659661,"STATUS":"BUKA","TANGGAL PENGUMPULAN":"Q1 2024","TANGGAL UPDATE":"28/02/2025"}},{"type":"Feature","geometry":{"coordinates":[106.8196523,-6.5831611],"type":"Point"},"properties":{"NAMA":"PUSKESMAS BOGOR UTARA","TIPE_1":"KESEHATAN DAN PENGOBATAN","TIPE_2":"LAYANAN MASYARAKAT","TIPE_3":"PUSKESMAS","TELEPON":"(0251) 8363644","ALAMAT":"JL. RADEN KAN'AN NO.81, RT.05/RW.04, TANAH BARU, KEC. BOGOR UTARA, KOTA BOGOR, JAWA BARAT 16154","ID_PROV":"32","PROVINSI":"JAWA BARAT","ID_KABKOT":"32.71","KABKOT":"KOTA BOGOR","ID_KEC":"32.71.05","KECAMATAN":"BOGOR UTARA","ID_DESA":"32.71.05.1007","DESA":"TANAH BARU","LONGITUDE":106.8196523,"LATITUDE":-6.5831611,"STATUS":"BUKA","TANGGAL PENGUMPULAN":"Q1 2024","TANGGAL UPDATE":"28/02/2025"}},{"type":"Feature","geometry":{"coordinates":[106.8132361,-6.5808709],"type":"Point"},"properties":{"NAMA":"PUSKESMAS TEGAL GUNDIL","TIPE_1":"KESEHATAN DAN PENGOBATAN","TIPE_2":"LAYANAN MASYARAKAT","TIPE_3":"PUSKESMAS","TELEPON":"","ALAMAT":"JL. PALUPUH RAYA NO.1, RT.01/RW.02, TEGAL GUNDIL, KEC. BOGOR UTARA, KOTA BOGOR, JAWA BARAT 16152","ID_PROV":"32","PROVINSI":"JAWA BARAT","ID_KABKOT":"32.71","KABKOT":"KOTA BOGOR","ID_KEC":"32.71.05","KECAMATAN":"BOGOR UTARA","ID_DESA":"32.71.05.1002","DESA":"TEGAL GUNDIL","LONGITUDE":106.8132361,"LATITUDE":-6.5808709,"STATUS":"BUKA","TANGGAL PENGUMPULAN":"Q1 2024","TANGGAL UPDATE":"28/02/2025"}}]}