{"type":"FeatureCollection","features":[{"type":"Feature","geometry":{"coordinates":[106.76319,-6.40518],"type":"Point"},"properties":{"NAMA":"PUSKESMAS SAWANGAN","TIPE_1":"KESEHATAN DAN PENGOBATAN","TIPE_2":"LAYANAN MASYARAKAT","TIPE_3":"PUSKESMAS","TELEPON":"","ALAMAT":"SAWANGAN BARU, KEC. SAWANGAN, KOTA DEPOK, JAWA BARAT","ID_PROV":"32","PROVINSI":"JAWA BARAT","ID_KABKOT":"32.76","KABKOT":"KOTA DEPOK","ID_KEC":"32.76.03","KECAMATAN":"SAWANGAN","ID_DESA":"32.76.03.1011","DESA":"SAWANGAN BARU","LONGITUDE":106.76319,"LATITUDE":-6.40518,"STATUS":"BUKA","TANGGAL PENGUMPULAN":"Q1 2024","TANGGAL UPDATE":"28/02/2025"}},{"type":"Feature","geometry":{"coordinates":[106.8688057,-6.4313309],"type":"Point"},"properties":{"NAMA":"UPF PUSKESMAS CILANGKAP","TIPE_1":"KESEHATAN DAN PENGOBATAN","TIPE_2":"LAYANAN MASYARAKAT","TIPE_3":"PUSKESMAS","TELEPON":"(021) 87926148","ALAMAT":"JL. GG. SWADAYA, CILANGKAP, KEC. TAPOS, KOTA DEPOK, JAWA BARAT 16458","ID_PROV":"32","PROVINSI":"JAWA BARAT","ID_KABKOT":"32.76","KABKOT":"KOTA DEPOK","ID_KEC":"32.76.10","KECAMATAN":"TAPOS","ID_DESA":"32.76.10.1006","DESA":"CILANGKAP","LONGITUDE":106.8688057,"LATITUDE":-6.4313309,"STATUS":"BUKA","TANGGAL PENGUMPULAN":"Q1 2024","TANGGAL UPDATE":"28/02/2025"}},{"type":"Feature","geometry":{"coordinates":[106.821829,-6.3761124],"type":"Point"},"properties":{"NAMA":"PONED PUSKESMAS BEJI","TIPE_1":"KESEHATAN DAN PENGOBATAN","TIPE_2":"LAYANAN MASYARAKAT","TIPE_3":"PUSKESMAS","TELEPON":"(021) 7757033","ALAMAT":"BEJI TIM., KECAMATAN BEJI, KOTA DEPOK, JAWA BARAT 16422","ID_PROV":"32","PROVINSI":"JAWA BARAT","ID_KABKOT":"32.76","KABKOT":"KOTA DEPOK","ID_KEC":"32.76.06","KECAMATAN":"BEJI","ID_DESA":"32.76.06.1006","DESA":"BEJI TIMUR","LONGITUDE":106.821829,"LATITUDE":-6.3761124,"STATUS":"BUKA","TANGGAL PENGUMPULAN":"Q1 2024","TANGGAL UPDATE":"28/02/2025"}},{"type":"Feature","geometry":{"coordinates":[106.8054394,-6.439973],"type":"Point"},"properties":{"NAMA":"PUSKESMAS PEMBANTU PONDOK TERONG","TIPE_1":"KESEHATAN DAN PENGOBATAN","TIPE_2":"LAYANAN MASYARAKAT","TIPE_3":"PUSKESMAS","TELEPON":"","ALAMAT":"JL. H. DUL, BOJONG PD. TERONG, KEC. CIPAYUNG, KOTA DEPOK, JAWA BARAT 16436","ID_PROV":"32","PROVINSI":"JAWA BARAT","ID_KABKOT":"32.76","KABKOT":"KOTA DEPOK","ID_KEC":"32.76.07","KECAMATAN":"CIPAYUNG","ID_DESA":"32.76.07.1004","DESA":"BOJONG PONDOK TERONG","LONGITUDE":106.8054394,"LATITUDE":-6.439973,"STATUS":"BUKA","TANGGAL PENGUMPULAN":"Q1 2024","TANGGAL UPDATE":"28/02/2025"}},{"type":"Feature","geometry":{"coordinates":[106.7306775,-6.3652226],"type":"Point"},"properties":{"NAMA":"PUSKESMAS BOJONGSARI","TIPE_1":"KESEHATAN DAN PENGOBATAN","TIPE_2":"LAYANAN MASYARAKAT","TIPE_3":"PUSKESMAS","TELEPON":"(021) 74771693","ALAMAT":"PAMULANG VILLAGE, BLOK H 8, RT.06/RW.12, PD. PETIR, KEC. BOJONGSARI, KOTA DEPOK, JAWA BARAT 16517","ID_PROV":"32","PROVINSI":"JAWA BARAT","ID_KABKOT":"32.76","KABKOT":"KOTA DEPOK","ID_KEC":"32.76.11","KECAMATAN":"BOJONGSARI","ID_DESA":"32.76.11.1004","DESA":"PONDOK PETIR","LONGITUDE":106.7306775,"LATITUDE":-6.3652226,"STATUS":"BUKA","TANGGAL PENGUMPULAN":"Q1 2024","TANGGAL UPDATE":"28/02/2025"}},{"type":"Feature","geometry":{"coordinates":[106.8889626,-6.4255843],"type":"Point"},"properties":{"NAMA":"PUSKESMAS PONED TAPOS","TIPE_1":"KESEHATAN DAN PENGOBATAN","TIPE_2":"LAYANAN MASYARAKAT","TIPE_3":"PUSKESMAS","TELEPON":"(021) 8962908","ALAMAT":"JL. RAYA TAPOS NO.35, TAPOS, KEC. TAPOS, KOTA DEPOK, JAWA BARAT 16457","ID_PROV":"32","PROVINSI":"JAWA BARAT","ID_KABKOT":"32.76","KABKOT":"KOTA DEPOK","ID_KEC":"32.76.10","KECAMATAN":"TAPOS","ID_DESA":"32.76.10.1001","DESA":"TAPOS","LONGITUDE":106.8889626,"LATITUDE":-6.4255843,"STATUS":"BUKA","TANGGAL PENGUMPULAN":"Q1 2024","TANGGAL UPDATE":"28/02/2025"}},{"type":"Feature","geometry":{"coordinates":[106.7592268,-6.3649858],"type":"Point"},"properties":{"NAMA":"PUSKESMAS CINANGKA","TIPE_1":"KESEHATAN DAN PENGOBATAN","TIPE_2":"LAYANAN MASYARAKAT","TIPE_3":"PUSKESMAS","TELEPON":"","ALAMAT":"JALAN KAMPUNG BULAK BARAT JL. NUSA INDAH, CINANGKA, KEC. SAWANGAN, KOTA DEPOK, JAWA BARAT 16516","ID_PROV":"32","PROVINSI":"JAWA BARAT","ID_KABKOT":"32.76","KABKOT":"KOTA DEPOK","ID_KEC":"32.76.03","KECAMATAN":"SAWANGAN","ID_DESA":"32.76.03.1009","DESA":"CINANGKA","LONGITUDE":106.7592268,"LATITUDE":-6.3649858,"STATUS":"BUKA","TANGGAL PENGUMPULAN":"Q1 2024","TANGGAL UPDATE":"28/02/2025"}},{"type":"Feature","geometry":{"coordinates":[106.8382933,-6.390095],"type":"Point"},"properties":{"NAMA":"PUSKESMAS RAMAH ANAK","TIPE_1":"KESEHATAN DAN PENGOBATAN","TIPE_2":"LAYANAN MASYARAKAT","TIPE_3":"PUSKESMAS","TELEPON":"","ALAMAT":"JL. ARJUNA RAYA NO.1, MEKAR JAYA, KEC. SUKMAJAYA, KOTA DEPOK, JAWA BARAT 16411","ID_PROV":"32","PROVINSI":"JAWA BARAT","ID_KABKOT":"32.76","KABKOT":"KOTA DEPOK","ID_KEC":"32.76.05","KECAMATAN":"SUKMAJAYA","ID_DESA":"32.76.05.1004","DESA":"MEKARJAYA","LONGITUDE":106.8382933,"LATITUDE":-6.390095,"STATUS":"BUKA","TANGGAL PENGUMPULAN":"Q1 2024","TANGGAL UPDATE":"28/02/2025"}},{"type":"Feature","geometry":{"coordinates":[106.8688542,-6.4312213],"type":"Point"},"properties":{"NAMA":"UPTD PUSKESMAS CILANGKAP","TIPE_1":"KESEHATAN DAN PENGOBATAN","TIPE_2":"LAYANAN MASYARAKAT","TIPE_3":"PUSKESMAS","TELEPON":"","ALAMAT":"JL. H. RAYA KP. BANJARAN PUCUNG, RT.01/RW.07, CILANGKAP, KEC. TAPOS, KOTA DEPOK, JAWA BARAT 16458","ID_PROV":"32","PROVINSI":"JAWA BARAT","ID_KABKOT":"32.76","KABKOT":"KOTA DEPOK","ID_KEC":"32.76.10","KECAMATAN":"TAPOS","ID_DESA":"32.76.10.1006","DESA":"CILANGKAP","LONGITUDE":106.8688542,"LATITUDE":-6.4312213,"STATUS":"BUKA","TANGGAL PENGUMPULAN":"Q1 2024","TANGGAL UPDATE":"28/02/2025"}},{"type":"Feature","geometry":{"coordinates":[106.7810943,-6.399571],"type":"Point"},"properties":{"NAMA":"PUSKESMAS RANGKAPAN JAYA BARU (RAWADENOK)","TIPE_1":"KESEHATAN DAN PENGOBATAN","TIPE_2":"LAYANAN MASYARAKAT","TIPE_3":"PUSKESMAS","TELEPON":"0821-2449-0045","ALAMAT":"JL. PUSKESMAS NO.12, RANGKAPAN JAYA BARU, KEC. PANCORAN MAS, KOTA DEPOK, JAWA BARAT 16434","ID_PROV":"32","PROVINSI":"JAWA BARAT","ID_KABKOT":"32.76","KABKOT":"KOTA DEPOK","ID_KEC":"32.76.01","KECAMATAN":"PANCORAN MAS","ID_DESA":"32.76.01.1010","DESA":"RANGKAPAN JAYA BARU","LONGITUDE":106.7810943,"LATITUDE":-6.399571,"STATUS":"BUKA","TANGGAL PENGUMPULAN":"Q1 2024","TANGGAL UPDATE":"28/02/2025"}},{"type":"Feature","geometry":{"coordinates":[106.8510206,-6.342723],"type":"Point"},"properties":{"NAMA":"PUSKESMAS PASIR GUNUNG SELATAN","TIPE_1":"KESEHATAN DAN PENGOBATAN","TIPE_2":"LAYANAN MASYARAKAT","TIPE_3":"PUSKESMAS","TELEPON":"(021) 29823798","ALAMAT":"KOMP. PESONA KALISARI, JL. VILLA KALISARI NO.BLOK B, RT.12/RW.1, PASIR GN. SEL., KEC. CIMANGGIS, KOTA DEPOK, JAWA BARAT 16451","ID_PROV":"32","PROVINSI":"JAWA BARAT","ID_KABKOT":"32.76","KABKOT":"KOTA DEPOK","ID_KEC":"32.76.02","KECAMATAN":"CIMANGGIS","ID_DESA":"32.76.02.1011","DESA":"PASIR GUNUNG SELATAN","LONGITUDE":106.8510206,"LATITUDE":-6.342723,"STATUS":"BUKA","TANGGAL PENGUMPULAN":"Q1 2024","TANGGAL UPDATE":"28/02/2025"}},{"type":"Feature","geometry":{"coordinates":[106.75764,-6.4204427],"type":"Point"},"properties":{"NAMA":"UPTD PUSKESMAS PENGASINAN","TIPE_1":"KESEHATAN DAN PENGOBATAN","TIPE_2":"LAYANAN MASYARAKAT","TIPE_3":"PUSKESMAS","TELEPON":"0816-1600-470","ALAMAT":"KOMPLEK BUMI SAWANGAN INDAH JL. ANGGREK RAYA 1, RT.06/RW.09, PENGASINAN, KEC. SAWANGAN, KOTA DEPOK, JAWA BARAT 16518","ID_PROV":"32","PROVINSI":"JAWA BARAT","ID_KABKOT":"32.76","KABKOT":"KOTA DEPOK","ID_KEC":"32.76.03","KECAMATAN":"SAWANGAN","ID_DESA":"32.76.03.1003","DESA":"PENGASINAN","LONGITUDE":106.75764,"LATITUDE":-6.4204427,"STATUS":"BUKA","TANGGAL PENGUMPULAN":"Q1 2024","TANGGAL UPDATE":"28/02/2025"}},{"type":"Feature","geometry":{"coordinates":[106.8251303,-6.445526],"type":"Point"},"properties":{"NAMA":"UPTD PUSKESMAS KALIMULYA","TIPE_1":"KESEHATAN DAN PENGOBATAN","TIPE_2":"LAYANAN MASYARAKAT","TIPE_3":"PUSKESMAS","TELEPON":"(021) 8763354","ALAMAT":"JL. ARIDHO, JATIMULYA, KEC. CILODONG, KOTA DEPOK, JAWA BARAT 16413","ID_PROV":"32","PROVINSI":"JAWA BARAT","ID_KABKOT":"32.76","KABKOT":"KOTA DEPOK","ID_KEC":"32.76.08","KECAMATAN":"CILODONG","ID_DESA":"32.76.08.1005","DESA":"JATIMULYA","LONGITUDE":106.8251303,"LATITUDE":-6.445526,"STATUS":"BUKA","TANGGAL PENGUMPULAN":"Q1 2024","TANGGAL UPDATE":"28/02/2025"}},{"type":"Feature","geometry":{"coordinates":[106.8432164,-6.4360648],"type":"Point"},"properties":{"NAMA":"PUSKESMAS CILODONG","TIPE_1":"KESEHATAN DAN PENGOBATAN","TIPE_2":"LAYANAN MASYARAKAT","TIPE_3":"PUSKESMAS","TELEPON":"(021) 8741072","ALAMAT":"JL. ASRAMA, KALIBARU, KEC. CILODONG, KOTA DEPOK, JAWA BARAT 16413","ID_PROV":"32","PROVINSI":"JAWA BARAT","ID_KABKOT":"32.76","KABKOT":"KOTA DEPOK","ID_KEC":"32.76.08","KECAMATAN":"CILODONG","ID_DESA":"32.76.08.1003","DESA":"KALIBARU","LONGITUDE":106.8432164,"LATITUDE":-6.4360648,"STATUS":"BUKA","TANGGAL PENGUMPULAN":"Q1 2024","TANGGAL UPDATE":"28/02/2025"}},{"type":"Feature","geometry":{"coordinates":[106.8692115,-6.4036473],"type":"Point"},"properties":{"NAMA":"UPTD PUSKESMAS SUKAMAJU BARU","TIPE_1":"KESEHATAN DAN PENGOBATAN","TIPE_2":"LAYANAN MASYARAKAT","TIPE_3":"PUSKESMAS","TELEPON":"0812-8527-4724","ALAMAT":"JL. KENARI RAYA NO.11 BLOK G, SUKAMAJU BARU, KEC. TAPOS, KOTA DEPOK, JAWA BARAT 16455","ID_PROV":"32","PROVINSI":"JAWA BARAT","ID_KABKOT":"32.76","KABKOT":"KOTA DEPOK","ID_KEC":"32.76.10","KECAMATAN":"TAPOS","ID_DESA":"32.76.10.1004","DESA":"SUKAMAJU BARU","LONGITUDE":106.8692115,"LATITUDE":-6.4036473,"STATUS":"BUKA","TANGGAL PENGUMPULAN":"Q1 2024","TANGGAL UPDATE":"28/02/2025"}},{"type":"Feature","geometry":{"coordinates":[106.8623265,-6.4166298],"type":"Point"},"properties":{"NAMA":"UPTD PUSKESMAS JATIJAJAR","TIPE_1":"KESEHATAN DAN PENGOBATAN","TIPE_2":"LAYANAN MASYARAKAT","TIPE_3":"PUSKESMAS","TELEPON":"0821-1043-9010","ALAMAT":"ESTATE, JL. PERUMAHAN JATIJAJAR BLK. C NO.2, RT.2/RW.11, JATIJAJAR, KEC. TAPOS, KOTA DEPOK, JAWA BARAT 16451","ID_PROV":"32","PROVINSI":"JAWA BARAT","ID_KABKOT":"32.76","KABKOT":"KOTA DEPOK","ID_KEC":"32.76.10","KECAMATAN":"TAPOS","ID_DESA":"32.76.10.1005","DESA":"JATIJAJAR","LONGITUDE":106.8623265,"LATITUDE":-6.4166298,"STATUS":"BUKA","TANGGAL PENGUMPULAN":"Q1 2024","TANGGAL UPDATE":"28/02/2025"}},{"type":"Feature","geometry":{"coordinates":[106.8511468,-6.4191316],"type":"Point"},"properties":{"NAMA":"PUSKESMAS VILA PERTIWI","TIPE_1":"KESEHATAN DAN PENGOBATAN","TIPE_2":"LAYANAN MASYARAKAT","TIPE_3":"PUSKESMAS","TELEPON":"(021) 83710862","ALAMAT":"JL. KOMP. VILLA PERTIWI NO.BLOK 1, SUKAMAJU, KEC. CILODONG, KOTA DEPOK, JAWA BARAT 16415","ID_PROV":"32","PROVINSI":"JAWA BARAT","ID_KABKOT":"32.76","KABKOT":"KOTA DEPOK","ID_KEC":"32.76.08","KECAMATAN":"CILODONG","ID_DESA":"32.76.08.1001","DESA":"SUKAMAJU","LONGITUDE":106.8511468,"LATITUDE":-6.4191316,"STATUS":"BUKA","TANGGAL PENGUMPULAN":"Q1 2024","TANGGAL UPDATE":"28/02/2025"}},{"type":"Feature","geometry":{"coordinates":[106.8547529,-6.3559286],"type":"Point"},"properties":{"NAMA":"UPTD PUSKESMAS TUGU","TIPE_1":"KESEHATAN DAN PENGOBATAN","TIPE_2":"LAYANAN MASYARAKAT","TIPE_3":"PUSKESMAS","TELEPON":"(021) 8727924","ALAMAT":"JL. AKSES UI, TUGU, KEC. CIMANGGIS, KOTA DEPOK, JAWA BARAT 16451","ID_PROV":"32","PROVINSI":"JAWA BARAT","ID_KABKOT":"32.76","KABKOT":"KOTA DEPOK","ID_KEC":"32.76.02","KECAMATAN":"CIMANGGIS","ID_DESA":"32.76.02.1009","DESA":"TUGU","LONGITUDE":106.8547529,"LATITUDE":-6.3559286,"STATUS":"BUKA","TANGGAL PENGUMPULAN":"Q1 2024","TANGGAL UPDATE":"28/02/2025"}},{"type":"Feature","geometry":{"coordinates":[106.8922188,-6.3818635],"type":"Point"},"properties":{"NAMA":"UPTD PUSKESMAS HARJAMUKTI","TIPE_1":"KESEHATAN DAN PENGOBATAN","TIPE_2":"LAYANAN MASYARAKAT","TIPE_3":"PUSKESMAS","TELEPON":"(021) 8733165","ALAMAT":"JL. TUMARITIS KAVLING PERTAMINA NO.3, HARJAMUKTI, KEC. CIMANGGIS, KOTA DEPOK, JAWA BARAT 16454","ID_PROV":"32","PROVINSI":"JAWA BARAT","ID_KABKOT":"32.76","KABKOT":"KOTA DEPOK","ID_KEC":"32.76.02","KECAMATAN":"CIMANGGIS","ID_DESA":"32.76.02.1007","DESA":"HARJAMUKTI","LONGITUDE":106.8922188,"LATITUDE":-6.3818635,"STATUS":"BUKA","TANGGAL PENGUMPULAN":"Q1 2024","TANGGAL UPDATE":"28/02/2025"}},{"type":"Feature","geometry":{"coordinates":[106.851802,-6.3949694],"type":"Point"},"properties":{"NAMA":"UPTD PUSKESMAS ABADI JAYA","TIPE_1":"KESEHATAN DAN PENGOBATAN","TIPE_2":"LAYANAN MASYARAKAT","TIPE_3":"PUSKESMAS","TELEPON":"(021) 7716940","ALAMAT":"JL. KERINCI RAYA NO.1, ABADIJAYA, KEC. SUKMAJAYA, KOTA DEPOK, JAWA BARAT 16417","ID_PROV":"32","PROVINSI":"JAWA BARAT","ID_KABKOT":"32.76","KABKOT":"KOTA DEPOK","ID_KEC":"32.76.05","KECAMATAN":"SUKMAJAYA","ID_DESA":"32.76.05.1003","DESA":"ABADIJAYA","LONGITUDE":106.851802,"LATITUDE":-6.3949694,"STATUS":"BUKA","TANGGAL PENGUMPULAN":"Q1 2024","TANGGAL UPDATE":"28/02/2025"}},{"type":"Feature","geometry":{"coordinates":[106.819211,-6.4028557],"type":"Point"},"properties":{"NAMA":"PUSKESMAS PANCORAN MAS","TIPE_1":"KESEHATAN DAN PENGOBATAN","TIPE_2":"LAYANAN MASYARAKAT","TIPE_3":"PUSKESMAS","TELEPON":"(021) 7520130","ALAMAT":"JL. PEMUDA NO.2, RT.002/RW.008, DEPOK, KEC. PANCORAN MAS, KOTA DEPOK, JAWA BARAT 16431","ID_PROV":"32","PROVINSI":"JAWA BARAT","ID_KABKOT":"32.76","KABKOT":"KOTA DEPOK","ID_KEC":"32.76.01","KECAMATAN":"PANCORAN MAS","ID_DESA":"32.76.01.1006","DESA":"DEPOK","LONGITUDE":106.819211,"LATITUDE":-6.4028557,"STATUS":"BUKA","TANGGAL PENGUMPULAN":"Q1 2024","TANGGAL UPDATE":"28/02/2025"}},{"type":"Feature","geometry":{"coordinates":[106.8032518,-6.388367],"type":"Point"},"properties":{"NAMA":"PUSKESMAS TANAH BARU","TIPE_1":"KESEHATAN DAN PENGOBATAN","TIPE_2":"LAYANAN MASYARAKAT","TIPE_3":"PUSKESMAS","TELEPON":"(021) 78520052","ALAMAT":"KOMPLEK, DEPOK MULYA NO.3, RT.02/RW.01, TANAH BARU, KECAMATAN BEJI, KOTA DEPOK, JAWA BARAT 16426","ID_PROV":"32","PROVINSI":"JAWA BARAT","ID_KABKOT":"32.76","KABKOT":"KOTA DEPOK","ID_KEC":"32.76.06","KECAMATAN":"BEJI","ID_DESA":"32.76.06.1003","DESA":"TANAH BARU","LONGITUDE":106.8032518,"LATITUDE":-6.388367,"STATUS":"BUKA","TANGGAL PENGUMPULAN":"Q1 2024","TANGGAL UPDATE":"28/02/2025"}},{"type":"Feature","geometry":{"coordinates":[106.8532473,-6.3749083],"type":"Point"},"properties":{"NAMA":"UPTD PUSKESMAS BAKTIJAYA","TIPE_1":"KESEHATAN DAN PENGOBATAN","TIPE_2":"LAYANAN MASYARAKAT","TIPE_3":"PUSKESMAS","TELEPON":"(021) 87710143","ALAMAT":"JL. GAMA SETIA BAR. 9, BAKTI JAYA, KEC. SUKMAJAYA, KOTA DEPOK, JAWA BARAT 16418","ID_PROV":"32","PROVINSI":"JAWA BARAT","ID_KABKOT":"32.76","KABKOT":"KOTA DEPOK","ID_KEC":"32.76.05","KECAMATAN":"SUKMAJAYA","ID_DESA":"32.76.05.1005","DESA":"BAKTIJAYA","LONGITUDE":106.8532473,"LATITUDE":-6.3749083,"STATUS":"BUKA","TANGGAL PENGUMPULAN":"Q1 2024","TANGGAL UPDATE":"28/02/2025"}},{"type":"Feature","geometry":{"coordinates":[106.7499071,-6.3627319],"type":"Point"},"properties":{"NAMA":"PUSKESMAS KEDAUNG","TIPE_1":"KESEHATAN DAN PENGOBATAN","TIPE_2":"LAYANAN MASYARAKAT","TIPE_3":"PUSKESMAS","TELEPON":"0813-8162-9331","ALAMAT":"JL. PERTIWI RAYA NO.31-43, KEDAUNG, KEC. SAWANGAN, KOTA DEPOK, JAWA BARAT 16516","ID_PROV":"32","PROVINSI":"JAWA BARAT","ID_KABKOT":"32.76","KABKOT":"KOTA DEPOK","ID_KEC":"32.76.03","KECAMATAN":"SAWANGAN","ID_DESA":"32.76.03.1012","DESA":"KEDAUNG","LONGITUDE":106.7499071,"LATITUDE":-6.3627319,"STATUS":"BUKA","TANGGAL PENGUMPULAN":"Q1 2024","TANGGAL UPDATE":"28/02/2025"}},{"type":"Feature","geometry":{"coordinates":[106.7901249,-6.379798],"type":"Point"},"properties":{"NAMA":"UPTD PUSKESMAS LIMO","TIPE_1":"KESEHATAN DAN PENGOBATAN","TIPE_2":"LAYANAN MASYARAKAT","TIPE_3":"PUSKESMAS","TELEPON":"(021) 7754632","ALAMAT":"JL. RAYA GROGOL NO.4, RT.01/RW.01, GROGOL, KEC. LIMO, KOTA DEPOK, JAWA BARAT 16512","ID_PROV":"32","PROVINSI":"JAWA BARAT","ID_KABKOT":"32.76","KABKOT":"KOTA DEPOK","ID_KEC":"32.76.04","KECAMATAN":"LIMO","ID_DESA":"32.76.04.1002","DESA":"GROGOL","LONGITUDE":106.7901249,"LATITUDE":-6.379798,"STATUS":"BUKA","TANGGAL PENGUMPULAN":"Q1 2024","TANGGAL UPDATE":"28/02/2025"}},{"type":"Feature","geometry":{"coordinates":[106.8101871,-6.389758],"type":"Point"},"properties":{"NAMA":"UPTD PUSKESMAS DEPOK JAYA","TIPE_1":"KESEHATAN DAN PENGOBATAN","TIPE_2":"LAYANAN MASYARAKAT","TIPE_3":"PUSKESMAS","TELEPON":"(021) 7750308","ALAMAT":"JL. MELATI RAYA NO.1 KEL, DEPOK JAYA, KEC. PANCORAN MAS, KOTA DEPOK, JAWA BARAT 16432","ID_PROV":"32","PROVINSI":"JAWA BARAT","ID_KABKOT":"32.76","KABKOT":"KOTA DEPOK","ID_KEC":"32.76.01","KECAMATAN":"PANCORAN MAS","ID_DESA":"32.76.01.1007","DESA":"DEPOK JAYA","LONGITUDE":106.8101871,"LATITUDE":-6.389758,"STATUS":"BUKA","TANGGAL PENGUMPULAN":"Q1 2024","TANGGAL UPDATE":"28/02/2025"}},{"type":"Feature","geometry":{"coordinates":[106.7800676,-6.3409628],"type":"Point"},"properties":{"NAMA":"UPTD PUSKESMAS CINERE","TIPE_1":"KESEHATAN DAN PENGOBATAN","TIPE_2":"LAYANAN MASYARAKAT","TIPE_3":"PUSKESMAS","TELEPON":"(021) 7548707","ALAMAT":"JL. CINERE RAYA NO.30, CINERE, KEC. CINERE, KOTA DEPOK, JAWA BARAT 16514","ID_PROV":"32","PROVINSI":"JAWA BARAT","ID_KABKOT":"32.76","KABKOT":"KOTA DEPOK","ID_KEC":"32.76.09","KECAMATAN":"CINERE","ID_DESA":"32.76.09.1001","DESA":"CINERE","LONGITUDE":106.7800676,"LATITUDE":-6.3409628,"STATUS":"BUKA","TANGGAL PENGUMPULAN":"Q1 2024","TANGGAL UPDATE":"28/02/2025"}},{"type":"Feature","geometry":{"coordinates":[106.8674456,-6.4491949],"type":"Point"},"properties":{"NAMA":"UPTD PUSKESMAS CIMPAEUN","TIPE_1":"KESEHATAN DAN PENGOBATAN","TIPE_2":"LAYANAN MASYARAKAT","TIPE_3":"PUSKESMAS","TELEPON":"(021) 87922036","ALAMAT":"JL. RAYA TAPOS NO.51, CIMPAEUN, KEC. TAPOS, KOTA DEPOK, JAWA BARAT 16459","ID_PROV":"32","PROVINSI":"JAWA BARAT","ID_KABKOT":"32.76","KABKOT":"KOTA DEPOK","ID_KEC":"32.76.10","KECAMATAN":"TAPOS","ID_DESA":"32.76.10.1007","DESA":"CIMPAEUN","LONGITUDE":106.8674456,"LATITUDE":-6.4491949,"STATUS":"BUKA","TANGGAL PENGUMPULAN":"Q1 2024","TANGGAL UPDATE":"28/02/2025"}},{"type":"Feature","geometry":{"coordinates":[106.8889912,-6.4255569],"type":"Point"},"properties":{"NAMA":"UPTD PUSKESMAS TAPOS","TIPE_1":"KESEHATAN DAN PENGOBATAN","TIPE_2":"LAYANAN MASYARAKAT","TIPE_3":"PUSKESMAS","TELEPON":"(021) 8762908","ALAMAT":"JL. RAYA TAPOS NO.85, RT.002/RW.012, TAPOS, KEC. TAPOS, KOTA DEPOK, JAWA BARAT 16457","ID_PROV":"32","PROVINSI":"JAWA BARAT","ID_KABKOT":"32.76","KABKOT":"KOTA DEPOK","ID_KEC":"32.76.10","KECAMATAN":"TAPOS","ID_DESA":"32.76.10.1001","DESA":"TAPOS","LONGITUDE":106.8889912,"LATITUDE":-6.4255569,"STATUS":"BUKA","TANGGAL PENGUMPULAN":"Q1 2024","TANGGAL UPDATE":"28/02/2025"}},{"type":"Feature","geometry":{"coordinates":[106.8382322,-6.3891497],"type":"Point"},"properties":{"NAMA":"PUSKESMAS KEC.SUKMAJAYA","TIPE_1":"KESEHATAN DAN PENGOBATAN","TIPE_2":"LAYANAN MASYARAKAT","TIPE_3":"PUSKESMAS","TELEPON":"","ALAMAT":"JL. ARJUNA RAYA NO.1, MEKAR JAYA, KEC. SUKMAJAYA, KOTA DEPOK, JAWA BARAT 16411","ID_PROV":"32","PROVINSI":"JAWA BARAT","ID_KABKOT":"32.76","KABKOT":"KOTA DEPOK","ID_KEC":"32.76.05","KECAMATAN":"SUKMAJAYA","ID_DESA":"32.76.05.1004","DESA":"MEKARJAYA","LONGITUDE":106.8382322,"LATITUDE":-6.3891497,"STATUS":"BUKA","TANGGAL PENGUMPULAN":"Q1 2024","TANGGAL UPDATE":"28/02/2025"}},{"type":"Feature","geometry":{"coordinates":[106.8478422,-6.409734],"type":"Point"},"properties":{"NAMA":"UPTD PUSKESMAS PONDOK SUKMAJAYA","TIPE_1":"KESEHATAN DAN PENGOBATAN","TIPE_2":"LAYANAN MASYARAKAT","TIPE_3":"PUSKESMAS","TELEPON":"","ALAMAT":"PUSKESMAS PD. SUKMAJAYA, JL. PD. SUKMAJAYA PERMAI NO.14 BLOK G2, RT.03/RW.2, SUKMAJAYA, KEC. SUKMAJAYA, KOTA DEPOK, JAWA BARAT 16412","ID_PROV":"32","PROVINSI":"JAWA BARAT","ID_KABKOT":"32.76","KABKOT":"KOTA DEPOK","ID_KEC":"32.76.05","KECAMATAN":"SUKMAJAYA","ID_DESA":"32.76.05.1001","DESA":"SUKMAJAYA","LONGITUDE":106.8478422,"LATITUDE":-6.409734,"STATUS":"BUKA","TANGGAL PENGUMPULAN":"Q1 2024","TANGGAL UPDATE":"28/02/2025"}},{"type":"Feature","geometry":{"coordinates":[106.7634115,-6.4050176],"type":"Point"},"properties":{"NAMA":"UPTD PUSKESMAS SAWANGAN","TIPE_1":"KESEHATAN DAN PENGOBATAN","TIPE_2":"LAYANAN MASYARAKAT","TIPE_3":"PUSKESMAS","TELEPON":"0858-8025-6144","ALAMAT":"JL. RAYA MUCHTAR NO.73, SAWANGAN BARU, SAWANGAN, DEPOK CITY, WEST JAVA 16511","ID_PROV":"32","PROVINSI":"JAWA BARAT","ID_KABKOT":"32.76","KABKOT":"KOTA DEPOK","ID_KEC":"32.76.03","KECAMATAN":"SAWANGAN","ID_DESA":"32.76.03.1011","DESA":"SAWANGAN BARU","LONGITUDE":106.7634115,"LATITUDE":-6.4050176,"STATUS":"BUKA","TANGGAL PENGUMPULAN":"Q1 2024","TANGGAL UPDATE":"28/02/2025"}},{"type":"Feature","geometry":{"coordinates":[106.811076,-6.3846003],"type":"Point"},"properties":{"NAMA":"UPTD PUSKESMAS DEPOK UTARA","TIPE_1":"KESEHATAN DAN PENGOBATAN","TIPE_2":"LAYANAN MASYARAKAT","TIPE_3":"PUSKESMAS","TELEPON":"(021) 77808913","ALAMAT":"JL. HALMAHERA NO.118, BEJI, KECAMATAN BEJI, KOTA DEPOK, JAWA BARAT 16421","ID_PROV":"32","PROVINSI":"JAWA BARAT","ID_KABKOT":"32.76","KABKOT":"KOTA DEPOK","ID_KEC":"32.76.06","KECAMATAN":"BEJI","ID_DESA":"32.76.06.1001","DESA":"BEJI","LONGITUDE":106.811076,"LATITUDE":-6.3846003,"STATUS":"BUKA","TANGGAL PENGUMPULAN":"Q1 2024","TANGGAL UPDATE":"28/02/2025"}},{"type":"Feature","geometry":{"coordinates":[106.7458121,-6.4354331],"type":"Point"},"properties":{"NAMA":"PUSKESMAS DUREN SERIBU","TIPE_1":"KESEHATAN DAN PENGOBATAN","TIPE_2":"LAYANAN MASYARAKAT","TIPE_3":"PUSKESMAS","TELEPON":"(0251) 8611306","ALAMAT":"JL. DELIMA NO.2, DUREN SERIBU, KEC. BOJONGSARI, KOTA DEPOK, JAWA BARAT 16518","ID_PROV":"32","PROVINSI":"JAWA BARAT","ID_KABKOT":"32.76","KABKOT":"KOTA DEPOK","ID_KEC":"32.76.11","KECAMATAN":"BOJONGSARI","ID_DESA":"32.76.11.1007","DESA":"DUREN SERIBU","LONGITUDE":106.7458121,"LATITUDE":-6.4354331,"STATUS":"BUKA","TANGGAL PENGUMPULAN":"Q1 2024","TANGGAL UPDATE":"28/02/2025"}},{"type":"Feature","geometry":{"coordinates":[106.7810719,-6.3995111],"type":"Point"},"properties":{"NAMA":"UPTD PUSKESMAS RANGKAPAN JAYA BARU","TIPE_1":"KESEHATAN DAN PENGOBATAN","TIPE_2":"LAYANAN MASYARAKAT","TIPE_3":"PUSKESMAS","TELEPON":"","ALAMAT":"JL. PUSKESMAS NO.12, RANGKAPAN JAYA BARU, KEC. PANCORAN MAS, KOTA DEPOK, JAWA BARAT 16434","ID_PROV":"32","PROVINSI":"JAWA BARAT","ID_KABKOT":"32.76","KABKOT":"KOTA DEPOK","ID_KEC":"32.76.01","KECAMATAN":"PANCORAN MAS","ID_DESA":"32.76.01.1010","DESA":"RANGKAPAN JAYA BARU","LONGITUDE":106.7810719,"LATITUDE":-6.3995111,"STATUS":"BUKA","TANGGAL PENGUMPULAN":"Q1 2024","TANGGAL UPDATE":"28/02/2025"}},{"type":"Feature","geometry":{"coordinates":[106.8889917,-6.3970176],"type":"Point"},"properties":{"NAMA":"UPTD PUSKESMAS SUKATANI DEPOK","TIPE_1":"KESEHATAN DAN PENGOBATAN","TIPE_2":"LAYANAN MASYARAKAT","TIPE_3":"PUSKESMAS","TELEPON":"(021) 8741282","ALAMAT":"JL. WIJAYA KUSUMA, RT.04/RW.09, SUKATANI, KEC. TAPOS, KOTA DEPOK, JAWA BARAT 16454","ID_PROV":"32","PROVINSI":"JAWA BARAT","ID_KABKOT":"32.76","KABKOT":"KOTA DEPOK","ID_KEC":"32.76.10","KECAMATAN":"TAPOS","ID_DESA":"32.76.10.1003","DESA":"SUKATANI","LONGITUDE":106.8889917,"LATITUDE":-6.3970176,"STATUS":"BUKA","TANGGAL PENGUMPULAN":"Q1 2024","TANGGAL UPDATE":"28/02/2025"}},{"type":"Feature","geometry":{"coordinates":[106.8705837,-6.3666261],"type":"Point"},"properties":{"NAMA":"UPTD PUSKESMAS MEKARSARI","TIPE_1":"KESEHATAN DAN PENGOBATAN","TIPE_2":"LAYANAN MASYARAKAT","TIPE_3":"PUSKESMAS","TELEPON":"(021) 29823647","ALAMAT":"JL. TIPAR RAYA NO.158 RT. 05/08, MEKARSARI, KEC. CIMANGGIS, KOTA DEPOK, JAWA BARAT 16452","ID_PROV":"32","PROVINSI":"JAWA BARAT","ID_KABKOT":"32.76","KABKOT":"KOTA DEPOK","ID_KEC":"32.76.02","KECAMATAN":"CIMANGGIS","ID_DESA":"32.76.02.1010","DESA":"MEKARSARI","LONGITUDE":106.8705837,"LATITUDE":-6.3666261,"STATUS":"BUKA","TANGGAL PENGUMPULAN":"Q1 2024","TANGGAL UPDATE":"28/02/2025"}},{"type":"Feature","geometry":{"coordinates":[106.8769332,-6.3733186],"type":"Point"},"properties":{"NAMA":"PUSKESMAS CISALAK PASAR","TIPE_1":"KESEHATAN DAN PENGOBATAN","TIPE_2":"LAYANAN MASYARAKAT","TIPE_3":"PUSKESMAS","TELEPON":"(021) 22851350","ALAMAT":"PERUM PERMATA PURI I JL. JAMRUD, VI KEL, RT.6/RW.009, CISALAK PS., KEC. CIMANGGIS, KOTA DEPOK, JAWA BARAT 16452","ID_PROV":"32","PROVINSI":"JAWA BARAT","ID_KABKOT":"32.76","KABKOT":"KOTA DEPOK","ID_KEC":"32.76.02","KECAMATAN":"CIMANGGIS","ID_DESA":"32.76.02.1012","DESA":"CISALAK PASAR","LONGITUDE":106.8769332,"LATITUDE":-6.3733186,"STATUS":"BUKA","TANGGAL PENGUMPULAN":"Q1 2024","TANGGAL UPDATE":"28/02/2025"}},{"type":"Feature","geometry":{"coordinates":[106.831847,-6.3802291],"type":"Point"},"properties":{"NAMA":"UPTD PUSKESMAS KEMIRI MUKA","TIPE_1":"KESEHATAN DAN PENGOBATAN","TIPE_2":"LAYANAN MASYARAKAT","TIPE_3":"PUSKESMAS","TELEPON":"","ALAMAT":"JL. CILIWUNG NO.12, KEMIRI MUKA, KECAMATAN BEJI, KOTA DEPOK, JAWA BARAT 16423","ID_PROV":"32","PROVINSI":"JAWA BARAT","ID_KABKOT":"32.76","KABKOT":"KOTA DEPOK","ID_KEC":"32.76.06","KECAMATAN":"BEJI","ID_DESA":"32.76.06.1004","DESA":"KEMIRI MUKA","LONGITUDE":106.831847,"LATITUDE":-6.3802291,"STATUS":"BUKA","TANGGAL PENGUMPULAN":"Q1 2024","TANGGAL UPDATE":"28/02/2025"}},{"type":"Feature","geometry":{"coordinates":[106.7907685,-6.417299],"type":"Point"},"properties":{"NAMA":"UPT PUSKESMAS CIPAYUNG DEPOK","TIPE_1":"KESEHATAN DAN PENGOBATAN","TIPE_2":"LAYANAN MASYARAKAT","TIPE_3":"PUSKESMAS","TELEPON":"","ALAMAT":"CIPAYUNG, KEC. CIPAYUNG, KOTA DEPOK, JAWA BARAT 16437","ID_PROV":"32","PROVINSI":"JAWA BARAT","ID_KABKOT":"32.76","KABKOT":"KOTA DEPOK","ID_KEC":"32.76.07","KECAMATAN":"CIPAYUNG","ID_DESA":"32.76.07.1001","DESA":"CIPAYUNG","LONGITUDE":106.7907685,"LATITUDE":-6.417299,"STATUS":"BUKA","TANGGAL PENGUMPULAN":"Q1 2024","TANGGAL UPDATE":"28/02/2025"}},{"type":"Feature","geometry":{"coordinates":[106.8109703,-6.3840308],"type":"Point"},"properties":{"NAMA":"PUSKESMAS PEMBANTU BEJI KOTA DEPOK","TIPE_1":"KESEHATAN DAN PENGOBATAN","TIPE_2":"LAYANAN MASYARAKAT","TIPE_3":"PUSKESMAS","TELEPON":"(021) 7757033","ALAMAT":"JL. HALMAHERA NO.118, BEJI, KECAMATAN BEJI, KOTA DEPOK, JAWA BARAT 16421","ID_PROV":"32","PROVINSI":"JAWA BARAT","ID_KABKOT":"32.76","KABKOT":"KOTA DEPOK","ID_KEC":"32.76.06","KECAMATAN":"BEJI","ID_DESA":"32.76.06.1001","DESA":"BEJI","LONGITUDE":106.8109703,"LATITUDE":-6.3840308,"STATUS":"BUKA","TANGGAL PENGUMPULAN":"Q1 2024","TANGGAL UPDATE":"28/02/2025"}},{"type":"Feature","geometry":{"coordinates":[106.797844,-6.3859434],"type":"Point"},"properties":{"NAMA":"PUSKESMAS MAMPANG","TIPE_1":"KESEHATAN DAN PENGOBATAN","TIPE_2":"LAYANAN MASYARAKAT","TIPE_3":"PUSKESMAS","TELEPON":"(021) 77814212","ALAMAT":"JLN. NAMNAM RT 005/007, JL. NAM NAM RAYA NO.201 06, RT.06/RW.07, MAMPANG, PANCORAN MAS, DEPOK CITY, WEST JAVA 16433","ID_PROV":"32","PROVINSI":"JAWA BARAT","ID_KABKOT":"32.76","KABKOT":"KOTA DEPOK","ID_KEC":"32.76.01","KECAMATAN":"PANCORAN MAS","ID_DESA":"32.76.01.1009","DESA":"MAMPANG","LONGITUDE":106.797844,"LATITUDE":-6.3859434,"STATUS":"BUKA","TANGGAL PENGUMPULAN":"Q1 2024","TANGGAL UPDATE":"28/02/2025"}},{"type":"Feature","geometry":{"coordinates":[106.7838123,-6.4260667],"type":"Point"},"properties":{"NAMA":"UPTD PUSKESMAS PASIR PUTIH","TIPE_1":"KESEHATAN DAN PENGOBATAN","TIPE_2":"LAYANAN MASYARAKAT","TIPE_3":"PUSKESMAS","TELEPON":"(021) 29434508","ALAMAT":"JL. PUSKESMAS, RT.006/RW.004, PASIR PUTIH, KEC. SAWANGAN, KOTA DEPOK, JAWA BARAT 16519","ID_PROV":"32","PROVINSI":"JAWA BARAT","ID_KABKOT":"32.76","KABKOT":"KOTA DEPOK","ID_KEC":"32.76.03","KECAMATAN":"SAWANGAN","ID_DESA":"32.76.03.1001","DESA":"PASIR PUTIH","LONGITUDE":106.7838123,"LATITUDE":-6.4260667,"STATUS":"BUKA","TANGGAL PENGUMPULAN":"Q1 2024","TANGGAL UPDATE":"28/02/2025"}},{"type":"Feature","geometry":{"coordinates":[106.8302529,-6.4445822],"type":"Point"},"properties":{"NAMA":"UPT. PUSKESMAS CILODONG","TIPE_1":"KESEHATAN DAN PENGOBATAN","TIPE_2":"LAYANAN MASYARAKAT","TIPE_3":"PUSKESMAS","TELEPON":"(021) 87918703","ALAMAT":"PERUM GDC, JL. BOULEVARD GRAND DEPOK CITY, JATIMULYA, KEC. CILODONG, KOTA DEPOK, JAWA BARAT 16413","ID_PROV":"32","PROVINSI":"JAWA BARAT","ID_KABKOT":"32.76","KABKOT":"KOTA DEPOK","ID_KEC":"32.76.08","KECAMATAN":"CILODONG","ID_DESA":"32.76.08.1005","DESA":"JATIMULYA","LONGITUDE":106.8302529,"LATITUDE":-6.4445822,"STATUS":"BUKA","TANGGAL PENGUMPULAN":"Q1 2024","TANGGAL UPDATE":"28/02/2025"}},{"type":"Feature","geometry":{"coordinates":[106.795334,-6.4198611],"type":"Point"},"properties":{"NAMA":"UPTD PUSKESMAS CIPAYUNG DEPOK","TIPE_1":"KESEHATAN DAN PENGOBATAN","TIPE_2":"LAYANAN MASYARAKAT","TIPE_3":"PUSKESMAS","TELEPON":"(021) 7792364","ALAMAT":"JL. KELURAHAN CIPAYUNG NO.8, CIPAYUNG, KEC. CIPAYUNG, KOTA DEPOK, JAWA BARAT 16437","ID_PROV":"32","PROVINSI":"JAWA BARAT","ID_KABKOT":"32.76","KABKOT":"KOTA DEPOK","ID_KEC":"32.76.07","KECAMATAN":"CIPAYUNG","ID_DESA":"32.76.07.1001","DESA":"CIPAYUNG","LONGITUDE":106.795334,"LATITUDE":-6.4198611,"STATUS":"BUKA","TANGGAL PENGUMPULAN":"Q1 2024","TANGGAL UPDATE":"28/02/2025"}},{"type":"Feature","geometry":{"coordinates":[106.8127837,-6.4250599],"type":"Point"},"properties":{"NAMA":"PUSKESMAS RATU JAYA","TIPE_1":"KESEHATAN DAN PENGOBATAN","TIPE_2":"LAYANAN MASYARAKAT","TIPE_3":"PUSKESMAS","TELEPON":"(021) 22725463","ALAMAT":"JL. PERMATA DEPOK REGENCY, RATU JAYA, KEC. CIPAYUNG, KOTA DEPOK, JAWA BARAT 16439","ID_PROV":"32","PROVINSI":"JAWA BARAT","ID_KABKOT":"32.76","KABKOT":"KOTA DEPOK","ID_KEC":"32.76.07","KECAMATAN":"CIPAYUNG","ID_DESA":"32.76.07.1003","DESA":"RATU JAYA","LONGITUDE":106.8127837,"LATITUDE":-6.4250599,"STATUS":"BUKA","TANGGAL PENGUMPULAN":"Q1 2024","TANGGAL UPDATE":"28/02/2025"}},{"type":"Feature","geometry":{"coordinates":[106.8383701,-6.3890003],"type":"Point"},"properties":{"NAMA":"UPTD PUSKESMAS SUKMAJAYA","TIPE_1":"KESEHATAN DAN PENGOBATAN","TIPE_2":"LAYANAN MASYARAKAT","TIPE_3":"PUSKESMAS","TELEPON":"(021) 77824908","ALAMAT":"JL. ARJUNA RAYA NO.1, MEKAR JAYA, KEC. SUKMAJAYA, KOTA DEPOK, JAWA BARAT 16411","ID_PROV":"32","PROVINSI":"JAWA BARAT","ID_KABKOT":"32.76","KABKOT":"KOTA DEPOK","ID_KEC":"32.76.05","KECAMATAN":"SUKMAJAYA","ID_DESA":"32.76.05.1004","DESA":"MEKARJAYA","LONGITUDE":106.8383701,"LATITUDE":-6.3890003,"STATUS":"BUKA","TANGGAL PENGUMPULAN":"Q1 2024","TANGGAL UPDATE":"28/02/2025"}},{"type":"Feature","geometry":{"coordinates":[106.8677309,-6.3869929],"type":"Point"},"properties":{"NAMA":"UPTD PUSKESMAS CIMANGGIS","TIPE_1":"KESEHATAN DAN PENGOBATAN","TIPE_2":"LAYANAN MASYARAKAT","TIPE_3":"PUSKESMAS","TELEPON":"(021) 8741072","ALAMAT":"JL. RAYA JAKARTA-BOGOR NO.KM. 33, RT.005/RW.2, CURUG, KEC. CIMANGGIS, KOTA DEPOK, JAWA BARAT 16453","ID_PROV":"32","PROVINSI":"JAWA BARAT","ID_KABKOT":"32.76","KABKOT":"KOTA DEPOK","ID_KEC":"32.76.02","KECAMATAN":"CIMANGGIS","ID_DESA":"32.76.02.1008","DESA":"CURUG","LONGITUDE":106.8677309,"LATITUDE":-6.3869929,"STATUS":"BUKA","TANGGAL PENGUMPULAN":"Q1 2024","TANGGAL UPDATE":"28/02/2025"}}]}