{"type":"FeatureCollection","features":[{"type":"Feature","geometry":{"coordinates":[106.9770245,-6.2751173],"type":"Point"},"properties":{"NAMA":"POLI GIGI RS ANNA PEKAYON","TIPE_1":"KESEHATAN DAN PENGOBATAN","TIPE_2":"RUMAH SAKIT","TIPE_3":"RUMAH SAKIT GIGI","TELEPON":"0812-1392-109","ALAMAT":"JL. PEKAYON RAYA NO.36, RT.004/RW.001, JAKA SETIA, KEC. BEKASI SEL., KOTA BKS, JAWA BARAT 17147","ID_PROV":"32","PROVINSI":"JAWA BARAT","ID_KABKOT":"32.75","KABKOT":"KOTA BEKASI","ID_KEC":"32.75.04","KECAMATAN":"BEKASI SELATAN","ID_DESA":"32.75.04.1004","DESA":"JAKASETIA","LONGITUDE":106.9770245,"LATITUDE":-6.2751173,"STATUS":"BUKA","TANGGAL PENGUMPULAN":"Q1 2024","TANGGAL UPDATE":"28/02/2025"}},{"type":"Feature","geometry":{"coordinates":[107.0103794,-6.2325544],"type":"Point"},"properties":{"NAMA":"POLIKLINIK DOKTER GIGI UMUM","TIPE_1":"KESEHATAN DAN PENGOBATAN","TIPE_2":"RUMAH SAKIT","TIPE_3":"RUMAH SAKIT GIGI","TELEPON":"","ALAMAT":"RT.001/RW.010, BEKASI JAYA, KEC. BEKASI TIM., KOTA BKS, JAWA BARAT 17112","ID_PROV":"32","PROVINSI":"JAWA BARAT","ID_KABKOT":"32.75","KABKOT":"KOTA BEKASI","ID_KEC":"32.75.01","KECAMATAN":"BEKASI TIMUR","ID_DESA":"32.75.01.1001","DESA":"BEKASIJAYA","LONGITUDE":107.0103794,"LATITUDE":-6.2325544,"STATUS":"BUKA","TANGGAL PENGUMPULAN":"Q1 2024","TANGGAL UPDATE":"28/02/2025"}},{"type":"Feature","geometry":{"coordinates":[106.9837761,-6.2477494],"type":"Point"},"properties":{"NAMA":"POLI GIGI & MULUT","TIPE_1":"KESEHATAN DAN PENGOBATAN","TIPE_2":"RUMAH SAKIT","TIPE_3":"RUMAH SAKIT GIGI","TELEPON":"","ALAMAT":"JL. BANDENG RAYA NO.28, RT.001/RW.009, KAYURINGIN JAYA, KEC. BEKASI SEL., KOTA BKS, JAWA BARAT 17144","ID_PROV":"32","PROVINSI":"JAWA BARAT","ID_KABKOT":"32.75","KABKOT":"KOTA BEKASI","ID_KEC":"32.75.04","KECAMATAN":"BEKASI SELATAN","ID_DESA":"32.75.04.1005","DESA":"KAYURINGINJAYA","LONGITUDE":106.9837761,"LATITUDE":-6.2477494,"STATUS":"BUKA","TANGGAL PENGUMPULAN":"Q1 2024","TANGGAL UPDATE":"28/02/2025"}},{"type":"Feature","geometry":{"coordinates":[106.9257153,-6.3473499],"type":"Point"},"properties":{"NAMA":"POLI GIGI - RS JATISAMPURNA","TIPE_1":"KESEHATAN DAN PENGOBATAN","TIPE_2":"RUMAH SAKIT","TIPE_3":"RUMAH SAKIT GIGI","TELEPON":"(021) 8451457","ALAMAT":"JL. STUDIO ANTV, KRANGGAN, JATIRADEN, JATISAMPURNA, JATIRADEN, JATISAMPURNA, RT.003/RW.007, JATIRADEN, KEC. JATISAMPURNA, KOTA BKS, JAWA BARAT 17433","ID_PROV":"32","PROVINSI":"JAWA BARAT","ID_KABKOT":"32.75","KABKOT":"KOTA BEKASI","ID_KEC":"32.75.10","KECAMATAN":"JATISAMPURNA","ID_DESA":"32.75.10.1005","DESA":"JATIRADEN","LONGITUDE":106.9257153,"LATITUDE":-6.3473499,"STATUS":"BUKA","TANGGAL PENGUMPULAN":"Q1 2024","TANGGAL UPDATE":"28/02/2025"}},{"type":"Feature","geometry":{"coordinates":[107.030932,-6.227417],"type":"Point"},"properties":{"NAMA":"POLI GIGI","TIPE_1":"KESEHATAN DAN PENGOBATAN","TIPE_2":"RUMAH SAKIT","TIPE_3":"RUMAH SAKIT GIGI","TELEPON":"(021) 8806140","ALAMAT":"JL. PAHLAWAN NO.60, RT.003/RW.016, DUREN JAYA, KEC. BEKASI TIM., KOTA BKS, JAWA BARAT 17111","ID_PROV":"32","PROVINSI":"JAWA BARAT","ID_KABKOT":"32.75","KABKOT":"KOTA BEKASI","ID_KEC":"32.75.01","KECAMATAN":"BEKASI TIMUR","ID_DESA":"32.75.01.1003","DESA":"DURENJAYA","LONGITUDE":107.030932,"LATITUDE":-6.227417,"STATUS":"BUKA","TANGGAL PENGUMPULAN":"Q1 2024","TANGGAL UPDATE":"28/02/2025"}},{"type":"Feature","geometry":{"coordinates":[106.9584284,-6.2310652],"type":"Point"},"properties":{"NAMA":"RSIA SELASIH MEDIKA","TIPE_1":"KESEHATAN DAN PENGOBATAN","TIPE_2":"RUMAH SAKIT","TIPE_3":"RUMAH SAKIT BERSALIN/IBU DAN ANAK","TELEPON":"0857-7571-9498","ALAMAT":"JL. BINTARA NO.5, RT.002/RW.005, BINTARA, KEC. BEKASI BAR., KOTA BKS, JAWA BARAT 17134","ID_PROV":"32","PROVINSI":"JAWA BARAT","ID_KABKOT":"32.75","KABKOT":"KOTA BEKASI","ID_KEC":"32.75.02","KECAMATAN":"BEKASI BARAT","ID_DESA":"32.75.02.1001","DESA":"BINTARA","LONGITUDE":106.9584284,"LATITUDE":-6.2310652,"STATUS":"BUKA","TANGGAL PENGUMPULAN":"Q1 2024","TANGGAL UPDATE":"28/02/2025"}},{"type":"Feature","geometry":{"coordinates":[106.9887167,-6.2046889],"type":"Point"},"properties":{"NAMA":"RSIA RINOVA INTAN","TIPE_1":"KESEHATAN DAN PENGOBATAN","TIPE_2":"RUMAH SAKIT","TIPE_3":"RUMAH SAKIT BERSALIN/IBU DAN ANAK","TELEPON":"(021) 8849401","ALAMAT":"JL. RAYA SEROJA NO.101, RT.02/RW.14, HARAPAN JAYA, KEC. BEKASI UTARA, KOTA BKS, JAWA BARAT 17124","ID_PROV":"32","PROVINSI":"JAWA BARAT","ID_KABKOT":"32.75","KABKOT":"KOTA BEKASI","ID_KEC":"32.75.03","KECAMATAN":"BEKASI UTARA","ID_DESA":"32.75.03.1006","DESA":"HARAPANJAYA","LONGITUDE":106.9887167,"LATITUDE":-6.2046889,"STATUS":"BUKA","TANGGAL PENGUMPULAN":"Q1 2024","TANGGAL UPDATE":"28/02/2025"}},{"type":"Feature","geometry":{"coordinates":[107.0008448,-6.2519141],"type":"Point"},"properties":{"NAMA":"JANTUNG DAN PEMBULUH DARAH","TIPE_1":"KESEHATAN DAN PENGOBATAN","TIPE_2":"RUMAH SAKIT","TIPE_3":"RUMAH SAKIT JANTUNG","TELEPON":"","ALAMAT":"RT.001/RW.024, MARGAHAYU, KEC. BEKASI TIM., KOTA BKS, JAWA BARAT 17113","ID_PROV":"32","PROVINSI":"JAWA BARAT","ID_KABKOT":"32.75","KABKOT":"KOTA BEKASI","ID_KEC":"32.75.01","KECAMATAN":"BEKASI TIMUR","ID_DESA":"32.75.01.1002","DESA":"MARGAHAYU","LONGITUDE":107.0008448,"LATITUDE":-6.2519141,"STATUS":"BUKA","TANGGAL PENGUMPULAN":"Q1 2024","TANGGAL UPDATE":"28/02/2025"}},{"type":"Feature","geometry":{"coordinates":[106.9952324,-6.2419429],"type":"Point"},"properties":{"NAMA":"PELAYANAN KHUSUS JANTUNG","TIPE_1":"KESEHATAN DAN PENGOBATAN","TIPE_2":"RUMAH SAKIT","TIPE_3":"RUMAH SAKIT JANTUNG","TELEPON":"","ALAMAT":"RT.004/RW.003, MARGA JAYA, KEC. BEKASI SEL., KOTA BKS, JAWA BARAT 17141","ID_PROV":"32","PROVINSI":"JAWA BARAT","ID_KABKOT":"32.75","KABKOT":"KOTA BEKASI","ID_KEC":"32.75.04","KECAMATAN":"BEKASI SELATAN","ID_DESA":"32.75.04.1002","DESA":"MARGAJAYA","LONGITUDE":106.9952324,"LATITUDE":-6.2419429,"STATUS":"BUKA","TANGGAL PENGUMPULAN":"Q1 2024","TANGGAL UPDATE":"28/02/2025"}},{"type":"Feature","geometry":{"coordinates":[106.9206697,-6.3774862],"type":"Point"},"properties":{"NAMA":"PENYAKIT JANTUNG DAN PEMBULUH DARAH","TIPE_1":"KESEHATAN DAN PENGOBATAN","TIPE_2":"RUMAH SAKIT","TIPE_3":"RUMAH SAKIT JANTUNG","TELEPON":"","ALAMAT":"JL. ALTERNATIF CIBUBUR NO.81, JATISAMPURNA, KEC. JATISAMPURNA, KOTA BKS, JAWA BARAT 17435","ID_PROV":"32","PROVINSI":"JAWA BARAT","ID_KABKOT":"32.75","KABKOT":"KOTA BEKASI","ID_KEC":"32.75.10","KECAMATAN":"JATISAMPURNA","ID_DESA":"32.75.10.1001","DESA":"JATISAMPURNA","LONGITUDE":106.9206697,"LATITUDE":-6.3774862,"STATUS":"BUKA","TANGGAL PENGUMPULAN":"Q1 2024","TANGGAL UPDATE":"28/02/2025"}},{"type":"Feature","geometry":{"coordinates":[106.9837761,-6.2477494],"type":"Point"},"properties":{"NAMA":"POLI JANTUNG","TIPE_1":"KESEHATAN DAN PENGOBATAN","TIPE_2":"RUMAH SAKIT","TIPE_3":"RUMAH SAKIT JANTUNG","TELEPON":"","ALAMAT":"JL. BANDENG RAYA NO.28, RT.001/RW.009, KAYURINGIN JAYA, KEC. BEKASI SEL., KOTA BKS, JAWA BARAT 17144","ID_PROV":"32","PROVINSI":"JAWA BARAT","ID_KABKOT":"32.75","KABKOT":"KOTA BEKASI","ID_KEC":"32.75.04","KECAMATAN":"BEKASI SELATAN","ID_DESA":"32.75.04.1005","DESA":"KAYURINGINJAYA","LONGITUDE":106.9837761,"LATITUDE":-6.2477494,"STATUS":"BUKA","TANGGAL PENGUMPULAN":"Q1 2024","TANGGAL UPDATE":"28/02/2025"}},{"type":"Feature","geometry":{"coordinates":[107.010766,-6.2468356],"type":"Point"},"properties":{"NAMA":"POLI SPESIALIS JANTUNG RS BELLA","TIPE_1":"KESEHATAN DAN PENGOBATAN","TIPE_2":"RUMAH SAKIT","TIPE_3":"RUMAH SAKIT JANTUNG","TELEPON":"","ALAMAT":"RT.001/RW.001, BEKASI JAYA, KEC. BEKASI TIM., KOTA BKS, JAWA BARAT 17111","ID_PROV":"32","PROVINSI":"JAWA BARAT","ID_KABKOT":"32.75","KABKOT":"KOTA BEKASI","ID_KEC":"32.75.01","KECAMATAN":"BEKASI TIMUR","ID_DESA":"32.75.01.1003","DESA":"DURENJAYA","LONGITUDE":107.010766,"LATITUDE":-6.2468356,"STATUS":"BUKA","TANGGAL PENGUMPULAN":"Q1 2024","TANGGAL UPDATE":"28/02/2025"}},{"type":"Feature","geometry":{"coordinates":[107.0110713,-6.2328177],"type":"Point"},"properties":{"NAMA":"SPESIALIS JANTUNG","TIPE_1":"KESEHATAN DAN PENGOBATAN","TIPE_2":"RUMAH SAKIT","TIPE_3":"RUMAH SAKIT JANTUNG","TELEPON":"","ALAMAT":"RT.001/RW.010, BEKASI JAYA, KEC. BEKASI TIM., KOTA BKS, JAWA BARAT 17112","ID_PROV":"32","PROVINSI":"JAWA BARAT","ID_KABKOT":"32.75","KABKOT":"KOTA BEKASI","ID_KEC":"32.75.01","KECAMATAN":"BEKASI TIMUR","ID_DESA":"32.75.01.1001","DESA":"BEKASIJAYA","LONGITUDE":107.0110713,"LATITUDE":-6.2328177,"STATUS":"BUKA","TANGGAL PENGUMPULAN":"Q1 2024","TANGGAL UPDATE":"28/02/2025"}},{"type":"Feature","geometry":{"coordinates":[107.0008973,-6.2517717],"type":"Point"},"properties":{"NAMA":"POLI MATA","TIPE_1":"KESEHATAN DAN PENGOBATAN","TIPE_2":"RUMAH SAKIT","TIPE_3":"RUMAH SAKIT MATA","TELEPON":"(021) 8829590","ALAMAT":"GG. MASJID NO.78, RT.001/RW.024, MARGAHAYU, KEC. BEKASI TIM., KOTA BKS, JAWA BARAT 17113","ID_PROV":"32","PROVINSI":"JAWA BARAT","ID_KABKOT":"32.75","KABKOT":"KOTA BEKASI","ID_KEC":"32.75.01","KECAMATAN":"BEKASI TIMUR","ID_DESA":"32.75.01.1002","DESA":"MARGAHAYU","LONGITUDE":107.0008973,"LATITUDE":-6.2517717,"STATUS":"BUKA","TANGGAL PENGUMPULAN":"Q1 2024","TANGGAL UPDATE":"28/02/2025"}},{"type":"Feature","geometry":{"coordinates":[106.9835734,-6.2473593],"type":"Point"},"properties":{"NAMA":"POLI MATA","TIPE_1":"KESEHATAN DAN PENGOBATAN","TIPE_2":"RUMAH SAKIT","TIPE_3":"RUMAH SAKIT MATA","TELEPON":"","ALAMAT":"JL. BANDENG RAYA NO.28 1, RT.001/RW.009, KAYURINGIN JAYA, KEC. BEKASI SEL., KOTA BKS, JAWA BARAT 17144","ID_PROV":"32","PROVINSI":"JAWA BARAT","ID_KABKOT":"32.75","KABKOT":"KOTA BEKASI","ID_KEC":"32.75.04","KECAMATAN":"BEKASI SELATAN","ID_DESA":"32.75.04.1005","DESA":"KAYURINGINJAYA","LONGITUDE":106.9835734,"LATITUDE":-6.2473593,"STATUS":"BUKA","TANGGAL PENGUMPULAN":"Q1 2024","TANGGAL UPDATE":"28/02/2025"}},{"type":"Feature","geometry":{"coordinates":[106.9214309,-6.2964105],"type":"Point"},"properties":{"NAMA":"POLIKLINIK MATA RS JATIRAHAYU","TIPE_1":"KESEHATAN DAN PENGOBATAN","TIPE_2":"RUMAH SAKIT","TIPE_3":"RUMAH SAKIT MATA","TELEPON":"(021) 8462565","ALAMAT":"JL. RAYA HANKAM NO.17, RT.003/RW.008, JATIRAHAYU, KEC. PD. MELATI, KOTA BKS, JAWA BARAT 17414","ID_PROV":"32","PROVINSI":"JAWA BARAT","ID_KABKOT":"32.75","KABKOT":"KOTA BEKASI","ID_KEC":"32.75.12","KECAMATAN":"PONDOKMELATI","ID_DESA":"32.75.12.1001","DESA":"JATIRAHAYU","LONGITUDE":106.9214309,"LATITUDE":-6.2964105,"STATUS":"BUKA","TANGGAL PENGUMPULAN":"Q1 2024","TANGGAL UPDATE":"28/02/2025"}},{"type":"Feature","geometry":{"coordinates":[107.0219532,-6.222491],"type":"Point"},"properties":{"NAMA":"POLIKLINIK MATA RS ANNA MEDIKA","TIPE_1":"KESEHATAN DAN PENGOBATAN","TIPE_2":"RUMAH SAKIT","TIPE_3":"RUMAH SAKIT MATA","TELEPON":"(021) 88882211","ALAMAT":"RS ANNA MEDIKA, JL. RAYA PERJUANGAN NO.45, RT.003/RW.003, HARAPAN BARU, KEC. BEKASI UTARA, KOTA BKS, JAWA BARAT 17123","ID_PROV":"32","PROVINSI":"JAWA BARAT","ID_KABKOT":"32.75","KABKOT":"KOTA BEKASI","ID_KEC":"32.75.03","KECAMATAN":"BEKASI UTARA","ID_DESA":"32.75.03.1003","DESA":"HARAPANBARU","LONGITUDE":107.0219532,"LATITUDE":-6.222491,"STATUS":"BUKA","TANGGAL PENGUMPULAN":"Q1 2024","TANGGAL UPDATE":"28/02/2025"}},{"type":"Feature","geometry":{"coordinates":[106.9988177,-6.2695775],"type":"Point"},"properties":{"NAMA":"POLI ORTOPEDI - RS HOSANA MEDICA","TIPE_1":"KESEHATAN DAN PENGOBATAN","TIPE_2":"RUMAH SAKIT","TIPE_3":"RUMAH SAKIT TULANG","TELEPON":"(021) 8221570","ALAMAT":"JL. PRAMUKA JL. RAYA NAROGONG NO.12, RT.004/RW.002, SEPANJANG JAYA, KEC. RAWALUMBU, KOTA BKS, JAWA BARAT 17114","ID_PROV":"32","PROVINSI":"JAWA BARAT","ID_KABKOT":"32.75","KABKOT":"KOTA BEKASI","ID_KEC":"32.75.05","KECAMATAN":"RAWALUMBU","ID_DESA":"32.75.05.1003","DESA":"SEPANJANGJAYA","LONGITUDE":106.9988177,"LATITUDE":-6.2695775,"STATUS":"BUKA","TANGGAL PENGUMPULAN":"Q1 2024","TANGGAL UPDATE":"28/02/2025"}},{"type":"Feature","geometry":{"coordinates":[107.0008448,-6.2519141],"type":"Point"},"properties":{"NAMA":"BEDAH TULANG RS JUWITA","TIPE_1":"KESEHATAN DAN PENGOBATAN","TIPE_2":"RUMAH SAKIT","TIPE_3":"RUMAH SAKIT TULANG","TELEPON":"(021) 8829590","ALAMAT":"GG. MASJID NO.78, RT.001/RW.024, MARGAHAYU, KEC. BEKASI TIM., KOTA BKS, JAWA BARAT 17113","ID_PROV":"32","PROVINSI":"JAWA BARAT","ID_KABKOT":"32.75","KABKOT":"KOTA BEKASI","ID_KEC":"32.75.01","KECAMATAN":"BEKASI TIMUR","ID_DESA":"32.75.01.1002","DESA":"MARGAHAYU","LONGITUDE":107.0008448,"LATITUDE":-6.2519141,"STATUS":"BUKA","TANGGAL PENGUMPULAN":"Q1 2024","TANGGAL UPDATE":"28/02/2025"}},{"type":"Feature","geometry":{"coordinates":[106.971998,-6.2688769],"type":"Point"},"properties":{"NAMA":"POLI BEDAH ORTHOPEDI - RS HERMINA GALAXY","TIPE_1":"KESEHATAN DAN PENGOBATAN","TIPE_2":"RUMAH SAKIT","TIPE_3":"RUMAH SAKIT TULANG","TELEPON":"(021) 8222525","ALAMAT":"JL. GARDENIA RAYA BLOK BA-1 NO.11 GRAND GALAXY CITY, RT.003/RW.017, JAKA SETIA, KEC. BEKASI SEL., KOTA BKS, JAWA BARAT 17147","ID_PROV":"32","PROVINSI":"JAWA BARAT","ID_KABKOT":"32.75","KABKOT":"KOTA BEKASI","ID_KEC":"32.75.04","KECAMATAN":"BEKASI SELATAN","ID_DESA":"32.75.04.1004","DESA":"JAKASETIA","LONGITUDE":106.971998,"LATITUDE":-6.2688769,"STATUS":"BUKA","TANGGAL PENGUMPULAN":"Q1 2024","TANGGAL UPDATE":"28/02/2025"}},{"type":"Feature","geometry":{"coordinates":[106.9913697,-6.2761945],"type":"Point"},"properties":{"NAMA":"RUMAH SAKIT ST. ELISABETH BEKASI","TIPE_1":"KESEHATAN DAN PENGOBATAN","TIPE_2":"RUMAH SAKIT","TIPE_3":"RUMAH SAKIT UMUM SWASTA","TELEPON":"0812-8816-4142","ALAMAT":"JL. KEMANG PRATAMA RAYA JL. RAYA NAROGONG NO.202, RT.002/RW.001, BOJONG RAWALUMBU, KEC. RAWALUMBU, KOTA BKS, JAWA BARAT 17116","ID_PROV":"32","PROVINSI":"JAWA BARAT","ID_KABKOT":"32.75","KABKOT":"KOTA BEKASI","ID_KEC":"32.75.05","KECAMATAN":"RAWALUMBU","ID_DESA":"32.75.05.1001","DESA":"BOJONG RAWALUMBU","LONGITUDE":106.9913697,"LATITUDE":-6.2761945,"STATUS":"BUKA","TANGGAL PENGUMPULAN":"Q1 2024","TANGGAL UPDATE":"28/02/2025"}},{"type":"Feature","geometry":{"coordinates":[106.9928076,-6.2407894],"type":"Point"},"properties":{"NAMA":"RUMAH SAKIT MITRA KELUARGA BEKASI","TIPE_1":"KESEHATAN DAN PENGOBATAN","TIPE_2":"RUMAH SAKIT","TIPE_3":"RUMAH SAKIT UMUM SWASTA","TELEPON":"(021) 8853333","ALAMAT":"JL. AHMAD YANI, RT.002/RW.011, KAYURINGIN JAYA, KEC. BEKASI SEL., KOTA BKS, JAWA BARAT 17144","ID_PROV":"32","PROVINSI":"JAWA BARAT","ID_KABKOT":"32.75","KABKOT":"KOTA BEKASI","ID_KEC":"32.75.04","KECAMATAN":"BEKASI SELATAN","ID_DESA":"32.75.04.1005","DESA":"KAYURINGINJAYA","LONGITUDE":106.9928076,"LATITUDE":-6.2407894,"STATUS":"BUKA","TANGGAL PENGUMPULAN":"Q1 2024","TANGGAL UPDATE":"28/02/2025"}},{"type":"Feature","geometry":{"coordinates":[106.9988122,-6.2804805],"type":"Point"},"properties":{"NAMA":"RS. RAWA LUMBU","TIPE_1":"KESEHATAN DAN PENGOBATAN","TIPE_2":"RUMAH SAKIT","TIPE_3":"RUMAH SAKIT UMUM DAERAH/NEGERI","TELEPON":"(021) 82422511","ALAMAT":"JL. DASA DARMA NO.KAV. 20 - 23, RT.002/RW.004, BOJONG RAWALUMBU, KEC. RAWALUMBU, KOTA BKS, JAWA BARAT 17116","ID_PROV":"32","PROVINSI":"JAWA BARAT","ID_KABKOT":"32.75","KABKOT":"KOTA BEKASI","ID_KEC":"32.75.05","KECAMATAN":"RAWALUMBU","ID_DESA":"32.75.05.1001","DESA":"BOJONG RAWALUMBU","LONGITUDE":106.9988122,"LATITUDE":-6.2804805,"STATUS":"BUKA","TANGGAL PENGUMPULAN":"Q1 2024","TANGGAL UPDATE":"28/02/2025"}},{"type":"Feature","geometry":{"coordinates":[106.9119587,-6.3760007],"type":"Point"},"properties":{"NAMA":"RUMAH SAKIT PERMATA CIBUBUR","TIPE_1":"KESEHATAN DAN PENGOBATAN","TIPE_2":"RUMAH SAKIT","TIPE_3":"RUMAH SAKIT UMUM SWASTA","TELEPON":"0811-880-835","ALAMAT":"JL. ALTERNATIF CIBUBUR NO.6A, RT.001/RW.002, JATIKARYA, KEC. JATISAMPURNA, KOTA BKS, JAWA BARAT 17435","ID_PROV":"32","PROVINSI":"JAWA BARAT","ID_KABKOT":"32.75","KABKOT":"KOTA BEKASI","ID_KEC":"32.75.10","KECAMATAN":"JATISAMPURNA","ID_DESA":"32.75.10.1002","DESA":"JATIKARYA","LONGITUDE":106.9119587,"LATITUDE":-6.3760007,"STATUS":"BUKA","TANGGAL PENGUMPULAN":"Q1 2024","TANGGAL UPDATE":"28/02/2025"}},{"type":"Feature","geometry":{"coordinates":[107.0315025,-6.2910163],"type":"Point"},"properties":{"NAMA":"RUMAH SAKIT PERMATA BEKASI","TIPE_1":"KESEHATAN DAN PENGOBATAN","TIPE_2":"RUMAH SAKIT","TIPE_3":"RUMAH SAKIT UMUM SWASTA","TELEPON":"(021) 8251919","ALAMAT":"JL. MUSTIKA JAYA NO.9, MUSTIKA JAYA, KEC. MUSTIKA JAYA, KOTA BKS, JAWA BARAT 17158","ID_PROV":"32","PROVINSI":"JAWA BARAT","ID_KABKOT":"32.75","KABKOT":"KOTA BEKASI","ID_KEC":"32.75.11","KECAMATAN":"MUSTIKAJAYA","ID_DESA":"32.75.11.1003","DESA":"MUSTIKAJAYA","LONGITUDE":107.0315025,"LATITUDE":-6.2910163,"STATUS":"BUKA","TANGGAL PENGUMPULAN":"Q1 2024","TANGGAL UPDATE":"28/02/2025"}},{"type":"Feature","geometry":{"coordinates":[107.0022096,-6.2424632],"type":"Point"},"properties":{"NAMA":"RSUD KOTA BEKASI 2","TIPE_1":"KESEHATAN DAN PENGOBATAN","TIPE_2":"RUMAH SAKIT","TIPE_3":"RUMAH SAKIT UMUM DAERAH/NEGERI","TELEPON":"","ALAMAT":"JL. MAYOR OKING, RT.002/RW.001, MARGAHAYU, KEC. BEKASI TIM., KOTA BKS, JAWA BARAT 17113","ID_PROV":"32","PROVINSI":"JAWA BARAT","ID_KABKOT":"32.75","KABKOT":"KOTA BEKASI","ID_KEC":"32.75.01","KECAMATAN":"BEKASI TIMUR","ID_DESA":"32.75.01.1002","DESA":"MARGAHAYU","LONGITUDE":107.0022096,"LATITUDE":-6.2424632,"STATUS":"BUKA","TANGGAL PENGUMPULAN":"Q1 2024","TANGGAL UPDATE":"28/02/2025"}},{"type":"Feature","geometry":{"coordinates":[106.9721129,-6.2686254],"type":"Point"},"properties":{"NAMA":"RUMAH SAKIT HERMINA GALAXY","TIPE_1":"KESEHATAN DAN PENGOBATAN","TIPE_2":"RUMAH SAKIT","TIPE_3":"RUMAH SAKIT UMUM SWASTA","TELEPON":"(021) 8222525","ALAMAT":"RUKO GRAND GALAXY CITY JALAN GARDENIA RAYA, JL. PULO SIRIH UTAMA BLOK BA1 NO.11, RT.003/RW.017, JAKA SETIA, KEC. BEKASI SEL., KOTA BKS, JAWA BARAT 17147","ID_PROV":"32","PROVINSI":"JAWA BARAT","ID_KABKOT":"32.75","KABKOT":"KOTA BEKASI","ID_KEC":"32.75.04","KECAMATAN":"BEKASI SELATAN","ID_DESA":"32.75.04.1004","DESA":"JAKASETIA","LONGITUDE":106.9721129,"LATITUDE":-6.2686254,"STATUS":"BUKA","TANGGAL PENGUMPULAN":"Q1 2024","TANGGAL UPDATE":"28/02/2025"}},{"type":"Feature","geometry":{"coordinates":[106.9136211,-6.2828185],"type":"Point"},"properties":{"NAMA":"RSUD PONDOK GEDE KOTA BEKASI","TIPE_1":"KESEHATAN DAN PENGOBATAN","TIPE_2":"RUMAH SAKIT","TIPE_3":"RUMAH SAKIT UMUM DAERAH/NEGERI","TELEPON":"(021) 85516033","ALAMAT":"JL. RAYA JATIWARINGIN NO.1, RT.001/RW.009, JATIWARINGIN, KEC. PD. GEDE, KOTA BKS, JAWA BARAT 17411","ID_PROV":"32","PROVINSI":"JAWA BARAT","ID_KABKOT":"32.75","KABKOT":"KOTA BEKASI","ID_KEC":"32.75.08","KECAMATAN":"PONDOKGEDE","ID_DESA":"32.75.08.1001","DESA":"JATIWARINGIN","LONGITUDE":106.9136211,"LATITUDE":-6.2828185,"STATUS":"BUKA","TANGGAL PENGUMPULAN":"Q1 2024","TANGGAL UPDATE":"28/02/2025"}},{"type":"Feature","geometry":{"coordinates":[107.0034245,-6.2412464],"type":"Point"},"properties":{"NAMA":"RSUD MAYOR OKING","TIPE_1":"KESEHATAN DAN PENGOBATAN","TIPE_2":"RUMAH SAKIT","TIPE_3":"RUMAH SAKIT UMUM DAERAH/NEGERI","TELEPON":"","ALAMAT":"BEKASI JUNCTION LT GROUND GK22 AC, BEKASI, RT.001/RW.001, MARGAHAYU, KEC. BEKASI TIM., KOTA BKS, JAWA BARAT 17112","ID_PROV":"32","PROVINSI":"JAWA BARAT","ID_KABKOT":"32.75","KABKOT":"KOTA BEKASI","ID_KEC":"32.75.01","KECAMATAN":"BEKASI TIMUR","ID_DESA":"32.75.01.1002","DESA":"MARGAHAYU","LONGITUDE":107.0034245,"LATITUDE":-6.2412464,"STATUS":"BUKA","TANGGAL PENGUMPULAN":"Q1 2024","TANGGAL UPDATE":"28/02/2025"}},{"type":"Feature","geometry":{"coordinates":[106.9210337,-6.2962914],"type":"Point"},"properties":{"NAMA":"RUMAH SAKIT JATI RAHAYU","TIPE_1":"KESEHATAN DAN PENGOBATAN","TIPE_2":"RUMAH SAKIT","TIPE_3":"RUMAH SAKIT UMUM SWASTA","TELEPON":"(021) 8462565","ALAMAT":"JL. RAYA HANKAM NO.17, RT.003/RW.008, JATIRAHAYU, KEC. PD. MELATI, KOTA BKS, JAWA BARAT 17414","ID_PROV":"32","PROVINSI":"JAWA BARAT","ID_KABKOT":"32.75","KABKOT":"KOTA BEKASI","ID_KEC":"32.75.12","KECAMATAN":"PONDOKMELATI","ID_DESA":"32.75.12.1001","DESA":"JATIRAHAYU","LONGITUDE":106.9210337,"LATITUDE":-6.2962914,"STATUS":"BUKA","TANGGAL PENGUMPULAN":"Q1 2024","TANGGAL UPDATE":"28/02/2025"}},{"type":"Feature","geometry":{"coordinates":[106.9257827,-6.3470934],"type":"Point"},"properties":{"NAMA":"RUMAH SAKIT JATISAMPURNA","TIPE_1":"KESEHATAN DAN PENGOBATAN","TIPE_2":"RUMAH SAKIT","TIPE_3":"RUMAH SAKIT UMUM SWASTA","TELEPON":"(021) 8451457","ALAMAT":"JL. STUDIO ANTV, RT.003/RW.007, JATIRADEN, KEC. JATISAMPURNA, KOTA BKS, JAWA BARAT 17433","ID_PROV":"32","PROVINSI":"JAWA BARAT","ID_KABKOT":"32.75","KABKOT":"KOTA BEKASI","ID_KEC":"32.75.10","KECAMATAN":"JATISAMPURNA","ID_DESA":"32.75.10.1005","DESA":"JATIRADEN","LONGITUDE":106.9257827,"LATITUDE":-6.3470934,"STATUS":"BUKA","TANGGAL PENGUMPULAN":"Q1 2024","TANGGAL UPDATE":"28/02/2025"}},{"type":"Feature","geometry":{"coordinates":[107.027722,-6.2102844],"type":"Point"},"properties":{"NAMA":"RSUD KELAS D TELUK PUCUNG","TIPE_1":"KESEHATAN DAN PENGOBATAN","TIPE_2":"RUMAH SAKIT","TIPE_3":"RUMAH SAKIT UMUM DAERAH/NEGERI","TELEPON":"(021) 38312012","ALAMAT":"JL. LKR. UTARA, RT.002/RW.006, TLK. PUCUNG, KEC. BEKASI UTARA, KOTA BKS, JAWA BARAT 17121","ID_PROV":"32","PROVINSI":"JAWA BARAT","ID_KABKOT":"32.75","KABKOT":"KOTA BEKASI","ID_KEC":"32.75.03","KECAMATAN":"BEKASI UTARA","ID_DESA":"32.75.03.1004","DESA":"TELUK PUCUNG","LONGITUDE":107.027722,"LATITUDE":-6.2102844,"STATUS":"BUKA","TANGGAL PENGUMPULAN":"Q1 2024","TANGGAL UPDATE":"28/02/2025"}},{"type":"Feature","geometry":{"coordinates":[106.960011,-6.27797],"type":"Point"},"properties":{"NAMA":"RUMAH SAKIT CIKUNIR","TIPE_1":"KESEHATAN DAN PENGOBATAN","TIPE_2":"RUMAH SAKIT","TIPE_3":"RUMAH SAKIT UMUM SWASTA","TELEPON":"(021) 82437322","ALAMAT":"JL. CIKUNIR RAYA GG. H. NAPIAH NO.8, RT.003/RW.003, JAKA MULYA, KEC. BEKASI SEL., KOTA BKS, JAWA BARAT 17146","ID_PROV":"32","PROVINSI":"JAWA BARAT","ID_KABKOT":"32.75","KABKOT":"KOTA BEKASI","ID_KEC":"32.75.04","KECAMATAN":"BEKASI SELATAN","ID_DESA":"32.75.04.1003","DESA":"JAKAMULYA","LONGITUDE":106.960011,"LATITUDE":-6.27797,"STATUS":"BUKA","TANGGAL PENGUMPULAN":"Q1 2024","TANGGAL UPDATE":"28/02/2025"}},{"type":"Feature","geometry":{"coordinates":[107.010812,-6.2468563],"type":"Point"},"properties":{"NAMA":"RUMAH SAKIT BELLA BEKASI","TIPE_1":"KESEHATAN DAN PENGOBATAN","TIPE_2":"RUMAH SAKIT","TIPE_3":"RUMAH SAKIT UMUM SWASTA","TELEPON":"(021) 8819377","ALAMAT":"JL. INSINYUR H. JUANDA NO.141, RT.001/RW.001, DUREN JAYA, KEC. BEKASI TIM., KOTA BKS, JAWA BARAT 17111","ID_PROV":"32","PROVINSI":"JAWA BARAT","ID_KABKOT":"32.75","KABKOT":"KOTA BEKASI","ID_KEC":"32.75.01","KECAMATAN":"BEKASI TIMUR","ID_DESA":"32.75.01.1003","DESA":"DURENJAYA","LONGITUDE":107.010812,"LATITUDE":-6.2468563,"STATUS":"BUKA","TANGGAL PENGUMPULAN":"Q1 2024","TANGGAL UPDATE":"28/02/2025"}},{"type":"Feature","geometry":{"coordinates":[107.0035402,-6.241194],"type":"Point"},"properties":{"NAMA":"RSUD GEDUNG BARU","TIPE_1":"KESEHATAN DAN PENGOBATAN","TIPE_2":"RUMAH SAKIT","TIPE_3":"RUMAH SAKIT UMUM DAERAH/NEGERI","TELEPON":"","ALAMAT":"JL. MAYOR OKING, RT.001/RW.001, MARGAHAYU, KEC. BEKASI TIM., KOTA BKS, JAWA BARAT 17113","ID_PROV":"32","PROVINSI":"JAWA BARAT","ID_KABKOT":"32.75","KABKOT":"KOTA BEKASI","ID_KEC":"32.75.01","KECAMATAN":"BEKASI TIMUR","ID_DESA":"32.75.01.1002","DESA":"MARGAHAYU","LONGITUDE":107.0035402,"LATITUDE":-6.241194,"STATUS":"BUKA","TANGGAL PENGUMPULAN":"Q1 2024","TANGGAL UPDATE":"28/02/2025"}},{"type":"Feature","geometry":{"coordinates":[107.0006578,-6.242328],"type":"Point"},"properties":{"NAMA":"RSUD DR. CHASBULLAH ABDULMADJID KOTA BEKASI","TIPE_1":"KESEHATAN DAN PENGOBATAN","TIPE_2":"RUMAH SAKIT","TIPE_3":"RUMAH SAKIT UMUM DAERAH/NEGERI","TELEPON":"(021) 8841005","ALAMAT":"JL. PRAMUKA NO.55, RT.006/RW.006, MARGA JAYA, KEC. BEKASI SEL., KOTA BKS, JAWA BARAT 17141","ID_PROV":"32","PROVINSI":"JAWA BARAT","ID_KABKOT":"32.75","KABKOT":"KOTA BEKASI","ID_KEC":"32.75.04","KECAMATAN":"BEKASI SELATAN","ID_DESA":"32.75.04.1002","DESA":"MARGAJAYA","LONGITUDE":107.0006578,"LATITUDE":-6.242328,"STATUS":"BUKA","TANGGAL PENGUMPULAN":"Q1 2024","TANGGAL UPDATE":"28/02/2025"}},{"type":"Feature","geometry":{"coordinates":[107.000914,-6.25182],"type":"Point"},"properties":{"NAMA":"RSU JUWITA","TIPE_1":"KESEHATAN DAN PENGOBATAN","TIPE_2":"RUMAH SAKIT","TIPE_3":"RUMAH SAKIT UMUM SWASTA","TELEPON":"(021) 8829590","ALAMAT":"JL. MAYOR MADMUIN HASIBUAN NO.78, RT.001/RW.024, MARGAHAYU, KEC. BEKASI TIM., KOTA BKS, JAWA BARAT 17113","ID_PROV":"32","PROVINSI":"JAWA BARAT","ID_KABKOT":"32.75","KABKOT":"KOTA BEKASI","ID_KEC":"32.75.01","KECAMATAN":"BEKASI TIMUR","ID_DESA":"32.75.01.1002","DESA":"MARGAHAYU","LONGITUDE":107.000914,"LATITUDE":-6.25182,"STATUS":"BUKA","TANGGAL PENGUMPULAN":"Q1 2024","TANGGAL UPDATE":"28/02/2025"}},{"type":"Feature","geometry":{"coordinates":[107.0247899,-6.2500678],"type":"Point"},"properties":{"NAMA":"RSU JUANDA BEKASI","TIPE_1":"KESEHATAN DAN PENGOBATAN","TIPE_2":"RUMAH SAKIT","TIPE_3":"RUMAH SAKIT UMUM SWASTA","TELEPON":"","ALAMAT":"JL. INSINYUR H. JUANDA, RT.001/RW.021, MARGAHAYU, KEC. BEKASI TIM., KOTA BKS, JAWA BARAT 17113","ID_PROV":"32","PROVINSI":"JAWA BARAT","ID_KABKOT":"32.75","KABKOT":"KOTA BEKASI","ID_KEC":"32.75.01","KECAMATAN":"BEKASI TIMUR","ID_DESA":"32.75.01.1002","DESA":"MARGAHAYU","LONGITUDE":107.0247899,"LATITUDE":-6.2500678,"STATUS":"BUKA","TANGGAL PENGUMPULAN":"Q1 2024","TANGGAL UPDATE":"28/02/2025"}},{"type":"Feature","geometry":{"coordinates":[107.0003979,-6.2516928],"type":"Point"},"properties":{"NAMA":"RS. BHAKTI KARTINI 01/05","TIPE_1":"KESEHATAN DAN PENGOBATAN","TIPE_2":"RUMAH SAKIT","TIPE_3":"RUMAH SAKIT UMUM SWASTA","TELEPON":"(021) 8801954","ALAMAT":"RT.001/RW.005, MARGAHAYU, KEC. BEKASI TIM., KOTA BKS, JAWA BARAT 17113","ID_PROV":"32","PROVINSI":"JAWA BARAT","ID_KABKOT":"32.75","KABKOT":"KOTA BEKASI","ID_KEC":"32.75.01","KECAMATAN":"BEKASI TIMUR","ID_DESA":"32.75.01.1002","DESA":"MARGAHAYU","LONGITUDE":107.0003979,"LATITUDE":-6.2516928,"STATUS":"BUKA","TANGGAL PENGUMPULAN":"Q1 2024","TANGGAL UPDATE":"28/02/2025"}},{"type":"Feature","geometry":{"coordinates":[107.0042851,-6.2462753],"type":"Point"},"properties":{"NAMA":"RS. BANI SALEH BEKASI","TIPE_1":"KESEHATAN DAN PENGOBATAN","TIPE_2":"RUMAH SAKIT","TIPE_3":"RUMAH SAKIT UMUM SWASTA","TELEPON":"(021) 8803386","ALAMAT":"JL. RA KARTINI NO..66, RT.002/RW.002, MARGAHAYU, KEC. BEKASI TIM., KOTA BKS, JAWA BARAT 17113","ID_PROV":"32","PROVINSI":"JAWA BARAT","ID_KABKOT":"32.75","KABKOT":"KOTA BEKASI","ID_KEC":"32.75.01","KECAMATAN":"BEKASI TIMUR","ID_DESA":"32.75.01.1002","DESA":"MARGAHAYU","LONGITUDE":107.0042851,"LATITUDE":-6.2462753,"STATUS":"BUKA","TANGGAL PENGUMPULAN":"Q1 2024","TANGGAL UPDATE":"28/02/2025"}},{"type":"Feature","geometry":{"coordinates":[106.976568,-6.2747561],"type":"Point"},"properties":{"NAMA":"RUMAH SAKIT ANNA","TIPE_1":"KESEHATAN DAN PENGOBATAN","TIPE_2":"RUMAH SAKIT","TIPE_3":"RUMAH SAKIT UMUM SWASTA","TELEPON":"(021) 82432211","ALAMAT":"JL. RAYA PEKAYON NO.36, RT.004/RW.001, JAKA SETIA, KEC. BEKASI SEL., KOTA BKS, JAWA BARAT 17147","ID_PROV":"32","PROVINSI":"JAWA BARAT","ID_KABKOT":"32.75","KABKOT":"KOTA BEKASI","ID_KEC":"32.75.04","KECAMATAN":"BEKASI SELATAN","ID_DESA":"32.75.04.1004","DESA":"JAKASETIA","LONGITUDE":106.976568,"LATITUDE":-6.2747561,"STATUS":"BUKA","TANGGAL PENGUMPULAN":"Q1 2024","TANGGAL UPDATE":"28/02/2025"}},{"type":"Feature","geometry":{"coordinates":[106.9888149,-6.2020561],"type":"Point"},"properties":{"NAMA":"RSU SETO HASBADI KOTA BEKASI","TIPE_1":"KESEHATAN DAN PENGOBATAN","TIPE_2":"RUMAH SAKIT","TIPE_3":"RUMAH SAKIT UMUM SWASTA","TELEPON":"(021) 8866141","ALAMAT":"JL. RAYA SEROJA NO.19, RT.002/RW.028, HARAPAN JAYA, KEC. BEKASI UTARA, KOTA BKS, JAWA BARAT 17124","ID_PROV":"32","PROVINSI":"JAWA BARAT","ID_KABKOT":"32.75","KABKOT":"KOTA BEKASI","ID_KEC":"32.75.03","KECAMATAN":"BEKASI UTARA","ID_DESA":"32.75.03.1006","DESA":"HARAPANJAYA","LONGITUDE":106.9888149,"LATITUDE":-6.2020561,"STATUS":"BUKA","TANGGAL PENGUMPULAN":"Q1 2024","TANGGAL UPDATE":"28/02/2025"}},{"type":"Feature","geometry":{"coordinates":[106.9992054,-6.2810049],"type":"Point"},"properties":{"NAMA":"RS RAWALUMBU PINTU BELAKANG","TIPE_1":"KESEHATAN DAN PENGOBATAN","TIPE_2":"RUMAH SAKIT","TIPE_3":"RUMAH SAKIT UMUM SWASTA","TELEPON":"","ALAMAT":"JL. DALANG, RT.002/RW.004, BOJONG RAWALUMBU, KEC. RAWALUMBU, KOTA BKS, JAWA BARAT 17116","ID_PROV":"32","PROVINSI":"JAWA BARAT","ID_KABKOT":"32.75","KABKOT":"KOTA BEKASI","ID_KEC":"32.75.05","KECAMATAN":"RAWALUMBU","ID_DESA":"32.75.05.1001","DESA":"BOJONG RAWALUMBU","LONGITUDE":106.9992054,"LATITUDE":-6.2810049,"STATUS":"BUKA","TANGGAL PENGUMPULAN":"Q1 2024","TANGGAL UPDATE":"28/02/2025"}},{"type":"Feature","geometry":{"coordinates":[106.999244,-6.1861272],"type":"Point"},"properties":{"NAMA":"RS PARAMEDIKA BEKASI","TIPE_1":"KESEHATAN DAN PENGOBATAN","TIPE_2":"RUMAH SAKIT","TIPE_3":"RUMAH SAKIT UMUM SWASTA","TELEPON":"0811-1915-1555","ALAMAT":"JL. RAYA KALIABANG TENGAH, RT.03 RW31, PEJUANG, KECAMATAN MEDAN SATRIA, KOTA BKS, JAWA BARAT 17131","ID_PROV":"32","PROVINSI":"JAWA BARAT","ID_KABKOT":"32.75","KABKOT":"KOTA BEKASI","ID_KEC":"32.75.06","KECAMATAN":"MEDANSATRIA","ID_DESA":"32.75.06.1003","DESA":"PEJUANG","LONGITUDE":106.999244,"LATITUDE":-6.1861272,"STATUS":"BUKA","TANGGAL PENGUMPULAN":"Q1 2024","TANGGAL UPDATE":"28/02/2025"}},{"type":"Feature","geometry":{"coordinates":[107.016468,-6.308719],"type":"Point"},"properties":{"NAMA":"RS MUSTIKA MEDIKA","TIPE_1":"KESEHATAN DAN PENGOBATAN","TIPE_2":"RUMAH SAKIT","TIPE_3":"RUMAH SAKIT UMUM SWASTA","TELEPON":"(021) 82622530","ALAMAT":"JL. KLP. DUA NO.110, RT.007/RW.008, PADURENAN, KEC. MUSTIKA JAYA, KOTA BKS, JAWA BARAT 17156","ID_PROV":"32","PROVINSI":"JAWA BARAT","ID_KABKOT":"32.75","KABKOT":"KOTA BEKASI","ID_KEC":"32.75.11","KECAMATAN":"MUSTIKAJAYA","ID_DESA":"32.75.11.1001","DESA":"PADURENAN","LONGITUDE":107.016468,"LATITUDE":-6.308719,"STATUS":"BUKA","TANGGAL PENGUMPULAN":"Q1 2024","TANGGAL UPDATE":"28/02/2025"}},{"type":"Feature","geometry":{"coordinates":[106.996639,-6.1855069],"type":"Point"},"properties":{"NAMA":"RS PELANGI4D","TIPE_1":"KESEHATAN DAN PENGOBATAN","TIPE_2":"RUMAH SAKIT","TIPE_3":"RUMAH SAKIT UMUM SWASTA","TELEPON":"","ALAMAT":"RT.005/RW.025, KALIABANG TENGAH, KEC. BEKASI UTARA, KOTA BKS, JAWA BARAT 17125","ID_PROV":"32","PROVINSI":"JAWA BARAT","ID_KABKOT":"32.75","KABKOT":"KOTA BEKASI","ID_KEC":"32.75.06","KECAMATAN":"MEDANSATRIA","ID_DESA":"32.75.06.1003","DESA":"PEJUANG","LONGITUDE":106.996639,"LATITUDE":-6.1855069,"STATUS":"BUKA","TANGGAL PENGUMPULAN":"Q1 2024","TANGGAL UPDATE":"28/02/2025"}},{"type":"Feature","geometry":{"coordinates":[106.9959872,-6.223272],"type":"Point"},"properties":{"NAMA":"RS PERMATA KELUARGA SUMMARECON","TIPE_1":"KESEHATAN DAN PENGOBATAN","TIPE_2":"RUMAH SAKIT","TIPE_3":"RUMAH SAKIT UMUM SWASTA","TELEPON":"0856-9413-9971","ALAMAT":"MARGA MULYA, BEKASI UTARA, BEKASI, WEST JAVA","ID_PROV":"32","PROVINSI":"JAWA BARAT","ID_KABKOT":"32.75","KABKOT":"KOTA BEKASI","ID_KEC":"32.75.06","KECAMATAN":"MEDANSATRIA","ID_DESA":"32.75.06.1002","DESA":"HARAPANMULYA","LONGITUDE":106.9959872,"LATITUDE":-6.223272,"STATUS":"BUKA","TANGGAL PENGUMPULAN":"Q1 2024","TANGGAL UPDATE":"28/02/2025"}},{"type":"Feature","geometry":{"coordinates":[106.9122895,-6.275678],"type":"Point"},"properties":{"NAMA":"RS KARUNIA KASIH RUMAH KELUARGA","TIPE_1":"KESEHATAN DAN PENGOBATAN","TIPE_2":"RUMAH SAKIT","TIPE_3":"RUMAH SAKIT UMUM SWASTA","TELEPON":"(021) 8461970","ALAMAT":"JL. RAYA JATIWARINGIN NO.133, RT.002/RW.003, JATIWARINGIN, KEC. PD. GEDE, KOTA BKS, JAWA BARAT 17411","ID_PROV":"32","PROVINSI":"JAWA BARAT","ID_KABKOT":"32.75","KABKOT":"KOTA BEKASI","ID_KEC":"32.75.08","KECAMATAN":"PONDOKGEDE","ID_DESA":"32.75.08.1001","DESA":"JATIWARINGIN","LONGITUDE":106.9122895,"LATITUDE":-6.275678,"STATUS":"BUKA","TANGGAL PENGUMPULAN":"Q1 2024","TANGGAL UPDATE":"28/02/2025"}},{"type":"Feature","geometry":{"coordinates":[106.9632785,-6.2943264],"type":"Point"},"properties":{"NAMA":"RS KARTIKA HUSADA JATIASIH","TIPE_1":"KESEHATAN DAN PENGOBATAN","TIPE_2":"RUMAH SAKIT","TIPE_3":"RUMAH SAKIT UMUM SWASTA","TELEPON":"(021) 82435587","ALAMAT":"JL. RAYA JATIASIH NO.72, RT.004/RW.005, JATIASIH, KEC. JATIASIH, KOTA BKS, JAWA BARAT 17423","ID_PROV":"32","PROVINSI":"JAWA BARAT","ID_KABKOT":"32.75","KABKOT":"KOTA BEKASI","ID_KEC":"32.75.09","KECAMATAN":"JATIASIH","ID_DESA":"32.75.09.1002","DESA":"JATIASIH","LONGITUDE":106.9632785,"LATITUDE":-6.2943264,"STATUS":"BUKA","TANGGAL PENGUMPULAN":"Q1 2024","TANGGAL UPDATE":"28/02/2025"}},{"type":"Feature","geometry":{"coordinates":[107.0107961,-6.2329304],"type":"Point"},"properties":{"NAMA":"RS MEKAR SARI","TIPE_1":"KESEHATAN DAN PENGOBATAN","TIPE_2":"RUMAH SAKIT","TIPE_3":"RUMAH SAKIT UMUM SWASTA","TELEPON":"0812-9758-6679","ALAMAT":"JL. MEKAR SARI NO.1, RT.001/RW.010, BEKASI JAYA, KEC. BEKASI TIM., KOTA BKS, JAWA BARAT 17112","ID_PROV":"32","PROVINSI":"JAWA BARAT","ID_KABKOT":"32.75","KABKOT":"KOTA BEKASI","ID_KEC":"32.75.01","KECAMATAN":"BEKASI TIMUR","ID_DESA":"32.75.01.1001","DESA":"BEKASIJAYA","LONGITUDE":107.0107961,"LATITUDE":-6.2329304,"STATUS":"BUKA","TANGGAL PENGUMPULAN":"Q1 2024","TANGGAL UPDATE":"28/02/2025"}},{"type":"Feature","geometry":{"coordinates":[106.9301387,-6.2821723],"type":"Point"},"properties":{"NAMA":"RS MASMITRA JATI MAKMUR","TIPE_1":"KESEHATAN DAN PENGOBATAN","TIPE_2":"RUMAH SAKIT","TIPE_3":"RUMAH SAKIT UMUM SWASTA","TELEPON":"(021) 84971766","ALAMAT":"JL. RAYA JATI MAKMUR NO.40, RT.001/RW.011, JATIMAKMUR, KEC. PD. GEDE, KOTA BKS, JAWA BARAT 17413","ID_PROV":"32","PROVINSI":"JAWA BARAT","ID_KABKOT":"32.75","KABKOT":"KOTA BEKASI","ID_KEC":"32.75.08","KECAMATAN":"PONDOKGEDE","ID_DESA":"32.75.08.1003","DESA":"JATIMAKMUR","LONGITUDE":106.9301387,"LATITUDE":-6.2821723,"STATUS":"BUKA","TANGGAL PENGUMPULAN":"Q1 2024","TANGGAL UPDATE":"28/02/2025"}},{"type":"Feature","geometry":{"coordinates":[107.029813,-6.2516489],"type":"Point"},"properties":{"NAMA":"RS. GRAHA JUANDA","TIPE_1":"KESEHATAN DAN PENGOBATAN","TIPE_2":"RUMAH SAKIT","TIPE_3":"RUMAH SAKIT UMUM SWASTA","TELEPON":"(021) 8811832","ALAMAT":"JL. INSINYUR H. JUANDA NO.326, RT.001/RW.021, SASAK JUANDA, KEC. BEKASI TIM., KOTA BKS, JAWA BARAT 17133","ID_PROV":"32","PROVINSI":"JAWA BARAT","ID_KABKOT":"32.75","KABKOT":"KOTA BEKASI","ID_KEC":"32.75.01","KECAMATAN":"BEKASI TIMUR","ID_DESA":"32.75.01.1002","DESA":"MARGAHAYU","LONGITUDE":107.029813,"LATITUDE":-6.2516489,"STATUS":"BUKA","TANGGAL PENGUMPULAN":"Q1 2024","TANGGAL UPDATE":"28/02/2025"}},{"type":"Feature","geometry":{"coordinates":[106.9986949,-6.2695159],"type":"Point"},"properties":{"NAMA":"RS SILOAM BEKASI SEPANJANG JAYA","TIPE_1":"KESEHATAN DAN PENGOBATAN","TIPE_2":"RUMAH SAKIT","TIPE_3":"RUMAH SAKIT UMUM SWASTA","TELEPON":"(021) 50901900","ALAMAT":"JL. PRAMUKA NO.12, RT.004/RW.002, SEPANJANG JAYA, KEC. RAWALUMBU, KOTA BKS, JAWA BARAT 17114","ID_PROV":"32","PROVINSI":"JAWA BARAT","ID_KABKOT":"32.75","KABKOT":"KOTA BEKASI","ID_KEC":"32.75.05","KECAMATAN":"RAWALUMBU","ID_DESA":"32.75.05.1003","DESA":"SEPANJANGJAYA","LONGITUDE":106.9986949,"LATITUDE":-6.2695159,"STATUS":"BUKA","TANGGAL PENGUMPULAN":"Q1 2024","TANGGAL UPDATE":"28/02/2025"}},{"type":"Feature","geometry":{"coordinates":[106.9986277,-6.1765963],"type":"Point"},"properties":{"NAMA":"RS. TAMAN HARAPAN BARU","TIPE_1":"KESEHATAN DAN PENGOBATAN","TIPE_2":"RUMAH SAKIT","TIPE_3":"RUMAH SAKIT UMUM SWASTA","TELEPON":"(021) 88981055","ALAMAT":"JL. RAYA KALIABANG TENGAH NO.2, RT.004/RW.023, PEJUANG, KECAMATAN MEDAN SATRIA, KOTA BKS, JAWA BARAT 17125","ID_PROV":"32","PROVINSI":"JAWA BARAT","ID_KABKOT":"32.75","KABKOT":"KOTA BEKASI","ID_KEC":"32.75.06","KECAMATAN":"MEDANSATRIA","ID_DESA":"32.75.06.1003","DESA":"PEJUANG","LONGITUDE":106.9986277,"LATITUDE":-6.1765963,"STATUS":"BUKA","TANGGAL PENGUMPULAN":"Q1 2024","TANGGAL UPDATE":"28/02/2025"}},{"type":"Feature","geometry":{"coordinates":[106.9853083,-6.3197176],"type":"Point"},"properties":{"NAMA":"RS. KARYA MEDIKA BANTAR GEBANG","TIPE_1":"KESEHATAN DAN PENGOBATAN","TIPE_2":"RUMAH SAKIT","TIPE_3":"RUMAH SAKIT UMUM SWASTA","TELEPON":"(021) 8254629","ALAMAT":"JL. RAYA NAROGONG NO.KM. 11, RT.002/RW.010, BANTARGEBANG, KEC. BANTAR GEBANG, KOTA BKS, JAWA BARAT 17151","ID_PROV":"32","PROVINSI":"JAWA BARAT","ID_KABKOT":"32.75","KABKOT":"KOTA BEKASI","ID_KEC":"32.75.07","KECAMATAN":"BANTARGEBANG","ID_DESA":"32.75.07.1003","DESA":"BANTARGEBANG","LONGITUDE":106.9853083,"LATITUDE":-6.3197176,"STATUS":"BUKA","TANGGAL PENGUMPULAN":"Q1 2024","TANGGAL UPDATE":"28/02/2025"}},{"type":"Feature","geometry":{"coordinates":[106.9599293,-6.2780431],"type":"Point"},"properties":{"NAMA":"RS DOKTER ADAM TALIB CIKUNIR","TIPE_1":"KESEHATAN DAN PENGOBATAN","TIPE_2":"RUMAH SAKIT","TIPE_3":"RUMAH SAKIT UMUM SWASTA","TELEPON":"(021) 82437322","ALAMAT":"GG. H. NAPIAH NO.8, JAKA MULYA, KEC. BEKASI SEL., KOTA BKS, JAWA BARAT 17146","ID_PROV":"32","PROVINSI":"JAWA BARAT","ID_KABKOT":"32.75","KABKOT":"KOTA BEKASI","ID_KEC":"32.75.04","KECAMATAN":"BEKASI SELATAN","ID_DESA":"32.75.04.1003","DESA":"JAKAMULYA","LONGITUDE":106.9599293,"LATITUDE":-6.2780431,"STATUS":"BUKA","TANGGAL PENGUMPULAN":"Q1 2024","TANGGAL UPDATE":"28/02/2025"}},{"type":"Feature","geometry":{"coordinates":[107.0122387,-6.3181061],"type":"Point"},"properties":{"NAMA":"RS SATRIA MEDIKA","TIPE_1":"KESEHATAN DAN PENGOBATAN","TIPE_2":"RUMAH SAKIT","TIPE_3":"RUMAH SAKIT UMUM SWASTA","TELEPON":"(021) 22105678","ALAMAT":"JL. BANTAR GEBANG SETU NO.119, RT.002/RW.006, PADURENAN, KEC. MUSTIKA JAYA, KOTA BKS, JAWA BARAT 17156","ID_PROV":"32","PROVINSI":"JAWA BARAT","ID_KABKOT":"32.75","KABKOT":"KOTA BEKASI","ID_KEC":"32.75.11","KECAMATAN":"MUSTIKAJAYA","ID_DESA":"32.75.11.1001","DESA":"PADURENAN","LONGITUDE":107.0122387,"LATITUDE":-6.3181061,"STATUS":"BUKA","TANGGAL PENGUMPULAN":"Q1 2024","TANGGAL UPDATE":"28/02/2025"}},{"type":"Feature","geometry":{"coordinates":[106.9772221,-6.2111036],"type":"Point"},"properties":{"NAMA":"RS ANANDA BEKASI","TIPE_1":"KESEHATAN DAN PENGOBATAN","TIPE_2":"RUMAH SAKIT","TIPE_3":"RUMAH SAKIT UMUM SWASTA","TELEPON":"(021) 8854338","ALAMAT":"JL. SULTAN AGUNG NO.173, MEDAN SATRIA, KECAMATAN MEDAN SATRIA, KOTA BKS, JAWA BARAT 17133","ID_PROV":"32","PROVINSI":"JAWA BARAT","ID_KABKOT":"32.75","KABKOT":"KOTA BEKASI","ID_KEC":"32.75.06","KECAMATAN":"MEDANSATRIA","ID_DESA":"32.75.06.1001","DESA":"MEDANSATRIA","LONGITUDE":106.9772221,"LATITUDE":-6.2111036,"STATUS":"BUKA","TANGGAL PENGUMPULAN":"Q1 2024","TANGGAL UPDATE":"28/02/2025"}},{"type":"Feature","geometry":{"coordinates":[107.0185552,-6.2068003],"type":"Point"},"properties":{"NAMA":"PRIMAYA HOSPITAL BEKASI UTARA","TIPE_1":"KESEHATAN DAN PENGOBATAN","TIPE_2":"RUMAH SAKIT","TIPE_3":"RUMAH SAKIT UMUM SWASTA","TELEPON":"(021) 88892000","ALAMAT":"GOLDEN CITY, VILLA INDAH PERMAI, JL. KALI ABANG TENGAH NO.1 LT.5, RT.001/RW.033, TLK. PUCUNG, KEC. BEKASI UTARA, KOTA BKS, JAWA BARAT 17122","ID_PROV":"32","PROVINSI":"JAWA BARAT","ID_KABKOT":"32.75","KABKOT":"KOTA BEKASI","ID_KEC":"32.75.03","KECAMATAN":"BEKASI UTARA","ID_DESA":"32.75.03.1004","DESA":"TELUK PUCUNG","LONGITUDE":107.0185552,"LATITUDE":-6.2068003,"STATUS":"BUKA","TANGGAL PENGUMPULAN":"Q1 2024","TANGGAL UPDATE":"28/02/2025"}},{"type":"Feature","geometry":{"coordinates":[106.9837531,-6.2475707],"type":"Point"},"properties":{"NAMA":"PRIMAYA HOSPITAL BEKASI BARAT","TIPE_1":"KESEHATAN DAN PENGOBATAN","TIPE_2":"RUMAH SAKIT","TIPE_3":"RUMAH SAKIT UMUM SWASTA","TELEPON":"(021) 8868888","ALAMAT":"JL. KH. NOER ALI NO.KAV. 17-18, RT.001/RW.009, KAYURINGIN JAYA, KEC. BEKASI SEL., KOTA BKS, JAWA BARAT 17144","ID_PROV":"32","PROVINSI":"JAWA BARAT","ID_KABKOT":"32.75","KABKOT":"KOTA BEKASI","ID_KEC":"32.75.04","KECAMATAN":"BEKASI SELATAN","ID_DESA":"32.75.04.1005","DESA":"KAYURINGINJAYA","LONGITUDE":106.9837531,"LATITUDE":-6.2475707,"STATUS":"BUKA","TANGGAL PENGUMPULAN":"Q1 2024","TANGGAL UPDATE":"28/02/2025"}},{"type":"Feature","geometry":{"coordinates":[107.0200981,-6.2600019],"type":"Point"},"properties":{"NAMA":"PRIMAYA HOSPITAL BEKASI TIMUR","TIPE_1":"KESEHATAN DAN PENGOBATAN","TIPE_2":"RUMAH SAKIT","TIPE_3":"RUMAH SAKIT UMUM SWASTA","TELEPON":"1 500 007","ALAMAT":"JL. HM. JOYO MARTONO NO.47, RT.003/RW.021, MARGAHAYU, KEC. BEKASI TIM., KOTA BKS, JAWA BARAT 17113","ID_PROV":"32","PROVINSI":"JAWA BARAT","ID_KABKOT":"32.75","KABKOT":"KOTA BEKASI","ID_KEC":"32.75.01","KECAMATAN":"BEKASI TIMUR","ID_DESA":"32.75.01.1002","DESA":"MARGAHAYU","LONGITUDE":107.0200981,"LATITUDE":-6.2600019,"STATUS":"BUKA","TANGGAL PENGUMPULAN":"Q1 2024","TANGGAL UPDATE":"28/02/2025"}},{"type":"Feature","geometry":{"coordinates":[106.971998,-6.2688769],"type":"Point"},"properties":{"NAMA":"POLI BEDAH ORTHOPEDI - RS HERMINA GALAXY","TIPE_1":"KESEHATAN DAN PENGOBATAN","TIPE_2":"RUMAH SAKIT","TIPE_3":"RUMAH SAKIT UMUM SWASTA","TELEPON":"(021) 8222525","ALAMAT":"JL. GARDENIA RAYA BLOK BA-1 NO.11 GRAND GALAXY CITY, RT.003/RW.017, JAKA SETIA, KEC. BEKASI SEL., KOTA BKS, JAWA BARAT 17147","ID_PROV":"32","PROVINSI":"JAWA BARAT","ID_KABKOT":"32.75","KABKOT":"KOTA BEKASI","ID_KEC":"32.75.04","KECAMATAN":"BEKASI SELATAN","ID_DESA":"32.75.04.1004","DESA":"JAKASETIA","LONGITUDE":106.971998,"LATITUDE":-6.2688769,"STATUS":"BUKA","TANGGAL PENGUMPULAN":"Q1 2024","TANGGAL UPDATE":"28/02/2025"}},{"type":"Feature","geometry":{"coordinates":[107.02215,-6.2229934],"type":"Point"},"properties":{"NAMA":"RS ANNA MEDIKA","TIPE_1":"KESEHATAN DAN PENGOBATAN","TIPE_2":"RUMAH SAKIT","TIPE_3":"RUMAH SAKIT UMUM SWASTA","TELEPON":"(021) 88882211","ALAMAT":"JL. RAYA PERJUANGAN NO.45, RT.003/RW.003, HARAPAN BARU, KEC. BEKASI UTARA, KOTA BKS, JAWA BARAT 17123","ID_PROV":"32","PROVINSI":"JAWA BARAT","ID_KABKOT":"32.75","KABKOT":"KOTA BEKASI","ID_KEC":"32.75.03","KECAMATAN":"BEKASI UTARA","ID_DESA":"32.75.03.1003","DESA":"HARAPANBARU","LONGITUDE":107.02215,"LATITUDE":-6.2229934,"STATUS":"BUKA","TANGGAL PENGUMPULAN":"Q1 2024","TANGGAL UPDATE":"28/02/2025"}},{"type":"Feature","geometry":{"coordinates":[106.9947732,-6.241659],"type":"Point"},"properties":{"NAMA":"RS HERMINA BEKASI","TIPE_1":"KESEHATAN DAN PENGOBATAN","TIPE_2":"RUMAH SAKIT","TIPE_3":"RUMAH SAKIT UMUM SWASTA","TELEPON":"(021) 8842121","ALAMAT":"JL. KEMAKMURAN NO.39, RT.004/RW.003, MARGA JAYA, KEC. BEKASI SEL., KOTA BKS, JAWA BARAT 17141","ID_PROV":"32","PROVINSI":"JAWA BARAT","ID_KABKOT":"32.75","KABKOT":"KOTA BEKASI","ID_KEC":"32.75.04","KECAMATAN":"BEKASI SELATAN","ID_DESA":"32.75.04.1002","DESA":"MARGAJAYA","LONGITUDE":106.9947732,"LATITUDE":-6.241659,"STATUS":"BUKA","TANGGAL PENGUMPULAN":"Q1 2024","TANGGAL UPDATE":"28/02/2025"}},{"type":"Feature","geometry":{"coordinates":[106.9210421,-6.2962651],"type":"Point"},"properties":{"NAMA":"RS HELSA JATIRAHAYU","TIPE_1":"KESEHATAN DAN PENGOBATAN","TIPE_2":"RUMAH SAKIT","TIPE_3":"RUMAH SAKIT UMUM SWASTA","TELEPON":"0813-2396-0009","ALAMAT":"JL. RAYA HANKAM NO.17, RT.003/RW.008, JATIRAHAYU, KEC. PD. MELATI, KOTA BKS, JAWA BARAT 17414","ID_PROV":"32","PROVINSI":"JAWA BARAT","ID_KABKOT":"32.75","KABKOT":"KOTA BEKASI","ID_KEC":"32.75.12","KECAMATAN":"PONDOKMELATI","ID_DESA":"32.75.12.1001","DESA":"JATIRAHAYU","LONGITUDE":106.9210421,"LATITUDE":-6.2962651,"STATUS":"BUKA","TANGGAL PENGUMPULAN":"Q1 2024","TANGGAL UPDATE":"28/02/2025"}},{"type":"Feature","geometry":{"coordinates":[107.0036275,-6.2458361],"type":"Point"},"properties":{"NAMA":"RS ISLAM DR. SUBKI ABDULKADIR","TIPE_1":"KESEHATAN DAN PENGOBATAN","TIPE_2":"RUMAH SAKIT","TIPE_3":"RUMAH SAKIT UMUM SWASTA","TELEPON":"(021) 8803386","ALAMAT":"JL. RA KARTINI NO.66, RT.002/RW.002, MARGAHAYU, BEKASI TIMUR, BEKASI, WEST JAVA 17113","ID_PROV":"32","PROVINSI":"JAWA BARAT","ID_KABKOT":"32.75","KABKOT":"KOTA BEKASI","ID_KEC":"32.75.01","KECAMATAN":"BEKASI TIMUR","ID_DESA":"32.75.01.1002","DESA":"MARGAHAYU","LONGITUDE":107.0036275,"LATITUDE":-6.2458361,"STATUS":"BUKA","TANGGAL PENGUMPULAN":"Q1 2024","TANGGAL UPDATE":"28/02/2025"}},{"type":"Feature","geometry":{"coordinates":[107.001435,-6.2479631],"type":"Point"},"properties":{"NAMA":"RS BHAKTI KARTINI","TIPE_1":"KESEHATAN DAN PENGOBATAN","TIPE_2":"RUMAH SAKIT","TIPE_3":"RUMAH SAKIT UMUM SWASTA","TELEPON":"0813-8389-7467","ALAMAT":"JL. RA KARTINI, RT.004/RW.003, MARGAHAYU, KEC. BEKASI TIM., KOTA BKS, JAWA BARAT 17113","ID_PROV":"32","PROVINSI":"JAWA BARAT","ID_KABKOT":"32.75","KABKOT":"KOTA BEKASI","ID_KEC":"32.75.01","KECAMATAN":"BEKASI TIMUR","ID_DESA":"32.75.01.1002","DESA":"MARGAHAYU","LONGITUDE":107.001435,"LATITUDE":-6.2479631,"STATUS":"BUKA","TANGGAL PENGUMPULAN":"Q1 2024","TANGGAL UPDATE":"28/02/2025"}},{"type":"Feature","geometry":{"coordinates":[106.9810073,-6.2693272],"type":"Point"},"properties":{"NAMA":"RS EMC PEKAYON","TIPE_1":"KESEHATAN DAN PENGOBATAN","TIPE_2":"RUMAH SAKIT","TIPE_3":"RUMAH SAKIT UMUM SWASTA","TELEPON":"(021) 29779977","ALAMAT":"JL. PULO RIBUNG NO.1, RT.001/RW.021, PEKAYON JAYA, KEC. BEKASI SEL., KOTA BKS, JAWA BARAT 17148","ID_PROV":"32","PROVINSI":"JAWA BARAT","ID_KABKOT":"32.75","KABKOT":"KOTA BEKASI","ID_KEC":"32.75.04","KECAMATAN":"BEKASI SELATAN","ID_DESA":"32.75.04.1001","DESA":"PEKAYONJAYA","LONGITUDE":106.9810073,"LATITUDE":-6.2693272,"STATUS":"BUKA","TANGGAL PENGUMPULAN":"Q1 2024","TANGGAL UPDATE":"28/02/2025"}},{"type":"Feature","geometry":{"coordinates":[106.9775365,-6.1850121],"type":"Point"},"properties":{"NAMA":"RS CITRA HARAPAN","TIPE_1":"KESEHATAN DAN PENGOBATAN","TIPE_2":"RUMAH SAKIT","TIPE_3":"RUMAH SAKIT UMUM SWASTA","TELEPON":"(021) 88870606","ALAMAT":"KAWASAN SENTRA NIAGA, JL. RAYA HARAPAN INDAH NO.3-5, PEJUANG, KECAMATAN MEDAN SATRIA, KOTA BKS, JAWA BARAT 17131","ID_PROV":"32","PROVINSI":"JAWA BARAT","ID_KABKOT":"32.75","KABKOT":"KOTA BEKASI","ID_KEC":"32.75.06","KECAMATAN":"MEDANSATRIA","ID_DESA":"32.75.06.1003","DESA":"PEJUANG","LONGITUDE":106.9775365,"LATITUDE":-6.1850121,"STATUS":"BUKA","TANGGAL PENGUMPULAN":"Q1 2024","TANGGAL UPDATE":"28/02/2025"}},{"type":"Feature","geometry":{"coordinates":[106.9983993,-6.2689175],"type":"Point"},"properties":{"NAMA":"RUMAH SAKIT UMUM INSTALASI","TIPE_1":"KESEHATAN DAN PENGOBATAN","TIPE_2":"RUMAH SAKIT","TIPE_3":"RUMAH SAKIT UMUM SWASTA","TELEPON":"(021) 8841005","ALAMAT":"JL. PRAMUKA NO.75, RT.004/RW.002, SEPANJANG JAYA, KEC. RAWALUMBU, KOTA BKS, JAWA BARAT 17141","ID_PROV":"32","PROVINSI":"JAWA BARAT","ID_KABKOT":"32.75","KABKOT":"KOTA BEKASI","ID_KEC":"32.75.05","KECAMATAN":"RAWALUMBU","ID_DESA":"32.75.05.1003","DESA":"SEPANJANGJAYA","LONGITUDE":106.9983993,"LATITUDE":-6.2689175,"STATUS":"BUKA","TANGGAL PENGUMPULAN":"Q1 2024","TANGGAL UPDATE":"28/02/2025"}},{"type":"Feature","geometry":{"coordinates":[106.998978,-6.1861187],"type":"Point"},"properties":{"NAMA":"RUMAH SAKIT ZAINUTTAQWA","TIPE_1":"KESEHATAN DAN PENGOBATAN","TIPE_2":"RUMAH SAKIT","TIPE_3":"RUMAH SAKIT UMUM SWASTA","TELEPON":"(021) 88988287","ALAMAT":"JL. RAYA KALIABANG TENGAH, RT.003/RW.031, PEJUANG, KECAMATAN MEDAN SATRIA, KOTA BKS, JAWA BARAT 17131","ID_PROV":"32","PROVINSI":"JAWA BARAT","ID_KABKOT":"32.75","KABKOT":"KOTA BEKASI","ID_KEC":"32.75.06","KECAMATAN":"MEDANSATRIA","ID_DESA":"32.75.06.1003","DESA":"PEJUANG","LONGITUDE":106.998978,"LATITUDE":-6.1861187,"STATUS":"BUKA","TANGGAL PENGUMPULAN":"Q1 2024","TANGGAL UPDATE":"28/02/2025"}},{"type":"Feature","geometry":{"coordinates":[107.0085528,-6.2567272],"type":"Point"},"properties":{"NAMA":"SILOAM HOSPITALS BEKASI TIMUR","TIPE_1":"KESEHATAN DAN PENGOBATAN","TIPE_2":"RUMAH SAKIT","TIPE_3":"RUMAH SAKIT UMUM SWASTA","TELEPON":"(021) 80611900","ALAMAT":"JL. CHAIRIL ANWAR NO.27-36, RT.004/RW.009, MARGAHAYU, KEC. BEKASI TIM., KOTA BKS, JAWA BARAT 17113","ID_PROV":"32","PROVINSI":"JAWA BARAT","ID_KABKOT":"32.75","KABKOT":"KOTA BEKASI","ID_KEC":"32.75.01","KECAMATAN":"BEKASI TIMUR","ID_DESA":"32.75.01.1002","DESA":"MARGAHAYU","LONGITUDE":107.0085528,"LATITUDE":-6.2567272,"STATUS":"BUKA","TANGGAL PENGUMPULAN":"Q1 2024","TANGGAL UPDATE":"28/02/2025"}},{"type":"Feature","geometry":{"coordinates":[106.9831553,-6.2694421],"type":"Point"},"properties":{"NAMA":"RUMAH SAKIT REMEDIKA","TIPE_1":"KESEHATAN DAN PENGOBATAN","TIPE_2":"RUMAH SAKIT","TIPE_3":"RUMAH SAKIT UMUM SWASTA","TELEPON":"","ALAMAT":"JL. KEMANG RAYA NO.19, RT.005/RW.006, PEKAYON JAYA, KEC. BEKASI SEL., KOTA BKS, JAWA BARAT 17411","ID_PROV":"32","PROVINSI":"JAWA BARAT","ID_KABKOT":"32.75","KABKOT":"KOTA BEKASI","ID_KEC":"32.75.04","KECAMATAN":"BEKASI SELATAN","ID_DESA":"32.75.04.1001","DESA":"PEKAYONJAYA","LONGITUDE":106.9831553,"LATITUDE":-6.2694421,"STATUS":"BUKA","TANGGAL PENGUMPULAN":"Q1 2024","TANGGAL UPDATE":"28/02/2025"}},{"type":"Feature","geometry":{"coordinates":[106.9865177,-6.3146173],"type":"Point"},"properties":{"NAMA":"RSUD BANTARGEBANG KOTA BEKASI","TIPE_1":"KESEHATAN DAN PENGOBATAN","TIPE_2":"RUMAH SAKIT","TIPE_3":"RUMAH SAKIT UMUM DAERAH/NEGERI","TELEPON":"(021) 82637773","ALAMAT":"JL. SILIWANGI NO.KM. 10, RT.004/RW.001, BANTARGEBANG, KEC. BANTAR GEBANG, KOTA BKS, JAWA BARAT 17152","ID_PROV":"32","PROVINSI":"JAWA BARAT","ID_KABKOT":"32.75","KABKOT":"KOTA BEKASI","ID_KEC":"32.75.07","KECAMATAN":"BANTARGEBANG","ID_DESA":"32.75.07.1003","DESA":"BANTARGEBANG","LONGITUDE":106.9865177,"LATITUDE":-6.3146173,"STATUS":"BUKA","TANGGAL PENGUMPULAN":"Q1 2024","TANGGAL UPDATE":"28/02/2025"}},{"type":"Feature","geometry":{"coordinates":[107.0265831,-6.2427713],"type":"Point"},"properties":{"NAMA":"RUMAH SAKIT SILOAM SENTOSA","TIPE_1":"KESEHATAN DAN PENGOBATAN","TIPE_2":"RUMAH SAKIT","TIPE_3":"RUMAH SAKIT UMUM SWASTA","TELEPON":"(021) 80611800","ALAMAT":"JL. PAHLAWAN NO.60, RT.006/RW.004, DUREN JAYA, KEC. BEKASI TIM., KOTA BKS, JAWA BARAT 17111","ID_PROV":"32","PROVINSI":"JAWA BARAT","ID_KABKOT":"32.75","KABKOT":"KOTA BEKASI","ID_KEC":"32.75.01","KECAMATAN":"BEKASI TIMUR","ID_DESA":"32.75.01.1003","DESA":"DURENJAYA","LONGITUDE":107.0265831,"LATITUDE":-6.2427713,"STATUS":"BUKA","TANGGAL PENGUMPULAN":"Q1 2024","TANGGAL UPDATE":"28/02/2025"}}]}