{"type":"FeatureCollection","features":[{"type":"Feature","geometry":{"coordinates":[106.8062808,-6.3975676],"type":"Point"},"properties":{"NAMA":"POLI GIGI","TIPE_1":"KESEHATAN DAN PENGOBATAN","TIPE_2":"RUMAH SAKIT","TIPE_3":"RUMAH SAKIT GIGI","TELEPON":"","ALAMAT":"PANCORAN MAS, KEC. PANCORAN MAS, KOTA DEPOK, JAWA BARAT 16436","ID_PROV":"32","PROVINSI":"JAWA BARAT","ID_KABKOT":"32.76","KABKOT":"KOTA DEPOK","ID_KEC":"32.76.01","KECAMATAN":"PANCORAN MAS","ID_DESA":"32.76.01.1008","DESA":"PANCORAN MAS","LONGITUDE":106.8062808,"LATITUDE":-6.3975676,"STATUS":"BUKA","TANGGAL PENGUMPULAN":"Q1 2024","TANGGAL UPDATE":"28/02/2025"}},{"type":"Feature","geometry":{"coordinates":[106.8256073,-6.3994718],"type":"Point"},"properties":{"NAMA":"POLI GIGI HERMINA","TIPE_1":"KESEHATAN DAN PENGOBATAN","TIPE_2":"RUMAH SAKIT","TIPE_3":"RUMAH SAKIT GIGI","TELEPON":"","ALAMAT":"JL. TOLE ISKANDAR, DEPOK, KEC. PANCORAN MAS, KOTA DEPOK, JAWA BARAT 16431","ID_PROV":"32","PROVINSI":"JAWA BARAT","ID_KABKOT":"32.76","KABKOT":"KOTA DEPOK","ID_KEC":"32.76.01","KECAMATAN":"PANCORAN MAS","ID_DESA":"32.76.01.1006","DESA":"DEPOK","LONGITUDE":106.8256073,"LATITUDE":-6.3994718,"STATUS":"BUKA","TANGGAL PENGUMPULAN":"Q1 2024","TANGGAL UPDATE":"28/02/2025"}},{"type":"Feature","geometry":{"coordinates":[106.8134797,-6.3707209],"type":"Point"},"properties":{"NAMA":"POLI GIGI RUMAH SAKIT GRHA PERMATA IBU","TIPE_1":"KESEHATAN DAN PENGOBATAN","TIPE_2":"RUMAH SAKIT","TIPE_3":"RUMAH SAKIT GIGI","TELEPON":"0895-3537-27283","ALAMAT":"JL. K.H.M. USMAN NO.168, KUKUSAN, KECAMATAN BEJI, KOTA DEPOK, JAWA BARAT 16425","ID_PROV":"32","PROVINSI":"JAWA BARAT","ID_KABKOT":"32.76","KABKOT":"KOTA DEPOK","ID_KEC":"32.76.06","KECAMATAN":"BEJI","ID_DESA":"32.76.06.1002","DESA":"KUKUSAN","LONGITUDE":106.8134797,"LATITUDE":-6.3707209,"STATUS":"BUKA","TANGGAL PENGUMPULAN":"Q1 2024","TANGGAL UPDATE":"28/02/2025"}},{"type":"Feature","geometry":{"coordinates":[106.7671665,-6.3644409],"type":"Point"},"properties":{"NAMA":"POLI GIGI","TIPE_1":"KESEHATAN DAN PENGOBATAN","TIPE_2":"RUMAH SAKIT","TIPE_3":"RUMAH SAKIT GIGI","TELEPON":"(021) 74717471","ALAMAT":"BLOK E1, JL. KOMP. WISMA MAS BLOK A3 NO.23, PONDOK CABE UDIK, SAWANGAN, DEPOK CITY, WEST JAVA 16516","ID_PROV":"32","PROVINSI":"JAWA BARAT","ID_KABKOT":"32.76","KABKOT":"KOTA DEPOK","ID_KEC":"32.76.03","KECAMATAN":"SAWANGAN","ID_DESA":"32.76.03.1009","DESA":"CINANGKA","LONGITUDE":106.7671665,"LATITUDE":-6.3644409,"STATUS":"BUKA","TANGGAL PENGUMPULAN":"Q1 2024","TANGGAL UPDATE":"28/02/2025"}},{"type":"Feature","geometry":{"coordinates":[106.8603373,-6.3564964],"type":"Point"},"properties":{"NAMA":"GIGI DAN MULUT RS TUGU IBU","TIPE_1":"KESEHATAN DAN PENGOBATAN","TIPE_2":"RUMAH SAKIT","TIPE_3":"RUMAH SAKIT GIGI","TELEPON":"","ALAMAT":"GIGI DAN MULUT, RW.5, MEKARSARI, KEC. CIMANGGIS, KOTA DEPOK, JAWA BARAT 16452","ID_PROV":"32","PROVINSI":"JAWA BARAT","ID_KABKOT":"32.76","KABKOT":"KOTA DEPOK","ID_KEC":"32.76.02","KECAMATAN":"CIMANGGIS","ID_DESA":"32.76.02.1010","DESA":"MEKARSARI","LONGITUDE":106.8603373,"LATITUDE":-6.3564964,"STATUS":"BUKA","TANGGAL PENGUMPULAN":"Q1 2024","TANGGAL UPDATE":"28/02/2025"}},{"type":"Feature","geometry":{"coordinates":[106.8603537,-6.3683404],"type":"Point"},"properties":{"NAMA":"RSIA SETYA BHAKTI","TIPE_1":"KESEHATAN DAN PENGOBATAN","TIPE_2":"RUMAH SAKIT","TIPE_3":"RUMAH SAKIT BERSALIN/IBU DAN ANAK","TELEPON":"(021) 8711518","ALAMAT":"JL. RAYA BOGOR NO.KM. 30, MEKARSARI, KEC. CIMANGGIS, KOTA DEPOK, JAWA BARAT 16953","ID_PROV":"32","PROVINSI":"JAWA BARAT","ID_KABKOT":"32.76","KABKOT":"KOTA DEPOK","ID_KEC":"32.76.02","KECAMATAN":"CIMANGGIS","ID_DESA":"32.76.02.1010","DESA":"MEKARSARI","LONGITUDE":106.8603537,"LATITUDE":-6.3683404,"STATUS":"BUKA","TANGGAL PENGUMPULAN":"Q1 2024","TANGGAL UPDATE":"28/02/2025"}},{"type":"Feature","geometry":{"coordinates":[106.8189177,-6.3689226],"type":"Point"},"properties":{"NAMA":"RSIA","TIPE_1":"KESEHATAN DAN PENGOBATAN","TIPE_2":"RUMAH SAKIT","TIPE_3":"RUMAH SAKIT BERSALIN/IBU DAN ANAK","TELEPON":"","ALAMAT":"JL. PALAKALI NO.10, KUKUSAN, KECAMATAN BEJI, KOTA DEPOK, JAWA BARAT 16425","ID_PROV":"32","PROVINSI":"JAWA BARAT","ID_KABKOT":"32.76","KABKOT":"KOTA DEPOK","ID_KEC":"32.76.06","KECAMATAN":"BEJI","ID_DESA":"32.76.06.1002","DESA":"KUKUSAN","LONGITUDE":106.8189177,"LATITUDE":-6.3689226,"STATUS":"BUKA","TANGGAL PENGUMPULAN":"Q1 2024","TANGGAL UPDATE":"28/02/2025"}},{"type":"Feature","geometry":{"coordinates":[106.8192192,-6.4054923],"type":"Point"},"properties":{"NAMA":"RSIA BUNDA ALIYAH","TIPE_1":"KESEHATAN DAN PENGOBATAN","TIPE_2":"RUMAH SAKIT","TIPE_3":"RUMAH SAKIT BERSALIN/IBU DAN ANAK","TELEPON":"","ALAMAT":"JL. PESONA ALAM RESIDENCE, DEPOK, KEC. PANCORAN MAS, KOTA DEPOK, JAWA BARAT 16431","ID_PROV":"32","PROVINSI":"JAWA BARAT","ID_KABKOT":"32.76","KABKOT":"KOTA DEPOK","ID_KEC":"32.76.01","KECAMATAN":"PANCORAN MAS","ID_DESA":"32.76.01.1006","DESA":"DEPOK","LONGITUDE":106.8192192,"LATITUDE":-6.4054923,"STATUS":"BUKA","TANGGAL PENGUMPULAN":"Q1 2024","TANGGAL UPDATE":"28/02/2025"}},{"type":"Feature","geometry":{"coordinates":[106.7713521,-6.3937863],"type":"Point"},"properties":{"NAMA":"RSIA AS-SYIFA MEDICAL CENTER PARUNG BINGUNG","TIPE_1":"KESEHATAN DAN PENGOBATAN","TIPE_2":"RUMAH SAKIT","TIPE_3":"RUMAH SAKIT BERSALIN/IBU DAN ANAK","TELEPON":"(021) 77883905","ALAMAT":"JL. CINERE RAYA NO.48, RANGKAPAN JAYA BARU, KEC. PANCORAN MAS, KOTA DEPOK, JAWA BARAT 16434","ID_PROV":"32","PROVINSI":"JAWA BARAT","ID_KABKOT":"32.76","KABKOT":"KOTA DEPOK","ID_KEC":"32.76.01","KECAMATAN":"PANCORAN MAS","ID_DESA":"32.76.01.1010","DESA":"RANGKAPAN JAYA BARU","LONGITUDE":106.7713521,"LATITUDE":-6.3937863,"STATUS":"BUKA","TANGGAL PENGUMPULAN":"Q1 2024","TANGGAL UPDATE":"28/02/2025"}},{"type":"Feature","geometry":{"coordinates":[106.7713527,-6.3938379],"type":"Point"},"properties":{"NAMA":"RSIA ASYIFA DEPOK","TIPE_1":"KESEHATAN DAN PENGOBATAN","TIPE_2":"RUMAH SAKIT","TIPE_3":"RUMAH SAKIT BERSALIN/IBU DAN ANAK","TELEPON":"(021) 77883905","ALAMAT":"JALAN RAYA CINERE - DEPOK. 9, RANGKAPAN JAYA BARU, KEC. PANCORAN MAS, KOTA DEPOK, JAWA BARAT 16434","ID_PROV":"32","PROVINSI":"JAWA BARAT","ID_KABKOT":"32.76","KABKOT":"KOTA DEPOK","ID_KEC":"32.76.01","KECAMATAN":"PANCORAN MAS","ID_DESA":"32.76.01.1010","DESA":"RANGKAPAN JAYA BARU","LONGITUDE":106.7713527,"LATITUDE":-6.3938379,"STATUS":"BUKA","TANGGAL PENGUMPULAN":"Q1 2024","TANGGAL UPDATE":"28/02/2025"}},{"type":"Feature","geometry":{"coordinates":[106.8062036,-6.3975597],"type":"Point"},"properties":{"NAMA":"POLI JANTUNG","TIPE_1":"KESEHATAN DAN PENGOBATAN","TIPE_2":"RUMAH SAKIT","TIPE_3":"RUMAH SAKIT JANTUNG","TELEPON":"","ALAMAT":"PANCORAN MAS, KEC. PANCORAN MAS, KOTA DEPOK, JAWA BARAT 16436","ID_PROV":"32","PROVINSI":"JAWA BARAT","ID_KABKOT":"32.76","KABKOT":"KOTA DEPOK","ID_KEC":"32.76.01","KECAMATAN":"PANCORAN MAS","ID_DESA":"32.76.01.1008","DESA":"PANCORAN MAS","LONGITUDE":106.8062036,"LATITUDE":-6.3975597,"STATUS":"BUKA","TANGGAL PENGUMPULAN":"Q1 2024","TANGGAL UPDATE":"28/02/2025"}},{"type":"Feature","geometry":{"coordinates":[106.8342927,-6.3652453],"type":"Point"},"properties":{"NAMA":"POLIKLINIK PENYAKIT JANTUNG","TIPE_1":"KESEHATAN DAN PENGOBATAN","TIPE_2":"RUMAH SAKIT","TIPE_3":"RUMAH SAKIT JANTUNG","TELEPON":"","ALAMAT":"PONDOK CINA, KECAMATAN BEJI, KOTA DEPOK, JAWA BARAT 16424","ID_PROV":"32","PROVINSI":"JAWA BARAT","ID_KABKOT":"32.76","KABKOT":"KOTA DEPOK","ID_KEC":"32.76.06","KECAMATAN":"BEJI","ID_DESA":"32.76.06.1005","DESA":"PONDOK CINA","LONGITUDE":106.8342927,"LATITUDE":-6.3652453,"STATUS":"BUKA","TANGGAL PENGUMPULAN":"Q1 2024","TANGGAL UPDATE":"28/02/2025"}},{"type":"Feature","geometry":{"coordinates":[106.7831377,-6.3216091],"type":"Point"},"properties":{"NAMA":"RUMAH SAKIT SILOAM JANTUNG DIAGRAM - CINERE","TIPE_1":"KESEHATAN DAN PENGOBATAN","TIPE_2":"RUMAH SAKIT","TIPE_3":"RUMAH SAKIT JANTUNG","TELEPON":"(021) 50900100","ALAMAT":"JL. CINERE RAYA NO.19, PANGKALAN JATI, KEC. CINERE, KOTA DEPOK, JAWA BARAT 16514","ID_PROV":"32","PROVINSI":"JAWA BARAT","ID_KABKOT":"32.76","KABKOT":"KOTA DEPOK","ID_KEC":"32.76.09","KECAMATAN":"CINERE","ID_DESA":"32.76.09.1003","DESA":"PANGKALAN JATI","LONGITUDE":106.7831377,"LATITUDE":-6.3216091,"STATUS":"BUKA","TANGGAL PENGUMPULAN":"Q1 2024","TANGGAL UPDATE":"28/02/2025"}},{"type":"Feature","geometry":{"coordinates":[106.813364,-6.370343],"type":"Point"},"properties":{"NAMA":"POLIKLINIK MATA","TIPE_1":"KESEHATAN DAN PENGOBATAN","TIPE_2":"RUMAH SAKIT","TIPE_3":"RUMAH SAKIT MATA","TELEPON":"(021) 7778899","ALAMAT":"JL. K.H.M. USMAN NO.168, KUKUSAN, KECAMATAN BEJI, KOTA DEPOK, JAWA BARAT 16425","ID_PROV":"32","PROVINSI":"JAWA BARAT","ID_KABKOT":"32.76","KABKOT":"KOTA DEPOK","ID_KEC":"32.76.06","KECAMATAN":"BEJI","ID_DESA":"32.76.06.1002","DESA":"KUKUSAN","LONGITUDE":106.813364,"LATITUDE":-6.370343,"STATUS":"BUKA","TANGGAL PENGUMPULAN":"Q1 2024","TANGGAL UPDATE":"28/02/2025"}},{"type":"Feature","geometry":{"coordinates":[106.8656361,-6.3909815],"type":"Point"},"properties":{"NAMA":"POLI ORTHOPEDI LT. 4 RS SENTRA MEDIKA CISALAK","TIPE_1":"KESEHATAN DAN PENGOBATAN","TIPE_2":"RUMAH SAKIT","TIPE_3":"RUMAH SAKIT TULANG","TELEPON":"","ALAMAT":"JL. RAYA BOGOR KM 33, CISALAK, KEC. SUKMAJAYA, KOTA DEPOK, JAWA BARAT 16416","ID_PROV":"32","PROVINSI":"JAWA BARAT","ID_KABKOT":"32.76","KABKOT":"KOTA DEPOK","ID_KEC":"32.76.05","KECAMATAN":"SUKMAJAYA","ID_DESA":"32.76.05.1008","DESA":"CISALAK","LONGITUDE":106.8656361,"LATITUDE":-6.3909815,"STATUS":"BUKA","TANGGAL PENGUMPULAN":"Q1 2024","TANGGAL UPDATE":"28/02/2025"}},{"type":"Feature","geometry":{"coordinates":[106.813364,-6.370343],"type":"Point"},"properties":{"NAMA":"POLIKLINIK ORTHOPEDI","TIPE_1":"KESEHATAN DAN PENGOBATAN","TIPE_2":"RUMAH SAKIT","TIPE_3":"RUMAH SAKIT TULANG","TELEPON":"(021) 7778899","ALAMAT":"JL. K.H.M. USMAN NO.168, KUKUSAN, KECAMATAN BEJI, KOTA DEPOK, JAWA BARAT 16425","ID_PROV":"32","PROVINSI":"JAWA BARAT","ID_KABKOT":"32.76","KABKOT":"KOTA DEPOK","ID_KEC":"32.76.06","KECAMATAN":"BEJI","ID_DESA":"32.76.06.1002","DESA":"KUKUSAN","LONGITUDE":106.813364,"LATITUDE":-6.370343,"STATUS":"BUKA","TANGGAL PENGUMPULAN":"Q1 2024","TANGGAL UPDATE":"28/02/2025"}},{"type":"Feature","geometry":{"coordinates":[106.8062034,-6.3975594],"type":"Point"},"properties":{"NAMA":"POLI ORTHOPEDI","TIPE_1":"KESEHATAN DAN PENGOBATAN","TIPE_2":"RUMAH SAKIT","TIPE_3":"RUMAH SAKIT TULANG","TELEPON":"","ALAMAT":"PANCORAN MAS, KEC. PANCORAN MAS, KOTA DEPOK, JAWA BARAT 16436","ID_PROV":"32","PROVINSI":"JAWA BARAT","ID_KABKOT":"32.76","KABKOT":"KOTA DEPOK","ID_KEC":"32.76.01","KECAMATAN":"PANCORAN MAS","ID_DESA":"32.76.01.1008","DESA":"PANCORAN MAS","LONGITUDE":106.8062034,"LATITUDE":-6.3975594,"STATUS":"BUKA","TANGGAL PENGUMPULAN":"Q1 2024","TANGGAL UPDATE":"28/02/2025"}},{"type":"Feature","geometry":{"coordinates":[106.8242861,-6.394475],"type":"Point"},"properties":{"NAMA":"RUMAH SAKIT MITRA KELUARGA DEPOK","TIPE_1":"KESEHATAN DAN PENGOBATAN","TIPE_2":"RUMAH SAKIT","TIPE_3":"RUMAH SAKIT UMUM SWASTA","TELEPON":"(021) 77210700","ALAMAT":"JL. MARGONDA, DEPOK, KEC. PANCORAN MAS, KOTA DEPOK, JAWA BARAT 16424","ID_PROV":"32","PROVINSI":"JAWA BARAT","ID_KABKOT":"32.76","KABKOT":"KOTA DEPOK","ID_KEC":"32.76.01","KECAMATAN":"PANCORAN MAS","ID_DESA":"32.76.01.1006","DESA":"DEPOK","LONGITUDE":106.8242861,"LATITUDE":-6.394475,"STATUS":"BUKA","TANGGAL PENGUMPULAN":"Q1 2024","TANGGAL UPDATE":"28/02/2025"}},{"type":"Feature","geometry":{"coordinates":[106.9019758,-6.3765352],"type":"Point"},"properties":{"NAMA":"RUMAH SAKIT MEILIA","TIPE_1":"KESEHATAN DAN PENGOBATAN","TIPE_2":"RUMAH SAKIT","TIPE_3":"RUMAH SAKIT UMUM SWASTA","TELEPON":"(021) 8444444","ALAMAT":"JL. ALTERNATIF CIBUBUR NO.1, HARJAMUKTI, KEC. CIMANGGIS, KOTA DEPOK, JAWA BARAT 16454","ID_PROV":"32","PROVINSI":"JAWA BARAT","ID_KABKOT":"32.76","KABKOT":"KOTA DEPOK","ID_KEC":"32.76.02","KECAMATAN":"CIMANGGIS","ID_DESA":"32.76.02.1007","DESA":"HARJAMUKTI","LONGITUDE":106.9019758,"LATITUDE":-6.3765352,"STATUS":"BUKA","TANGGAL PENGUMPULAN":"Q1 2024","TANGGAL UPDATE":"28/02/2025"}},{"type":"Feature","geometry":{"coordinates":[106.8493159,-6.3548214],"type":"Point"},"properties":{"NAMA":"RS. BHAYANGKARA BRIMOB","TIPE_1":"KESEHATAN DAN PENGOBATAN","TIPE_2":"RUMAH SAKIT","TIPE_3":"RUMAH SAKIT UMUM DAERAH/NEGERI","TELEPON":"0811-1082-334","ALAMAT":"JL. KOMJEN.POL.M.JASIN, PASIR GN. SEL., KEC. CIMANGGIS, KOTA DEPOK, JAWA BARAT 16451","ID_PROV":"32","PROVINSI":"JAWA BARAT","ID_KABKOT":"32.76","KABKOT":"KOTA DEPOK","ID_KEC":"32.76.02","KECAMATAN":"CIMANGGIS","ID_DESA":"32.76.02.1011","DESA":"PASIR GUNUNG SELATAN","LONGITUDE":106.8493159,"LATITUDE":-6.3548214,"STATUS":"BUKA","TANGGAL PENGUMPULAN":"Q1 2024","TANGGAL UPDATE":"28/02/2025"}},{"type":"Feature","geometry":{"coordinates":[106.758249,-6.4034489],"type":"Point"},"properties":{"NAMA":"RSUD KOTA DEPOK - MANAJEMEN","TIPE_1":"KESEHATAN DAN PENGOBATAN","TIPE_2":"RUMAH SAKIT","TIPE_3":"RUMAH SAKIT UMUM DAERAH/NEGERI","TELEPON":"","ALAMAT":"JL. RAYA MUCHTAR NO.99, SAWANGAN LAMA, KEC. SAWANGAN, KOTA DEPOK, JAWA BARAT 16517","ID_PROV":"32","PROVINSI":"JAWA BARAT","ID_KABKOT":"32.76","KABKOT":"KOTA DEPOK","ID_KEC":"32.76.03","KECAMATAN":"SAWANGAN","ID_DESA":"32.76.03.1010","DESA":"SAWANGAN","LONGITUDE":106.758249,"LATITUDE":-6.4034489,"STATUS":"BUKA","TANGGAL PENGUMPULAN":"Q1 2024","TANGGAL UPDATE":"28/02/2025"}},{"type":"Feature","geometry":{"coordinates":[106.7521397,-6.4381417],"type":"Point"},"properties":{"NAMA":"RUMAH SAKIT CITRA ARAFIQ SAWANGAN","TIPE_1":"KESEHATAN DAN PENGOBATAN","TIPE_2":"RUMAH SAKIT","TIPE_3":"RUMAH SAKIT UMUM SWASTA","TELEPON":"(0251) 8608999","ALAMAT":"JL. KEMANG DALAM 2, RT.003/RW.004, DUREN SERIBU, BOJONG SARI, KOTA DEPOK, JAWA BARAT 16518","ID_PROV":"32","PROVINSI":"JAWA BARAT","ID_KABKOT":"32.76","KABKOT":"KOTA DEPOK","ID_KEC":"32.76.11","KECAMATAN":"BOJONGSARI","ID_DESA":"32.76.11.1007","DESA":"DUREN SERIBU","LONGITUDE":106.7521397,"LATITUDE":-6.4381417,"STATUS":"BUKA","TANGGAL PENGUMPULAN":"Q1 2024","TANGGAL UPDATE":"28/02/2025"}},{"type":"Feature","geometry":{"coordinates":[106.8137352,-6.370701],"type":"Point"},"properties":{"NAMA":"RUMAH SAKIT GRHA PERMATA IBU","TIPE_1":"KESEHATAN DAN PENGOBATAN","TIPE_2":"RUMAH SAKIT","TIPE_3":"RUMAH SAKIT UMUM SWASTA","TELEPON":"(021) 7778899","ALAMAT":"JL. K.H.M. USMAN NO.168, KUKUSAN, KECAMATAN BEJI, KOTA DEPOK, JAWA BARAT 16425","ID_PROV":"32","PROVINSI":"JAWA BARAT","ID_KABKOT":"32.76","KABKOT":"KOTA DEPOK","ID_KEC":"32.76.06","KECAMATAN":"BEJI","ID_DESA":"32.76.06.1002","DESA":"KUKUSAN","LONGITUDE":106.8137352,"LATITUDE":-6.370701,"STATUS":"BUKA","TANGGAL PENGUMPULAN":"Q1 2024","TANGGAL UPDATE":"28/02/2025"}},{"type":"Feature","geometry":{"coordinates":[106.8199999,-6.40273],"type":"Point"},"properties":{"NAMA":"RUMAH SAKIT HARAPAN DEPOK","TIPE_1":"KESEHATAN DAN PENGOBATAN","TIPE_2":"RUMAH SAKIT","TIPE_3":"RUMAH SAKIT UMUM SWASTA","TELEPON":"(021) 7520009","ALAMAT":"JL. PEMUDA NO.10, DEPOK, KEC. PANCORAN MAS, KOTA DEPOK, JAWA BARAT 16431","ID_PROV":"32","PROVINSI":"JAWA BARAT","ID_KABKOT":"32.76","KABKOT":"KOTA DEPOK","ID_KEC":"32.76.01","KECAMATAN":"PANCORAN MAS","ID_DESA":"32.76.01.1006","DESA":"DEPOK","LONGITUDE":106.8199999,"LATITUDE":-6.40273,"STATUS":"BUKA","TANGGAL PENGUMPULAN":"Q1 2024","TANGGAL UPDATE":"28/02/2025"}},{"type":"Feature","geometry":{"coordinates":[106.834655,-6.3654022],"type":"Point"},"properties":{"NAMA":"RSU BUNDA MARGONDA","TIPE_1":"KESEHATAN DAN PENGOBATAN","TIPE_2":"RUMAH SAKIT","TIPE_3":"RUMAH SAKIT UMUM SWASTA","TELEPON":"(021) 78890551","ALAMAT":"JL. MARGONDA NO.28, PONDOK CINA, KECAMATAN BEJI, KOTA DEPOK, JAWA BARAT 16424","ID_PROV":"32","PROVINSI":"JAWA BARAT","ID_KABKOT":"32.76","KABKOT":"KOTA DEPOK","ID_KEC":"32.76.06","KECAMATAN":"BEJI","ID_DESA":"32.76.06.1005","DESA":"PONDOK CINA","LONGITUDE":106.834655,"LATITUDE":-6.3654022,"STATUS":"BUKA","TANGGAL PENGUMPULAN":"Q1 2024","TANGGAL UPDATE":"28/02/2025"}},{"type":"Feature","geometry":{"coordinates":[106.825183,-6.3999115],"type":"Point"},"properties":{"NAMA":"RSU HERMINA DEPOK","TIPE_1":"KESEHATAN DAN PENGOBATAN","TIPE_2":"RUMAH SAKIT","TIPE_3":"RUMAH SAKIT UMUM SWASTA","TELEPON":"(021) 1500488","ALAMAT":"JL. SILIWANGI NO.50, DEPOK, KEC. PANCORAN MAS, KOTA DEPOK, JAWA BARAT 16436","ID_PROV":"32","PROVINSI":"JAWA BARAT","ID_KABKOT":"32.76","KABKOT":"KOTA DEPOK","ID_KEC":"32.76.01","KECAMATAN":"PANCORAN MAS","ID_DESA":"32.76.01.1006","DESA":"DEPOK","LONGITUDE":106.825183,"LATITUDE":-6.3999115,"STATUS":"BUKA","TANGGAL PENGUMPULAN":"Q1 2024","TANGGAL UPDATE":"28/02/2025"}},{"type":"Feature","geometry":{"coordinates":[106.8406327,-6.4082994],"type":"Point"},"properties":{"NAMA":"RSU. HASANAH GRAHA AFIAH","TIPE_1":"KESEHATAN DAN PENGOBATAN","TIPE_2":"RUMAH SAKIT","TIPE_3":"RUMAH SAKIT UMUM SWASTA","TELEPON":"(021) 77826276","ALAMAT":"JL. RADEN SALEH NO.42, SUKMAJAYA, KEC. SUKMAJAYA, KOTA DEPOK, JAWA BARAT 16412","ID_PROV":"32","PROVINSI":"JAWA BARAT","ID_KABKOT":"32.76","KABKOT":"KOTA DEPOK","ID_KEC":"32.76.05","KECAMATAN":"SUKMAJAYA","ID_DESA":"32.76.05.1001","DESA":"SUKMAJAYA","LONGITUDE":106.8406327,"LATITUDE":-6.4082994,"STATUS":"BUKA","TANGGAL PENGUMPULAN":"Q1 2024","TANGGAL UPDATE":"28/02/2025"}},{"type":"Feature","geometry":{"coordinates":[106.7700361,-6.4016508],"type":"Point"},"properties":{"NAMA":"RS PERMATA DEPOK","TIPE_1":"KESEHATAN DAN PENGOBATAN","TIPE_2":"RUMAH SAKIT","TIPE_3":"RUMAH SAKIT UMUM SWASTA","TELEPON":"(021) 29669000","ALAMAT":"JL. RAYA MUCHTAR NO.22, SAWANGAN BARU, KEC. SAWANGAN, KOTA DEPOK, JAWA BARAT 16511","ID_PROV":"32","PROVINSI":"JAWA BARAT","ID_KABKOT":"32.76","KABKOT":"KOTA DEPOK","ID_KEC":"32.76.03","KECAMATAN":"SAWANGAN","ID_DESA":"32.76.03.1011","DESA":"SAWANGAN BARU","LONGITUDE":106.7700361,"LATITUDE":-6.4016508,"STATUS":"BUKA","TANGGAL PENGUMPULAN":"Q1 2024","TANGGAL UPDATE":"28/02/2025"}},{"type":"Feature","geometry":{"coordinates":[106.7704341,-6.4017181],"type":"Point"},"properties":{"NAMA":"RS PERMATA DEPOK","TIPE_1":"KESEHATAN DAN PENGOBATAN","TIPE_2":"RUMAH SAKIT","TIPE_3":"RUMAH SAKIT UMUM SWASTA","TELEPON":"(021) 29669000","ALAMAT":"JL. RAYA MUCHTAR NO.22, SAWANGAN BARU, KEC. SAWANGAN, KOTA DEPOK, JAWA BARAT 16511","ID_PROV":"32","PROVINSI":"JAWA BARAT","ID_KABKOT":"32.76","KABKOT":"KOTA DEPOK","ID_KEC":"32.76.03","KECAMATAN":"SAWANGAN","ID_DESA":"32.76.03.1011","DESA":"SAWANGAN BARU","LONGITUDE":106.7704341,"LATITUDE":-6.4017181,"STATUS":"BUKA","TANGGAL PENGUMPULAN":"Q1 2024","TANGGAL UPDATE":"28/02/2025"}},{"type":"Feature","geometry":{"coordinates":[106.7584868,-6.4037005],"type":"Point"},"properties":{"NAMA":"RSUD KHIDMAT SEHAT AFIAT (KISA) KOTA DEPOK","TIPE_1":"KESEHATAN DAN PENGOBATAN","TIPE_2":"RUMAH SAKIT","TIPE_3":"RUMAH SAKIT UMUM DAERAH/NEGERI","TELEPON":"(0251) 8602514","ALAMAT":"JL. RAYA MUCHTAR NO.99, SAWANGAN LAMA, KEC. SAWANGAN, KOTA DEPOK, JAWA BARAT 16511","ID_PROV":"32","PROVINSI":"JAWA BARAT","ID_KABKOT":"32.76","KABKOT":"KOTA DEPOK","ID_KEC":"32.76.03","KECAMATAN":"SAWANGAN","ID_DESA":"32.76.03.1010","DESA":"SAWANGAN","LONGITUDE":106.7584868,"LATITUDE":-6.4037005,"STATUS":"BUKA","TANGGAL PENGUMPULAN":"Q1 2024","TANGGAL UPDATE":"28/02/2025"}},{"type":"Feature","geometry":{"coordinates":[106.9018741,-6.3773084],"type":"Point"},"properties":{"NAMA":"RS MELIA , POLI BEDAH","TIPE_1":"KESEHATAN DAN PENGOBATAN","TIPE_2":"RUMAH SAKIT","TIPE_3":"RUMAH SAKIT UMUM SWASTA","TELEPON":"","ALAMAT":"HARJAMUKTI, KEC. CIMANGGIS, KOTA DEPOK, JAWA BARAT 16454","ID_PROV":"32","PROVINSI":"JAWA BARAT","ID_KABKOT":"32.76","KABKOT":"KOTA DEPOK","ID_KEC":"32.76.02","KECAMATAN":"CIMANGGIS","ID_DESA":"32.76.02.1007","DESA":"HARJAMUKTI","LONGITUDE":106.9018741,"LATITUDE":-6.3773084,"STATUS":"BUKA","TANGGAL PENGUMPULAN":"Q1 2024","TANGGAL UPDATE":"28/02/2025"}},{"type":"Feature","geometry":{"coordinates":[106.8654632,-6.3908062],"type":"Point"},"properties":{"NAMA":"RS SENTRA MEDIKA CISALAK - DEPOK","TIPE_1":"KESEHATAN DAN PENGOBATAN","TIPE_2":"RUMAH SAKIT","TIPE_3":"RUMAH SAKIT UMUM SWASTA","TELEPON":"(021) 8743790","ALAMAT":"JL. RAYA JAKARTA-BOGOR NO.KM. 33, CISALAK, KEC. SUKMAJAYA, KOTA DEPOK, JAWA BARAT 16416","ID_PROV":"32","PROVINSI":"JAWA BARAT","ID_KABKOT":"32.76","KABKOT":"KOTA DEPOK","ID_KEC":"32.76.05","KECAMATAN":"SUKMAJAYA","ID_DESA":"32.76.05.1008","DESA":"CISALAK","LONGITUDE":106.8654632,"LATITUDE":-6.3908062,"STATUS":"BUKA","TANGGAL PENGUMPULAN":"Q1 2024","TANGGAL UPDATE":"28/02/2025"}},{"type":"Feature","geometry":{"coordinates":[106.8406744,-6.4083095],"type":"Point"},"properties":{"NAMA":"RS. HASANAH GRAHA AFIAH PARKIR MOTOR","TIPE_1":"KESEHATAN DAN PENGOBATAN","TIPE_2":"RUMAH SAKIT","TIPE_3":"RUMAH SAKIT UMUM SWASTA","TELEPON":"","ALAMAT":"JL. RADEN SALEH NO.42, SUKMAJAYA, KEC. SUKMAJAYA, KOTA DEPOK, JAWA BARAT 16412","ID_PROV":"32","PROVINSI":"JAWA BARAT","ID_KABKOT":"32.76","KABKOT":"KOTA DEPOK","ID_KEC":"32.76.05","KECAMATAN":"SUKMAJAYA","ID_DESA":"32.76.05.1001","DESA":"SUKMAJAYA","LONGITUDE":106.8406744,"LATITUDE":-6.4083095,"STATUS":"BUKA","TANGGAL PENGUMPULAN":"Q1 2024","TANGGAL UPDATE":"28/02/2025"}},{"type":"Feature","geometry":{"coordinates":[106.8511011,-6.407657],"type":"Point"},"properties":{"NAMA":"PRIMAYA HOSPITAL DEPOK","TIPE_1":"KESEHATAN DAN PENGOBATAN","TIPE_2":"RUMAH SAKIT","TIPE_3":"RUMAH SAKIT UMUM SWASTA","TELEPON":"1 500 007","ALAMAT":"JL. H. DIMUN RAYA, RT.001/RW.024, SUKAMAJU, KEC. CILODONG, KOTA DEPOK, JAWA BARAT 16415","ID_PROV":"32","PROVINSI":"JAWA BARAT","ID_KABKOT":"32.76","KABKOT":"KOTA DEPOK","ID_KEC":"32.76.08","KECAMATAN":"CILODONG","ID_DESA":"32.76.08.1001","DESA":"SUKAMAJU","LONGITUDE":106.8511011,"LATITUDE":-6.407657,"STATUS":"BUKA","TANGGAL PENGUMPULAN":"Q1 2024","TANGGAL UPDATE":"28/02/2025"}},{"type":"Feature","geometry":{"coordinates":[106.819321,-6.4054921],"type":"Point"},"properties":{"NAMA":"ALIA HOSPITAL DEPOK","TIPE_1":"KESEHATAN DAN PENGOBATAN","TIPE_2":"RUMAH SAKIT","TIPE_3":"RUMAH SAKIT UMUM SWASTA","TELEPON":"(021) 30409000","ALAMAT":"JL. KARTINI NO.2, DEPOK, KEC. PANCORAN MAS, KOTA DEPOK, JAWA BARAT 16431","ID_PROV":"32","PROVINSI":"JAWA BARAT","ID_KABKOT":"32.76","KABKOT":"KOTA DEPOK","ID_KEC":"32.76.01","KECAMATAN":"PANCORAN MAS","ID_DESA":"32.76.01.1006","DESA":"DEPOK","LONGITUDE":106.819321,"LATITUDE":-6.4054921,"STATUS":"BUKA","TANGGAL PENGUMPULAN":"Q1 2024","TANGGAL UPDATE":"28/02/2025"}},{"type":"Feature","geometry":{"coordinates":[106.8450743,-6.3724599],"type":"Point"},"properties":{"NAMA":"RS GRIYA MEDIKA DEPOK","TIPE_1":"KESEHATAN DAN PENGOBATAN","TIPE_2":"RUMAH SAKIT","TIPE_3":"RUMAH SAKIT UMUM SWASTA","TELEPON":"","ALAMAT":"JL. PD. MELATI I NO.52, BAKTI JAYA, KEC. SUKMAJAYA, KOTA DEPOK, JAWA BARAT 16418","ID_PROV":"32","PROVINSI":"JAWA BARAT","ID_KABKOT":"32.76","KABKOT":"KOTA DEPOK","ID_KEC":"32.76.02","KECAMATAN":"CIMANGGIS","ID_DESA":"32.76.02.1009","DESA":"TUGU","LONGITUDE":106.8450743,"LATITUDE":-6.3724599,"STATUS":"BUKA","TANGGAL PENGUMPULAN":"Q1 2024","TANGGAL UPDATE":"28/02/2025"}},{"type":"Feature","geometry":{"coordinates":[106.8232661,-6.4272774],"type":"Point"},"properties":{"NAMA":"RS CITRA MEDIKA DEPOK","TIPE_1":"KESEHATAN DAN PENGOBATAN","TIPE_2":"RUMAH SAKIT","TIPE_3":"RUMAH SAKIT UMUM SWASTA","TELEPON":"(021) 29671000","ALAMAT":"JL. RAYA KALIMULYA NO.68, KALIMULYA, KEC. CILODONG, KOTA DEPOK, JAWA BARAT 16413","ID_PROV":"32","PROVINSI":"JAWA BARAT","ID_KABKOT":"32.76","KABKOT":"KOTA DEPOK","ID_KEC":"32.76.08","KECAMATAN":"CILODONG","ID_DESA":"32.76.08.1004","DESA":"KALIMULYA","LONGITUDE":106.8232661,"LATITUDE":-6.4272774,"STATUS":"BUKA","TANGGAL PENGUMPULAN":"Q1 2024","TANGGAL UPDATE":"28/02/2025"}},{"type":"Feature","geometry":{"coordinates":[106.8438401,-6.3729065],"type":"Point"},"properties":{"NAMA":"RS CITRA ARAFIQ KELAPADUA","TIPE_1":"KESEHATAN DAN PENGOBATAN","TIPE_2":"RUMAH SAKIT","TIPE_3":"RUMAH SAKIT UMUM SWASTA","TELEPON":"(021) 22820743","ALAMAT":"JL. H. NADIH NO.53, BAKTI JAYA, KEC. SUKMAJAYA, KOTA DEPOK, JAWA BARAT 16418","ID_PROV":"32","PROVINSI":"JAWA BARAT","ID_KABKOT":"32.76","KABKOT":"KOTA DEPOK","ID_KEC":"32.76.05","KECAMATAN":"SUKMAJAYA","ID_DESA":"32.76.05.1005","DESA":"BAKTIJAYA","LONGITUDE":106.8438401,"LATITUDE":-6.3729065,"STATUS":"BUKA","TANGGAL PENGUMPULAN":"Q1 2024","TANGGAL UPDATE":"28/02/2025"}},{"type":"Feature","geometry":{"coordinates":[106.8063284,-6.3976536],"type":"Point"},"properties":{"NAMA":"RSU.BHAKTI YUDHA","TIPE_1":"KESEHATAN DAN PENGOBATAN","TIPE_2":"RUMAH SAKIT","TIPE_3":"RUMAH SAKIT UMUM SWASTA","TELEPON":"(021) 7520082","ALAMAT":"JL. RAYA SAWANGAN NO.2, PANCORAN MAS, KEC. PANCORAN MAS, KOTA DEPOK, JAWA BARAT 16436","ID_PROV":"32","PROVINSI":"JAWA BARAT","ID_KABKOT":"32.76","KABKOT":"KOTA DEPOK","ID_KEC":"32.76.01","KECAMATAN":"PANCORAN MAS","ID_DESA":"32.76.01.1008","DESA":"PANCORAN MAS","LONGITUDE":106.8063284,"LATITUDE":-6.3976536,"STATUS":"BUKA","TANGGAL PENGUMPULAN":"Q1 2024","TANGGAL UPDATE":"28/02/2025"}},{"type":"Feature","geometry":{"coordinates":[106.8295121,-6.3730182],"type":"Point"},"properties":{"NAMA":"RUMAH SAKIT UNIVERSITAS INDONESIA (RSUI)","TIPE_1":"KESEHATAN DAN PENGOBATAN","TIPE_2":"RUMAH SAKIT","TIPE_3":"RUMAH SAKIT UMUM DAERAH/NEGERI","TELEPON":"(021) 50829292","ALAMAT":"JL. PROF. DR. BAHDER DJOHAN, PONDOK CINA, KECAMATAN BEJI, KOTA DEPOK, JAWA BARAT 16424","ID_PROV":"32","PROVINSI":"JAWA BARAT","ID_KABKOT":"32.76","KABKOT":"KOTA DEPOK","ID_KEC":"32.76.06","KECAMATAN":"BEJI","ID_DESA":"32.76.06.1005","DESA":"PONDOK CINA","LONGITUDE":106.8295121,"LATITUDE":-6.3730182,"STATUS":"BUKA","TANGGAL PENGUMPULAN":"Q1 2024","TANGGAL UPDATE":"28/02/2025"}},{"type":"Feature","geometry":{"coordinates":[106.8289475,-6.3729538],"type":"Point"},"properties":{"NAMA":"RUMAH SAKIT UNIVERSITAS INDONESIA (RSUI)","TIPE_1":"KESEHATAN DAN PENGOBATAN","TIPE_2":"RUMAH SAKIT","TIPE_3":"RUMAH SAKIT UMUM DAERAH/NEGERI","TELEPON":"(021) 50829292","ALAMAT":"JL. PROF. DR. BAHDER DJOHAN, PONDOK CINA, KECAMATAN BEJI, KOTA DEPOK, JAWA BARAT 16424","ID_PROV":"32","PROVINSI":"JAWA BARAT","ID_KABKOT":"32.76","KABKOT":"KOTA DEPOK","ID_KEC":"32.76.06","KECAMATAN":"BEJI","ID_DESA":"32.76.06.1005","DESA":"PONDOK CINA","LONGITUDE":106.8289475,"LATITUDE":-6.3729538,"STATUS":"BUKA","TANGGAL PENGUMPULAN":"Q1 2024","TANGGAL UPDATE":"28/02/2025"}},{"type":"Feature","geometry":{"coordinates":[106.822892,-6.392676],"type":"Point"},"properties":{"NAMA":"SIMULASI RS THE MEDICARE CENTER","TIPE_1":"KESEHATAN DAN PENGOBATAN","TIPE_2":"RUMAH SAKIT","TIPE_3":"RUMAH SAKIT UMUM SWASTA","TELEPON":"(021) 99202900","ALAMAT":"JL. MARGONDA NO.51, DEPOK, KEC. PANCORAN MAS, KOTA DEPOK, JAWA BARAT 16421","ID_PROV":"32","PROVINSI":"JAWA BARAT","ID_KABKOT":"32.76","KABKOT":"KOTA DEPOK","ID_KEC":"32.76.01","KECAMATAN":"PANCORAN MAS","ID_DESA":"32.76.01.1006","DESA":"DEPOK","LONGITUDE":106.822892,"LATITUDE":-6.392676,"STATUS":"BUKA","TANGGAL PENGUMPULAN":"Q1 2024","TANGGAL UPDATE":"28/02/2025"}},{"type":"Feature","geometry":{"coordinates":[106.7827699,-6.321864],"type":"Point"},"properties":{"NAMA":"RUMAH SAKIT PURI CINERE - GEDUNG A","TIPE_1":"KESEHATAN DAN PENGOBATAN","TIPE_2":"RUMAH SAKIT","TIPE_3":"RUMAH SAKIT UMUM SWASTA","TELEPON":"(021) 7545488","ALAMAT":"JL. MARIBAYA NO.1, PANGKALAN JATI, KEC. CINERE, KOTA DEPOK, JAWA BARAT 16514","ID_PROV":"32","PROVINSI":"JAWA BARAT","ID_KABKOT":"32.76","KABKOT":"KOTA DEPOK","ID_KEC":"32.76.09","KECAMATAN":"CINERE","ID_DESA":"32.76.09.1003","DESA":"PANGKALAN JATI","LONGITUDE":106.7827699,"LATITUDE":-6.321864,"STATUS":"BUKA","TANGGAL PENGUMPULAN":"Q1 2024","TANGGAL UPDATE":"28/02/2025"}},{"type":"Feature","geometry":{"coordinates":[106.860335,-6.3565145],"type":"Point"},"properties":{"NAMA":"RUMAH SAKIT TUGU IBU","TIPE_1":"KESEHATAN DAN PENGOBATAN","TIPE_2":"RUMAH SAKIT","TIPE_3":"RUMAH SAKIT UMUM SWASTA","TELEPON":"(021) 8710870","ALAMAT":"JL. RAYA JAKARTA-BOGOR NO.KM 29, MEKARSARI, KEC. CIMANGGIS, KOTA DEPOK, JAWA BARAT 16452","ID_PROV":"32","PROVINSI":"JAWA BARAT","ID_KABKOT":"32.76","KABKOT":"KOTA DEPOK","ID_KEC":"32.76.02","KECAMATAN":"CIMANGGIS","ID_DESA":"32.76.02.1010","DESA":"MEKARSARI","LONGITUDE":106.860335,"LATITUDE":-6.3565145,"STATUS":"BUKA","TANGGAL PENGUMPULAN":"Q1 2024","TANGGAL UPDATE":"28/02/2025"}},{"type":"Feature","geometry":{"coordinates":[106.8695182,-6.446521],"type":"Point"},"properties":{"NAMA":"RSUD ANUGERAH SEHAT AFIAT","TIPE_1":"KESEHATAN DAN PENGOBATAN","TIPE_2":"RUMAH SAKIT","TIPE_3":"RUMAH SAKIT UMUM DAERAH/NEGERI","TELEPON":"0821-2779-3853","ALAMAT":"JL. RAYA TAPOS NO.1, CIMPAEUN, KEC. TAPOS, KOTA DEPOK, JAWA BARAT 16459","ID_PROV":"32","PROVINSI":"JAWA BARAT","ID_KABKOT":"32.76","KABKOT":"KOTA DEPOK","ID_KEC":"32.76.10","KECAMATAN":"TAPOS","ID_DESA":"32.76.10.1007","DESA":"CIMPAEUN","LONGITUDE":106.8695182,"LATITUDE":-6.446521,"STATUS":"BUKA","TANGGAL PENGUMPULAN":"Q1 2024","TANGGAL UPDATE":"28/02/2025"}},{"type":"Feature","geometry":{"coordinates":[106.8694175,-6.4464599],"type":"Point"},"properties":{"NAMA":"RSUD DEPOK TIMUR","TIPE_1":"KESEHATAN DAN PENGOBATAN","TIPE_2":"RUMAH SAKIT","TIPE_3":"RUMAH SAKIT UMUM DAERAH/NEGERI","TELEPON":"","ALAMAT":"JL. RAYA TAPOS, CIMPAEUN, KEC. TAPOS, KOTA DEPOK, JAWA BARAT 16459","ID_PROV":"32","PROVINSI":"JAWA BARAT","ID_KABKOT":"32.76","KABKOT":"KOTA DEPOK","ID_KEC":"32.76.10","KECAMATAN":"TAPOS","ID_DESA":"32.76.10.1007","DESA":"CIMPAEUN","LONGITUDE":106.8694175,"LATITUDE":-6.4464599,"STATUS":"BUKA","TANGGAL PENGUMPULAN":"Q1 2024","TANGGAL UPDATE":"28/02/2025"}},{"type":"Feature","geometry":{"coordinates":[106.861791,-6.4086523],"type":"Point"},"properties":{"NAMA":"RUMAH SAKIT SIMPANGAN DEPOK","TIPE_1":"KESEHATAN DAN PENGOBATAN","TIPE_2":"RUMAH SAKIT","TIPE_3":"RUMAH SAKIT UMUM SWASTA","TELEPON":"(021) 8741549","ALAMAT":"JL. RAYA JAKARTA-BOGOR NO.36, SUKAMAJU, KEC. CILODONG, KOTA DEPOK, JAWA BARAT 16415","ID_PROV":"32","PROVINSI":"JAWA BARAT","ID_KABKOT":"32.76","KABKOT":"KOTA DEPOK","ID_KEC":"32.76.08","KECAMATAN":"CILODONG","ID_DESA":"32.76.08.1001","DESA":"SUKAMAJU","LONGITUDE":106.861791,"LATITUDE":-6.4086523,"STATUS":"BUKA","TANGGAL PENGUMPULAN":"Q1 2024","TANGGAL UPDATE":"28/02/2025"}},{"type":"Feature","geometry":{"coordinates":[106.7831377,-6.3216091],"type":"Point"},"properties":{"NAMA":"RUMAH SAKIT SILOAM JANTUNG DIAGRAM - CINERE","TIPE_1":"KESEHATAN DAN PENGOBATAN","TIPE_2":"RUMAH SAKIT","TIPE_3":"RUMAH SAKIT UMUM SWASTA","TELEPON":"(021) 50900100","ALAMAT":"JL. CINERE RAYA NO.19, PANGKALAN JATI, KEC. CINERE, KOTA DEPOK, JAWA BARAT 16514","ID_PROV":"32","PROVINSI":"JAWA BARAT","ID_KABKOT":"32.76","KABKOT":"KOTA DEPOK","ID_KEC":"32.76.09","KECAMATAN":"CINERE","ID_DESA":"32.76.09.1003","DESA":"PANGKALAN JATI","LONGITUDE":106.7831377,"LATITUDE":-6.3216091,"STATUS":"BUKA","TANGGAL PENGUMPULAN":"Q1 2024","TANGGAL UPDATE":"28/02/2025"}},{"type":"Feature","geometry":{"coordinates":[106.7766993,-6.3458802],"type":"Point"},"properties":{"NAMA":"RSPJ","TIPE_1":"KESEHATAN DAN PENGOBATAN","TIPE_2":"RUMAH SAKIT","TIPE_3":"RUMAH SAKIT UMUM DAERAH/NEGERI","TELEPON":"(021) 7535022","ALAMAT":"JL. CINERE RAYA NO.11B, CINERE, KEC. CINERE, KOTA DEPOK, JAWA BARAT 16514","ID_PROV":"32","PROVINSI":"JAWA BARAT","ID_KABKOT":"32.76","KABKOT":"KOTA DEPOK","ID_KEC":"32.76.09","KECAMATAN":"CINERE","ID_DESA":"32.76.09.1001","DESA":"CINERE","LONGITUDE":106.7766993,"LATITUDE":-6.3458802,"STATUS":"BUKA","TANGGAL PENGUMPULAN":"Q1 2024","TANGGAL UPDATE":"28/02/2025"}}]}