{"type":"FeatureCollection","features":[{"type":"Feature","geometry":{"coordinates":[106.8649193,-6.4806996],"type":"Point"},"properties":{"NAMA":"RS SENTRA MEDIKA POLIKLINIK ORTHODONTI","TIPE_1":"KESEHATAN DAN PENGOBATAN","TIPE_2":"RUMAH SAKIT","TIPE_3":"RUMAH SAKIT GIGI","TELEPON":"(021) 87909999","ALAMAT":"JAYA ATMAJA NO. 9 CIBINONG, JL. RAYA MAYOR OKING JAYA ATMAJA, CIBINONG, KEC. CIBINONG, KABUPATEN BOGOR, JAWA BARAT 16911","ID_PROV":"32","PROVINSI":"JAWA BARAT","ID_KABKOT":"32.01","KABKOT":"BOGOR","ID_KEC":"32.01.01","KECAMATAN":"CIBINONG","ID_DESA":"32.01.01.1006","DESA":"CIBINONG","LONGITUDE":106.8649193,"LATITUDE":-6.4806996,"STATUS":"BUKA","TANGGAL PENGUMPULAN":"Q1 2024","TANGGAL UPDATE":"28/02/2025"}},{"type":"Feature","geometry":{"coordinates":[106.8305947,-6.4732637],"type":"Point"},"properties":{"NAMA":"POLIKLINIK GIGI RSUD CIBINONG","TIPE_1":"KESEHATAN DAN PENGOBATAN","TIPE_2":"RUMAH SAKIT","TIPE_3":"RUMAH SAKIT GIGI","TELEPON":"","ALAMAT":"JL. KSR DADI KUSMAYADI NO.27, TENGAH, KEC. CIBINONG, KABUPATEN BOGOR, JAWA BARAT 16914","ID_PROV":"32","PROVINSI":"JAWA BARAT","ID_KABKOT":"32.01","KABKOT":"BOGOR","ID_KEC":"32.01.01","KECAMATAN":"CIBINONG","ID_DESA":"32.01.01.1008","DESA":"TENGAH","LONGITUDE":106.8305947,"LATITUDE":-6.4732637,"STATUS":"BUKA","TANGGAL PENGUMPULAN":"Q1 2024","TANGGAL UPDATE":"28/02/2025"}},{"type":"Feature","geometry":{"coordinates":[106.843529,-6.5001883],"type":"Point"},"properties":{"NAMA":"ASSALAM RUMAH SAKIT IBU DAN ANAK","TIPE_1":"KESEHATAN DAN PENGOBATAN","TIPE_2":"RUMAH SAKIT","TIPE_3":"RUMAH SAKIT BERSALIN/IBU DAN ANAK","TELEPON":"(021) 8753724","ALAMAT":"JL. RAYA BOGOR NO.KM.46,7, NANGGEWER MEKAR, KEC. CIBINONG, KABUPATEN BOGOR, JAWA BARAT 16912","ID_PROV":"32","PROVINSI":"JAWA BARAT","ID_KABKOT":"32.01","KABKOT":"BOGOR","ID_KEC":"32.01.01","KECAMATAN":"CIBINONG","ID_DESA":"32.01.01.1005","DESA":"NANGGEWER MEKAR","LONGITUDE":106.843529,"LATITUDE":-6.5001883,"STATUS":"BUKA","TANGGAL PENGUMPULAN":"Q1 2024","TANGGAL UPDATE":"28/02/2025"}},{"type":"Feature","geometry":{"coordinates":[106.9608615,-6.410203],"type":"Point"},"properties":{"NAMA":"RSIA KENARI GRAHA MEDIKA","TIPE_1":"KESEHATAN DAN PENGOBATAN","TIPE_2":"RUMAH SAKIT","TIPE_3":"RUMAH SAKIT BERSALIN/IBU DAN ANAK","TELEPON":"(021) 8230426","ALAMAT":"PERUMAHAN GRIYA KENARI MAS, JL. RAYA NAROGONG NO.KM, RW.22, CILEUNGSI KIDUL, KEC. CILEUNGSI, KABUPATEN BOGOR, JAWA BARAT 17136","ID_PROV":"32","PROVINSI":"JAWA BARAT","ID_KABKOT":"32.01","KABKOT":"BOGOR","ID_KEC":"32.01.07","KECAMATAN":"CILEUNGSI","ID_DESA":"32.01.07.2007","DESA":"CILEUNGSI KIDUL","LONGITUDE":106.9608615,"LATITUDE":-6.410203,"STATUS":"BUKA","TANGGAL PENGUMPULAN":"Q1 2024","TANGGAL UPDATE":"28/02/2025"}},{"type":"Feature","geometry":{"coordinates":[106.7329184,-6.4441775],"type":"Point"},"properties":{"NAMA":"RSIA CITRA INSANI","TIPE_1":"KESEHATAN DAN PENGOBATAN","TIPE_2":"RUMAH SAKIT","TIPE_3":"RUMAH SAKIT BERSALIN/IBU DAN ANAK","TELEPON":"(0251) 8611507","ALAMAT":"LEBAKWANGI, JL. RAYA PARUNG NO.242, PEMAGARSARI, KEC. PARUNG, KABUPATEN BOGOR, JAWA BARAT 16330","ID_PROV":"32","PROVINSI":"JAWA BARAT","ID_KABKOT":"32.01","KABKOT":"BOGOR","ID_KEC":"32.01.10","KECAMATAN":"PARUNG","ID_DESA":"32.01.10.2006","DESA":"PAMEGARSARI","LONGITUDE":106.7329184,"LATITUDE":-6.4441775,"STATUS":"BUKA","TANGGAL PENGUMPULAN":"Q1 2024","TANGGAL UPDATE":"28/02/2025"}},{"type":"Feature","geometry":{"coordinates":[106.8658469,-6.4804642],"type":"Point"},"properties":{"NAMA":"RS SENTRA MEDIKA POLIKLINIK JANTUNG DAN PEMBULUH DARAH","TIPE_1":"KESEHATAN DAN PENGOBATAN","TIPE_2":"RUMAH SAKIT","TIPE_3":"RUMAH SAKIT JANTUNG","TELEPON":"(021) 87909999","ALAMAT":"JAYA ATMAJA, JL. RAYA MAYOR OKING JAYA ATMAJA NO.9, CIBINONG, KEC. CIBINONG, KABUPATEN BOGOR, JAWA BARAT 16911","ID_PROV":"32","PROVINSI":"JAWA BARAT","ID_KABKOT":"32.01","KABKOT":"BOGOR","ID_KEC":"32.01.01","KECAMATAN":"CIBINONG","ID_DESA":"32.01.01.1006","DESA":"CIBINONG","LONGITUDE":106.8658469,"LATITUDE":-6.4804642,"STATUS":"BUKA","TANGGAL PENGUMPULAN":"Q1 2024","TANGGAL UPDATE":"28/02/2025"}},{"type":"Feature","geometry":{"coordinates":[106.9695023,-6.399787],"type":"Point"},"properties":{"NAMA":"RUMAH SAKIT MERI","TIPE_1":"KESEHATAN DAN PENGOBATAN","TIPE_2":"RUMAH SAKIT","TIPE_3":"RUMAH SAKIT UMUM SWASTA","TELEPON":"","ALAMAT":"JL. UGD RS MARY CILEUNGSI, CILEUNGSI, KEC. CILEUNGSI, KABUPATEN BOGOR, JAWA BARAT 16820","ID_PROV":"32","PROVINSI":"JAWA BARAT","ID_KABKOT":"32.01","KABKOT":"BOGOR","ID_KEC":"32.01.07","KECAMATAN":"CILEUNGSI","ID_DESA":"32.01.07.2012","DESA":"CILEUNGSI","LONGITUDE":106.9695023,"LATITUDE":-6.399787,"STATUS":"BUKA","TANGGAL PENGUMPULAN":"Q1 2024","TANGGAL UPDATE":"28/02/2025"}},{"type":"Feature","geometry":{"coordinates":[107.0535592,-6.4380792],"type":"Point"},"properties":{"NAMA":"RUMAH SAKIT PERMATA JONGGOL","TIPE_1":"KESEHATAN DAN PENGOBATAN","TIPE_2":"RUMAH SAKIT","TIPE_3":"RUMAH SAKIT UMUM SWASTA","TELEPON":"(021) 89931222","ALAMAT":"JL. RAYA JONGGOL NO.1A, SUKAMANAH, KEC. JONGGOL, KABUPATEN BOGOR, JAWA BARAT 16830","ID_PROV":"32","PROVINSI":"JAWA BARAT","ID_KABKOT":"32.01","KABKOT":"BOGOR","ID_KEC":"32.01.06","KECAMATAN":"JONGGOL","ID_DESA":"32.01.06.2006","DESA":"SUKAMANAH","LONGITUDE":107.0535592,"LATITUDE":-6.4380792,"STATUS":"BUKA","TANGGAL PENGUMPULAN":"Q1 2024","TANGGAL UPDATE":"28/02/2025"}},{"type":"Feature","geometry":{"coordinates":[106.7607877,-6.5490176],"type":"Point"},"properties":{"NAMA":"RSAU SEMPLAK","TIPE_1":"KESEHATAN DAN PENGOBATAN","TIPE_2":"RUMAH SAKIT","TIPE_3":"RUMAH SAKIT UMUM DAERAH/NEGERI","TELEPON":"","ALAMAT":"MASJID AL HIKMAH, JALAN, RT.01/RW.10, SEMPLAK, KEC. BOGOR BAR., KOTA BOGOR, JAWA BARAT 16114","ID_PROV":"32","PROVINSI":"JAWA BARAT","ID_KABKOT":"32.01","KABKOT":"BOGOR","ID_KEC":"32.01.12","KECAMATAN":"KEMANG","ID_DESA":"32.01.12.1006","DESA":"ATANG SENJAYA","LONGITUDE":106.7607877,"LATITUDE":-6.5490176,"STATUS":"BUKA","TANGGAL PENGUMPULAN":"Q1 2024","TANGGAL UPDATE":"28/02/2025"}},{"type":"Feature","geometry":{"coordinates":[106.7622654,-6.5446627],"type":"Point"},"properties":{"NAMA":"RSAU ATANG SANJAYA","TIPE_1":"KESEHATAN DAN PENGOBATAN","TIPE_2":"RUMAH SAKIT","TIPE_3":"RUMAH SAKIT UMUM DAERAH/NEGERI","TELEPON":"(0251) 7535983","ALAMAT":"ATANG SENJAYA, KEC. KEMANG, KABUPATEN BOGOR, JAWA BARAT 16310","ID_PROV":"32","PROVINSI":"JAWA BARAT","ID_KABKOT":"32.01","KABKOT":"BOGOR","ID_KEC":"32.01.12","KECAMATAN":"KEMANG","ID_DESA":"32.01.12.1006","DESA":"ATANG SENJAYA","LONGITUDE":106.7622654,"LATITUDE":-6.5446627,"STATUS":"BUKA","TANGGAL PENGUMPULAN":"Q1 2024","TANGGAL UPDATE":"28/02/2025"}},{"type":"Feature","geometry":{"coordinates":[106.8472639,-6.4745453],"type":"Point"},"properties":{"NAMA":"RS. TRIMITRA","TIPE_1":"KESEHATAN DAN PENGOBATAN","TIPE_2":"RUMAH SAKIT","TIPE_3":"RUMAH SAKIT UMUM SWASTA","TELEPON":"(021) 8763055","ALAMAT":"JL. RAYA JAKARTA-BOGOR NO.KM. 43, PABUARAN, KEC. CIBINONG, KABUPATEN BOGOR, JAWA BARAT 16916","ID_PROV":"32","PROVINSI":"JAWA BARAT","ID_KABKOT":"32.01","KABKOT":"BOGOR","ID_KEC":"32.01.01","KECAMATAN":"CIBINONG","ID_DESA":"32.01.01.1012","DESA":"PABUARAN","LONGITUDE":106.8472639,"LATITUDE":-6.4745453,"STATUS":"BUKA","TANGGAL PENGUMPULAN":"Q1 2024","TANGGAL UPDATE":"28/02/2025"}},{"type":"Feature","geometry":{"coordinates":[106.8859051,-6.4736558],"type":"Point"},"properties":{"NAMA":"RUMAH SAKIT PARAGON","TIPE_1":"KESEHATAN DAN PENGOBATAN","TIPE_2":"RUMAH SAKIT","TIPE_3":"RUMAH SAKIT UMUM SWASTA","TELEPON":"(021) 87946611","ALAMAT":"JALAN MAYOR OKING JAYA ATMAJA KAMPUNG KAMURANG, RT.002/RW.006, PUSPANEGARA, KEC. CITEUREUP, KABUPATEN BOGOR, JAWA BARAT 16810","ID_PROV":"32","PROVINSI":"JAWA BARAT","ID_KABKOT":"32.01","KABKOT":"BOGOR","ID_KEC":"32.01.03","KECAMATAN":"CITEUREUP","ID_DESA":"32.01.03.1006","DESA":"PUSPANEGARA","LONGITUDE":106.8859051,"LATITUDE":-6.4736558,"STATUS":"BUKA","TANGGAL PENGUMPULAN":"Q1 2024","TANGGAL UPDATE":"28/02/2025"}},{"type":"Feature","geometry":{"coordinates":[106.8049215,-6.5092047],"type":"Point"},"properties":{"NAMA":"RUMAH SAKIT ISLAM AYSHA","TIPE_1":"KESEHATAN DAN PENGOBATAN","TIPE_2":"RUMAH SAKIT","TIPE_3":"RUMAH SAKIT UMUM SWASTA","TELEPON":"(0251) 8663689","ALAMAT":"JALAN ACROPOLIS UTARA, RT.06/RW.18, KARADENAN, KEC. CIBINONG, KABUPATEN BOGOR, JAWA BARAT 16913","ID_PROV":"32","PROVINSI":"JAWA BARAT","ID_KABKOT":"32.01","KABKOT":"BOGOR","ID_KEC":"32.01.01","KECAMATAN":"CIBINONG","ID_DESA":"32.01.01.1002","DESA":"KARADENAN","LONGITUDE":106.8049215,"LATITUDE":-6.5092047,"STATUS":"BUKA","TANGGAL PENGUMPULAN":"Q1 2024","TANGGAL UPDATE":"28/02/2025"}},{"type":"Feature","geometry":{"coordinates":[106.7382742,-6.5693829],"type":"Point"},"properties":{"NAMA":"RUMAH SAKIT KARYA BHAKTI PRATIWI","TIPE_1":"KESEHATAN DAN PENGOBATAN","TIPE_2":"RUMAH SAKIT","TIPE_3":"RUMAH SAKIT UMUM SWASTA","TELEPON":"(0251) 8626868","ALAMAT":"JL. RAYA DRAMAGA KM.7, DRAMAGA, KEC. DRAMAGA, KABUPATEN BOGOR, JAWA BARAT 16880","ID_PROV":"32","PROVINSI":"JAWA BARAT","ID_KABKOT":"32.01","KABKOT":"BOGOR","ID_KEC":"32.01.30","KECAMATAN":"DRAMAGA","ID_DESA":"32.01.30.2009","DESA":"DRAMAGA","LONGITUDE":106.7382742,"LATITUDE":-6.5693829,"STATUS":"BUKA","TANGGAL PENGUMPULAN":"Q1 2024","TANGGAL UPDATE":"28/02/2025"}},{"type":"Feature","geometry":{"coordinates":[106.6908496,-6.4187576],"type":"Point"},"properties":{"NAMA":"RSUD PARUNG","TIPE_1":"KESEHATAN DAN PENGOBATAN","TIPE_2":"RUMAH SAKIT","TIPE_3":"RUMAH SAKIT UMUM DAERAH/NEGERI","TELEPON":"0851-7691-2722","ALAMAT":"JL. RAYA PAHLAWAN DESA, RT.06/RW.07, COGREG, KEC. PARUNG, KABUPATEN BOGOR, JAWA BARAT 16330","ID_PROV":"32","PROVINSI":"JAWA BARAT","ID_KABKOT":"32.01","KABKOT":"BOGOR","ID_KEC":"32.01.10","KECAMATAN":"PARUNG","ID_DESA":"32.01.10.2005","DESA":"COGREG","LONGITUDE":106.6908496,"LATITUDE":-6.4187576,"STATUS":"BUKA","TANGGAL PENGUMPULAN":"Q1 2024","TANGGAL UPDATE":"28/02/2025"}},{"type":"Feature","geometry":{"coordinates":[106.762339,-6.544467],"type":"Point"},"properties":{"NAMA":"RUMAH SAKIT LANUD ATANG SANJAYA","TIPE_1":"KESEHATAN DAN PENGOBATAN","TIPE_2":"RUMAH SAKIT","TIPE_3":"RUMAH SAKIT UMUM DAERAH/NEGERI","TELEPON":"","ALAMAT":"ATANG SENJAYA, KEC. KEMANG, KABUPATEN BOGOR, JAWA BARAT 16310","ID_PROV":"32","PROVINSI":"JAWA BARAT","ID_KABKOT":"32.01","KABKOT":"BOGOR","ID_KEC":"32.01.12","KECAMATAN":"KEMANG","ID_DESA":"32.01.12.1006","DESA":"ATANG SENJAYA","LONGITUDE":106.762339,"LATITUDE":-6.544467,"STATUS":"BUKA","TANGGAL PENGUMPULAN":"Q1 2024","TANGGAL UPDATE":"28/02/2025"}},{"type":"Feature","geometry":{"coordinates":[106.8537562,-6.5672536],"type":"Point"},"properties":{"NAMA":"RUMAH SAKIT EMC SENTUL","TIPE_1":"KESEHATAN DAN PENGOBATAN","TIPE_2":"RUMAH SAKIT","TIPE_3":"RUMAH SAKIT UMUM SWASTA","TELEPON":"150789","ALAMAT":"SENTUL CITY, JL. MH. THAMRIN NO.KAV. 57, CITARINGGUL, KEC. BABAKAN MADANG, KABUPATEN BOGOR, JAWA BARAT 16810","ID_PROV":"32","PROVINSI":"JAWA BARAT","ID_KABKOT":"32.01","KABKOT":"BOGOR","ID_KEC":"32.01.05","KECAMATAN":"BABAKAN MADANG","ID_DESA":"32.01.05.2007","DESA":"CITARINGGUL","LONGITUDE":106.8537562,"LATITUDE":-6.5672536,"STATUS":"BUKA","TANGGAL PENGUMPULAN":"Q1 2024","TANGGAL UPDATE":"28/02/2025"}},{"type":"Feature","geometry":{"coordinates":[106.8319868,-6.4745836],"type":"Point"},"properties":{"NAMA":"RSUD CIKARET","TIPE_1":"KESEHATAN DAN PENGOBATAN","TIPE_2":"RUMAH SAKIT","TIPE_3":"RUMAH SAKIT UMUM DAERAH/NEGERI","TELEPON":"","ALAMAT":"UNNAMED ROAD, TENGAH, KEC. CIBINONG, KABUPATEN BOGOR, JAWA BARAT 16914","ID_PROV":"32","PROVINSI":"JAWA BARAT","ID_KABKOT":"32.01","KABKOT":"BOGOR","ID_KEC":"32.01.01","KECAMATAN":"CIBINONG","ID_DESA":"32.01.01.1008","DESA":"TENGAH","LONGITUDE":106.8319868,"LATITUDE":-6.4745836,"STATUS":"BUKA","TANGGAL PENGUMPULAN":"Q1 2024","TANGGAL UPDATE":"28/02/2025"}},{"type":"Feature","geometry":{"coordinates":[106.8525856,-6.6605556],"type":"Point"},"properties":{"NAMA":"RSUD CIAWI PINTU MASUK","TIPE_1":"KESEHATAN DAN PENGOBATAN","TIPE_2":"RUMAH SAKIT","TIPE_3":"RUMAH SAKIT UMUM DAERAH/NEGERI","TELEPON":"","ALAMAT":"BENDUNGAN, KEC. CIAWI, KABUPATEN BOGOR, JAWA BARAT 16720","ID_PROV":"32","PROVINSI":"JAWA BARAT","ID_KABKOT":"32.01","KABKOT":"BOGOR","ID_KEC":"32.01.24","KECAMATAN":"CIAWI","ID_DESA":"32.01.24.2008","DESA":"BENDUNGAN","LONGITUDE":106.8525856,"LATITUDE":-6.6605556,"STATUS":"BUKA","TANGGAL PENGUMPULAN":"Q1 2024","TANGGAL UPDATE":"28/02/2025"}},{"type":"Feature","geometry":{"coordinates":[106.8305429,-6.4733135],"type":"Point"},"properties":{"NAMA":"RSUD CIBINONG BOGOR","TIPE_1":"KESEHATAN DAN PENGOBATAN","TIPE_2":"RUMAH SAKIT","TIPE_3":"RUMAH SAKIT UMUM DAERAH/NEGERI","TELEPON":"(021) 8753487","ALAMAT":"JL. KSR DADI KUSMAYADI NO.27, TENGAH, KEC. CIBINONG, KABUPATEN BOGOR, JAWA BARAT 16914","ID_PROV":"32","PROVINSI":"JAWA BARAT","ID_KABKOT":"32.01","KABKOT":"BOGOR","ID_KEC":"32.01.01","KECAMATAN":"CIBINONG","ID_DESA":"32.01.01.1008","DESA":"TENGAH","LONGITUDE":106.8305429,"LATITUDE":-6.4733135,"STATUS":"BUKA","TANGGAL PENGUMPULAN":"Q1 2024","TANGGAL UPDATE":"28/02/2025"}},{"type":"Feature","geometry":{"coordinates":[106.8300961,-6.4734023],"type":"Point"},"properties":{"NAMA":"RSUD CIBINONG PINTU UTAMA","TIPE_1":"KESEHATAN DAN PENGOBATAN","TIPE_2":"RUMAH SAKIT","TIPE_3":"RUMAH SAKIT UMUM DAERAH/NEGERI","TELEPON":"","ALAMAT":"JL. KSR DADI KUSMAYADI NO.28, TENGAH, KEC. CIBINONG, KABUPATEN BOGOR, JAWA BARAT 16914","ID_PROV":"32","PROVINSI":"JAWA BARAT","ID_KABKOT":"32.01","KABKOT":"BOGOR","ID_KEC":"32.01.01","KECAMATAN":"CIBINONG","ID_DESA":"32.01.01.1008","DESA":"TENGAH","LONGITUDE":106.8300961,"LATITUDE":-6.4734023,"STATUS":"BUKA","TANGGAL PENGUMPULAN":"Q1 2024","TANGGAL UPDATE":"28/02/2025"}},{"type":"Feature","geometry":{"coordinates":[106.82785,-6.534385],"type":"Point"},"properties":{"NAMA":"RUMAH SAKIT FMC","TIPE_1":"KESEHATAN DAN PENGOBATAN","TIPE_2":"RUMAH SAKIT","TIPE_3":"RUMAH SAKIT UMUM SWASTA","TELEPON":"(0251) 8665000","ALAMAT":"JL. RAYA JAKARTA-BOGOR NO.KM. 51, CIMANDALA, KEC. SUKARAJA, KABUPATEN BOGOR, JAWA BARAT 16710","ID_PROV":"32","PROVINSI":"JAWA BARAT","ID_KABKOT":"32.01","KABKOT":"BOGOR","ID_KEC":"32.01.04","KECAMATAN":"SUKARAJA","ID_DESA":"32.01.04.2010","DESA":"CIMANDALA","LONGITUDE":106.82785,"LATITUDE":-6.534385,"STATUS":"BUKA","TANGGAL PENGUMPULAN":"Q1 2024","TANGGAL UPDATE":"28/02/2025"}},{"type":"Feature","geometry":{"coordinates":[106.8305568,-6.4724534],"type":"Point"},"properties":{"NAMA":"RSU CIBINPNG","TIPE_1":"KESEHATAN DAN PENGOBATAN","TIPE_2":"RUMAH SAKIT","TIPE_3":"RUMAH SAKIT UMUM DAERAH/NEGERI","TELEPON":"","ALAMAT":"JL. KSR DADI KUSMAYADI, TENGAH, KEC. CIBINONG, KABUPATEN BOGOR, JAWA BARAT 16914","ID_PROV":"32","PROVINSI":"JAWA BARAT","ID_KABKOT":"32.01","KABKOT":"BOGOR","ID_KEC":"32.01.01","KECAMATAN":"CIBINONG","ID_DESA":"32.01.01.1008","DESA":"TENGAH","LONGITUDE":106.8305568,"LATITUDE":-6.4724534,"STATUS":"BUKA","TANGGAL PENGUMPULAN":"Q1 2024","TANGGAL UPDATE":"28/02/2025"}},{"type":"Feature","geometry":{"coordinates":[106.6890245,-6.3801941],"type":"Point"},"properties":{"NAMA":"RS PENA 98","TIPE_1":"KESEHATAN DAN PENGOBATAN","TIPE_2":"RUMAH SAKIT","TIPE_3":"RUMAH SAKIT UMUM SWASTA","TELEPON":"(021) 75685446","ALAMAT":"JL. PEMUDA NO.36, RT.001/RW.007, PENGASINAN, KEC. GN. SINDUR, KABUPATEN BOGOR, JAWA BARAT 16340","ID_PROV":"32","PROVINSI":"JAWA BARAT","ID_KABKOT":"32.01","KABKOT":"BOGOR","ID_KEC":"32.01.11","KECAMATAN":"GUNUNG SINDUR","ID_DESA":"32.01.11.2003","DESA":"PENGASINAN","LONGITUDE":106.6890245,"LATITUDE":-6.3801941,"STATUS":"BUKA","TANGGAL PENGUMPULAN":"Q1 2024","TANGGAL UPDATE":"28/02/2025"}},{"type":"Feature","geometry":{"coordinates":[106.9706437,-6.3754288],"type":"Point"},"properties":{"NAMA":"RS MH THAMRIN CILEUNGSI-RADJAK HOSPITAL","TIPE_1":"KESEHATAN DAN PENGOBATAN","TIPE_2":"RUMAH SAKIT","TIPE_3":"RUMAH SAKIT UMUM SWASTA","TELEPON":"(021) 8235052","ALAMAT":"JL. RAYA NAROGONG, LIMUS NUNGGAL, KEC. CILEUNGSI, KABUPATEN BOGOR, JAWA BARAT 16820","ID_PROV":"32","PROVINSI":"JAWA BARAT","ID_KABKOT":"32.01","KABKOT":"BOGOR","ID_KEC":"32.01.07","KECAMATAN":"CILEUNGSI","ID_DESA":"32.01.07.2011","DESA":"LIMUSNUNGGAL","LONGITUDE":106.9706437,"LATITUDE":-6.3754288,"STATUS":"BUKA","TANGGAL PENGUMPULAN":"Q1 2024","TANGGAL UPDATE":"28/02/2025"}},{"type":"Feature","geometry":{"coordinates":[106.7286865,-6.4726387],"type":"Point"},"properties":{"NAMA":"RS. RST DOMPET DHUAFA","TIPE_1":"KESEHATAN DAN PENGOBATAN","TIPE_2":"RUMAH SAKIT","TIPE_3":"RUMAH SAKIT UMUM SWASTA","TELEPON":"(0251) 8618651","ALAMAT":"JL. RAYA PARUNG NO.KM 42, JAMPANG, KEC. KEMANG, KABUPATEN BOGOR, JAWA BARAT 16310","ID_PROV":"32","PROVINSI":"JAWA BARAT","ID_KABKOT":"32.01","KABKOT":"BOGOR","ID_KEC":"32.01.12","KECAMATAN":"KEMANG","ID_DESA":"32.01.12.2007","DESA":"JAMPANG","LONGITUDE":106.7286865,"LATITUDE":-6.4726387,"STATUS":"BUKA","TANGGAL PENGUMPULAN":"Q1 2024","TANGGAL UPDATE":"28/02/2025"}},{"type":"Feature","geometry":{"coordinates":[106.8052666,-6.4811048],"type":"Point"},"properties":{"NAMA":"RS. HARAPAN SEHATI","TIPE_1":"KESEHATAN DAN PENGOBATAN","TIPE_2":"RUMAH SAKIT","TIPE_3":"RUMAH SAKIT UMUM SWASTA","TELEPON":"(021) 87972380","ALAMAT":"JL. TEGAR BERIMAN NO.9F, BOJONG BARU, KECAMATAN BOJONGGEDE, KABUPATEN BOGOR, JAWA BARAT 16920","ID_PROV":"32","PROVINSI":"JAWA BARAT","ID_KABKOT":"32.01","KABKOT":"BOGOR","ID_KEC":"32.01.13","KECAMATAN":"BOJONG GEDE","ID_DESA":"32.01.13.2001","DESA":"BOJONGBARU","LONGITUDE":106.8052666,"LATITUDE":-6.4811048,"STATUS":"BUKA","TANGGAL PENGUMPULAN":"Q1 2024","TANGGAL UPDATE":"28/02/2025"}},{"type":"Feature","geometry":{"coordinates":[106.7512175,-6.4950955],"type":"Point"},"properties":{"NAMA":"RS SENTOSA","TIPE_1":"KESEHATAN DAN PENGOBATAN","TIPE_2":"RUMAH SAKIT","TIPE_3":"RUMAH SAKIT UMUM SWASTA","TELEPON":"(0251) 7541900","ALAMAT":"JL. BARU KEMANG NO.18, PD. UDIK, KEC. KEMANG, KABUPATEN BOGOR, JAWA BARAT 16310","ID_PROV":"32","PROVINSI":"JAWA BARAT","ID_KABKOT":"32.01","KABKOT":"BOGOR","ID_KEC":"32.01.12","KECAMATAN":"KEMANG","ID_DESA":"32.01.12.2008","DESA":"PONDOK UDIK","LONGITUDE":106.7512175,"LATITUDE":-6.4950955,"STATUS":"BUKA","TANGGAL PENGUMPULAN":"Q1 2024","TANGGAL UPDATE":"28/02/2025"}},{"type":"Feature","geometry":{"coordinates":[106.6276715,-6.574486],"type":"Point"},"properties":{"NAMA":"RSUD LEUWILIANG","TIPE_1":"KESEHATAN DAN PENGOBATAN","TIPE_2":"RUMAH SAKIT","TIPE_3":"RUMAH SAKIT UMUM DAERAH/NEGERI","TELEPON":"(0251) 8643290","ALAMAT":"JL. RAYA CIBEBER NO.I, CIBEBER I, KEC. LEUWILIANG, KABUPATEN BOGOR, JAWA BARAT 16640","ID_PROV":"32","PROVINSI":"JAWA BARAT","ID_KABKOT":"32.01","KABKOT":"BOGOR","ID_KEC":"32.01.14","KECAMATAN":"LEUWILIANG","ID_DESA":"32.01.14.2009","DESA":"CIBEBER I","LONGITUDE":106.6276715,"LATITUDE":-6.574486,"STATUS":"BUKA","TANGGAL PENGUMPULAN":"Q1 2024","TANGGAL UPDATE":"28/02/2025"}},{"type":"Feature","geometry":{"coordinates":[106.8529888,-6.6602162],"type":"Point"},"properties":{"NAMA":"RUMAH SAKIT UMUM DAERAH CIAWI","TIPE_1":"KESEHATAN DAN PENGOBATAN","TIPE_2":"RUMAH SAKIT","TIPE_3":"RUMAH SAKIT UMUM DAERAH/NEGERI","TELEPON":"(0251) 8240797","ALAMAT":"JL. RAYA PUNCAK GADOG NO.479, BENDUNGAN, KEC. CIAWI, KABUPATEN BOGOR, JAWA BARAT 16720","ID_PROV":"32","PROVINSI":"JAWA BARAT","ID_KABKOT":"32.01","KABKOT":"BOGOR","ID_KEC":"32.01.24","KECAMATAN":"CIAWI","ID_DESA":"32.01.24.2008","DESA":"BENDUNGAN","LONGITUDE":106.8529888,"LATITUDE":-6.6602162,"STATUS":"BUKA","TANGGAL PENGUMPULAN":"Q1 2024","TANGGAL UPDATE":"28/02/2025"}},{"type":"Feature","geometry":{"coordinates":[107.0485798,-6.4328904],"type":"Point"},"properties":{"NAMA":"RSUD CILEUNGSI","TIPE_1":"KESEHATAN DAN PENGOBATAN","TIPE_2":"RUMAH SAKIT","TIPE_3":"RUMAH SAKIT UMUM DAERAH/NEGERI","TELEPON":"(021) 89934667","ALAMAT":"JL. RAYA CILEUNGSI - JONGGOL NO.KM. 10, CIPEUCANG, KEC. CILEUNGSI, KABUPATEN BOGOR, JAWA BARAT 16820","ID_PROV":"32","PROVINSI":"JAWA BARAT","ID_KABKOT":"32.01","KABKOT":"BOGOR","ID_KEC":"32.01.07","KECAMATAN":"CILEUNGSI","ID_DESA":"32.01.07.2008","DESA":"CIPEUCANG","LONGITUDE":107.0485798,"LATITUDE":-6.4328904,"STATUS":"BUKA","TANGGAL PENGUMPULAN":"Q1 2024","TANGGAL UPDATE":"28/02/2025"}},{"type":"Feature","geometry":{"coordinates":[106.625547,-6.570817],"type":"Point"},"properties":{"NAMA":"RS ASYSYIFAA","TIPE_1":"KESEHATAN DAN PENGOBATAN","TIPE_2":"RUMAH SAKIT","TIPE_3":"RUMAH SAKIT UMUM SWASTA","TELEPON":"(0251) 8641142","ALAMAT":"JL. RAYA LEUWILIANG, CIBEBER I, KEC. LEUWILIANG, KABUPATEN BOGOR, JAWA BARAT 16640","ID_PROV":"32","PROVINSI":"JAWA BARAT","ID_KABKOT":"32.01","KABKOT":"BOGOR","ID_KEC":"32.01.14","KECAMATAN":"LEUWILIANG","ID_DESA":"32.01.14.2001","DESA":"LEUWILIANG","LONGITUDE":106.625547,"LATITUDE":-6.570817,"STATUS":"BUKA","TANGGAL PENGUMPULAN":"Q1 2024","TANGGAL UPDATE":"28/02/2025"}},{"type":"Feature","geometry":{"coordinates":[106.9549913,-6.3847589],"type":"Point"},"properties":{"NAMA":"EKA HOSPITAL CIBUBUR","TIPE_1":"KESEHATAN DAN PENGOBATAN","TIPE_2":"RUMAH SAKIT","TIPE_3":"RUMAH SAKIT UMUM SWASTA","TELEPON":"(021) 50855555","ALAMAT":"JALAN RAYA KOTA WISATA KAV. V2, NAGRAK, KEC. GN. PUTRI, KABUPATEN BOGOR, JAWA BARAT 16967","ID_PROV":"32","PROVINSI":"JAWA BARAT","ID_KABKOT":"32.01","KABKOT":"BOGOR","ID_KEC":"32.01.02","KECAMATAN":"GUNUNG PUTRI","ID_DESA":"32.01.02.2009","DESA":"NAGRAK","LONGITUDE":106.9549913,"LATITUDE":-6.3847589,"STATUS":"BUKA","TANGGAL PENGUMPULAN":"Q1 2024","TANGGAL UPDATE":"28/02/2025"}},{"type":"Feature","geometry":{"coordinates":[106.7625363,-6.5437756],"type":"Point"},"properties":{"NAMA":"RSAU DR. M. HASSAN TOTO","TIPE_1":"KESEHATAN DAN PENGOBATAN","TIPE_2":"RUMAH SAKIT","TIPE_3":"RUMAH SAKIT UMUM DAERAH/NEGERI","TELEPON":"(0251) 7535976","ALAMAT":"JL. SARJIO NO.1, ATANG SENJAYA, KEC. KEMANG, KABUPATEN BOGOR, JAWA BARAT 16310","ID_PROV":"32","PROVINSI":"JAWA BARAT","ID_KABKOT":"32.01","KABKOT":"BOGOR","ID_KEC":"32.01.12","KECAMATAN":"KEMANG","ID_DESA":"32.01.12.1006","DESA":"ATANG SENJAYA","LONGITUDE":106.7625363,"LATITUDE":-6.5437756,"STATUS":"BUKA","TANGGAL PENGUMPULAN":"Q1 2024","TANGGAL UPDATE":"28/02/2025"}},{"type":"Feature","geometry":{"coordinates":[106.9768307,-6.4060477],"type":"Point"},"properties":{"NAMA":"RS HERMINA MEKARSARI","TIPE_1":"KESEHATAN DAN PENGOBATAN","TIPE_2":"RUMAH SAKIT","TIPE_3":"RUMAH SAKIT UMUM SWASTA","TELEPON":"(021) 29232525","ALAMAT":"JL. RAYA CILEUNGSI - JONGGOL NO.KM 1, CILEUNGSI KIDUL, KEC. CILEUNGSI, KABUPATEN BOGOR, JAWA BARAT 16820","ID_PROV":"32","PROVINSI":"JAWA BARAT","ID_KABKOT":"32.01","KABKOT":"BOGOR","ID_KEC":"32.01.07","KECAMATAN":"CILEUNGSI","ID_DESA":"32.01.07.2007","DESA":"CILEUNGSI KIDUL","LONGITUDE":106.9768307,"LATITUDE":-6.4060477,"STATUS":"BUKA","TANGGAL PENGUMPULAN":"Q1 2024","TANGGAL UPDATE":"28/02/2025"}},{"type":"Feature","geometry":{"coordinates":[106.8778602,-6.4870015],"type":"Point"},"properties":{"NAMA":"RS HELSA CITEUREUP","TIPE_1":"KESEHATAN DAN PENGOBATAN","TIPE_2":"RUMAH SAKIT","TIPE_3":"RUMAH SAKIT UMUM SWASTA","TELEPON":"(021) 8755433","ALAMAT":"JL. RAYA MAYOR OKING JAYA ATMAJA NO.92 A, KARANG ASEM BAR., KEC. CITEUREUP, KABUPATEN BOGOR, JAWA BARAT 16810","ID_PROV":"32","PROVINSI":"JAWA BARAT","ID_KABKOT":"32.01","KABKOT":"BOGOR","ID_KEC":"32.01.03","KECAMATAN":"CITEUREUP","ID_DESA":"32.01.03.1007","DESA":"KARANG ASEM BARAT","LONGITUDE":106.8778602,"LATITUDE":-6.4870015,"STATUS":"BUKA","TANGGAL PENGUMPULAN":"Q1 2024","TANGGAL UPDATE":"28/02/2025"}},{"type":"Feature","geometry":{"coordinates":[106.7966637,-6.4613154],"type":"Point"},"properties":{"NAMA":"RS CITAMA","TIPE_1":"KESEHATAN DAN PENGOBATAN","TIPE_2":"RUMAH SAKIT","TIPE_3":"RUMAH SAKIT UMUM SWASTA","TELEPON":"(021) 87985555","ALAMAT":"JL. PABUARAN NO.52, PABUARAN, KECAMATAN BOJONGGEDE, KABUPATEN BOGOR, JAWA BARAT 16320","ID_PROV":"32","PROVINSI":"JAWA BARAT","ID_KABKOT":"32.01","KABKOT":"BOGOR","ID_KEC":"32.01.13","KECAMATAN":"BOJONG GEDE","ID_DESA":"32.01.13.1007","DESA":"PABUARAN","LONGITUDE":106.7966637,"LATITUDE":-6.4613154,"STATUS":"BUKA","TANGGAL PENGUMPULAN":"Q1 2024","TANGGAL UPDATE":"28/02/2025"}},{"type":"Feature","geometry":{"coordinates":[106.9270253,-6.4548804],"type":"Point"},"properties":{"NAMA":"RUMAH SAKIT TH. THAMRIN","TIPE_1":"KESEHATAN DAN PENGOBATAN","TIPE_2":"RUMAH SAKIT","TIPE_3":"RUMAH SAKIT UMUM DAERAH/NEGERI","TELEPON":"","ALAMAT":"JL. RAYA NAROGONG, NAMBO, KEC. KLAPANUNGGAL, KABUPATEN BOGOR, JAWA BARAT 16710","ID_PROV":"32","PROVINSI":"JAWA BARAT","ID_KABKOT":"32.01","KABKOT":"BOGOR","ID_KEC":"32.01.32","KECAMATAN":"KLAPANUNGGAL","ID_DESA":"32.01.32.2006","DESA":"KEMBANG KUNING","LONGITUDE":106.9270253,"LATITUDE":-6.4548804,"STATUS":"BUKA","TANGGAL PENGUMPULAN":"Q1 2024","TANGGAL UPDATE":"28/02/2025"}},{"type":"Feature","geometry":{"coordinates":[106.969538,-6.399477],"type":"Point"},"properties":{"NAMA":"RUMAH SAKIT UMUM MARY CILEUNGSI","TIPE_1":"KESEHATAN DAN PENGOBATAN","TIPE_2":"RUMAH SAKIT","TIPE_3":"RUMAH SAKIT UMUM SWASTA","TELEPON":"(021) 82492222","ALAMAT":"JL. RAYA NAROGONG NO.KM. 21, CILEUNGSI, KEC. CILEUNGSI, KABUPATEN BOGOR, JAWA BARAT 16820","ID_PROV":"32","PROVINSI":"JAWA BARAT","ID_KABKOT":"32.01","KABKOT":"BOGOR","ID_KEC":"32.01.07","KECAMATAN":"CILEUNGSI","ID_DESA":"32.01.07.2012","DESA":"CILEUNGSI","LONGITUDE":106.969538,"LATITUDE":-6.399477,"STATUS":"BUKA","TANGGAL PENGUMPULAN":"Q1 2024","TANGGAL UPDATE":"28/02/2025"}},{"type":"Feature","geometry":{"coordinates":[106.864693,-6.480394],"type":"Point"},"properties":{"NAMA":"SENTRA MEDIKA HOSPITAL CIBINONG","TIPE_1":"KESEHATAN DAN PENGOBATAN","TIPE_2":"RUMAH SAKIT","TIPE_3":"RUMAH SAKIT UMUM SWASTA","TELEPON":"(021) 87909999","ALAMAT":"JL. RAYA MAYOR OKING JAYA ATMAJA NO.9, CIBINONG, KEC. CIBINONG, KABUPATEN BOGOR, JAWA BARAT 16911","ID_PROV":"32","PROVINSI":"JAWA BARAT","ID_KABKOT":"32.01","KABKOT":"BOGOR","ID_KEC":"32.01.01","KECAMATAN":"CIBINONG","ID_DESA":"32.01.01.1006","DESA":"CIBINONG","LONGITUDE":106.864693,"LATITUDE":-6.480394,"STATUS":"BUKA","TANGGAL PENGUMPULAN":"Q1 2024","TANGGAL UPDATE":"28/02/2025"}},{"type":"Feature","geometry":{"coordinates":[106.870493,-6.4825626],"type":"Point"},"properties":{"NAMA":"RUMAH SAKIT UMUM ANNISA","TIPE_1":"KESEHATAN DAN PENGOBATAN","TIPE_2":"RUMAH SAKIT","TIPE_3":"RUMAH SAKIT UMUM SWASTA","TELEPON":"(021) 8752628","ALAMAT":"JL. KARANGGAN MUDA NO.02, PUSPASARI, KEC. CITEUREUP, KABUPATEN BOGOR, JAWA BARAT 16810","ID_PROV":"32","PROVINSI":"JAWA BARAT","ID_KABKOT":"32.01","KABKOT":"BOGOR","ID_KEC":"32.01.03","KECAMATAN":"CITEUREUP","ID_DESA":"32.01.03.2001","DESA":"PUSPASARI","LONGITUDE":106.870493,"LATITUDE":-6.4825626,"STATUS":"BUKA","TANGGAL PENGUMPULAN":"Q1 2024","TANGGAL UPDATE":"28/02/2025"}},{"type":"Feature","geometry":{"coordinates":[106.9706006,-6.3966598],"type":"Point"},"properties":{"NAMA":"RUMAH SAKIT SISMADI, CILEUNGSI","TIPE_1":"KESEHATAN DAN PENGOBATAN","TIPE_2":"RUMAH SAKIT","TIPE_3":"RUMAH SAKIT UMUM SWASTA","TELEPON":"","ALAMAT":"JALAN RAYA NAROGONG KM. 20, RAWAHINGKIK, LIMUSNUNGGAL, CILEUNGSI, KEC. CILEUNGSI, KABUPATEN BOGOR, JAWA BARAT 16820","ID_PROV":"32","PROVINSI":"JAWA BARAT","ID_KABKOT":"32.01","KABKOT":"BOGOR","ID_KEC":"32.01.07","KECAMATAN":"CILEUNGSI","ID_DESA":"32.01.07.2011","DESA":"LIMUSNUNGGAL","LONGITUDE":106.9706006,"LATITUDE":-6.3966598,"STATUS":"BUKA","TANGGAL PENGUMPULAN":"Q1 2024","TANGGAL UPDATE":"28/02/2025"}}]}