{"type":"FeatureCollection","features":[{"type":"Feature","geometry":{"coordinates":[106.8815039,-6.1171359],"type":"Point"},"properties":{"NAMA":"RSIA SANTO YUSUF (METRO HOSPITALS GROUP)","TIPE_1":"KESEHATAN DAN PENGOBATAN","TIPE_2":"RUMAH SAKIT","TIPE_3":"RUMAH SAKIT BERSALIN/IBU DAN ANAK","TELEPON":"0812-1352-7461","ALAMAT":"JL. GANGGANG RAYA NO.9, RT.11/RW.1, SUNGAI BAMBU, KEC. TJ. PRIOK, JKT UTARA, DAERAH KHUSUS IBUKOTA JAKARTA 14140","ID_PROV":"31","PROVINSI":"DKI JAKARTA","ID_KABKOT":"31.72","KABKOT":"KOTA ADM. JAKARTA UTARA","ID_KEC":"31.72.02","KECAMATAN":"TANJUNG PRIOK","ID_DESA":"31.72.02.1004","DESA":"SUNGAI BAMBU","LONGITUDE":106.8815039,"LATITUDE":-6.1171359,"STATUS":"BUKA","TANGGAL PENGUMPULAN":"Q1 2024","TANGGAL UPDATE":"28/02/2025"}},{"type":"Feature","geometry":{"coordinates":[106.8824673,-6.121012],"type":"Point"},"properties":{"NAMA":"RSIA IBU & ANAK","TIPE_1":"KESEHATAN DAN PENGOBATAN","TIPE_2":"RUMAH SAKIT","TIPE_3":"RUMAH SAKIT BERSALIN/IBU DAN ANAK","TELEPON":"(021) 43931880","ALAMAT":"JL. GANGGANG RAYA NO.9 12, RT.12/RW.7, SUNGAI BAMBU, KEC. TJ. PRIOK, JKT UTARA, DAERAH KHUSUS IBUKOTA JAKARTA 14330","ID_PROV":"31","PROVINSI":"DKI JAKARTA","ID_KABKOT":"31.72","KABKOT":"KOTA ADM. JAKARTA UTARA","ID_KEC":"31.72.02","KECAMATAN":"TANJUNG PRIOK","ID_DESA":"31.72.02.1004","DESA":"SUNGAI BAMBU","LONGITUDE":106.8824673,"LATITUDE":-6.121012,"STATUS":"BUKA","TANGGAL PENGUMPULAN":"Q1 2024","TANGGAL UPDATE":"28/02/2025"}},{"type":"Feature","geometry":{"coordinates":[106.73882,-6.123397],"type":"Point"},"properties":{"NAMA":"RUMAH SAKIT IBU DAN ANAK GRAND FAMILY","TIPE_1":"KESEHATAN DAN PENGOBATAN","TIPE_2":"RUMAH SAKIT","TIPE_3":"RUMAH SAKIT BERSALIN/IBU DAN ANAK","TELEPON":"(021) 29673737","ALAMAT":"KOMPLEK ELANG LAUT BOULEVARD JL. PANTAI INDAH SELATAN NO.1 3, RT.3/RW.3, KAMAL MUARA, KEC. PENJARINGAN, JKT UTARA, DAERAH KHUSUS IBUKOTA JAKARTA 14470","ID_PROV":"31","PROVINSI":"DKI JAKARTA","ID_KABKOT":"31.72","KABKOT":"KOTA ADM. JAKARTA UTARA","ID_KEC":"31.72.01","KECAMATAN":"PENJARINGAN","ID_DESA":"31.72.01.1002","DESA":"KAMAL MUARA","LONGITUDE":106.73882,"LATITUDE":-6.123397,"STATUS":"BUKA","TANGGAL PENGUMPULAN":"Q1 2024","TANGGAL UPDATE":"28/02/2025"}},{"type":"Feature","geometry":{"coordinates":[106.7904892,-6.1336838],"type":"Point"},"properties":{"NAMA":"RUMAH SAKIT IBU DAN ANAK FAMILY","TIPE_1":"KESEHATAN DAN PENGOBATAN","TIPE_2":"RUMAH SAKIT","TIPE_3":"RUMAH SAKIT BERSALIN/IBU DAN ANAK","TELEPON":"(021) 6695066","ALAMAT":"JL. PLUIT MAS I NO.5A BLOK A. 2A, RT.1/RW.18, PEJAGALAN, KEC. PENJARINGAN, JKT UTARA, DAERAH KHUSUS IBUKOTA JAKARTA 14450","ID_PROV":"31","PROVINSI":"DKI JAKARTA","ID_KABKOT":"31.72","KABKOT":"KOTA ADM. JAKARTA UTARA","ID_KEC":"31.72.01","KECAMATAN":"PENJARINGAN","ID_DESA":"31.72.01.1004","DESA":"PEJAGALAN","LONGITUDE":106.7904892,"LATITUDE":-6.1336838,"STATUS":"BUKA","TANGGAL PENGUMPULAN":"Q1 2024","TANGGAL UPDATE":"28/02/2025"}},{"type":"Feature","geometry":{"coordinates":[106.88998,-6.109864],"type":"Point"},"properties":{"NAMA":"POLI JANTUNG RS. PORT MEDICAL CENTER","TIPE_1":"KESEHATAN DAN PENGOBATAN","TIPE_2":"RUMAH SAKIT","TIPE_3":"RUMAH SAKIT JANTUNG","TELEPON":"(021) 43902350","ALAMAT":"JL. ENGGANO NO. 10, TANJUNG PRIOK, JL. ENGGANO, RT.7/RW.16, TJ. PRIOK, KEC. TJ. PRIOK, JKT UTARA, DAERAH KHUSUS IBUKOTA JAKARTA 14310","ID_PROV":"31","PROVINSI":"DKI JAKARTA","ID_KABKOT":"31.72","KABKOT":"KOTA ADM. JAKARTA UTARA","ID_KEC":"31.72.02","KECAMATAN":"TANJUNG PRIOK","ID_DESA":"31.72.02.1001","DESA":"TANJUNG PRIOK","LONGITUDE":106.88998,"LATITUDE":-6.109864,"STATUS":"BUKA","TANGGAL PENGUMPULAN":"Q1 2024","TANGGAL UPDATE":"28/02/2025"}},{"type":"Feature","geometry":{"coordinates":[106.9001245,-6.1086639],"type":"Point"},"properties":{"NAMA":"SPESIALIS JANTUNG","TIPE_1":"KESEHATAN DAN PENGOBATAN","TIPE_2":"RUMAH SAKIT","TIPE_3":"RUMAH SAKIT JANTUNG","TELEPON":"","ALAMAT":"RT.11/RW.7, KOJA, KEC. KOJA, JKT UTARA, DAERAH KHUSUS IBUKOTA JAKARTA 14220","ID_PROV":"31","PROVINSI":"DKI JAKARTA","ID_KABKOT":"31.72","KABKOT":"KOTA ADM. JAKARTA UTARA","ID_KEC":"31.72.03","KECAMATAN":"KOJA","ID_DESA":"31.72.03.1001","DESA":"KOJA","LONGITUDE":106.9001245,"LATITUDE":-6.1086639,"STATUS":"BUKA","TANGGAL PENGUMPULAN":"Q1 2024","TANGGAL UPDATE":"28/02/2025"}},{"type":"Feature","geometry":{"coordinates":[106.9160321,-6.16604],"type":"Point"},"properties":{"NAMA":"SPESIALIS JANTUNG DAN PEMBULUH DARAH","TIPE_1":"KESEHATAN DAN PENGOBATAN","TIPE_2":"RUMAH SAKIT","TIPE_3":"RUMAH SAKIT JANTUNG","TELEPON":"","ALAMAT":"RT.5/RW.2, PEGANGSAAN DUA, KEC. KLP. GADING, JKT UTARA, DAERAH KHUSUS IBUKOTA JAKARTA 14250","ID_PROV":"31","PROVINSI":"DKI JAKARTA","ID_KABKOT":"31.72","KABKOT":"KOTA ADM. JAKARTA UTARA","ID_KEC":"31.72.06","KECAMATAN":"KELAPA GADING","ID_DESA":"31.72.06.1002","DESA":"PEGANGSAAN DUA","LONGITUDE":106.9160321,"LATITUDE":-6.16604,"STATUS":"BUKA","TANGGAL PENGUMPULAN":"Q1 2024","TANGGAL UPDATE":"28/02/2025"}},{"type":"Feature","geometry":{"coordinates":[106.9001245,-6.1086639],"type":"Point"},"properties":{"NAMA":"SPESIALIS MATA RSUD KOJA","TIPE_1":"KESEHATAN DAN PENGOBATAN","TIPE_2":"RUMAH SAKIT","TIPE_3":"RUMAH SAKIT MATA","TELEPON":"","ALAMAT":"SPESIALIS MATA, RT.11/RW.7, KOJA, KEC. KOJA, JKT UTARA, DAERAH KHUSUS IBUKOTA JAKARTA 14220","ID_PROV":"31","PROVINSI":"DKI JAKARTA","ID_KABKOT":"31.72","KABKOT":"KOTA ADM. JAKARTA UTARA","ID_KEC":"31.72.03","KECAMATAN":"KOJA","ID_DESA":"31.72.03.1001","DESA":"KOJA","LONGITUDE":106.9001245,"LATITUDE":-6.1086639,"STATUS":"BUKA","TANGGAL PENGUMPULAN":"Q1 2024","TANGGAL UPDATE":"28/02/2025"}},{"type":"Feature","geometry":{"coordinates":[106.9160321,-6.16604],"type":"Point"},"properties":{"NAMA":"SPESIALIS MATA GADING PLUIT HOSPITAL","TIPE_1":"KESEHATAN DAN PENGOBATAN","TIPE_2":"RUMAH SAKIT","TIPE_3":"RUMAH SAKIT MATA","TELEPON":"","ALAMAT":"SPESIALIS MATA, RT.5/RW.2, PEGANGSAAN DUA, KEC. KLP. GADING, JKT UTARA, DAERAH KHUSUS IBUKOTA JAKARTA 14250","ID_PROV":"31","PROVINSI":"DKI JAKARTA","ID_KABKOT":"31.72","KABKOT":"KOTA ADM. JAKARTA UTARA","ID_KEC":"31.72.06","KECAMATAN":"KELAPA GADING","ID_DESA":"31.72.06.1002","DESA":"PEGANGSAAN DUA","LONGITUDE":106.9160321,"LATITUDE":-6.16604,"STATUS":"BUKA","TANGGAL PENGUMPULAN":"Q1 2024","TANGGAL UPDATE":"28/02/2025"}},{"type":"Feature","geometry":{"coordinates":[106.865454,-6.139253],"type":"Point"},"properties":{"NAMA":"ROYAL SPORTS MEDICINE CENTRE","TIPE_1":"KESEHATAN DAN PENGOBATAN","TIPE_2":"RUMAH SAKIT","TIPE_3":"RUMAH SAKIT TULANG","TELEPON":"(021) 65301567","ALAMAT":"SUNTER PARADISE I TANJUNG PRIOK, JL. DANAU SUNTER BAR., RT.6/RW.12, SUNTER AGUNG, KEC. TJ. PRIOK, JKT UTARA, DAERAH KHUSUS IBUKOTA JAKARTA 14350","ID_PROV":"31","PROVINSI":"DKI JAKARTA","ID_KABKOT":"31.72","KABKOT":"KOTA ADM. JAKARTA UTARA","ID_KEC":"31.72.02","KECAMATAN":"TANJUNG PRIOK","ID_DESA":"31.72.02.1006","DESA":"SUNTER AGUNG","LONGITUDE":106.865454,"LATITUDE":-6.139253,"STATUS":"BUKA","TANGGAL PENGUMPULAN":"Q1 2024","TANGGAL UPDATE":"28/02/2025"}},{"type":"Feature","geometry":{"coordinates":[106.8619969,-6.1301661],"type":"Point"},"properties":{"NAMA":"POLIKLINIK BEDAH ORTHOPEDI","TIPE_1":"KESEHATAN DAN PENGOBATAN","TIPE_2":"RUMAH SAKIT","TIPE_3":"RUMAH SAKIT TULANG","TELEPON":"","ALAMAT":"2 NO.12, RT.2/RW.12, PAPANGGO, KEC. TJ. PRIOK, JKT UTARA, DAERAH KHUSUS IBUKOTA JAKARTA 14340","ID_PROV":"31","PROVINSI":"DKI JAKARTA","ID_KABKOT":"31.72","KABKOT":"KOTA ADM. JAKARTA UTARA","ID_KEC":"31.72.02","KECAMATAN":"TANJUNG PRIOK","ID_DESA":"31.72.02.1003","DESA":"PAPANGGO","LONGITUDE":106.8619969,"LATITUDE":-6.1301661,"STATUS":"BUKA","TANGGAL PENGUMPULAN":"Q1 2024","TANGGAL UPDATE":"28/02/2025"}},{"type":"Feature","geometry":{"coordinates":[106.8821185,-6.112313],"type":"Point"},"properties":{"NAMA":"RUMAH SAKIT SUKMUL SISMA MEDIKA","TIPE_1":"KESEHATAN DAN PENGOBATAN","TIPE_2":"RUMAH SAKIT","TIPE_3":"RUMAH SAKIT UMUM SWASTA","TELEPON":"(021) 4301269","ALAMAT":"JL. TAWES NO.18-20, RT.4/RW.8, TJ. PRIOK, KEC. TJ. PRIOK, JKT UTARA, DAERAH KHUSUS IBUKOTA JAKARTA 14310","ID_PROV":"31","PROVINSI":"DKI JAKARTA","ID_KABKOT":"31.72","KABKOT":"KOTA ADM. JAKARTA UTARA","ID_KEC":"31.72.02","KECAMATAN":"TANJUNG PRIOK","ID_DESA":"31.72.02.1001","DESA":"TANJUNG PRIOK","LONGITUDE":106.8821185,"LATITUDE":-6.112313,"STATUS":"BUKA","TANGGAL PENGUMPULAN":"Q1 2024","TANGGAL UPDATE":"28/02/2025"}},{"type":"Feature","geometry":{"coordinates":[106.8584997,-6.1519598],"type":"Point"},"properties":{"NAMA":"RUMAH SAKIT MITRA KELUARGA KEMAYORAN","TIPE_1":"KESEHATAN DAN PENGOBATAN","TIPE_2":"RUMAH SAKIT","TIPE_3":"RUMAH SAKIT UMUM SWASTA","TELEPON":"(021) 6545555","ALAMAT":"JL. HBR MOTIK, RT.13/RW.6, KB. KOSONG, KEC. KEMAYORAN, JKT PUSAT, DAERAH KHUSUS IBUKOTA JAKARTA 10630","ID_PROV":"31","PROVINSI":"DKI JAKARTA","ID_KABKOT":"31.72","KABKOT":"KOTA ADM. JAKARTA UTARA","ID_KEC":"31.72.05","KECAMATAN":"PADEMANGAN","ID_DESA":"31.72.05.1001","DESA":"PADEMANGAN TIMUR","LONGITUDE":106.8584997,"LATITUDE":-6.1519598,"STATUS":"BUKA","TANGGAL PENGUMPULAN":"Q1 2024","TANGGAL UPDATE":"28/02/2025"}},{"type":"Feature","geometry":{"coordinates":[106.8973623,-6.1520317],"type":"Point"},"properties":{"NAMA":"RUMAH SAKIT MITRA KELUARGA KELAPA GADING","TIPE_1":"KESEHATAN DAN PENGOBATAN","TIPE_2":"RUMAH SAKIT","TIPE_3":"RUMAH SAKIT UMUM SWASTA","TELEPON":"(021) 45852700","ALAMAT":"JL. RAYA GADING KIRANA NO.2, RT.18/RW.8, KLP. GADING BAR., KEC. KLP. GADING, JKT UTARA, DAERAH KHUSUS IBUKOTA JAKARTA 14240","ID_PROV":"31","PROVINSI":"DKI JAKARTA","ID_KABKOT":"31.72","KABKOT":"KOTA ADM. JAKARTA UTARA","ID_KEC":"31.72.06","KECAMATAN":"KELAPA GADING","ID_DESA":"31.72.06.1003","DESA":"KELAPA GADING BARAT","LONGITUDE":106.8973623,"LATITUDE":-6.1520317,"STATUS":"BUKA","TANGGAL PENGUMPULAN":"Q1 2024","TANGGAL UPDATE":"28/02/2025"}},{"type":"Feature","geometry":{"coordinates":[106.8897417,-6.1142432],"type":"Point"},"properties":{"NAMA":"RS. MATA JEC-PRIMASANA @TJ. PRIOK","TIPE_1":"KESEHATAN DAN PENGOBATAN","TIPE_2":"RUMAH SAKIT","TIPE_3":"RUMAH SAKIT MATA","TELEPON":"0804 122 1000","ALAMAT":"13, JL. KB. BAWANG NO.1, RT.19/RW.1, KB. BAWANG, KEC. TJ. PRIOK, JKT UTARA, DAERAH KHUSUS IBUKOTA JAKARTA 14320","ID_PROV":"31","PROVINSI":"DKI JAKARTA","ID_KABKOT":"31.72","KABKOT":"KOTA ADM. JAKARTA UTARA","ID_KEC":"31.72.02","KECAMATAN":"TANJUNG PRIOK","ID_DESA":"31.72.02.1005","DESA":"KEBON BAWANG","LONGITUDE":106.8897417,"LATITUDE":-6.1142432,"STATUS":"BUKA","TANGGAL PENGUMPULAN":"Q1 2024","TANGGAL UPDATE":"28/02/2025"}},{"type":"Feature","geometry":{"coordinates":[106.865325,-6.13895],"type":"Point"},"properties":{"NAMA":"RUMAH SAKIT MEDIKA GRIYA","TIPE_1":"KESEHATAN DAN PENGOBATAN","TIPE_2":"RUMAH SAKIT","TIPE_3":"RUMAH SAKIT UMUM SWASTA","TELEPON":"","ALAMAT":"JL. DANAU SUNTER UTARA, SUNTER AGUNG, KEC. TJ. PRIOK, JKT UTARA, DAERAH KHUSUS IBUKOTA JAKARTA","ID_PROV":"31","PROVINSI":"DKI JAKARTA","ID_KABKOT":"31.72","KABKOT":"KOTA ADM. JAKARTA UTARA","ID_KEC":"31.72.02","KECAMATAN":"TANJUNG PRIOK","ID_DESA":"31.72.02.1006","DESA":"SUNTER AGUNG","LONGITUDE":106.865325,"LATITUDE":-6.13895,"STATUS":"BUKA","TANGGAL PENGUMPULAN":"Q1 2024","TANGGAL UPDATE":"28/02/2025"}},{"type":"Feature","geometry":{"coordinates":[106.8888599,-6.115854],"type":"Point"},"properties":{"NAMA":"RSUD TANJUNG PRIOK","TIPE_1":"KESEHATAN DAN PENGOBATAN","TIPE_2":"RUMAH SAKIT","TIPE_3":"RUMAH SAKIT UMUM DAERAH/NEGERI","TELEPON":"(021) 43930348","ALAMAT":"JL. BUGIS NO.3, RT.1/RW.4, KB. BAWANG, KEC. TJ. PRIOK, JKT UTARA, DAERAH KHUSUS IBUKOTA JAKARTA 14320","ID_PROV":"31","PROVINSI":"DKI JAKARTA","ID_KABKOT":"31.72","KABKOT":"KOTA ADM. JAKARTA UTARA","ID_KEC":"31.72.02","KECAMATAN":"TANJUNG PRIOK","ID_DESA":"31.72.02.1005","DESA":"KEBON BAWANG","LONGITUDE":106.8888599,"LATITUDE":-6.115854,"STATUS":"BUKA","TANGGAL PENGUMPULAN":"Q1 2024","TANGGAL UPDATE":"28/02/2025"}},{"type":"Feature","geometry":{"coordinates":[106.799599,-6.1258124],"type":"Point"},"properties":{"NAMA":"RUMAH SAKIT PLUIT","TIPE_1":"KESEHATAN DAN PENGOBATAN","TIPE_2":"RUMAH SAKIT","TIPE_3":"RUMAH SAKIT UMUM SWASTA","TELEPON":"(021) 29228000","ALAMAT":"JL. PLUIT SEL. NO.2, PLUIT, KEC. PENJARINGAN, JKT UTARA, DAERAH KHUSUS IBUKOTA JAKARTA 14440","ID_PROV":"31","PROVINSI":"DKI JAKARTA","ID_KABKOT":"31.72","KABKOT":"KOTA ADM. JAKARTA UTARA","ID_KEC":"31.72.01","KECAMATAN":"PENJARINGAN","ID_DESA":"31.72.01.1001","DESA":"PENJARINGAN","LONGITUDE":106.799599,"LATITUDE":-6.1258124,"STATUS":"BUKA","TANGGAL PENGUMPULAN":"Q1 2024","TANGGAL UPDATE":"28/02/2025"}},{"type":"Feature","geometry":{"coordinates":[106.75295,-6.1117801],"type":"Point"},"properties":{"NAMA":"RUMAH SAKIT PANTAI INDAH KAPUK","TIPE_1":"KESEHATAN DAN PENGOBATAN","TIPE_2":"RUMAH SAKIT","TIPE_3":"RUMAH SAKIT UMUM SWASTA","TELEPON":"(021) 5880911","ALAMAT":"JL. PANTAI INDAH UTARA 3, KAPUK MUARA, KEC. PENJARINGAN, JKT UTARA, DAERAH KHUSUS IBUKOTA JAKARTA 14460","ID_PROV":"31","PROVINSI":"DKI JAKARTA","ID_KABKOT":"31.72","KABKOT":"KOTA ADM. JAKARTA UTARA","ID_KEC":"31.72.01","KECAMATAN":"PENJARINGAN","ID_DESA":"31.72.01.1003","DESA":"KAPUK MUARA","LONGITUDE":106.75295,"LATITUDE":-6.1117801,"STATUS":"BUKA","TANGGAL PENGUMPULAN":"Q1 2024","TANGGAL UPDATE":"28/02/2025"}},{"type":"Feature","geometry":{"coordinates":[106.9091548,-6.1275037],"type":"Point"},"properties":{"NAMA":"RUMAH SAKIT MULU SARII","TIPE_1":"KESEHATAN DAN PENGOBATAN","TIPE_2":"RUMAH SAKIT","TIPE_3":"RUMAH SAKIT UMUM SWASTA","TELEPON":"(021) 43985768","ALAMAT":"UNNAMED ROAD, RT.8/RW.12, TUGU UTARA, KEC. KOJA, JKT UTARA, DAERAH KHUSUS IBUKOTA JAKARTA 14260","ID_PROV":"31","PROVINSI":"DKI JAKARTA","ID_KABKOT":"31.72","KABKOT":"KOTA ADM. JAKARTA UTARA","ID_KEC":"31.72.03","KECAMATAN":"KOJA","ID_DESA":"31.72.03.1002","DESA":"TUGU UTARA","LONGITUDE":106.9091548,"LATITUDE":-6.1275037,"STATUS":"BUKA","TANGGAL PENGUMPULAN":"Q1 2024","TANGGAL UPDATE":"28/02/2025"}},{"type":"Feature","geometry":{"coordinates":[106.90682,-6.12935],"type":"Point"},"properties":{"NAMA":"RUMAH SAKIT MULYASARI","TIPE_1":"KESEHATAN DAN PENGOBATAN","TIPE_2":"RUMAH SAKIT","TIPE_3":"RUMAH SAKIT UMUM SWASTA","TELEPON":"(021) 43931111","ALAMAT":"JL. PLUMPANG SEMPER NO.19 6, RT.6/RW.12, TUGU UTARA, KEC. KOJA, JKT UTARA, DAERAH KHUSUS IBUKOTA JAKARTA 14260","ID_PROV":"31","PROVINSI":"DKI JAKARTA","ID_KABKOT":"31.72","KABKOT":"KOTA ADM. JAKARTA UTARA","ID_KEC":"31.72.03","KECAMATAN":"KOJA","ID_DESA":"31.72.03.1002","DESA":"TUGU UTARA","LONGITUDE":106.90682,"LATITUDE":-6.12935,"STATUS":"BUKA","TANGGAL PENGUMPULAN":"Q1 2024","TANGGAL UPDATE":"28/02/2025"}},{"type":"Feature","geometry":{"coordinates":[106.917835,-6.1249922],"type":"Point"},"properties":{"NAMA":"RUMAH SAKIT PELABUHAN JAKARTA","TIPE_1":"KESEHATAN DAN PENGOBATAN","TIPE_2":"RUMAH SAKIT","TIPE_3":"RUMAH SAKIT UMUM SWASTA","TELEPON":"(021) 4403026","ALAMAT":"JL. KRAMAT JAYA RAYA NO.1, RT.7/RW.14, TUGU UTARA, KEC. KOJA, JKT UTARA, DAERAH KHUSUS IBUKOTA JAKARTA 14260","ID_PROV":"31","PROVINSI":"DKI JAKARTA","ID_KABKOT":"31.72","KABKOT":"KOTA ADM. JAKARTA UTARA","ID_KEC":"31.72.03","KECAMATAN":"KOJA","ID_DESA":"31.72.03.1002","DESA":"TUGU UTARA","LONGITUDE":106.917835,"LATITUDE":-6.1249922,"STATUS":"BUKA","TANGGAL PENGUMPULAN":"Q1 2024","TANGGAL UPDATE":"28/02/2025"}},{"type":"Feature","geometry":{"coordinates":[106.8903237,-6.1139266],"type":"Point"},"properties":{"NAMA":"RS.KEBONBAWANG","TIPE_1":"KESEHATAN DAN PENGOBATAN","TIPE_2":"RUMAH SAKIT","TIPE_3":"RUMAH SAKIT UMUM DAERAH/NEGERI","TELEPON":"0878-8881-5711","ALAMAT":"RS.KEBONBAWANH, JL. KB. BAWANG NO.1, RT.11/RW.6, KB. BAWANG, KEC. TJ. PRIOK, JKT UTARA, DAERAH KHUSUS IBUKOTA JAKARTA 14320","ID_PROV":"31","PROVINSI":"DKI JAKARTA","ID_KABKOT":"31.72","KABKOT":"KOTA ADM. JAKARTA UTARA","ID_KEC":"31.72.02","KECAMATAN":"TANJUNG PRIOK","ID_DESA":"31.72.02.1005","DESA":"KEBON BAWANG","LONGITUDE":106.8903237,"LATITUDE":-6.1139266,"STATUS":"BUKA","TANGGAL PENGUMPULAN":"Q1 2024","TANGGAL UPDATE":"28/02/2025"}},{"type":"Feature","geometry":{"coordinates":[106.875017,-6.1115977],"type":"Point"},"properties":{"NAMA":"RUMAH SAKIT KARANTINA","TIPE_1":"KESEHATAN DAN PENGOBATAN","TIPE_2":"RUMAH SAKIT","TIPE_3":"RUMAH SAKIT UMUM SWASTA","TELEPON":"","ALAMAT":"KW. PELABUHAN TJ. PRIOK, PULAU PAYUNG NO.1, TJ. PRIOK, KEC. TJ. PRIOK, JKT UTARA, DAERAH KHUSUS IBUKOTA JAKARTA 14310","ID_PROV":"31","PROVINSI":"DKI JAKARTA","ID_KABKOT":"31.72","KABKOT":"KOTA ADM. JAKARTA UTARA","ID_KEC":"31.72.02","KECAMATAN":"TANJUNG PRIOK","ID_DESA":"31.72.02.1001","DESA":"TANJUNG PRIOK","LONGITUDE":106.875017,"LATITUDE":-6.1115977,"STATUS":"BUKA","TANGGAL PENGUMPULAN":"Q1 2024","TANGGAL UPDATE":"28/02/2025"}},{"type":"Feature","geometry":{"coordinates":[106.9168314,-6.113604],"type":"Point"},"properties":{"NAMA":"RUMAH SAKIT BUNDA MULIA","TIPE_1":"KESEHATAN DAN PENGOBATAN","TIPE_2":"RUMAH SAKIT","TIPE_3":"RUMAH SAKIT UMUM SWASTA","TELEPON":"(021) 4372707","ALAMAT":"RT.2/RW.13, SEMPER BAR., KEC. CILINCING, JKT UTARA, DAERAH KHUSUS IBUKOTA JAKARTA 14270","ID_PROV":"31","PROVINSI":"DKI JAKARTA","ID_KABKOT":"31.72","KABKOT":"KOTA ADM. JAKARTA UTARA","ID_KEC":"31.72.03","KECAMATAN":"KOJA","ID_DESA":"31.72.03.1003","DESA":"LAGOA","LONGITUDE":106.9168314,"LATITUDE":-6.113604,"STATUS":"BUKA","TANGGAL PENGUMPULAN":"Q1 2024","TANGGAL UPDATE":"28/02/2025"}},{"type":"Feature","geometry":{"coordinates":[106.853028,-6.124202],"type":"Point"},"properties":{"NAMA":"RUMAH SAKIT LAPANGAN ARTHA GRAHA PEDULI (RUMKITLAP AGP)","TIPE_1":"KESEHATAN DAN PENGOBATAN","TIPE_2":"RUMAH SAKIT","TIPE_3":"RUMAH SAKIT UMUM DAERAH/NEGERI","TELEPON":"","ALAMAT":"JL. PASIR PUTIH RAYA, ANCOL, KEC. PADEMANGAN, JKT UTARA, DAERAH KHUSUS IBUKOTA JAKARTA 14430","ID_PROV":"31","PROVINSI":"DKI JAKARTA","ID_KABKOT":"31.72","KABKOT":"KOTA ADM. JAKARTA UTARA","ID_KEC":"31.72.05","KECAMATAN":"PADEMANGAN","ID_DESA":"31.72.05.1003","DESA":"ANCOL","LONGITUDE":106.853028,"LATITUDE":-6.124202,"STATUS":"BUKA","TANGGAL PENGUMPULAN":"Q1 2024","TANGGAL UPDATE":"28/02/2025"}},{"type":"Feature","geometry":{"coordinates":[106.8619969,-6.1301661],"type":"Point"},"properties":{"NAMA":"RUMAH SAKIT LAPANGAN","TIPE_1":"KESEHATAN DAN PENGOBATAN","TIPE_2":"RUMAH SAKIT","TIPE_3":"RUMAH SAKIT UMUM DAERAH/NEGERI","TELEPON":"","ALAMAT":"2 NO.12, RT.2/RW.12, PAPANGGO, KEC. TJ. PRIOK, JKT UTARA, DAERAH KHUSUS IBUKOTA JAKARTA 14340","ID_PROV":"31","PROVINSI":"DKI JAKARTA","ID_KABKOT":"31.72","KABKOT":"KOTA ADM. JAKARTA UTARA","ID_KEC":"31.72.02","KECAMATAN":"TANJUNG PRIOK","ID_DESA":"31.72.02.1003","DESA":"PAPANGGO","LONGITUDE":106.8619969,"LATITUDE":-6.1301661,"STATUS":"BUKA","TANGGAL PENGUMPULAN":"Q1 2024","TANGGAL UPDATE":"28/02/2025"}},{"type":"Feature","geometry":{"coordinates":[106.7930956,-6.1257907],"type":"Point"},"properties":{"NAMA":"RUMAH SAKIT ATMA JAYA","TIPE_1":"KESEHATAN DAN PENGOBATAN","TIPE_2":"RUMAH SAKIT","TIPE_3":"RUMAH SAKIT UMUM SWASTA","TELEPON":"(021) 50949000","ALAMAT":"JL. PLUIT RAYA NO.2 21, RT.7/RW.8, PENJARINGAN, KEC. PENJARINGAN, JKT UTARA, DAERAH KHUSUS IBUKOTA JAKARTA 14440","ID_PROV":"31","PROVINSI":"DKI JAKARTA","ID_KABKOT":"31.72","KABKOT":"KOTA ADM. JAKARTA UTARA","ID_KEC":"31.72.01","KECAMATAN":"PENJARINGAN","ID_DESA":"31.72.01.1001","DESA":"PENJARINGAN","LONGITUDE":106.7930956,"LATITUDE":-6.1257907,"STATUS":"BUKA","TANGGAL PENGUMPULAN":"Q1 2024","TANGGAL UPDATE":"28/02/2025"}},{"type":"Feature","geometry":{"coordinates":[106.7837793,-6.1384578],"type":"Point"},"properties":{"NAMA":"RUMAH SAKIT DUTA INDAH","TIPE_1":"KESEHATAN DAN PENGOBATAN","TIPE_2":"RUMAH SAKIT","TIPE_3":"RUMAH SAKIT UMUM SWASTA","TELEPON":"(021) 66676188","ALAMAT":"JL. TELUK GONG RAYA NO.12, RT.5/RW.17, PEJAGALAN, KEC. PENJARINGAN, JKT UTARA, DAERAH KHUSUS IBUKOTA JAKARTA 14450","ID_PROV":"31","PROVINSI":"DKI JAKARTA","ID_KABKOT":"31.72","KABKOT":"KOTA ADM. JAKARTA UTARA","ID_KEC":"31.72.01","KECAMATAN":"PENJARINGAN","ID_DESA":"31.72.01.1004","DESA":"PEJAGALAN","LONGITUDE":106.7837793,"LATITUDE":-6.1384578,"STATUS":"BUKA","TANGGAL PENGUMPULAN":"Q1 2024","TANGGAL UPDATE":"28/02/2025"}},{"type":"Feature","geometry":{"coordinates":[106.9141157,-6.1656458],"type":"Point"},"properties":{"NAMA":"RUMAH SAKIT GADING PLUIT PARKIRAN MOTOR","TIPE_1":"KESEHATAN DAN PENGOBATAN","TIPE_2":"RUMAH SAKIT","TIPE_3":"RUMAH SAKIT UMUM SWASTA","TELEPON":"","ALAMAT":"GALAXY BAN, JL. BOULEVARD TIMUR NO.5 5, RT.5/RW.2, PEGANGSAAN DUA, KEC. KLP. GADING, JKT UTARA, DAERAH KHUSUS IBUKOTA JAKARTA 14250","ID_PROV":"31","PROVINSI":"DKI JAKARTA","ID_KABKOT":"31.72","KABKOT":"KOTA ADM. JAKARTA UTARA","ID_KEC":"31.72.06","KECAMATAN":"KELAPA GADING","ID_DESA":"31.72.06.1002","DESA":"PEGANGSAAN DUA","LONGITUDE":106.9141157,"LATITUDE":-6.1656458,"STATUS":"BUKA","TANGGAL PENGUMPULAN":"Q1 2024","TANGGAL UPDATE":"28/02/2025"}},{"type":"Feature","geometry":{"coordinates":[106.9160193,-6.166314],"type":"Point"},"properties":{"NAMA":"RUMAH SAKIT GADING PLUIT LAYANAN INSTALASI GAWAT DARURAT","TIPE_1":"KESEHATAN DAN PENGOBATAN","TIPE_2":"RUMAH SAKIT","TIPE_3":"RUMAH SAKIT UMUM SWASTA","TELEPON":"(021) 4521001","ALAMAT":"JL. BOULEVARD TIMUR RAYA, PEGANGSAAN DUA, KELAPA GADING, RT.5/RW.2, PEGANGSAAN DUA, RT.5/RW.2, PEGANGSAAN DUA, KEC. KLP. GADING, JKT UTARA, DAERAH KHUSUS IBUKOTA JAKARTA 14250","ID_PROV":"31","PROVINSI":"DKI JAKARTA","ID_KABKOT":"31.72","KABKOT":"KOTA ADM. JAKARTA UTARA","ID_KEC":"31.72.06","KECAMATAN":"KELAPA GADING","ID_DESA":"31.72.06.1002","DESA":"PEGANGSAAN DUA","LONGITUDE":106.9160193,"LATITUDE":-6.166314,"STATUS":"BUKA","TANGGAL PENGUMPULAN":"Q1 2024","TANGGAL UPDATE":"28/02/2025"}},{"type":"Feature","geometry":{"coordinates":[106.8615271,-6.1455456],"type":"Point"},"properties":{"NAMA":"RSU HERMINA PODOMORO","TIPE_1":"KESEHATAN DAN PENGOBATAN","TIPE_2":"RUMAH SAKIT","TIPE_3":"RUMAH SAKIT UMUM SWASTA","TELEPON":"(021) 6404910","ALAMAT":"BLOK E 3, JL. DANAU AGUNG 2 NO.28 - 30, RT.3/RW.16, SUNTER AGUNG, KEC. TJ. PRIOK, JKT UTARA, DAERAH KHUSUS IBUKOTA JAKARTA 14350","ID_PROV":"31","PROVINSI":"DKI JAKARTA","ID_KABKOT":"31.72","KABKOT":"KOTA ADM. JAKARTA UTARA","ID_KEC":"31.72.02","KECAMATAN":"TANJUNG PRIOK","ID_DESA":"31.72.02.1006","DESA":"SUNTER AGUNG","LONGITUDE":106.8615271,"LATITUDE":-6.1455456,"STATUS":"BUKA","TANGGAL PENGUMPULAN":"Q1 2024","TANGGAL UPDATE":"28/02/2025"}},{"type":"Feature","geometry":{"coordinates":[106.9228679,-6.145301],"type":"Point"},"properties":{"NAMA":"RS UMUM PEKERJA","TIPE_1":"KESEHATAN DAN PENGOBATAN","TIPE_2":"RUMAH SAKIT","TIPE_3":"RUMAH SAKIT UMUM DAERAH/NEGERI","TELEPON":"0857-7778-9022","ALAMAT":"JL. TIPAR CAKUNG NO.46, RT.2/RW.1, SUKAPURA, KEC. CILINCING, JKT UTARA, DAERAH KHUSUS IBUKOTA JAKARTA 14140","ID_PROV":"31","PROVINSI":"DKI JAKARTA","ID_KABKOT":"31.72","KABKOT":"KOTA ADM. JAKARTA UTARA","ID_KEC":"31.72.04","KECAMATAN":"CILINCING","ID_DESA":"31.72.04.1002","DESA":"SUKAPURA","LONGITUDE":106.9228679,"LATITUDE":-6.145301,"STATUS":"BUKA","TANGGAL PENGUMPULAN":"Q1 2024","TANGGAL UPDATE":"28/02/2025"}},{"type":"Feature","geometry":{"coordinates":[106.8376299,-6.135123],"type":"Point"},"properties":{"NAMA":"RSU KELURAHAN PADEMANGAN BARAT","TIPE_1":"KESEHATAN DAN PENGOBATAN","TIPE_2":"RUMAH SAKIT","TIPE_3":"RUMAH SAKIT UMUM DAERAH/NEGERI","TELEPON":"","ALAMAT":"JL. BUDI MULYA GG. C2 NO.34 13, RT.13/RW.15, PADEMANGAN BAR., KEC. PADEMANGAN, JKT UTARA, DAERAH KHUSUS IBUKOTA JAKARTA 14420","ID_PROV":"31","PROVINSI":"DKI JAKARTA","ID_KABKOT":"31.72","KABKOT":"KOTA ADM. JAKARTA UTARA","ID_KEC":"31.72.05","KECAMATAN":"PADEMANGAN","ID_DESA":"31.72.05.1002","DESA":"PADEMANGAN BARAT","LONGITUDE":106.8376299,"LATITUDE":-6.135123,"STATUS":"BUKA","TANGGAL PENGUMPULAN":"Q1 2024","TANGGAL UPDATE":"28/02/2025"}},{"type":"Feature","geometry":{"coordinates":[106.91763,-6.124974],"type":"Point"},"properties":{"NAMA":"RS OKE","TIPE_1":"KESEHATAN DAN PENGOBATAN","TIPE_2":"RUMAH SAKIT","TIPE_3":"RUMAH SAKIT UMUM SWASTA","TELEPON":"","ALAMAT":"RT.5/RW.14, TUGU UTARA, KEC. KOJA, JKT UTARA, DAERAH KHUSUS IBUKOTA JAKARTA 14260","ID_PROV":"31","PROVINSI":"DKI JAKARTA","ID_KABKOT":"31.72","KABKOT":"KOTA ADM. JAKARTA UTARA","ID_KEC":"31.72.03","KECAMATAN":"KOJA","ID_DESA":"31.72.03.1002","DESA":"TUGU UTARA","LONGITUDE":106.91763,"LATITUDE":-6.124974,"STATUS":"BUKA","TANGGAL PENGUMPULAN":"Q1 2024","TANGGAL UPDATE":"28/02/2025"}},{"type":"Feature","geometry":{"coordinates":[106.8604526,-6.1520718],"type":"Point"},"properties":{"NAMA":"RUMAH SAKIT DARURAT PENANGANAN COVID19 WISMA ATLET KEMAYORAN","TIPE_1":"KESEHATAN DAN PENGOBATAN","TIPE_2":"RUMAH SAKIT","TIPE_3":"RUMAH SAKIT UMUM DAERAH/NEGERI","TELEPON":"","ALAMAT":"JL. RD.H. KENENG MUDATSIR NO.13, RT.13/RW.6, SUNTER AGUNG, KEC. PADEMANGAN, JKT UTARA, DAERAH KHUSUS IBUKOTA JAKARTA 14360","ID_PROV":"31","PROVINSI":"DKI JAKARTA","ID_KABKOT":"31.72","KABKOT":"KOTA ADM. JAKARTA UTARA","ID_KEC":"31.72.05","KECAMATAN":"PADEMANGAN","ID_DESA":"31.72.05.1001","DESA":"PADEMANGAN TIMUR","LONGITUDE":106.8604526,"LATITUDE":-6.1520718,"STATUS":"BUKA","TANGGAL PENGUMPULAN":"Q1 2024","TANGGAL UPDATE":"28/02/2025"}},{"type":"Feature","geometry":{"coordinates":[106.9175692,-6.1245049],"type":"Point"},"properties":{"NAMA":"RS PELABUHAN JAKARTA, RNO","TIPE_1":"KESEHATAN DAN PENGOBATAN","TIPE_2":"RUMAH SAKIT","TIPE_3":"RUMAH SAKIT UMUM SWASTA","TELEPON":"","ALAMAT":"RUMAH SAKIT PELABUHAN JKT, RNO, JL. KRAMAT JAYA RAYA NO.KEL, RT.5/RW.14, TUGU UTARA, KEC. KOJA, JKT UTARA, DAERAH KHUSUS IBUKOTA JAKARTA 14260","ID_PROV":"31","PROVINSI":"DKI JAKARTA","ID_KABKOT":"31.72","KABKOT":"KOTA ADM. JAKARTA UTARA","ID_KEC":"31.72.03","KECAMATAN":"KOJA","ID_DESA":"31.72.03.1002","DESA":"TUGU UTARA","LONGITUDE":106.9175692,"LATITUDE":-6.1245049,"STATUS":"BUKA","TANGGAL PENGUMPULAN":"Q1 2024","TANGGAL UPDATE":"28/02/2025"}},{"type":"Feature","geometry":{"coordinates":[106.9208248,-6.1397922],"type":"Point"},"properties":{"NAMA":"RS ISLAM JAKARTA SUKAPURA","TIPE_1":"KESEHATAN DAN PENGOBATAN","TIPE_2":"RUMAH SAKIT","TIPE_3":"RUMAH SAKIT UMUM SWASTA","TELEPON":"(021) 4400779","ALAMAT":"JL. TIPAR CAKUNG NO.5, SUKAPURA, KEC. CILINCING, JKT UTARA, DAERAH KHUSUS IBUKOTA JAKARTA 14140","ID_PROV":"31","PROVINSI":"DKI JAKARTA","ID_KABKOT":"31.72","KABKOT":"KOTA ADM. JAKARTA UTARA","ID_KEC":"31.72.04","KECAMATAN":"CILINCING","ID_DESA":"31.72.04.1002","DESA":"SUKAPURA","LONGITUDE":106.9208248,"LATITUDE":-6.1397922,"STATUS":"BUKA","TANGGAL PENGUMPULAN":"Q1 2024","TANGGAL UPDATE":"28/02/2025"}},{"type":"Feature","geometry":{"coordinates":[106.9263061,-6.1130193],"type":"Point"},"properties":{"NAMA":"RSUD CILINCING","TIPE_1":"KESEHATAN DAN PENGOBATAN","TIPE_2":"RUMAH SAKIT","TIPE_3":"RUMAH SAKIT UMUM DAERAH/NEGERI","TELEPON":"(021) 4412889","ALAMAT":"JL. MADYA KEBANTENAN NO.4 4, RT.4/RW.2, SEMPER TIM., KEC. CILINCING, JKT UTARA, DAERAH KHUSUS IBUKOTA JAKARTA 14130","ID_PROV":"31","PROVINSI":"DKI JAKARTA","ID_KABKOT":"31.72","KABKOT":"KOTA ADM. JAKARTA UTARA","ID_KEC":"31.72.04","KECAMATAN":"CILINCING","ID_DESA":"31.72.04.1005","DESA":"SEMPER TIMUR","LONGITUDE":106.9263061,"LATITUDE":-6.1130193,"STATUS":"BUKA","TANGGAL PENGUMPULAN":"Q1 2024","TANGGAL UPDATE":"28/02/2025"}},{"type":"Feature","geometry":{"coordinates":[106.906943,-6.1273997],"type":"Point"},"properties":{"NAMA":"RSUD TUGU KOJA","TIPE_1":"KESEHATAN DAN PENGOBATAN","TIPE_2":"RUMAH SAKIT","TIPE_3":"RUMAH SAKIT UMUM DAERAH/NEGERI","TELEPON":"(021) 26061110","ALAMAT":"JL. WALANG PERMAI NO.39, RT.7/RW.12, TUGU SEL., KEC. KOJA, JKT UTARA, DAERAH KHUSUS IBUKOTA JAKARTA 14260","ID_PROV":"31","PROVINSI":"DKI JAKARTA","ID_KABKOT":"31.72","KABKOT":"KOTA ADM. JAKARTA UTARA","ID_KEC":"31.72.03","KECAMATAN":"KOJA","ID_DESA":"31.72.03.1002","DESA":"TUGU UTARA","LONGITUDE":106.906943,"LATITUDE":-6.1273997,"STATUS":"BUKA","TANGGAL PENGUMPULAN":"Q1 2024","TANGGAL UPDATE":"28/02/2025"}},{"type":"Feature","geometry":{"coordinates":[106.9001816,-6.1086874],"type":"Point"},"properties":{"NAMA":"RSUD KOJA","TIPE_1":"KESEHATAN DAN PENGOBATAN","TIPE_2":"RUMAH SAKIT","TIPE_3":"RUMAH SAKIT UMUM DAERAH/NEGERI","TELEPON":"(021) 43938478","ALAMAT":"JL. DELI NO.4, RT.11/RW.7, KOJA, KEC. KOJA, JKT UTARA, DAERAH KHUSUS IBUKOTA JAKARTA 14220","ID_PROV":"31","PROVINSI":"DKI JAKARTA","ID_KABKOT":"31.72","KABKOT":"KOTA ADM. JAKARTA UTARA","ID_KEC":"31.72.03","KECAMATAN":"KOJA","ID_DESA":"31.72.03.1001","DESA":"KOJA","LONGITUDE":106.9001816,"LATITUDE":-6.1086874,"STATUS":"BUKA","TANGGAL PENGUMPULAN":"Q1 2024","TANGGAL UPDATE":"28/02/2025"}},{"type":"Feature","geometry":{"coordinates":[106.7923437,-6.1265528],"type":"Point"},"properties":{"NAMA":"RS ATMAJAYA BONAVENTURA","TIPE_1":"KESEHATAN DAN PENGOBATAN","TIPE_2":"RUMAH SAKIT","TIPE_3":"RUMAH SAKIT UMUM SWASTA","TELEPON":"(021) 50949000","ALAMAT":"JL. PLUIT RAYA NO.2 21, RT.21/RW.8, PENJARINGAN, KEC. PENJARINGAN, JKT UTARA, DAERAH KHUSUS IBUKOTA JAKARTA 14440","ID_PROV":"31","PROVINSI":"DKI JAKARTA","ID_KABKOT":"31.72","KABKOT":"KOTA ADM. JAKARTA UTARA","ID_KEC":"31.72.01","KECAMATAN":"PENJARINGAN","ID_DESA":"31.72.01.1001","DESA":"PENJARINGAN","LONGITUDE":106.7923437,"LATITUDE":-6.1265528,"STATUS":"BUKA","TANGGAL PENGUMPULAN":"Q1 2024","TANGGAL UPDATE":"28/02/2025"}},{"type":"Feature","geometry":{"coordinates":[106.9231738,-6.1561594],"type":"Point"},"properties":{"NAMA":"RS FIRDAUS","TIPE_1":"KESEHATAN DAN PENGOBATAN","TIPE_2":"RUMAH SAKIT","TIPE_3":"RUMAH SAKIT UMUM SWASTA","TELEPON":"(021) 4407322","ALAMAT":"KOMPLEK BEA CUKAI, JL. SIAK NO.14 J 5, SUKAPURA, KEC. CILINCING, JKT UTARA, DAERAH KHUSUS IBUKOTA JAKARTA 14140","ID_PROV":"31","PROVINSI":"DKI JAKARTA","ID_KABKOT":"31.72","KABKOT":"KOTA ADM. JAKARTA UTARA","ID_KEC":"31.72.04","KECAMATAN":"CILINCING","ID_DESA":"31.72.04.1002","DESA":"SUKAPURA","LONGITUDE":106.9231738,"LATITUDE":-6.1561594,"STATUS":"BUKA","TANGGAL PENGUMPULAN":"Q1 2024","TANGGAL UPDATE":"28/02/2025"}},{"type":"Feature","geometry":{"coordinates":[106.91555,-6.166357],"type":"Point"},"properties":{"NAMA":"RUMAH SAKIT UMUM GADING PLUIT","TIPE_1":"KESEHATAN DAN PENGOBATAN","TIPE_2":"RUMAH SAKIT","TIPE_3":"RUMAH SAKIT UMUM SWASTA","TELEPON":"(021) 4521001","ALAMAT":"JL. BOULEVARD TIMUR, KLP. GADING TIM., KEC. KLP. GADING, JKT UTARA, DAERAH KHUSUS IBUKOTA JAKARTA 14250","ID_PROV":"31","PROVINSI":"DKI JAKARTA","ID_KABKOT":"31.72","KABKOT":"KOTA ADM. JAKARTA UTARA","ID_KEC":"31.72.06","KECAMATAN":"KELAPA GADING","ID_DESA":"31.72.06.1002","DESA":"PEGANGSAAN DUA","LONGITUDE":106.91555,"LATITUDE":-6.166357,"STATUS":"BUKA","TANGGAL PENGUMPULAN":"Q1 2024","TANGGAL UPDATE":"28/02/2025"}},{"type":"Feature","geometry":{"coordinates":[106.8585768,-6.1521212],"type":"Point"},"properties":{"NAMA":"RSDC-19 WISMA ATLET","TIPE_1":"KESEHATAN DAN PENGOBATAN","TIPE_2":"RUMAH SAKIT","TIPE_3":"RUMAH SAKIT UMUM DAERAH/NEGERI","TELEPON":"","ALAMAT":"JL. SUNTER KEMAYORAN NO.4, RT.4/RW.7, SUNTER JAYA, KEC. TJ. PRIOK, JKT UTARA, DAERAH KHUSUS IBUKOTA JAKARTA 10640","ID_PROV":"31","PROVINSI":"DKI JAKARTA","ID_KABKOT":"31.72","KABKOT":"KOTA ADM. JAKARTA UTARA","ID_KEC":"31.72.05","KECAMATAN":"PADEMANGAN","ID_DESA":"31.72.05.1001","DESA":"PADEMANGAN TIMUR","LONGITUDE":106.8585768,"LATITUDE":-6.1521212,"STATUS":"BUKA","TANGGAL PENGUMPULAN":"Q1 2024","TANGGAL UPDATE":"28/02/2025"}},{"type":"Feature","geometry":{"coordinates":[106.9091557,-6.1275041],"type":"Point"},"properties":{"NAMA":"RUMAH SAKIT UMUM DAERAH KOJAA","TIPE_1":"KESEHATAN DAN PENGOBATAN","TIPE_2":"RUMAH SAKIT","TIPE_3":"RUMAH SAKIT UMUM DAERAH/NEGERI","TELEPON":"(021) 65478237","ALAMAT":"UNNAMED ROAD, RT.8/RW.12, TUGU UTARA, KEC. KOJA, JKT UTARA, DAERAH KHUSUS IBUKOTA JAKARTA 14260","ID_PROV":"31","PROVINSI":"DKI JAKARTA","ID_KABKOT":"31.72","KABKOT":"KOTA ADM. JAKARTA UTARA","ID_KEC":"31.72.03","KECAMATAN":"KOJA","ID_DESA":"31.72.03.1002","DESA":"TUGU UTARA","LONGITUDE":106.9091557,"LATITUDE":-6.1275041,"STATUS":"BUKA","TANGGAL PENGUMPULAN":"Q1 2024","TANGGAL UPDATE":"28/02/2025"}},{"type":"Feature","geometry":{"coordinates":[106.8593336,-6.151749],"type":"Point"},"properties":{"NAMA":"RSDC/WISMA ATLET TOWER 5","TIPE_1":"KESEHATAN DAN PENGOBATAN","TIPE_2":"RUMAH SAKIT","TIPE_3":"RUMAH SAKIT UMUM DAERAH/NEGERI","TELEPON":"","ALAMAT":"JL. RD.H. KENENG MUDATSIR, RT.13/RW.6, PADEMANGAN TIM., KEC. PADEMANGAN, JKT UTARA, DAERAH KHUSUS IBUKOTA JAKARTA 10630","ID_PROV":"31","PROVINSI":"DKI JAKARTA","ID_KABKOT":"31.72","KABKOT":"KOTA ADM. JAKARTA UTARA","ID_KEC":"31.72.05","KECAMATAN":"PADEMANGAN","ID_DESA":"31.72.05.1001","DESA":"PADEMANGAN TIMUR","LONGITUDE":106.8593336,"LATITUDE":-6.151749,"STATUS":"BUKA","TANGGAL PENGUMPULAN":"Q1 2024","TANGGAL UPDATE":"28/02/2025"}},{"type":"Feature","geometry":{"coordinates":[106.8653491,-6.1387877],"type":"Point"},"properties":{"NAMA":"RUMAH SAKIT ROYAL PROGRESS","TIPE_1":"KESEHATAN DAN PENGOBATAN","TIPE_2":"RUMAH SAKIT","TIPE_3":"RUMAH SAKIT UMUM SWASTA","TELEPON":"(021) 6400261","ALAMAT":"JL. DANAU SUNTER UTARA JL. PARADISE 11 NO.1-5, SUNTER AGUNG, KEC. TJ. PRIOK, JKT UTARA, DAERAH KHUSUS IBUKOTA JAKARTA 14350","ID_PROV":"31","PROVINSI":"DKI JAKARTA","ID_KABKOT":"31.72","KABKOT":"KOTA ADM. JAKARTA UTARA","ID_KEC":"31.72.02","KECAMATAN":"TANJUNG PRIOK","ID_DESA":"31.72.02.1006","DESA":"SUNTER AGUNG","LONGITUDE":106.8653491,"LATITUDE":-6.1387877,"STATUS":"BUKA","TANGGAL PENGUMPULAN":"Q1 2024","TANGGAL UPDATE":"28/02/2025"}},{"type":"Feature","geometry":{"coordinates":[106.865483,-6.1388049],"type":"Point"},"properties":{"NAMA":"RUMAH SAKIT ROYAL PROGRESS","TIPE_1":"KESEHATAN DAN PENGOBATAN","TIPE_2":"RUMAH SAKIT","TIPE_3":"RUMAH SAKIT UMUM SWASTA","TELEPON":"(021) 6400261","ALAMAT":"JL. DANAU SUNTER UTARA JL. PARADISE 11 NO.1-5, SUNTER AGUNG, KEC. TJ. PRIOK, JKT UTARA, DAERAH KHUSUS IBUKOTA JAKARTA 14350","ID_PROV":"31","PROVINSI":"DKI JAKARTA","ID_KABKOT":"31.72","KABKOT":"KOTA ADM. JAKARTA UTARA","ID_KEC":"31.72.02","KECAMATAN":"TANJUNG PRIOK","ID_DESA":"31.72.02.1006","DESA":"SUNTER AGUNG","LONGITUDE":106.865483,"LATITUDE":-6.1388049,"STATUS":"BUKA","TANGGAL PENGUMPULAN":"Q1 2024","TANGGAL UPDATE":"28/02/2025"}},{"type":"Feature","geometry":{"coordinates":[106.8902219,-6.1289453],"type":"Point"},"properties":{"NAMA":"RUMAH SAKIT PURI MEDIKA","TIPE_1":"KESEHATAN DAN PENGOBATAN","TIPE_2":"RUMAH SAKIT","TIPE_3":"RUMAH SAKIT UMUM SWASTA","TELEPON":"(021) 43903355","ALAMAT":"JL. SUNGAI BAMBU NO.5, RT.5/RW.9, SUNGAI BAMBU, KEC. TJ. PRIOK, JKT UTARA, DAERAH KHUSUS IBUKOTA JAKARTA 14330","ID_PROV":"31","PROVINSI":"DKI JAKARTA","ID_KABKOT":"31.72","KABKOT":"KOTA ADM. JAKARTA UTARA","ID_KEC":"31.72.02","KECAMATAN":"TANJUNG PRIOK","ID_DESA":"31.72.02.1004","DESA":"SUNGAI BAMBU","LONGITUDE":106.8902219,"LATITUDE":-6.1289453,"STATUS":"BUKA","TANGGAL PENGUMPULAN":"Q1 2024","TANGGAL UPDATE":"28/02/2025"}},{"type":"Feature","geometry":{"coordinates":[106.840047,-6.132825],"type":"Point"},"properties":{"NAMA":"RSUD PADEMANGAN","TIPE_1":"KESEHATAN DAN PENGOBATAN","TIPE_2":"RUMAH SAKIT","TIPE_3":"RUMAH SAKIT UMUM DAERAH/NEGERI","TELEPON":"(021) 6452346","ALAMAT":"JL. BUDI MULIA NO.2, RT.11/RW.11, PADEMANGAN BAR., KEC. PADEMANGAN, JKT UTARA, DAERAH KHUSUS IBUKOTA JAKARTA 14420","ID_PROV":"31","PROVINSI":"DKI JAKARTA","ID_KABKOT":"31.72","KABKOT":"KOTA ADM. JAKARTA UTARA","ID_KEC":"31.72.05","KECAMATAN":"PADEMANGAN","ID_DESA":"31.72.05.1002","DESA":"PADEMANGAN BARAT","LONGITUDE":106.840047,"LATITUDE":-6.132825,"STATUS":"BUKA","TANGGAL PENGUMPULAN":"Q1 2024","TANGGAL UPDATE":"28/02/2025"}},{"type":"Feature","geometry":{"coordinates":[106.861413,-6.139193],"type":"Point"},"properties":{"NAMA":"RUMAH SAKIT SATYA NEGARA","TIPE_1":"KESEHATAN DAN PENGOBATAN","TIPE_2":"RUMAH SAKIT","TIPE_3":"RUMAH SAKIT UMUM SWASTA","TELEPON":"(021) 64715200","ALAMAT":"JL. AGUNG UTARA RAYA BLOK A NO.1, SUNTER, JKT UTARA, DAERAH KHUSUS IBUKOTA JAKARTA 14350","ID_PROV":"31","PROVINSI":"DKI JAKARTA","ID_KABKOT":"31.72","KABKOT":"KOTA ADM. JAKARTA UTARA","ID_KEC":"31.72.02","KECAMATAN":"TANJUNG PRIOK","ID_DESA":"31.72.02.1006","DESA":"SUNTER AGUNG","LONGITUDE":106.861413,"LATITUDE":-6.139193,"STATUS":"BUKA","TANGGAL PENGUMPULAN":"Q1 2024","TANGGAL UPDATE":"28/02/2025"}}]}