{"type":"FeatureCollection","features":[{"type":"Feature","geometry":{"coordinates":[106.7342499,-6.2950698],"type":"Point"},"properties":{"NAMA":"RUMAH SAKIT IBU DAN ANAK DHIA","TIPE_1":"KESEHATAN DAN PENGOBATAN","TIPE_2":"RUMAH SAKIT","TIPE_3":"RUMAH SAKIT BERSALIN/IBU DAN ANAK","TELEPON":"(021) 7494550","ALAMAT":"JL. CENDRAWASIH RAYA NO.90, SAWAH LAMA, KEC. CIPUTAT, KOTA TANGERANG SELATAN, BANTEN 15413","ID_PROV":"36","PROVINSI":"BANTEN","ID_KABKOT":"36.74","KABKOT":"KOTA TANGERANG SELATAN","ID_KEC":"36.74.04","KECAMATAN":"CIPUTAT","ID_DESA":"36.74.04.1004","DESA":"SAWAH","LONGITUDE":106.7342499,"LATITUDE":-6.2950698,"STATUS":"BUKA","TANGGAL PENGUMPULAN":"Q1 2024","TANGGAL UPDATE":"28/02/2025"}},{"type":"Feature","geometry":{"coordinates":[106.738079,-6.318154],"type":"Point"},"properties":{"NAMA":"RUMAH SAKIT IBU DAN ANAK BINA WANDA","TIPE_1":"KESEHATAN DAN PENGOBATAN","TIPE_2":"RUMAH SAKIT","TIPE_3":"RUMAH SAKIT BERSALIN/IBU DAN ANAK","TELEPON":"(021) 7401412","ALAMAT":"JL. ARIA PUTRA GG. PILAR NO.14, KEDAUNG, KEC. PAMULANG, KOTA TANGERANG SELATAN, BANTEN 15415","ID_PROV":"36","PROVINSI":"BANTEN","ID_KABKOT":"36.74","KABKOT":"KOTA TANGERANG SELATAN","ID_KEC":"36.74.06","KECAMATAN":"PAMULANG","ID_DESA":"36.74.06.1006","DESA":"KEDAUNG","LONGITUDE":106.738079,"LATITUDE":-6.318154,"STATUS":"BUKA","TANGGAL PENGUMPULAN":"Q1 2024","TANGGAL UPDATE":"28/02/2025"}},{"type":"Feature","geometry":{"coordinates":[106.7153408,-6.3455184],"type":"Point"},"properties":{"NAMA":"RS ANAK VITALAYA","TIPE_1":"KESEHATAN DAN PENGOBATAN","TIPE_2":"RUMAH SAKIT","TIPE_3":"RUMAH SAKIT BERSALIN/IBU DAN ANAK","TELEPON":"(021) 74703313","ALAMAT":"PD. BENDA, KEC. PAMULANG, KOTA TANGERANG SELATAN, BANTEN 15416","ID_PROV":"36","PROVINSI":"BANTEN","ID_KABKOT":"36.74","KABKOT":"KOTA TANGERANG SELATAN","ID_KEC":"36.74.06","KECAMATAN":"PAMULANG","ID_DESA":"36.74.06.1003","DESA":"PONDOK BENDA","LONGITUDE":106.7153408,"LATITUDE":-6.3455184,"STATUS":"BUKA","TANGGAL PENGUMPULAN":"Q1 2024","TANGGAL UPDATE":"28/02/2025"}},{"type":"Feature","geometry":{"coordinates":[106.7242898,-6.2626462],"type":"Point"},"properties":{"NAMA":"RS. BERSALIN PERMATA IBU","TIPE_1":"KESEHATAN DAN PENGOBATAN","TIPE_2":"RUMAH SAKIT","TIPE_3":"RUMAH SAKIT BERSALIN/IBU DAN ANAK","TELEPON":"","ALAMAT":"JURANG MANGU BARAT, KEC. PD. AREN, KOTA TANGERANG SELATAN, BANTEN 15222","ID_PROV":"36","PROVINSI":"BANTEN","ID_KABKOT":"36.74","KABKOT":"KOTA TANGERANG SELATAN","ID_KEC":"36.74.03","KECAMATAN":"PONDOK AREN","ID_DESA":"36.74.03.1010","DESA":"JURANGMANGU BARAT","LONGITUDE":106.7242898,"LATITUDE":-6.2626462,"STATUS":"BUKA","TANGGAL PENGUMPULAN":"Q1 2024","TANGGAL UPDATE":"28/02/2025"}},{"type":"Feature","geometry":{"coordinates":[106.7468216,-6.3275793],"type":"Point"},"properties":{"NAMA":"RSIA BUNDA CIPUTAT","TIPE_1":"KESEHATAN DAN PENGOBATAN","TIPE_2":"RUMAH SAKIT","TIPE_3":"RUMAH SAKIT BERSALIN/IBU DAN ANAK","TELEPON":"(021) 7401347","ALAMAT":"JL. RE MARTADINATA NO.30, CIPUTAT, KEC. CIPUTAT, KOTA TANGERANG SELATAN, BANTEN 15411","ID_PROV":"36","PROVINSI":"BANTEN","ID_KABKOT":"36.74","KABKOT":"KOTA TANGERANG SELATAN","ID_KEC":"36.74.04","KECAMATAN":"CIPUTAT","ID_DESA":"36.74.04.1003","DESA":"CIPUTAT","LONGITUDE":106.7468216,"LATITUDE":-6.3275793,"STATUS":"BUKA","TANGGAL PENGUMPULAN":"Q1 2024","TANGGAL UPDATE":"28/02/2025"}},{"type":"Feature","geometry":{"coordinates":[106.7337924,-6.3447857],"type":"Point"},"properties":{"NAMA":"RSIA PERMATA SARANA HUSADA","TIPE_1":"KESEHATAN DAN PENGOBATAN","TIPE_2":"RUMAH SAKIT","TIPE_3":"RUMAH SAKIT BERSALIN/IBU DAN ANAK","TELEPON":"0858-9403-3749","ALAMAT":"JL. PAMULANG PERMAI 1 NO.1-3 BLOK D3, PAMULANG BAR., KEC. PAMULANG, KOTA TANGERANG SELATAN, BANTEN 15417","ID_PROV":"36","PROVINSI":"BANTEN","ID_KABKOT":"36.74","KABKOT":"KOTA TANGERANG SELATAN","ID_KEC":"36.74.06","KECAMATAN":"PAMULANG","ID_DESA":"36.74.06.1001","DESA":"PAMULANG BARAT","LONGITUDE":106.7337924,"LATITUDE":-6.3447857,"STATUS":"BUKA","TANGGAL PENGUMPULAN":"Q1 2024","TANGGAL UPDATE":"28/02/2025"}},{"type":"Feature","geometry":{"coordinates":[106.7153331,-6.3455685],"type":"Point"},"properties":{"NAMA":"RSIA VITALAYA","TIPE_1":"KESEHATAN DAN PENGOBATAN","TIPE_2":"RUMAH SAKIT","TIPE_3":"RUMAH SAKIT BERSALIN/IBU DAN ANAK","TELEPON":"(021) 74703313","ALAMAT":"JL. SILIWANGI NO.50, PD. BENDA, KEC. PAMULANG, KOTA TANGERANG SELATAN, BANTEN 15416","ID_PROV":"36","PROVINSI":"BANTEN","ID_KABKOT":"36.74","KABKOT":"KOTA TANGERANG SELATAN","ID_KEC":"36.74.06","KECAMATAN":"PAMULANG","ID_DESA":"36.74.06.1003","DESA":"PONDOK BENDA","LONGITUDE":106.7153331,"LATITUDE":-6.3455685,"STATUS":"BUKA","TANGGAL PENGUMPULAN":"Q1 2024","TANGGAL UPDATE":"28/02/2025"}},{"type":"Feature","geometry":{"coordinates":[106.7207939,-6.3440161],"type":"Point"},"properties":{"NAMA":"RSIA. BUAH HATI PAMULANG","TIPE_1":"KESEHATAN DAN PENGOBATAN","TIPE_2":"RUMAH SAKIT","TIPE_3":"RUMAH SAKIT BERSALIN/IBU DAN ANAK","TELEPON":"(021) 7414488","ALAMAT":"JL. SILIWANGI NO.189, BENDA BARU, KEC. PAMULANG, KOTA TANGERANG SELATAN, BANTEN 15416","ID_PROV":"36","PROVINSI":"BANTEN","ID_KABKOT":"36.74","KABKOT":"KOTA TANGERANG SELATAN","ID_KEC":"36.74.06","KECAMATAN":"PAMULANG","ID_DESA":"36.74.06.1002","DESA":"BENDA BARU","LONGITUDE":106.7207939,"LATITUDE":-6.3440161,"STATUS":"BUKA","TANGGAL PENGUMPULAN":"Q1 2024","TANGGAL UPDATE":"28/02/2025"}},{"type":"Feature","geometry":{"coordinates":[106.7182319,-6.2759501],"type":"Point"},"properties":{"NAMA":"RSIA BINA MEDIKA BINTARO","TIPE_1":"KESEHATAN DAN PENGOBATAN","TIPE_2":"RUMAH SAKIT","TIPE_3":"RUMAH SAKIT BERSALIN/IBU DAN ANAK","TELEPON":"(021) 29318888","ALAMAT":"JL. RASUNA SAID, KAV. B7/A5-08, JL. HR RASUNA SAID, PONDOK JAYA, PONDOK AREN, SOUTH TANGERANG CITY, BANTEN 15220","ID_PROV":"36","PROVINSI":"BANTEN","ID_KABKOT":"36.74","KABKOT":"KOTA TANGERANG SELATAN","ID_KEC":"36.74.03","KECAMATAN":"PONDOK AREN","ID_DESA":"36.74.03.1004","DESA":"PONDOK JAYA","LONGITUDE":106.7182319,"LATITUDE":-6.2759501,"STATUS":"BUKA","TANGGAL PENGUMPULAN":"Q1 2024","TANGGAL UPDATE":"28/02/2025"}},{"type":"Feature","geometry":{"coordinates":[106.6797355,-6.3030374],"type":"Point"},"properties":{"NAMA":"RS PERMATA DALIMA SERPONG","TIPE_1":"KESEHATAN DAN PENGOBATAN","TIPE_2":"RUMAH SAKIT","TIPE_3":"RUMAH SAKIT BERSALIN/IBU DAN ANAK","TELEPON":"(021) 5376002","ALAMAT":"JALAN RAWA BUNTU UTARA SEKTOR I.2, BLOK UA NO.26-27, RW. BUNTU, KEC. SERPONG, KOTA TANGERANG SELATAN, BANTEN 15311","ID_PROV":"36","PROVINSI":"BANTEN","ID_KABKOT":"36.74","KABKOT":"KOTA TANGERANG SELATAN","ID_KEC":"36.74.01","KECAMATAN":"SERPONG","ID_DESA":"36.74.01.1002","DESA":"RAWABUNTU","LONGITUDE":106.6797355,"LATITUDE":-6.3030374,"STATUS":"BUKA","TANGGAL PENGUMPULAN":"Q1 2024","TANGGAL UPDATE":"28/02/2025"}},{"type":"Feature","geometry":{"coordinates":[106.6698883,-6.2985476],"type":"Point"},"properties":{"NAMA":"JANTUNG DAN PEMBULUH DARAH EKA HOSPITAL","TIPE_1":"KESEHATAN DAN PENGOBATAN","TIPE_2":"RUMAH SAKIT","TIPE_3":"RUMAH SAKIT JANTUNG","TELEPON":"","ALAMAT":"JANTUNG DAN PEMBULUH DARAH, LENGKONG GUDANG, KEC. SERPONG, KOTA TANGERANG SELATAN, BANTEN 15321","ID_PROV":"36","PROVINSI":"BANTEN","ID_KABKOT":"36.74","KABKOT":"KOTA TANGERANG SELATAN","ID_KEC":"36.74.01","KECAMATAN":"SERPONG","ID_DESA":"36.74.01.1004","DESA":"LENGKONG GUDANG","LONGITUDE":106.6698883,"LATITUDE":-6.2985476,"STATUS":"BUKA","TANGGAL PENGUMPULAN":"Q1 2024","TANGGAL UPDATE":"28/02/2025"}},{"type":"Feature","geometry":{"coordinates":[106.7237009,-6.276007],"type":"Point"},"properties":{"NAMA":"JANTUNG DAN PEMBULUH DARAH","TIPE_1":"KESEHATAN DAN PENGOBATAN","TIPE_2":"RUMAH SAKIT","TIPE_3":"RUMAH SAKIT JANTUNG","TELEPON":"","ALAMAT":"PD. JAYA, KEC. PD. AREN, KOTA TANGERANG SELATAN, BANTEN 15220","ID_PROV":"36","PROVINSI":"BANTEN","ID_KABKOT":"36.74","KABKOT":"KOTA TANGERANG SELATAN","ID_KEC":"36.74.03","KECAMATAN":"PONDOK AREN","ID_DESA":"36.74.03.1004","DESA":"PONDOK JAYA","LONGITUDE":106.7237009,"LATITUDE":-6.276007,"STATUS":"BUKA","TANGGAL PENGUMPULAN":"Q1 2024","TANGGAL UPDATE":"28/02/2025"}},{"type":"Feature","geometry":{"coordinates":[106.6699365,-6.2989879],"type":"Point"},"properties":{"NAMA":"MYCARDIA EKA HOSPITAL BSD - PUSAT ARITMIA JANTUNG, INTERVENSI DAN VASKULAR","TIPE_1":"KESEHATAN DAN PENGOBATAN","TIPE_2":"RUMAH SAKIT","TIPE_3":"RUMAH SAKIT JANTUNG","TELEPON":"(021) 25655555","ALAMAT":"CENTRAL BUSINESS DISTRICT, JL. BOULEVARD BSD TIM., LENGKONG GUDANG, KEC. SERPONG, KOTA TANGERANG SELATAN, BANTEN 15321","ID_PROV":"36","PROVINSI":"BANTEN","ID_KABKOT":"36.74","KABKOT":"KOTA TANGERANG SELATAN","ID_KEC":"36.74.01","KECAMATAN":"SERPONG","ID_DESA":"36.74.01.1004","DESA":"LENGKONG GUDANG","LONGITUDE":106.6699365,"LATITUDE":-6.2989879,"STATUS":"BUKA","TANGGAL PENGUMPULAN":"Q1 2024","TANGGAL UPDATE":"28/02/2025"}},{"type":"Feature","geometry":{"coordinates":[106.65189,-6.2592673],"type":"Point"},"properties":{"NAMA":"BEDAH TULANG (ORTHOPEDI)","TIPE_1":"KESEHATAN DAN PENGOBATAN","TIPE_2":"RUMAH SAKIT","TIPE_3":"RUMAH SAKIT TULANG","TELEPON":"","ALAMAT":"PD. JAGUNG, KEC. SERPONG UTARA, KOTA TANGERANG SELATAN, BANTEN 15326","ID_PROV":"36","PROVINSI":"BANTEN","ID_KABKOT":"36.74","KABKOT":"KOTA TANGERANG SELATAN","ID_KEC":"36.74.02","KECAMATAN":"SERPONG UTARA","ID_DESA":"36.74.02.1004","DESA":"PONDOK JAGUNG","LONGITUDE":106.65189,"LATITUDE":-6.2592673,"STATUS":"BUKA","TANGGAL PENGUMPULAN":"Q1 2024","TANGGAL UPDATE":"28/02/2025"}},{"type":"Feature","geometry":{"coordinates":[106.7055429,-6.2922245],"type":"Point"},"properties":{"NAMA":"POLIKLINIK SPESIALIS EDAH ORTHOPEDI","TIPE_1":"KESEHATAN DAN PENGOBATAN","TIPE_2":"RUMAH SAKIT","TIPE_3":"RUMAH SAKIT TULANG","TELEPON":"","ALAMAT":"JOMBANG, KEC. CIPUTAT, KOTA TANGERANG SELATAN, BANTEN 15414","ID_PROV":"36","PROVINSI":"BANTEN","ID_KABKOT":"36.74","KABKOT":"KOTA TANGERANG SELATAN","ID_KEC":"36.74.04","KECAMATAN":"CIPUTAT","ID_DESA":"36.74.04.1006","DESA":"JOMBANG","LONGITUDE":106.7055429,"LATITUDE":-6.2922245,"STATUS":"BUKA","TANGGAL PENGUMPULAN":"Q1 2024","TANGGAL UPDATE":"28/02/2025"}},{"type":"Feature","geometry":{"coordinates":[106.7566296,-6.30791],"type":"Point"},"properties":{"NAMA":"RUMAH SAKIT SYARIF HIDAYATULLAH.","TIPE_1":"KESEHATAN DAN PENGOBATAN","TIPE_2":"RUMAH SAKIT","TIPE_3":"RUMAH SAKIT UMUM SWASTA","TELEPON":"(021) 7440535","ALAMAT":"JL. IR H. JUANDA NO.95, PISANGAN, KEC. CIPUTAT TIM., KOTA TANGERANG SELATAN, BANTEN 15419","ID_PROV":"36","PROVINSI":"BANTEN","ID_KABKOT":"36.74","KABKOT":"KOTA TANGERANG SELATAN","ID_KEC":"36.74.05","KECAMATAN":"CIPUTAT TIMUR","ID_DESA":"36.74.05.1003","DESA":"PISANGAN","LONGITUDE":106.7566296,"LATITUDE":-6.30791,"STATUS":"BUKA","TANGGAL PENGUMPULAN":"Q1 2024","TANGGAL UPDATE":"28/02/2025"}},{"type":"Feature","geometry":{"coordinates":[106.6971113,-6.2714312],"type":"Point"},"properties":{"NAMA":"RUMAH SAKIT PONDOK INDAH BINTARO JAYA","TIPE_1":"KESEHATAN DAN PENGOBATAN","TIPE_2":"RUMAH SAKIT","TIPE_3":"RUMAH SAKIT UMUM SWASTA","TELEPON":"(021) 80828888","ALAMAT":"RUMAH SAKIT PD. INDAH BINTARO JAYA, CBD EMERALD BLOK CE/C, JL. BOULEVARD BINTARO JAYA NO.1, PARIGI, KEC. PD. AREN, KOTA TANGERANG SELATAN, BANTEN 15227","ID_PROV":"36","PROVINSI":"BANTEN","ID_KABKOT":"36.74","KABKOT":"KOTA TANGERANG SELATAN","ID_KEC":"36.74.03","KECAMATAN":"PONDOK AREN","ID_DESA":"36.74.03.1008","DESA":"PARIGI","LONGITUDE":106.6971113,"LATITUDE":-6.2714312,"STATUS":"BUKA","TANGGAL PENGUMPULAN":"Q1 2024","TANGGAL UPDATE":"28/02/2025"}},{"type":"Feature","geometry":{"coordinates":[106.7324483,-6.3478465],"type":"Point"},"properties":{"NAMA":"RUMAH SAKIT PRIVARY PELITA BANGSA - GLOBAL ISLAMIC SCHOOL","TIPE_1":"KESEHATAN DAN PENGOBATAN","TIPE_2":"RUMAH SAKIT","TIPE_3":"RUMAH SAKIT UMUM SWASTA","TELEPON":"","ALAMAT":"JL. KETAPANG 1 NO.25, RT.1/RW.5, PAMULANG BAR., KEC. PAMULANG, KOTA TANGERANG SELATAN, BANTEN 15417","ID_PROV":"36","PROVINSI":"BANTEN","ID_KABKOT":"36.74","KABKOT":"KOTA TANGERANG SELATAN","ID_KEC":"36.74.06","KECAMATAN":"PAMULANG","ID_DESA":"36.74.06.1001","DESA":"PAMULANG BARAT","LONGITUDE":106.7324483,"LATITUDE":-6.3478465,"STATUS":"BUKA","TANGGAL PENGUMPULAN":"Q1 2024","TANGGAL UPDATE":"28/02/2025"}},{"type":"Feature","geometry":{"coordinates":[106.7594961,-6.3068839],"type":"Point"},"properties":{"NAMA":"RUMAH SAKIT HERMINA CIPUTAT","TIPE_1":"KESEHATAN DAN PENGOBATAN","TIPE_2":"RUMAH SAKIT","TIPE_3":"RUMAH SAKIT UMUM SWASTA","TELEPON":"(021) 74702525","ALAMAT":"JL. KERTAMUKTI NO.2, CIREUNDEU, KEC. CIPUTAT TIM., KOTA TANGERANG SELATAN, BANTEN 15419","ID_PROV":"36","PROVINSI":"BANTEN","ID_KABKOT":"36.74","KABKOT":"KOTA TANGERANG SELATAN","ID_KEC":"36.74.05","KECAMATAN":"CIPUTAT TIMUR","ID_DESA":"36.74.05.1004","DESA":"CIREUNDEU","LONGITUDE":106.7594961,"LATITUDE":-6.3068839,"STATUS":"BUKA","TANGGAL PENGUMPULAN":"Q1 2024","TANGGAL UPDATE":"28/02/2025"}},{"type":"Feature","geometry":{"coordinates":[106.7485123,-6.2604467],"type":"Point"},"properties":{"NAMA":"RSUD PONDOK AREN","TIPE_1":"KESEHATAN DAN PENGOBATAN","TIPE_2":"RUMAH SAKIT","TIPE_3":"RUMAH SAKIT UMUM DAERAH/NEGERI","TELEPON":"(021) 73492962","ALAMAT":"PD. BETUNG, KEC. PD. AREN, KOTA TANGERANG SELATAN, BANTEN","ID_PROV":"36","PROVINSI":"BANTEN","ID_KABKOT":"36.74","KABKOT":"KOTA TANGERANG SELATAN","ID_KEC":"36.74.03","KECAMATAN":"PONDOK AREN","ID_DESA":"36.74.03.1001","DESA":"PONDOK BETUNG","LONGITUDE":106.7485123,"LATITUDE":-6.2604467,"STATUS":"BUKA","TANGGAL PENGUMPULAN":"Q1 2024","TANGGAL UPDATE":"28/02/2025"}},{"type":"Feature","geometry":{"coordinates":[106.7327925,-6.3126502],"type":"Point"},"properties":{"NAMA":"RUMAH SAKIT BUAH HATI CIPUTAT","TIPE_1":"KESEHATAN DAN PENGOBATAN","TIPE_2":"RUMAH SAKIT","TIPE_3":"RUMAH SAKIT UMUM SWASTA","TELEPON":"0804 180 8808","ALAMAT":"JL. ARIA PUTRA NO.399, SERUA INDAH, KEC. CIPUTAT, KOTA TANGERANG SELATAN, BANTEN 15414","ID_PROV":"36","PROVINSI":"BANTEN","ID_KABKOT":"36.74","KABKOT":"KOTA TANGERANG SELATAN","ID_KEC":"36.74.04","KECAMATAN":"CIPUTAT","ID_DESA":"36.74.04.1005","DESA":"SERUA INDAH","LONGITUDE":106.7327925,"LATITUDE":-6.3126502,"STATUS":"BUKA","TANGGAL PENGUMPULAN":"Q1 2024","TANGGAL UPDATE":"28/02/2025"}},{"type":"Feature","geometry":{"coordinates":[106.6857013,-6.3465637],"type":"Point"},"properties":{"NAMA":"RSU HERMINA SERPONG","TIPE_1":"KESEHATAN DAN PENGOBATAN","TIPE_2":"RUMAH SAKIT","TIPE_3":"RUMAH SAKIT UMUM SWASTA","TELEPON":"(021) 75884999","ALAMAT":"JL. RAYA PUSPITEK NO.KM 1 NO 99, BUARAN, KEC. SERPONG, KOTA TANGERANG SELATAN, BANTEN 15310","ID_PROV":"36","PROVINSI":"BANTEN","ID_KABKOT":"36.74","KABKOT":"KOTA TANGERANG SELATAN","ID_KEC":"36.74.01","KECAMATAN":"SERPONG","ID_DESA":"36.74.01.1006","DESA":"BUARAN","LONGITUDE":106.6857013,"LATITUDE":-6.3465637,"STATUS":"BUKA","TANGGAL PENGUMPULAN":"Q1 2024","TANGGAL UPDATE":"28/02/2025"}},{"type":"Feature","geometry":{"coordinates":[106.7386369,-6.3376475],"type":"Point"},"properties":{"NAMA":"RSU KOTA TANGERANG SELATAN","TIPE_1":"KESEHATAN DAN PENGOBATAN","TIPE_2":"RUMAH SAKIT","TIPE_3":"RUMAH SAKIT UMUM DAERAH/NEGERI","TELEPON":"(021) 7492398","ALAMAT":"JL. PAJAJARAN NO.101, PAMULANG BAR., KEC. PAMULANG, KOTA TANGERANG SELATAN, BANTEN 15417","ID_PROV":"36","PROVINSI":"BANTEN","ID_KABKOT":"36.74","KABKOT":"KOTA TANGERANG SELATAN","ID_KEC":"36.74.06","KECAMATAN":"PAMULANG","ID_DESA":"36.74.06.1001","DESA":"PAMULANG BARAT","LONGITUDE":106.7386369,"LATITUDE":-6.3376475,"STATUS":"BUKA","TANGGAL PENGUMPULAN":"Q1 2024","TANGGAL UPDATE":"28/02/2025"}},{"type":"Feature","geometry":{"coordinates":[106.7237237,-6.2761985],"type":"Point"},"properties":{"NAMA":"RS PREMIER BINTARO","TIPE_1":"KESEHATAN DAN PENGOBATAN","TIPE_2":"RUMAH SAKIT","TIPE_3":"RUMAH SAKIT UMUM SWASTA","TELEPON":"(021) 27625500","ALAMAT":"JL. MOH. HUSNI THAMRIN NO.1, PD. JAYA, KEC. PD. AREN, KOTA TANGERANG SELATAN, BANTEN 15224","ID_PROV":"36","PROVINSI":"BANTEN","ID_KABKOT":"36.74","KABKOT":"KOTA TANGERANG SELATAN","ID_KEC":"36.74.03","KECAMATAN":"PONDOK AREN","ID_DESA":"36.74.03.1004","DESA":"PONDOK JAYA","LONGITUDE":106.7237237,"LATITUDE":-6.2761985,"STATUS":"BUKA","TANGGAL PENGUMPULAN":"Q1 2024","TANGGAL UPDATE":"28/02/2025"}},{"type":"Feature","geometry":{"coordinates":[106.6843069,-6.294478],"type":"Point"},"properties":{"NAMA":"RIS HOSPITAL","TIPE_1":"KESEHATAN DAN PENGOBATAN","TIPE_2":"RUMAH SAKIT","TIPE_3":"RUMAH SAKIT UMUM SWASTA","TELEPON":"(021) 29660950","ALAMAT":"JL. LENGKONG GUDANG TIMUR RAYA NO.777, BSD CITY, KEC. SERPONG, KOTA TANGERANG SELATAN, BANTEN 15321","ID_PROV":"36","PROVINSI":"BANTEN","ID_KABKOT":"36.74","KABKOT":"KOTA TANGERANG SELATAN","ID_KEC":"36.74.01","KECAMATAN":"SERPONG","ID_DESA":"36.74.01.1007","DESA":"LENGKONG GUDANG TIMUR","LONGITUDE":106.6843069,"LATITUDE":-6.294478,"STATUS":"BUKA","TANGGAL PENGUMPULAN":"Q1 2024","TANGGAL UPDATE":"28/02/2025"}},{"type":"Feature","geometry":{"coordinates":[106.669936,-6.298989],"type":"Point"},"properties":{"NAMA":"EKA HOSPITAL","TIPE_1":"KESEHATAN DAN PENGOBATAN","TIPE_2":"RUMAH SAKIT","TIPE_3":"RUMAH SAKIT UMUM SWASTA","TELEPON":"(021) 25655555","ALAMAT":"CENTRAL BUSINESS DISTRICT, JL. BOULEVARD BSD TIM. LOT IX, LENGKONG GUDANG, KEC. SERPONG, KOTA TANGERANG SELATAN, BANTEN 15321","ID_PROV":"36","PROVINSI":"BANTEN","ID_KABKOT":"36.74","KABKOT":"KOTA TANGERANG SELATAN","ID_KEC":"36.74.01","KECAMATAN":"SERPONG","ID_DESA":"36.74.01.1004","DESA":"LENGKONG GUDANG","LONGITUDE":106.669936,"LATITUDE":-6.298989,"STATUS":"BUKA","TANGGAL PENGUMPULAN":"Q1 2024","TANGGAL UPDATE":"28/02/2025"}},{"type":"Feature","geometry":{"coordinates":[106.7052011,-6.2919521],"type":"Point"},"properties":{"NAMA":"RS IMC BINTARO BY SARI ASIH GROUP","TIPE_1":"KESEHATAN DAN PENGOBATAN","TIPE_2":"RUMAH SAKIT","TIPE_3":"RUMAH SAKIT UMUM SWASTA","TELEPON":"","ALAMAT":"JL. JOMBANG RAYA NO.56, JOMBANG, CIPUTAT, SOUTH TANGERANG CITY, BANTEN 15414","ID_PROV":"36","PROVINSI":"BANTEN","ID_KABKOT":"36.74","KABKOT":"KOTA TANGERANG SELATAN","ID_KEC":"36.74.04","KECAMATAN":"CIPUTAT","ID_DESA":"36.74.04.1006","DESA":"JOMBANG","LONGITUDE":106.7052011,"LATITUDE":-6.2919521,"STATUS":"BUKA","TANGGAL PENGUMPULAN":"Q1 2024","TANGGAL UPDATE":"28/02/2025"}},{"type":"Feature","geometry":{"coordinates":[106.7053499,-6.2920335],"type":"Point"},"properties":{"NAMA":"RS ICHSAN MEDICAL CENTRE BINTARO","TIPE_1":"KESEHATAN DAN PENGOBATAN","TIPE_2":"RUMAH SAKIT","TIPE_3":"RUMAH SAKIT UMUM SWASTA","TELEPON":"(021) 7456379","ALAMAT":"JL. JOMBANG RAYA NO.56, BINTARO, JOMBANG, KEC. CIPUTAT, KOTA TANGERANG SELATAN, BANTEN 15414","ID_PROV":"36","PROVINSI":"BANTEN","ID_KABKOT":"36.74","KABKOT":"KOTA TANGERANG SELATAN","ID_KEC":"36.74.04","KECAMATAN":"CIPUTAT","ID_DESA":"36.74.04.1006","DESA":"JOMBANG","LONGITUDE":106.7053499,"LATITUDE":-6.2920335,"STATUS":"BUKA","TANGGAL PENGUMPULAN":"Q1 2024","TANGGAL UPDATE":"28/02/2025"}},{"type":"Feature","geometry":{"coordinates":[106.651621,-6.2594893],"type":"Point"},"properties":{"NAMA":"RS ISLAM ASSHOBIRIN","TIPE_1":"KESEHATAN DAN PENGOBATAN","TIPE_2":"RUMAH SAKIT","TIPE_3":"RUMAH SAKIT UMUM SWASTA","TELEPON":"(021) 5384314","ALAMAT":"RUMAH SAKIT ISLAM ASSHOBIRIN, JL. RAYA SERPONG KILOMETER 7 NO.11, RT.11/RW.08, PONDOK JAGUNG TIMUR, KEC. SERPONG UTARA, KOTA TANGERANG SELATAN, BANTEN 15326","ID_PROV":"36","PROVINSI":"BANTEN","ID_KABKOT":"36.74","KABKOT":"KOTA TANGERANG SELATAN","ID_KEC":"36.74.02","KECAMATAN":"SERPONG UTARA","ID_DESA":"36.74.02.1004","DESA":"PONDOK JAGUNG","LONGITUDE":106.651621,"LATITUDE":-6.2594893,"STATUS":"BUKA","TANGGAL PENGUMPULAN":"Q1 2024","TANGGAL UPDATE":"28/02/2025"}},{"type":"Feature","geometry":{"coordinates":[106.6738853,-6.2353063],"type":"Point"},"properties":{"NAMA":"RS INSAN PERMATA PAKU JAYA","TIPE_1":"KESEHATAN DAN PENGOBATAN","TIPE_2":"RUMAH SAKIT","TIPE_3":"RUMAH SAKIT UMUM SWASTA","TELEPON":"(021) 53121344","ALAMAT":"JL. BHAYANGKARA 1 NO.68, PAKU JAYA, KEC. SERPONG UTARA, KOTA TANGERANG SELATAN, BANTEN 15324","ID_PROV":"36","PROVINSI":"BANTEN","ID_KABKOT":"36.74","KABKOT":"KOTA TANGERANG SELATAN","ID_KEC":"36.74.02","KECAMATAN":"SERPONG UTARA","ID_DESA":"36.74.02.1003","DESA":"PAKUJAYA","LONGITUDE":106.6738853,"LATITUDE":-6.2353063,"STATUS":"BUKA","TANGGAL PENGUMPULAN":"Q1 2024","TANGGAL UPDATE":"28/02/2025"}},{"type":"Feature","geometry":{"coordinates":[106.6509857,-6.244958],"type":"Point"},"properties":{"NAMA":"RS EMC ALAM SUTERA","TIPE_1":"KESEHATAN DAN PENGOBATAN","TIPE_2":"RUMAH SAKIT","TIPE_3":"RUMAH SAKIT UMUM SWASTA","TELEPON":"150789","ALAMAT":"JL. ALAM SUTERA BOULEVARD NO.KAV. 25, PAKULONAN, KEC. SERPONG UTARA, KOTA TANGERANG SELATAN, BANTEN 15325","ID_PROV":"36","PROVINSI":"BANTEN","ID_KABKOT":"36.74","KABKOT":"KOTA TANGERANG SELATAN","ID_KEC":"36.74.02","KECAMATAN":"SERPONG UTARA","ID_DESA":"36.74.02.1001","DESA":"PAKULONAN","LONGITUDE":106.6509857,"LATITUDE":-6.244958,"STATUS":"BUKA","TANGGAL PENGUMPULAN":"Q1 2024","TANGGAL UPDATE":"28/02/2025"}},{"type":"Feature","geometry":{"coordinates":[106.6676266,-6.2842758],"type":"Point"},"properties":{"NAMA":"RS COLUMBIA ASIA BSD","TIPE_1":"KESEHATAN DAN PENGOBATAN","TIPE_2":"RUMAH SAKIT","TIPE_3":"RUMAH SAKIT UMUM SWASTA","TELEPON":"(021) 5372296","ALAMAT":"BSD SERPONG, JL. LETNAN SUTOPO NO.7 KAVLING KOMPLEK 3A, LENGKONG WETAN, KEC. SERPONG, KOTA TANGERANG SELATAN, BANTEN 15310","ID_PROV":"36","PROVINSI":"BANTEN","ID_KABKOT":"36.74","KABKOT":"KOTA TANGERANG SELATAN","ID_KEC":"36.74.01","KECAMATAN":"SERPONG","ID_DESA":"36.74.01.1005","DESA":"LENGKONG WETAN","LONGITUDE":106.6676266,"LATITUDE":-6.2842758,"STATUS":"BUKA","TANGGAL PENGUMPULAN":"Q1 2024","TANGGAL UPDATE":"28/02/2025"}},{"type":"Feature","geometry":{"coordinates":[106.7395517,-6.299022],"type":"Point"},"properties":{"NAMA":"RS CINTA KASIH","TIPE_1":"KESEHATAN DAN PENGOBATAN","TIPE_2":"RUMAH SAKIT","TIPE_3":"RUMAH SAKIT UMUM SWASTA","TELEPON":"(021) 74706020","ALAMAT":"JL. CIPUTAT BARU NO.10, SAWAH LAMA, KEC. CIPUTAT, KOTA TANGERANG SELATAN, BANTEN 15413","ID_PROV":"36","PROVINSI":"BANTEN","ID_KABKOT":"36.74","KABKOT":"KOTA TANGERANG SELATAN","ID_KEC":"36.74.04","KECAMATAN":"CIPUTAT","ID_DESA":"36.74.04.1004","DESA":"SAWAH","LONGITUDE":106.7395517,"LATITUDE":-6.299022,"STATUS":"BUKA","TANGGAL PENGUMPULAN":"Q1 2024","TANGGAL UPDATE":"28/02/2025"}},{"type":"Feature","geometry":{"coordinates":[106.647589,-6.2398834],"type":"Point"},"properties":{"NAMA":"RSU SERPONG UTARA","TIPE_1":"KESEHATAN DAN PENGOBATAN","TIPE_2":"RUMAH SAKIT","TIPE_3":"RUMAH SAKIT UMUM DAERAH/NEGERI","TELEPON":"(021) 38929999","ALAMAT":"JL. RAYA SERPONG, PAKULONAN, KEC. SERPONG UTARA, KOTA TANGERANG SELATAN, BANTEN 15325","ID_PROV":"36","PROVINSI":"BANTEN","ID_KABKOT":"36.74","KABKOT":"KOTA TANGERANG SELATAN","ID_KEC":"36.74.02","KECAMATAN":"SERPONG UTARA","ID_DESA":"36.74.02.1001","DESA":"PAKULONAN","LONGITUDE":106.647589,"LATITUDE":-6.2398834,"STATUS":"BUKA","TANGGAL PENGUMPULAN":"Q1 2024","TANGGAL UPDATE":"28/02/2025"}},{"type":"Feature","geometry":{"coordinates":[106.7458372,-6.2897426],"type":"Point"},"properties":{"NAMA":"RUMAH SAKIT UMUM HELSA CIPUTAT","TIPE_1":"KESEHATAN DAN PENGOBATAN","TIPE_2":"RUMAH SAKIT","TIPE_3":"RUMAH SAKIT UMUM SWASTA","TELEPON":"(021) 7425751","ALAMAT":"JL. W R SUPRATMAN NO.69, PD. RANJI, KEC. CIPUTAT TIM., KOTA TANGERANG SELATAN, BANTEN 15412","ID_PROV":"36","PROVINSI":"BANTEN","ID_KABKOT":"36.74","KABKOT":"KOTA TANGERANG SELATAN","ID_KEC":"36.74.05","KECAMATAN":"CIPUTAT TIMUR","ID_DESA":"36.74.05.1002","DESA":"PONDOK RANJI","LONGITUDE":106.7458372,"LATITUDE":-6.2897426,"STATUS":"BUKA","TANGGAL PENGUMPULAN":"Q1 2024","TANGGAL UPDATE":"28/02/2025"}},{"type":"Feature","geometry":{"coordinates":[106.7443307,-6.3253257],"type":"Point"},"properties":{"NAMA":"RUMAH SAKIT SARI ASIH CIPUTAT","TIPE_1":"KESEHATAN DAN PENGOBATAN","TIPE_2":"RUMAH SAKIT","TIPE_3":"RUMAH SAKIT UMUM SWASTA","TELEPON":"(021) 7410808","ALAMAT":"JL. OTISTA RAYA NO.3, CIPUTAT, KEC. CIPUTAT, KOTA TANGERANG SELATAN, BANTEN 15411","ID_PROV":"36","PROVINSI":"BANTEN","ID_KABKOT":"36.74","KABKOT":"KOTA TANGERANG SELATAN","ID_KEC":"36.74.04","KECAMATAN":"CIPUTAT","ID_DESA":"36.74.04.1003","DESA":"CIPUTAT","LONGITUDE":106.7443307,"LATITUDE":-6.3253257,"STATUS":"BUKA","TANGGAL PENGUMPULAN":"Q1 2024","TANGGAL UPDATE":"28/02/2025"}}]}