{"type":"FeatureCollection","features":[{"type":"Feature","geometry":{"coordinates":[107.0917902,-6.2710138],"type":"Point"},"properties":{"NAMA":"POLIKLINIK GIGI DAN MULUT","TIPE_1":"KESEHATAN DAN PENGOBATAN","TIPE_2":"RUMAH SAKIT","TIPE_3":"RUMAH SAKIT GIGI","TELEPON":"","ALAMAT":"JL. RAYA TEUKU UMAR NO.25, TELAGA ASIH, KEC. CIKARANG BAR., KABUPATEN BEKASI, JAWA BARAT 17530","ID_PROV":"32","PROVINSI":"JAWA BARAT","ID_KABKOT":"32.16","KABKOT":"BEKASI","ID_KEC":"32.16.08","KECAMATAN":"CIKARANG BARAT","ID_DESA":"32.16.08.1008","DESA":"TELAGA ASIH","LONGITUDE":107.0917902,"LATITUDE":-6.2710138,"STATUS":"BUKA","TANGGAL PENGUMPULAN":"Q1 2024","TANGGAL UPDATE":"28/02/2025"}},{"type":"Feature","geometry":{"coordinates":[107.119042,-6.3418841],"type":"Point"},"properties":{"NAMA":"RUMAH SAKIT IBU DAN ANAK GIZAR","TIPE_1":"KESEHATAN DAN PENGOBATAN","TIPE_2":"RUMAH SAKIT","TIPE_3":"RUMAH SAKIT BERSALIN/IBU DAN ANAK","TELEPON":"(021) 89677239","ALAMAT":"VILLA MUTIARA CIKARANG 1 NO. 3,5 DAN 6 JALAN VILLA MUTIARA CIKARANG CIANTRA, SUKADAMI, CIKARANG SEL., KABUPATEN BEKASI, JAWA BARAT 17550","ID_PROV":"32","PROVINSI":"JAWA BARAT","ID_KABKOT":"32.16","KABKOT":"BEKASI","ID_KEC":"32.16.19","KECAMATAN":"CIKARANG SELATAN","ID_DESA":"32.16.19.2003","DESA":"CIANTRA","LONGITUDE":107.119042,"LATITUDE":-6.3418841,"STATUS":"BUKA","TANGGAL PENGUMPULAN":"Q1 2024","TANGGAL UPDATE":"28/02/2025"}},{"type":"Feature","geometry":{"coordinates":[107.1247123,-6.3272361],"type":"Point"},"properties":{"NAMA":"RSIA NURUL ANNISA","TIPE_1":"KESEHATAN DAN PENGOBATAN","TIPE_2":"RUMAH SAKIT","TIPE_3":"RUMAH SAKIT BERSALIN/IBU DAN ANAK","TELEPON":"0813-8004-5756","ALAMAT":"JL. RAYA CIKARANG - CIBARUSAH, SUKARESMI, CIKARANG SEL., KABUPATEN BEKASI, JAWA BARAT 17550","ID_PROV":"32","PROVINSI":"JAWA BARAT","ID_KABKOT":"32.16","KABKOT":"BEKASI","ID_KEC":"32.16.19","KECAMATAN":"CIKARANG SELATAN","ID_DESA":"32.16.19.2005","DESA":"SUKARESMI","LONGITUDE":107.1247123,"LATITUDE":-6.3272361,"STATUS":"BUKA","TANGGAL PENGUMPULAN":"Q1 2024","TANGGAL UPDATE":"28/02/2025"}},{"type":"Feature","geometry":{"coordinates":[107.1446558,-6.2549401],"type":"Point"},"properties":{"NAMA":"RUMAH SAKIT IBU & ANAK KARTIKA HUSADA","TIPE_1":"KESEHATAN DAN PENGOBATAN","TIPE_2":"RUMAH SAKIT","TIPE_3":"RUMAH SAKIT BERSALIN/IBU DAN ANAK","TELEPON":"(021) 89906091","ALAMAT":"LIPPO CIKARANG CENTRAL MARKET BLOCK ESA 2, 3, 5 & 6, JL. MAIN NO. 1,, CIKARANG, KARANGASIH, CIKARANG UTARA, KARANGASIH, KEC. CIKARANG UTARA, KABUPATEN BEKASI, JAWA BARAT 17530","ID_PROV":"32","PROVINSI":"JAWA BARAT","ID_KABKOT":"32.16","KABKOT":"BEKASI","ID_KEC":"32.16.09","KECAMATAN":"CIKARANG UTARA","ID_DESA":"32.16.09.2003","DESA":"KARANGASIH","LONGITUDE":107.1446558,"LATITUDE":-6.2549401,"STATUS":"BUKA","TANGGAL PENGUMPULAN":"Q1 2024","TANGGAL UPDATE":"28/02/2025"}},{"type":"Feature","geometry":{"coordinates":[107.0126365,-6.1782239],"type":"Point"},"properties":{"NAMA":"RUMAH SAKIT IBU DAN ANAK VIOLA","TIPE_1":"KESEHATAN DAN PENGOBATAN","TIPE_2":"RUMAH SAKIT","TIPE_3":"RUMAH SAKIT BERSALIN/IBU DAN ANAK","TELEPON":"(021) 88983843","ALAMAT":"JL. RAYA PD. UNGU PERMAI SEKTOR 5 NO.22-26 BLOK A1, BAHAGIA, KEC. BABELAN, KABUPATEN BEKASI, JAWA BARAT 17125","ID_PROV":"32","PROVINSI":"JAWA BARAT","ID_KABKOT":"32.16","KABKOT":"BEKASI","ID_KEC":"32.16.02","KECAMATAN":"BABELAN","ID_DESA":"32.16.02.1006","DESA":"BAHAGIA","LONGITUDE":107.0126365,"LATITUDE":-6.1782239,"STATUS":"BUKA","TANGGAL PENGUMPULAN":"Q1 2024","TANGGAL UPDATE":"28/02/2025"}},{"type":"Feature","geometry":{"coordinates":[107.0423561,-6.2362856],"type":"Point"},"properties":{"NAMA":"RSIA AISYAH QURRATU'AIN","TIPE_1":"KESEHATAN DAN PENGOBATAN","TIPE_2":"RUMAH SAKIT","TIPE_3":"RUMAH SAKIT BERSALIN/IBU DAN ANAK","TELEPON":"(021) 82699453","ALAMAT":"JALAN SETIA MEKAR RAWA KALONG INDOPORLEN, TAMBUN SELATAN, BEKASI, AREN JAYA, BEKASI TIMUR, SETIAMEKAR, KEC. TAMBUN SEL., KABUPATEN BEKASI, JAWA BARAT 17111","ID_PROV":"32","PROVINSI":"JAWA BARAT","ID_KABKOT":"32.16","KABKOT":"BEKASI","ID_KEC":"32.16.06","KECAMATAN":"TAMBUN SELATAN","ID_DESA":"32.16.06.2006","DESA":"SETIAMEKAR","LONGITUDE":107.0423561,"LATITUDE":-6.2362856,"STATUS":"BUKA","TANGGAL PENGUMPULAN":"Q1 2024","TANGGAL UPDATE":"28/02/2025"}},{"type":"Feature","geometry":{"coordinates":[106.9734032,-6.1593196],"type":"Point"},"properties":{"NAMA":"PUSAT JANTUNG BEKASI (MYCARDIA)","TIPE_1":"KESEHATAN DAN PENGOBATAN","TIPE_2":"RUMAH SAKIT","TIPE_3":"RUMAH SAKIT JANTUNG","TELEPON":"(021) 50935555","ALAMAT":"KOTA HARAPAN INDAH BLOK I2-9 NO. 9, RT.10/RW.8, PUSAKA RAKYAT, KEC. TARUMAJAYA, KOTA BKS, JAWA BARAT 17214","ID_PROV":"32","PROVINSI":"JAWA BARAT","ID_KABKOT":"32.16","KABKOT":"BEKASI","ID_KEC":"32.16.01","KECAMATAN":"TARUMAJAYA","ID_DESA":"32.16.01.2003","DESA":"PUSAKA RAKYAT","LONGITUDE":106.9734032,"LATITUDE":-6.1593196,"STATUS":"BUKA","TANGGAL PENGUMPULAN":"Q1 2024","TANGGAL UPDATE":"28/02/2025"}},{"type":"Feature","geometry":{"coordinates":[107.1511711,-6.2923948],"type":"Point"},"properties":{"NAMA":"RUMAH SAKIT MITRA KELUARGA CIKARANG","TIPE_1":"KESEHATAN DAN PENGOBATAN","TIPE_2":"RUMAH SAKIT","TIPE_3":"RUMAH SAKIT UMUM SWASTA","TELEPON":"(021) 89840500","ALAMAT":"JL. RAYA INDUSTRI NO.100, MEKARMUKTI, KEC. CIKARANG UTARA, KABUPATEN BEKASI, JAWA BARAT 17530","ID_PROV":"32","PROVINSI":"JAWA BARAT","ID_KABKOT":"32.16","KABKOT":"BEKASI","ID_KEC":"32.16.09","KECAMATAN":"CIKARANG UTARA","ID_DESA":"32.16.09.2010","DESA":"MEKARMUKTI","LONGITUDE":107.1511711,"LATITUDE":-6.2923948,"STATUS":"BUKA","TANGGAL PENGUMPULAN":"Q1 2024","TANGGAL UPDATE":"28/02/2025"}},{"type":"Feature","geometry":{"coordinates":[107.0172595,-6.329771],"type":"Point"},"properties":{"NAMA":"RS. PRIMA SEHAT","TIPE_1":"KESEHATAN DAN PENGOBATAN","TIPE_2":"RUMAH SAKIT","TIPE_3":"RUMAH SAKIT UMUM SWASTA","TELEPON":"","ALAMAT":"RAYA NO.89 RW.019, JL. RAYA BEKASI TIMUR REGENSI, CIMUNING, KEC. MUSTIKA JAYA, KOTA BKS, JAWA BARAT 17155","ID_PROV":"32","PROVINSI":"JAWA BARAT","ID_KABKOT":"32.16","KABKOT":"BEKASI","ID_KEC":"32.16.18","KECAMATAN":"SETU","ID_DESA":"32.16.18.2003","DESA":"BURANGKENG","LONGITUDE":107.0172595,"LATITUDE":-6.329771,"STATUS":"BUKA","TANGGAL PENGUMPULAN":"Q1 2024","TANGGAL UPDATE":"28/02/2025"}},{"type":"Feature","geometry":{"coordinates":[107.0939739,-6.4076272],"type":"Point"},"properties":{"NAMA":"RUMAH SAKIT MEDIROSSA 2 CIBARUSAH","TIPE_1":"KESEHATAN DAN PENGOBATAN","TIPE_2":"RUMAH SAKIT","TIPE_3":"RUMAH SAKIT UMUM SWASTA","TELEPON":"(021) 89955555","ALAMAT":"JL. RAYA SERANG CIBARUSAH NO.5, SINDANGMULYA, KEC. CIBARUSAH, KABUPATEN BEKASI, JAWA BARAT 17340","ID_PROV":"32","PROVINSI":"JAWA BARAT","ID_KABKOT":"32.16","KABKOT":"BEKASI","ID_KEC":"32.16.22","KECAMATAN":"CIBARUSAH","ID_DESA":"32.16.22.2007","DESA":"SINDANGMULYA","LONGITUDE":107.0939739,"LATITUDE":-6.4076272,"STATUS":"BUKA","TANGGAL PENGUMPULAN":"Q1 2024","TANGGAL UPDATE":"28/02/2025"}},{"type":"Feature","geometry":{"coordinates":[107.0450024,-6.2735724],"type":"Point"},"properties":{"NAMA":"RUMAH SAKIT MITRA KELUARGA","TIPE_1":"KESEHATAN DAN PENGOBATAN","TIPE_2":"RUMAH SAKIT","TIPE_3":"RUMAH SAKIT UMUM SWASTA","TELEPON":"","ALAMAT":"LAMBANGSARI, KEC. TAMBUN SEL., KABUPATEN BEKASI, JAWA BARAT 17510","ID_PROV":"32","PROVINSI":"JAWA BARAT","ID_KABKOT":"32.16","KABKOT":"BEKASI","ID_KEC":"32.16.06","KECAMATAN":"TAMBUN SELATAN","ID_DESA":"32.16.06.2002","DESA":"LAMBANGSARI","LONGITUDE":107.0450024,"LATITUDE":-6.2735724,"STATUS":"BUKA","TANGGAL PENGUMPULAN":"Q1 2024","TANGGAL UPDATE":"28/02/2025"}},{"type":"Feature","geometry":{"coordinates":[107.1434928,-6.3314612],"type":"Point"},"properties":{"NAMA":"RUMAH SAKIT PERMATA KELUARGA","TIPE_1":"KESEHATAN DAN PENGOBATAN","TIPE_2":"RUMAH SAKIT","TIPE_3":"RUMAH SAKIT UMUM SWASTA","TELEPON":"(021) 89905588","ALAMAT":"JL. MH. THAMRIN NO.129, CIBATU, CIKARANG SEL., KABUPATEN BEKASI, JAWA BARAT 17550","ID_PROV":"32","PROVINSI":"JAWA BARAT","ID_KABKOT":"32.16","KABKOT":"BEKASI","ID_KEC":"32.16.19","KECAMATAN":"CIKARANG SELATAN","ID_DESA":"32.16.19.2001","DESA":"CIBATU","LONGITUDE":107.1434928,"LATITUDE":-6.3314612,"STATUS":"BUKA","TANGGAL PENGUMPULAN":"Q1 2024","TANGGAL UPDATE":"28/02/2025"}},{"type":"Feature","geometry":{"coordinates":[107.0342475,-6.1905765],"type":"Point"},"properties":{"NAMA":"RS.MUHAMMAD FADHIL","TIPE_1":"KESEHATAN DAN PENGOBATAN","TIPE_2":"RUMAH SAKIT","TIPE_3":"RUMAH SAKIT UMUM SWASTA","TELEPON":"0895-3507-11334","ALAMAT":"KEBALEN, KEC. BABELAN, KABUPATEN BEKASI, JAWA BARAT 17610","ID_PROV":"32","PROVINSI":"JAWA BARAT","ID_KABKOT":"32.16","KABKOT":"BEKASI","ID_KEC":"32.16.02","KECAMATAN":"BABELAN","ID_DESA":"32.16.02.1007","DESA":"KEBALEN","LONGITUDE":107.0342475,"LATITUDE":-6.1905765,"STATUS":"BUKA","TANGGAL PENGUMPULAN":"Q1 2024","TANGGAL UPDATE":"28/02/2025"}},{"type":"Feature","geometry":{"coordinates":[107.1738117,-6.2848434],"type":"Point"},"properties":{"NAMA":"RUMAH SAKIT PERMATA KELUARGA JABABEKA","TIPE_1":"KESEHATAN DAN PENGOBATAN","TIPE_2":"RUMAH SAKIT","TIPE_3":"RUMAH SAKIT UMUM SWASTA","TELEPON":"0813-1299-1119","ALAMAT":"KOTA JABABEKA, MEDICAL CITY, JL. DR. CIPTO MANGUNKUSUMO NO.1A, SIMPANGAN, KEC. CIKARANG UTARA, KABUPATEN BEKASI, JAWA BARAT 17530","ID_PROV":"32","PROVINSI":"JAWA BARAT","ID_KABKOT":"32.16","KABKOT":"BEKASI","ID_KEC":"32.16.09","KECAMATAN":"CIKARANG UTARA","ID_DESA":"32.16.09.2007","DESA":"SIMPANGAN","LONGITUDE":107.1738117,"LATITUDE":-6.2848434,"STATUS":"BUKA","TANGGAL PENGUMPULAN":"Q1 2024","TANGGAL UPDATE":"28/02/2025"}},{"type":"Feature","geometry":{"coordinates":[107.086667,-6.2522606],"type":"Point"},"properties":{"NAMA":"RS.CIBITUNG","TIPE_1":"KESEHATAN DAN PENGOBATAN","TIPE_2":"RUMAH SAKIT","TIPE_3":"RUMAH SAKIT UMUM SWASTA","TELEPON":"","ALAMAT":"JL. BOSIH RAYA NO.123, WANASARI, KEC. CIBITUNG, KABUPATEN BEKASI, JAWA BARAT 17520","ID_PROV":"32","PROVINSI":"JAWA BARAT","ID_KABKOT":"32.16","KABKOT":"BEKASI","ID_KEC":"32.16.07","KECAMATAN":"CIBITUNG","ID_DESA":"32.16.07.1001","DESA":"WANASARI","LONGITUDE":107.086667,"LATITUDE":-6.2522606,"STATUS":"BUKA","TANGGAL PENGUMPULAN":"Q1 2024","TANGGAL UPDATE":"28/02/2025"}},{"type":"Feature","geometry":{"coordinates":[107.1150916,-6.2539681],"type":"Point"},"properties":{"NAMA":"RUMAH SAKIT HERMINA METLAND CIBITUNG","TIPE_1":"KESEHATAN DAN PENGOBATAN","TIPE_2":"RUMAH SAKIT","TIPE_3":"RUMAH SAKIT UMUM SWASTA","TELEPON":"(021) 88362626","ALAMAT":"PERUMAHAN METLAND CIBITUNG, JL. METLAND CIBITUNG, TELAGAMURNI, KEC. CIKARANG BAR., KABUPATEN BEKASI, JAWA BARAT 17530","ID_PROV":"32","PROVINSI":"JAWA BARAT","ID_KABKOT":"32.16","KABKOT":"BEKASI","ID_KEC":"32.16.08","KECAMATAN":"CIKARANG BARAT","ID_DESA":"32.16.08.2001","DESA":"TELAGAMURNI","LONGITUDE":107.1150916,"LATITUDE":-6.2539681,"STATUS":"BUKA","TANGGAL PENGUMPULAN":"Q1 2024","TANGGAL UPDATE":"28/02/2025"}},{"type":"Feature","geometry":{"coordinates":[107.0475854,-6.2765728],"type":"Point"},"properties":{"NAMA":"RUMAH SAKIT HERMINA GRAND WISATA","TIPE_1":"KESEHATAN DAN PENGOBATAN","TIPE_2":"RUMAH SAKIT","TIPE_3":"RUMAH SAKIT UMUM SWASTA","TELEPON":"(021) 82651212","ALAMAT":"JL. FESTIVAL BOULEVARD BLOK JA 1 NO 1, LAMBANGSARI, KEC. TAMBUN SEL., KABUPATEN BEKASI, JAWA BARAT 17510","ID_PROV":"32","PROVINSI":"JAWA BARAT","ID_KABKOT":"32.16","KABKOT":"BEKASI","ID_KEC":"32.16.06","KECAMATAN":"TAMBUN SELATAN","ID_DESA":"32.16.06.2002","DESA":"LAMBANGSARI","LONGITUDE":107.0475854,"LATITUDE":-6.2765728,"STATUS":"BUKA","TANGGAL PENGUMPULAN":"Q1 2024","TANGGAL UPDATE":"28/02/2025"}},{"type":"Feature","geometry":{"coordinates":[107.067565,-6.264022],"type":"Point"},"properties":{"NAMA":"RUMAH SAKIT KARYA MEDIKA II","TIPE_1":"KESEHATAN DAN PENGOBATAN","TIPE_2":"RUMAH SAKIT","TIPE_3":"RUMAH SAKIT UMUM SWASTA","TELEPON":"(021) 88324366","ALAMAT":"JL. SULTAN HASANUDIN NO.63, TAMBUN, KEC. TAMBUN SEL., KABUPATEN BEKASI, JAWA BARAT 17510","ID_PROV":"32","PROVINSI":"JAWA BARAT","ID_KABKOT":"32.16","KABKOT":"BEKASI","ID_KEC":"32.16.06","KECAMATAN":"TAMBUN SELATAN","ID_DESA":"32.16.06.2004","DESA":"TAMBUN","LONGITUDE":107.067565,"LATITUDE":-6.264022,"STATUS":"BUKA","TANGGAL PENGUMPULAN":"Q1 2024","TANGGAL UPDATE":"28/02/2025"}},{"type":"Feature","geometry":{"coordinates":[107.140298,-6.26237],"type":"Point"},"properties":{"NAMA":"RUMAH SAKIT BHAKTI HUSADA","TIPE_1":"KESEHATAN DAN PENGOBATAN","TIPE_2":"RUMAH SAKIT","TIPE_3":"RUMAH SAKIT UMUM SWASTA","TELEPON":"(021) 8900530","ALAMAT":"JL. RE. MARTADINATA, KARANGBARU, KEC. CIKARANG UTARA, KABUPATEN BEKASI, JAWA BARAT 17530","ID_PROV":"32","PROVINSI":"JAWA BARAT","ID_KABKOT":"32.16","KABKOT":"BEKASI","ID_KEC":"32.16.09","KECAMATAN":"CIKARANG UTARA","ID_DESA":"32.16.09.2002","DESA":"KARANGBARU","LONGITUDE":107.140298,"LATITUDE":-6.26237,"STATUS":"BUKA","TANGGAL PENGUMPULAN":"Q1 2024","TANGGAL UPDATE":"28/02/2025"}},{"type":"Feature","geometry":{"coordinates":[107.0861066,-6.3263327],"type":"Point"},"properties":{"NAMA":"RS. DKH CIKARANG BARAT","TIPE_1":"KESEHATAN DAN PENGOBATAN","TIPE_2":"RUMAH SAKIT","TIPE_3":"RUMAH SAKIT UMUM SWASTA","TELEPON":"(021) 89983741","ALAMAT":"JL. RAYA JATIWANGI NO.1, RW.01, CIKEDOKAN, KEC. CIKARANG BAR., KABUPATEN BEKASI, JAWA BARAT 17530","ID_PROV":"32","PROVINSI":"JAWA BARAT","ID_KABKOT":"32.16","KABKOT":"BEKASI","ID_KEC":"32.16.08","KECAMATAN":"CIKARANG BARAT","ID_DESA":"32.16.08.2011","DESA":"CIKEDOKAN","LONGITUDE":107.0861066,"LATITUDE":-6.3263327,"STATUS":"BUKA","TANGGAL PENGUMPULAN":"Q1 2024","TANGGAL UPDATE":"28/02/2025"}},{"type":"Feature","geometry":{"coordinates":[107.083236,-6.289636],"type":"Point"},"properties":{"NAMA":"RUMAH SAKIT GRHA MM2100","TIPE_1":"KESEHATAN DAN PENGOBATAN","TIPE_2":"RUMAH SAKIT","TIPE_3":"RUMAH SAKIT UMUM SWASTA","TELEPON":"(021) 50570999","ALAMAT":"KAWASAN INDUSTRI MM2100, JL. KALIMANTAN, GANDASARI, KEC. CIKARANG BAR., KABUPATEN BEKASI, JAWA BARAT 17530","ID_PROV":"32","PROVINSI":"JAWA BARAT","ID_KABKOT":"32.16","KABKOT":"BEKASI","ID_KEC":"32.16.08","KECAMATAN":"CIKARANG BARAT","ID_DESA":"32.16.08.2006","DESA":"GANDASARI","LONGITUDE":107.083236,"LATITUDE":-6.289636,"STATUS":"BUKA","TANGGAL PENGUMPULAN":"Q1 2024","TANGGAL UPDATE":"28/02/2025"}},{"type":"Feature","geometry":{"coordinates":[107.0691349,-6.4344526],"type":"Point"},"properties":{"NAMA":"RUMAH SAKIT HARAPAN MULIA","TIPE_1":"KESEHATAN DAN PENGOBATAN","TIPE_2":"RUMAH SAKIT","TIPE_3":"RUMAH SAKIT UMUM SWASTA","TELEPON":"(021) 89952340","ALAMAT":"JL. RAYA CIBARUSAH NO.5, CIBARUSAHJAYA, KEC. CIBARUSAH, KABUPATEN BEKASI, JAWA BARAT 17340","ID_PROV":"32","PROVINSI":"JAWA BARAT","ID_KABKOT":"32.16","KABKOT":"BEKASI","ID_KEC":"32.16.22","KECAMATAN":"CIBARUSAH","ID_DESA":"32.16.22.2006","DESA":"CIBARUSAH JAYA","LONGITUDE":107.0691349,"LATITUDE":-6.4344526,"STATUS":"BUKA","TANGGAL PENGUMPULAN":"Q1 2024","TANGGAL UPDATE":"28/02/2025"}},{"type":"Feature","geometry":{"coordinates":[107.1596508,-6.2995456],"type":"Point"},"properties":{"NAMA":"RUMAH SAKIT HARAPAN KELUARGA","TIPE_1":"KESEHATAN DAN PENGOBATAN","TIPE_2":"RUMAH SAKIT","TIPE_3":"RUMAH SAKIT UMUM SWASTA","TELEPON":"(021) 89840745","ALAMAT":"JL. KASUARI RAYA NO.KAV. 1A -1B, MEKARMUKTI, KEC. CIKARANG UTARA, KABUPATEN BEKASI, JAWA BARAT 17530","ID_PROV":"32","PROVINSI":"JAWA BARAT","ID_KABKOT":"32.16","KABKOT":"BEKASI","ID_KEC":"32.16.09","KECAMATAN":"CIKARANG UTARA","ID_DESA":"32.16.09.2010","DESA":"MEKARMUKTI","LONGITUDE":107.1596508,"LATITUDE":-6.2995456,"STATUS":"BUKA","TANGGAL PENGUMPULAN":"Q1 2024","TANGGAL UPDATE":"28/02/2025"}},{"type":"Feature","geometry":{"coordinates":[107.1449279,-6.2520096],"type":"Point"},"properties":{"NAMA":"RSU CIKARANG MEDIKA","TIPE_1":"KESEHATAN DAN PENGOBATAN","TIPE_2":"RUMAH SAKIT","TIPE_3":"RUMAH SAKIT UMUM SWASTA","TELEPON":"(021) 29568832","ALAMAT":"JL. KH. FUDHOLI NO.78, KARANGASIH, KEC. CIKARANG UTARA, KABUPATEN BEKASI, JAWA BARAT 17530","ID_PROV":"32","PROVINSI":"JAWA BARAT","ID_KABKOT":"32.16","KABKOT":"BEKASI","ID_KEC":"32.16.09","KECAMATAN":"CIKARANG UTARA","ID_DESA":"32.16.09.2003","DESA":"KARANGASIH","LONGITUDE":107.1449279,"LATITUDE":-6.2520096,"STATUS":"BUKA","TANGGAL PENGUMPULAN":"Q1 2024","TANGGAL UPDATE":"28/02/2025"}},{"type":"Feature","geometry":{"coordinates":[107.0668508,-6.2992689],"type":"Point"},"properties":{"NAMA":"RSU KARTIKA HUSADA","TIPE_1":"KESEHATAN DAN PENGOBATAN","TIPE_2":"RUMAH SAKIT","TIPE_3":"RUMAH SAKIT UMUM SWASTA","TELEPON":"","ALAMAT":"JL. RAYA PS. SETU NO.99, LUBANGBUAYA, TAMBELANG, KABUPATEN BEKASI, JAWA BARAT 17320","ID_PROV":"32","PROVINSI":"JAWA BARAT","ID_KABKOT":"32.16","KABKOT":"BEKASI","ID_KEC":"32.16.07","KECAMATAN":"CIBITUNG","ID_DESA":"32.16.07.2007","DESA":"CIBUNTU","LONGITUDE":107.0668508,"LATITUDE":-6.2992689,"STATUS":"BUKA","TANGGAL PENGUMPULAN":"Q1 2024","TANGGAL UPDATE":"28/02/2025"}},{"type":"Feature","geometry":{"coordinates":[107.0272172,-6.2702865],"type":"Point"},"properties":{"NAMA":"RSU AL-MUTAZZAM MEDIKA","TIPE_1":"KESEHATAN DAN PENGOBATAN","TIPE_2":"RUMAH SAKIT","TIPE_3":"RUMAH SAKIT UMUM SWASTA","TELEPON":"","ALAMAT":"JL. WARU RAYA, JATIMULYA, KEC. TAMBUN SEL., KABUPATEN BEKASI, JAWA BARAT 17510","ID_PROV":"32","PROVINSI":"JAWA BARAT","ID_KABKOT":"32.16","KABKOT":"BEKASI","ID_KEC":"32.16.06","KECAMATAN":"TAMBUN SELATAN","ID_DESA":"32.16.06.1001","DESA":"JATIMULYA","LONGITUDE":107.0272172,"LATITUDE":-6.2702865,"STATUS":"BUKA","TANGGAL PENGUMPULAN":"Q1 2024","TANGGAL UPDATE":"28/02/2025"}},{"type":"Feature","geometry":{"coordinates":[107.1744369,-6.2732557],"type":"Point"},"properties":{"NAMA":"RUMAH SAKIT ANNISA CIKARANG","TIPE_1":"KESEHATAN DAN PENGOBATAN","TIPE_2":"RUMAH SAKIT","TIPE_3":"RUMAH SAKIT UMUM SWASTA","TELEPON":"(021) 8904165","ALAMAT":"JL. RAYA LEMAHABANG NO.31, SIMPANGAN, KEC. CIKARANG UTARA, KABUPATEN BEKASI, JAWA BARAT 17836","ID_PROV":"32","PROVINSI":"JAWA BARAT","ID_KABKOT":"32.16","KABKOT":"BEKASI","ID_KEC":"32.16.09","KECAMATAN":"CIKARANG UTARA","ID_DESA":"32.16.09.2007","DESA":"SIMPANGAN","LONGITUDE":107.1744369,"LATITUDE":-6.2732557,"STATUS":"BUKA","TANGGAL PENGUMPULAN":"Q1 2024","TANGGAL UPDATE":"28/02/2025"}},{"type":"Feature","geometry":{"coordinates":[107.0412095,-6.1791022],"type":"Point"},"properties":{"NAMA":"RUMAH SAKIT ANANDA BABELAN","TIPE_1":"KESEHATAN DAN PENGOBATAN","TIPE_2":"RUMAH SAKIT","TIPE_3":"RUMAH SAKIT UMUM SWASTA","TELEPON":"(021) 89234000","ALAMAT":"JL. RAYA BABELAN NO.KM. 9.6, KEBALEN, KEC. BABELAN, KABUPATEN BEKASI, JAWA BARAT 17610","ID_PROV":"32","PROVINSI":"JAWA BARAT","ID_KABKOT":"32.16","KABKOT":"BEKASI","ID_KEC":"32.16.02","KECAMATAN":"BABELAN","ID_DESA":"32.16.02.1007","DESA":"KEBALEN","LONGITUDE":107.0412095,"LATITUDE":-6.1791022,"STATUS":"BUKA","TANGGAL PENGUMPULAN":"Q1 2024","TANGGAL UPDATE":"28/02/2025"}},{"type":"Feature","geometry":{"coordinates":[107.1188973,-6.357011],"type":"Point"},"properties":{"NAMA":"RUMAH SAKIT AMANDA","TIPE_1":"KESEHATAN DAN PENGOBATAN","TIPE_2":"RUMAH SAKIT","TIPE_3":"RUMAH SAKIT UMUM SWASTA","TELEPON":"(021) 8971643","ALAMAT":"JL. RAYA SERANG CIBARUSAH NO.83, SERANG, CIKARANG SEL., KABUPATEN BEKASI, JAWA BARAT 17330","ID_PROV":"32","PROVINSI":"JAWA BARAT","ID_KABKOT":"32.16","KABKOT":"BEKASI","ID_KEC":"32.16.19","KECAMATAN":"CIKARANG SELATAN","ID_DESA":"32.16.19.2006","DESA":"SERANG","LONGITUDE":107.1188973,"LATITUDE":-6.357011,"STATUS":"BUKA","TANGGAL PENGUMPULAN":"Q1 2024","TANGGAL UPDATE":"28/02/2025"}},{"type":"Feature","geometry":{"coordinates":[107.039023,-6.340468],"type":"Point"},"properties":{"NAMA":"RSU.KARTIKA HUSADA SETU","TIPE_1":"KESEHATAN DAN PENGOBATAN","TIPE_2":"RUMAH SAKIT","TIPE_3":"RUMAH SAKIT UMUM SWASTA","TELEPON":"(021) 82610003","ALAMAT":"RS KARTIKA HUSADA SETU BEKASI, JL. MT. HARYONO, BURANGKENG, KEC. SETU, KABUPATEN BEKASI, JAWA BARAT 17320","ID_PROV":"32","PROVINSI":"JAWA BARAT","ID_KABKOT":"32.16","KABKOT":"BEKASI","ID_KEC":"32.16.18","KECAMATAN":"SETU","ID_DESA":"32.16.18.2003","DESA":"BURANGKENG","LONGITUDE":107.039023,"LATITUDE":-6.340468,"STATUS":"BUKA","TANGGAL PENGUMPULAN":"Q1 2024","TANGGAL UPDATE":"28/02/2025"}},{"type":"Feature","geometry":{"coordinates":[107.0866481,-6.2532262],"type":"Point"},"properties":{"NAMA":"RS MITRA PLUMBON CIBITUNG","TIPE_1":"KESEHATAN DAN PENGOBATAN","TIPE_2":"RUMAH SAKIT","TIPE_3":"RUMAH SAKIT UMUM SWASTA","TELEPON":"(021) 88323444","ALAMAT":"JL. BOSIH RAYA NO.117, WANASARI, KEC. CIBITUNG, KABUPATEN BEKASI, JAWA BARAT 17520","ID_PROV":"32","PROVINSI":"JAWA BARAT","ID_KABKOT":"32.16","KABKOT":"BEKASI","ID_KEC":"32.16.07","KECAMATAN":"CIBITUNG","ID_DESA":"32.16.07.1001","DESA":"WANASARI","LONGITUDE":107.0866481,"LATITUDE":-6.2532262,"STATUS":"BUKA","TANGGAL PENGUMPULAN":"Q1 2024","TANGGAL UPDATE":"28/02/2025"}},{"type":"Feature","geometry":{"coordinates":[107.0317927,-6.2242462],"type":"Point"},"properties":{"NAMA":"RS PINNA TAMBUN BEKASI","TIPE_1":"KESEHATAN DAN PENGOBATAN","TIPE_2":"RUMAH SAKIT","TIPE_3":"RUMAH SAKIT UMUM SWASTA","TELEPON":"(021) 8827554","ALAMAT":"JL. RAYA KARANG SATRIA NO.4-5, KARANGSATRIA, KEC. TAMBUN UTARA, KOTA BKS, JAWA BARAT 17510","ID_PROV":"32","PROVINSI":"JAWA BARAT","ID_KABKOT":"32.16","KABKOT":"BEKASI","ID_KEC":"32.16.05","KECAMATAN":"TAMBUN UTARA","ID_DESA":"32.16.05.2008","DESA":"KARANGSATRIA","LONGITUDE":107.0317927,"LATITUDE":-6.2242462,"STATUS":"BUKA","TANGGAL PENGUMPULAN":"Q1 2024","TANGGAL UPDATE":"28/02/2025"}},{"type":"Feature","geometry":{"coordinates":[107.0807031,-6.2570188],"type":"Point"},"properties":{"NAMA":"RS PERMATA BUNDA BEKASI","TIPE_1":"KESEHATAN DAN PENGOBATAN","TIPE_2":"RUMAH SAKIT","TIPE_3":"RUMAH SAKIT UMUM SWASTA","TELEPON":"0822-9767-5094","ALAMAT":"BLOK C1 JL. GRAMAPURI I NO.8 - 10, WANASARI, KEC. CIBITUNG, KABUPATEN BEKASI, JAWA BARAT 17520","ID_PROV":"32","PROVINSI":"JAWA BARAT","ID_KABKOT":"32.16","KABKOT":"BEKASI","ID_KEC":"32.16.07","KECAMATAN":"CIBITUNG","ID_DESA":"32.16.07.1001","DESA":"WANASARI","LONGITUDE":107.0807031,"LATITUDE":-6.2570188,"STATUS":"BUKA","TANGGAL PENGUMPULAN":"Q1 2024","TANGGAL UPDATE":"28/02/2025"}},{"type":"Feature","geometry":{"coordinates":[107.0645265,-6.2445952],"type":"Point"},"properties":{"NAMA":"RS KARTIKA HUSADA","TIPE_1":"KESEHATAN DAN PENGOBATAN","TIPE_2":"RUMAH SAKIT","TIPE_3":"RUMAH SAKIT UMUM SWASTA","TELEPON":"(021) 88327281","ALAMAT":"JL. RAYA MANGUN JAYA, SUMBERJAYA, KEC. TAMBUN SEL., KABUPATEN BEKASI, JAWA BARAT 17510","ID_PROV":"32","PROVINSI":"JAWA BARAT","ID_KABKOT":"32.16","KABKOT":"BEKASI","ID_KEC":"32.16.06","KECAMATAN":"TAMBUN SELATAN","ID_DESA":"32.16.06.2009","DESA":"MANGUNJAYA","LONGITUDE":107.0645265,"LATITUDE":-6.2445952,"STATUS":"BUKA","TANGGAL PENGUMPULAN":"Q1 2024","TANGGAL UPDATE":"28/02/2025"}},{"type":"Feature","geometry":{"coordinates":[107.1468651,-6.2620232],"type":"Point"},"properties":{"NAMA":"RS AMANDA CIKARANG","TIPE_1":"KESEHATAN DAN PENGOBATAN","TIPE_2":"RUMAH SAKIT","TIPE_3":"RUMAH SAKIT UMUM SWASTA","TELEPON":"(021) 8900277","ALAMAT":"JL. RAYA INDUSTRI NO.36, CIKARANG KOTA, KEC. CIKARANG UTARA, KABUPATEN BEKASI, JAWA BARAT 17530","ID_PROV":"32","PROVINSI":"JAWA BARAT","ID_KABKOT":"32.16","KABKOT":"BEKASI","ID_KEC":"32.16.09","KECAMATAN":"CIKARANG UTARA","ID_DESA":"32.16.09.2001","DESA":"CIKARANGKOTA","LONGITUDE":107.1468651,"LATITUDE":-6.2620232,"STATUS":"BUKA","TANGGAL PENGUMPULAN":"Q1 2024","TANGGAL UPDATE":"28/02/2025"}},{"type":"Feature","geometry":{"coordinates":[107.1673543,-6.2995379],"type":"Point"},"properties":{"NAMA":"RS METRO HOSPITALS CIKARANG","TIPE_1":"KESEHATAN DAN PENGOBATAN","TIPE_2":"RUMAH SAKIT","TIPE_3":"RUMAH SAKIT UMUM SWASTA","TELEPON":"(021) 89835223","ALAMAT":"JALAN ANGGREK I. B2/2 MEKARMUKTI CIKARANG BARU, JALAN JABABEKA RAYA, MEKARMUKTI, KEC. CIKARANG UTARA, KABUPATEN BEKASI, JAWA BARAT 17534","ID_PROV":"32","PROVINSI":"JAWA BARAT","ID_KABKOT":"32.16","KABKOT":"BEKASI","ID_KEC":"32.16.09","KECAMATAN":"CIKARANG UTARA","ID_DESA":"32.16.09.2010","DESA":"MEKARMUKTI","LONGITUDE":107.1673543,"LATITUDE":-6.2995379,"STATUS":"BUKA","TANGGAL PENGUMPULAN":"Q1 2024","TANGGAL UPDATE":"28/02/2025"}},{"type":"Feature","geometry":{"coordinates":[107.0482905,-6.3317761],"type":"Point"},"properties":{"NAMA":"RS UNIMEDIKA SETU","TIPE_1":"KESEHATAN DAN PENGOBATAN","TIPE_2":"RUMAH SAKIT","TIPE_3":"RUMAH SAKIT UMUM SWASTA","TELEPON":"(021) 82628888","ALAMAT":"JL. RAYA PS. SETU NO.99, LUBANGBUAYA, KEC. SETU, KABUPATEN BEKASI, JAWA BARAT 17320","ID_PROV":"32","PROVINSI":"JAWA BARAT","ID_KABKOT":"32.16","KABKOT":"BEKASI","ID_KEC":"32.16.18","KECAMATAN":"SETU","ID_DESA":"32.16.18.2002","DESA":"LUBANGBUAYA","LONGITUDE":107.0482905,"LATITUDE":-6.3317761,"STATUS":"BUKA","TANGGAL PENGUMPULAN":"Q1 2024","TANGGAL UPDATE":"28/02/2025"}},{"type":"Feature","geometry":{"coordinates":[107.103206,-6.2736941],"type":"Point"},"properties":{"NAMA":"RS UMUM BUNDA MULIA","TIPE_1":"KESEHATAN DAN PENGOBATAN","TIPE_2":"RUMAH SAKIT","TIPE_3":"RUMAH SAKIT UMUM SWASTA","TELEPON":"","ALAMAT":"JL. RAYA IMAM BONJOL NO.80, SUKADANAU, KEC. TAMBELANG, KABUPATEN BEKASI, JAWA BARAT 17530","ID_PROV":"32","PROVINSI":"JAWA BARAT","ID_KABKOT":"32.16","KABKOT":"BEKASI","ID_KEC":"32.16.08","KECAMATAN":"CIKARANG BARAT","ID_DESA":"32.16.08.2007","DESA":"SUKADANAU","LONGITUDE":107.103206,"LATITUDE":-6.2736941,"STATUS":"BUKA","TANGGAL PENGUMPULAN":"Q1 2024","TANGGAL UPDATE":"28/02/2025"}},{"type":"Feature","geometry":{"coordinates":[107.1267656,-6.3242267],"type":"Point"},"properties":{"NAMA":"RS UMUM HARAPAN MULIA","TIPE_1":"KESEHATAN DAN PENGOBATAN","TIPE_2":"RUMAH SAKIT","TIPE_3":"RUMAH SAKIT UMUM SWASTA","TELEPON":"","ALAMAT":"JL. RAYA CIKARANG - CIBARUSAH NO.5, SUKARESMI, TAMBELANG, KABUPATEN BEKASI, JAWA BARAT 17530","ID_PROV":"32","PROVINSI":"JAWA BARAT","ID_KABKOT":"32.16","KABKOT":"BEKASI","ID_KEC":"32.16.19","KECAMATAN":"CIKARANG SELATAN","ID_DESA":"32.16.19.2005","DESA":"SUKARESMI","LONGITUDE":107.1267656,"LATITUDE":-6.3242267,"STATUS":"BUKA","TANGGAL PENGUMPULAN":"Q1 2024","TANGGAL UPDATE":"28/02/2025"}},{"type":"Feature","geometry":{"coordinates":[106.9924708,-6.1234051],"type":"Point"},"properties":{"NAMA":"RS TARUMAJAYA HOSPITAL","TIPE_1":"KESEHATAN DAN PENGOBATAN","TIPE_2":"RUMAH SAKIT","TIPE_3":"RUMAH SAKIT UMUM SWASTA","TELEPON":"(021) 88992337","ALAMAT":"NO., JL. TARUMAJAYA RAYA NO.1, PANTAI MAKMUR, KEC. TARUMAJAYA, KABUPATEN BEKASI, JAWA BARAT 17211","ID_PROV":"32","PROVINSI":"JAWA BARAT","ID_KABKOT":"32.16","KABKOT":"BEKASI","ID_KEC":"32.16.01","KECAMATAN":"TARUMAJAYA","ID_DESA":"32.16.01.2008","DESA":"PANTAI MAKMUR","LONGITUDE":106.9924708,"LATITUDE":-6.1234051,"STATUS":"BUKA","TANGGAL PENGUMPULAN":"Q1 2024","TANGGAL UPDATE":"28/02/2025"}},{"type":"Feature","geometry":{"coordinates":[107.2497095,-6.2677481],"type":"Point"},"properties":{"NAMA":"RS DKH KEDUNG WARINGIN","TIPE_1":"KESEHATAN DAN PENGOBATAN","TIPE_2":"RUMAH SAKIT","TIPE_3":"RUMAH SAKIT UMUM SWASTA","TELEPON":"(021) 89141890","ALAMAT":"JL. RAYA RENGAS-LEMAHABANG, BOJONGSARI, KEC. KEDUNGWARINGIN, KABUPATEN BEKASI, JAWA BARAT 17540","ID_PROV":"32","PROVINSI":"JAWA BARAT","ID_KABKOT":"32.16","KABKOT":"BEKASI","ID_KEC":"32.16.12","KECAMATAN":"KEDUNG WARINGIN","ID_DESA":"32.16.12.2006","DESA":"BOJONGSARI","LONGITUDE":107.2497095,"LATITUDE":-6.2677481,"STATUS":"BUKA","TANGGAL PENGUMPULAN":"Q1 2024","TANGGAL UPDATE":"28/02/2025"}},{"type":"Feature","geometry":{"coordinates":[107.1522963,-6.2788627],"type":"Point"},"properties":{"NAMA":"RS SENTRA MEDIKA CIKARANG","TIPE_1":"KESEHATAN DAN PENGOBATAN","TIPE_2":"RUMAH SAKIT","TIPE_3":"RUMAH SAKIT UMUM SWASTA","TELEPON":"(021) 8904160","ALAMAT":"JL. RAYA INDUSTRI, PASIRGOMBONG, KEC. CIKARANG UTARA, KABUPATEN BEKASI, JAWA BARAT 17530","ID_PROV":"32","PROVINSI":"JAWA BARAT","ID_KABKOT":"32.16","KABKOT":"BEKASI","ID_KEC":"32.16.09","KECAMATAN":"CIKARANG UTARA","ID_DESA":"32.16.09.2006","DESA":"PASIRGOMBONG","LONGITUDE":107.1522963,"LATITUDE":-6.2788627,"STATUS":"BUKA","TANGGAL PENGUMPULAN":"Q1 2024","TANGGAL UPDATE":"28/02/2025"}},{"type":"Feature","geometry":{"coordinates":[107.178331,-6.1734037],"type":"Point"},"properties":{"NAMA":"RS DKH SUKATANI","TIPE_1":"KESEHATAN DAN PENGOBATAN","TIPE_2":"RUMAH SAKIT","TIPE_3":"RUMAH SAKIT UMUM SWASTA","TELEPON":"(021) 89161099","ALAMAT":"JL. RAYA SUKATANI NO.9, SUKADARMA, KEC. SUKATANI, KABUPATEN BEKASI, JAWA BARAT 17530","ID_PROV":"32","PROVINSI":"JAWA BARAT","ID_KABKOT":"32.16","KABKOT":"BEKASI","ID_KEC":"32.16.10","KECAMATAN":"KARANG BAHAGIA","ID_DESA":"32.16.10.2006","DESA":"KARANGSENTOSA","LONGITUDE":107.178331,"LATITUDE":-6.1734037,"STATUS":"BUKA","TANGGAL PENGUMPULAN":"Q1 2024","TANGGAL UPDATE":"28/02/2025"}},{"type":"Feature","geometry":{"coordinates":[107.1246365,-6.2671856],"type":"Point"},"properties":{"NAMA":"RS. KARYA MEDIKA 1","TIPE_1":"KESEHATAN DAN PENGOBATAN","TIPE_2":"RUMAH SAKIT","TIPE_3":"RUMAH SAKIT UMUM SWASTA","TELEPON":"(021) 8903003","ALAMAT":"TELAGAMURNI, KEC. CIKARANG BAR., KABUPATEN BEKASI, JAWA BARAT 17530","ID_PROV":"32","PROVINSI":"JAWA BARAT","ID_KABKOT":"32.16","KABKOT":"BEKASI","ID_KEC":"32.16.08","KECAMATAN":"CIKARANG BARAT","ID_DESA":"32.16.08.2009","DESA":"KALIJAYA","LONGITUDE":107.1246365,"LATITUDE":-6.2671856,"STATUS":"BUKA","TANGGAL PENGUMPULAN":"Q1 2024","TANGGAL UPDATE":"28/02/2025"}},{"type":"Feature","geometry":{"coordinates":[107.0918815,-6.2708709],"type":"Point"},"properties":{"NAMA":"RS DOKTER ADAM TALIB","TIPE_1":"KESEHATAN DAN PENGOBATAN","TIPE_2":"RUMAH SAKIT","TIPE_3":"RUMAH SAKIT UMUM SWASTA","TELEPON":"","ALAMAT":"JL. RAYA TEUKU UMAR NO.25, TELAGA ASIH, KEC. CIKARANG BAR., KABUPATEN BEKASI, JAWA BARAT 17530","ID_PROV":"32","PROVINSI":"JAWA BARAT","ID_KABKOT":"32.16","KABKOT":"BEKASI","ID_KEC":"32.16.08","KECAMATAN":"CIKARANG BARAT","ID_DESA":"32.16.08.1008","DESA":"TELAGA ASIH","LONGITUDE":107.0918815,"LATITUDE":-6.2708709,"STATUS":"BUKA","TANGGAL PENGUMPULAN":"Q1 2024","TANGGAL UPDATE":"28/02/2025"}},{"type":"Feature","geometry":{"coordinates":[107.1525248,-6.2435024],"type":"Point"},"properties":{"NAMA":"RADJAK HOSPITAL CIBITUNG BEKASI","TIPE_1":"KESEHATAN DAN PENGOBATAN","TIPE_2":"RUMAH SAKIT","TIPE_3":"RUMAH SAKIT UMUM SWASTA","TELEPON":"(021) 89073730","ALAMAT":"HUDA JALAN AL - HUDA 1, JL. KP. CIKARANG JATI NO.61, SUKAJAYA, KEC. CIBITUNG, KABUPATEN BEKASI, JAWA BARAT 17520","ID_PROV":"32","PROVINSI":"JAWA BARAT","ID_KABKOT":"32.16","KABKOT":"BEKASI","ID_KEC":"32.16.07","KECAMATAN":"CIBITUNG","ID_DESA":"32.16.07.2006","DESA":"SUKAJAYA","LONGITUDE":107.1525248,"LATITUDE":-6.2435024,"STATUS":"BUKA","TANGGAL PENGUMPULAN":"Q1 2024","TANGGAL UPDATE":"28/02/2025"}},{"type":"Feature","geometry":{"coordinates":[107.0261497,-6.2713588],"type":"Point"},"properties":{"NAMA":"RS ANANDA TAMBUN SELATAN","TIPE_1":"KESEHATAN DAN PENGOBATAN","TIPE_2":"RUMAH SAKIT","TIPE_3":"RUMAH SAKIT UMUM SWASTA","TELEPON":"","ALAMAT":"JL. PERUMAHAN JL. JATIMULYA RAYA NO.1, JATIMULYA, KEC. TAMBUN SEL., KABUPATEN BEKASI, JAWA BARAT 17510","ID_PROV":"32","PROVINSI":"JAWA BARAT","ID_KABKOT":"32.16","KABKOT":"BEKASI","ID_KEC":"32.16.06","KECAMATAN":"TAMBUN SELATAN","ID_DESA":"32.16.06.1001","DESA":"JATIMULYA","LONGITUDE":107.0261497,"LATITUDE":-6.2713588,"STATUS":"BUKA","TANGGAL PENGUMPULAN":"Q1 2024","TANGGAL UPDATE":"28/02/2025"}},{"type":"Feature","geometry":{"coordinates":[107.1811467,-6.277178],"type":"Point"},"properties":{"NAMA":"RS ASRI MEDIKA","TIPE_1":"KESEHATAN DAN PENGOBATAN","TIPE_2":"RUMAH SAKIT","TIPE_3":"RUMAH SAKIT UMUM SWASTA","TELEPON":"0878-6243-4245","ALAMAT":"JL. CITANDUY RAYA NO.1 BLOK L11, SIMPANGAN, KEC. CIKARANG UTARA, KABUPATEN BEKASI, JAWA BARAT 17530","ID_PROV":"32","PROVINSI":"JAWA BARAT","ID_KABKOT":"32.16","KABKOT":"BEKASI","ID_KEC":"32.16.09","KECAMATAN":"CIKARANG UTARA","ID_DESA":"32.16.09.2007","DESA":"SIMPANGAN","LONGITUDE":107.1811467,"LATITUDE":-6.277178,"STATUS":"BUKA","TANGGAL PENGUMPULAN":"Q1 2024","TANGGAL UPDATE":"28/02/2025"}},{"type":"Feature","geometry":{"coordinates":[107.1810848,-6.2772109],"type":"Point"},"properties":{"NAMA":"RS ASRI MEDIKA","TIPE_1":"KESEHATAN DAN PENGOBATAN","TIPE_2":"RUMAH SAKIT","TIPE_3":"RUMAH SAKIT UMUM SWASTA","TELEPON":"0878-6243-4245","ALAMAT":"JL. CITANDUY RAYA NO.1 BLOK L11, SIMPANGAN, KEC. CIKARANG UTARA, KABUPATEN BEKASI, JAWA BARAT 17530","ID_PROV":"32","PROVINSI":"JAWA BARAT","ID_KABKOT":"32.16","KABKOT":"BEKASI","ID_KEC":"32.16.09","KECAMATAN":"CIKARANG UTARA","ID_DESA":"32.16.09.2007","DESA":"SIMPANGAN","LONGITUDE":107.1810848,"LATITUDE":-6.2772109,"STATUS":"BUKA","TANGGAL PENGUMPULAN":"Q1 2024","TANGGAL UPDATE":"28/02/2025"}},{"type":"Feature","geometry":{"coordinates":[106.9735308,-6.1592399],"type":"Point"},"properties":{"NAMA":"EKA HOSPITAL HARAPAN INDAH BEKASI","TIPE_1":"KESEHATAN DAN PENGOBATAN","TIPE_2":"RUMAH SAKIT","TIPE_3":"RUMAH SAKIT UMUM SWASTA","TELEPON":"(021) 50935555","ALAMAT":"JL. HARAPAN INDAH BOULEVARD NO.9 BLOK I2, RT.10/RW.8, PUSAKA RAKYAT, KEC. TARUMAJAYA, KOTA BKS, JAWA BARAT 17214","ID_PROV":"32","PROVINSI":"JAWA BARAT","ID_KABKOT":"32.16","KABKOT":"BEKASI","ID_KEC":"32.16.01","KECAMATAN":"TARUMAJAYA","ID_DESA":"32.16.01.2003","DESA":"PUSAKA RAKYAT","LONGITUDE":106.9735308,"LATITUDE":-6.1592399,"STATUS":"BUKA","TANGGAL PENGUMPULAN":"Q1 2024","TANGGAL UPDATE":"28/02/2025"}},{"type":"Feature","geometry":{"coordinates":[107.0823009,-6.2676211],"type":"Point"},"properties":{"NAMA":"RSUD KABUPATEN BEKASI","TIPE_1":"KESEHATAN DAN PENGOBATAN","TIPE_2":"RUMAH SAKIT","TIPE_3":"RUMAH SAKIT UMUM DAERAH/NEGERI","TELEPON":"(021) 88374444","ALAMAT":"JL. RAYA TEUKU UMAR NO.202, WANASARI, KEC. CIBITUNG, KABUPATEN BEKASI, JAWA BARAT 17520","ID_PROV":"32","PROVINSI":"JAWA BARAT","ID_KABKOT":"32.16","KABKOT":"BEKASI","ID_KEC":"32.16.07","KECAMATAN":"CIBITUNG","ID_DESA":"32.16.07.1001","DESA":"WANASARI","LONGITUDE":107.0823009,"LATITUDE":-6.2676211,"STATUS":"BUKA","TANGGAL PENGUMPULAN":"Q1 2024","TANGGAL UPDATE":"28/02/2025"}},{"type":"Feature","geometry":{"coordinates":[107.0162195,-6.3350863],"type":"Point"},"properties":{"NAMA":"HOSPITAL BEKASI","TIPE_1":"KESEHATAN DAN PENGOBATAN","TIPE_2":"RUMAH SAKIT","TIPE_3":"RUMAH SAKIT UMUM SWASTA","TELEPON":"","ALAMAT":"JL. BEKASI TIMUR RGENSI IV NO.320, CIMUNING, KEC. MUSTIKA JAYA, KOTA BKS, JAWA BARAT 17155","ID_PROV":"32","PROVINSI":"JAWA BARAT","ID_KABKOT":"32.16","KABKOT":"BEKASI","ID_KEC":"32.16.18","KECAMATAN":"SETU","ID_DESA":"32.16.18.2003","DESA":"BURANGKENG","LONGITUDE":107.0162195,"LATITUDE":-6.3350863,"STATUS":"BUKA","TANGGAL PENGUMPULAN":"Q1 2024","TANGGAL UPDATE":"28/02/2025"}},{"type":"Feature","geometry":{"coordinates":[107.130227,-6.3305619],"type":"Point"},"properties":{"NAMA":"RS HOSANA MEDICA LIPPO CIKARANG","TIPE_1":"KESEHATAN DAN PENGOBATAN","TIPE_2":"RUMAH SAKIT","TIPE_3":"RUMAH SAKIT UMUM SWASTA","TELEPON":"(021) 8972472","ALAMAT":"RUMAH SAKIT HOSANA MEDICA LIPPO CIKARANG, JALAN UTAMA BIIE NO. 1 LIPPO, CIBATU, CIKARANG SEL., KABUPATEN BEKASI, JAWA BARAT 17550","ID_PROV":"32","PROVINSI":"JAWA BARAT","ID_KABKOT":"32.16","KABKOT":"BEKASI","ID_KEC":"32.16.19","KECAMATAN":"CIKARANG SELATAN","ID_DESA":"32.16.19.2001","DESA":"CIBATU","LONGITUDE":107.130227,"LATITUDE":-6.3305619,"STATUS":"BUKA","TANGGAL PENGUMPULAN":"Q1 2024","TANGGAL UPDATE":"28/02/2025"}},{"type":"Feature","geometry":{"coordinates":[107.1148729,-6.2708442],"type":"Point"},"properties":{"NAMA":"RS BUNDA MULIA","TIPE_1":"KESEHATAN DAN PENGOBATAN","TIPE_2":"RUMAH SAKIT","TIPE_3":"RUMAH SAKIT UMUM SWASTA","TELEPON":"(021) 8900579","ALAMAT":"JL. RAYA IMAM BONJOL NO.80A, SUKADANAU, KEC. CIKARANG BAR., KABUPATEN BEKASI, JAWA BARAT 17530","ID_PROV":"32","PROVINSI":"JAWA BARAT","ID_KABKOT":"32.16","KABKOT":"BEKASI","ID_KEC":"32.16.08","KECAMATAN":"CIKARANG BARAT","ID_DESA":"32.16.08.2007","DESA":"SUKADANAU","LONGITUDE":107.1148729,"LATITUDE":-6.2708442,"STATUS":"BUKA","TANGGAL PENGUMPULAN":"Q1 2024","TANGGAL UPDATE":"28/02/2025"}},{"type":"Feature","geometry":{"coordinates":[107.064581,-6.2444454],"type":"Point"},"properties":{"NAMA":"RUMAH SAKIT BEKASI","TIPE_1":"KESEHATAN DAN PENGOBATAN","TIPE_2":"RUMAH SAKIT","TIPE_3":"RUMAH SAKIT UMUM DAERAH/NEGERI","TELEPON":"","ALAMAT":"MANGUNJAYA, KEC. TAMBUN SEL., KABUPATEN BEKASI, JAWA BARAT 17510","ID_PROV":"32","PROVINSI":"JAWA BARAT","ID_KABKOT":"32.16","KABKOT":"BEKASI","ID_KEC":"32.16.06","KECAMATAN":"TAMBUN SELATAN","ID_DESA":"32.16.06.2009","DESA":"MANGUNJAYA","LONGITUDE":107.064581,"LATITUDE":-6.2444454,"STATUS":"BUKA","TANGGAL PENGUMPULAN":"Q1 2024","TANGGAL UPDATE":"28/02/2025"}},{"type":"Feature","geometry":{"coordinates":[107.152722,-6.2868063],"type":"Point"},"properties":{"NAMA":"RS CENTRAL MEDIKA 1","TIPE_1":"KESEHATAN DAN PENGOBATAN","TIPE_2":"RUMAH SAKIT","TIPE_3":"RUMAH SAKIT UMUM SWASTA","TELEPON":"","ALAMAT":"GG. MABUK CINTA, PASIRGOMBONG, KEC. CIKARANG UTARA, KABUPATEN BEKASI, JAWA BARAT 17530","ID_PROV":"32","PROVINSI":"JAWA BARAT","ID_KABKOT":"32.16","KABKOT":"BEKASI","ID_KEC":"32.16.09","KECAMATAN":"CIKARANG UTARA","ID_DESA":"32.16.09.2006","DESA":"PASIRGOMBONG","LONGITUDE":107.152722,"LATITUDE":-6.2868063,"STATUS":"BUKA","TANGGAL PENGUMPULAN":"Q1 2024","TANGGAL UPDATE":"28/02/2025"}},{"type":"Feature","geometry":{"coordinates":[107.1606711,-6.2249974],"type":"Point"},"properties":{"NAMA":"RS CENKA","TIPE_1":"KESEHATAN DAN PENGOBATAN","TIPE_2":"RUMAH SAKIT","TIPE_3":"RUMAH SAKIT UMUM SWASTA","TELEPON":"(021) 89121188","ALAMAT":"JL. PILAR SUKATANI, RT.05/RW.06, SUKARAYA, KEC. KARANGBAHAGIA, KABUPATEN BEKASI, JAWA BARAT 17530","ID_PROV":"32","PROVINSI":"JAWA BARAT","ID_KABKOT":"32.16","KABKOT":"BEKASI","ID_KEC":"32.16.10","KECAMATAN":"KARANG BAHAGIA","ID_DESA":"32.16.10.2001","DESA":"SUKARAYA","LONGITUDE":107.1606711,"LATITUDE":-6.2249974,"STATUS":"BUKA","TANGGAL PENGUMPULAN":"Q1 2024","TANGGAL UPDATE":"28/02/2025"}},{"type":"Feature","geometry":{"coordinates":[107.1607505,-6.2248326],"type":"Point"},"properties":{"NAMA":"RS CENTRAL MEDIKA","TIPE_1":"KESEHATAN DAN PENGOBATAN","TIPE_2":"RUMAH SAKIT","TIPE_3":"RUMAH SAKIT UMUM SWASTA","TELEPON":"","ALAMAT":"JL. PILAR SUKATANI NO.44-39, SUKARAYA, KEC. KARANGBAHAGIA, KABUPATEN BEKASI, JAWA BARAT 17535","ID_PROV":"32","PROVINSI":"JAWA BARAT","ID_KABKOT":"32.16","KABKOT":"BEKASI","ID_KEC":"32.16.10","KECAMATAN":"KARANG BAHAGIA","ID_DESA":"32.16.10.2001","DESA":"SUKARAYA","LONGITUDE":107.1607505,"LATITUDE":-6.2248326,"STATUS":"BUKA","TANGGAL PENGUMPULAN":"Q1 2024","TANGGAL UPDATE":"28/02/2025"}},{"type":"Feature","geometry":{"coordinates":[107.1180361,-6.3621488],"type":"Point"},"properties":{"NAMA":"RS BUDI ASIH","TIPE_1":"KESEHATAN DAN PENGOBATAN","TIPE_2":"RUMAH SAKIT","TIPE_3":"RUMAH SAKIT UMUM SWASTA","TELEPON":"0813-8761-3242","ALAMAT":"JL. KH RADEN MA'MUN NAWAWI, SERANG, CIKARANG SEL., KABUPATEN BEKASI, JAWA BARAT 17530","ID_PROV":"32","PROVINSI":"JAWA BARAT","ID_KABKOT":"32.16","KABKOT":"BEKASI","ID_KEC":"32.16.19","KECAMATAN":"CIKARANG SELATAN","ID_DESA":"32.16.19.2006","DESA":"SERANG","LONGITUDE":107.1180361,"LATITUDE":-6.3621488,"STATUS":"BUKA","TANGGAL PENGUMPULAN":"Q1 2024","TANGGAL UPDATE":"28/02/2025"}},{"type":"Feature","geometry":{"coordinates":[107.0830173,-6.2894354],"type":"Point"},"properties":{"NAMA":"RS EMC CIBITUNG","TIPE_1":"KESEHATAN DAN PENGOBATAN","TIPE_2":"RUMAH SAKIT","TIPE_3":"RUMAH SAKIT UMUM SWASTA","TELEPON":"","ALAMAT":"JL. KALIMANTAN BLOK CB-1, COMMERCIAL AREA MM2100 INDUSTRIAL TOWN, KABUPATEN BEKASI, JAWA BARAT 17530","ID_PROV":"32","PROVINSI":"JAWA BARAT","ID_KABKOT":"32.16","KABKOT":"BEKASI","ID_KEC":"32.16.08","KECAMATAN":"CIKARANG BARAT","ID_DESA":"32.16.08.2006","DESA":"GANDASARI","LONGITUDE":107.0830173,"LATITUDE":-6.2894354,"STATUS":"BUKA","TANGGAL PENGUMPULAN":"Q1 2024","TANGGAL UPDATE":"28/02/2025"}},{"type":"Feature","geometry":{"coordinates":[107.1276574,-6.326151],"type":"Point"},"properties":{"NAMA":"RS EMC CIKARANG","TIPE_1":"KESEHATAN DAN PENGOBATAN","TIPE_2":"RUMAH SAKIT","TIPE_3":"RUMAH SAKIT UMUM SWASTA","TELEPON":"(021) 29779977","ALAMAT":"KOMPLEK THE OASIS, KOMPLEK THE OASIS KAV JL. RAYA CIKARANG - CIBARUSAH NO.1 KAV. I, SELATAN, SUKARESMI, CIKARANG SEL., KABUPATEN BEKASI, JAWA BARAT 17530","ID_PROV":"32","PROVINSI":"JAWA BARAT","ID_KABKOT":"32.16","KABKOT":"BEKASI","ID_KEC":"32.16.19","KECAMATAN":"CIKARANG SELATAN","ID_DESA":"32.16.19.2005","DESA":"SUKARESMI","LONGITUDE":107.1276574,"LATITUDE":-6.326151,"STATUS":"BUKA","TANGGAL PENGUMPULAN":"Q1 2024","TANGGAL UPDATE":"28/02/2025"}},{"type":"Feature","geometry":{"coordinates":[107.0382234,-6.19193],"type":"Point"},"properties":{"NAMA":"RUMAH SAKIT TIARA BEKASI","TIPE_1":"KESEHATAN DAN PENGOBATAN","TIPE_2":"RUMAH SAKIT","TIPE_3":"RUMAH SAKIT UMUM DAERAH/NEGERI","TELEPON":"0821-2330-1690","ALAMAT":"JL. RAYA BABELAN NO.63, KEBALEN, KEC. BABELAN, KABUPATEN BEKASI, JAWA BARAT 17160","ID_PROV":"32","PROVINSI":"JAWA BARAT","ID_KABKOT":"32.16","KABKOT":"BEKASI","ID_KEC":"32.16.02","KECAMATAN":"BABELAN","ID_DESA":"32.16.02.1007","DESA":"KEBALEN","LONGITUDE":107.0382234,"LATITUDE":-6.19193,"STATUS":"BUKA","TANGGAL PENGUMPULAN":"Q1 2024","TANGGAL UPDATE":"28/02/2025"}},{"type":"Feature","geometry":{"coordinates":[107.1351341,-6.3313709],"type":"Point"},"properties":{"NAMA":"SILOAM HOSPITALS LIPPO CIKARANG","TIPE_1":"KESEHATAN DAN PENGOBATAN","TIPE_2":"RUMAH SAKIT","TIPE_3":"RUMAH SAKIT UMUM SWASTA","TELEPON":"(021) 29636900","ALAMAT":"JL. MH. THAMRIN NO.KAV. 105, CIBATU, CIKARANG SEL., KABUPATEN BEKASI, JAWA BARAT 17530","ID_PROV":"32","PROVINSI":"JAWA BARAT","ID_KABKOT":"32.16","KABKOT":"BEKASI","ID_KEC":"32.16.19","KECAMATAN":"CIKARANG SELATAN","ID_DESA":"32.16.19.2001","DESA":"CIBATU","LONGITUDE":107.1351341,"LATITUDE":-6.3313709,"STATUS":"BUKA","TANGGAL PENGUMPULAN":"Q1 2024","TANGGAL UPDATE":"28/02/2025"}},{"type":"Feature","geometry":{"coordinates":[107.1210466,-6.2693873],"type":"Point"},"properties":{"NAMA":"RUMAH SAKIT RIDHOKA SALMA CIKARANG","TIPE_1":"KESEHATAN DAN PENGOBATAN","TIPE_2":"RUMAH SAKIT","TIPE_3":"RUMAH SAKIT UMUM SWASTA","TELEPON":"(021) 89116527","ALAMAT":"JL. RAYA IMAM BONJOL NO.7, KALIJAYA, KEC. CIKARANG BAR., KABUPATEN BEKASI, JAWA BARAT 17530","ID_PROV":"32","PROVINSI":"JAWA BARAT","ID_KABKOT":"32.16","KABKOT":"BEKASI","ID_KEC":"32.16.08","KECAMATAN":"CIKARANG BARAT","ID_DESA":"32.16.08.2009","DESA":"KALIJAYA","LONGITUDE":107.1210466,"LATITUDE":-6.2693873,"STATUS":"BUKA","TANGGAL PENGUMPULAN":"Q1 2024","TANGGAL UPDATE":"28/02/2025"}},{"type":"Feature","geometry":{"coordinates":[107.0197105,-6.2767589],"type":"Point"},"properties":{"NAMA":"RUMAH SAKIT PUSPA HUSADA","TIPE_1":"KESEHATAN DAN PENGOBATAN","TIPE_2":"RUMAH SAKIT","TIPE_3":"RUMAH SAKIT UMUM SWASTA","TELEPON":"0821-3003-9902","ALAMAT":"JALAN PONDOK TIMUR INDAH NO.KM.1 NO.27, JATIMULYA, KEC. TAMBUN SEL., KABUPATEN BEKASI, JAWA BARAT 17157","ID_PROV":"32","PROVINSI":"JAWA BARAT","ID_KABKOT":"32.16","KABKOT":"BEKASI","ID_KEC":"32.16.06","KECAMATAN":"TAMBUN SELATAN","ID_DESA":"32.16.06.1001","DESA":"JATIMULYA","LONGITUDE":107.0197105,"LATITUDE":-6.2767589,"STATUS":"BUKA","TANGGAL PENGUMPULAN":"Q1 2024","TANGGAL UPDATE":"28/02/2025"}},{"type":"Feature","geometry":{"coordinates":[107.0984064,-6.3419359],"type":"Point"},"properties":{"NAMA":"RSU DR.IQBALI TAUFAN","TIPE_1":"KESEHATAN DAN PENGOBATAN","TIPE_2":"RUMAH SAKIT","TIPE_3":"RUMAH SAKIT UMUM DAERAH/NEGERI","TELEPON":"(021) 8971769","ALAMAT":"JL. VILLA MUTIARA CIKARANG 2 NO.16-20 BLOK E3, SUKASEJATI, CIKARANG SEL., KABUPATEN BEKASI, JAWA BARAT 17530","ID_PROV":"32","PROVINSI":"JAWA BARAT","ID_KABKOT":"32.16","KABKOT":"BEKASI","ID_KEC":"32.16.19","KECAMATAN":"CIKARANG SELATAN","ID_DESA":"32.16.19.2002","DESA":"SUKASEJATI","LONGITUDE":107.0984064,"LATITUDE":-6.3419359,"STATUS":"BUKA","TANGGAL PENGUMPULAN":"Q1 2024","TANGGAL UPDATE":"28/02/2025"}},{"type":"Feature","geometry":{"coordinates":[107.0629887,-6.2382194],"type":"Point"},"properties":{"NAMA":"RUMAH SAKIT UMUM CAHAYA MEDIKA","TIPE_1":"KESEHATAN DAN PENGOBATAN","TIPE_2":"RUMAH SAKIT","TIPE_3":"RUMAH SAKIT UMUM SWASTA","TELEPON":"(021) 22137302","ALAMAT":"JL. RAYA VILLA BEKASI INDAH NO.47, JEJALENJAYA, KEC. TAMBUN UTARA, KABUPATEN BEKASI, JAWA BARAT 17510","ID_PROV":"32","PROVINSI":"JAWA BARAT","ID_KABKOT":"32.16","KABKOT":"BEKASI","ID_KEC":"32.16.05","KECAMATAN":"TAMBUN UTARA","ID_DESA":"32.16.05.2002","DESA":"JEJALENJAYA","LONGITUDE":107.0629887,"LATITUDE":-6.2382194,"STATUS":"BUKA","TANGGAL PENGUMPULAN":"Q1 2024","TANGGAL UPDATE":"28/02/2025"}}]}