{"type":"FeatureCollection","features":[{"type":"Feature","geometry":{"coordinates":[106.4970959,-6.2183601],"type":"Point"},"properties":{"NAMA":"RSIA SELARAS","TIPE_1":"KESEHATAN DAN PENGOBATAN","TIPE_2":"RUMAH SAKIT","TIPE_3":"RUMAH SAKIT BERSALIN/IBU DAN ANAK","TELEPON":"(021) 59401277","ALAMAT":"JALAN RAYA SERANG NO.KM 18.5, BOJONG, KEC. CIKUPA, KABUPATEN TANGERANG, BANTEN 15710","ID_PROV":"36","PROVINSI":"BANTEN","ID_KABKOT":"36.03","KABKOT":"TANGERANG","ID_KEC":"36.03.18","KECAMATAN":"CIKUPA","ID_DESA":"36.03.18.2014","DESA":"BOJONG","LONGITUDE":106.4970959,"LATITUDE":-6.2183601,"STATUS":"BUKA","TANGGAL PENGUMPULAN":"Q1 2024","TANGGAL UPDATE":"28/02/2025"}},{"type":"Feature","geometry":{"coordinates":[106.534642,-6.2189363],"type":"Point"},"properties":{"NAMA":"RS. BERSALIN INA NURDIANA","TIPE_1":"KESEHATAN DAN PENGOBATAN","TIPE_2":"RUMAH SAKIT","TIPE_3":"RUMAH SAKIT BERSALIN/IBU DAN ANAK","TELEPON":"","ALAMAT":"JL. KP. CREWED NO.32, RT.2/RW.1, SUKADAMAI, KEC. CIKUPA, KABUPATEN TANGERANG, BANTEN 15710","ID_PROV":"36","PROVINSI":"BANTEN","ID_KABKOT":"36.03","KABKOT":"TANGERANG","ID_KEC":"36.03.18","KECAMATAN":"CIKUPA","ID_DESA":"36.03.18.2011","DESA":"SUKADAMAI","LONGITUDE":106.534642,"LATITUDE":-6.2189363,"STATUS":"BUKA","TANGGAL PENGUMPULAN":"Q1 2024","TANGGAL UPDATE":"28/02/2025"}},{"type":"Feature","geometry":{"coordinates":[106.5804285,-6.1544346],"type":"Point"},"properties":{"NAMA":"RSIA BUNDA SEJAHTERA","TIPE_1":"KESEHATAN DAN PENGOBATAN","TIPE_2":"RUMAH SAKIT","TIPE_3":"RUMAH SAKIT BERSALIN/IBU DAN ANAK","TELEPON":"(021) 5925889","ALAMAT":"PERUMAHAN PONDOK MAKMUR, JL. PURI AGUNG NO.3, KUTA BARU, KEC. PS. KEMIS, KABUPATEN TANGERANG, BANTEN 15560","ID_PROV":"36","PROVINSI":"BANTEN","ID_KABKOT":"36.03","KABKOT":"TANGERANG","ID_KEC":"36.03.12","KECAMATAN":"PASAR KEMIS","ID_DESA":"36.03.12.1014","DESA":"KUTA BARU","LONGITUDE":106.5804285,"LATITUDE":-6.1544346,"STATUS":"BUKA","TANGGAL PENGUMPULAN":"Q1 2024","TANGGAL UPDATE":"28/02/2025"}},{"type":"Feature","geometry":{"coordinates":[106.4619139,-6.191924],"type":"Point"},"properties":{"NAMA":"RSIA ILANUR","TIPE_1":"KESEHATAN DAN PENGOBATAN","TIPE_2":"RUMAH SAKIT","TIPE_3":"RUMAH SAKIT BERSALIN/IBU DAN ANAK","TELEPON":"(021) 59450898","ALAMAT":"JL. RAYA SERANG NO.KM. 24 NO. 1, RT.3/RW.2, TALAGASARI, KEC. BALARAJA, KABUPATEN TANGERANG, BANTEN 15610","ID_PROV":"36","PROVINSI":"BANTEN","ID_KABKOT":"36.03","KABKOT":"TANGERANG","ID_KEC":"36.03.01","KECAMATAN":"BALARAJA","ID_DESA":"36.03.01.1001","DESA":"BALARAJA","LONGITUDE":106.4619139,"LATITUDE":-6.191924,"STATUS":"BUKA","TANGGAL PENGUMPULAN":"Q1 2024","TANGGAL UPDATE":"28/02/2025"}},{"type":"Feature","geometry":{"coordinates":[106.5255511,-6.2280166],"type":"Point"},"properties":{"NAMA":"RUMAH SAKIT IBU DAN ANAK TIARA","TIPE_1":"KESEHATAN DAN PENGOBATAN","TIPE_2":"RUMAH SAKIT","TIPE_3":"RUMAH SAKIT BERSALIN/IBU DAN ANAK","TELEPON":"(021) 5961999","ALAMAT":"JL. RAYA SERANG NO.KM.14, RW.5, PASIR GADUNG, KEC. CIKUPA, KABUPATEN TANGERANG, BANTEN 15710","ID_PROV":"36","PROVINSI":"BANTEN","ID_KABKOT":"36.03","KABKOT":"TANGERANG","ID_KEC":"36.03.18","KECAMATAN":"CIKUPA","ID_DESA":"36.03.18.2005","DESA":"TALAGASARI","LONGITUDE":106.5255511,"LATITUDE":-6.2280166,"STATUS":"BUKA","TANGGAL PENGUMPULAN":"Q1 2024","TANGGAL UPDATE":"28/02/2025"}},{"type":"Feature","geometry":{"coordinates":[106.4861588,-6.2562354],"type":"Point"},"properties":{"NAMA":"RSIA HARAPAN MULIA","TIPE_1":"KESEHATAN DAN PENGOBATAN","TIPE_2":"RUMAH SAKIT","TIPE_3":"RUMAH SAKIT BERSALIN/IBU DAN ANAK","TELEPON":"(021) 5991785","ALAMAT":"JALAN RAYA PAMDA, MATA GARA, KEC. TIGARAKSA, KABUPATEN TANGERANG, BANTEN 15720","ID_PROV":"36","PROVINSI":"BANTEN","ID_KABKOT":"36.03","KABKOT":"TANGERANG","ID_KEC":"36.03.03","KECAMATAN":"TIGARAKSA","ID_DESA":"36.03.03.2003","DESA":"MATAGARA","LONGITUDE":106.4861588,"LATITUDE":-6.2562354,"STATUS":"BUKA","TANGGAL PENGUMPULAN":"Q1 2024","TANGGAL UPDATE":"28/02/2025"}},{"type":"Feature","geometry":{"coordinates":[106.6168208,-6.2265222],"type":"Point"},"properties":{"NAMA":"SPESIALIS JANTUNG","TIPE_1":"KESEHATAN DAN PENGOBATAN","TIPE_2":"RUMAH SAKIT","TIPE_3":"RUMAH SAKIT JANTUNG","TELEPON":"","ALAMAT":"KLP. DUA, KEC. TANGERANG, KABUPATEN TANGERANG, BANTEN 15810","ID_PROV":"36","PROVINSI":"BANTEN","ID_KABKOT":"36.03","KABKOT":"TANGERANG","ID_KEC":"36.03.28","KECAMATAN":"KELAPA DUA","ID_DESA":"36.03.28.1001","DESA":"KELAPA DUA","LONGITUDE":106.6168208,"LATITUDE":-6.2265222,"STATUS":"BUKA","TANGGAL PENGUMPULAN":"Q1 2024","TANGGAL UPDATE":"28/02/2025"}},{"type":"Feature","geometry":{"coordinates":[106.5979495,-6.225466],"type":"Point"},"properties":{"NAMA":"HEART CENTER SILOAM","TIPE_1":"KESEHATAN DAN PENGOBATAN","TIPE_2":"RUMAH SAKIT","TIPE_3":"RUMAH SAKIT JANTUNG","TELEPON":"(021) 80646900","ALAMAT":"JL. SILOAM NO. 6 LIPPO VILLAGE, BENCONGAN, KELAPA DUA, BENCONGAN, KELAPA DUA, TANGERANG REGENCY, BANTEN 15811","ID_PROV":"36","PROVINSI":"BANTEN","ID_KABKOT":"36.03","KABKOT":"TANGERANG","ID_KEC":"36.03.28","KECAMATAN":"KELAPA DUA","ID_DESA":"36.03.28.1003","DESA":"BENCONGAN INDAH","LONGITUDE":106.5979495,"LATITUDE":-6.225466,"STATUS":"BUKA","TANGGAL PENGUMPULAN":"Q1 2024","TANGGAL UPDATE":"28/02/2025"}},{"type":"Feature","geometry":{"coordinates":[106.642367,-6.246994],"type":"Point"},"properties":{"NAMA":"RUMAH SAKIT ST. CAROLUS SUMMARECON SERPONG","TIPE_1":"KESEHATAN DAN PENGOBATAN","TIPE_2":"RUMAH SAKIT","TIPE_3":"RUMAH SAKIT UMUM SWASTA","TELEPON":"(021) 54220811","ALAMAT":"JL. GADING GOLF BOULEVARD NO.KAVLING 08, CIHUNI, KEC. PAGEDANGAN, KABUPATEN TANGERANG, BANTEN 15332","ID_PROV":"36","PROVINSI":"BANTEN","ID_KABKOT":"36.03","KABKOT":"TANGERANG","ID_KEC":"36.03.28","KECAMATAN":"KELAPA DUA","ID_DESA":"36.03.28.1004","DESA":"PAKULONAN BARAT","LONGITUDE":106.642367,"LATITUDE":-6.246994,"STATUS":"BUKA","TANGGAL PENGUMPULAN":"Q1 2024","TANGGAL UPDATE":"28/02/2025"}},{"type":"Feature","geometry":{"coordinates":[106.4328386,-6.2235287],"type":"Point"},"properties":{"NAMA":"RUMAH SAKIT SUCI PARAMITA","TIPE_1":"KESEHATAN DAN PENGOBATAN","TIPE_2":"RUMAH SAKIT","TIPE_3":"RUMAH SAKIT UMUM SWASTA","TELEPON":"(021) 5953353","ALAMAT":"KAWASAN INDUSTRI CCM, JL. RAYA SERANG NO.KM. 28, CANGKUDU, KEC. BALARAJA, KABUPATEN TANGERANG, BANTEN 15610","ID_PROV":"36","PROVINSI":"BANTEN","ID_KABKOT":"36.03","KABKOT":"TANGERANG","ID_KEC":"36.03.01","KECAMATAN":"BALARAJA","ID_DESA":"36.03.01.2003","DESA":"CANGKUDU","LONGITUDE":106.4328386,"LATITUDE":-6.2235287,"STATUS":"BUKA","TANGGAL PENGUMPULAN":"Q1 2024","TANGGAL UPDATE":"28/02/2025"}},{"type":"Feature","geometry":{"coordinates":[106.4772432,-6.268287],"type":"Point"},"properties":{"NAMA":"RSUD TIGARAKSA","TIPE_1":"KESEHATAN DAN PENGOBATAN","TIPE_2":"RUMAH SAKIT","TIPE_3":"RUMAH SAKIT UMUM DAERAH/NEGERI","TELEPON":"","ALAMAT":"JL. TIGA RAKSA NO.20 BLOK AE10, RT.4/RW.2, KADU AGUNG, KEC. TIGARAKSA, KABUPATEN TANGERANG, BANTEN 15720","ID_PROV":"36","PROVINSI":"BANTEN","ID_KABKOT":"36.03","KABKOT":"TANGERANG","ID_KEC":"36.03.03","KECAMATAN":"TIGARAKSA","ID_DESA":"36.03.03.1007","DESA":"KADU AGUNG","LONGITUDE":106.4772432,"LATITUDE":-6.268287,"STATUS":"BUKA","TANGGAL PENGUMPULAN":"Q1 2024","TANGGAL UPDATE":"28/02/2025"}},{"type":"Feature","geometry":{"coordinates":[106.6454883,-6.0758527],"type":"Point"},"properties":{"NAMA":"RUMAH SAKIT MITRA HUSADA","TIPE_1":"KESEHATAN DAN PENGOBATAN","TIPE_2":"RUMAH SAKIT","TIPE_3":"RUMAH SAKIT UMUM SWASTA","TELEPON":"(021) 55932610","ALAMAT":"JL. RAYA KAMPUNG MELAYU NO.11A, KP. MELAYU BARAT, KEC. TELUKNAGA, KABUPATEN TANGERANG, BANTEN 15510","ID_PROV":"36","PROVINSI":"BANTEN","ID_KABKOT":"36.03","KABKOT":"TANGERANG","ID_KEC":"36.03.13","KECAMATAN":"TELUKNAGA","ID_DESA":"36.03.13.2007","DESA":"KMP MELAYU BRT","LONGITUDE":106.6454883,"LATITUDE":-6.0758527,"STATUS":"BUKA","TANGGAL PENGUMPULAN":"Q1 2024","TANGGAL UPDATE":"28/02/2025"}},{"type":"Feature","geometry":{"coordinates":[106.6061439,-6.2579014],"type":"Point"},"properties":{"NAMA":"RUMAH SAKIT MENTARI","TIPE_1":"KESEHATAN DAN PENGOBATAN","TIPE_2":"RUMAH SAKIT","TIPE_3":"RUMAH SAKIT UMUM SWASTA","TELEPON":"(021) 22228000","ALAMAT":"JL. RAYA LEGOK - KARAWACI NO.KM.04, BOJONG NANGKA, KEC. KLP. DUA, KABUPATEN TANGERANG, BANTEN 15810","ID_PROV":"36","PROVINSI":"BANTEN","ID_KABKOT":"36.03","KABKOT":"TANGERANG","ID_KEC":"36.03.28","KECAMATAN":"KELAPA DUA","ID_DESA":"36.03.28.1005","DESA":"BOJONG NANGKA","LONGITUDE":106.6061439,"LATITUDE":-6.2579014,"STATUS":"BUKA","TANGGAL PENGUMPULAN":"Q1 2024","TANGGAL UPDATE":"28/02/2025"}},{"type":"Feature","geometry":{"coordinates":[106.537665,-6.2207114],"type":"Point"},"properties":{"NAMA":"RUMAH SAKIT PERMATA HATI","TIPE_1":"KESEHATAN DAN PENGOBATAN","TIPE_2":"RUMAH SAKIT","TIPE_3":"RUMAH SAKIT UMUM SWASTA","TELEPON":"(021) 59401437","ALAMAT":"JL. RAYA SERANG NO.KM 12, RT.2/RW.5, SUKADAMAI, KEC. CIKUPA, KABUPATEN TANGERANG, BANTEN 15710","ID_PROV":"36","PROVINSI":"BANTEN","ID_KABKOT":"36.03","KABKOT":"TANGERANG","ID_KEC":"36.03.18","KECAMATAN":"CIKUPA","ID_DESA":"36.03.18.2011","DESA":"SUKADAMAI","LONGITUDE":106.537665,"LATITUDE":-6.2207114,"STATUS":"BUKA","TANGGAL PENGUMPULAN":"Q1 2024","TANGGAL UPDATE":"28/02/2025"}},{"type":"Feature","geometry":{"coordinates":[106.5132292,-6.2283556],"type":"Point"},"properties":{"NAMA":"RUMAH SAKIT MULYA INSANI","TIPE_1":"KESEHATAN DAN PENGOBATAN","TIPE_2":"RUMAH SAKIT","TIPE_3":"RUMAH SAKIT UMUM SWASTA","TELEPON":"","ALAMAT":"SUKAMULYA, KEC. CIKUPA, KABUPATEN TANGERANG, BANTEN 15710","ID_PROV":"36","PROVINSI":"BANTEN","ID_KABKOT":"36.03","KABKOT":"TANGERANG","ID_KEC":"36.03.18","KECAMATAN":"CIKUPA","ID_DESA":"36.03.18.1001","DESA":"SUKAMULYA","LONGITUDE":106.5132292,"LATITUDE":-6.2283556,"STATUS":"BUKA","TANGGAL PENGUMPULAN":"Q1 2024","TANGGAL UPDATE":"28/02/2025"}},{"type":"Feature","geometry":{"coordinates":[106.5623357,-6.2520822],"type":"Point"},"properties":{"NAMA":"RUMAH SAKIT KELUARGA KITA","TIPE_1":"KESEHATAN DAN PENGOBATAN","TIPE_2":"RUMAH SAKIT","TIPE_3":"RUMAH SAKIT UMUM SWASTA","TELEPON":"(021) 59491011","ALAMAT":"JL. RAYA PLP CURUG NO.8, SUKA BAKTI, KEC. CURUG, KABUPATEN TANGERANG, BANTEN 15810","ID_PROV":"36","PROVINSI":"BANTEN","ID_KABKOT":"36.03","KABKOT":"TANGERANG","ID_KEC":"36.03.17","KECAMATAN":"CURUG","ID_DESA":"36.03.17.1005","DESA":"SUKABAKTI","LONGITUDE":106.5623357,"LATITUDE":-6.2520822,"STATUS":"BUKA","TANGGAL PENGUMPULAN":"Q1 2024","TANGGAL UPDATE":"28/02/2025"}},{"type":"Feature","geometry":{"coordinates":[106.5920473,-6.0706702],"type":"Point"},"properties":{"NAMA":"RSUD PAKUHAJI","TIPE_1":"KESEHATAN DAN PENGOBATAN","TIPE_2":"RUMAH SAKIT","TIPE_3":"RUMAH SAKIT UMUM DAERAH/NEGERI","TELEPON":"(021) 59378771","ALAMAT":"JL. RAYA PAKUHAJI NO.88, PAKUHAJI, KECAMATAN PAKUHAJI, KABUPATEN TANGERANG, BANTEN 15570","ID_PROV":"36","PROVINSI":"BANTEN","ID_KABKOT":"36.03","KABKOT":"TANGERANG","ID_KEC":"36.03.15","KECAMATAN":"PAKUHAJI","ID_DESA":"36.03.15.1001","DESA":"PAKUHAJI","LONGITUDE":106.5920473,"LATITUDE":-6.0706702,"STATUS":"BUKA","TANGGAL PENGUMPULAN":"Q1 2024","TANGGAL UPDATE":"28/02/2025"}},{"type":"Feature","geometry":{"coordinates":[106.6970002,-6.0816757],"type":"Point"},"properties":{"NAMA":"RUMAH SAKIT BUN (ANNISA GROUP)","TIPE_1":"KESEHATAN DAN PENGOBATAN","TIPE_2":"RUMAH SAKIT","TIPE_3":"RUMAH SAKIT UMUM SWASTA","TELEPON":"(021) 29031299","ALAMAT":"JL. RAYA KOSAMBI TIM. NO.2, KOSAMBI TIM., KEC. KOSAMBI, KABUPATEN TANGERANG, BANTEN 15213","ID_PROV":"36","PROVINSI":"BANTEN","ID_KABKOT":"36.03","KABKOT":"TANGERANG","ID_KEC":"36.03.14","KECAMATAN":"KOSAMBI","ID_DESA":"36.03.14.2002","DESA":"KOSAMBI TIMUR","LONGITUDE":106.6970002,"LATITUDE":-6.0816757,"STATUS":"BUKA","TANGGAL PENGUMPULAN":"Q1 2024","TANGGAL UPDATE":"28/02/2025"}},{"type":"Feature","geometry":{"coordinates":[106.4396755,-6.1971024],"type":"Point"},"properties":{"NAMA":"RSUD BALARAJA","TIPE_1":"KESEHATAN DAN PENGOBATAN","TIPE_2":"RUMAH SAKIT","TIPE_3":"RUMAH SAKIT UMUM DAERAH/NEGERI","TELEPON":"(021) 29508388","ALAMAT":"JLN RUMAH SAKIT NO.88, TOBAT, KEC. BALARAJA, KABUPATEN TANGERANG, BANTEN 15610","ID_PROV":"36","PROVINSI":"BANTEN","ID_KABKOT":"36.03","KABKOT":"TANGERANG","ID_KEC":"36.03.01","KECAMATAN":"BALARAJA","ID_DESA":"36.03.01.2009","DESA":"TOBAT","LONGITUDE":106.4396755,"LATITUDE":-6.1971024,"STATUS":"BUKA","TANGGAL PENGUMPULAN":"Q1 2024","TANGGAL UPDATE":"28/02/2025"}},{"type":"Feature","geometry":{"coordinates":[106.5622418,-6.2216225],"type":"Point"},"properties":{"NAMA":"RUMAH SAKIT HERMINA BITUNG","TIPE_1":"KESEHATAN DAN PENGOBATAN","TIPE_2":"RUMAH SAKIT","TIPE_3":"RUMAH SAKIT UMUM SWASTA","TELEPON":"(021) 59497525","ALAMAT":"JALAN RAYA SERANG, KABUPATEN NO NO.KM 10, KADU, KEC. CURUG, KABUPATEN TANGERANG, BANTEN 15810","ID_PROV":"36","PROVINSI":"BANTEN","ID_KABKOT":"36.03","KABKOT":"TANGERANG","ID_KEC":"36.03.17","KECAMATAN":"CURUG","ID_DESA":"36.03.17.2003","DESA":"KADU","LONGITUDE":106.5622418,"LATITUDE":-6.2216225,"STATUS":"BUKA","TANGGAL PENGUMPULAN":"Q1 2024","TANGGAL UPDATE":"28/02/2025"}},{"type":"Feature","geometry":{"coordinates":[106.5340009,-6.1699129],"type":"Point"},"properties":{"NAMA":"RS MBAYAS","TIPE_1":"KESEHATAN DAN PENGOBATAN","TIPE_2":"RUMAH SAKIT","TIPE_3":"RUMAH SAKIT UMUM SWASTA","TELEPON":"","ALAMAT":"JL. VETERAN NO.23, SUKAASIH, KEC. PS. KEMIS, KABUPATEN TANGERANG, BANTEN 15560","ID_PROV":"36","PROVINSI":"BANTEN","ID_KABKOT":"36.03","KABKOT":"TANGERANG","ID_KEC":"36.03.12","KECAMATAN":"PASAR KEMIS","ID_DESA":"36.03.12.2001","DESA":"PASAR KEMIS","LONGITUDE":106.5340009,"LATITUDE":-6.1699129,"STATUS":"BUKA","TANGGAL PENGUMPULAN":"Q1 2024","TANGGAL UPDATE":"28/02/2025"}},{"type":"Feature","geometry":{"coordinates":[106.5786085,-6.1184377],"type":"Point"},"properties":{"NAMA":"RS UNIMEDIKA SEPATAN TANGERANG","TIPE_1":"KESEHATAN DAN PENGOBATAN","TIPE_2":"RUMAH SAKIT","TIPE_3":"RUMAH SAKIT UMUM SWASTA","TELEPON":"0813-1689-9600","ALAMAT":"JL. RAYA PAKUHAJI NO.3, RT.002/RW.001, SEPATAN, KEC. SEPATAN, KABUPATEN TANGERANG, BANTEN 15520","ID_PROV":"36","PROVINSI":"BANTEN","ID_KABKOT":"36.03","KABKOT":"TANGERANG","ID_KEC":"36.03.16","KECAMATAN":"SEPATAN","ID_DESA":"36.03.16.2008","DESA":"PONDOK JAYA","LONGITUDE":106.5786085,"LATITUDE":-6.1184377,"STATUS":"BUKA","TANGGAL PENGUMPULAN":"Q1 2024","TANGGAL UPDATE":"28/02/2025"}},{"type":"Feature","geometry":{"coordinates":[106.5523233,-6.1718123],"type":"Point"},"properties":{"NAMA":"PRIMAYA HOSPITAL PASAR KEMIS","TIPE_1":"KESEHATAN DAN PENGOBATAN","TIPE_2":"RUMAH SAKIT","TIPE_3":"RUMAH SAKIT UMUM SWASTA","TELEPON":"(021) 59715777","ALAMAT":"JL. RAYA PS. KEMIS, RT.004/RW.002, KUTA JAYA, KEC. PS. KEMIS, KABUPATEN TANGERANG, BANTEN 15560","ID_PROV":"36","PROVINSI":"BANTEN","ID_KABKOT":"36.03","KABKOT":"TANGERANG","ID_KEC":"36.03.12","KECAMATAN":"PASAR KEMIS","ID_DESA":"36.03.12.1012","DESA":"KUTA JAYA","LONGITUDE":106.5523233,"LATITUDE":-6.1718123,"STATUS":"BUKA","TANGGAL PENGUMPULAN":"Q1 2024","TANGGAL UPDATE":"28/02/2025"}},{"type":"Feature","geometry":{"coordinates":[106.5215124,-6.2493903],"type":"Point"},"properties":{"NAMA":"CIPUTRA HOSPITAL CITRARAYA","TIPE_1":"KESEHATAN DAN PENGOBATAN","TIPE_2":"RUMAH SAKIT","TIPE_3":"RUMAH SAKIT UMUM SWASTA","TELEPON":"(021) 59405555","ALAMAT":"JL. CITRA RAYA BOULEVARD BLOK V00 NO.8, MEKAR BAKTI, KEC. PANONGAN, KABUPATEN TANGERANG, BANTEN 15710","ID_PROV":"36","PROVINSI":"BANTEN","ID_KABKOT":"36.03","KABKOT":"TANGERANG","ID_KEC":"36.03.19","KECAMATAN":"PANONGAN","ID_DESA":"36.03.19.1002","DESA":"MEKAR BAKTI","LONGITUDE":106.5215124,"LATITUDE":-6.2493903,"STATUS":"BUKA","TANGGAL PENGUMPULAN":"Q1 2024","TANGGAL UPDATE":"28/02/2025"}},{"type":"Feature","geometry":{"coordinates":[106.5970789,-6.2258075],"type":"Point"},"properties":{"NAMA":"SILOAM INTERNATIONAL HOSPITALS TBK (HEAD OFFICE)","TIPE_1":"KESEHATAN DAN PENGOBATAN","TIPE_2":"RUMAH SAKIT","TIPE_3":"RUMAH SAKIT UMUM SWASTA","TELEPON":"(021) 5460075","ALAMAT":"LIPPO VILLAGE, GDG FAK. KEDOKTERAN UPH, JL. BOULEVARD JEND. SUDIRMAN NO.15 LT. 32, KABUPATEN TANGERANG, BANTEN 15810","ID_PROV":"36","PROVINSI":"BANTEN","ID_KABKOT":"36.03","KABKOT":"TANGERANG","ID_KEC":"36.03.28","KECAMATAN":"KELAPA DUA","ID_DESA":"36.03.28.1003","DESA":"BENCONGAN INDAH","LONGITUDE":106.5970789,"LATITUDE":-6.2258075,"STATUS":"BUKA","TANGGAL PENGUMPULAN":"Q1 2024","TANGGAL UPDATE":"28/02/2025"}},{"type":"Feature","geometry":{"coordinates":[106.5979611,-6.2252322],"type":"Point"},"properties":{"NAMA":"SILOAM INTERNATIONAL HOSPITAL LIPPO VILLAGE","TIPE_1":"KESEHATAN DAN PENGOBATAN","TIPE_2":"RUMAH SAKIT","TIPE_3":"RUMAH SAKIT UMUM SWASTA","TELEPON":"(021) 80646900","ALAMAT":"SILOAM LIPPO KARAWACI, JALAN NO.6, BENCONGAN, KEC. KLP. DUA, KABUPATEN TANGERANG, BANTEN 15810","ID_PROV":"36","PROVINSI":"BANTEN","ID_KABKOT":"36.03","KABKOT":"TANGERANG","ID_KEC":"36.03.28","KECAMATAN":"KELAPA DUA","ID_DESA":"36.03.28.1003","DESA":"BENCONGAN INDAH","LONGITUDE":106.5979611,"LATITUDE":-6.2252322,"STATUS":"BUKA","TANGGAL PENGUMPULAN":"Q1 2024","TANGGAL UPDATE":"28/02/2025"}},{"type":"Feature","geometry":{"coordinates":[106.6107229,-6.240965],"type":"Point"},"properties":{"NAMA":"SILOAM HOSPITALS KELAPA DUA","TIPE_1":"KESEHATAN DAN PENGOBATAN","TIPE_2":"RUMAH SAKIT","TIPE_3":"RUMAH SAKIT UMUM SWASTA","TELEPON":"(021) 80524900","ALAMAT":"JL. KELAPA DUA RAYA NO.1001, KLP. DUA, KEC. KLP. DUA, KABUPATEN TANGERANG, BANTEN 15810","ID_PROV":"36","PROVINSI":"BANTEN","ID_KABKOT":"36.03","KABKOT":"TANGERANG","ID_KEC":"36.03.28","KECAMATAN":"KELAPA DUA","ID_DESA":"36.03.28.1001","DESA":"KELAPA DUA","LONGITUDE":106.6107229,"LATITUDE":-6.240965,"STATUS":"BUKA","TANGGAL PENGUMPULAN":"Q1 2024","TANGGAL UPDATE":"28/02/2025"}},{"type":"Feature","geometry":{"coordinates":[106.6169025,-6.226629],"type":"Point"},"properties":{"NAMA":"RUMAH SAKIT QADR","TIPE_1":"KESEHATAN DAN PENGOBATAN","TIPE_2":"RUMAH SAKIT","TIPE_3":"RUMAH SAKIT UMUM SWASTA","TELEPON":"(021) 5464466","ALAMAT":"KOMPLEK ISLAMIC VILLAGE, KLP. DUA, KEC. KARAWACI, KABUPATEN TANGERANG, BANTEN 15810","ID_PROV":"36","PROVINSI":"BANTEN","ID_KABKOT":"36.03","KABKOT":"TANGERANG","ID_KEC":"36.03.28","KECAMATAN":"KELAPA DUA","ID_DESA":"36.03.28.1001","DESA":"KELAPA DUA","LONGITUDE":106.6169025,"LATITUDE":-6.226629,"STATUS":"BUKA","TANGGAL PENGUMPULAN":"Q1 2024","TANGGAL UPDATE":"28/02/2025"}},{"type":"Feature","geometry":{"coordinates":[106.4971122,-6.2184709],"type":"Point"},"properties":{"NAMA":"RUMAH SAKIT SELARAS","TIPE_1":"KESEHATAN DAN PENGOBATAN","TIPE_2":"RUMAH SAKIT","TIPE_3":"RUMAH SAKIT UMUM SWASTA","TELEPON":"0877-7258-9555","ALAMAT":"JL. RAYA SERANG KM.17 NO.15C, BOJONG, KEC. CIKUPA, KABUPATEN TANGERANG, BANTEN 15710","ID_PROV":"36","PROVINSI":"BANTEN","ID_KABKOT":"36.03","KABKOT":"TANGERANG","ID_KEC":"36.03.18","KECAMATAN":"CIKUPA","ID_DESA":"36.03.18.2014","DESA":"BOJONG","LONGITUDE":106.4971122,"LATITUDE":-6.2184709,"STATUS":"BUKA","TANGGAL PENGUMPULAN":"Q1 2024","TANGGAL UPDATE":"28/02/2025"}},{"type":"Feature","geometry":{"coordinates":[106.6380109,-6.3507222],"type":"Point"},"properties":{"NAMA":"RUMAH SAKIT SELARAS","TIPE_1":"KESEHATAN DAN PENGOBATAN","TIPE_2":"RUMAH SAKIT","TIPE_3":"RUMAH SAKIT UMUM SWASTA","TELEPON":"0895-3281-82085","ALAMAT":"JALAN RAYA LAPAN - RUMPIN, SURADITA, KEC. CISAUK, KABUPATEN TANGERANG, BANTEN 15343","ID_PROV":"36","PROVINSI":"BANTEN","ID_KABKOT":"36.03","KABKOT":"TANGERANG","ID_KEC":"36.03.23","KECAMATAN":"CISAUK","ID_DESA":"36.03.23.2005","DESA":"SURADITA","LONGITUDE":106.6380109,"LATITUDE":-6.3507222,"STATUS":"BUKA","TANGGAL PENGUMPULAN":"Q1 2024","TANGGAL UPDATE":"28/02/2025"}}]}