{"type":"FeatureCollection","features":[{"type":"Feature","geometry":{"coordinates":[106.793518,-6.588467],"type":"Point"},"properties":{"NAMA":"RSKIA SAWOJAJAR","TIPE_1":"KESEHATAN DAN PENGOBATAN","TIPE_2":"RUMAH SAKIT","TIPE_3":"RUMAH SAKIT BERSALIN/IBU DAN ANAK","TELEPON":"(0251) 8324371","ALAMAT":"JL. SAWOJAJAR NO.9, RT.01/RW.04, PABATON, KECAMATAN BOGOR TENGAH, KOTA BOGOR, JAWA BARAT 16121","ID_PROV":"32","PROVINSI":"JAWA BARAT","ID_KABKOT":"32.71","KABKOT":"KOTA BOGOR","ID_KEC":"32.71.03","KECAMATAN":"BOGOR TENGAH","ID_DESA":"32.71.03.1003","DESA":"PABATON","LONGITUDE":106.793518,"LATITUDE":-6.588467,"STATUS":"BUKA","TANGGAL PENGUMPULAN":"Q1 2024","TANGGAL UPDATE":"28/02/2025"}},{"type":"Feature","geometry":{"coordinates":[106.8236396,-6.6282491],"type":"Point"},"properties":{"NAMA":"RS JULIANA","TIPE_1":"KESEHATAN DAN PENGOBATAN","TIPE_2":"RUMAH SAKIT","TIPE_3":"RUMAH SAKIT BERSALIN/IBU DAN ANAK","TELEPON":"(0251) 8339593","ALAMAT":"JL. RAYA TAJUR NO.75, TAJUR, KEC. BOGOR TIM., KOTA BOGOR, JAWA BARAT 16134","ID_PROV":"32","PROVINSI":"JAWA BARAT","ID_KABKOT":"32.71","KABKOT":"KOTA BOGOR","ID_KEC":"32.71.02","KECAMATAN":"BOGOR TIMUR","ID_DESA":"32.71.02.1006","DESA":"TAJUR","LONGITUDE":106.8236396,"LATITUDE":-6.6282491,"STATUS":"BUKA","TANGGAL PENGUMPULAN":"Q1 2024","TANGGAL UPDATE":"28/02/2025"}},{"type":"Feature","geometry":{"coordinates":[106.775349,-6.5524536],"type":"Point"},"properties":{"NAMA":"RSIA BUNDA SURYATNI BOGOR","TIPE_1":"KESEHATAN DAN PENGOBATAN","TIPE_2":"RUMAH SAKIT","TIPE_3":"RUMAH SAKIT BERSALIN/IBU DAN ANAK","TELEPON":"(0251) 7543892","ALAMAT":"JL. SHOLEH ISKANDAR NO.21, RT.05/RW.04, CIBADAK, KEC. TANAH SEREAL, KOTA BOGOR, JAWA BARAT 16166","ID_PROV":"32","PROVINSI":"JAWA BARAT","ID_KABKOT":"32.71","KABKOT":"KOTA BOGOR","ID_KEC":"32.71.06","KECAMATAN":"TANAH SAREAL","ID_DESA":"32.71.06.1011","DESA":"CIBADAK","LONGITUDE":106.775349,"LATITUDE":-6.5524536,"STATUS":"BUKA","TANGGAL PENGUMPULAN":"Q1 2024","TANGGAL UPDATE":"28/02/2025"}},{"type":"Feature","geometry":{"coordinates":[106.798903,-6.570604],"type":"Point"},"properties":{"NAMA":"RSIA PASUTRI BOGOR","TIPE_1":"KESEHATAN DAN PENGOBATAN","TIPE_2":"RUMAH SAKIT","TIPE_3":"RUMAH SAKIT BERSALIN/IBU DAN ANAK","TELEPON":"(0251) 8349707","ALAMAT":"JL. MERAK NO.3, RT.03/RW.06, TANAH SAREAL, KEC. TANAH SEREAL, KOTA BOGOR, JAWA BARAT 16161","ID_PROV":"32","PROVINSI":"JAWA BARAT","ID_KABKOT":"32.71","KABKOT":"KOTA BOGOR","ID_KEC":"32.71.06","KECAMATAN":"TANAH SAREAL","ID_DESA":"32.71.06.1001","DESA":"TANAH SAREAL","LONGITUDE":106.798903,"LATITUDE":-6.570604,"STATUS":"BUKA","TANGGAL PENGUMPULAN":"Q1 2024","TANGGAL UPDATE":"28/02/2025"}},{"type":"Feature","geometry":{"coordinates":[106.80747,-6.5793874],"type":"Point"},"properties":{"NAMA":"BEDAH TULANG / ORTHOPEDI","TIPE_1":"KESEHATAN DAN PENGOBATAN","TIPE_2":"RUMAH SAKIT","TIPE_3":"RUMAH SAKIT TULANG","TELEPON":"","ALAMAT":"BANTARJATI, KEC. BOGOR UTARA, KOTA BOGOR, JAWA BARAT 16153","ID_PROV":"32","PROVINSI":"JAWA BARAT","ID_KABKOT":"32.71","KABKOT":"KOTA BOGOR","ID_KEC":"32.71.05","KECAMATAN":"BOGOR UTARA","ID_DESA":"32.71.05.1001","DESA":"BANTARJATI","LONGITUDE":106.80747,"LATITUDE":-6.5793874,"STATUS":"BUKA","TANGGAL PENGUMPULAN":"Q1 2024","TANGGAL UPDATE":"28/02/2025"}},{"type":"Feature","geometry":{"coordinates":[106.8058606,-6.5985188],"type":"Point"},"properties":{"NAMA":"RS. PMI BOGOR","TIPE_1":"KESEHATAN DAN PENGOBATAN","TIPE_2":"RUMAH SAKIT","TIPE_3":"RUMAH SAKIT UMUM DAERAH/NEGERI","TELEPON":"(0251) 8324080","ALAMAT":"JL. RAYA PAJAJARAN NO.80, TEGALLEGA, KECAMATAN BOGOR TENGAH, KOTA BOGOR, JAWA BARAT 16129","ID_PROV":"32","PROVINSI":"JAWA BARAT","ID_KABKOT":"32.71","KABKOT":"KOTA BOGOR","ID_KEC":"32.71.03","KECAMATAN":"BOGOR TENGAH","ID_DESA":"32.71.03.1007","DESA":"TEGALLEGA","LONGITUDE":106.8058606,"LATITUDE":-6.5985188,"STATUS":"BUKA","TANGGAL PENGUMPULAN":"Q1 2024","TANGGAL UPDATE":"28/02/2025"}},{"type":"Feature","geometry":{"coordinates":[106.7395586,-6.5714657],"type":"Point"},"properties":{"NAMA":"RUMAH SAKIT MEDIKA DRAMAGA","TIPE_1":"KESEHATAN DAN PENGOBATAN","TIPE_2":"RUMAH SAKIT","TIPE_3":"RUMAH SAKIT UMUM SWASTA","TELEPON":"(0251) 8308900","ALAMAT":"JL. RAYA DRAMAGA NO.KM. 7,3, RT.01/RW.06, MARGAJAYA, BARAT, KOTA BOGOR, JAWA BARAT 16680","ID_PROV":"32","PROVINSI":"JAWA BARAT","ID_KABKOT":"32.71","KABKOT":"KOTA BOGOR","ID_KEC":"32.71.04","KECAMATAN":"BOGOR BARAT","ID_DESA":"32.71.04.1004","DESA":"MARGA JAYA","LONGITUDE":106.7395586,"LATITUDE":-6.5714657,"STATUS":"BUKA","TANGGAL PENGUMPULAN":"Q1 2024","TANGGAL UPDATE":"28/02/2025"}},{"type":"Feature","geometry":{"coordinates":[106.7921689,-6.5589335],"type":"Point"},"properties":{"NAMA":"RUMAH SAKIT ISLAM BOGOR","TIPE_1":"KESEHATAN DAN PENGOBATAN","TIPE_2":"RUMAH SAKIT","TIPE_3":"RUMAH SAKIT UMUM SWASTA","TELEPON":"(0251) 8316822","ALAMAT":"JL. PERDANA RAYA NO.22, RT.01/RW.10, KEDUNGBADAK, KEC. TANAH SEREAL, KOTA BOGOR, JAWA BARAT 16710","ID_PROV":"32","PROVINSI":"JAWA BARAT","ID_KABKOT":"32.71","KABKOT":"KOTA BOGOR","ID_KEC":"32.71.06","KECAMATAN":"TANAH SAREAL","ID_DESA":"32.71.06.1003","DESA":"KEDUNG BADAK","LONGITUDE":106.7921689,"LATITUDE":-6.5589335,"STATUS":"BUKA","TANGGAL PENGUMPULAN":"Q1 2024","TANGGAL UPDATE":"28/02/2025"}},{"type":"Feature","geometry":{"coordinates":[106.773863,-6.5575384],"type":"Point"},"properties":{"NAMA":"RUMAH SAKIT HERMINA KOTA BOGOR - TAMAN YASMIN","TIPE_1":"KESEHATAN DAN PENGOBATAN","TIPE_2":"RUMAH SAKIT","TIPE_3":"RUMAH SAKIT UMUM SWASTA","TELEPON":"(021) 7440874","ALAMAT":"RT.08/RW.08, CURUGMEKAR, KEC. BOGOR BAR., KOTA BOGOR, JAWA BARAT 16113","ID_PROV":"32","PROVINSI":"JAWA BARAT","ID_KABKOT":"32.71","KABKOT":"KOTA BOGOR","ID_KEC":"32.71.04","KECAMATAN":"BOGOR BARAT","ID_DESA":"32.71.04.1010","DESA":"CURUG MEKAR","LONGITUDE":106.773863,"LATITUDE":-6.5575384,"STATUS":"BUKA","TANGGAL PENGUMPULAN":"Q1 2024","TANGGAL UPDATE":"28/02/2025"}},{"type":"Feature","geometry":{"coordinates":[106.8061003,-6.5971371],"type":"Point"},"properties":{"NAMA":"RUMAH SAKIT KARYA MANDIRI UTAMA","TIPE_1":"KESEHATAN DAN PENGOBATAN","TIPE_2":"RUMAH SAKIT","TIPE_3":"RUMAH SAKIT UMUM SWASTA","TELEPON":"","ALAMAT":"RT.01/RW.08, KP. PARUNG JAMBU, BABAKAN, KECAMATAN BOGOR TENGAH, KOTA BOGOR, JAWA BARAT 16129","ID_PROV":"32","PROVINSI":"JAWA BARAT","ID_KABKOT":"32.71","KABKOT":"KOTA BOGOR","ID_KEC":"32.71.03","KECAMATAN":"BOGOR TENGAH","ID_DESA":"32.71.03.1005","DESA":"BABAKAN","LONGITUDE":106.8061003,"LATITUDE":-6.5971371,"STATUS":"BUKA","TANGGAL PENGUMPULAN":"Q1 2024","TANGGAL UPDATE":"28/02/2025"}},{"type":"Feature","geometry":{"coordinates":[106.8074938,-6.5792567],"type":"Point"},"properties":{"NAMA":"RUMAH SAKIT AZRA BOGOR","TIPE_1":"KESEHATAN DAN PENGOBATAN","TIPE_2":"RUMAH SAKIT","TIPE_3":"RUMAH SAKIT UMUM SWASTA","TELEPON":"(0251) 8318456","ALAMAT":"JL. RAYA PAJAJARAN NO.219, RT.02/RW.11, BANTARJATI, KEC. BOGOR UTARA, KOTA BOGOR, JAWA BARAT 16153","ID_PROV":"32","PROVINSI":"JAWA BARAT","ID_KABKOT":"32.71","KABKOT":"KOTA BOGOR","ID_KEC":"32.71.05","KECAMATAN":"BOGOR UTARA","ID_DESA":"32.71.05.1001","DESA":"BANTARJATI","LONGITUDE":106.8074938,"LATITUDE":-6.5792567,"STATUS":"BUKA","TANGGAL PENGUMPULAN":"Q1 2024","TANGGAL UPDATE":"28/02/2025"}},{"type":"Feature","geometry":{"coordinates":[106.8329613,-6.6407232],"type":"Point"},"properties":{"NAMA":"RUMAH SAKIT BSH","TIPE_1":"KESEHATAN DAN PENGOBATAN","TIPE_2":"RUMAH SAKIT","TIPE_3":"RUMAH SAKIT UMUM SWASTA","TELEPON":"0817-7099-8889","ALAMAT":"JL. RAYA TAJUR NO.168, MUARASARI, KEC. BOGOR SEL., KOTA BOGOR, JAWA BARAT 16137","ID_PROV":"32","PROVINSI":"JAWA BARAT","ID_KABKOT":"32.71","KABKOT":"KOTA BOGOR","ID_KEC":"32.71.01","KECAMATAN":"BOGOR SELATAN","ID_DESA":"32.71.01.1013","DESA":"MUARA SARI","LONGITUDE":106.8329613,"LATITUDE":-6.6407232,"STATUS":"BUKA","TANGGAL PENGUMPULAN":"Q1 2024","TANGGAL UPDATE":"28/02/2025"}},{"type":"Feature","geometry":{"coordinates":[106.7971871,-6.5760366],"type":"Point"},"properties":{"NAMA":"RUMAH SAKIT LAPANGAN KOTA BOGOR (PEMKOT BOGOR & BNPB)","TIPE_1":"KESEHATAN DAN PENGOBATAN","TIPE_2":"RUMAH SAKIT","TIPE_3":"RUMAH SAKIT UMUM DAERAH/NEGERI","TELEPON":"","ALAMAT":"JL. PEMUDA, RT.04/RW.01, TANAH SAREAL, KEC. TANAH SEREAL, KOTA BOGOR, JAWA BARAT 16161","ID_PROV":"32","PROVINSI":"JAWA BARAT","ID_KABKOT":"32.71","KABKOT":"KOTA BOGOR","ID_KEC":"32.71.06","KECAMATAN":"TANAH SAREAL","ID_DESA":"32.71.06.1001","DESA":"TANAH SAREAL","LONGITUDE":106.7971871,"LATITUDE":-6.5760366,"STATUS":"BUKA","TANGGAL PENGUMPULAN":"Q1 2024","TANGGAL UPDATE":"28/02/2025"}},{"type":"Feature","geometry":{"coordinates":[106.7618185,-6.5648245],"type":"Point"},"properties":{"NAMA":"RUMAH SAKIT GRAHA MEDIKA BOGOR","TIPE_1":"KESEHATAN DAN PENGOBATAN","TIPE_2":"RUMAH SAKIT","TIPE_3":"RUMAH SAKIT UMUM SWASTA","TELEPON":"0811-1888-272","ALAMAT":"JL. KH. R. ABDULLAH BIN NUH NO.2, RT.04/RW.12, CILENDEK BAR., KEC. BOGOR BAR., KOTA BOGOR, JAWA BARAT 16113","ID_PROV":"32","PROVINSI":"JAWA BARAT","ID_KABKOT":"32.71","KABKOT":"KOTA BOGOR","ID_KEC":"32.71.04","KECAMATAN":"BOGOR BARAT","ID_DESA":"32.71.04.1008","DESA":"CILENDEK BARAT","LONGITUDE":106.7618185,"LATITUDE":-6.5648245,"STATUS":"BUKA","TANGGAL PENGUMPULAN":"Q1 2024","TANGGAL UPDATE":"28/02/2025"}},{"type":"Feature","geometry":{"coordinates":[106.7946336,-6.608558],"type":"Point"},"properties":{"NAMA":"RS UMMI","TIPE_1":"KESEHATAN DAN PENGOBATAN","TIPE_2":"RUMAH SAKIT","TIPE_3":"RUMAH SAKIT UMUM DAERAH/NEGERI","TELEPON":"(0251) 8341600","ALAMAT":"JL. EMPANG II NO.2, EMPANG, KEC. BOGOR SEL., KOTA BOGOR, JAWA BARAT 16132","ID_PROV":"32","PROVINSI":"JAWA BARAT","ID_KABKOT":"32.71","KABKOT":"KOTA BOGOR","ID_KEC":"32.71.01","KECAMATAN":"BOGOR SELATAN","ID_DESA":"32.71.01.1003","DESA":"EMPANG","LONGITUDE":106.7946336,"LATITUDE":-6.608558,"STATUS":"BUKA","TANGGAL PENGUMPULAN":"Q1 2024","TANGGAL UPDATE":"28/02/2025"}},{"type":"Feature","geometry":{"coordinates":[106.8075318,-6.5756951],"type":"Point"},"properties":{"NAMA":"RS MULIA PAJAJARAN BOGOR","TIPE_1":"KESEHATAN DAN PENGOBATAN","TIPE_2":"RUMAH SAKIT","TIPE_3":"RUMAH SAKIT UMUM SWASTA","TELEPON":"(0251) 8379898","ALAMAT":"JL. RAYA PAJAJARAN NO.98, BANTARJATI, KEC. BOGOR UTARA, KOTA BOGOR, JAWA BARAT 16153","ID_PROV":"32","PROVINSI":"JAWA BARAT","ID_KABKOT":"32.71","KABKOT":"KOTA BOGOR","ID_KEC":"32.71.05","KECAMATAN":"BOGOR UTARA","ID_DESA":"32.71.05.1001","DESA":"BANTARJATI","LONGITUDE":106.8075318,"LATITUDE":-6.5756951,"STATUS":"BUKA","TANGGAL PENGUMPULAN":"Q1 2024","TANGGAL UPDATE":"28/02/2025"}},{"type":"Feature","geometry":{"coordinates":[106.791258,-6.596275],"type":"Point"},"properties":{"NAMA":"RS BHAYANGKARA BOGOR","TIPE_1":"KESEHATAN DAN PENGOBATAN","TIPE_2":"RUMAH SAKIT","TIPE_3":"RUMAH SAKIT UMUM DAERAH/NEGERI","TELEPON":"(0251) 8203405","ALAMAT":"JL. KAPTEN MUSLIHAT NO.18, PALEDANG, KECAMATAN BOGOR TENGAH, KOTA BOGOR, JAWA BARAT 16124","ID_PROV":"32","PROVINSI":"JAWA BARAT","ID_KABKOT":"32.71","KABKOT":"KOTA BOGOR","ID_KEC":"32.71.03","KECAMATAN":"BOGOR TENGAH","ID_DESA":"32.71.03.1002","DESA":"PALEDANG","LONGITUDE":106.791258,"LATITUDE":-6.596275,"STATUS":"BUKA","TANGGAL PENGUMPULAN":"Q1 2024","TANGGAL UPDATE":"28/02/2025"}},{"type":"Feature","geometry":{"coordinates":[106.8006873,-6.6112965],"type":"Point"},"properties":{"NAMA":"RS MELANIA","TIPE_1":"KESEHATAN DAN PENGOBATAN","TIPE_2":"RUMAH SAKIT","TIPE_3":"RUMAH SAKIT UMUM SWASTA","TELEPON":"(0251) 8321196","ALAMAT":"JL. PAHLAWAN NO.91, RT.01/RW.16, BONDONGAN, KEC. BOGOR SEL., KOTA BOGOR, JAWA BARAT 16131","ID_PROV":"32","PROVINSI":"JAWA BARAT","ID_KABKOT":"32.71","KABKOT":"KOTA BOGOR","ID_KEC":"32.71.01","KECAMATAN":"BOGOR SELATAN","ID_DESA":"32.71.01.1002","DESA":"BONDONGAN","LONGITUDE":106.8006873,"LATITUDE":-6.6112965,"STATUS":"BUKA","TANGGAL PENGUMPULAN":"Q1 2024","TANGGAL UPDATE":"28/02/2025"}},{"type":"Feature","geometry":{"coordinates":[106.779593,-6.582968],"type":"Point"},"properties":{"NAMA":"RS MARZOEKI MAHDI","TIPE_1":"KESEHATAN DAN PENGOBATAN","TIPE_2":"RUMAH SAKIT","TIPE_3":"RUMAH SAKIT UMUM SWASTA","TELEPON":"(0251) 8324024","ALAMAT":"JL. DR. SUMERU NO.114, RT.02/RW.01, MENTENG, KEC. BOGOR BAR., KOTA BOGOR, JAWA BARAT 16111","ID_PROV":"32","PROVINSI":"JAWA BARAT","ID_KABKOT":"32.71","KABKOT":"KOTA BOGOR","ID_KEC":"32.71.04","KECAMATAN":"BOGOR BARAT","ID_DESA":"32.71.04.1001","DESA":"MENTENG","LONGITUDE":106.779593,"LATITUDE":-6.582968,"STATUS":"BUKA","TANGGAL PENGUMPULAN":"Q1 2024","TANGGAL UPDATE":"28/02/2025"}},{"type":"Feature","geometry":{"coordinates":[106.7778852,-6.5806101],"type":"Point"},"properties":{"NAMA":"RSUD KOTA BOGOR","TIPE_1":"KESEHATAN DAN PENGOBATAN","TIPE_2":"RUMAH SAKIT","TIPE_3":"RUMAH SAKIT UMUM DAERAH/NEGERI","TELEPON":"(0251) 8312292","ALAMAT":"JL. DR. SUMERU NO.120, RT.03/RW.20, MENTENG, KEC. BOGOR BAR., KOTA BOGOR, JAWA BARAT 16112","ID_PROV":"32","PROVINSI":"JAWA BARAT","ID_KABKOT":"32.71","KABKOT":"KOTA BOGOR","ID_KEC":"32.71.04","KECAMATAN":"BOGOR BARAT","ID_DESA":"32.71.04.1001","DESA":"MENTENG","LONGITUDE":106.7778852,"LATITUDE":-6.5806101,"STATUS":"BUKA","TANGGAL PENGUMPULAN":"Q1 2024","TANGGAL UPDATE":"28/02/2025"}},{"type":"Feature","geometry":{"coordinates":[106.8110776,-6.6079378],"type":"Point"},"properties":{"NAMA":"MAYAPADA HOSPITAL BOGOR (MHBG)","TIPE_1":"KESEHATAN DAN PENGOBATAN","TIPE_2":"RUMAH SAKIT","TIPE_3":"RUMAH SAKIT UMUM SWASTA","TELEPON":"150770","ALAMAT":"JL. PAJAJARAN INDAH V NO.97, RT.01/RW.11, BARANANGSIANG, KEC. BOGOR TIM., KOTA BOGOR, JAWA BARAT 16143","ID_PROV":"32","PROVINSI":"JAWA BARAT","ID_KABKOT":"32.71","KABKOT":"KOTA BOGOR","ID_KEC":"32.71.02","KECAMATAN":"BOGOR TIMUR","ID_DESA":"32.71.02.1002","DESA":"BARANANGSIANG","LONGITUDE":106.8110776,"LATITUDE":-6.6079378,"STATUS":"BUKA","TANGGAL PENGUMPULAN":"Q1 2024","TANGGAL UPDATE":"28/02/2025"}},{"type":"Feature","geometry":{"coordinates":[106.7737942,-6.5574884],"type":"Point"},"properties":{"NAMA":"RS HERMINA BOGOR","TIPE_1":"KESEHATAN DAN PENGOBATAN","TIPE_2":"RUMAH SAKIT","TIPE_3":"RUMAH SAKIT UMUM SWASTA","TELEPON":"(0251) 8382525","ALAMAT":"JALAN RING ROAD I KAV. 23, 25, 27, RT.08/RW.08, CURUGMEKAR, KEC. BOGOR BAR., KOTA BOGOR, JAWA BARAT 16113","ID_PROV":"32","PROVINSI":"JAWA BARAT","ID_KABKOT":"32.71","KABKOT":"KOTA BOGOR","ID_KEC":"32.71.04","KECAMATAN":"BOGOR BARAT","ID_DESA":"32.71.04.1010","DESA":"CURUG MEKAR","LONGITUDE":106.7737942,"LATITUDE":-6.5574884,"STATUS":"BUKA","TANGGAL PENGUMPULAN":"Q1 2024","TANGGAL UPDATE":"28/02/2025"}},{"type":"Feature","geometry":{"coordinates":[106.8078123,-6.6131137],"type":"Point"},"properties":{"NAMA":"RUMAH SAKIT VANIA","TIPE_1":"KESEHATAN DAN PENGOBATAN","TIPE_2":"RUMAH SAKIT","TIPE_3":"RUMAH SAKIT UMUM SWASTA","TELEPON":"(0251) 8380601","ALAMAT":"JL. SILIWANGI NO.11, RT.01/RW.03, SUKASARI, KEC. BOGOR TIM., KOTA BOGOR, JAWA BARAT 16142","ID_PROV":"32","PROVINSI":"JAWA BARAT","ID_KABKOT":"32.71","KABKOT":"KOTA BOGOR","ID_KEC":"32.71.02","KECAMATAN":"BOGOR TIMUR","ID_DESA":"32.71.02.1001","DESA":"SUKASARI","LONGITUDE":106.8078123,"LATITUDE":-6.6131137,"STATUS":"BUKA","TANGGAL PENGUMPULAN":"Q1 2024","TANGGAL UPDATE":"28/02/2025"}},{"type":"Feature","geometry":{"coordinates":[106.8046881,-6.5956638],"type":"Point"},"properties":{"NAMA":"SILOAM HOSPITALS BOGOR","TIPE_1":"KESEHATAN DAN PENGOBATAN","TIPE_2":"RUMAH SAKIT","TIPE_3":"RUMAH SAKIT UMUM SWASTA","TELEPON":"(0251) 8303900","ALAMAT":"JL. RAYA PAJAJARAN NO.27, RT.01/RW.04, BABAKAN, BOGOR TENGAH, BOGOR CITY, WEST JAVA 14140","ID_PROV":"32","PROVINSI":"JAWA BARAT","ID_KABKOT":"32.71","KABKOT":"KOTA BOGOR","ID_KEC":"32.71.03","KECAMATAN":"BOGOR TENGAH","ID_DESA":"32.71.03.1005","DESA":"BABAKAN","LONGITUDE":106.8046881,"LATITUDE":-6.5956638,"STATUS":"BUKA","TANGGAL PENGUMPULAN":"Q1 2024","TANGGAL UPDATE":"28/02/2025"}},{"type":"Feature","geometry":{"coordinates":[106.797208,-6.591646],"type":"Point"},"properties":{"NAMA":"RUMAH SAKIT SALAK","TIPE_1":"KESEHATAN DAN PENGOBATAN","TIPE_2":"RUMAH SAKIT","TIPE_3":"RUMAH SAKIT UMUM SWASTA","TELEPON":"0812-8190-0808","ALAMAT":"JL. JEND. SUDIRMAN NO.8, RT.03/RW.07, SEMPUR, KECAMATAN BOGOR TENGAH, KOTA BOGOR, JAWA BARAT 16121","ID_PROV":"32","PROVINSI":"JAWA BARAT","ID_KABKOT":"32.71","KABKOT":"KOTA BOGOR","ID_KEC":"32.71.03","KECAMATAN":"BOGOR TENGAH","ID_DESA":"32.71.03.1006","DESA":"SEMPUR","LONGITUDE":106.797208,"LATITUDE":-6.591646,"STATUS":"BUKA","TANGGAL PENGUMPULAN":"Q1 2024","TANGGAL UPDATE":"28/02/2025"}}]}