{"type":"FeatureCollection","features":[{"type":"Feature","geometry":{"coordinates":[106.8099926,-6.1576155],"type":"Point"},"properties":{"NAMA":"RUMAH SAKIT IBU DAN ANAK ARIES","TIPE_1":"KESEHATAN DAN PENGOBATAN","TIPE_2":"RUMAH SAKIT","TIPE_3":"RUMAH SAKIT BERSALIN/IBU DAN ANAK","TELEPON":"(021) 6392920","ALAMAT":"JALAN DURI (ITS RAYA NO.22 2, RT.2/RW.1, DURI UTARA, KEC. TAMBORA, KOTA JAKARTA BARAT, DAERAH KHUSUS IBUKOTA JAKARTA 11270","ID_PROV":"31","PROVINSI":"DKI JAKARTA","ID_KABKOT":"31.73","KABKOT":"KOTA ADM. JAKARTA BARAT","ID_KEC":"31.73.04","KECAMATAN":"TAMBORA","ID_DESA":"31.73.04.1004","DESA":"TANAH SEREAL","LONGITUDE":106.8099926,"LATITUDE":-6.1576155,"STATUS":"BUKA","TANGGAL PENGUMPULAN":"Q1 2024","TANGGAL UPDATE":"28/02/2025"}},{"type":"Feature","geometry":{"coordinates":[106.7962919,-6.160678],"type":"Point"},"properties":{"NAMA":"RUMAH SAKIT IBU DAN ANAK IBNU SINA","TIPE_1":"KESEHATAN DAN PENGOBATAN","TIPE_2":"RUMAH SAKIT","TIPE_3":"RUMAH SAKIT BERSALIN/IBU DAN ANAK","TELEPON":"(021) 5670118","ALAMAT":"JALAN DOKTER NURDIN I NO.3, GROGOL, KEC. GROGOL PETAMBURAN, KOTA JAKARTA BARAT, DAERAH KHUSUS IBUKOTA JAKARTA 11450","ID_PROV":"31","PROVINSI":"DKI JAKARTA","ID_KABKOT":"31.73","KABKOT":"KOTA ADM. JAKARTA BARAT","ID_KEC":"31.73.02","KECAMATAN":"GROGOL PETAMBURAN","ID_DESA":"31.73.02.1001","DESA":"GROGOL","LONGITUDE":106.7962919,"LATITUDE":-6.160678,"STATUS":"BUKA","TANGGAL PENGUMPULAN":"Q1 2024","TANGGAL UPDATE":"28/02/2025"}},{"type":"Feature","geometry":{"coordinates":[106.7998702,-6.1850526],"type":"Point"},"properties":{"NAMA":"GEDUNG PERAWATAN 2, RS. JANTUNG HARAPAN KITA","TIPE_1":"KESEHATAN DAN PENGOBATAN","TIPE_2":"RUMAH SAKIT","TIPE_3":"RUMAH SAKIT JANTUNG","TELEPON":"","ALAMAT":"RW, RT.1/RW.8, KOTA BAMBU UTARA, KEC. PALMERAH, KOTA JAKARTA BARAT, DAERAH KHUSUS IBUKOTA JAKARTA 11420","ID_PROV":"31","PROVINSI":"DKI JAKARTA","ID_KABKOT":"31.73","KABKOT":"KOTA ADM. JAKARTA BARAT","ID_KEC":"31.73.07","KECAMATAN":"PAL MERAH","ID_DESA":"31.73.07.1003","DESA":"KOTA BAMBU UTARA","LONGITUDE":106.7998702,"LATITUDE":-6.1850526,"STATUS":"BUKA","TANGGAL PENGUMPULAN":"Q1 2024","TANGGAL UPDATE":"28/02/2025"}},{"type":"Feature","geometry":{"coordinates":[106.8039942,-6.1932095],"type":"Point"},"properties":{"NAMA":"POLI JANTUNG RS PELNI","TIPE_1":"KESEHATAN DAN PENGOBATAN","TIPE_2":"RUMAH SAKIT","TIPE_3":"RUMAH SAKIT JANTUNG","TELEPON":"(021) 5480608","ALAMAT":"JL. K.S. TUBUN NO.92-94, RT.13/RW.1, SLIPI, KEC. PALMERAH, KOTA JAKARTA BARAT, DAERAH KHUSUS IBUKOTA JAKARTA 11410","ID_PROV":"31","PROVINSI":"DKI JAKARTA","ID_KABKOT":"31.73","KABKOT":"KOTA ADM. JAKARTA BARAT","ID_KEC":"31.73.07","KECAMATAN":"PAL MERAH","ID_DESA":"31.73.07.1002","DESA":"SLIPI","LONGITUDE":106.8039942,"LATITUDE":-6.1932095,"STATUS":"BUKA","TANGGAL PENGUMPULAN":"Q1 2024","TANGGAL UPDATE":"28/02/2025"}},{"type":"Feature","geometry":{"coordinates":[106.765024,-6.1683701],"type":"Point"},"properties":{"NAMA":"POLIKLINIK SPESIALIS JANTUNG","TIPE_1":"KESEHATAN DAN PENGOBATAN","TIPE_2":"RUMAH SAKIT","TIPE_3":"RUMAH SAKIT JANTUNG","TELEPON":"","ALAMAT":"RT.15/RW.7, KEDOYA UTARA, KEC. KB. JERUK, KOTA JAKARTA BARAT, DAERAH KHUSUS IBUKOTA JAKARTA 11520","ID_PROV":"31","PROVINSI":"DKI JAKARTA","ID_KABKOT":"31.73","KABKOT":"KOTA ADM. JAKARTA BARAT","ID_KEC":"31.73.05","KECAMATAN":"KEBON JERUK","ID_DESA":"31.73.05.1006","DESA":"KEDOYA UTARA","LONGITUDE":106.765024,"LATITUDE":-6.1683701,"STATUS":"BUKA","TANGGAL PENGUMPULAN":"Q1 2024","TANGGAL UPDATE":"28/02/2025"}},{"type":"Feature","geometry":{"coordinates":[106.7975925,-6.1856321],"type":"Point"},"properties":{"NAMA":"RUANG POLI JANTUNG RAWAT JALAN PJN HARAPAN KITA","TIPE_1":"KESEHATAN DAN PENGOBATAN","TIPE_2":"RUMAH SAKIT","TIPE_3":"RUMAH SAKIT JANTUNG","TELEPON":"","ALAMAT":"JL. KOTA BAMBU SELATAN, RT.1/RW.8, KOTA BAMBU UTARA, KEC. PALMERAH, KOTA JAKARTA BARAT, DAERAH KHUSUS IBUKOTA JAKARTA 11420","ID_PROV":"31","PROVINSI":"DKI JAKARTA","ID_KABKOT":"31.73","KABKOT":"KOTA ADM. JAKARTA BARAT","ID_KEC":"31.73.07","KECAMATAN":"PAL MERAH","ID_DESA":"31.73.07.1003","DESA":"KOTA BAMBU UTARA","LONGITUDE":106.7975925,"LATITUDE":-6.1856321,"STATUS":"BUKA","TANGGAL PENGUMPULAN":"Q1 2024","TANGGAL UPDATE":"28/02/2025"}},{"type":"Feature","geometry":{"coordinates":[106.790089,-6.171967],"type":"Point"},"properties":{"NAMA":"RUMAH SAKIT JANTUNG & PEMBULUH DARAH H K","TIPE_1":"KESEHATAN DAN PENGOBATAN","TIPE_2":"RUMAH SAKIT","TIPE_3":"RUMAH SAKIT JANTUNG","TELEPON":"","ALAMAT":"JL. S. PARMAN NO.KAV 87, TOMANG, KEC. GROGOL PETAMBURAN, KOTA JAKARTA BARAT, DAERAH KHUSUS IBUKOTA JAKARTA 11460","ID_PROV":"31","PROVINSI":"DKI JAKARTA","ID_KABKOT":"31.73","KABKOT":"KOTA ADM. JAKARTA BARAT","ID_KEC":"31.73.02","KECAMATAN":"GROGOL PETAMBURAN","ID_DESA":"31.73.02.1003","DESA":"TOMANG","LONGITUDE":106.790089,"LATITUDE":-6.171967,"STATUS":"BUKA","TANGGAL PENGUMPULAN":"Q1 2024","TANGGAL UPDATE":"28/02/2025"}},{"type":"Feature","geometry":{"coordinates":[106.7991414,-6.1854332],"type":"Point"},"properties":{"NAMA":"UNIT PALIATIF PUSAT JANTUNG NASIONAL HARAPAN KITA","TIPE_1":"KESEHATAN DAN PENGOBATAN","TIPE_2":"RUMAH SAKIT","TIPE_3":"RUMAH SAKIT JANTUNG","TELEPON":"0812-1009-3371","ALAMAT":"LETJEN S. PARMAN ST NO.KAV.87, RT.1/RW.8, NORTH BAMBU CITY, PALMERAH, WEST JAKARTA CITY, JAKARTA 11420","ID_PROV":"31","PROVINSI":"DKI JAKARTA","ID_KABKOT":"31.73","KABKOT":"KOTA ADM. JAKARTA BARAT","ID_KEC":"31.73.07","KECAMATAN":"PAL MERAH","ID_DESA":"31.73.07.1003","DESA":"KOTA BAMBU UTARA","LONGITUDE":106.7991414,"LATITUDE":-6.1854332,"STATUS":"BUKA","TANGGAL PENGUMPULAN":"Q1 2024","TANGGAL UPDATE":"28/02/2025"}},{"type":"Feature","geometry":{"coordinates":[106.8002706,-6.1857041],"type":"Point"},"properties":{"NAMA":"GEDUNG UTILITI RSJPD HARAPAN KITA","TIPE_1":"KESEHATAN DAN PENGOBATAN","TIPE_2":"RUMAH SAKIT","TIPE_3":"RUMAH SAKIT JANTUNG","TELEPON":"","ALAMAT":"JALAN SELATAN BLOK. D NO.7, KOTA BAMBU RT.1/RW.8, BAMBU UTARA PALMERAH, KOTA 11420, RT.1/RW.8, KOTA BAMBU UTARA, KEC. PALMERAH, KOTA JAKARTA BARAT, DAERAH KHUSUS IBUKOTA JAKARTA 11420","ID_PROV":"31","PROVINSI":"DKI JAKARTA","ID_KABKOT":"31.73","KABKOT":"KOTA ADM. JAKARTA BARAT","ID_KEC":"31.73.07","KECAMATAN":"PAL MERAH","ID_DESA":"31.73.07.1003","DESA":"KOTA BAMBU UTARA","LONGITUDE":106.8002706,"LATITUDE":-6.1857041,"STATUS":"BUKA","TANGGAL PENGUMPULAN":"Q1 2024","TANGGAL UPDATE":"28/02/2025"}},{"type":"Feature","geometry":{"coordinates":[106.7972121,-6.185309],"type":"Point"},"properties":{"NAMA":"PUSAT JANTUNG NASIONAL HARAPAN KITA","TIPE_1":"KESEHATAN DAN PENGOBATAN","TIPE_2":"RUMAH SAKIT","TIPE_3":"RUMAH SAKIT JANTUNG","TELEPON":"(021) 5684093","ALAMAT":"JL. LETJEN S. PARMAN NO.KAV. 87, SLIPI, KEC. PALMERAH, KOTA JAKARTA BARAT, DAERAH KHUSUS IBUKOTA JAKARTA 11420","ID_PROV":"31","PROVINSI":"DKI JAKARTA","ID_KABKOT":"31.73","KABKOT":"KOTA ADM. JAKARTA BARAT","ID_KEC":"31.73.07","KECAMATAN":"PAL MERAH","ID_DESA":"31.73.07.1003","DESA":"KOTA BAMBU UTARA","LONGITUDE":106.7972121,"LATITUDE":-6.185309,"STATUS":"BUKA","TANGGAL PENGUMPULAN":"Q1 2024","TANGGAL UPDATE":"28/02/2025"}},{"type":"Feature","geometry":{"coordinates":[106.7989795,-6.1853571],"type":"Point"},"properties":{"NAMA":"RSPJN HARAPAN KITA VENTRICLE BUILDING","TIPE_1":"KESEHATAN DAN PENGOBATAN","TIPE_2":"RUMAH SAKIT","TIPE_3":"RUMAH SAKIT JANTUNG","TELEPON":"","ALAMAT":"JL. LETJEN S. PARMAN NO.KAV.87, RW.8, KOTA BAMBU UTARA, KEC. PALMERAH, KOTA JAKARTA BARAT, DAERAH KHUSUS IBUKOTA JAKARTA 11420","ID_PROV":"31","PROVINSI":"DKI JAKARTA","ID_KABKOT":"31.73","KABKOT":"KOTA ADM. JAKARTA BARAT","ID_KEC":"31.73.07","KECAMATAN":"PAL MERAH","ID_DESA":"31.73.07.1003","DESA":"KOTA BAMBU UTARA","LONGITUDE":106.7989795,"LATITUDE":-6.1853571,"STATUS":"BUKA","TANGGAL PENGUMPULAN":"Q1 2024","TANGGAL UPDATE":"28/02/2025"}},{"type":"Feature","geometry":{"coordinates":[106.7615981,-6.1895967],"type":"Point"},"properties":{"NAMA":"RS MATA JEC @ KEDOYA","TIPE_1":"KESEHATAN DAN PENGOBATAN","TIPE_2":"RUMAH SAKIT","TIPE_3":"RUMAH SAKIT MATA","TELEPON":"0804 122 1000","ALAMAT":"JALAN TERUSAN, JL. ARJUNA UTARA JL. KEDOYA RAYA NO.1, KEDOYA SEL., KEC. KB. JERUK, KOTA JAKARTA BARAT, DAERAH KHUSUS IBUKOTA JAKARTA 11520","ID_PROV":"31","PROVINSI":"DKI JAKARTA","ID_KABKOT":"31.73","KABKOT":"KOTA ADM. JAKARTA BARAT","ID_KEC":"31.73.05","KECAMATAN":"KEBON JERUK","ID_DESA":"31.73.05.1007","DESA":"KEDOYA SELATAN","LONGITUDE":106.7615981,"LATITUDE":-6.1895967,"STATUS":"BUKA","TANGGAL PENGUMPULAN":"Q1 2024","TANGGAL UPDATE":"28/02/2025"}},{"type":"Feature","geometry":{"coordinates":[106.7353764,-6.1861866],"type":"Point"},"properties":{"NAMA":"DR. CHRISTIAN SILAS, SPOT DOKTER SPESIALIS BEDAH ORTHOPEDI (TULANG OTOT SENDI)","TIPE_1":"KESEHATAN DAN PENGOBATAN","TIPE_2":"RUMAH SAKIT","TIPE_3":"RUMAH SAKIT TULANG","TELEPON":"0819-888-853","ALAMAT":"RS. PONDOK INDAH PURI INDAH, JL. PURI INDAH RAYA BLOK S-2, RT.1/RW.2, KEMBANGAN SEL., KEC. KEMBANGAN, KOTA JAKARTA BARAT, DAERAH KHUSUS IBUKOTA JAKARTA 11610","ID_PROV":"31","PROVINSI":"DKI JAKARTA","ID_KABKOT":"31.73","KABKOT":"KOTA ADM. JAKARTA BARAT","ID_KEC":"31.73.08","KECAMATAN":"KEMBANGAN","ID_DESA":"31.73.08.1006","DESA":"KEMBANGAN SELATAN","LONGITUDE":106.7353764,"LATITUDE":-6.1861866,"STATUS":"BUKA","TANGGAL PENGUMPULAN":"Q1 2024","TANGGAL UPDATE":"28/02/2025"}},{"type":"Feature","geometry":{"coordinates":[106.765024,-6.1683701],"type":"Point"},"properties":{"NAMA":"POLIKLINIK SPESIALIS BEDAH TULANG","TIPE_1":"KESEHATAN DAN PENGOBATAN","TIPE_2":"RUMAH SAKIT","TIPE_3":"RUMAH SAKIT TULANG","TELEPON":"","ALAMAT":"RT.15/RW.7, KEDOYA UTARA, KEC. KB. JERUK, KOTA JAKARTA BARAT, DAERAH KHUSUS IBUKOTA JAKARTA 11520","ID_PROV":"31","PROVINSI":"DKI JAKARTA","ID_KABKOT":"31.73","KABKOT":"KOTA ADM. JAKARTA BARAT","ID_KEC":"31.73.05","KECAMATAN":"KEBON JERUK","ID_DESA":"31.73.05.1006","DESA":"KEDOYA UTARA","LONGITUDE":106.765024,"LATITUDE":-6.1683701,"STATUS":"BUKA","TANGGAL PENGUMPULAN":"Q1 2024","TANGGAL UPDATE":"28/02/2025"}},{"type":"Feature","geometry":{"coordinates":[106.7975598,-6.1684878],"type":"Point"},"properties":{"NAMA":"RUMAH SAKIT SUMBER WARAS","TIPE_1":"KESEHATAN DAN PENGOBATAN","TIPE_2":"RUMAH SAKIT","TIPE_3":"RUMAH SAKIT UMUM SWASTA","TELEPON":"(021) 5682011","ALAMAT":"JL. KYAI TAPA NO.1, RT.10/RW.10, TOMANG, KEC. GROGOL PETAMBURAN, KOTA JAKARTA BARAT, DAERAH KHUSUS IBUKOTA JAKARTA 11440","ID_PROV":"31","PROVINSI":"DKI JAKARTA","ID_KABKOT":"31.73","KABKOT":"KOTA ADM. JAKARTA BARAT","ID_KEC":"31.73.02","KECAMATAN":"GROGOL PETAMBURAN","ID_DESA":"31.73.02.1003","DESA":"TOMANG","LONGITUDE":106.7975598,"LATITUDE":-6.1684878,"STATUS":"BUKA","TANGGAL PENGUMPULAN":"Q1 2024","TANGGAL UPDATE":"28/02/2025"}},{"type":"Feature","geometry":{"coordinates":[106.8032476,-6.1931662],"type":"Point"},"properties":{"NAMA":"RUMAH SAKIT PELNI","TIPE_1":"KESEHATAN DAN PENGOBATAN","TIPE_2":"RUMAH SAKIT","TIPE_3":"RUMAH SAKIT UMUM SWASTA","TELEPON":"(021) 27899859","ALAMAT":"JL. K.S. TUBUN NO.92 - 94, RT.10/RW.1, SLIPI, KEC. PALMERAH, KOTA JAKARTA BARAT, DAERAH KHUSUS IBUKOTA JAKARTA 11410","ID_PROV":"31","PROVINSI":"DKI JAKARTA","ID_KABKOT":"31.73","KABKOT":"KOTA ADM. JAKARTA BARAT","ID_KEC":"31.73.07","KECAMATAN":"PAL MERAH","ID_DESA":"31.73.07.1002","DESA":"SLIPI","LONGITUDE":106.8032476,"LATITUDE":-6.1931662,"STATUS":"BUKA","TANGGAL PENGUMPULAN":"Q1 2024","TANGGAL UPDATE":"28/02/2025"}},{"type":"Feature","geometry":{"coordinates":[106.7123001,-6.1529478],"type":"Point"},"properties":{"NAMA":"RUMAH SAKIT HERMINA DAAN MOGOT","TIPE_1":"KESEHATAN DAN PENGOBATAN","TIPE_2":"RUMAH SAKIT","TIPE_3":"RUMAH SAKIT UMUM SWASTA","TELEPON":"(021) 5408989","ALAMAT":"JL. KINTAMANI RAYA NO.2, RT.1/RW.12, KALIDERES, KEC. KALIDERES, KOTA JAKARTA BARAT, DAERAH KHUSUS IBUKOTA JAKARTA 11840","ID_PROV":"31","PROVINSI":"DKI JAKARTA","ID_KABKOT":"31.73","KABKOT":"KOTA ADM. JAKARTA BARAT","ID_KEC":"31.73.06","KECAMATAN":"KALIDERES","ID_DESA":"31.73.06.1001","DESA":"KALIDERES","LONGITUDE":106.7123001,"LATITUDE":-6.1529478,"STATUS":"BUKA","TANGGAL PENGUMPULAN":"Q1 2024","TANGGAL UPDATE":"28/02/2025"}},{"type":"Feature","geometry":{"coordinates":[106.8258098,-6.150455],"type":"Point"},"properties":{"NAMA":"RUMAH SAKIT MANUELA","TIPE_1":"KESEHATAN DAN PENGOBATAN","TIPE_2":"RUMAH SAKIT","TIPE_3":"RUMAH SAKIT UMUM DAERAH/NEGERI","TELEPON":"(021) 6283118","ALAMAT":"JL. MANGGA BESAR VIII NO.23 4, RT.4/RW.1, TAMAN SARI, KEC. TAMAN SARI, KOTA JAKARTA BARAT, DAERAH KHUSUS IBUKOTA JAKARTA 11150","ID_PROV":"31","PROVINSI":"DKI JAKARTA","ID_KABKOT":"31.73","KABKOT":"KOTA ADM. JAKARTA BARAT","ID_KEC":"31.73.03","KECAMATAN":"TAMAN SARI","ID_DESA":"31.73.03.1001","DESA":"TAMAN SARI","LONGITUDE":106.8258098,"LATITUDE":-6.150455,"STATUS":"BUKA","TANGGAL PENGUMPULAN":"Q1 2024","TANGGAL UPDATE":"28/02/2025"}},{"type":"Feature","geometry":{"coordinates":[106.800768,-6.199949],"type":"Point"},"properties":{"NAMA":"RUMAH SAKIT BHAKTI MULIA","TIPE_1":"KESEHATAN DAN PENGOBATAN","TIPE_2":"RUMAH SAKIT","TIPE_3":"RUMAH SAKIT UMUM SWASTA","TELEPON":"(021) 5481625","ALAMAT":"JL. K.S. TUBUN NO.79 9, RT.9/RW.5, SLIPI, KEC. PALMERAH, KOTA JAKARTA BARAT, DAERAH KHUSUS IBUKOTA JAKARTA 11410","ID_PROV":"31","PROVINSI":"DKI JAKARTA","ID_KABKOT":"31.73","KABKOT":"KOTA ADM. JAKARTA BARAT","ID_KEC":"31.73.07","KECAMATAN":"PAL MERAH","ID_DESA":"31.73.07.1002","DESA":"SLIPI","LONGITUDE":106.800768,"LATITUDE":-6.199949,"STATUS":"BUKA","TANGGAL PENGUMPULAN":"Q1 2024","TANGGAL UPDATE":"28/02/2025"}},{"type":"Feature","geometry":{"coordinates":[106.7726612,-6.2030719],"type":"Point"},"properties":{"NAMA":"RUMAH SAKIT ANGGREK MAS","TIPE_1":"KESEHATAN DAN PENGOBATAN","TIPE_2":"RUMAH SAKIT","TIPE_3":"RUMAH SAKIT UMUM SWASTA","TELEPON":"(021) 5305720","ALAMAT":"JL. ANGGREK NO.2B, RT.9/RW.2, KLP. DUA, KEC. KB. JERUK, KOTA JAKARTA BARAT, DAERAH KHUSUS IBUKOTA JAKARTA 11550","ID_PROV":"31","PROVINSI":"DKI JAKARTA","ID_KABKOT":"31.73","KABKOT":"KOTA ADM. JAKARTA BARAT","ID_KEC":"31.73.05","KECAMATAN":"KEBON JERUK","ID_DESA":"31.73.05.1004","DESA":"KELAPA DUA","LONGITUDE":106.7726612,"LATITUDE":-6.2030719,"STATUS":"BUKA","TANGGAL PENGUMPULAN":"Q1 2024","TANGGAL UPDATE":"28/02/2025"}},{"type":"Feature","geometry":{"coordinates":[106.7363228,-6.1946469],"type":"Point"},"properties":{"NAMA":"RSUD KEMBANGAN","TIPE_1":"KESEHATAN DAN PENGOBATAN","TIPE_2":"RUMAH SAKIT","TIPE_3":"RUMAH SAKIT UMUM DAERAH/NEGERI","TELEPON":"(021) 5870834","ALAMAT":"JL. TOPAS RAYA BLOK FII NO.03, RT.15/RW.7, MERUYA UTARA, KEC. KEMBANGAN, KOTA JAKARTA BARAT, BANTEN 11620","ID_PROV":"31","PROVINSI":"DKI JAKARTA","ID_KABKOT":"31.73","KABKOT":"KOTA ADM. JAKARTA BARAT","ID_KEC":"31.73.08","KECAMATAN":"KEMBANGAN","ID_DESA":"31.73.08.1002","DESA":"MERUYA UTARA","LONGITUDE":106.7363228,"LATITUDE":-6.1946469,"STATUS":"BUKA","TANGGAL PENGUMPULAN":"Q1 2024","TANGGAL UPDATE":"28/02/2025"}},{"type":"Feature","geometry":{"coordinates":[106.7354246,-6.1862524],"type":"Point"},"properties":{"NAMA":"RS PONDOK INDAH - PURI INDAH","TIPE_1":"KESEHATAN DAN PENGOBATAN","TIPE_2":"RUMAH SAKIT","TIPE_3":"RUMAH SAKIT UMUM SWASTA","TELEPON":"(021) 25695200","ALAMAT":"JL. PURI INDAH RAYA BLOK S-2, RT.1/RW.2, KEMBANGAN SEL., KEC. KEMBANGAN, KOTA JAKARTA BARAT, DAERAH KHUSUS IBUKOTA JAKARTA 11610","ID_PROV":"31","PROVINSI":"DKI JAKARTA","ID_KABKOT":"31.73","KABKOT":"KOTA ADM. JAKARTA BARAT","ID_KEC":"31.73.08","KECAMATAN":"KEMBANGAN","ID_DESA":"31.73.08.1006","DESA":"KEMBANGAN SELATAN","LONGITUDE":106.7354246,"LATITUDE":-6.1862524,"STATUS":"BUKA","TANGGAL PENGUMPULAN":"Q1 2024","TANGGAL UPDATE":"28/02/2025"}},{"type":"Feature","geometry":{"coordinates":[106.7779625,-6.2181603],"type":"Point"},"properties":{"NAMA":"EKA HOSPITAL PERMATA HIJAU","TIPE_1":"KESEHATAN DAN PENGOBATAN","TIPE_2":"RUMAH SAKIT","TIPE_3":"RUMAH SAKIT UMUM SWASTA","TELEPON":"(021) 5347411","ALAMAT":"JL. RAYA KBY. LAMA NO.64, RT.1/RW.8, SUKABUMI SEL., KEC. KB. JERUK, KOTA JAKARTA BARAT, DAERAH KHUSUS IBUKOTA JAKARTA 11560","ID_PROV":"31","PROVINSI":"DKI JAKARTA","ID_KABKOT":"31.73","KABKOT":"KOTA ADM. JAKARTA BARAT","ID_KEC":"31.73.05","KECAMATAN":"KEBON JERUK","ID_DESA":"31.73.05.1003","DESA":"SUKABUMI SELATAN","LONGITUDE":106.7779625,"LATITUDE":-6.2181603,"STATUS":"BUKA","TANGGAL PENGUMPULAN":"Q1 2024","TANGGAL UPDATE":"28/02/2025"}},{"type":"Feature","geometry":{"coordinates":[106.7651526,-6.1681398],"type":"Point"},"properties":{"NAMA":"RS GRHA KEDOYA","TIPE_1":"KESEHATAN DAN PENGOBATAN","TIPE_2":"RUMAH SAKIT","TIPE_3":"RUMAH SAKIT UMUM SWASTA","TELEPON":"(021) 29910999","ALAMAT":"JL. PANJANG NO.26, RT.15/RW.7, KEDOYA UTARA, KEC. KB. JERUK, KOTA JAKARTA BARAT, DAERAH KHUSUS IBUKOTA JAKARTA 11520","ID_PROV":"31","PROVINSI":"DKI JAKARTA","ID_KABKOT":"31.73","KABKOT":"KOTA ADM. JAKARTA BARAT","ID_KEC":"31.73.05","KECAMATAN":"KEBON JERUK","ID_DESA":"31.73.05.1006","DESA":"KEDOYA UTARA","LONGITUDE":106.7651526,"LATITUDE":-6.1681398,"STATUS":"BUKA","TANGGAL PENGUMPULAN":"Q1 2024","TANGGAL UPDATE":"28/02/2025"}},{"type":"Feature","geometry":{"coordinates":[106.7638277,-6.1910632],"type":"Point"},"properties":{"NAMA":"SILOAM HOSPITALS KEBON JERUK","TIPE_1":"KESEHATAN DAN PENGOBATAN","TIPE_2":"RUMAH SAKIT","TIPE_3":"RUMAH SAKIT UMUM SWASTA","TELEPON":"(021) 25677888","ALAMAT":"JL. PERJUANGAN NO.8, RT.14/RW.10, KB. JERUK, KEC. KB. JERUK, KOTA JAKARTA BARAT, DAERAH KHUSUS IBUKOTA JAKARTA 11530","ID_PROV":"31","PROVINSI":"DKI JAKARTA","ID_KABKOT":"31.73","KABKOT":"KOTA ADM. JAKARTA BARAT","ID_KEC":"31.73.05","KECAMATAN":"KEBON JERUK","ID_DESA":"31.73.05.1001","DESA":"KEBON JERUK","LONGITUDE":106.7638277,"LATITUDE":-6.1910632,"STATUS":"BUKA","TANGGAL PENGUMPULAN":"Q1 2024","TANGGAL UPDATE":"28/02/2025"}},{"type":"Feature","geometry":{"coordinates":[106.819352,-6.1438827],"type":"Point"},"properties":{"NAMA":"RUMAH SAKIT UMUM DAERAH TAMANSARI","TIPE_1":"KESEHATAN DAN PENGOBATAN","TIPE_2":"RUMAH SAKIT","TIPE_3":"RUMAH SAKIT UMUM DAERAH/NEGERI","TELEPON":"(021) 26075052","ALAMAT":"JL. MADU NO.10A 8, RT.2/RW.3, MANGGA BESAR, KEC. TAMAN SARI, KOTA JAKARTA BARAT, DAERAH KHUSUS IBUKOTA JAKARTA 11180","ID_PROV":"31","PROVINSI":"DKI JAKARTA","ID_KABKOT":"31.73","KABKOT":"KOTA ADM. JAKARTA BARAT","ID_KEC":"31.73.03","KECAMATAN":"TAMAN SARI","ID_DESA":"31.73.03.1005","DESA":"MANGGA BESAR","LONGITUDE":106.819352,"LATITUDE":-6.1438827,"STATUS":"BUKA","TANGGAL PENGUMPULAN":"Q1 2024","TANGGAL UPDATE":"28/02/2025"}},{"type":"Feature","geometry":{"coordinates":[106.7855103,-6.1664004],"type":"Point"},"properties":{"NAMA":"RUMAH SAKIT ROYAL TARUMA","TIPE_1":"KESEHATAN DAN PENGOBATAN","TIPE_2":"RUMAH SAKIT","TIPE_3":"RUMAH SAKIT UMUM SWASTA","TELEPON":"(021) 56958338","ALAMAT":"JL. DAAN MOGOT NO.34, RT.8/RW.1, TJ. DUREN UTARA, KEC. GROGOL PETAMBURAN, KOTA JAKARTA BARAT, DAERAH KHUSUS IBUKOTA JAKARTA 11470","ID_PROV":"31","PROVINSI":"DKI JAKARTA","ID_KABKOT":"31.73","KABKOT":"KOTA ADM. JAKARTA BARAT","ID_KEC":"31.73.02","KECAMATAN":"GROGOL PETAMBURAN","ID_DESA":"31.73.02.1002","DESA":"TANJUNG DUREN UTARA","LONGITUDE":106.7855103,"LATITUDE":-6.1664004,"STATUS":"BUKA","TANGGAL PENGUMPULAN":"Q1 2024","TANGGAL UPDATE":"28/02/2025"}}]}