{"type":"FeatureCollection","features":[{"type":"Feature","geometry":{"coordinates":[106.604672,-6.1878359],"type":"Point"},"properties":{"NAMA":"RS AN-NISA TANGERANG","TIPE_1":"KESEHATAN DAN PENGOBATAN","TIPE_2":"RUMAH SAKIT","TIPE_3":"RUMAH SAKIT BERSALIN/IBU DAN ANAK","TELEPON":"(021) 5525564","ALAMAT":"JL. GATOT SUBROTO NO.KM. 3, RT.003/RW.001, UWUNG JAYA, KEC. CIBODAS, KOTA TANGERANG, BANTEN 15132","ID_PROV":"36","PROVINSI":"BANTEN","ID_KABKOT":"36.71","KABKOT":"KOTA TANGERANG","ID_KEC":"36.71.09","KECAMATAN":"CIBODAS","ID_DESA":"36.71.09.1005","DESA":"UWUNG JAYA","LONGITUDE":106.604672,"LATITUDE":-6.1878359,"STATUS":"BUKA","TANGGAL PENGUMPULAN":"Q1 2024","TANGGAL UPDATE":"28/02/2025"}},{"type":"Feature","geometry":{"coordinates":[106.614876,-6.1780874],"type":"Point"},"properties":{"NAMA":"RSIA KARUNIA BUNDA","TIPE_1":"KESEHATAN DAN PENGOBATAN","TIPE_2":"RUMAH SAKIT","TIPE_3":"RUMAH SAKIT BERSALIN/IBU DAN ANAK","TELEPON":"(021) 5520356","ALAMAT":"JL. ARIA SANTIKA NO.28, RT.003/RW.003, MARGASARI, KEC. KARAWACI, KOTA TANGERANG, BANTEN 15114","ID_PROV":"36","PROVINSI":"BANTEN","ID_KABKOT":"36.71","KABKOT":"KOTA TANGERANG","ID_KEC":"36.71.07","KECAMATAN":"KARAWACI","ID_DESA":"36.71.07.1010","DESA":"MARGA SARI","LONGITUDE":106.614876,"LATITUDE":-6.1780874,"STATUS":"BUKA","TANGGAL PENGUMPULAN":"Q1 2024","TANGGAL UPDATE":"28/02/2025"}},{"type":"Feature","geometry":{"coordinates":[106.5926628,-6.183088],"type":"Point"},"properties":{"NAMA":"RSIA GEBANG MEDIKA","TIPE_1":"KESEHATAN DAN PENGOBATAN","TIPE_2":"RUMAH SAKIT","TIPE_3":"RUMAH SAKIT BERSALIN/IBU DAN ANAK","TELEPON":"(021) 55773346","ALAMAT":"JL. PRABU KIAN SANTANG, RT.001/RW.001, SANGIANG JAYA, KEC. PERIUK, KOTA TANGERANG, BANTEN 15132","ID_PROV":"36","PROVINSI":"BANTEN","ID_KABKOT":"36.71","KABKOT":"KOTA TANGERANG","ID_KEC":"36.71.08","KECAMATAN":"PERIUK","ID_DESA":"36.71.08.1003","DESA":"GEBANG RAYA","LONGITUDE":106.5926628,"LATITUDE":-6.183088,"STATUS":"BUKA","TANGGAL PENGUMPULAN":"Q1 2024","TANGGAL UPDATE":"28/02/2025"}},{"type":"Feature","geometry":{"coordinates":[106.7023598,-6.2492865],"type":"Point"},"properties":{"NAMA":"INSTALASI GAWAT DARURAT (IGD) RUMAH SAKIT IBU DAN ANAK AQIDAH","TIPE_1":"KESEHATAN DAN PENGOBATAN","TIPE_2":"RUMAH SAKIT","TIPE_3":"RUMAH SAKIT BERSALIN/IBU DAN ANAK","TELEPON":"(021) 7310851","ALAMAT":"JL. RADEN FATAH NO.40, RT.004/RW.010, PARUNG SERAB, KEC. CILEDUG, KOTA TANGERANG, BANTEN 15153","ID_PROV":"36","PROVINSI":"BANTEN","ID_KABKOT":"36.71","KABKOT":"KOTA TANGERANG","ID_KEC":"36.71.06","KECAMATAN":"CILEDUG","ID_DESA":"36.71.06.1005","DESA":"PARUNG SERAB","LONGITUDE":106.7023598,"LATITUDE":-6.2492865,"STATUS":"BUKA","TANGGAL PENGUMPULAN":"Q1 2024","TANGGAL UPDATE":"28/02/2025"}},{"type":"Feature","geometry":{"coordinates":[106.6142843,-6.1998679],"type":"Point"},"properties":{"NAMA":"RUMAH SAKIT IBU DAN ANAK ASSYIFA","TIPE_1":"KESEHATAN DAN PENGOBATAN","TIPE_2":"RUMAH SAKIT","TIPE_3":"RUMAH SAKIT BERSALIN/IBU DAN ANAK","TELEPON":"0812-1900-0052","ALAMAT":"JL. PAUS RAYA NO.1, RT.002/RW.004, KARAWACI BARU, KEC. KARAWACI, KOTA TANGERANG, BANTEN 15116","ID_PROV":"36","PROVINSI":"BANTEN","ID_KABKOT":"36.71","KABKOT":"KOTA TANGERANG","ID_KEC":"36.71.07","KECAMATAN":"KARAWACI","ID_DESA":"36.71.07.1003","DESA":"KARAWACI BARU","LONGITUDE":106.6142843,"LATITUDE":-6.1998679,"STATUS":"BUKA","TANGGAL PENGUMPULAN":"Q1 2024","TANGGAL UPDATE":"28/02/2025"}},{"type":"Feature","geometry":{"coordinates":[106.6202683,-6.1766804],"type":"Point"},"properties":{"NAMA":"RSIA PRATIWI","TIPE_1":"KESEHATAN DAN PENGOBATAN","TIPE_2":"RUMAH SAKIT","TIPE_3":"RUMAH SAKIT BERSALIN/IBU DAN ANAK","TELEPON":"(021) 5520692","ALAMAT":"JL. RHM NOERADJI NO.42, RT.001/RW.001, SUMUR PACING, KEC. KARAWACI, KOTA TANGERANG, BANTEN 15114","ID_PROV":"36","PROVINSI":"BANTEN","ID_KABKOT":"36.71","KABKOT":"KOTA TANGERANG","ID_KEC":"36.71.07","KECAMATAN":"KARAWACI","ID_DESA":"36.71.07.1008","DESA":"SUMUR PACING","LONGITUDE":106.6202683,"LATITUDE":-6.1766804,"STATUS":"BUKA","TANGGAL PENGUMPULAN":"Q1 2024","TANGGAL UPDATE":"28/02/2025"}},{"type":"Feature","geometry":{"coordinates":[106.6282467,-6.1543912],"type":"Point"},"properties":{"NAMA":"RS BERSALIN \"BUNDA\"","TIPE_1":"KESEHATAN DAN PENGOBATAN","TIPE_2":"RUMAH SAKIT","TIPE_3":"RUMAH SAKIT BERSALIN/IBU DAN ANAK","TELEPON":"","ALAMAT":"JL. SINDANGSANA, RT.001/RW.004, NEGLASARI, KEC. NEGLASARI, KOTA TANGERANG, BANTEN 15129","ID_PROV":"36","PROVINSI":"BANTEN","ID_KABKOT":"36.71","KABKOT":"KOTA TANGERANG","ID_KEC":"36.71.10","KECAMATAN":"NEGLASARI","ID_DESA":"36.71.10.1001","DESA":"NEGLASARI","LONGITUDE":106.6282467,"LATITUDE":-6.1543912,"STATUS":"BUKA","TANGGAL PENGUMPULAN":"Q1 2024","TANGGAL UPDATE":"28/02/2025"}},{"type":"Feature","geometry":{"coordinates":[106.5888571,-6.1898832],"type":"Point"},"properties":{"NAMA":"RS BUNDA SEJATI","TIPE_1":"KESEHATAN DAN PENGOBATAN","TIPE_2":"RUMAH SAKIT","TIPE_3":"RUMAH SAKIT BERSALIN/IBU DAN ANAK","TELEPON":"(021) 5900136","ALAMAT":"JL. PRABU SILIWANGI NO.11, RT.003/RW.001, KERONCONG, KEC. JATIUWUNG, KOTA TANGERANG, BANTEN 15134","ID_PROV":"36","PROVINSI":"BANTEN","ID_KABKOT":"36.71","KABKOT":"KOTA TANGERANG","ID_KEC":"36.71.02","KECAMATAN":"JATIUWUNG","ID_DESA":"36.71.02.1001","DESA":"KERONCONG","LONGITUDE":106.5888571,"LATITUDE":-6.1898832,"STATUS":"BUKA","TANGGAL PENGUMPULAN":"Q1 2024","TANGGAL UPDATE":"28/02/2025"}},{"type":"Feature","geometry":{"coordinates":[106.6761044,-6.19333],"type":"Point"},"properties":{"NAMA":"RSIA PKU MUHAMMADIYAH","TIPE_1":"KESEHATAN DAN PENGOBATAN","TIPE_2":"RUMAH SAKIT","TIPE_3":"RUMAH SAKIT BERSALIN/IBU DAN ANAK","TELEPON":"(021) 55775013","ALAMAT":"JL. MAULANA HASANUDIN NO.63, RT.006/RW.001, CIPONDOH, KEC. CIPONDOH, KOTA TANGERANG, BANTEN 15148","ID_PROV":"36","PROVINSI":"BANTEN","ID_KABKOT":"36.71","KABKOT":"KOTA TANGERANG","ID_KEC":"36.71.05","KECAMATAN":"CIPONDOH","ID_DESA":"36.71.05.1001","DESA":"CIPONDOH","LONGITUDE":106.6761044,"LATITUDE":-6.19333,"STATUS":"BUKA","TANGGAL PENGUMPULAN":"Q1 2024","TANGGAL UPDATE":"28/02/2025"}},{"type":"Feature","geometry":{"coordinates":[106.6477099,-6.1840381],"type":"Point"},"properties":{"NAMA":"JANTUNG DAN PEMBULUH DARAH","TIPE_1":"KESEHATAN DAN PENGOBATAN","TIPE_2":"RUMAH SAKIT","TIPE_3":"RUMAH SAKIT JANTUNG","TELEPON":"","ALAMAT":"BUARAN INDAH, KEC. TANGERANG, KOTA TANGERANG, BANTEN 15119","ID_PROV":"36","PROVINSI":"BANTEN","ID_KABKOT":"36.71","KABKOT":"KOTA TANGERANG","ID_KEC":"36.71.01","KECAMATAN":"TANGERANG","ID_DESA":"36.71.01.1004","DESA":"BUARAN INDAH","LONGITUDE":106.6477099,"LATITUDE":-6.1840381,"STATUS":"BUKA","TANGGAL PENGUMPULAN":"Q1 2024","TANGGAL UPDATE":"28/02/2025"}},{"type":"Feature","geometry":{"coordinates":[106.7044108,-6.1988172],"type":"Point"},"properties":{"NAMA":"PUSAT JANTUNG ANAK & DEWASA MANDAYA ROYAL HOSPITAL","TIPE_1":"KESEHATAN DAN PENGOBATAN","TIPE_2":"RUMAH SAKIT","TIPE_3":"RUMAH SAKIT JANTUNG","TELEPON":"(021) 50928888","ALAMAT":"JALAN METLAND BOULEVARD LOT.C NO.5, JL. PURI BAR., PARUNG JAYA, KEC. KARANG TENGAH, KOTA TANGERANG, BANTEN 15159","ID_PROV":"36","PROVINSI":"BANTEN","ID_KABKOT":"36.71","KABKOT":"KOTA TANGERANG","ID_KEC":"36.71.12","KECAMATAN":"KARANG TENGAH","ID_DESA":"36.71.12.1007","DESA":"PARUNG JAYA","LONGITUDE":106.7044108,"LATITUDE":-6.1988172,"STATUS":"BUKA","TANGGAL PENGUMPULAN":"Q1 2024","TANGGAL UPDATE":"28/02/2025"}},{"type":"Feature","geometry":{"coordinates":[106.7150791,-6.2100476],"type":"Point"},"properties":{"NAMA":"POLIKLINIK BEDAH ORTHOPEDI","TIPE_1":"KESEHATAN DAN PENGOBATAN","TIPE_2":"RUMAH SAKIT","TIPE_3":"RUMAH SAKIT TULANG","TELEPON":"","ALAMAT":"JL. KARYAWAN 4, RT.003/RW.013, KARANG TENGAH, KEC. KARANG TENGAH, KOTA TANGERANG, BANTEN 15157","ID_PROV":"36","PROVINSI":"BANTEN","ID_KABKOT":"36.71","KABKOT":"KOTA TANGERANG","ID_KEC":"36.71.12","KECAMATAN":"KARANG TENGAH","ID_DESA":"36.71.12.1001","DESA":"KARANG TENGAH","LONGITUDE":106.7150791,"LATITUDE":-6.2100476,"STATUS":"BUKA","TANGGAL PENGUMPULAN":"Q1 2024","TANGGAL UPDATE":"28/02/2025"}},{"type":"Feature","geometry":{"coordinates":[106.6344681,-6.1621001],"type":"Point"},"properties":{"NAMA":"RUMAH SAKIT TANGGAP DARUAT NO.0","TIPE_1":"KESEHATAN DAN PENGOBATAN","TIPE_2":"RUMAH SAKIT","TIPE_3":"RUMAH SAKIT UMUM SWASTA","TELEPON":"","ALAMAT":"JL. DR. SITANALA NO.99, RT.002/RW.003, KARANG SARI, KEC. NEGLASARI, KOTA TANGERANG, BANTEN 15121","ID_PROV":"36","PROVINSI":"BANTEN","ID_KABKOT":"36.71","KABKOT":"KOTA TANGERANG","ID_KEC":"36.71.10","KECAMATAN":"NEGLASARI","ID_DESA":"36.71.10.1002","DESA":"KARANG SARI","LONGITUDE":106.6344681,"LATITUDE":-6.1621001,"STATUS":"BUKA","TANGGAL PENGUMPULAN":"Q1 2024","TANGGAL UPDATE":"28/02/2025"}},{"type":"Feature","geometry":{"coordinates":[106.718796,-6.228009],"type":"Point"},"properties":{"NAMA":"RS. SARI ASIH CILEDUG","TIPE_1":"KESEHATAN DAN PENGOBATAN","TIPE_2":"RUMAH SAKIT","TIPE_3":"RUMAH SAKIT UMUM SWASTA","TELEPON":"(021) 7333430","ALAMAT":"JL. HOS COKROAMINOTO NO.38, RT.001/RW.005, SUDIMARA TIM., KEC. CILEDUG, KOTA TANGERANG, BANTEN 15151","ID_PROV":"36","PROVINSI":"BANTEN","ID_KABKOT":"36.71","KABKOT":"KOTA TANGERANG","ID_KEC":"36.71.06","KECAMATAN":"CILEDUG","ID_DESA":"36.71.06.1003","DESA":"SUDIMARA TIMUR","LONGITUDE":106.718796,"LATITUDE":-6.228009,"STATUS":"BUKA","TANGGAL PENGUMPULAN":"Q1 2024","TANGGAL UPDATE":"28/02/2025"}},{"type":"Feature","geometry":{"coordinates":[106.688668,-6.2223889],"type":"Point"},"properties":{"NAMA":"RUMAH SAKIT MULYA TANGERANG","TIPE_1":"KESEHATAN DAN PENGOBATAN","TIPE_2":"RUMAH SAKIT","TIPE_3":"RUMAH SAKIT UMUM SWASTA","TELEPON":"0856-5656-5230","ALAMAT":"JL. KH. HASYIM ASHARI NO.18, SUDIMARA PINANG, KEC. PINANG, KOTA TANGERANG, BANTEN 15145","ID_PROV":"36","PROVINSI":"BANTEN","ID_KABKOT":"36.71","KABKOT":"KOTA TANGERANG","ID_KEC":"36.71.11","KECAMATAN":"PINANG","ID_DESA":"36.71.11.1002","DESA":"SUDIMARA PINANG","LONGITUDE":106.688668,"LATITUDE":-6.2223889,"STATUS":"BUKA","TANGGAL PENGUMPULAN":"Q1 2024","TANGGAL UPDATE":"28/02/2025"}},{"type":"Feature","geometry":{"coordinates":[106.635138,-6.200545],"type":"Point"},"properties":{"NAMA":"RSUD KOTA TANGERANG","TIPE_1":"KESEHATAN DAN PENGOBATAN","TIPE_2":"RUMAH SAKIT","TIPE_3":"RUMAH SAKIT UMUM DAERAH/NEGERI","TELEPON":"(021) 29720202","ALAMAT":"PERUMAHAN MODERLAND, JL. PULAU PUTRI RAYA, RT.05/RW.03, KLP. INDAH, KEC. TANGERANG, KOTA TANGERANG, BANTEN 15117","ID_PROV":"36","PROVINSI":"BANTEN","ID_KABKOT":"36.71","KABKOT":"KOTA TANGERANG","ID_KEC":"36.71.01","KECAMATAN":"TANGERANG","ID_DESA":"36.71.01.1006","DESA":"KELAPA INDAH","LONGITUDE":106.635138,"LATITUDE":-6.200545,"STATUS":"BUKA","TANGGAL PENGUMPULAN":"Q1 2024","TANGGAL UPDATE":"28/02/2025"}},{"type":"Feature","geometry":{"coordinates":[106.6142843,-6.1998679],"type":"Point"},"properties":{"NAMA":"RUMAH SAKIT IBU DAN ANAK ASSYIFA","TIPE_1":"KESEHATAN DAN PENGOBATAN","TIPE_2":"RUMAH SAKIT","TIPE_3":"RUMAH SAKIT UMUM SWASTA","TELEPON":"0812-1900-0052","ALAMAT":"JL. PAUS RAYA NO.1, RT.002/RW.004, KARAWACI BARU, KEC. KARAWACI, KOTA TANGERANG, BANTEN 15116","ID_PROV":"36","PROVINSI":"BANTEN","ID_KABKOT":"36.71","KABKOT":"KOTA TANGERANG","ID_KEC":"36.71.07","KECAMATAN":"KARAWACI","ID_DESA":"36.71.07.1003","DESA":"KARAWACI BARU","LONGITUDE":106.6142843,"LATITUDE":-6.1998679,"STATUS":"BUKA","TANGGAL PENGUMPULAN":"Q1 2024","TANGGAL UPDATE":"28/02/2025"}},{"type":"Feature","geometry":{"coordinates":[106.6298644,-6.1638386],"type":"Point"},"properties":{"NAMA":"RUMAH SAKIT ISLAM SARI ASIH AR-RAHMAH","TIPE_1":"KESEHATAN DAN PENGOBATAN","TIPE_2":"RUMAH SAKIT","TIPE_3":"RUMAH SAKIT UMUM SWASTA","TELEPON":"(021) 55736677","ALAMAT":"JL. KS TUBUN NO.44, KOANG JAYA, KEC. KARAWACI, KOTA TANGERANG, BANTEN 15112","ID_PROV":"36","PROVINSI":"BANTEN","ID_KABKOT":"36.71","KABKOT":"KOTA TANGERANG","ID_KEC":"36.71.07","KECAMATAN":"KARAWACI","ID_DESA":"36.71.07.1016","DESA":"KOANG JAYA","LONGITUDE":106.6298644,"LATITUDE":-6.1638386,"STATUS":"BUKA","TANGGAL PENGUMPULAN":"Q1 2024","TANGGAL UPDATE":"28/02/2025"}},{"type":"Feature","geometry":{"coordinates":[106.7150498,-6.2100652],"type":"Point"},"properties":{"NAMA":"RUMAH SAKIT KARANG TENGAH MEDIKA","TIPE_1":"KESEHATAN DAN PENGOBATAN","TIPE_2":"RUMAH SAKIT","TIPE_3":"RUMAH SAKIT UMUM SWASTA","TELEPON":"(021) 7336699","ALAMAT":"JL. KARYAWAN 4, KARANG TENGAH, KEC. KARANG TENGAH, KOTA TANGERANG, BANTEN 15157","ID_PROV":"36","PROVINSI":"BANTEN","ID_KABKOT":"36.71","KABKOT":"KOTA TANGERANG","ID_KEC":"36.71.12","KECAMATAN":"KARANG TENGAH","ID_DESA":"36.71.12.1001","DESA":"KARANG TENGAH","LONGITUDE":106.7150498,"LATITUDE":-6.2100652,"STATUS":"BUKA","TANGGAL PENGUMPULAN":"Q1 2024","TANGGAL UPDATE":"28/02/2025"}},{"type":"Feature","geometry":{"coordinates":[106.6314444,-6.172131],"type":"Point"},"properties":{"NAMA":"RUMAH SAKIT DAAN MOGOT","TIPE_1":"KESEHATAN DAN PENGOBATAN","TIPE_2":"RUMAH SAKIT","TIPE_3":"RUMAH SAKIT UMUM SWASTA","TELEPON":"0812-2222-7259","ALAMAT":"JL. RAYA DAAN MOGOT NO.59, RT.003/RW.004, SUKARASA, KEC. TANGERANG, KOTA TANGERANG, BANTEN 15111","ID_PROV":"36","PROVINSI":"BANTEN","ID_KABKOT":"36.71","KABKOT":"KOTA TANGERANG","ID_KEC":"36.71.01","KECAMATAN":"TANGERANG","ID_DESA":"36.71.01.1001","DESA":"SUKARASA","LONGITUDE":106.6314444,"LATITUDE":-6.172131,"STATUS":"BUKA","TANGGAL PENGUMPULAN":"Q1 2024","TANGGAL UPDATE":"28/02/2025"}},{"type":"Feature","geometry":{"coordinates":[106.5916001,-6.1921262],"type":"Point"},"properties":{"NAMA":"RUMAH SAKIT DINDA","TIPE_1":"KESEHATAN DAN PENGOBATAN","TIPE_2":"RUMAH SAKIT","TIPE_3":"RUMAH SAKIT UMUM SWASTA","TELEPON":"(021) 55650577","ALAMAT":"JL. GALUH NO.2, RT.002/RW.002, JATIUWUNG, KEC. CIBODAS, KOTA TANGERANG, BANTEN 15134","ID_PROV":"36","PROVINSI":"BANTEN","ID_KABKOT":"36.71","KABKOT":"KOTA TANGERANG","ID_KEC":"36.71.09","KECAMATAN":"CIBODAS","ID_DESA":"36.71.09.1006","DESA":"JATIUWUNG","LONGITUDE":106.5916001,"LATITUDE":-6.1921262,"STATUS":"BUKA","TANGGAL PENGUMPULAN":"Q1 2024","TANGGAL UPDATE":"28/02/2025"}},{"type":"Feature","geometry":{"coordinates":[106.626933,-6.16953],"type":"Point"},"properties":{"NAMA":"RSU HERMINA TANGERANG","TIPE_1":"KESEHATAN DAN PENGOBATAN","TIPE_2":"RUMAH SAKIT","TIPE_3":"RUMAH SAKIT UMUM SWASTA","TELEPON":"(021) 55772525","ALAMAT":"JL. KS. TUBUN NO.10, PS. BARU, KEC. KARAWACI, KOTA TANGERANG, BANTEN 15112","ID_PROV":"36","PROVINSI":"BANTEN","ID_KABKOT":"36.71","KABKOT":"KOTA TANGERANG","ID_KEC":"36.71.07","KECAMATAN":"KARAWACI","ID_DESA":"36.71.07.1015","DESA":"PASAR BARU","LONGITUDE":106.626933,"LATITUDE":-6.16953,"STATUS":"BUKA","TANGGAL PENGUMPULAN":"Q1 2024","TANGGAL UPDATE":"28/02/2025"}},{"type":"Feature","geometry":{"coordinates":[106.7022846,-6.2493124],"type":"Point"},"properties":{"NAMA":"RUMAH SAKIT AQIDAH","TIPE_1":"KESEHATAN DAN PENGOBATAN","TIPE_2":"RUMAH SAKIT","TIPE_3":"RUMAH SAKIT UMUM SWASTA","TELEPON":"(021) 7310851","ALAMAT":"JL. RADEN FATAH NO.40, RT.004/RW.010, PARUNG SERAB, KEC. CILEDUG, KOTA TANGERANG, BANTEN 15153","ID_PROV":"36","PROVINSI":"BANTEN","ID_KABKOT":"36.71","KABKOT":"KOTA TANGERANG","ID_KEC":"36.71.06","KECAMATAN":"CILEDUG","ID_DESA":"36.71.06.1005","DESA":"PARUNG SERAB","LONGITUDE":106.7022846,"LATITUDE":-6.2493124,"STATUS":"BUKA","TANGGAL PENGUMPULAN":"Q1 2024","TANGGAL UPDATE":"28/02/2025"}},{"type":"Feature","geometry":{"coordinates":[106.6252586,-6.1777209],"type":"Point"},"properties":{"NAMA":"RS MELATI","TIPE_1":"KESEHATAN DAN PENGOBATAN","TIPE_2":"RUMAH SAKIT","TIPE_3":"RUMAH SAKIT UMUM SWASTA","TELEPON":"(021) 5523945","ALAMAT":"JL. RAYA MERDEKA NO.92, RT.002/RW.007, GERENDENG, KEC. KARAWACI, KOTA TANGERANG, BANTEN 15113","ID_PROV":"36","PROVINSI":"BANTEN","ID_KABKOT":"36.71","KABKOT":"KOTA TANGERANG","ID_KEC":"36.71.07","KECAMATAN":"KARAWACI","ID_DESA":"36.71.07.1013","DESA":"GERENDENG","LONGITUDE":106.6252586,"LATITUDE":-6.1777209,"STATUS":"BUKA","TANGGAL PENGUMPULAN":"Q1 2024","TANGGAL UPDATE":"28/02/2025"}},{"type":"Feature","geometry":{"coordinates":[106.6637241,-6.1506956],"type":"Point"},"properties":{"NAMA":"RS MAKIYAH","TIPE_1":"KESEHATAN DAN PENGOBATAN","TIPE_2":"RUMAH SAKIT","TIPE_3":"RUMAH SAKIT UMUM SWASTA","TELEPON":"(021) 55723080","ALAMAT":"JL. KH. KUDING NO.5, RT.001/RW.6, BELENDUNG, KEC. BENDA, KOTA TANGERANG, BANTEN 15121","ID_PROV":"36","PROVINSI":"BANTEN","ID_KABKOT":"36.71","KABKOT":"KOTA TANGERANG","ID_KEC":"36.71.04","KECAMATAN":"BENDA","ID_DESA":"36.71.04.1001","DESA":"BELENDUNG","LONGITUDE":106.6637241,"LATITUDE":-6.1506956,"STATUS":"BUKA","TANGGAL PENGUMPULAN":"Q1 2024","TANGGAL UPDATE":"28/02/2025"}},{"type":"Feature","geometry":{"coordinates":[106.6761903,-6.1841042],"type":"Point"},"properties":{"NAMA":"RS SARI ASIH CIPONDOH","TIPE_1":"KESEHATAN DAN PENGOBATAN","TIPE_2":"RUMAH SAKIT","TIPE_3":"RUMAH SAKIT UMUM SWASTA","TELEPON":"(021) 22263738","ALAMAT":"JL. MAULANA HASANUDIN NO.108, RT.004/RW.002, CIPONDOH MAKMUR, KEC. CIPONDOH, KOTA TANGERANG, BANTEN 15148","ID_PROV":"36","PROVINSI":"BANTEN","ID_KABKOT":"36.71","KABKOT":"KOTA TANGERANG","ID_KEC":"36.71.05","KECAMATAN":"CIPONDOH","ID_DESA":"36.71.05.1002","DESA":"CIPONDOH MAKMUR","LONGITUDE":106.6761903,"LATITUDE":-6.1841042,"STATUS":"BUKA","TANGGAL PENGUMPULAN":"Q1 2024","TANGGAL UPDATE":"28/02/2025"}},{"type":"Feature","geometry":{"coordinates":[106.6262267,-6.179311],"type":"Point"},"properties":{"NAMA":"RS SARI ASIH KARAWACI","TIPE_1":"KESEHATAN DAN PENGOBATAN","TIPE_2":"RUMAH SAKIT","TIPE_3":"RUMAH SAKIT UMUM SWASTA","TELEPON":"(021) 5522794","ALAMAT":"JL. IMAM BONJOL NO.38, RT.003/RW.004, SUKAJADI, KEC. KARAWACI, KOTA TANGERANG, BANTEN 15113","ID_PROV":"36","PROVINSI":"BANTEN","ID_KABKOT":"36.71","KABKOT":"KOTA TANGERANG","ID_KEC":"36.71.07","KECAMATAN":"KARAWACI","ID_DESA":"36.71.07.1014","DESA":"SUKAJADI","LONGITUDE":106.6262267,"LATITUDE":-6.179311,"STATUS":"BUKA","TANGGAL PENGUMPULAN":"Q1 2024","TANGGAL UPDATE":"28/02/2025"}},{"type":"Feature","geometry":{"coordinates":[106.6305992,-6.214776],"type":"Point"},"properties":{"NAMA":"PRIMAYA HOSPITAL TANGERANG","TIPE_1":"KESEHATAN DAN PENGOBATAN","TIPE_2":"RUMAH SAKIT","TIPE_3":"RUMAH SAKIT UMUM SWASTA","TELEPON":"(021) 55758888","ALAMAT":"JL. MH. THAMRIN JL. KB. NANAS NO.3, CIKOKOL, KEC. PINANG, KOTA TANGERANG, BANTEN 15143","ID_PROV":"36","PROVINSI":"BANTEN","ID_KABKOT":"36.71","KABKOT":"KOTA TANGERANG","ID_KEC":"36.71.01","KECAMATAN":"TANGERANG","ID_DESA":"36.71.01.1005","DESA":"CIKOKOL","LONGITUDE":106.6305992,"LATITUDE":-6.214776,"STATUS":"BUKA","TANGGAL PENGUMPULAN":"Q1 2024","TANGGAL UPDATE":"28/02/2025"}},{"type":"Feature","geometry":{"coordinates":[106.604672,-6.1878359],"type":"Point"},"properties":{"NAMA":"RS AN-NISA TANGERANG","TIPE_1":"KESEHATAN DAN PENGOBATAN","TIPE_2":"RUMAH SAKIT","TIPE_3":"RUMAH SAKIT UMUM SWASTA","TELEPON":"(021) 5525564","ALAMAT":"JL. GATOT SUBROTO NO.KM. 3, RT.003/RW.001, UWUNG JAYA, KEC. CIBODAS, KOTA TANGERANG, BANTEN 15132","ID_PROV":"36","PROVINSI":"BANTEN","ID_KABKOT":"36.71","KABKOT":"KOTA TANGERANG","ID_KEC":"36.71.09","KECAMATAN":"CIBODAS","ID_DESA":"36.71.09.1005","DESA":"UWUNG JAYA","LONGITUDE":106.604672,"LATITUDE":-6.1878359,"STATUS":"BUKA","TANGGAL PENGUMPULAN":"Q1 2024","TANGGAL UPDATE":"28/02/2025"}},{"type":"Feature","geometry":{"coordinates":[106.6366039,-6.169458],"type":"Point"},"properties":{"NAMA":"WIJAYA KUSUMA RSUD KABUPATEN TANGERANG","TIPE_1":"KESEHATAN DAN PENGOBATAN","TIPE_2":"RUMAH SAKIT","TIPE_3":"RUMAH SAKIT UMUM DAERAH/NEGERI","TELEPON":"","ALAMAT":"RT.001/RW.003, SUKAASIH, KEC. TANGERANG, KOTA TANGERANG, BANTEN 15111","ID_PROV":"36","PROVINSI":"BANTEN","ID_KABKOT":"36.71","KABKOT":"KOTA TANGERANG","ID_KEC":"36.71.01","KECAMATAN":"TANGERANG","ID_DESA":"36.71.01.1002","DESA":"SUKAASIH","LONGITUDE":106.6366039,"LATITUDE":-6.169458,"STATUS":"BUKA","TANGGAL PENGUMPULAN":"Q1 2024","TANGGAL UPDATE":"28/02/2025"}},{"type":"Feature","geometry":{"coordinates":[106.6415185,-6.2050294],"type":"Point"},"properties":{"NAMA":"MAYAPADA HOSPITAL TANGERANG (MHTG)","TIPE_1":"KESEHATAN DAN PENGOBATAN","TIPE_2":"RUMAH SAKIT","TIPE_3":"RUMAH SAKIT UMUM SWASTA","TELEPON":"150770","ALAMAT":"JL. HONORIS RAYA NO.6, RT.001/RW.006, KLP. INDAH, KEC. TANGERANG, KOTA TANGERANG, BANTEN 15117","ID_PROV":"36","PROVINSI":"BANTEN","ID_KABKOT":"36.71","KABKOT":"KOTA TANGERANG","ID_KEC":"36.71.01","KECAMATAN":"TANGERANG","ID_DESA":"36.71.01.1006","DESA":"KELAPA INDAH","LONGITUDE":106.6415185,"LATITUDE":-6.2050294,"STATUS":"BUKA","TANGGAL PENGUMPULAN":"Q1 2024","TANGGAL UPDATE":"28/02/2025"}},{"type":"Feature","geometry":{"coordinates":[106.721512,-6.2303041],"type":"Point"},"properties":{"NAMA":"RS HERMINA CILEDUG","TIPE_1":"KESEHATAN DAN PENGOBATAN","TIPE_2":"RUMAH SAKIT","TIPE_3":"RUMAH SAKIT UMUM SWASTA","TELEPON":"(021) 73454951","ALAMAT":"JL. H.MENCONG JL. CILEDUG RAYA NO.3, RT.003/RW.004, SUDIMARA TIM., KEC. CILEDUG, KOTA TANGERANG, BANTEN 15151","ID_PROV":"36","PROVINSI":"BANTEN","ID_KABKOT":"36.71","KABKOT":"KOTA TANGERANG","ID_KEC":"36.71.06","KECAMATAN":"CILEDUG","ID_DESA":"36.71.06.1003","DESA":"SUDIMARA TIMUR","LONGITUDE":106.721512,"LATITUDE":-6.2303041,"STATUS":"BUKA","TANGGAL PENGUMPULAN":"Q1 2024","TANGGAL UPDATE":"28/02/2025"}},{"type":"Feature","geometry":{"coordinates":[106.6356113,-6.1697843],"type":"Point"},"properties":{"NAMA":"RSUD KABUPATEN TANGERANG","TIPE_1":"KESEHATAN DAN PENGOBATAN","TIPE_2":"RUMAH SAKIT","TIPE_3":"RUMAH SAKIT UMUM DAERAH/NEGERI","TELEPON":"(021) 5523507","ALAMAT":"JL. JEND. AHMAD YANI NO.9, RT.001/RW.003, SUKAASIH, KEC. TANGERANG, KOTA TANGERANG, BANTEN 15111","ID_PROV":"36","PROVINSI":"BANTEN","ID_KABKOT":"36.71","KABKOT":"KOTA TANGERANG","ID_KEC":"36.71.01","KECAMATAN":"TANGERANG","ID_DESA":"36.71.01.1002","DESA":"SUKAASIH","LONGITUDE":106.6356113,"LATITUDE":-6.1697843,"STATUS":"BUKA","TANGGAL PENGUMPULAN":"Q1 2024","TANGGAL UPDATE":"28/02/2025"}},{"type":"Feature","geometry":{"coordinates":[106.5937447,-6.1512097],"type":"Point"},"properties":{"NAMA":"RS HERMINA PERIUK KOTA TANGERANG","TIPE_1":"KESEHATAN DAN PENGOBATAN","TIPE_2":"RUMAH SAKIT","TIPE_3":"RUMAH SAKIT UMUM SWASTA","TELEPON":"(021) 29432525","ALAMAT":"JL. MOH. TOHA JL. NAGRAK, RT.001/RW.007, PERIUK, KEC. PERIUK, KOTA TANGERANG, BANTEN 15131","ID_PROV":"36","PROVINSI":"BANTEN","ID_KABKOT":"36.71","KABKOT":"KOTA TANGERANG","ID_KEC":"36.71.08","KECAMATAN":"PERIUK","ID_DESA":"36.71.08.1001","DESA":"PERIUK","LONGITUDE":106.5937447,"LATITUDE":-6.1512097,"STATUS":"BUKA","TANGGAL PENGUMPULAN":"Q1 2024","TANGGAL UPDATE":"28/02/2025"}},{"type":"Feature","geometry":{"coordinates":[106.6475981,-6.1845847],"type":"Point"},"properties":{"NAMA":"RS EMC TANGERANG","TIPE_1":"KESEHATAN DAN PENGOBATAN","TIPE_2":"RUMAH SAKIT","TIPE_3":"RUMAH SAKIT UMUM SWASTA","TELEPON":"150789","ALAMAT":"JL. KH. HASYIM ASHARI KECAMATAN NO.24, RT.001/RW.007, BUARAN INDAH, KEC. TANGERANG, KOTA TANGERANG, BANTEN 15119","ID_PROV":"36","PROVINSI":"BANTEN","ID_KABKOT":"36.71","KABKOT":"KOTA TANGERANG","ID_KEC":"36.71.01","KECAMATAN":"TANGERANG","ID_DESA":"36.71.01.1004","DESA":"BUARAN INDAH","LONGITUDE":106.6475981,"LATITUDE":-6.1845847,"STATUS":"BUKA","TANGGAL PENGUMPULAN":"Q1 2024","TANGGAL UPDATE":"28/02/2025"}},{"type":"Feature","geometry":{"coordinates":[106.6345842,-6.1624125],"type":"Point"},"properties":{"NAMA":"RSUP DR. SITANALA","TIPE_1":"KESEHATAN DAN PENGOBATAN","TIPE_2":"RUMAH SAKIT","TIPE_3":"RUMAH SAKIT UMUM DAERAH/NEGERI","TELEPON":"(021) 5523059","ALAMAT":"JL. DR. SITANALA NO.99, RT.002/RW.003, KARANG SARI, KEC. NEGLASARI, KOTA TANGERANG, BANTEN 15121","ID_PROV":"36","PROVINSI":"BANTEN","ID_KABKOT":"36.71","KABKOT":"KOTA TANGERANG","ID_KEC":"36.71.10","KECAMATAN":"NEGLASARI","ID_DESA":"36.71.10.1002","DESA":"KARANG SARI","LONGITUDE":106.6345842,"LATITUDE":-6.1624125,"STATUS":"BUKA","TANGGAL PENGUMPULAN":"Q1 2024","TANGGAL UPDATE":"28/02/2025"}},{"type":"Feature","geometry":{"coordinates":[106.6150872,-6.1955074],"type":"Point"},"properties":{"NAMA":"RUMAH SAKIT TIARA TANGERANG","TIPE_1":"KESEHATAN DAN PENGOBATAN","TIPE_2":"RUMAH SAKIT","TIPE_3":"RUMAH SAKIT UMUM DAERAH/NEGERI","TELEPON":"(021) 29238000","ALAMAT":"JL. BERINGIN RAYA NO.3 - 5, RT.003/RW.008, NUSA JAYA, KEC. KARAWACI, KOTA TANGERANG, BANTEN 15116","ID_PROV":"36","PROVINSI":"BANTEN","ID_KABKOT":"36.71","KABKOT":"KOTA TANGERANG","ID_KEC":"36.71.07","KECAMATAN":"KARAWACI","ID_DESA":"36.71.07.1004","DESA":"NUSA JAYA","LONGITUDE":106.6150872,"LATITUDE":-6.1955074,"STATUS":"BUKA","TANGGAL PENGUMPULAN":"Q1 2024","TANGGAL UPDATE":"28/02/2025"}},{"type":"Feature","geometry":{"coordinates":[106.7055835,-6.2206701],"type":"Point"},"properties":{"NAMA":"RUMAH SAKIT UMUM BHAKTI ASIH","TIPE_1":"KESEHATAN DAN PENGOBATAN","TIPE_2":"RUMAH SAKIT","TIPE_3":"RUMAH SAKIT UMUM SWASTA","TELEPON":"(021) 7305662","ALAMAT":"JL. RADEN SALEH NO.10, RT.001/RW.004, KARANG TENGAH, KEC. KARANG TENGAH, KOTA TANGERANG, BANTEN 15157","ID_PROV":"36","PROVINSI":"BANTEN","ID_KABKOT":"36.71","KABKOT":"KOTA TANGERANG","ID_KEC":"36.71.12","KECAMATAN":"KARANG TENGAH","ID_DESA":"36.71.12.1001","DESA":"KARANG TENGAH","LONGITUDE":106.7055835,"LATITUDE":-6.2206701,"STATUS":"BUKA","TANGGAL PENGUMPULAN":"Q1 2024","TANGGAL UPDATE":"28/02/2025"}},{"type":"Feature","geometry":{"coordinates":[106.6010367,-6.1701228],"type":"Point"},"properties":{"NAMA":"RUMAH SAKIT SARI ASIH SANGIANG","TIPE_1":"KESEHATAN DAN PENGOBATAN","TIPE_2":"RUMAH SAKIT","TIPE_3":"RUMAH SAKIT UMUM SWASTA","TELEPON":"(021) 5582732","ALAMAT":"JL. MOH. TOHA KM.3,5, RT.004/RW.005, PERIUK, KEC. PERIUK, KOTA TANGERANG, BANTEN 15132","ID_PROV":"36","PROVINSI":"BANTEN","ID_KABKOT":"36.71","KABKOT":"KOTA TANGERANG","ID_KEC":"36.71.08","KECAMATAN":"PERIUK","ID_DESA":"36.71.08.1001","DESA":"PERIUK","LONGITUDE":106.6010367,"LATITUDE":-6.1701228,"STATUS":"BUKA","TANGGAL PENGUMPULAN":"Q1 2024","TANGGAL UPDATE":"28/02/2025"}}]}