{"type":"FeatureCollection","features":[{"type":"Feature","geometry":{"coordinates":[106.9398,-6.21759],"type":"Point"},"properties":{"NAMA":"STASIUN KLENDER BARU","TIPE_1":"TRANSPORTASI","TIPE_2":"STASIUN","TIPE_3":"COMMUTER","TELEPON":"","ALAMAT":"JALAN PONDOK KOPI IA NO.335, RT.1/RW.9, PONDOK KOPI, DUREN SAWIT, KOTA JAKARTA TIMUR, 13460","ID_PROV":"31","PROVINSI":"DKI JAKARTA","ID_KABKOT":"31.75","KABKOT":"KOTA ADM. JAKARTA TIMUR","ID_KEC":"31.75.06","KECAMATAN":"CAKUNG","ID_DESA":"31.75.06.1003","DESA":"PENGGILINGAN","LONGITUDE":106.9398,"LATITUDE":-6.21759,"STATUS":"BUKA","TANGGAL PENGUMPULAN":"Q2 2024","TANGGAL UPDATE":"27/07/2025"}},{"type":"Feature","geometry":{"coordinates":[106.8704,-6.21527],"type":"Point"},"properties":{"NAMA":"STASIUN JATINEGARA","TIPE_1":"TRANSPORTASI","TIPE_2":"STASIUN","TIPE_3":"COMMUTER","TELEPON":"","ALAMAT":"JL. BEKASI BARAT IV NO.7, RW.2, RW. BUNGA, KECAMATAN JATINEGARA, KOTA JAKARTA TIMUR, DAERAH KHUSUS IBUKOTA JAKARTA 13350","ID_PROV":"31","PROVINSI":"DKI JAKARTA","ID_KABKOT":"31.75","KABKOT":"KOTA ADM. JAKARTA TIMUR","ID_KEC":"31.75.03","KECAMATAN":"JATINEGARA","ID_DESA":"31.75.03.1004","DESA":"RAWA BUNGA","LONGITUDE":106.8704,"LATITUDE":-6.21527,"STATUS":"BUKA","TANGGAL PENGUMPULAN":"Q2 2024","TANGGAL UPDATE":"27/07/2025"}},{"type":"Feature","geometry":{"coordinates":[106.9276,-6.21619],"type":"Point"},"properties":{"NAMA":"STASIUN BUARAN","TIPE_1":"TRANSPORTASI","TIPE_2":"STASIUN","TIPE_3":"COMMUTER","TELEPON":"","ALAMAT":"JL. I GUSTI NGURAH RAI, JATINEGARA, KEC. CAKUNG, KOTA JAKARTA TIMUR, DAERAH KHUSUS IBUKOTA JAKARTA 13930","ID_PROV":"31","PROVINSI":"DKI JAKARTA","ID_KABKOT":"31.75","KABKOT":"KOTA ADM. JAKARTA TIMUR","ID_KEC":"31.75.07","KECAMATAN":"DUREN SAWIT","ID_DESA":"31.75.07.1005","DESA":"MALAKA SARI","LONGITUDE":106.9276,"LATITUDE":-6.21619,"STATUS":"BUKA","TANGGAL PENGUMPULAN":"Q2 2024","TANGGAL UPDATE":"27/07/2025"}},{"type":"Feature","geometry":{"coordinates":[106.88052,-6.29287],"type":"Point"},"properties":{"NAMA":"STASIUN JATI MULYA","TIPE_1":"TRANSPORTASI","TIPE_2":"STASIUN","TIPE_3":"LRT","TELEPON":"","ALAMAT":"JL. KECAPI VI NO.389 BLOK C, JATIMULYA, TAMBUN SELATAN, BEKASI REGENCY, WEST JAVA 17510","ID_PROV":"31","PROVINSI":"DKI JAKARTA","ID_KABKOT":"31.75","KABKOT":"KOTA ADM. JAKARTA TIMUR","ID_KEC":"31.75.08","KECAMATAN":"MAKASAR","ID_DESA":"31.75.08.1002","DESA":"PINANGRANTI","LONGITUDE":106.88052,"LATITUDE":-6.29287,"STATUS":"BUKA","TANGGAL PENGUMPULAN":"Q2 2024","TANGGAL UPDATE":"27/07/2025"}},{"type":"Feature","geometry":{"coordinates":[106.8712288,-6.2458857],"type":"Point"},"properties":{"NAMA":"STASIUN CAWANG","TIPE_1":"TRANSPORTASI","TIPE_2":"STASIUN","TIPE_3":"LRT","TELEPON":"","ALAMAT":"JL. LETJEN M.T. HARYONO, RT.1/RW.6, CAWANG, KEC. KRAMAT JATI, KOTA JAKARTA TIMUR, DAERAH KHUSUS IBUKOTA JAKARTA 13630","ID_PROV":"31","PROVINSI":"DKI JAKARTA","ID_KABKOT":"31.75","KABKOT":"KOTA ADM. JAKARTA TIMUR","ID_KEC":"31.75.04","KECAMATAN":"KRAMATJATI","ID_DESA":"31.75.04.1007","DESA":"CAWANG","LONGITUDE":106.8712288,"LATITUDE":-6.2458857,"STATUS":"BUKA","TANGGAL PENGUMPULAN":"Q2 2024","TANGGAL UPDATE":"27/07/2025"}},{"type":"Feature","geometry":{"coordinates":[106.9,-6.21338],"type":"Point"},"properties":{"NAMA":"STASIUN KLENDER","TIPE_1":"TRANSPORTASI","TIPE_2":"STASIUN","TIPE_3":"COMMUTER","TELEPON":"","ALAMAT":"JL. PD. KOPI TIM., PENGGILINGAN, KEC. CAKUNG, KOTA JAKARTA TIMUR, DAERAH KHUSUS IBUKOTA JAKARTA 13460","ID_PROV":"31","PROVINSI":"DKI JAKARTA","ID_KABKOT":"31.75","KABKOT":"KOTA ADM. JAKARTA TIMUR","ID_KEC":"31.75.07","KECAMATAN":"DUREN SAWIT","ID_DESA":"31.75.07.1003","DESA":"KLENDER","LONGITUDE":106.9,"LATITUDE":-6.21338,"STATUS":"BUKA","TANGGAL PENGUMPULAN":"Q2 2024","TANGGAL UPDATE":"27/07/2025"}},{"type":"Feature","geometry":{"coordinates":[106.8640338,-6.2434487],"type":"Point"},"properties":{"NAMA":"STASIUN PANCORAN","TIPE_1":"TRANSPORTASI","TIPE_2":"STASIUN","TIPE_3":"LRT","TELEPON":"","ALAMAT":"PANCORAN BARAT, JALAN JENDRAL GATOT SUBROTO, RT.9/RW.1, MENTENG DALAM, TEBET, RT.3/RW.4, PANCORAN, SOUTH JAKARTA CITY, JAKARTA 12870","ID_PROV":"31","PROVINSI":"DKI JAKARTA","ID_KABKOT":"31.75","KABKOT":"KOTA ADM. JAKARTA TIMUR","ID_KEC":"31.75.04","KECAMATAN":"KRAMATJATI","ID_DESA":"31.75.04.1007","DESA":"CAWANG","LONGITUDE":106.8640338,"LATITUDE":-6.2434487,"STATUS":"BUKA","TANGGAL PENGUMPULAN":"Q2 2024","TANGGAL UPDATE":"27/07/2025"}},{"type":"Feature","geometry":{"coordinates":[106.8622,-6.20898],"type":"Point"},"properties":{"NAMA":"STASIUN PONDOK JATI","TIPE_1":"TRANSPORTASI","TIPE_2":"STASIUN","TIPE_3":"COMMUTER","TELEPON":"","ALAMAT":"RT.10/RW.9, PISANGAN BARU, KEC. MATRAMAN, KOTA JAKARTA TIMUR, DAERAH KHUSUS IBUKOTA JAKARTA 13140","ID_PROV":"31","PROVINSI":"DKI JAKARTA","ID_KABKOT":"31.75","KABKOT":"KOTA ADM. JAKARTA TIMUR","ID_KEC":"31.75.01","KECAMATAN":"MATRAMAN","ID_DESA":"31.75.01.1004","DESA":"PALMERIAM","LONGITUDE":106.8622,"LATITUDE":-6.20898,"STATUS":"BUKA","TANGGAL PENGUMPULAN":"Q2 2024","TANGGAL UPDATE":"27/07/2025"}},{"type":"Feature","geometry":{"coordinates":[106.884392,-6.309419],"type":"Point"},"properties":{"NAMA":"STASIUN KAMPUNG RAMBUTAN","TIPE_1":"TRANSPORTASI","TIPE_2":"STASIUN","TIPE_3":"LRT","TELEPON":"","ALAMAT":"RT.11/RW.6, RAMBUTAN, CIRACAS, EAST JAKARTA CITY, JAKARTA 13830","ID_PROV":"31","PROVINSI":"DKI JAKARTA","ID_KABKOT":"31.75","KABKOT":"KOTA ADM. JAKARTA TIMUR","ID_KEC":"31.75.09","KECAMATAN":"CIRACAS","ID_DESA":"31.75.09.1005","DESA":"RAMBUTAN","LONGITUDE":106.884392,"LATITUDE":-6.309419,"STATUS":"BUKA","TANGGAL PENGUMPULAN":"Q2 2024","TANGGAL UPDATE":"27/07/2025"}},{"type":"Feature","geometry":{"coordinates":[106.88662,-6.32389],"type":"Point"},"properties":{"NAMA":"STASIUN TMII","TIPE_1":"TRANSPORTASI","TIPE_2":"STASIUN","TIPE_3":"LRT","TELEPON":"","ALAMAT":"RT.3/RW.2, PINANG RANTI, KEC. MAKASAR, KOTA JAKARTA TIMUR, DAERAH KHUSUS IBUKOTA JAKARTA 13560","ID_PROV":"31","PROVINSI":"DKI JAKARTA","ID_KABKOT":"31.75","KABKOT":"KOTA ADM. JAKARTA TIMUR","ID_KEC":"31.75.09","KECAMATAN":"CIRACAS","ID_DESA":"31.75.09.1001","DESA":"CIRACAS","LONGITUDE":106.88662,"LATITUDE":-6.32389,"STATUS":"BUKA","TANGGAL PENGUMPULAN":"Q2 2024","TANGGAL UPDATE":"27/07/2025"}},{"type":"Feature","geometry":{"coordinates":[106.8844,-6.21417],"type":"Point"},"properties":{"NAMA":"STASIUN CIPINANG","TIPE_1":"TRANSPORTASI","TIPE_2":"STASIUN","TIPE_3":"KERETA API","TELEPON":"","ALAMAT":"RT.8/RW.8, CIPINANG, KECAMATAN JATINEGARA, KOTA JAKARTA TIMUR, DAERAH KHUSUS IBUKOTA JAKARTA 13240","ID_PROV":"31","PROVINSI":"DKI JAKARTA","ID_KABKOT":"31.75","KABKOT":"KOTA ADM. JAKARTA TIMUR","ID_KEC":"31.75.02","KECAMATAN":"PULOGADUNG","ID_DESA":"31.75.02.1002","DESA":"PISANGAN TIMUR","LONGITUDE":106.8844,"LATITUDE":-6.21417,"STATUS":"BUKA","TANGGAL PENGUMPULAN":"Q2 2024","TANGGAL UPDATE":"27/07/2025"}},{"type":"Feature","geometry":{"coordinates":[106.9,-6.21338],"type":"Point"},"properties":{"NAMA":"STASIUN KLENDER","TIPE_1":"TRANSPORTASI","TIPE_2":"STASIUN","TIPE_3":"KERETA API","TELEPON":"","ALAMAT":"ST. KLENDER, RT.6/RW.8, JATINEGARA KAUM, KOTA JAKARTA TIMUR, DAERAH KHUSUS IBUKOTA JAKARTA 13250","ID_PROV":"31","PROVINSI":"DKI JAKARTA","ID_KABKOT":"31.75","KABKOT":"KOTA ADM. JAKARTA TIMUR","ID_KEC":"31.75.07","KECAMATAN":"DUREN SAWIT","ID_DESA":"31.75.07.1003","DESA":"KLENDER","LONGITUDE":106.9,"LATITUDE":-6.21338,"STATUS":"BUKA","TANGGAL PENGUMPULAN":"Q2 2024","TANGGAL UPDATE":"27/07/2025"}},{"type":"Feature","geometry":{"coordinates":[106.9276,-6.21619],"type":"Point"},"properties":{"NAMA":"STASIUN BUARAN","TIPE_1":"TRANSPORTASI","TIPE_2":"STASIUN","TIPE_3":"KERETA API","TELEPON":"","ALAMAT":"JATINEGARA, KEC. CAKUNG, KOTA JAKARTA TIMUR, DAERAH KHUSUS IBUKOTA JAKARTA","ID_PROV":"31","PROVINSI":"DKI JAKARTA","ID_KABKOT":"31.75","KABKOT":"KOTA ADM. JAKARTA TIMUR","ID_KEC":"31.75.07","KECAMATAN":"DUREN SAWIT","ID_DESA":"31.75.07.1005","DESA":"MALAKA SARI","LONGITUDE":106.9276,"LATITUDE":-6.21619,"STATUS":"BUKA","TANGGAL PENGUMPULAN":"Q2 2024","TANGGAL UPDATE":"27/07/2025"}},{"type":"Feature","geometry":{"coordinates":[106.8704,-6.21527],"type":"Point"},"properties":{"NAMA":"STASIUN JATINEGARA","TIPE_1":"TRANSPORTASI","TIPE_2":"STASIUN","TIPE_3":"KERETA API","TELEPON":"","ALAMAT":"CIPINANG BESAR UTARA, KECAMATAN JATINEGARA, KOTA JAKARTA TIMUR, DAERAH KHUSUS IBUKOTA JAKARTA","ID_PROV":"31","PROVINSI":"DKI JAKARTA","ID_KABKOT":"31.75","KABKOT":"KOTA ADM. JAKARTA TIMUR","ID_KEC":"31.75.03","KECAMATAN":"JATINEGARA","ID_DESA":"31.75.03.1004","DESA":"RAWA BUNGA","LONGITUDE":106.8704,"LATITUDE":-6.21527,"STATUS":"BUKA","TANGGAL PENGUMPULAN":"Q2 2024","TANGGAL UPDATE":"27/07/2025"}},{"type":"Feature","geometry":{"coordinates":[106.9398,-6.21759],"type":"Point"},"properties":{"NAMA":"STASIUN KLENDER BARU","TIPE_1":"TRANSPORTASI","TIPE_2":"STASIUN","TIPE_3":"KERETA API","TELEPON":"","ALAMAT":"JL. PD. KOPI TIM., PENGGILINGAN, KEC. CAKUNG, KOTA JAKARTA TIMUR, DAERAH KHUSUS IBUKOTA JAKARTA 13460","ID_PROV":"31","PROVINSI":"DKI JAKARTA","ID_KABKOT":"31.75","KABKOT":"KOTA ADM. JAKARTA TIMUR","ID_KEC":"31.75.06","KECAMATAN":"CAKUNG","ID_DESA":"31.75.06.1003","DESA":"PENGGILINGAN","LONGITUDE":106.9398,"LATITUDE":-6.21759,"STATUS":"BUKA","TANGGAL PENGUMPULAN":"Q2 2024","TANGGAL UPDATE":"27/07/2025"}},{"type":"Feature","geometry":{"coordinates":[106.8622,-6.20898],"type":"Point"},"properties":{"NAMA":"STASIUN PONDOK JATI","TIPE_1":"TRANSPORTASI","TIPE_2":"STASIUN","TIPE_3":"KERETA API","TELEPON":"","ALAMAT":"RT.10/RW.9, PISANGAN BARU, KEC. MATRAMAN, KOTA JAKARTA TIMUR, DAERAH KHUSUS IBUKOTA JAKARTA 13140","ID_PROV":"31","PROVINSI":"DKI JAKARTA","ID_KABKOT":"31.75","KABKOT":"KOTA ADM. JAKARTA TIMUR","ID_KEC":"31.75.01","KECAMATAN":"MATRAMAN","ID_DESA":"31.75.01.1004","DESA":"PALMERIAM","LONGITUDE":106.8622,"LATITUDE":-6.20898,"STATUS":"BUKA","TANGGAL PENGUMPULAN":"Q2 2024","TANGGAL UPDATE":"27/07/2025"}},{"type":"Feature","geometry":{"coordinates":[106.88424,-6.24572],"type":"Point"},"properties":{"NAMA":"STASIUN CILIWUNG","TIPE_1":"TRANSPORTASI","TIPE_2":"STASIUN","TIPE_3":"LRT","TELEPON":"","ALAMAT":"WISMA METLAND, JL. LETJEN M.T. HARYONO NO.1, RW.1, CAWANG, KEC. KRAMAT JATI, KOTA JAKARTA TIMUR, DAERAH KHUSUS IBUKOTA JAKARTA 13630","ID_PROV":"31","PROVINSI":"DKI JAKARTA","ID_KABKOT":"31.75","KABKOT":"KOTA ADM. JAKARTA TIMUR","ID_KEC":"31.75.08","KECAMATAN":"MAKASAR","ID_DESA":"31.75.08.1004","DESA":"HALIM PERDANA KUSUMA","LONGITUDE":106.88424,"LATITUDE":-6.24572,"STATUS":"BUKA","TANGGAL PENGUMPULAN":"Q2 2024","TANGGAL UPDATE":"27/07/2025"}}]}