{"type":"FeatureCollection","features":[{"type":"Feature","geometry":{"coordinates":[106.6814,-6.16968],"type":"Point"},"properties":{"NAMA":"STASIUN PORIS","TIPE_1":"TRANSPORTASI","TIPE_2":"STASIUN","TIPE_3":"COMMUTER","TELEPON":"","ALAMAT":"GG. H. MUHAMAD, PORIS GAGA, KEC. BATUCEPER, KOTA TANGERANG, BANTEN 15122","ID_PROV":"36","PROVINSI":"BANTEN","ID_KABKOT":"36.71","KABKOT":"KOTA TANGERANG","ID_KEC":"36.71.03","KECAMATAN":"BATUCEPER","ID_DESA":"36.71.03.1003","DESA":"PORIS GAGA","LONGITUDE":106.6814,"LATITUDE":-6.16968,"STATUS":"BUKA","TANGGAL PENGUMPULAN":"Q2 2024","TANGGAL UPDATE":"27/07/2025"}},{"type":"Feature","geometry":{"coordinates":[106.6814,-6.16968],"type":"Point"},"properties":{"NAMA":"STASIUN PORIS","TIPE_1":"TRANSPORTASI","TIPE_2":"STASIUN","TIPE_3":"KERETA API","TELEPON":"","ALAMAT":"JL. AKSES ST. PORIS, RT.004/RW.003, PORIS GAGA, KEC. BATUCEPER, KOTA TANGERANG, BANTEN 15122","ID_PROV":"36","PROVINSI":"BANTEN","ID_KABKOT":"36.71","KABKOT":"KOTA TANGERANG","ID_KEC":"36.71.03","KECAMATAN":"BATUCEPER","ID_DESA":"36.71.03.1003","DESA":"PORIS GAGA","LONGITUDE":106.6814,"LATITUDE":-6.16968,"STATUS":"BUKA","TANGGAL PENGUMPULAN":"Q2 2024","TANGGAL UPDATE":"27/07/2025"}},{"type":"Feature","geometry":{"coordinates":[106.665,-6.17218],"type":"Point"},"properties":{"NAMA":"STASIUN BATUCEPER","TIPE_1":"TRANSPORTASI","TIPE_2":"STASIUN","TIPE_3":"KERETA API","TELEPON":"","ALAMAT":"PORIS PLAWAD, KEC. CIPONDOH, KOTA TANGERANG, BANTEN","ID_PROV":"36","PROVINSI":"BANTEN","ID_KABKOT":"36.71","KABKOT":"KOTA TANGERANG","ID_KEC":"36.71.05","KECAMATAN":"CIPONDOH","ID_DESA":"36.71.05.1008","DESA":"PORIS PLAWAD","LONGITUDE":106.665,"LATITUDE":-6.17218,"STATUS":"BUKA","TANGGAL PENGUMPULAN":"Q2 2024","TANGGAL UPDATE":"27/07/2025"}},{"type":"Feature","geometry":{"coordinates":[106.665,-6.17218],"type":"Point"},"properties":{"NAMA":"STASIUN BATUCEPER","TIPE_1":"TRANSPORTASI","TIPE_2":"STASIUN","TIPE_3":"COMMUTER","TELEPON":"","ALAMAT":"JL. BENTENG BETAWI, RT.001/RW.006, PORIS PLAWAD, KEC. TANGERANG, KOTA TANGERANG, BANTEN 15141","ID_PROV":"36","PROVINSI":"BANTEN","ID_KABKOT":"36.71","KABKOT":"KOTA TANGERANG","ID_KEC":"36.71.05","KECAMATAN":"CIPONDOH","ID_DESA":"36.71.05.1008","DESA":"PORIS PLAWAD","LONGITUDE":106.665,"LATITUDE":-6.17218,"STATUS":"BUKA","TANGGAL PENGUMPULAN":"Q2 2024","TANGGAL UPDATE":"27/07/2025"}},{"type":"Feature","geometry":{"coordinates":[106.6326,-6.17688],"type":"Point"},"properties":{"NAMA":"STASIUN TANGERANG","TIPE_1":"TRANSPORTASI","TIPE_2":"STASIUN","TIPE_3":"COMMUTER","TELEPON":"","ALAMAT":"STASIUN PINTU TENGAH SUKARASA, KEC, JL. SUKAMANAH II JL. WARNASARI 2 NO.GANG, SUKASARI, KEC. TANGERANG, KOTA TANGERANG, BANTEN 15118","ID_PROV":"36","PROVINSI":"BANTEN","ID_KABKOT":"36.71","KABKOT":"KOTA TANGERANG","ID_KEC":"36.71.01","KECAMATAN":"TANGERANG","ID_DESA":"36.71.01.1001","DESA":"SUKARASA","LONGITUDE":106.6326,"LATITUDE":-6.17688,"STATUS":"BUKA","TANGGAL PENGUMPULAN":"Q2 2024","TANGGAL UPDATE":"27/07/2025"}},{"type":"Feature","geometry":{"coordinates":[106.6326,-6.17688],"type":"Point"},"properties":{"NAMA":"STASIUN TANGERANG","TIPE_1":"TRANSPORTASI","TIPE_2":"STASIUN","TIPE_3":"KERETA API","TELEPON":"","ALAMAT":"JL. KIASNAWI/KOMPLEK PS. MAMBO NO.61, RT.006/RW.003, SUKARASA, TANGERANG, TANGERANG CITY, BANTEN 15111","ID_PROV":"36","PROVINSI":"BANTEN","ID_KABKOT":"36.71","KABKOT":"KOTA TANGERANG","ID_KEC":"36.71.01","KECAMATAN":"TANGERANG","ID_DESA":"36.71.01.1001","DESA":"SUKARASA","LONGITUDE":106.6326,"LATITUDE":-6.17688,"STATUS":"BUKA","TANGGAL PENGUMPULAN":"Q2 2024","TANGGAL UPDATE":"27/07/2025"}}]}