{"type":"FeatureCollection","features":[{"type":"Feature","geometry":{"coordinates":[106.8234,-6.20209],"type":"Point"},"properties":{"NAMA":"STASIUN SUDIRMAN","TIPE_1":"TRANSPORTASI","TIPE_2":"STASIUN","TIPE_3":"COMMUTER","TELEPON":"","ALAMAT":"10, JL. KENDAL NO.24, RW.6, MENTENG, 10310","ID_PROV":"31","PROVINSI":"DKI JAKARTA","ID_KABKOT":"31.71","KABKOT":"KOTA ADM. JAKARTA PUSAT","ID_KEC":"31.71.06","KECAMATAN":"MENTENG","ID_DESA":"31.71.06.1001","DESA":"MENTENG","LONGITUDE":106.8234,"LATITUDE":-6.20209,"STATUS":"BUKA","TANGGAL PENGUMPULAN":"Q2 2024","TANGGAL UPDATE":"27/07/2025"}},{"type":"Feature","geometry":{"coordinates":[106.8368,-6.14508],"type":"Point"},"properties":{"NAMA":"STASIUN RAJAWALI","TIPE_1":"TRANSPORTASI","TIPE_2":"STASIUN","TIPE_3":"COMMUTER","TELEPON":"","ALAMAT":"GN. SAHARI UTARA, KECAMATAN SAWAH BESAR, KOTA JAKARTA PUSAT, DAERAH KHUSUS IBUKOTA JAKARTA","ID_PROV":"31","PROVINSI":"DKI JAKARTA","ID_KABKOT":"31.71","KABKOT":"KOTA ADM. JAKARTA PUSAT","ID_KEC":"31.71.02","KECAMATAN":"SAWAH BESAR","ID_DESA":"31.71.02.1004","DESA":"GUNUNG SAHARI UTARA","LONGITUDE":106.8368,"LATITUDE":-6.14508,"STATUS":"BUKA","TANGGAL PENGUMPULAN":"Q2 2024","TANGGAL UPDATE":"27/07/2025"}},{"type":"Feature","geometry":{"coordinates":[106.8368,-6.14508],"type":"Point"},"properties":{"NAMA":"STASIUN RAJAWALI","TIPE_1":"TRANSPORTASI","TIPE_2":"STASIUN","TIPE_3":"KERETA API","TELEPON":"","ALAMAT":"GN. SAHARI UTARA, KECAMATAN SAWAH BESAR, KOTA JAKARTA PUSAT, DAERAH KHUSUS IBUKOTA JAKARTA","ID_PROV":"31","PROVINSI":"DKI JAKARTA","ID_KABKOT":"31.71","KABKOT":"KOTA ADM. JAKARTA PUSAT","ID_KEC":"31.71.02","KECAMATAN":"SAWAH BESAR","ID_DESA":"31.71.02.1004","DESA":"GUNUNG SAHARI UTARA","LONGITUDE":106.8368,"LATITUDE":-6.14508,"STATUS":"BUKA","TANGGAL PENGUMPULAN":"Q2 2024","TANGGAL UPDATE":"27/07/2025"}},{"type":"Feature","geometry":{"coordinates":[106.8108,-6.1861],"type":"Point"},"properties":{"NAMA":"STASIUN TANAH ABANG","TIPE_1":"TRANSPORTASI","TIPE_2":"STASIUN","TIPE_3":"COMMUTER","TELEPON":"","ALAMAT":"JALAN JATI BARU RAYA, JL. CIDENG TIMUR, KECAMATAN TANAH ABANG, 10250","ID_PROV":"31","PROVINSI":"DKI JAKARTA","ID_KABKOT":"31.71","KABKOT":"KOTA ADM. JAKARTA PUSAT","ID_KEC":"31.71.07","KECAMATAN":"TANAH ABANG","ID_DESA":"31.71.07.1007","DESA":"KAMPUNG BALI","LONGITUDE":106.8108,"LATITUDE":-6.1861,"STATUS":"BUKA","TANGGAL PENGUMPULAN":"Q2 2024","TANGGAL UPDATE":"27/07/2025"}},{"type":"Feature","geometry":{"coordinates":[106.8108,-6.1861],"type":"Point"},"properties":{"NAMA":"STASIUN TANAH ABANG","TIPE_1":"TRANSPORTASI","TIPE_2":"STASIUN","TIPE_3":"KERETA API","TELEPON":"","ALAMAT":"JALAN JATI BARU RAYA, JL. CIDENG TIMUR, KECAMATAN TANAH ABANG, 10250","ID_PROV":"31","PROVINSI":"DKI JAKARTA","ID_KABKOT":"31.71","KABKOT":"KOTA ADM. JAKARTA PUSAT","ID_KEC":"31.71.07","KECAMATAN":"TANAH ABANG","ID_DESA":"31.71.07.1007","DESA":"KAMPUNG BALI","LONGITUDE":106.8108,"LATITUDE":-6.1861,"STATUS":"BUKA","TANGGAL PENGUMPULAN":"Q2 2024","TANGGAL UPDATE":"27/07/2025"}},{"type":"Feature","geometry":{"coordinates":[106.8214953,-6.2088638],"type":"Point"},"properties":{"NAMA":"STASIUN SETIABUDI ASTRA","TIPE_1":"TRANSPORTASI","TIPE_2":"STASIUN","TIPE_3":"MRT","TELEPON":"","ALAMAT":"JALAN JEND. SUDIRMAN NO.5, RW.1, KUNINGAN, SELONG, KEC. KBY. BARU, KOTA JAKARTA SELATAN, DAERAH KHUSUS IBUKOTA JAKARTA 10270","ID_PROV":"31","PROVINSI":"DKI JAKARTA","ID_KABKOT":"31.71","KABKOT":"KOTA ADM. JAKARTA PUSAT","ID_KEC":"31.71.07","KECAMATAN":"TANAH ABANG","ID_DESA":"31.71.07.1003","DESA":"KARET TENGSIN","LONGITUDE":106.8214953,"LATITUDE":-6.2088638,"STATUS":"BUKA","TANGGAL PENGUMPULAN":"Q2 2024","TANGGAL UPDATE":"27/07/2025"}},{"type":"Feature","geometry":{"coordinates":[106.81795,-6.215],"type":"Point"},"properties":{"NAMA":"STASIUN BENDUNGAN HILIR","TIPE_1":"TRANSPORTASI","TIPE_2":"STASIUN","TIPE_3":"MRT","TELEPON":"","ALAMAT":"JALAN JENDERAL SUDIRMAN BENDUNGAN HILIR,TANAH ABANG KARET SEMANGGI,SETIABUDI JAKARTA PUSAT 10210","ID_PROV":"31","PROVINSI":"DKI JAKARTA","ID_KABKOT":"31.71","KABKOT":"KOTA ADM. JAKARTA PUSAT","ID_KEC":"31.71.07","KECAMATAN":"TANAH ABANG","ID_DESA":"31.71.07.1003","DESA":"KARET TENGSIN","LONGITUDE":106.81795,"LATITUDE":-6.215,"STATUS":"BUKA","TANGGAL PENGUMPULAN":"Q2 2024","TANGGAL UPDATE":"27/07/2025"}},{"type":"Feature","geometry":{"coordinates":[106.8229554,-6.1918813],"type":"Point"},"properties":{"NAMA":"STASIUN BUNDARAN HI","TIPE_1":"TRANSPORTASI","TIPE_2":"STASIUN","TIPE_3":"MRT","TELEPON":"","ALAMAT":"JALAN MOHAMMAD HUSNI THAMRIN KAV. 17-136,GONDANGDIA,MENTENG JAKARTA PUSAT,JAKARTA, 10350","ID_PROV":"31","PROVINSI":"DKI JAKARTA","ID_KABKOT":"31.71","KABKOT":"KOTA ADM. JAKARTA PUSAT","ID_KEC":"31.71.06","KECAMATAN":"MENTENG","ID_DESA":"31.71.06.1004","DESA":"GONDANGDIA","LONGITUDE":106.8229554,"LATITUDE":-6.1918813,"STATUS":"BUKA","TANGGAL PENGUMPULAN":"Q2 2024","TANGGAL UPDATE":"27/07/2025"}},{"type":"Feature","geometry":{"coordinates":[106.8227961,-6.2007972],"type":"Point"},"properties":{"NAMA":"STASIUN DUKUH ATAS BNI","TIPE_1":"TRANSPORTASI","TIPE_2":"STASIUN","TIPE_3":"MRT","TELEPON":"","ALAMAT":"JALAN TANJUNG KARANG, KEBON MELATI,TANAH ABANG JAKARTA PUSAT, JAKARTA, 10230 INDONESIA","ID_PROV":"31","PROVINSI":"DKI JAKARTA","ID_KABKOT":"31.71","KABKOT":"KOTA ADM. JAKARTA PUSAT","ID_KEC":"31.71.07","KECAMATAN":"TANAH ABANG","ID_DESA":"31.71.07.1005","DESA":"KEBON MELATI","LONGITUDE":106.8227961,"LATITUDE":-6.2007972,"STATUS":"BUKA","TANGGAL PENGUMPULAN":"Q2 2024","TANGGAL UPDATE":"27/07/2025"}},{"type":"Feature","geometry":{"coordinates":[106.8085887,-6.2223613],"type":"Point"},"properties":{"NAMA":"STASIUN ISTORA MANDIRI","TIPE_1":"TRANSPORTASI","TIPE_2":"STASIUN","TIPE_3":"MRT","TELEPON":"","ALAMAT":"JL. JENDRAL SUDIRMAN NO. 200, GELORA,TANAH ABANG,CENTRAL JAKARTA","ID_PROV":"31","PROVINSI":"DKI JAKARTA","ID_KABKOT":"31.71","KABKOT":"KOTA ADM. JAKARTA PUSAT","ID_KEC":"31.71.07","KECAMATAN":"TANAH ABANG","ID_DESA":"31.71.07.1001","DESA":"GELORA","LONGITUDE":106.8085887,"LATITUDE":-6.2223613,"STATUS":"BUKA","TANGGAL PENGUMPULAN":"Q2 2024","TANGGAL UPDATE":"27/07/2025"}},{"type":"Feature","geometry":{"coordinates":[106.827,-6.14978],"type":"Point"},"properties":{"NAMA":"STASIUN MANGGA BESAR","TIPE_1":"TRANSPORTASI","TIPE_2":"STASIUN","TIPE_3":"COMMUTER","TELEPON":"","ALAMAT":"JL. KARANG ANYAR, KARANG ANYAR, KECAMATAN SAWAH BESAR, KOTA JAKARTA PUSAT, DAERAH KHUSUS IBUKOTA JAKARTA","ID_PROV":"31","PROVINSI":"DKI JAKARTA","ID_KABKOT":"31.71","KABKOT":"KOTA ADM. JAKARTA PUSAT","ID_KEC":"31.71.02","KECAMATAN":"SAWAH BESAR","ID_DESA":"31.71.02.1002","DESA":"KARANG ANYAR","LONGITUDE":106.827,"LATITUDE":-6.14978,"STATUS":"BUKA","TANGGAL PENGUMPULAN":"Q2 2024","TANGGAL UPDATE":"27/07/2025"}},{"type":"Feature","geometry":{"coordinates":[106.851,-6.18628],"type":"Point"},"properties":{"NAMA":"STASIUN SENTIONG","TIPE_1":"TRANSPORTASI","TIPE_2":"STASIUN","TIPE_3":"COMMUTER","TELEPON":"","ALAMAT":"JL. KRAMAT PULO DALAM 1, KRAMAT, KEC. SENEN, KOTA JAKARTA PUSAT, DAERAH KHUSUS IBUKOTA JAKARTA 10450","ID_PROV":"31","PROVINSI":"DKI JAKARTA","ID_KABKOT":"31.71","KABKOT":"KOTA ADM. JAKARTA PUSAT","ID_KEC":"31.71.08","KECAMATAN":"JOHAR BARU","ID_DESA":"31.71.08.1004","DESA":"TANAH TINGGI","LONGITUDE":106.851,"LATITUDE":-6.18628,"STATUS":"BUKA","TANGGAL PENGUMPULAN":"Q2 2024","TANGGAL UPDATE":"27/07/2025"}},{"type":"Feature","geometry":{"coordinates":[106.8442,-6.1745],"type":"Point"},"properties":{"NAMA":"STASIUN PASAR SENEN","TIPE_1":"TRANSPORTASI","TIPE_2":"STASIUN","TIPE_3":"COMMUTER","TELEPON":"","ALAMAT":"JL. PASAR SENEN NO.14, SENEN, KEC. SENEN, KOTA JAKARTA PUSAT, DAERAH KHUSUS IBUKOTA JAKARTA 10410","ID_PROV":"31","PROVINSI":"DKI JAKARTA","ID_KABKOT":"31.71","KABKOT":"KOTA ADM. JAKARTA PUSAT","ID_KEC":"31.71.04","KECAMATAN":"SENEN","ID_DESA":"31.71.04.1001","DESA":"SENEN","LONGITUDE":106.8442,"LATITUDE":-6.1745,"STATUS":"BUKA","TANGGAL PENGUMPULAN":"Q2 2024","TANGGAL UPDATE":"27/07/2025"}},{"type":"Feature","geometry":{"coordinates":[106.8566,-6.19391],"type":"Point"},"properties":{"NAMA":"STASIUN KRAMAT","TIPE_1":"TRANSPORTASI","TIPE_2":"STASIUN","TIPE_3":"COMMUTER","TELEPON":"","ALAMAT":"JL. PERCETAKAN NEGARA NO.23 23, RT.23/RW.7, RAWASARI, KEC. JOHAR BARU, KOTA JAKARTA PUSAT, DAERAH KHUSUS IBUKOTA JAKARTA 10560","ID_PROV":"31","PROVINSI":"DKI JAKARTA","ID_KABKOT":"31.71","KABKOT":"KOTA ADM. JAKARTA PUSAT","ID_KEC":"31.71.04","KECAMATAN":"SENEN","ID_DESA":"31.71.04.1003","DESA":"PASEBAN","LONGITUDE":106.8566,"LATITUDE":-6.19391,"STATUS":"BUKA","TANGGAL PENGUMPULAN":"Q2 2024","TANGGAL UPDATE":"27/07/2025"}},{"type":"Feature","geometry":{"coordinates":[106.816,-6.20081],"type":"Point"},"properties":{"NAMA":"STASIUN KARET","TIPE_1":"TRANSPORTASI","TIPE_2":"STASIUN","TIPE_3":"COMMUTER","TELEPON":"","ALAMAT":"KB. MELATI, KECAMATAN TANAH ABANG, KOTA JAKARTA PUSAT, DAERAH KHUSUS IBUKOTA JAKARTA","ID_PROV":"31","PROVINSI":"DKI JAKARTA","ID_KABKOT":"31.71","KABKOT":"KOTA ADM. JAKARTA PUSAT","ID_KEC":"31.71.07","KECAMATAN":"TANAH ABANG","ID_DESA":"31.71.07.1005","DESA":"KEBON MELATI","LONGITUDE":106.816,"LATITUDE":-6.20081,"STATUS":"BUKA","TANGGAL PENGUMPULAN":"Q2 2024","TANGGAL UPDATE":"27/07/2025"}},{"type":"Feature","geometry":{"coordinates":[106.816,-6.20081],"type":"Point"},"properties":{"NAMA":"STASIUN KARET","TIPE_1":"TRANSPORTASI","TIPE_2":"STASIUN","TIPE_3":"KERETA API","TELEPON":"","ALAMAT":"KB. MELATI, KECAMATAN TANAH ABANG, KOTA JAKARTA PUSAT, DAERAH KHUSUS IBUKOTA JAKARTA","ID_PROV":"31","PROVINSI":"DKI JAKARTA","ID_KABKOT":"31.71","KABKOT":"KOTA ADM. JAKARTA PUSAT","ID_KEC":"31.71.07","KECAMATAN":"TANAH ABANG","ID_DESA":"31.71.07.1005","DESA":"KEBON MELATI","LONGITUDE":106.816,"LATITUDE":-6.20081,"STATUS":"BUKA","TANGGAL PENGUMPULAN":"Q2 2024","TANGGAL UPDATE":"27/07/2025"}},{"type":"Feature","geometry":{"coordinates":[106.8328,-6.1861],"type":"Point"},"properties":{"NAMA":"STASIUN GONDANGDIA","TIPE_1":"TRANSPORTASI","TIPE_2":"STASIUN","TIPE_3":"COMMUTER","TELEPON":"21121","ALAMAT":"KB. SIRIH, KEC. MENTENG, KOTA JAKARTA PUSAT, DAERAH KHUSUS IBUKOTA JAKARTA 10340","ID_PROV":"31","PROVINSI":"DKI JAKARTA","ID_KABKOT":"31.71","KABKOT":"KOTA ADM. JAKARTA PUSAT","ID_KEC":"31.71.06","KECAMATAN":"MENTENG","ID_DESA":"31.71.06.1005","DESA":"KEBON SIRIH","LONGITUDE":106.8328,"LATITUDE":-6.1861,"STATUS":"BUKA","TANGGAL PENGUMPULAN":"Q2 2024","TANGGAL UPDATE":"27/07/2025"}},{"type":"Feature","geometry":{"coordinates":[106.8414,-6.16187],"type":"Point"},"properties":{"NAMA":"STASIUN KEMAYORAN","TIPE_1":"TRANSPORTASI","TIPE_2":"STASIUN","TIPE_3":"COMMUTER","TELEPON":"","ALAMAT":"KEMAYORAN, RT.15/RW.1, SOUTH GUNUNG SAHARI, KEMAYORAN, CENTRAL JAKARTA CITY, JAKARTA 10610","ID_PROV":"31","PROVINSI":"DKI JAKARTA","ID_KABKOT":"31.71","KABKOT":"KOTA ADM. JAKARTA PUSAT","ID_KEC":"31.71.03","KECAMATAN":"KEMAYORAN","ID_DESA":"31.71.03.1005","DESA":"GUNUNG SAHARI SELATAN","LONGITUDE":106.8414,"LATITUDE":-6.16187,"STATUS":"BUKA","TANGGAL PENGUMPULAN":"Q2 2024","TANGGAL UPDATE":"27/07/2025"}},{"type":"Feature","geometry":{"coordinates":[106.8566,-6.19391],"type":"Point"},"properties":{"NAMA":"STASIUN KRAMAT","TIPE_1":"TRANSPORTASI","TIPE_2":"STASIUN","TIPE_3":"KERETA API","TELEPON":"","ALAMAT":"KRAMAT, DARI JALAN PRAMUKA JAYA SARI, JL. PENEGAK JL. GUGUS DEPAN GG. II, PASEBAN, KEC. SENEN, DAERAH KHUSUS IBUKOTA JAKARTA 10440","ID_PROV":"31","PROVINSI":"DKI JAKARTA","ID_KABKOT":"31.71","KABKOT":"KOTA ADM. JAKARTA PUSAT","ID_KEC":"31.71.04","KECAMATAN":"SENEN","ID_DESA":"31.71.04.1003","DESA":"PASEBAN","LONGITUDE":106.8566,"LATITUDE":-6.19391,"STATUS":"BUKA","TANGGAL PENGUMPULAN":"Q2 2024","TANGGAL UPDATE":"27/07/2025"}},{"type":"Feature","geometry":{"coordinates":[106.8412,-6.19849],"type":"Point"},"properties":{"NAMA":"STASIUN CIKINI","TIPE_1":"TRANSPORTASI","TIPE_2":"STASIUN","TIPE_3":"COMMUTER","TELEPON":"","ALAMAT":"NO.5, JL. PEGANGSAAN TIMUR NO.RT.4, PEGANGSAAN, KEC. MENTENG, DAERAH KHUSUS IBUKOTA JAKARTA 10310","ID_PROV":"31","PROVINSI":"DKI JAKARTA","ID_KABKOT":"31.71","KABKOT":"KOTA ADM. JAKARTA PUSAT","ID_KEC":"31.71.06","KECAMATAN":"MENTENG","ID_DESA":"31.71.06.1001","DESA":"MENTENG","LONGITUDE":106.8412,"LATITUDE":-6.19849,"STATUS":"BUKA","TANGGAL PENGUMPULAN":"Q2 2024","TANGGAL UPDATE":"27/07/2025"}},{"type":"Feature","geometry":{"coordinates":[106.7974,-6.20758],"type":"Point"},"properties":{"NAMA":"STASIUN PALMERAH","TIPE_1":"TRANSPORTASI","TIPE_2":"STASIUN","TIPE_3":"KERETA API","TELEPON":"","ALAMAT":"PALMERAH, GELORA, KECAMATAN TANAH ABANG, KOTA JAKARTA PUSAT, DAERAH KHUSUS IBUKOTA JAKARTA","ID_PROV":"31","PROVINSI":"DKI JAKARTA","ID_KABKOT":"31.71","KABKOT":"KOTA ADM. JAKARTA PUSAT","ID_KEC":"31.71.07","KECAMATAN":"TANAH ABANG","ID_DESA":"31.71.07.1001","DESA":"GELORA","LONGITUDE":106.7974,"LATITUDE":-6.20758,"STATUS":"BUKA","TANGGAL PENGUMPULAN":"Q2 2024","TANGGAL UPDATE":"27/07/2025"}},{"type":"Feature","geometry":{"coordinates":[106.8394,-6.20587],"type":"Point"},"properties":{"NAMA":"STASIUN MAMPANG","TIPE_1":"TRANSPORTASI","TIPE_2":"STASIUN","TIPE_3":"KERETA API","TELEPON":"","ALAMAT":"JL. LATUHARHARY, MENTENG, KEC. MENTENG, KOTA JAKARTA PUSAT, DAERAH KHUSUS IBUKOTA JAKARTA 10310","ID_PROV":"31","PROVINSI":"DKI JAKARTA","ID_KABKOT":"31.71","KABKOT":"KOTA ADM. JAKARTA PUSAT","ID_KEC":"31.71.06","KECAMATAN":"MENTENG","ID_DESA":"31.71.06.1001","DESA":"MENTENG","LONGITUDE":106.8394,"LATITUDE":-6.20587,"STATUS":"BUKA","TANGGAL PENGUMPULAN":"Q2 2024","TANGGAL UPDATE":"27/07/2025"}},{"type":"Feature","geometry":{"coordinates":[106.8304,-6.16656],"type":"Point"},"properties":{"NAMA":"STASIUN JUANDA","TIPE_1":"TRANSPORTASI","TIPE_2":"STASIUN","TIPE_3":"COMMUTER","TELEPON":"","ALAMAT":"RAYA, 10710, JL. IR H. JUANDA I B NO.4, KB. KLP., KECAMATAN GAMBIR, KOTA JAKARTA PUSAT, 10120","ID_PROV":"31","PROVINSI":"DKI JAKARTA","ID_KABKOT":"31.71","KABKOT":"KOTA ADM. JAKARTA PUSAT","ID_KEC":"31.71.01","KECAMATAN":"GAMBIR","ID_DESA":"31.71.01.1005","DESA":"KEBON KELAPA","LONGITUDE":106.8304,"LATITUDE":-6.16656,"STATUS":"BUKA","TANGGAL PENGUMPULAN":"Q2 2024","TANGGAL UPDATE":"27/07/2025"}},{"type":"Feature","geometry":{"coordinates":[106.7974,-6.20758],"type":"Point"},"properties":{"NAMA":"STASIUN PALMERAH","TIPE_1":"TRANSPORTASI","TIPE_2":"STASIUN","TIPE_3":"COMMUTER","TELEPON":"","ALAMAT":"RT.1/RW.3, GELORA, KECAMATAN TANAH ABANG, KOTA JAKARTA PUSAT, DAERAH KHUSUS IBUKOTA JAKARTA 10270","ID_PROV":"31","PROVINSI":"DKI JAKARTA","ID_KABKOT":"31.71","KABKOT":"KOTA ADM. JAKARTA PUSAT","ID_KEC":"31.71.07","KECAMATAN":"TANAH ABANG","ID_DESA":"31.71.07.1001","DESA":"GELORA","LONGITUDE":106.7974,"LATITUDE":-6.20758,"STATUS":"BUKA","TANGGAL PENGUMPULAN":"Q2 2024","TANGGAL UPDATE":"27/07/2025"}},{"type":"Feature","geometry":{"coordinates":[106.8412,-6.19849],"type":"Point"},"properties":{"NAMA":"STASIUN CIKINI","TIPE_1":"TRANSPORTASI","TIPE_2":"STASIUN","TIPE_3":"KERETA API","TELEPON":"","ALAMAT":"NO.5, JL. PEGANGSAAN TIMUR NO.RT.4, PEGANGSAAN, KEC. MENTENG, DAERAH KHUSUS IBUKOTA JAKARTA 10310","ID_PROV":"31","PROVINSI":"DKI JAKARTA","ID_KABKOT":"31.71","KABKOT":"KOTA ADM. JAKARTA PUSAT","ID_KEC":"31.71.06","KECAMATAN":"MENTENG","ID_DESA":"31.71.06.1001","DESA":"MENTENG","LONGITUDE":106.8412,"LATITUDE":-6.19849,"STATUS":"BUKA","TANGGAL PENGUMPULAN":"Q2 2024","TANGGAL UPDATE":"27/07/2025"}},{"type":"Feature","geometry":{"coordinates":[106.8308,-6.1767],"type":"Point"},"properties":{"NAMA":"STASIUN GAMBIR","TIPE_1":"TRANSPORTASI","TIPE_2":"STASIUN","TIPE_3":"KERETA API","TELEPON":"","ALAMAT":"JL. MEDAN MERDEKA TIM. NO.1, GAMBIR, KECAMATAN GAMBIR, KOTA JAKARTA PUSAT, DAERAH KHUSUS IBUKOTA JAKARTA 10110","ID_PROV":"31","PROVINSI":"DKI JAKARTA","ID_KABKOT":"31.71","KABKOT":"KOTA ADM. JAKARTA PUSAT","ID_KEC":"31.71.01","KECAMATAN":"GAMBIR","ID_DESA":"31.71.01.1001","DESA":"GAMBIR","LONGITUDE":106.8308,"LATITUDE":-6.1767,"STATUS":"BUKA","TANGGAL PENGUMPULAN":"Q2 2024","TANGGAL UPDATE":"27/07/2025"}},{"type":"Feature","geometry":{"coordinates":[106.8328,-6.1861],"type":"Point"},"properties":{"NAMA":"STASIUN GONDANGDIA","TIPE_1":"TRANSPORTASI","TIPE_2":"STASIUN","TIPE_3":"KERETA API","TELEPON":"","ALAMAT":"KB. SIRIH, KEC. MENTENG, KOTA JAKARTA PUSAT, DAERAH KHUSUS IBUKOTA JAKARTA 10340","ID_PROV":"31","PROVINSI":"DKI JAKARTA","ID_KABKOT":"31.71","KABKOT":"KOTA ADM. JAKARTA PUSAT","ID_KEC":"31.71.06","KECAMATAN":"MENTENG","ID_DESA":"31.71.06.1005","DESA":"KEBON SIRIH","LONGITUDE":106.8328,"LATITUDE":-6.1861,"STATUS":"BUKA","TANGGAL PENGUMPULAN":"Q2 2024","TANGGAL UPDATE":"27/07/2025"}},{"type":"Feature","geometry":{"coordinates":[106.8304,-6.16656],"type":"Point"},"properties":{"NAMA":"STASIUN JUANDA","TIPE_1":"TRANSPORTASI","TIPE_2":"STASIUN","TIPE_3":"KERETA API","TELEPON":"","ALAMAT":"RAYA, 10710, JL. IR H. JUANDA I B NO.4, KB. KLP., KECAMATAN GAMBIR, KOTA JAKARTA PUSAT, 10120","ID_PROV":"31","PROVINSI":"DKI JAKARTA","ID_KABKOT":"31.71","KABKOT":"KOTA ADM. JAKARTA PUSAT","ID_KEC":"31.71.01","KECAMATAN":"GAMBIR","ID_DESA":"31.71.01.1005","DESA":"KEBON KELAPA","LONGITUDE":106.8304,"LATITUDE":-6.16656,"STATUS":"BUKA","TANGGAL PENGUMPULAN":"Q2 2024","TANGGAL UPDATE":"27/07/2025"}},{"type":"Feature","geometry":{"coordinates":[106.8414,-6.16187],"type":"Point"},"properties":{"NAMA":"STASIUN KEMAYORAN","TIPE_1":"TRANSPORTASI","TIPE_2":"STASIUN","TIPE_3":"KERETA API","TELEPON":"","ALAMAT":"KEMAYORAN, RT.15/RW.1, SOUTH GUNUNG SAHARI, KEMAYORAN, CENTRAL JAKARTA CITY, JAKARTA 10610","ID_PROV":"31","PROVINSI":"DKI JAKARTA","ID_KABKOT":"31.71","KABKOT":"KOTA ADM. JAKARTA PUSAT","ID_KEC":"31.71.03","KECAMATAN":"KEMAYORAN","ID_DESA":"31.71.03.1005","DESA":"GUNUNG SAHARI SELATAN","LONGITUDE":106.8414,"LATITUDE":-6.16187,"STATUS":"BUKA","TANGGAL PENGUMPULAN":"Q2 2024","TANGGAL UPDATE":"27/07/2025"}},{"type":"Feature","geometry":{"coordinates":[106.827,-6.14978],"type":"Point"},"properties":{"NAMA":"STASIUN MANGGA BESAR","TIPE_1":"TRANSPORTASI","TIPE_2":"STASIUN","TIPE_3":"KERETA API","TELEPON":"","ALAMAT":"JL. RAYA MANGGA BESAR NO.80C, RT.13/RW.1, TAMAN SARI, KEC. TAMAN SARI, KOTA JAKARTA BARAT, DAERAH KHUSUS IBUKOTA JAKARTA 11150","ID_PROV":"31","PROVINSI":"DKI JAKARTA","ID_KABKOT":"31.71","KABKOT":"KOTA ADM. JAKARTA PUSAT","ID_KEC":"31.71.02","KECAMATAN":"SAWAH BESAR","ID_DESA":"31.71.02.1002","DESA":"KARANG ANYAR","LONGITUDE":106.827,"LATITUDE":-6.14978,"STATUS":"BUKA","TANGGAL PENGUMPULAN":"Q2 2024","TANGGAL UPDATE":"27/07/2025"}},{"type":"Feature","geometry":{"coordinates":[106.8442,-6.1745],"type":"Point"},"properties":{"NAMA":"STASIUN PASAR SENEN","TIPE_1":"TRANSPORTASI","TIPE_2":"STASIUN","TIPE_3":"KERETA API","TELEPON":"","ALAMAT":"JL. PASAR SENEN NO.14, SENEN, KEC. SENEN, KOTA JAKARTA PUSAT, DAERAH KHUSUS IBUKOTA JAKARTA 10410","ID_PROV":"31","PROVINSI":"DKI JAKARTA","ID_KABKOT":"31.71","KABKOT":"KOTA ADM. JAKARTA PUSAT","ID_KEC":"31.71.04","KECAMATAN":"SENEN","ID_DESA":"31.71.04.1001","DESA":"SENEN","LONGITUDE":106.8442,"LATITUDE":-6.1745,"STATUS":"BUKA","TANGGAL PENGUMPULAN":"Q2 2024","TANGGAL UPDATE":"27/07/2025"}},{"type":"Feature","geometry":{"coordinates":[106.8234,-6.20209],"type":"Point"},"properties":{"NAMA":"STASIUN SUDIRMAN","TIPE_1":"TRANSPORTASI","TIPE_2":"STASIUN","TIPE_3":"KERETA API","TELEPON":"","ALAMAT":"10, JL. KENDAL NO.24, RW.6, MENTENG, 10310","ID_PROV":"31","PROVINSI":"DKI JAKARTA","ID_KABKOT":"31.71","KABKOT":"KOTA ADM. JAKARTA PUSAT","ID_KEC":"31.71.06","KECAMATAN":"MENTENG","ID_DESA":"31.71.06.1001","DESA":"MENTENG","LONGITUDE":106.8234,"LATITUDE":-6.20209,"STATUS":"BUKA","TANGGAL PENGUMPULAN":"Q2 2024","TANGGAL UPDATE":"27/07/2025"}},{"type":"Feature","geometry":{"coordinates":[106.851,-6.18628],"type":"Point"},"properties":{"NAMA":"STASIUN SENTIONG","TIPE_1":"TRANSPORTASI","TIPE_2":"STASIUN","TIPE_3":"KERETA API","TELEPON":"","ALAMAT":"TANAH TINGGI, KEC. JOHAR BARU, KOTA JAKARTA PUSAT, DAERAH KHUSUS IBUKOTA JAKARTA","ID_PROV":"31","PROVINSI":"DKI JAKARTA","ID_KABKOT":"31.71","KABKOT":"KOTA ADM. JAKARTA PUSAT","ID_KEC":"31.71.08","KECAMATAN":"JOHAR BARU","ID_DESA":"31.71.08.1004","DESA":"TANAH TINGGI","LONGITUDE":106.851,"LATITUDE":-6.18628,"STATUS":"BUKA","TANGGAL PENGUMPULAN":"Q2 2024","TANGGAL UPDATE":"27/07/2025"}}]}