{"type":"FeatureCollection","features":[{"type":"Feature","geometry":{"coordinates":[106.619,-6.32959],"type":"Point"},"properties":{"NAMA":"STASIUN CICAYUR","TIPE_1":"TRANSPORTASI","TIPE_2":"STASIUN","TIPE_3":"COMMUTER","TELEPON":"","ALAMAT":"CICAYUR, CISAUK, KEC. CISAUK, KABUPATEN TANGERANG, BANTEN 15341","ID_PROV":"36","PROVINSI":"BANTEN","ID_KABKOT":"36.03","KABKOT":"TANGERANG","ID_KEC":"36.03.23","KECAMATAN":"CISAUK","ID_DESA":"36.03.23.1001","DESA":"CISAUK","LONGITUDE":106.619,"LATITUDE":-6.32959,"STATUS":"BUKA","TANGGAL PENGUMPULAN":"Q2 2024","TANGGAL UPDATE":"27/07/2025"}},{"type":"Feature","geometry":{"coordinates":[106.619,-6.32959],"type":"Point"},"properties":{"NAMA":"STASIUN CICAYUR","TIPE_1":"TRANSPORTASI","TIPE_2":"STASIUN","TIPE_3":"KERETA API","TELEPON":"","ALAMAT":"CICAYUR, CISAUK, KEC. CISAUK, KABUPATEN TANGERANG, BANTEN 15341","ID_PROV":"36","PROVINSI":"BANTEN","ID_KABKOT":"36.03","KABKOT":"TANGERANG","ID_KEC":"36.03.23","KECAMATAN":"CISAUK","ID_DESA":"36.03.23.1001","DESA":"CISAUK","LONGITUDE":106.619,"LATITUDE":-6.32959,"STATUS":"BUKA","TANGGAL PENGUMPULAN":"Q2 2024","TANGGAL UPDATE":"27/07/2025"}},{"type":"Feature","geometry":{"coordinates":[106.4344,-6.32831],"type":"Point"},"properties":{"NAMA":"STASIUN TIGARAKSA","TIPE_1":"TRANSPORTASI","TIPE_2":"STASIUN","TIPE_3":"COMMUTER","TELEPON":"","ALAMAT":"CIKASUNGKA, KEC. SOLEAR, KABUPATEN TANGERANG, BANTEN 15730","ID_PROV":"36","PROVINSI":"BANTEN","ID_KABKOT":"36.03","KABKOT":"TANGERANG","ID_KEC":"36.03.31","KECAMATAN":"SOLEAR","ID_DESA":"36.03.31.2003","DESA":"CIKASUNGKA","LONGITUDE":106.4344,"LATITUDE":-6.32831,"STATUS":"BUKA","TANGGAL PENGUMPULAN":"Q2 2024","TANGGAL UPDATE":"27/07/2025"}},{"type":"Feature","geometry":{"coordinates":[106.4118,-6.33557],"type":"Point"},"properties":{"NAMA":"STASIUN CIKOYA","TIPE_1":"TRANSPORTASI","TIPE_2":"STASIUN","TIPE_3":"KERETA API","TELEPON":"","ALAMAT":"CIKASUNGKA, SOLEAR, BANTEN, INDONESIA|CIKASUNGKA, SOLEAR, BANTEN","ID_PROV":"36","PROVINSI":"BANTEN","ID_KABKOT":"36.03","KABKOT":"TANGERANG","ID_KEC":"36.03.31","KECAMATAN":"SOLEAR","ID_DESA":"36.03.31.2003","DESA":"CIKASUNGKA","LONGITUDE":106.4118,"LATITUDE":-6.33557,"STATUS":"BUKA","TANGGAL PENGUMPULAN":"Q2 2024","TANGGAL UPDATE":"27/07/2025"}},{"type":"Feature","geometry":{"coordinates":[106.4924,-6.33789],"type":"Point"},"properties":{"NAMA":"STASIUN DARU","TIPE_1":"TRANSPORTASI","TIPE_2":"STASIUN","TIPE_3":"COMMUTER","TELEPON":"","ALAMAT":"DARU, KEC. JAMBE, KABUPATEN TANGERANG, BANTEN","ID_PROV":"36","PROVINSI":"BANTEN","ID_KABKOT":"36.03","KABKOT":"TANGERANG","ID_KEC":"36.03.04","KECAMATAN":"JAMBE","ID_DESA":"36.03.04.2005","DESA":"DARU","LONGITUDE":106.4924,"LATITUDE":-6.33789,"STATUS":"BUKA","TANGGAL PENGUMPULAN":"Q2 2024","TANGGAL UPDATE":"27/07/2025"}},{"type":"Feature","geometry":{"coordinates":[106.4924,-6.33789],"type":"Point"},"properties":{"NAMA":"STASIUN DARU","TIPE_1":"TRANSPORTASI","TIPE_2":"STASIUN","TIPE_3":"KERETA API","TELEPON":"","ALAMAT":"DARU, KEC. JAMBE, KABUPATEN TANGERANG, BANTEN","ID_PROV":"36","PROVINSI":"BANTEN","ID_KABKOT":"36.03","KABKOT":"TANGERANG","ID_KEC":"36.03.04","KECAMATAN":"JAMBE","ID_DESA":"36.03.04.2005","DESA":"DARU","LONGITUDE":106.4924,"LATITUDE":-6.33789,"STATUS":"BUKA","TANGGAL PENGUMPULAN":"Q2 2024","TANGGAL UPDATE":"27/07/2025"}},{"type":"Feature","geometry":{"coordinates":[106.6412,-6.32471],"type":"Point"},"properties":{"NAMA":"STASIUN CISAUK","TIPE_1":"TRANSPORTASI","TIPE_2":"STASIUN","TIPE_3":"COMMUTER","TELEPON":"","ALAMAT":"JL. RAYA CISAUK LAPAN, SAMPORA, KEC. CISAUK, KABUPATEN TANGERANG, BANTEN","ID_PROV":"36","PROVINSI":"BANTEN","ID_KABKOT":"36.03","KABKOT":"TANGERANG","ID_KEC":"36.03.23","KECAMATAN":"CISAUK","ID_DESA":"36.03.23.2011","DESA":"CIBOGO","LONGITUDE":106.6412,"LATITUDE":-6.32471,"STATUS":"BUKA","TANGGAL PENGUMPULAN":"Q2 2024","TANGGAL UPDATE":"27/07/2025"}},{"type":"Feature","geometry":{"coordinates":[106.4118,-6.33557],"type":"Point"},"properties":{"NAMA":"STASIUN CIKOYA","TIPE_1":"TRANSPORTASI","TIPE_2":"STASIUN","TIPE_3":"COMMUTER","TELEPON":"","ALAMAT":"KAB. TANGERANG, BANTEN","ID_PROV":"36","PROVINSI":"BANTEN","ID_KABKOT":"36.03","KABKOT":"TANGERANG","ID_KEC":"36.03.31","KECAMATAN":"SOLEAR","ID_DESA":"36.03.31.2003","DESA":"CIKASUNGKA","LONGITUDE":106.4118,"LATITUDE":-6.33557,"STATUS":"BUKA","TANGGAL PENGUMPULAN":"Q2 2024","TANGGAL UPDATE":"27/07/2025"}},{"type":"Feature","geometry":{"coordinates":[106.6412,-6.32471],"type":"Point"},"properties":{"NAMA":"STASIUN CISAUK","TIPE_1":"TRANSPORTASI","TIPE_2":"STASIUN","TIPE_3":"KERETA API","TELEPON":"","ALAMAT":"JL. RAYA CISAUK LAPAN, SAMPORA, KEC. CISAUK, KABUPATEN TANGERANG, BANTEN","ID_PROV":"36","PROVINSI":"BANTEN","ID_KABKOT":"36.03","KABKOT":"TANGERANG","ID_KEC":"36.03.23","KECAMATAN":"CISAUK","ID_DESA":"36.03.23.2011","DESA":"CIBOGO","LONGITUDE":106.6412,"LATITUDE":-6.32471,"STATUS":"BUKA","TANGGAL PENGUMPULAN":"Q2 2024","TANGGAL UPDATE":"27/07/2025"}},{"type":"Feature","geometry":{"coordinates":[106.4344,-6.32831],"type":"Point"},"properties":{"NAMA":"STASIUN TIGARAKSA","TIPE_1":"TRANSPORTASI","TIPE_2":"STASIUN","TIPE_3":"KERETA API","TELEPON":"","ALAMAT":"CIKASUNGKA, KEC. SOLEAR, KABUPATEN TANGERANG, BANTEN 15730","ID_PROV":"36","PROVINSI":"BANTEN","ID_KABKOT":"36.03","KABKOT":"TANGERANG","ID_KEC":"36.03.31","KECAMATAN":"SOLEAR","ID_DESA":"36.03.31.2003","DESA":"CIKASUNGKA","LONGITUDE":106.4344,"LATITUDE":-6.32831,"STATUS":"BUKA","TANGGAL PENGUMPULAN":"Q2 2024","TANGGAL UPDATE":"27/07/2025"}}]}