{"type":"FeatureCollection","features":[{"type":"Feature","geometry":{"coordinates":[106.83306,-6.22863],"type":"Point"},"properties":{"NAMA":"STASIUN CIKUNIR 2","TIPE_1":"TRANSPORTASI","TIPE_2":"STASIUN","TIPE_3":"LRT","TELEPON":"","ALAMAT":"JAKASAMPURNA, KEC. BEKASI BAR., KOTA BKS, JAWA BARAT","ID_PROV":"31","PROVINSI":"DKI JAKARTA","ID_KABKOT":"31.74","KABKOT":"KOTA ADM. JAKARTA SELATAN","ID_KEC":"31.74.02","KECAMATAN":"SETIABUDI","ID_DESA":"31.74.02.1008","DESA":"KUNINGAN TIMUR","LONGITUDE":106.83306,"LATITUDE":-6.22863,"STATUS":"BUKA","TANGGAL PENGUMPULAN":"Q2 2024","TANGGAL UPDATE":"27/07/2025"}},{"type":"Feature","geometry":{"coordinates":[106.8518,-6.26282],"type":"Point"},"properties":{"NAMA":"STASIUN PASAR MINGGU BARU","TIPE_1":"TRANSPORTASI","TIPE_2":"STASIUN","TIPE_3":"COMMUTER","TELEPON":"","ALAMAT":"JALAN BATU MERAH IV, PEJATEN TIMUR, PASAR MINGGU, KOTA JAKARTA SELATAN, 12510","ID_PROV":"31","PROVINSI":"DKI JAKARTA","ID_KABKOT":"31.74","KABKOT":"KOTA ADM. JAKARTA SELATAN","ID_KEC":"31.74.08","KECAMATAN":"PANCORAN","ID_DESA":"31.74.08.1003","DESA":"RAWAJATI","LONGITUDE":106.8518,"LATITUDE":-6.26282,"STATUS":"BUKA","TANGGAL PENGUMPULAN":"Q2 2024","TANGGAL UPDATE":"27/07/2025"}},{"type":"Feature","geometry":{"coordinates":[106.8024774,-6.2267406],"type":"Point"},"properties":{"NAMA":"STASIUN SENAYAN","TIPE_1":"TRANSPORTASI","TIPE_2":"STASIUN","TIPE_3":"MRT","TELEPON":"","ALAMAT":"JALAN JENDERAL SUDIRMAN, SENAYAN, KEBAYORAN BARU JAKARTA SELATAN, JAKARTA, 12190 INDONESIA","ID_PROV":"31","PROVINSI":"DKI JAKARTA","ID_KABKOT":"31.74","KABKOT":"KOTA ADM. JAKARTA SELATAN","ID_KEC":"31.74.07","KECAMATAN":"KEBAYORAN BARU","ID_DESA":"31.74.07.1006","DESA":"SENAYAN","LONGITUDE":106.8024774,"LATITUDE":-6.2267406,"STATUS":"BUKA","TANGGAL PENGUMPULAN":"Q2 2024","TANGGAL UPDATE":"27/07/2025"}},{"type":"Feature","geometry":{"coordinates":[106.7981,-6.24447],"type":"Point"},"properties":{"NAMA":"STASIUN BLOK M BCA","TIPE_1":"TRANSPORTASI","TIPE_2":"STASIUN","TIPE_3":"MRT","TELEPON":"","ALAMAT":"JALAN PANGLIMA POLIM RAYA 116,MELAWAI, KEBAYORAN BARU JAKARTA SELATAN,JAKARTA, 12130 INDONESIA","ID_PROV":"31","PROVINSI":"DKI JAKARTA","ID_KABKOT":"31.74","KABKOT":"KOTA ADM. JAKARTA SELATAN","ID_KEC":"31.74.07","KECAMATAN":"KEBAYORAN BARU","ID_DESA":"31.74.07.1003","DESA":"KRAMAT PELA","LONGITUDE":106.7981,"LATITUDE":-6.24447,"STATUS":"BUKA","TANGGAL PENGUMPULAN":"Q2 2024","TANGGAL UPDATE":"27/07/2025"}},{"type":"Feature","geometry":{"coordinates":[106.79246,-6.29245],"type":"Point"},"properties":{"NAMA":"STASIUN FATMAWATI","TIPE_1":"TRANSPORTASI","TIPE_2":"STASIUN","TIPE_3":"MRT","TELEPON":"","ALAMAT":"JALAN RADEN AJENG KARTINI RT.1 RW.4, CILANDAK BARAT, KEC. CILANDAK, KOTA JAKARTA SELATAN, DAERAH KHUSUS IBUKOTA JAKARTA 12430","ID_PROV":"31","PROVINSI":"DKI JAKARTA","ID_KABKOT":"31.74","KABKOT":"KOTA ADM. JAKARTA SELATAN","ID_KEC":"31.74.06","KECAMATAN":"CILANDAK","ID_DESA":"31.74.06.1001","DESA":"CILANDAK BARAT","LONGITUDE":106.79246,"LATITUDE":-6.29245,"STATUS":"BUKA","TANGGAL PENGUMPULAN":"Q2 2024","TANGGAL UPDATE":"27/07/2025"}},{"type":"Feature","geometry":{"coordinates":[106.7740249,-6.2894309],"type":"Point"},"properties":{"NAMA":"STASIUN LEBAK BULUS","TIPE_1":"TRANSPORTASI","TIPE_2":"STASIUN","TIPE_3":"MRT","TELEPON":"","ALAMAT":"JALAN RADEN AJENG KARTINI, PD. PINANG, KEC. KBY. LAMA, KOTA JAKARTA SELATAN, DAERAH KHUSUS IBUKOTA JAKARTA 12310","ID_PROV":"31","PROVINSI":"DKI JAKARTA","ID_KABKOT":"31.74","KABKOT":"KOTA ADM. JAKARTA SELATAN","ID_KEC":"31.74.06","KECAMATAN":"CILANDAK","ID_DESA":"31.74.06.1002","DESA":"LEBAK BULUS","LONGITUDE":106.7740249,"LATITUDE":-6.2894309,"STATUS":"BUKA","TANGGAL PENGUMPULAN":"Q2 2024","TANGGAL UPDATE":"27/07/2025"}},{"type":"Feature","geometry":{"coordinates":[106.839,-6.30847],"type":"Point"},"properties":{"NAMA":"STASIUN TANJUNG BARAT","TIPE_1":"TRANSPORTASI","TIPE_2":"STASIUN","TIPE_3":"COMMUTER","TELEPON":"","ALAMAT":"JALAN RAYA LENTENG AGUNG, RT.4/RW.1, LENTENG AGUNG, JAGAKARSA, KOTA JAKARTA SELATAN, 12530","ID_PROV":"31","PROVINSI":"DKI JAKARTA","ID_KABKOT":"31.74","KABKOT":"KOTA ADM. JAKARTA SELATAN","ID_KEC":"31.74.09","KECAMATAN":"JAGAKARSA","ID_DESA":"31.74.09.1005","DESA":"TANJUNG BARAT","LONGITUDE":106.839,"LATITUDE":-6.30847,"STATUS":"BUKA","TANGGAL PENGUMPULAN":"Q2 2024","TANGGAL UPDATE":"27/07/2025"}},{"type":"Feature","geometry":{"coordinates":[106.797322,-6.2782646],"type":"Point"},"properties":{"NAMA":"STASIUN CIPETE RAYA","TIPE_1":"TRANSPORTASI","TIPE_2":"STASIUN","TIPE_3":"MRT","TELEPON":"","ALAMAT":"JALAN RS FATMAWATI 15, GANDARIA SELATAN, CILANDAK, 12420","ID_PROV":"31","PROVINSI":"DKI JAKARTA","ID_KABKOT":"31.74","KABKOT":"KOTA ADM. JAKARTA SELATAN","ID_KEC":"31.74.06","KECAMATAN":"CILANDAK","ID_DESA":"31.74.06.1004","DESA":"GANDARIA SELATAN","LONGITUDE":106.797322,"LATITUDE":-6.2782646,"STATUS":"BUKA","TANGGAL PENGUMPULAN":"Q2 2024","TANGGAL UPDATE":"27/07/2025"}},{"type":"Feature","geometry":{"coordinates":[106.7973327,-6.2666813],"type":"Point"},"properties":{"NAMA":"STASIUN HAJI NAWI","TIPE_1":"TRANSPORTASI","TIPE_2":"STASIUN","TIPE_3":"MRT","TELEPON":"","ALAMAT":"JALAN RS FATMAWATI 33, GANDARIA SELATAN, CILANDAK, 12420, JAKARTA SELATAN,JAKARTA","ID_PROV":"31","PROVINSI":"DKI JAKARTA","ID_KABKOT":"31.74","KABKOT":"KOTA ADM. JAKARTA SELATAN","ID_KEC":"31.74.06","KECAMATAN":"CILANDAK","ID_DESA":"31.74.06.1005","DESA":"CIPETE SELATAN","LONGITUDE":106.7973327,"LATITUDE":-6.2666813,"STATUS":"BUKA","TANGGAL PENGUMPULAN":"Q2 2024","TANGGAL UPDATE":"27/07/2025"}},{"type":"Feature","geometry":{"coordinates":[106.7971347,-6.2557533],"type":"Point"},"properties":{"NAMA":"STASIUN BLOK A","TIPE_1":"TRANSPORTASI","TIPE_2":"STASIUN","TIPE_3":"MRT","TELEPON":"","ALAMAT":"JALAN RS FATMAWATI 58, CIPETE UTARA, KEBAYORAN BARU, 12140, JAKARTA SELATAN,JAKARTA","ID_PROV":"31","PROVINSI":"DKI JAKARTA","ID_KABKOT":"31.74","KABKOT":"KOTA ADM. JAKARTA SELATAN","ID_KEC":"31.74.07","KECAMATAN":"KEBAYORAN BARU","ID_DESA":"31.74.07.1007","DESA":"PULO","LONGITUDE":106.7971347,"LATITUDE":-6.2557533,"STATUS":"BUKA","TANGGAL PENGUMPULAN":"Q2 2024","TANGGAL UPDATE":"27/07/2025"}},{"type":"Feature","geometry":{"coordinates":[106.7986087,-6.2387143],"type":"Point"},"properties":{"NAMA":"STASIUN ASEAN","TIPE_1":"TRANSPORTASI","TIPE_2":"STASIUN","TIPE_3":"MRT","TELEPON":"","ALAMAT":"JALAN SISINGAMANGARAJA 12, SELONG, KEBAYORAN BARU JAKARTA SELATAN, JAKARTA, 12110 INDONESIA","ID_PROV":"31","PROVINSI":"DKI JAKARTA","ID_KABKOT":"31.74","KABKOT":"KOTA ADM. JAKARTA SELATAN","ID_KEC":"31.74.07","KECAMATAN":"KEBAYORAN BARU","ID_DESA":"31.74.07.1004","DESA":"SELONG","LONGITUDE":106.7986087,"LATITUDE":-6.2387143,"STATUS":"BUKA","TANGGAL PENGUMPULAN":"Q2 2024","TANGGAL UPDATE":"27/07/2025"}},{"type":"Feature","geometry":{"coordinates":[106.825652,-6.2048039],"type":"Point"},"properties":{"NAMA":"STASIUN BEKASI BARAT","TIPE_1":"TRANSPORTASI","TIPE_2":"STASIUN","TIPE_3":"LRT","TELEPON":"","ALAMAT":"JL. AHMAD YANI, RT.005/RW.002, PEKAYON JAYA, KEC. BEKASI SEL., KOTA BKS, JAWA BARAT 17148","ID_PROV":"31","PROVINSI":"DKI JAKARTA","ID_KABKOT":"31.74","KABKOT":"KOTA ADM. JAKARTA SELATAN","ID_KEC":"31.74.02","KECAMATAN":"SETIABUDI","ID_DESA":"31.74.02.1001","DESA":"SETIA BUDI","LONGITUDE":106.825652,"LATITUDE":-6.2048039,"STATUS":"BUKA","TANGGAL PENGUMPULAN":"Q2 2024","TANGGAL UPDATE":"27/07/2025"}},{"type":"Feature","geometry":{"coordinates":[106.8381035,-6.2420039],"type":"Point"},"properties":{"NAMA":"STASIUN CIKUNIR 1","TIPE_1":"TRANSPORTASI","TIPE_2":"STASIUN","TIPE_3":"LRT","TELEPON":"","ALAMAT":"JL. CAMAN RAYA NO.1, RT.007/RW.001, JATIBENING, KEC. PD. GEDE, KOTA BKS, JAWA BARAT 17412","ID_PROV":"31","PROVINSI":"DKI JAKARTA","ID_KABKOT":"31.74","KABKOT":"KOTA ADM. JAKARTA SELATAN","ID_KEC":"31.74.08","KECAMATAN":"PANCORAN","ID_DESA":"31.74.08.1001","DESA":"PANCORAN","LONGITUDE":106.8381035,"LATITUDE":-6.2420039,"STATUS":"BUKA","TANGGAL PENGUMPULAN":"Q2 2024","TANGGAL UPDATE":"27/07/2025"}},{"type":"Feature","geometry":{"coordinates":[106.8346,-6.3299],"type":"Point"},"properties":{"NAMA":"STASIUN LENTENG AGUNG","TIPE_1":"TRANSPORTASI","TIPE_2":"STASIUN","TIPE_3":"COMMUTER","TELEPON":"","ALAMAT":"JL. LENTENG AGUNG RAYA, SRENGSENG SAWAH, KEC. JAGAKARSA, KOTA JAKARTA SELATAN, DAERAH KHUSUS IBUKOTA JAKARTA","ID_PROV":"31","PROVINSI":"DKI JAKARTA","ID_KABKOT":"31.74","KABKOT":"KOTA ADM. JAKARTA SELATAN","ID_KEC":"31.74.09","KECAMATAN":"JAGAKARSA","ID_DESA":"31.74.09.1004","DESA":"LENTENG AGUNG","LONGITUDE":106.8346,"LATITUDE":-6.3299,"STATUS":"BUKA","TANGGAL PENGUMPULAN":"Q2 2024","TANGGAL UPDATE":"27/07/2025"}},{"type":"Feature","geometry":{"coordinates":[106.8570138,-6.243474],"type":"Point"},"properties":{"NAMA":"STASIUN CIKOKO","TIPE_1":"TRANSPORTASI","TIPE_2":"STASIUN","TIPE_3":"LRT","TELEPON":"","ALAMAT":"JL. LETJEN M.T. HARYONO NO.36, RT.3/RW.2, CIKOKO, KEC. PANCORAN, KOTA JAKARTA SELATAN, DAERAH KHUSUS IBUKOTA JAKARTA 12770","ID_PROV":"31","PROVINSI":"DKI JAKARTA","ID_KABKOT":"31.74","KABKOT":"KOTA ADM. JAKARTA SELATAN","ID_KEC":"31.74.08","KECAMATAN":"PANCORAN","ID_DESA":"31.74.08.1006","DESA":"CIKOKO","LONGITUDE":106.8570138,"LATITUDE":-6.243474,"STATUS":"BUKA","TANGGAL PENGUMPULAN":"Q2 2024","TANGGAL UPDATE":"27/07/2025"}},{"type":"Feature","geometry":{"coordinates":[106.855,-6.25568],"type":"Point"},"properties":{"NAMA":"STASIUN DUREN KALIBATA","TIPE_1":"TRANSPORTASI","TIPE_2":"STASIUN","TIPE_3":"COMMUTER","TELEPON":"","ALAMAT":"JL. RAYA KALIBATA NO.60, RAWAJATI, KEC. PANCORAN, KOTA JAKARTA SELATAN, DAERAH KHUSUS IBUKOTA JAKARTA 12750","ID_PROV":"31","PROVINSI":"DKI JAKARTA","ID_KABKOT":"31.74","KABKOT":"KOTA ADM. JAKARTA SELATAN","ID_KEC":"31.74.08","KECAMATAN":"PANCORAN","ID_DESA":"31.74.08.1003","DESA":"RAWAJATI","LONGITUDE":106.855,"LATITUDE":-6.25568,"STATUS":"BUKA","TANGGAL PENGUMPULAN":"Q2 2024","TANGGAL UPDATE":"27/07/2025"}},{"type":"Feature","geometry":{"coordinates":[106.855,-6.25568],"type":"Point"},"properties":{"NAMA":"STASIUN DUREN KALIBATA","TIPE_1":"TRANSPORTASI","TIPE_2":"STASIUN","TIPE_3":"KERETA API","TELEPON":"","ALAMAT":"JL. RAYA KALIBATA NO.60, RAWAJATI, KEC. PANCORAN, KOTA JAKARTA SELATAN, DAERAH KHUSUS IBUKOTA JAKARTA 12750","ID_PROV":"31","PROVINSI":"DKI JAKARTA","ID_KABKOT":"31.74","KABKOT":"KOTA ADM. JAKARTA SELATAN","ID_KEC":"31.74.08","KECAMATAN":"PANCORAN","ID_DESA":"31.74.08.1003","DESA":"RAWAJATI","LONGITUDE":106.855,"LATITUDE":-6.25568,"STATUS":"BUKA","TANGGAL PENGUMPULAN":"Q2 2024","TANGGAL UPDATE":"27/07/2025"}},{"type":"Feature","geometry":{"coordinates":[106.8342,-6.33911],"type":"Point"},"properties":{"NAMA":"STASIUN UNIVERSITAS PANCASILA","TIPE_1":"TRANSPORTASI","TIPE_2":"STASIUN","TIPE_3":"COMMUTER","TELEPON":"","ALAMAT":"JL. RAYA LENTENG AGUNG NO.10, RT.11/RW.4, LENTENG AGUNG, KEC. JAGAKARSA, KOTA JAKARTA SELATAN, DAERAH KHUSUS IBUKOTA JAKARTA 12610","ID_PROV":"31","PROVINSI":"DKI JAKARTA","ID_KABKOT":"31.74","KABKOT":"KOTA ADM. JAKARTA SELATAN","ID_KEC":"31.74.09","KECAMATAN":"JAGAKARSA","ID_DESA":"31.74.09.1002","DESA":"SRENGSENG SAWAH","LONGITUDE":106.8342,"LATITUDE":-6.33911,"STATUS":"BUKA","TANGGAL PENGUMPULAN":"Q2 2024","TANGGAL UPDATE":"27/07/2025"}},{"type":"Feature","geometry":{"coordinates":[106.8586,-6.2417],"type":"Point"},"properties":{"NAMA":"STASIUN CAWANG","TIPE_1":"TRANSPORTASI","TIPE_2":"STASIUN","TIPE_3":"COMMUTER","TELEPON":"","ALAMAT":"JL. TEBET TIMUR RAYA NO.55, TEBET TIM., KEC. TEBET, KOTA JAKARTA SELATAN, DAERAH KHUSUS IBUKOTA JAKARTA 12820","ID_PROV":"31","PROVINSI":"DKI JAKARTA","ID_KABKOT":"31.74","KABKOT":"KOTA ADM. JAKARTA SELATAN","ID_KEC":"31.74.01","KECAMATAN":"TEBET","ID_DESA":"31.74.01.1001","DESA":"TEBET TIMUR","LONGITUDE":106.8586,"LATITUDE":-6.2417,"STATUS":"BUKA","TANGGAL PENGUMPULAN":"Q2 2024","TANGGAL UPDATE":"27/07/2025"}},{"type":"Feature","geometry":{"coordinates":[106.8498,-6.2099],"type":"Point"},"properties":{"NAMA":"STASIUN MANGGARAI","TIPE_1":"TRANSPORTASI","TIPE_2":"STASIUN","TIPE_3":"COMMUTER","TELEPON":"","ALAMAT":"MANGGARAI, H7, JL. MANGGARAI UTARA 1, RW.1, MANGGARAI, KEC. TEBET, KOTA JAKARTA SELATAN, DAERAH KHUSUS IBUKOTA JAKARTA 12850","ID_PROV":"31","PROVINSI":"DKI JAKARTA","ID_KABKOT":"31.74","KABKOT":"KOTA ADM. JAKARTA SELATAN","ID_KEC":"31.74.01","KECAMATAN":"TEBET","ID_DESA":"31.74.01.1007","DESA":"MANGGARAI","LONGITUDE":106.8498,"LATITUDE":-6.2099,"STATUS":"BUKA","TANGGAL PENGUMPULAN":"Q2 2024","TANGGAL UPDATE":"27/07/2025"}},{"type":"Feature","geometry":{"coordinates":[106.8302175,-6.2092939],"type":"Point"},"properties":{"NAMA":"STASIUN JATI BENING BARU","TIPE_1":"TRANSPORTASI","TIPE_2":"STASIUN","TIPE_3":"LRT","TELEPON":"","ALAMAT":"RT.007/RW.002, JATIBENING BARU, KEC. PD. GEDE, KOTA BKS, JAWA BARAT","ID_PROV":"31","PROVINSI":"DKI JAKARTA","ID_KABKOT":"31.74","KABKOT":"KOTA ADM. JAKARTA SELATAN","ID_KEC":"31.74.02","KECAMATAN":"SETIABUDI","ID_DESA":"31.74.02.1001","DESA":"SETIA BUDI","LONGITUDE":106.8302175,"LATITUDE":-6.2092939,"STATUS":"BUKA","TANGGAL PENGUMPULAN":"Q2 2024","TANGGAL UPDATE":"27/07/2025"}},{"type":"Feature","geometry":{"coordinates":[106.7824,-6.23737],"type":"Point"},"properties":{"NAMA":"STASIUN KEBAYORAN","TIPE_1":"TRANSPORTASI","TIPE_2":"STASIUN","TIPE_3":"COMMUTER","TELEPON":"","ALAMAT":"RT.3/RW.1, KBY. LAMA UTARA, KEC. KBY. LAMA, KOTA JAKARTA SELATAN, DAERAH KHUSUS IBUKOTA JAKARTA 12220","ID_PROV":"31","PROVINSI":"DKI JAKARTA","ID_KABKOT":"31.74","KABKOT":"KOTA ADM. JAKARTA SELATAN","ID_KEC":"31.74.05","KECAMATAN":"KEBAYORAN LAMA","ID_DESA":"31.74.05.1001","DESA":"KEBAYORAN LAMA UTARA","LONGITUDE":106.7824,"LATITUDE":-6.23737,"STATUS":"BUKA","TANGGAL PENGUMPULAN":"Q2 2024","TANGGAL UPDATE":"27/07/2025"}},{"type":"Feature","geometry":{"coordinates":[106.8324753,-6.2225265],"type":"Point"},"properties":{"NAMA":"STASIUN HALIM","TIPE_1":"TRANSPORTASI","TIPE_2":"STASIUN","TIPE_3":"LRT","TELEPON":"","ALAMAT":"RT.5/RW.16, HALIM PERDANA KUSUMAH, MAKASAR, EAST JAKARTA CITY, JAKARTA 13610","ID_PROV":"31","PROVINSI":"DKI JAKARTA","ID_KABKOT":"31.74","KABKOT":"KOTA ADM. JAKARTA SELATAN","ID_KEC":"31.74.02","KECAMATAN":"SETIABUDI","ID_DESA":"31.74.02.1003","DESA":"KARET KUNINGAN","LONGITUDE":106.8324753,"LATITUDE":-6.2225265,"STATUS":"BUKA","TANGGAL PENGUMPULAN":"Q2 2024","TANGGAL UPDATE":"27/07/2025"}},{"type":"Feature","geometry":{"coordinates":[106.7824,-6.23737],"type":"Point"},"properties":{"NAMA":"STASIUN KEBAYORAN","TIPE_1":"TRANSPORTASI","TIPE_2":"STASIUN","TIPE_3":"KERETA API","TELEPON":"","ALAMAT":"ST. KBY., RT.3/RW.1, KBY. LAMA UTARA, KEC. KBY. LAMA, KOTA JAKARTA SELATAN, DAERAH KHUSUS IBUKOTA JAKARTA 12220","ID_PROV":"31","PROVINSI":"DKI JAKARTA","ID_KABKOT":"31.74","KABKOT":"KOTA ADM. JAKARTA SELATAN","ID_KEC":"31.74.05","KECAMATAN":"KEBAYORAN LAMA","ID_DESA":"31.74.05.1001","DESA":"KEBAYORAN LAMA UTARA","LONGITUDE":106.7824,"LATITUDE":-6.23737,"STATUS":"BUKA","TANGGAL PENGUMPULAN":"Q2 2024","TANGGAL UPDATE":"27/07/2025"}},{"type":"Feature","geometry":{"coordinates":[106.8346,-6.3299],"type":"Point"},"properties":{"NAMA":"STASIUN LENTENG AGUNG","TIPE_1":"TRANSPORTASI","TIPE_2":"STASIUN","TIPE_3":"KERETA API","TELEPON":"","ALAMAT":"ST. LENTENG AGUNG, RT.13/RW.7, LENTENG AGUNG, KEC. JAGAKARSA, KOTA JAKARTA SELATAN, DAERAH KHUSUS IBUKOTA JAKARTA 12610","ID_PROV":"31","PROVINSI":"DKI JAKARTA","ID_KABKOT":"31.74","KABKOT":"KOTA ADM. JAKARTA SELATAN","ID_KEC":"31.74.09","KECAMATAN":"JAGAKARSA","ID_DESA":"31.74.09.1004","DESA":"LENTENG AGUNG","LONGITUDE":106.8346,"LATITUDE":-6.3299,"STATUS":"BUKA","TANGGAL PENGUMPULAN":"Q2 2024","TANGGAL UPDATE":"27/07/2025"}},{"type":"Feature","geometry":{"coordinates":[106.839,-6.30847],"type":"Point"},"properties":{"NAMA":"STASIUN TANJUNG BARAT","TIPE_1":"TRANSPORTASI","TIPE_2":"STASIUN","TIPE_3":"KERETA API","TELEPON":"","ALAMAT":"ST. TJ. BARAT, JALAN RAYA LENTENG AGUNG, RT.4/RW.1, LENTENG AGUNG, JAGAKARSA, KOTA JAKARTA SELATAN, 12530","ID_PROV":"31","PROVINSI":"DKI JAKARTA","ID_KABKOT":"31.74","KABKOT":"KOTA ADM. JAKARTA SELATAN","ID_KEC":"31.74.09","KECAMATAN":"JAGAKARSA","ID_DESA":"31.74.09.1005","DESA":"TANJUNG BARAT","LONGITUDE":106.839,"LATITUDE":-6.30847,"STATUS":"BUKA","TANGGAL PENGUMPULAN":"Q2 2024","TANGGAL UPDATE":"27/07/2025"}},{"type":"Feature","geometry":{"coordinates":[106.8586,-6.2417],"type":"Point"},"properties":{"NAMA":"STASIUN CAWANG","TIPE_1":"TRANSPORTASI","TIPE_2":"STASIUN","TIPE_3":"KERETA API","TELEPON":"","ALAMAT":"JL. TEBET TIMUR RAYA NO.55, TEBET TIM., KEC. TEBET, KOTA JAKARTA SELATAN, DAERAH KHUSUS IBUKOTA JAKARTA 12820","ID_PROV":"31","PROVINSI":"DKI JAKARTA","ID_KABKOT":"31.74","KABKOT":"KOTA ADM. JAKARTA SELATAN","ID_KEC":"31.74.01","KECAMATAN":"TEBET","ID_DESA":"31.74.01.1001","DESA":"TEBET TIMUR","LONGITUDE":106.8586,"LATITUDE":-6.2417,"STATUS":"BUKA","TANGGAL PENGUMPULAN":"Q2 2024","TANGGAL UPDATE":"27/07/2025"}},{"type":"Feature","geometry":{"coordinates":[106.8498,-6.2099],"type":"Point"},"properties":{"NAMA":"STASIUN MANGGARAI","TIPE_1":"TRANSPORTASI","TIPE_2":"STASIUN","TIPE_3":"KERETA API","TELEPON":"","ALAMAT":"","ID_PROV":"31","PROVINSI":"DKI JAKARTA","ID_KABKOT":"31.74","KABKOT":"KOTA ADM. JAKARTA SELATAN","ID_KEC":"31.74.01","KECAMATAN":"TEBET","ID_DESA":"31.74.01.1007","DESA":"MANGGARAI","LONGITUDE":106.8498,"LATITUDE":-6.2099,"STATUS":"BUKA","TANGGAL PENGUMPULAN":"Q2 2024","TANGGAL UPDATE":"27/07/2025"}},{"type":"Feature","geometry":{"coordinates":[106.8518,-6.26282],"type":"Point"},"properties":{"NAMA":"STASIUN PASAR MINGGU BARU","TIPE_1":"TRANSPORTASI","TIPE_2":"STASIUN","TIPE_3":"KERETA API","TELEPON":"","ALAMAT":"JALAN BATU MERAH IV, PEJATEN TIMUR, PASAR MINGGU, KOTA JAKARTA SELATAN, 12510","ID_PROV":"31","PROVINSI":"DKI JAKARTA","ID_KABKOT":"31.74","KABKOT":"KOTA ADM. JAKARTA SELATAN","ID_KEC":"31.74.08","KECAMATAN":"PANCORAN","ID_DESA":"31.74.08.1003","DESA":"RAWAJATI","LONGITUDE":106.8518,"LATITUDE":-6.26282,"STATUS":"BUKA","TANGGAL PENGUMPULAN":"Q2 2024","TANGGAL UPDATE":"27/07/2025"}},{"type":"Feature","geometry":{"coordinates":[106.8446,-6.28436],"type":"Point"},"properties":{"NAMA":"STASIUN PASAR MINGGU","TIPE_1":"TRANSPORTASI","TIPE_2":"STASIUN","TIPE_3":"KERETA API","TELEPON":"","ALAMAT":"STASIUN, LENTENG AGUNG, PS. MINGGU, KOTA JAKARTA SELATAN, DAERAH KHUSUS IBUKOTA JAKARTA","ID_PROV":"31","PROVINSI":"DKI JAKARTA","ID_KABKOT":"31.74","KABKOT":"KOTA ADM. JAKARTA SELATAN","ID_KEC":"31.74.04","KECAMATAN":"PASAR MINGGU","ID_DESA":"31.74.04.1005","DESA":"PEJATEN TIMUR","LONGITUDE":106.8446,"LATITUDE":-6.28436,"STATUS":"BUKA","TANGGAL PENGUMPULAN":"Q2 2024","TANGGAL UPDATE":"27/07/2025"}},{"type":"Feature","geometry":{"coordinates":[106.8584,-6.22668],"type":"Point"},"properties":{"NAMA":"STASIUN TEBET","TIPE_1":"TRANSPORTASI","TIPE_2":"STASIUN","TIPE_3":"KERETA API","TELEPON":"","ALAMAT":"TIMJL. TEBET RAYA NO.62TEBET, TIM, KEC. TEBET, KOTA JAKARTA SELATAN, DAERAH KHUSUS IBUKOTA JAKARTA 12820","ID_PROV":"31","PROVINSI":"DKI JAKARTA","ID_KABKOT":"31.74","KABKOT":"KOTA ADM. JAKARTA SELATAN","ID_KEC":"31.74.01","KECAMATAN":"TEBET","ID_DESA":"31.74.01.1001","DESA":"TEBET TIMUR","LONGITUDE":106.8584,"LATITUDE":-6.22668,"STATUS":"BUKA","TANGGAL PENGUMPULAN":"Q2 2024","TANGGAL UPDATE":"27/07/2025"}},{"type":"Feature","geometry":{"coordinates":[106.8342,-6.33911],"type":"Point"},"properties":{"NAMA":"STASIUN UNIVERSITAS PANCASILA","TIPE_1":"TRANSPORTASI","TIPE_2":"STASIUN","TIPE_3":"KERETA API","TELEPON":"","ALAMAT":"JL. LENTENG AGUNG RAYA NO.44, SRENGSENG SAWAH, KEC. JAGAKARSA, KOTA JAKARTA SELATAN, DAERAH KHUSUS IBUKOTA JAKARTA 12630","ID_PROV":"31","PROVINSI":"DKI JAKARTA","ID_KABKOT":"31.74","KABKOT":"KOTA ADM. JAKARTA SELATAN","ID_KEC":"31.74.09","KECAMATAN":"JAGAKARSA","ID_DESA":"31.74.09.1002","DESA":"SRENGSENG SAWAH","LONGITUDE":106.8342,"LATITUDE":-6.33911,"STATUS":"BUKA","TANGGAL PENGUMPULAN":"Q2 2024","TANGGAL UPDATE":"27/07/2025"}},{"type":"Feature","geometry":{"coordinates":[106.8446,-6.28436],"type":"Point"},"properties":{"NAMA":"STASIUN PASAR MINGGU","TIPE_1":"TRANSPORTASI","TIPE_2":"STASIUN","TIPE_3":"COMMUTER","TELEPON":"","ALAMAT":"STASIUN, LENTENG AGUNG, PASAR MINGGU, SOUTH JAKARTA CITY, JAKARTA","ID_PROV":"31","PROVINSI":"DKI JAKARTA","ID_KABKOT":"31.74","KABKOT":"KOTA ADM. JAKARTA SELATAN","ID_KEC":"31.74.04","KECAMATAN":"PASAR MINGGU","ID_DESA":"31.74.04.1005","DESA":"PEJATEN TIMUR","LONGITUDE":106.8446,"LATITUDE":-6.28436,"STATUS":"BUKA","TANGGAL PENGUMPULAN":"Q2 2024","TANGGAL UPDATE":"27/07/2025"}},{"type":"Feature","geometry":{"coordinates":[106.8584,-6.22668],"type":"Point"},"properties":{"NAMA":"STASIUN TEBET","TIPE_1":"TRANSPORTASI","TIPE_2":"STASIUN","TIPE_3":"COMMUTER","TELEPON":"","ALAMAT":"TIMJL. TEBET RAYA NO.62TEBET, TIM, KEC. TEBET, KOTA JAKARTA SELATAN, DAERAH KHUSUS IBUKOTA JAKARTA 12820","ID_PROV":"31","PROVINSI":"DKI JAKARTA","ID_KABKOT":"31.74","KABKOT":"KOTA ADM. JAKARTA SELATAN","ID_KEC":"31.74.01","KECAMATAN":"TEBET","ID_DESA":"31.74.01.1001","DESA":"TEBET TIMUR","LONGITUDE":106.8584,"LATITUDE":-6.22668,"STATUS":"BUKA","TANGGAL PENGUMPULAN":"Q2 2024","TANGGAL UPDATE":"27/07/2025"}}]}