{"type":"FeatureCollection","features":[{"type":"Feature","geometry":{"coordinates":[106.8096,-6.62579],"type":"Point"},"properties":{"NAMA":"STASIUN BATU TULIS","TIPE_1":"TRANSPORTASI","TIPE_2":"STASIUN","TIPE_3":"KERETA API","TELEPON":"","ALAMAT":"JL. BATU TULIS, RT.03/RW.08, BATUTULIS, KEC. BOGOR SEL., KOTA BOGOR, JAWA BARAT","ID_PROV":"32","PROVINSI":"JAWA BARAT","ID_KABKOT":"32.71","KABKOT":"KOTA BOGOR","ID_KEC":"32.71.01","KECAMATAN":"BOGOR SELATAN","ID_DESA":"32.71.01.1001","DESA":"BATU TULIS","LONGITUDE":106.8096,"LATITUDE":-6.62579,"STATUS":"BUKA","TANGGAL PENGUMPULAN":"Q2 2024","TANGGAL UPDATE":"27/07/2025"}},{"type":"Feature","geometry":{"coordinates":[106.7906,-6.59381],"type":"Point"},"properties":{"NAMA":"STASIUN BOGOR","TIPE_1":"TRANSPORTASI","TIPE_2":"STASIUN","TIPE_3":"COMMUTER","TELEPON":"","ALAMAT":"RT.04/RW.06, CIBOGOR, KECAMATAN BOGOR TENGAH, KOTA BOGOR, JAWA BARAT 16124","ID_PROV":"32","PROVINSI":"JAWA BARAT","ID_KABKOT":"32.71","KABKOT":"KOTA BOGOR","ID_KEC":"32.71.03","KECAMATAN":"BOGOR TENGAH","ID_DESA":"32.71.03.1004","DESA":"CIBOGOR","LONGITUDE":106.7906,"LATITUDE":-6.59381,"STATUS":"BUKA","TANGGAL PENGUMPULAN":"Q2 2024","TANGGAL UPDATE":"27/07/2025"}},{"type":"Feature","geometry":{"coordinates":[106.7905,-6.59789],"type":"Point"},"properties":{"NAMA":"STASIUN BOGOR PALEDANG","TIPE_1":"TRANSPORTASI","TIPE_2":"STASIUN","TIPE_3":"KERETA API","TELEPON":"","ALAMAT":"JL. RAYA BOGOR NO.507, NANGGEWER MEKAR, KEC. CIBINONG, KABUPATEN BOGOR, JAWA BARAT 16912","ID_PROV":"32","PROVINSI":"JAWA BARAT","ID_KABKOT":"32.71","KABKOT":"KOTA BOGOR","ID_KEC":"32.71.03","KECAMATAN":"BOGOR TENGAH","ID_DESA":"32.71.03.1002","DESA":"PALEDANG","LONGITUDE":106.7905,"LATITUDE":-6.59789,"STATUS":"BUKA","TANGGAL PENGUMPULAN":"Q2 2024","TANGGAL UPDATE":"27/07/2025"}},{"type":"Feature","geometry":{"coordinates":[106.7906,-6.59381],"type":"Point"},"properties":{"NAMA":"STASIUN BOGOR","TIPE_1":"TRANSPORTASI","TIPE_2":"STASIUN","TIPE_3":"KERETA API","TELEPON":"","ALAMAT":"CIBOGOR, KECAMATAN BOGOR TENGAH, KOTA BOGOR, JAWA BARAT","ID_PROV":"32","PROVINSI":"JAWA BARAT","ID_KABKOT":"32.71","KABKOT":"KOTA BOGOR","ID_KEC":"32.71.03","KECAMATAN":"BOGOR TENGAH","ID_DESA":"32.71.03.1004","DESA":"CIBOGOR","LONGITUDE":106.7906,"LATITUDE":-6.59381,"STATUS":"BUKA","TANGGAL PENGUMPULAN":"Q2 2024","TANGGAL UPDATE":"27/07/2025"}},{"type":"Feature","geometry":{"coordinates":[106.8094,-6.65179],"type":"Point"},"properties":{"NAMA":"STASIUN CIOMAS","TIPE_1":"TRANSPORTASI","TIPE_2":"STASIUN","TIPE_3":"KERETA API","TELEPON":"","ALAMAT":"RT.03/RW.06, KERTAMAYA, KEC. BOGOR SEL., KOTA BOGOR, JAWA BARAT 16139","ID_PROV":"32","PROVINSI":"JAWA BARAT","ID_KABKOT":"32.71","KABKOT":"KOTA BOGOR","ID_KEC":"32.71.01","KECAMATAN":"BOGOR SELATAN","ID_DESA":"32.71.01.1014","DESA":"GENTENG","LONGITUDE":106.8094,"LATITUDE":-6.65179,"STATUS":"BUKA","TANGGAL PENGUMPULAN":"Q2 2024","TANGGAL UPDATE":"27/07/2025"}}]}