{"type":"FeatureCollection","features":[{"type":"Feature","geometry":{"coordinates":[106.882,-6.11041],"type":"Point"},"properties":{"NAMA":"STASIUN TANJUNG PRIOK","TIPE_1":"TRANSPORTASI","TIPE_2":"STASIUN","TIPE_3":"COMMUTER","TELEPON":"","ALAMAT":"14130, JL. TENGGIRI, TJ. PRIOK, 14310","ID_PROV":"31","PROVINSI":"DKI JAKARTA","ID_KABKOT":"31.72","KABKOT":"KOTA ADM. JAKARTA UTARA","ID_KEC":"31.72.02","KECAMATAN":"TANJUNG PRIOK","ID_DESA":"31.72.02.1001","DESA":"TANJUNG PRIOK","LONGITUDE":106.882,"LATITUDE":-6.11041,"STATUS":"BUKA","TANGGAL PENGUMPULAN":"Q2 2024","TANGGAL UPDATE":"27/07/2025"}},{"type":"Feature","geometry":{"coordinates":[106.882,-6.11041],"type":"Point"},"properties":{"NAMA":"STASIUN TANJUNG PRIOK","TIPE_1":"TRANSPORTASI","TIPE_2":"STASIUN","TIPE_3":"KERETA API","TELEPON":"","ALAMAT":"6, JL. TAMAN ST. TJ. PRIOK NO.2, RT.6/RW.8, TJ. PRIOK, KEC. TJ. PRIOK, JKT UTARA, DAERAH KHUSUS IBUKOTA JAKARTA 14310","ID_PROV":"31","PROVINSI":"DKI JAKARTA","ID_KABKOT":"31.72","KABKOT":"KOTA ADM. JAKARTA UTARA","ID_KEC":"31.72.02","KECAMATAN":"TANJUNG PRIOK","ID_DESA":"31.72.02.1001","DESA":"TANJUNG PRIOK","LONGITUDE":106.882,"LATITUDE":-6.11041,"STATUS":"BUKA","TANGGAL PENGUMPULAN":"Q2 2024","TANGGAL UPDATE":"27/07/2025"}},{"type":"Feature","geometry":{"coordinates":[106.8194,-6.1333],"type":"Point"},"properties":{"NAMA":"STASIUN JAKARTA GUDANG","TIPE_1":"TRANSPORTASI","TIPE_2":"STASIUN","TIPE_3":"KERETA API","TELEPON":"","ALAMAT":"JL. KP. BANDAN RAYA NO.24, RT.2/RW.4, ANCOL, KEC. PADEMANGAN, JKT UTARA, DAERAH KHUSUS IBUKOTA JAKARTA 14430","ID_PROV":"31","PROVINSI":"DKI JAKARTA","ID_KABKOT":"31.72","KABKOT":"KOTA ADM. JAKARTA UTARA","ID_KEC":"31.72.05","KECAMATAN":"PADEMANGAN","ID_DESA":"31.72.05.1003","DESA":"ANCOL","LONGITUDE":106.8194,"LATITUDE":-6.1333,"STATUS":"BUKA","TANGGAL PENGUMPULAN":"Q2 2024","TANGGAL UPDATE":"27/07/2025"}},{"type":"Feature","geometry":{"coordinates":[106.8286,-6.13239],"type":"Point"},"properties":{"NAMA":"STASIUN KAMPUNG BANDAN BAWAH","TIPE_1":"TRANSPORTASI","TIPE_2":"STASIUN","TIPE_3":"COMMUTER","TELEPON":"","ALAMAT":"JL. MANGGA DUA VIII NO.16, RT.12/RW.5, ANCOL, KEC. PADEMANGAN, JKT UTARA, DAERAH KHUSUS IBUKOTA JAKARTA 14430","ID_PROV":"31","PROVINSI":"DKI JAKARTA","ID_KABKOT":"31.72","KABKOT":"KOTA ADM. JAKARTA UTARA","ID_KEC":"31.72.05","KECAMATAN":"PADEMANGAN","ID_DESA":"31.72.05.1003","DESA":"ANCOL","LONGITUDE":106.8286,"LATITUDE":-6.13239,"STATUS":"BUKA","TANGGAL PENGUMPULAN":"Q2 2024","TANGGAL UPDATE":"27/07/2025"}},{"type":"Feature","geometry":{"coordinates":[106.8284,-6.133],"type":"Point"},"properties":{"NAMA":"STASIUN KAMPUNG BANDAN ATAS","TIPE_1":"TRANSPORTASI","TIPE_2":"STASIUN","TIPE_3":"COMMUTER","TELEPON":"","ALAMAT":"JL. MANGGA DUA VIII NO.16, RT.12/RW.5, ANCOL, KEC. PADEMANGAN, JKT UTARA, DAERAH KHUSUS IBUKOTA JAKARTA 14430","ID_PROV":"31","PROVINSI":"DKI JAKARTA","ID_KABKOT":"31.72","KABKOT":"KOTA ADM. JAKARTA UTARA","ID_KEC":"31.72.05","KECAMATAN":"PADEMANGAN","ID_DESA":"31.72.05.1003","DESA":"ANCOL","LONGITUDE":106.8284,"LATITUDE":-6.133,"STATUS":"BUKA","TANGGAL PENGUMPULAN":"Q2 2024","TANGGAL UPDATE":"27/07/2025"}},{"type":"Feature","geometry":{"coordinates":[106.8284,-6.133],"type":"Point"},"properties":{"NAMA":"STASIUN KAMPUNG BANDAN ATAS","TIPE_1":"TRANSPORTASI","TIPE_2":"STASIUN","TIPE_3":"KERETA API","TELEPON":"","ALAMAT":"JL. MANGGA DUA VIII NO.16, RT.12/RW.5, ANCOL, KEC. PADEMANGAN, JKT UTARA, DAERAH KHUSUS IBUKOTA JAKARTA 14430","ID_PROV":"31","PROVINSI":"DKI JAKARTA","ID_KABKOT":"31.72","KABKOT":"KOTA ADM. JAKARTA UTARA","ID_KEC":"31.72.05","KECAMATAN":"PADEMANGAN","ID_DESA":"31.72.05.1003","DESA":"ANCOL","LONGITUDE":106.8284,"LATITUDE":-6.133,"STATUS":"BUKA","TANGGAL PENGUMPULAN":"Q2 2024","TANGGAL UPDATE":"27/07/2025"}},{"type":"Feature","geometry":{"coordinates":[106.8286,-6.13239],"type":"Point"},"properties":{"NAMA":"STASIUN KAMPUNG BANDAN BAWAH","TIPE_1":"TRANSPORTASI","TIPE_2":"STASIUN","TIPE_3":"KERETA API","TELEPON":"","ALAMAT":"JL. MANGGA DUA VIII NO.16, RT.12/RW.5, ANCOL, KEC. PADEMANGAN, JKT UTARA, DAERAH KHUSUS IBUKOTA JAKARTA 14430","ID_PROV":"31","PROVINSI":"DKI JAKARTA","ID_KABKOT":"31.72","KABKOT":"KOTA ADM. JAKARTA UTARA","ID_KEC":"31.72.05","KECAMATAN":"PADEMANGAN","ID_DESA":"31.72.05.1003","DESA":"ANCOL","LONGITUDE":106.8286,"LATITUDE":-6.13239,"STATUS":"BUKA","TANGGAL PENGUMPULAN":"Q2 2024","TANGGAL UPDATE":"27/07/2025"}},{"type":"Feature","geometry":{"coordinates":[106.884,-6.10938],"type":"Point"},"properties":{"NAMA":"STASIUN PASOSO","TIPE_1":"TRANSPORTASI","TIPE_2":"STASIUN","TIPE_3":"KERETA API","TELEPON":"","ALAMAT":"KOMPLEKS TERMINAL PETIKEMAS, JL. PASOSO NO.6, RT.6/RW.8, TJ. PRIOK, KEC. TJ. PRIOK, JKT UTARA, DAERAH KHUSUS IBUKOTA JAKARTA 14310","ID_PROV":"31","PROVINSI":"DKI JAKARTA","ID_KABKOT":"31.72","KABKOT":"KOTA ADM. JAKARTA UTARA","ID_KEC":"31.72.02","KECAMATAN":"TANJUNG PRIOK","ID_DESA":"31.72.02.1001","DESA":"TANJUNG PRIOK","LONGITUDE":106.884,"LATITUDE":-6.10938,"STATUS":"BUKA","TANGGAL PENGUMPULAN":"Q2 2024","TANGGAL UPDATE":"27/07/2025"}},{"type":"Feature","geometry":{"coordinates":[106.882,-6.11041],"type":"Point"},"properties":{"NAMA":"STASIUN TANJUNG PRIOK","TIPE_1":"TRANSPORTASI","TIPE_2":"STASIUN","TIPE_3":"LOGISTIK","TELEPON":"","ALAMAT":"KOTA ADM. JAKARTA UTARA, DKI JAKARTA","ID_PROV":"31","PROVINSI":"DKI JAKARTA","ID_KABKOT":"31.72","KABKOT":"KOTA ADM. JAKARTA UTARA","ID_KEC":"31.72.02","KECAMATAN":"TANJUNG PRIOK","ID_DESA":"31.72.02.1001","DESA":"TANJUNG PRIOK","LONGITUDE":106.882,"LATITUDE":-6.11041,"STATUS":"BUKA","TANGGAL PENGUMPULAN":"Q2 2024","TANGGAL UPDATE":"27/07/2025"}},{"type":"Feature","geometry":{"coordinates":[106.8194,-6.1333],"type":"Point"},"properties":{"NAMA":"STASIUN JAKARTA GUDANG","TIPE_1":"TRANSPORTASI","TIPE_2":"STASIUN","TIPE_3":"LOGISTIK","TELEPON":"","ALAMAT":"KOTA ADM. JAKARTA UTARA, DKI JAKARTA","ID_PROV":"31","PROVINSI":"DKI JAKARTA","ID_KABKOT":"31.72","KABKOT":"KOTA ADM. JAKARTA UTARA","ID_KEC":"31.72.05","KECAMATAN":"PADEMANGAN","ID_DESA":"31.72.05.1003","DESA":"ANCOL","LONGITUDE":106.8194,"LATITUDE":-6.1333,"STATUS":"BUKA","TANGGAL PENGUMPULAN":"Q2 2024","TANGGAL UPDATE":"27/07/2025"}},{"type":"Feature","geometry":{"coordinates":[106.8758,-6.11279],"type":"Point"},"properties":{"NAMA":"STASIUN SUNGAI LAGOA","TIPE_1":"TRANSPORTASI","TIPE_2":"STASIUN","TIPE_3":"LOGISTIK","TELEPON":"","ALAMAT":"KOTA JAKARTA UTARA, DKI JAKARTA","ID_PROV":"31","PROVINSI":"DKI JAKARTA","ID_KABKOT":"31.72","KABKOT":"KOTA ADM. JAKARTA UTARA","ID_KEC":"31.72.02","KECAMATAN":"TANJUNG PRIOK","ID_DESA":"31.72.02.1001","DESA":"TANJUNG PRIOK","LONGITUDE":106.8758,"LATITUDE":-6.11279,"STATUS":"BUKA","TANGGAL PENGUMPULAN":"Q2 2024","TANGGAL UPDATE":"27/07/2025"}},{"type":"Feature","geometry":{"coordinates":[106.884,-6.10938],"type":"Point"},"properties":{"NAMA":"STASIUN PASOSO","TIPE_1":"TRANSPORTASI","TIPE_2":"STASIUN","TIPE_3":"LOGISTIK","TELEPON":"","ALAMAT":"KOTA JAKARTA UTARA, DKI JAKARTA","ID_PROV":"31","PROVINSI":"DKI JAKARTA","ID_KABKOT":"31.72","KABKOT":"KOTA ADM. JAKARTA UTARA","ID_KEC":"31.72.02","KECAMATAN":"TANJUNG PRIOK","ID_DESA":"31.72.02.1001","DESA":"TANJUNG PRIOK","LONGITUDE":106.884,"LATITUDE":-6.10938,"STATUS":"BUKA","TANGGAL PENGUMPULAN":"Q2 2024","TANGGAL UPDATE":"27/07/2025"}},{"type":"Feature","geometry":{"coordinates":[106.8448,-6.12811],"type":"Point"},"properties":{"NAMA":"STASIUN ANCOL","TIPE_1":"TRANSPORTASI","TIPE_2":"STASIUN","TIPE_3":"COMMUTER","TELEPON":"","ALAMAT":"PADEMANGAN BAR., KEC. PADEMANGAN, JKT UTARA, DAERAH KHUSUS IBUKOTA JAKARTA","ID_PROV":"31","PROVINSI":"DKI JAKARTA","ID_KABKOT":"31.72","KABKOT":"KOTA ADM. JAKARTA UTARA","ID_KEC":"31.72.05","KECAMATAN":"PADEMANGAN","ID_DESA":"31.72.05.1001","DESA":"PADEMANGAN TIMUR","LONGITUDE":106.8448,"LATITUDE":-6.12811,"STATUS":"BUKA","TANGGAL PENGUMPULAN":"Q2 2024","TANGGAL UPDATE":"27/07/2025"}},{"type":"Feature","geometry":{"coordinates":[106.8448,-6.12811],"type":"Point"},"properties":{"NAMA":"STASIUN ANCOL","TIPE_1":"TRANSPORTASI","TIPE_2":"STASIUN","TIPE_3":"KERETA API","TELEPON":"","ALAMAT":"PADEMANGAN BAR., KEC. PADEMANGAN, JKT UTARA, DAERAH KHUSUS IBUKOTA JAKARTA","ID_PROV":"31","PROVINSI":"DKI JAKARTA","ID_KABKOT":"31.72","KABKOT":"KOTA ADM. JAKARTA UTARA","ID_KEC":"31.72.05","KECAMATAN":"PADEMANGAN","ID_DESA":"31.72.05.1001","DESA":"PADEMANGAN TIMUR","LONGITUDE":106.8448,"LATITUDE":-6.12811,"STATUS":"BUKA","TANGGAL PENGUMPULAN":"Q2 2024","TANGGAL UPDATE":"27/07/2025"}},{"type":"Feature","geometry":{"coordinates":[106.8758,-6.11279],"type":"Point"},"properties":{"NAMA":"STASIUN SUNGAI LAGOA","TIPE_1":"TRANSPORTASI","TIPE_2":"STASIUN","TIPE_3":"KERETA API","TELEPON":"","ALAMAT":"JL. R. E. MARTADINATA NO.5, RT.5/RW.12, TJ. PRIOK, KEC. TJ. PRIOK, JKT UTARA, DAERAH KHUSUS IBUKOTA JAKARTA 14310","ID_PROV":"31","PROVINSI":"DKI JAKARTA","ID_KABKOT":"31.72","KABKOT":"KOTA ADM. JAKARTA UTARA","ID_KEC":"31.72.02","KECAMATAN":"TANJUNG PRIOK","ID_DESA":"31.72.02.1001","DESA":"TANJUNG PRIOK","LONGITUDE":106.8758,"LATITUDE":-6.11279,"STATUS":"BUKA","TANGGAL PENGUMPULAN":"Q2 2024","TANGGAL UPDATE":"27/07/2025"}}]}