{"type":"FeatureCollection","features":[{"type":"Feature","geometry":{"coordinates":[106.6762,-6.31488],"type":"Point"},"properties":{"NAMA":"STASIUN RAWA BUNTU","TIPE_1":"TRANSPORTASI","TIPE_2":"STASIUN","TIPE_3":"COMMUTER","TELEPON":"","ALAMAT":"CILENGGANG, KEC. SERPONG, KOTA TANGERANG SELATAN, BANTEN","ID_PROV":"36","PROVINSI":"BANTEN","ID_KABKOT":"36.74","KABKOT":"KOTA TANGERANG SELATAN","ID_KEC":"36.74.01","KECAMATAN":"SERPONG","ID_DESA":"36.74.01.1002","DESA":"RAWABUNTU","LONGITUDE":106.6762,"LATITUDE":-6.31488,"STATUS":"BUKA","TANGGAL PENGUMPULAN":"Q2 2024","TANGGAL UPDATE":"27/07/2025"}},{"type":"Feature","geometry":{"coordinates":[106.6762,-6.31488],"type":"Point"},"properties":{"NAMA":"STASIUN RAWA BUNTU","TIPE_1":"TRANSPORTASI","TIPE_2":"STASIUN","TIPE_3":"KERETA API","TELEPON":"","ALAMAT":"CILENGGANG, KEC. SERPONG, KOTA TANGERANG SELATAN, BANTEN","ID_PROV":"36","PROVINSI":"BANTEN","ID_KABKOT":"36.74","KABKOT":"KOTA TANGERANG SELATAN","ID_KEC":"36.74.01","KECAMATAN":"SERPONG","ID_DESA":"36.74.01.1002","DESA":"RAWABUNTU","LONGITUDE":106.6762,"LATITUDE":-6.31488,"STATUS":"BUKA","TANGGAL PENGUMPULAN":"Q2 2024","TANGGAL UPDATE":"27/07/2025"}},{"type":"Feature","geometry":{"coordinates":[106.7292,-6.28851],"type":"Point"},"properties":{"NAMA":"STASIUN JURANG MANGU","TIPE_1":"TRANSPORTASI","TIPE_2":"STASIUN","TIPE_3":"COMMUTER","TELEPON":"","ALAMAT":"CLUSTER PERMATA MANSION BLOK EE1 NO.10, SERUA, KEC. BOJONGSARI, KOTA TANGERANG SELATAN, BANTEN 15413","ID_PROV":"36","PROVINSI":"BANTEN","ID_KABKOT":"36.74","KABKOT":"KOTA TANGERANG SELATAN","ID_KEC":"36.74.04","KECAMATAN":"CIPUTAT","ID_DESA":"36.74.04.1004","DESA":"SAWAH","LONGITUDE":106.7292,"LATITUDE":-6.28851,"STATUS":"BUKA","TANGGAL PENGUMPULAN":"Q2 2024","TANGGAL UPDATE":"27/07/2025"}},{"type":"Feature","geometry":{"coordinates":[106.7292,-6.28851],"type":"Point"},"properties":{"NAMA":"STASIUN JURANG MANGU","TIPE_1":"TRANSPORTASI","TIPE_2":"STASIUN","TIPE_3":"KERETA API","TELEPON":"","ALAMAT":"CLUSTER PERMATA MANSION BLOK EE1 NO.10, SERUA, KEC. BOJONGSARI, KOTA TANGERANG SELATAN, BANTEN 15413","ID_PROV":"36","PROVINSI":"BANTEN","ID_KABKOT":"36.74","KABKOT":"KOTA TANGERANG SELATAN","ID_KEC":"36.74.04","KECAMATAN":"CIPUTAT","ID_DESA":"36.74.04.1004","DESA":"SAWAH","LONGITUDE":106.7292,"LATITUDE":-6.28851,"STATUS":"BUKA","TANGGAL PENGUMPULAN":"Q2 2024","TANGGAL UPDATE":"27/07/2025"}},{"type":"Feature","geometry":{"coordinates":[106.7448,-6.27667],"type":"Point"},"properties":{"NAMA":"STASIUN PONDOK RANJI","TIPE_1":"TRANSPORTASI","TIPE_2":"STASIUN","TIPE_3":"COMMUTER","TELEPON":"","ALAMAT":"JL. SETASIUN PD. RANJI, RENGAS, KEC. CIPUTAT TIM., KOTA TANGERANG SELATAN, BANTEN 15412","ID_PROV":"36","PROVINSI":"BANTEN","ID_KABKOT":"36.74","KABKOT":"KOTA TANGERANG SELATAN","ID_KEC":"36.74.05","KECAMATAN":"CIPUTAT TIMUR","ID_DESA":"36.74.05.1002","DESA":"PONDOK RANJI","LONGITUDE":106.7448,"LATITUDE":-6.27667,"STATUS":"BUKA","TANGGAL PENGUMPULAN":"Q2 2024","TANGGAL UPDATE":"27/07/2025"}},{"type":"Feature","geometry":{"coordinates":[106.6656,-6.32019],"type":"Point"},"properties":{"NAMA":"STASIUN SERPONG","TIPE_1":"TRANSPORTASI","TIPE_2":"STASIUN","TIPE_3":"COMMUTER","TELEPON":"","ALAMAT":"JL. ST. SERPONG NO.1, SERPONG, KEC. SERPONG, KOTA TANGERANG SELATAN, BANTEN 15310","ID_PROV":"36","PROVINSI":"BANTEN","ID_KABKOT":"36.74","KABKOT":"KOTA TANGERANG SELATAN","ID_KEC":"36.74.01","KECAMATAN":"SERPONG","ID_DESA":"36.74.01.1009","DESA":"SERPONG","LONGITUDE":106.6656,"LATITUDE":-6.32019,"STATUS":"BUKA","TANGGAL PENGUMPULAN":"Q2 2024","TANGGAL UPDATE":"27/07/2025"}},{"type":"Feature","geometry":{"coordinates":[106.7128,-6.29669],"type":"Point"},"properties":{"NAMA":"STASIUN SUDIMARA","TIPE_1":"TRANSPORTASI","TIPE_2":"STASIUN","TIPE_3":"COMMUTER","TELEPON":"","ALAMAT":"SAWAH BARU, KEC. CIPUTAT, KOTA TANGERANG SELATAN, BANTEN","ID_PROV":"36","PROVINSI":"BANTEN","ID_KABKOT":"36.74","KABKOT":"KOTA TANGERANG SELATAN","ID_KEC":"36.74.04","KECAMATAN":"CIPUTAT","ID_DESA":"36.74.04.1006","DESA":"JOMBANG","LONGITUDE":106.7128,"LATITUDE":-6.29669,"STATUS":"BUKA","TANGGAL PENGUMPULAN":"Q2 2024","TANGGAL UPDATE":"27/07/2025"}},{"type":"Feature","geometry":{"coordinates":[106.7128,-6.29669],"type":"Point"},"properties":{"NAMA":"STASIUN SUDIMARA","TIPE_1":"TRANSPORTASI","TIPE_2":"STASIUN","TIPE_3":"KERETA API","TELEPON":"","ALAMAT":"SAWAH BARU, KEC. CIPUTAT, KOTA TANGERANG SELATAN, BANTEN","ID_PROV":"36","PROVINSI":"BANTEN","ID_KABKOT":"36.74","KABKOT":"KOTA TANGERANG SELATAN","ID_KEC":"36.74.04","KECAMATAN":"CIPUTAT","ID_DESA":"36.74.04.1006","DESA":"JOMBANG","LONGITUDE":106.7128,"LATITUDE":-6.29669,"STATUS":"BUKA","TANGGAL PENGUMPULAN":"Q2 2024","TANGGAL UPDATE":"27/07/2025"}},{"type":"Feature","geometry":{"coordinates":[106.7448,-6.27667],"type":"Point"},"properties":{"NAMA":"STASIUN PONDOK RANJI","TIPE_1":"TRANSPORTASI","TIPE_2":"STASIUN","TIPE_3":"KERETA API","TELEPON":"","ALAMAT":"RENGAS, KEC. CIPUTAT TIM., KOTA TANGERANG SELATAN, BANTEN 15412","ID_PROV":"36","PROVINSI":"BANTEN","ID_KABKOT":"36.74","KABKOT":"KOTA TANGERANG SELATAN","ID_KEC":"36.74.05","KECAMATAN":"CIPUTAT TIMUR","ID_DESA":"36.74.05.1002","DESA":"PONDOK RANJI","LONGITUDE":106.7448,"LATITUDE":-6.27667,"STATUS":"BUKA","TANGGAL PENGUMPULAN":"Q2 2024","TANGGAL UPDATE":"27/07/2025"}},{"type":"Feature","geometry":{"coordinates":[106.6656,-6.32019],"type":"Point"},"properties":{"NAMA":"STASIUN SERPONG","TIPE_1":"TRANSPORTASI","TIPE_2":"STASIUN","TIPE_3":"KERETA API","TELEPON":"","ALAMAT":"JL. PJKA NO.5-50, SERPONG, KEC. SERPONG, KOTA TANGERANG SELATAN, BANTEN 15310","ID_PROV":"36","PROVINSI":"BANTEN","ID_KABKOT":"36.74","KABKOT":"KOTA TANGERANG SELATAN","ID_KEC":"36.74.01","KECAMATAN":"SERPONG","ID_DESA":"36.74.01.1009","DESA":"SERPONG","LONGITUDE":106.6656,"LATITUDE":-6.32019,"STATUS":"BUKA","TANGGAL PENGUMPULAN":"Q2 2024","TANGGAL UPDATE":"27/07/2025"}}]}