{"type":"FeatureCollection","features":[{"type":"Feature","geometry":{"coordinates":[106.8216,-6.3913],"type":"Point"},"properties":{"NAMA":"STASIUN DEPOK BARU","TIPE_1":"TRANSPORTASI","TIPE_2":"STASIUN","TIPE_3":"KERETA API","TELEPON":"","ALAMAT":"DEPOK, KEC. PANCORAN MAS, KOTA DEPOK, JAWA BARAT","ID_PROV":"32","PROVINSI":"JAWA BARAT","ID_KABKOT":"32.76","KABKOT":"KOTA DEPOK","ID_KEC":"32.76.01","KECAMATAN":"PANCORAN MAS","ID_DESA":"32.76.01.1006","DESA":"DEPOK","LONGITUDE":106.8216,"LATITUDE":-6.3913,"STATUS":"BUKA","TANGGAL PENGUMPULAN":"Q2 2024","TANGGAL UPDATE":"27/07/2025"}},{"type":"Feature","geometry":{"coordinates":[106.8172,-6.40466],"type":"Point"},"properties":{"NAMA":"STASIUN DEPOK","TIPE_1":"TRANSPORTASI","TIPE_2":"STASIUN","TIPE_3":"COMMUTER","TELEPON":"","ALAMAT":"JL. BARU PLENONGAN NO.15, DEPOK, KEC. PANCORAN MAS, KOTA DEPOK, JAWA BARAT 16431","ID_PROV":"32","PROVINSI":"JAWA BARAT","ID_KABKOT":"32.76","KABKOT":"KOTA DEPOK","ID_KEC":"32.76.01","KECAMATAN":"PANCORAN MAS","ID_DESA":"32.76.01.1006","DESA":"DEPOK","LONGITUDE":106.8172,"LATITUDE":-6.40466,"STATUS":"BUKA","TANGGAL PENGUMPULAN":"Q2 2024","TANGGAL UPDATE":"27/07/2025"}},{"type":"Feature","geometry":{"coordinates":[106.8324,-6.3689],"type":"Point"},"properties":{"NAMA":"STASIUN PONDOK CINA","TIPE_1":"TRANSPORTASI","TIPE_2":"STASIUN","TIPE_3":"COMMUTER","TELEPON":"","ALAMAT":"JL. LKR. KAMPUS BLOK MAWAR NO.9, PONDOK CINA, KECAMATAN BEJI, KOTA DEPOK, JAWA BARAT 16424","ID_PROV":"32","PROVINSI":"JAWA BARAT","ID_KABKOT":"32.76","KABKOT":"KOTA DEPOK","ID_KEC":"32.76.06","KECAMATAN":"BEJI","ID_DESA":"32.76.06.1005","DESA":"PONDOK CINA","LONGITUDE":106.8324,"LATITUDE":-6.3689,"STATUS":"BUKA","TANGGAL PENGUMPULAN":"Q2 2024","TANGGAL UPDATE":"27/07/2025"}},{"type":"Feature","geometry":{"coordinates":[106.8324,-6.3689],"type":"Point"},"properties":{"NAMA":"STASIUN PONDOK CINA","TIPE_1":"TRANSPORTASI","TIPE_2":"STASIUN","TIPE_3":"KERETA API","TELEPON":"","ALAMAT":"JL. LKR. KAMPUS BLOK MAWAR NO.9, PONDOK CINA, KECAMATAN BEJI, KOTA DEPOK, JAWA BARAT 16424","ID_PROV":"32","PROVINSI":"JAWA BARAT","ID_KABKOT":"32.76","KABKOT":"KOTA DEPOK","ID_KEC":"32.76.06","KECAMATAN":"BEJI","ID_DESA":"32.76.06.1005","DESA":"PONDOK CINA","LONGITUDE":106.8324,"LATITUDE":-6.3689,"STATUS":"BUKA","TANGGAL PENGUMPULAN":"Q2 2024","TANGGAL UPDATE":"27/07/2025"}},{"type":"Feature","geometry":{"coordinates":[106.8955926,-6.3743183],"type":"Point"},"properties":{"NAMA":"STASIUN HARJAMUKTI","TIPE_1":"TRANSPORTASI","TIPE_2":"STASIUN","TIPE_3":"LRT","TELEPON":"","ALAMAT":"HARJAMUKTI, KEC. CIMANGGIS, KOTA DEPOK, JAWA BARAT 16454","ID_PROV":"32","PROVINSI":"JAWA BARAT","ID_KABKOT":"32.76","KABKOT":"KOTA DEPOK","ID_KEC":"32.76.02","KECAMATAN":"CIMANGGIS","ID_DESA":"32.76.02.1007","DESA":"HARJAMUKTI","LONGITUDE":106.8955926,"LATITUDE":-6.3743183,"STATUS":"BUKA","TANGGAL PENGUMPULAN":"Q2 2024","TANGGAL UPDATE":"27/07/2025"}},{"type":"Feature","geometry":{"coordinates":[106.8216,-6.3913],"type":"Point"},"properties":{"NAMA":"STASIUN DEPOK BARU","TIPE_1":"TRANSPORTASI","TIPE_2":"STASIUN","TIPE_3":"COMMUTER","TELEPON":"","ALAMAT":"KOTA DEPOK, JAWA BARAT","ID_PROV":"32","PROVINSI":"JAWA BARAT","ID_KABKOT":"32.76","KABKOT":"KOTA DEPOK","ID_KEC":"32.76.01","KECAMATAN":"PANCORAN MAS","ID_DESA":"32.76.01.1006","DESA":"DEPOK","LONGITUDE":106.8216,"LATITUDE":-6.3913,"STATUS":"BUKA","TANGGAL PENGUMPULAN":"Q2 2024","TANGGAL UPDATE":"27/07/2025"}},{"type":"Feature","geometry":{"coordinates":[106.8318,-6.36072],"type":"Point"},"properties":{"NAMA":"STASIUN UNIVERSITAS INDONESIA","TIPE_1":"TRANSPORTASI","TIPE_2":"STASIUN","TIPE_3":"COMMUTER","TELEPON":"","ALAMAT":"PONDOK CINA, KECAMATAN BEJI, KOTA DEPOK, JAWA BARAT","ID_PROV":"32","PROVINSI":"JAWA BARAT","ID_KABKOT":"32.76","KABKOT":"KOTA DEPOK","ID_KEC":"32.76.06","KECAMATAN":"BEJI","ID_DESA":"32.76.06.1005","DESA":"PONDOK CINA","LONGITUDE":106.8318,"LATITUDE":-6.36072,"STATUS":"BUKA","TANGGAL PENGUMPULAN":"Q2 2024","TANGGAL UPDATE":"27/07/2025"}},{"type":"Feature","geometry":{"coordinates":[106.8172,-6.40466],"type":"Point"},"properties":{"NAMA":"STASIUN DEPOK","TIPE_1":"TRANSPORTASI","TIPE_2":"STASIUN","TIPE_3":"KERETA API","TELEPON":"","ALAMAT":"GGS, JL. ST. DEPOK LAMA, DEPOK, KEC. PANCORAN MAS, KOTA DEPOK, JAWA BARAT 16431","ID_PROV":"32","PROVINSI":"JAWA BARAT","ID_KABKOT":"32.76","KABKOT":"KOTA DEPOK","ID_KEC":"32.76.01","KECAMATAN":"PANCORAN MAS","ID_DESA":"32.76.01.1006","DESA":"DEPOK","LONGITUDE":106.8172,"LATITUDE":-6.40466,"STATUS":"BUKA","TANGGAL PENGUMPULAN":"Q2 2024","TANGGAL UPDATE":"27/07/2025"}},{"type":"Feature","geometry":{"coordinates":[106.8318,-6.36072],"type":"Point"},"properties":{"NAMA":"STASIUN UNIVERSITAS INDONESIA","TIPE_1":"TRANSPORTASI","TIPE_2":"STASIUN","TIPE_3":"KERETA API","TELEPON":"","ALAMAT":"PONDOK CINA, KECAMATAN BEJI, KOTA DEPOK, JAWA BARAT","ID_PROV":"32","PROVINSI":"JAWA BARAT","ID_KABKOT":"32.76","KABKOT":"KOTA DEPOK","ID_KEC":"32.76.06","KECAMATAN":"BEJI","ID_DESA":"32.76.06.1005","DESA":"PONDOK CINA","LONGITUDE":106.8318,"LATITUDE":-6.36072,"STATUS":"BUKA","TANGGAL PENGUMPULAN":"Q2 2024","TANGGAL UPDATE":"27/07/2025"}}]}