{"type":"FeatureCollection","features":[{"type":"Feature","geometry":{"coordinates":[106.803,-6.74219],"type":"Point"},"properties":{"NAMA":"STASIUN CIGOMBONG","TIPE_1":"TRANSPORTASI","TIPE_2":"STASIUN","TIPE_3":"KERETA API","TELEPON":"","ALAMAT":"CIGOMBONG, KEC. CIGOMBONG, KABUPATEN BOGOR, JAWA BARAT","ID_PROV":"32","PROVINSI":"JAWA BARAT","ID_KABKOT":"32.01","KABKOT":"BOGOR","ID_KEC":"32.01.38","KECAMATAN":"CIGOMBONG","ID_DESA":"32.01.38.2001","DESA":"CIGOMBONG","LONGITUDE":106.803,"LATITUDE":-6.74219,"STATUS":"BUKA","TANGGAL PENGUMPULAN":"Q2 2024","TANGGAL UPDATE":"27/07/2025"}},{"type":"Feature","geometry":{"coordinates":[106.8146,-6.70239],"type":"Point"},"properties":{"NAMA":"STASIUN MASENG","TIPE_1":"TRANSPORTASI","TIPE_2":"STASIUN","TIPE_3":"KERETA API","TELEPON":"","ALAMAT":"CIADEG, KEC. CIGOMBONG, KABUPATEN BOGOR, JAWA BARAT 16740","ID_PROV":"32","PROVINSI":"JAWA BARAT","ID_KABKOT":"32.01","KABKOT":"BOGOR","ID_KEC":"32.01.28","KECAMATAN":"CIJERUK","ID_DESA":"32.01.28.2003","DESA":"WARUNG MENTENG","LONGITUDE":106.8146,"LATITUDE":-6.70239,"STATUS":"BUKA","TANGGAL PENGUMPULAN":"Q2 2024","TANGGAL UPDATE":"27/07/2025"}},{"type":"Feature","geometry":{"coordinates":[106.8006,-6.53052],"type":"Point"},"properties":{"NAMA":"STASIUN CILEBUT","TIPE_1":"TRANSPORTASI","TIPE_2":"STASIUN","TIPE_3":"COMMUTER","TELEPON":"","ALAMAT":"CILEBUT TIM., KEC. SUKARAJA, KABUPATEN BOGOR, JAWA BARAT","ID_PROV":"32","PROVINSI":"JAWA BARAT","ID_KABKOT":"32.01","KABKOT":"BOGOR","ID_KEC":"32.01.04","KECAMATAN":"SUKARAJA","ID_DESA":"32.01.04.2002","DESA":"CILEBUT TIMUR","LONGITUDE":106.8006,"LATITUDE":-6.53052,"STATUS":"BUKA","TANGGAL PENGUMPULAN":"Q2 2024","TANGGAL UPDATE":"27/07/2025"}},{"type":"Feature","geometry":{"coordinates":[106.8548,-6.46381],"type":"Point"},"properties":{"NAMA":"STASIUN CIBINONG","TIPE_1":"TRANSPORTASI","TIPE_2":"STASIUN","TIPE_3":"COMMUTER","TELEPON":"","ALAMAT":"JL. KB. KOPI JL. PADURENAN NO.BLOK, PABUARAN, KEC. CIBINONG, KABUPATEN BOGOR, JAWA BARAT 16916","ID_PROV":"32","PROVINSI":"JAWA BARAT","ID_KABKOT":"32.01","KABKOT":"BOGOR","ID_KEC":"32.01.01","KECAMATAN":"CIBINONG","ID_DESA":"32.01.01.1012","DESA":"PABUARAN","LONGITUDE":106.8548,"LATITUDE":-6.46381,"STATUS":"BUKA","TANGGAL PENGUMPULAN":"Q2 2024","TANGGAL UPDATE":"27/07/2025"}},{"type":"Feature","geometry":{"coordinates":[106.5688,-6.34418],"type":"Point"},"properties":{"NAMA":"STASIUN PARUNG PANJANG","TIPE_1":"TRANSPORTASI","TIPE_2":"STASIUN","TIPE_3":"COMMUTER","TELEPON":"","ALAMAT":"JL. MARGA MEKAR NO.54 16360, PARUNG PANJANG, KEC. PARUNG PANJANG, KABUPATEN BOGOR, JAWA BARAT 16360","ID_PROV":"32","PROVINSI":"JAWA BARAT","ID_KABKOT":"32.01","KABKOT":"BOGOR","ID_KEC":"32.01.20","KECAMATAN":"PARUNG PANJANG","ID_DESA":"32.01.20.2006","DESA":"PARUNGPANJANG","LONGITUDE":106.5688,"LATITUDE":-6.34418,"STATUS":"BUKA","TANGGAL PENGUMPULAN":"Q2 2024","TANGGAL UPDATE":"27/07/2025"}},{"type":"Feature","geometry":{"coordinates":[106.5688,-6.34418],"type":"Point"},"properties":{"NAMA":"STASIUN PARUNG PANJANG","TIPE_1":"TRANSPORTASI","TIPE_2":"STASIUN","TIPE_3":"KERETA API","TELEPON":"","ALAMAT":"JL. MARGA MEKAR NO.54 16360, PARUNG PANJANG, KEC. PARUNG PANJANG, KABUPATEN BOGOR, JAWA BARAT 16360","ID_PROV":"32","PROVINSI":"JAWA BARAT","ID_KABKOT":"32.01","KABKOT":"BOGOR","ID_KEC":"32.01.20","KECAMATAN":"PARUNG PANJANG","ID_DESA":"32.01.20.2006","DESA":"PARUNGPANJANG","LONGITUDE":106.5688,"LATITUDE":-6.34418,"STATUS":"BUKA","TANGGAL PENGUMPULAN":"Q2 2024","TANGGAL UPDATE":"27/07/2025"}},{"type":"Feature","geometry":{"coordinates":[106.8024,-6.44897],"type":"Point"},"properties":{"NAMA":"STASIUN CITAYAM","TIPE_1":"TRANSPORTASI","TIPE_2":"STASIUN","TIPE_3":"COMMUTER","TELEPON":"","ALAMAT":"JL. RAYA MAJA, MAJA, KEC. KOPO, KABUPATEN SERANG, BANTEN 42381","ID_PROV":"32","PROVINSI":"JAWA BARAT","ID_KABKOT":"32.01","KABKOT":"BOGOR","ID_KEC":"32.01.13","KECAMATAN":"BOJONG GEDE","ID_DESA":"32.01.13.1007","DESA":"PABUARAN","LONGITUDE":106.8024,"LATITUDE":-6.44897,"STATUS":"BUKA","TANGGAL PENGUMPULAN":"Q2 2024","TANGGAL UPDATE":"27/07/2025"}},{"type":"Feature","geometry":{"coordinates":[106.909,-6.46509],"type":"Point"},"properties":{"NAMA":"STASIUN NAMBO","TIPE_1":"TRANSPORTASI","TIPE_2":"STASIUN","TIPE_3":"COMMUTER","TELEPON":"","ALAMAT":"JL. RAYA NAMBO, BANTAR JATI, KEC. KLAPANUNGGAL, KABUPATEN BOGOR, JAWA BARAT 16710","ID_PROV":"32","PROVINSI":"JAWA BARAT","ID_KABKOT":"32.01","KABKOT":"BOGOR","ID_KEC":"32.01.32","KECAMATAN":"KLAPANUNGGAL","ID_DESA":"32.01.32.2007","DESA":"BANTAR JATI","LONGITUDE":106.909,"LATITUDE":-6.46509,"STATUS":"BUKA","TANGGAL PENGUMPULAN":"Q2 2024","TANGGAL UPDATE":"27/07/2025"}},{"type":"Feature","geometry":{"coordinates":[106.909,-6.46509],"type":"Point"},"properties":{"NAMA":"STASIUN NAMBO","TIPE_1":"TRANSPORTASI","TIPE_2":"STASIUN","TIPE_3":"KERETA API","TELEPON":"","ALAMAT":"JL. RAYA NAMBO, BANTAR JATI, KEC. KLAPANUNGGAL, KABUPATEN BOGOR, JAWA BARAT 16710","ID_PROV":"32","PROVINSI":"JAWA BARAT","ID_KABKOT":"32.01","KABKOT":"BOGOR","ID_KEC":"32.01.32","KECAMATAN":"KLAPANUNGGAL","ID_DESA":"32.01.32.2007","DESA":"BANTAR JATI","LONGITUDE":106.909,"LATITUDE":-6.46509,"STATUS":"BUKA","TANGGAL PENGUMPULAN":"Q2 2024","TANGGAL UPDATE":"27/07/2025"}},{"type":"Feature","geometry":{"coordinates":[106.7948,-6.49268],"type":"Point"},"properties":{"NAMA":"STASIUN BOJONG GEDE","TIPE_1":"TRANSPORTASI","TIPE_2":"STASIUN","TIPE_3":"COMMUTER","TELEPON":"","ALAMAT":"JL. SETAPAK, BOJONGGEDE, KECAMATAN BOJONGGEDE, KABUPATEN BOGOR, JAWA BARAT 16923","ID_PROV":"32","PROVINSI":"JAWA BARAT","ID_KABKOT":"32.01","KABKOT":"BOGOR","ID_KEC":"32.01.13","KECAMATAN":"BOJONG GEDE","ID_DESA":"32.01.13.2005","DESA":"KEDUNGWARINGIN","LONGITUDE":106.7948,"LATITUDE":-6.49268,"STATUS":"BUKA","TANGGAL PENGUMPULAN":"Q2 2024","TANGGAL UPDATE":"27/07/2025"}},{"type":"Feature","geometry":{"coordinates":[106.909,-6.46509],"type":"Point"},"properties":{"NAMA":"STASIUN NAMBO","TIPE_1":"TRANSPORTASI","TIPE_2":"STASIUN","TIPE_3":"LOGISTIK","TELEPON":"","ALAMAT":"KAB. BOGOR, JAWA BARAT","ID_PROV":"32","PROVINSI":"JAWA BARAT","ID_KABKOT":"32.01","KABKOT":"BOGOR","ID_KEC":"32.01.32","KECAMATAN":"KLAPANUNGGAL","ID_DESA":"32.01.32.2007","DESA":"BANTAR JATI","LONGITUDE":106.909,"LATITUDE":-6.46509,"STATUS":"BUKA","TANGGAL PENGUMPULAN":"Q2 2024","TANGGAL UPDATE":"27/07/2025"}},{"type":"Feature","geometry":{"coordinates":[106.8006,-6.53052],"type":"Point"},"properties":{"NAMA":"STASIUN CILEBUT","TIPE_1":"TRANSPORTASI","TIPE_2":"STASIUN","TIPE_3":"KERETA API","TELEPON":"","ALAMAT":"ST. CILEBUT, CILEBUT TIM., KEC. SUKARAJA, KABUPATEN BOGOR, JAWA BARAT 16710","ID_PROV":"32","PROVINSI":"JAWA BARAT","ID_KABKOT":"32.01","KABKOT":"BOGOR","ID_KEC":"32.01.04","KECAMATAN":"SUKARAJA","ID_DESA":"32.01.04.2002","DESA":"CILEBUT TIMUR","LONGITUDE":106.8006,"LATITUDE":-6.53052,"STATUS":"BUKA","TANGGAL PENGUMPULAN":"Q2 2024","TANGGAL UPDATE":"27/07/2025"}},{"type":"Feature","geometry":{"coordinates":[106.7948,-6.49268],"type":"Point"},"properties":{"NAMA":"STASIUN BOJONG GEDE","TIPE_1":"TRANSPORTASI","TIPE_2":"STASIUN","TIPE_3":"KERETA API","TELEPON":"","ALAMAT":"JL. RAYA BOJONG GEDE, BOJONGGEDE, KECAMATAN BOJONGGEDE, KABUPATEN BOGOR, JAWA BARAT 16922","ID_PROV":"32","PROVINSI":"JAWA BARAT","ID_KABKOT":"32.01","KABKOT":"BOGOR","ID_KEC":"32.01.13","KECAMATAN":"BOJONG GEDE","ID_DESA":"32.01.13.2005","DESA":"KEDUNGWARINGIN","LONGITUDE":106.7948,"LATITUDE":-6.49268,"STATUS":"BUKA","TANGGAL PENGUMPULAN":"Q2 2024","TANGGAL UPDATE":"27/07/2025"}},{"type":"Feature","geometry":{"coordinates":[106.8548,-6.46381],"type":"Point"},"properties":{"NAMA":"STASIUN CIBINONG","TIPE_1":"TRANSPORTASI","TIPE_2":"STASIUN","TIPE_3":"KERETA API","TELEPON":"","ALAMAT":"JL. KB. KOPI JL. PADURENAN NO.BLOK, PABUARAN, KEC. CIBINONG, KABUPATEN BOGOR, JAWA BARAT 16916","ID_PROV":"32","PROVINSI":"JAWA BARAT","ID_KABKOT":"32.01","KABKOT":"BOGOR","ID_KEC":"32.01.01","KECAMATAN":"CIBINONG","ID_DESA":"32.01.01.1012","DESA":"PABUARAN","LONGITUDE":106.8548,"LATITUDE":-6.46381,"STATUS":"BUKA","TANGGAL PENGUMPULAN":"Q2 2024","TANGGAL UPDATE":"27/07/2025"}},{"type":"Feature","geometry":{"coordinates":[106.8024,-6.44897],"type":"Point"},"properties":{"NAMA":"STASIUN CITAYAM","TIPE_1":"TRANSPORTASI","TIPE_2":"STASIUN","TIPE_3":"KERETA API","TELEPON":"","ALAMAT":"PABUARAN, KECAMATAN BOJONGGEDE, KABUPATEN BOGOR, JAWA BARAT","ID_PROV":"32","PROVINSI":"JAWA BARAT","ID_KABKOT":"32.01","KABKOT":"BOGOR","ID_KEC":"32.01.13","KECAMATAN":"BOJONG GEDE","ID_DESA":"32.01.13.1007","DESA":"PABUARAN","LONGITUDE":106.8024,"LATITUDE":-6.44897,"STATUS":"BUKA","TANGGAL PENGUMPULAN":"Q2 2024","TANGGAL UPDATE":"27/07/2025"}},{"type":"Feature","geometry":{"coordinates":[106.462,-6.32758],"type":"Point"},"properties":{"NAMA":"STASIUN TENJO","TIPE_1":"TRANSPORTASI","TIPE_2":"STASIUN","TIPE_3":"KERETA API","TELEPON":"","ALAMAT":"TENJO, BOGOR, JAWA BARAT, INDONESIA|JL. RAYA TENJO, TENJO, JAWA BARAT","ID_PROV":"32","PROVINSI":"JAWA BARAT","ID_KABKOT":"32.01","KABKOT":"BOGOR","ID_KEC":"32.01.23","KECAMATAN":"TENJO","ID_DESA":"32.01.23.2005","DESA":"TENJO","LONGITUDE":106.462,"LATITUDE":-6.32758,"STATUS":"BUKA","TANGGAL PENGUMPULAN":"Q2 2024","TANGGAL UPDATE":"27/07/2025"}},{"type":"Feature","geometry":{"coordinates":[106.5096,-6.35431],"type":"Point"},"properties":{"NAMA":"STASIUN CILEJIT","TIPE_1":"TRANSPORTASI","TIPE_2":"STASIUN","TIPE_3":"COMMUTER","TELEPON":"","ALAMAT":"TABAN, JAMBE, TANGERANG, BANTEN, INDONESIA, JAWA BARAT","ID_PROV":"32","PROVINSI":"JAWA BARAT","ID_KABKOT":"32.01","KABKOT":"BOGOR","ID_KEC":"32.01.23","KECAMATAN":"TENJO","ID_DESA":"32.01.23.2003","DESA":"BATOK","LONGITUDE":106.5096,"LATITUDE":-6.35431,"STATUS":"BUKA","TANGGAL PENGUMPULAN":"Q2 2024","TANGGAL UPDATE":"27/07/2025"}},{"type":"Feature","geometry":{"coordinates":[106.5096,-6.35431],"type":"Point"},"properties":{"NAMA":"STASIUN CILEJIT","TIPE_1":"TRANSPORTASI","TIPE_2":"STASIUN","TIPE_3":"KERETA API","TELEPON":"","ALAMAT":"TABAN, JAMBE, TANGERANG, BANTEN, INDONESIA, JAWA BARAT","ID_PROV":"32","PROVINSI":"JAWA BARAT","ID_KABKOT":"32.01","KABKOT":"BOGOR","ID_KEC":"32.01.23","KECAMATAN":"TENJO","ID_DESA":"32.01.23.2003","DESA":"BATOK","LONGITUDE":106.5096,"LATITUDE":-6.35431,"STATUS":"BUKA","TANGGAL PENGUMPULAN":"Q2 2024","TANGGAL UPDATE":"27/07/2025"}},{"type":"Feature","geometry":{"coordinates":[106.462,-6.32758],"type":"Point"},"properties":{"NAMA":"STASIUN TENJO","TIPE_1":"TRANSPORTASI","TIPE_2":"STASIUN","TIPE_3":"COMMUTER","TELEPON":"","ALAMAT":"TENJO, BOGOR, JAWA BARAT, INDONESIA|JL. RAYA TENJO, TENJO, JAWA BARAT","ID_PROV":"32","PROVINSI":"JAWA BARAT","ID_KABKOT":"32.01","KABKOT":"BOGOR","ID_KEC":"32.01.23","KECAMATAN":"TENJO","ID_DESA":"32.01.23.2005","DESA":"TENJO","LONGITUDE":106.462,"LATITUDE":-6.32758,"STATUS":"BUKA","TANGGAL PENGUMPULAN":"Q2 2024","TANGGAL UPDATE":"27/07/2025"}}]}