{"type":"FeatureCollection","features":[{"type":"Feature","geometry":{"coordinates":[106.7366,-6.15997],"type":"Point"},"properties":{"NAMA":"STASIUN BOJONG INDAH","TIPE_1":"TRANSPORTASI","TIPE_2":"STASIUN","TIPE_3":"COMMUTER","TELEPON":"","ALAMAT":"84, JL. BOJONG INDAH RAYA NO.RT 004, RT.10/RW.2, RAWA BUAYA, CENGKARENG, WEST JAKARTA CITY, JAKARTA 11740","ID_PROV":"31","PROVINSI":"DKI JAKARTA","ID_KABKOT":"31.73","KABKOT":"KOTA ADM. JAKARTA BARAT","ID_KEC":"31.73.01","KECAMATAN":"CENGKARENG","ID_DESA":"31.73.01.1003","DESA":"RAWA BUAYA","LONGITUDE":106.7366,"LATITUDE":-6.15997,"STATUS":"BUKA","TANGGAL PENGUMPULAN":"Q2 2024","TANGGAL UPDATE":"27/07/2025"}},{"type":"Feature","geometry":{"coordinates":[106.7236,-6.1626],"type":"Point"},"properties":{"NAMA":"STASIUN RAWA BUAYA","TIPE_1":"TRANSPORTASI","TIPE_2":"STASIUN","TIPE_3":"COMMUTER","TELEPON":"","ALAMAT":"DURI KOSAMBI, KECAMATAN CENGKARENG, KOTA JAKARTA BARAT, DAERAH KHUSUS IBUKOTA JAKARTA","ID_PROV":"31","PROVINSI":"DKI JAKARTA","ID_KABKOT":"31.73","KABKOT":"KOTA ADM. JAKARTA BARAT","ID_KEC":"31.73.01","KECAMATAN":"CENGKARENG","ID_DESA":"31.73.01.1002","DESA":"DURI KOSAMBI","LONGITUDE":106.7236,"LATITUDE":-6.1626,"STATUS":"BUKA","TANGGAL PENGUMPULAN":"Q2 2024","TANGGAL UPDATE":"27/07/2025"}},{"type":"Feature","geometry":{"coordinates":[106.772,-6.16119],"type":"Point"},"properties":{"NAMA":"STASIUN PESING","TIPE_1":"TRANSPORTASI","TIPE_2":"STASIUN","TIPE_3":"COMMUTER","TELEPON":"","ALAMAT":"JAKARTA BARAT, RT.5/RW.3, WIJAYA KUSUMA, KEC. GROGOL PETAMBURAN","ID_PROV":"31","PROVINSI":"DKI JAKARTA","ID_KABKOT":"31.73","KABKOT":"KOTA ADM. JAKARTA BARAT","ID_KEC":"31.73.02","KECAMATAN":"GROGOL PETAMBURAN","ID_DESA":"31.73.02.1007","DESA":"WIJAYA KUSUMA","LONGITUDE":106.772,"LATITUDE":-6.16119,"STATUS":"BUKA","TANGGAL PENGUMPULAN":"Q2 2024","TANGGAL UPDATE":"27/07/2025"}},{"type":"Feature","geometry":{"coordinates":[106.772,-6.16119],"type":"Point"},"properties":{"NAMA":"STASIUN PESING","TIPE_1":"TRANSPORTASI","TIPE_2":"STASIUN","TIPE_3":"KERETA API","TELEPON":"","ALAMAT":"JAKARTA BARAT, RT.5/RW.3, WIJAYA KUSUMA, KEC. GROGOL PETAMBURAN","ID_PROV":"31","PROVINSI":"DKI JAKARTA","ID_KABKOT":"31.73","KABKOT":"KOTA ADM. JAKARTA BARAT","ID_KEC":"31.73.02","KECAMATAN":"GROGOL PETAMBURAN","ID_DESA":"31.73.02.1007","DESA":"WIJAYA KUSUMA","LONGITUDE":106.772,"LATITUDE":-6.16119,"STATUS":"BUKA","TANGGAL PENGUMPULAN":"Q2 2024","TANGGAL UPDATE":"27/07/2025"}},{"type":"Feature","geometry":{"coordinates":[106.8166,-6.1366],"type":"Point"},"properties":{"NAMA":"STASIUN JAKARTA KOTA","TIPE_1":"TRANSPORTASI","TIPE_2":"STASIUN","TIPE_3":"COMMUTER","TELEPON":"","ALAMAT":"JAKARTA KOTA, JL. LADA, PINANGSIA, KEC. TAMAN SARI, KOTA JAKARTA BARAT, DAERAH KHUSUS IBUKOTA JAKARTA 11110","ID_PROV":"31","PROVINSI":"DKI JAKARTA","ID_KABKOT":"31.73","KABKOT":"KOTA ADM. JAKARTA BARAT","ID_KEC":"31.73.03","KECAMATAN":"TAMAN SARI","ID_DESA":"31.73.03.1008","DESA":"PINANGSIA","LONGITUDE":106.8166,"LATITUDE":-6.1366,"STATUS":"BUKA","TANGGAL PENGUMPULAN":"Q2 2024","TANGGAL UPDATE":"27/07/2025"}},{"type":"Feature","geometry":{"coordinates":[106.8276,-6.16058],"type":"Point"},"properties":{"NAMA":"STASIUN SAWAH BESAR","TIPE_1":"TRANSPORTASI","TIPE_2":"STASIUN","TIPE_3":"COMMUTER","TELEPON":"","ALAMAT":"JALAN KREKOT RAYA NO.6, PS. BARU, KECAMATAN SAWAH BESAR, KOTA JAKARTA PUSAT, DAERAH KHUSUS IBUKOTA JAKARTA 11160","ID_PROV":"31","PROVINSI":"DKI JAKARTA","ID_KABKOT":"31.73","KABKOT":"KOTA ADM. JAKARTA BARAT","ID_KEC":"31.73.03","KECAMATAN":"TAMAN SARI","ID_DESA":"31.73.03.1003","DESA":"MAPHAR","LONGITUDE":106.8276,"LATITUDE":-6.16058,"STATUS":"BUKA","TANGGAL PENGUMPULAN":"Q2 2024","TANGGAL UPDATE":"27/07/2025"}},{"type":"Feature","geometry":{"coordinates":[106.8008,-6.14471],"type":"Point"},"properties":{"NAMA":"STASIUN ANGKE","TIPE_1":"TRANSPORTASI","TIPE_2":"STASIUN","TIPE_3":"COMMUTER","TELEPON":"","ALAMAT":"JEMB. LIMA, KEC. TAMBORA, KOTA JAKARTA BARAT, DAERAH KHUSUS IBUKOTA JAKARTA","ID_PROV":"31","PROVINSI":"DKI JAKARTA","ID_KABKOT":"31.73","KABKOT":"KOTA ADM. JAKARTA BARAT","ID_KEC":"31.73.04","KECAMATAN":"TAMBORA","ID_DESA":"31.73.04.1008","DESA":"JEMBATAN LIMA","LONGITUDE":106.8008,"LATITUDE":-6.14471,"STATUS":"BUKA","TANGGAL PENGUMPULAN":"Q2 2024","TANGGAL UPDATE":"27/07/2025"}},{"type":"Feature","geometry":{"coordinates":[106.8008,-6.14471],"type":"Point"},"properties":{"NAMA":"STASIUN ANGKE","TIPE_1":"TRANSPORTASI","TIPE_2":"STASIUN","TIPE_3":"KERETA API","TELEPON":"","ALAMAT":"JEMB. LIMA, KEC. TAMBORA, KOTA JAKARTA BARAT, DAERAH KHUSUS IBUKOTA JAKARTA","ID_PROV":"31","PROVINSI":"DKI JAKARTA","ID_KABKOT":"31.73","KABKOT":"KOTA ADM. JAKARTA BARAT","ID_KEC":"31.73.04","KECAMATAN":"TAMBORA","ID_DESA":"31.73.04.1008","DESA":"JEMBATAN LIMA","LONGITUDE":106.8008,"LATITUDE":-6.14471,"STATUS":"BUKA","TANGGAL PENGUMPULAN":"Q2 2024","TANGGAL UPDATE":"27/07/2025"}},{"type":"Feature","geometry":{"coordinates":[106.8016,-6.15588],"type":"Point"},"properties":{"NAMA":"STASIUN DURI","TIPE_1":"TRANSPORTASI","TIPE_2":"STASIUN","TIPE_3":"KERETA API","TELEPON":"","ALAMAT":"JL. DURI UTARA, DURI UTARA, KEC. TAMBORA, KOTA JAKARTA BARAT, DAERAH KHUSUS IBUKOTA JAKARTA 11270","ID_PROV":"31","PROVINSI":"DKI JAKARTA","ID_KABKOT":"31.73","KABKOT":"KOTA ADM. JAKARTA BARAT","ID_KEC":"31.73.04","KECAMATAN":"TAMBORA","ID_DESA":"31.73.04.1003","DESA":"DURI UTARA","LONGITUDE":106.8016,"LATITUDE":-6.15588,"STATUS":"BUKA","TANGGAL PENGUMPULAN":"Q2 2024","TANGGAL UPDATE":"27/07/2025"}},{"type":"Feature","geometry":{"coordinates":[106.7034,-6.16608],"type":"Point"},"properties":{"NAMA":"STASIUN KALIDERES","TIPE_1":"TRANSPORTASI","TIPE_2":"STASIUN","TIPE_3":"COMMUTER","TELEPON":"","ALAMAT":"JL. GAGA, SEMANAN, KEC. KALIDERES, KOTA JAKARTA BARAT, DAERAH KHUSUS IBUKOTA JAKARTA 11850","ID_PROV":"31","PROVINSI":"DKI JAKARTA","ID_KABKOT":"31.73","KABKOT":"KOTA ADM. JAKARTA BARAT","ID_KEC":"31.73.06","KECAMATAN":"KALIDERES","ID_DESA":"31.73.06.1002","DESA":"SEMANAN","LONGITUDE":106.7034,"LATITUDE":-6.16608,"STATUS":"BUKA","TANGGAL PENGUMPULAN":"Q2 2024","TANGGAL UPDATE":"27/07/2025"}},{"type":"Feature","geometry":{"coordinates":[106.7034,-6.16608],"type":"Point"},"properties":{"NAMA":"STASIUN KALIDERES","TIPE_1":"TRANSPORTASI","TIPE_2":"STASIUN","TIPE_3":"KERETA API","TELEPON":"","ALAMAT":"JL. GAGA, SEMANAN, KEC. KALIDERES, KOTA JAKARTA BARAT, DAERAH KHUSUS IBUKOTA JAKARTA 11850","ID_PROV":"31","PROVINSI":"DKI JAKARTA","ID_KABKOT":"31.73","KABKOT":"KOTA ADM. JAKARTA BARAT","ID_KEC":"31.73.06","KECAMATAN":"KALIDERES","ID_DESA":"31.73.06.1002","DESA":"SEMANAN","LONGITUDE":106.7034,"LATITUDE":-6.16608,"STATUS":"BUKA","TANGGAL PENGUMPULAN":"Q2 2024","TANGGAL UPDATE":"27/07/2025"}},{"type":"Feature","geometry":{"coordinates":[106.823,-6.1413],"type":"Point"},"properties":{"NAMA":"STASIUN JAYAKARTA","TIPE_1":"TRANSPORTASI","TIPE_2":"STASIUN","TIPE_3":"COMMUTER","TELEPON":"","ALAMAT":"JL. PANGERAN JAYAKARTA NO.28, MANGGA DUA SEL., KECAMATAN SAWAH BESAR, KOTA JAKARTA PUSAT, DAERAH KHUSUS IBUKOTA JAKARTA 11110","ID_PROV":"31","PROVINSI":"DKI JAKARTA","ID_KABKOT":"31.73","KABKOT":"KOTA ADM. JAKARTA BARAT","ID_KEC":"31.73.03","KECAMATAN":"TAMAN SARI","ID_DESA":"31.73.03.1008","DESA":"PINANGSIA","LONGITUDE":106.823,"LATITUDE":-6.1413,"STATUS":"BUKA","TANGGAL PENGUMPULAN":"Q2 2024","TANGGAL UPDATE":"27/07/2025"}},{"type":"Feature","geometry":{"coordinates":[106.8016,-6.15588],"type":"Point"},"properties":{"NAMA":"STASIUN DURI","TIPE_1":"TRANSPORTASI","TIPE_2":"STASIUN","TIPE_3":"COMMUTER","TELEPON":"","ALAMAT":"KALI ANYAR, KEC. TAMBORA, KOTA JAKARTA BARAT, DAERAH KHUSUS IBUKOTA JAKARTA","ID_PROV":"31","PROVINSI":"DKI JAKARTA","ID_KABKOT":"31.73","KABKOT":"KOTA ADM. JAKARTA BARAT","ID_KEC":"31.73.04","KECAMATAN":"TAMBORA","ID_DESA":"31.73.04.1003","DESA":"DURI UTARA","LONGITUDE":106.8016,"LATITUDE":-6.15588,"STATUS":"BUKA","TANGGAL PENGUMPULAN":"Q2 2024","TANGGAL UPDATE":"27/07/2025"}},{"type":"Feature","geometry":{"coordinates":[106.7566,-6.15857],"type":"Point"},"properties":{"NAMA":"STASIUN TAMAN KOTA","TIPE_1":"TRANSPORTASI","TIPE_2":"STASIUN","TIPE_3":"COMMUTER","TELEPON":"","ALAMAT":"KEDAUNG KALI ANGKE, KECAMATAN CENGKARENG, KOTA JAKARTA BARAT, DAERAH KHUSUS IBUKOTA JAKARTA","ID_PROV":"31","PROVINSI":"DKI JAKARTA","ID_KABKOT":"31.73","KABKOT":"KOTA ADM. JAKARTA BARAT","ID_KEC":"31.73.01","KECAMATAN":"CENGKARENG","ID_DESA":"31.73.01.1004","DESA":"KEDAUNG KALI ANGKE","LONGITUDE":106.7566,"LATITUDE":-6.15857,"STATUS":"BUKA","TANGGAL PENGUMPULAN":"Q2 2024","TANGGAL UPDATE":"27/07/2025"}},{"type":"Feature","geometry":{"coordinates":[106.7366,-6.15997],"type":"Point"},"properties":{"NAMA":"STASIUN BOJONG INDAH","TIPE_1":"TRANSPORTASI","TIPE_2":"STASIUN","TIPE_3":"KERETA API","TELEPON":"","ALAMAT":"RW. BUAYA, KECAMATAN CENGKARENG, KOTA JAKARTA BARAT, DAERAH KHUSUS IBUKOTA JAKARTA","ID_PROV":"31","PROVINSI":"DKI JAKARTA","ID_KABKOT":"31.73","KABKOT":"KOTA ADM. JAKARTA BARAT","ID_KEC":"31.73.01","KECAMATAN":"CENGKARENG","ID_DESA":"31.73.01.1003","DESA":"RAWA BUAYA","LONGITUDE":106.7366,"LATITUDE":-6.15997,"STATUS":"BUKA","TANGGAL PENGUMPULAN":"Q2 2024","TANGGAL UPDATE":"27/07/2025"}},{"type":"Feature","geometry":{"coordinates":[106.8166,-6.1366],"type":"Point"},"properties":{"NAMA":"STASIUN JAKARTA KOTA","TIPE_1":"TRANSPORTASI","TIPE_2":"STASIUN","TIPE_3":"KERETA API","TELEPON":"","ALAMAT":"JAKARTA KOTA, JL. LADA, PINANGSIA, TAMAN SARI, WEST JAKARTA CITY, JAKARTA 11110","ID_PROV":"31","PROVINSI":"DKI JAKARTA","ID_KABKOT":"31.73","KABKOT":"KOTA ADM. JAKARTA BARAT","ID_KEC":"31.73.03","KECAMATAN":"TAMAN SARI","ID_DESA":"31.73.03.1008","DESA":"PINANGSIA","LONGITUDE":106.8166,"LATITUDE":-6.1366,"STATUS":"BUKA","TANGGAL PENGUMPULAN":"Q2 2024","TANGGAL UPDATE":"27/07/2025"}},{"type":"Feature","geometry":{"coordinates":[106.823,-6.1413],"type":"Point"},"properties":{"NAMA":"STASIUN JAYAKARTA","TIPE_1":"TRANSPORTASI","TIPE_2":"STASIUN","TIPE_3":"KERETA API","TELEPON":"","ALAMAT":"JL. PANGERAN JAYAKARTA NO.28, MANGGA DUA SEL., KECAMATAN SAWAH BESAR, KOTA JAKARTA PUSAT, DAERAH KHUSUS IBUKOTA JAKARTA 11110","ID_PROV":"31","PROVINSI":"DKI JAKARTA","ID_KABKOT":"31.73","KABKOT":"KOTA ADM. JAKARTA BARAT","ID_KEC":"31.73.03","KECAMATAN":"TAMAN SARI","ID_DESA":"31.73.03.1008","DESA":"PINANGSIA","LONGITUDE":106.823,"LATITUDE":-6.1413,"STATUS":"BUKA","TANGGAL PENGUMPULAN":"Q2 2024","TANGGAL UPDATE":"27/07/2025"}},{"type":"Feature","geometry":{"coordinates":[106.7236,-6.1626],"type":"Point"},"properties":{"NAMA":"STASIUN RAWA BUAYA","TIPE_1":"TRANSPORTASI","TIPE_2":"STASIUN","TIPE_3":"KERETA API","TELEPON":"","ALAMAT":"DURI KOSAMBI, KECAMATAN CENGKARENG, KOTA JAKARTA BARAT, DAERAH KHUSUS IBUKOTA JAKARTA","ID_PROV":"31","PROVINSI":"DKI JAKARTA","ID_KABKOT":"31.73","KABKOT":"KOTA ADM. JAKARTA BARAT","ID_KEC":"31.73.01","KECAMATAN":"CENGKARENG","ID_DESA":"31.73.01.1002","DESA":"DURI KOSAMBI","LONGITUDE":106.7236,"LATITUDE":-6.1626,"STATUS":"BUKA","TANGGAL PENGUMPULAN":"Q2 2024","TANGGAL UPDATE":"27/07/2025"}},{"type":"Feature","geometry":{"coordinates":[106.8276,-6.16058],"type":"Point"},"properties":{"NAMA":"STASIUN SAWAH BESAR","TIPE_1":"TRANSPORTASI","TIPE_2":"STASIUN","TIPE_3":"KERETA API","TELEPON":"","ALAMAT":"JALAN KREKOT RAYA NO.6, PS. BARU, KECAMATAN SAWAH BESAR, KOTA JAKARTA PUSAT, DAERAH KHUSUS IBUKOTA JAKARTA 11160","ID_PROV":"31","PROVINSI":"DKI JAKARTA","ID_KABKOT":"31.73","KABKOT":"KOTA ADM. JAKARTA BARAT","ID_KEC":"31.73.03","KECAMATAN":"TAMAN SARI","ID_DESA":"31.73.03.1003","DESA":"MAPHAR","LONGITUDE":106.8276,"LATITUDE":-6.16058,"STATUS":"BUKA","TANGGAL PENGUMPULAN":"Q2 2024","TANGGAL UPDATE":"27/07/2025"}},{"type":"Feature","geometry":{"coordinates":[106.7566,-6.15857],"type":"Point"},"properties":{"NAMA":"STASIUN TAMAN KOTA","TIPE_1":"TRANSPORTASI","TIPE_2":"STASIUN","TIPE_3":"KERETA API","TELEPON":"","ALAMAT":"JL. TAMAN KOTA NO.16, RT.16/RW.5, KEMBANGAN UTARA, KEC. KEMBANGAN, KOTA JAKARTA BARAT, DAERAH KHUSUS IBUKOTA JAKARTA 11610","ID_PROV":"31","PROVINSI":"DKI JAKARTA","ID_KABKOT":"31.73","KABKOT":"KOTA ADM. JAKARTA BARAT","ID_KEC":"31.73.01","KECAMATAN":"CENGKARENG","ID_DESA":"31.73.01.1004","DESA":"KEDAUNG KALI ANGKE","LONGITUDE":106.7566,"LATITUDE":-6.15857,"STATUS":"BUKA","TANGGAL PENGUMPULAN":"Q2 2024","TANGGAL UPDATE":"27/07/2025"}},{"type":"Feature","geometry":{"coordinates":[106.7894,-6.16211],"type":"Point"},"properties":{"NAMA":"STASIUN GROGOL","TIPE_1":"TRANSPORTASI","TIPE_2":"STASIUN","TIPE_3":"COMMUTER","TELEPON":"","ALAMAT":"RT.1/RW.4, JELAMBAR, GROGOL PETAMBURAN, WEST JAKARTA CITY, JAKARTA 11460","ID_PROV":"31","PROVINSI":"DKI JAKARTA","ID_KABKOT":"31.73","KABKOT":"KOTA ADM. JAKARTA BARAT","ID_KEC":"31.73.02","KECAMATAN":"GROGOL PETAMBURAN","ID_DESA":"31.73.02.1004","DESA":"JELAMBAR","LONGITUDE":106.7894,"LATITUDE":-6.16211,"STATUS":"BUKA","TANGGAL PENGUMPULAN":"Q2 2024","TANGGAL UPDATE":"27/07/2025"}},{"type":"Feature","geometry":{"coordinates":[106.7894,-6.16211],"type":"Point"},"properties":{"NAMA":"STASIUN GROGOL","TIPE_1":"TRANSPORTASI","TIPE_2":"STASIUN","TIPE_3":"KERETA API","TELEPON":"","ALAMAT":"RT.1/RW.4, JELAMBAR, GROGOL PETAMBURAN, WEST JAKARTA CITY, JAKARTA 11460","ID_PROV":"31","PROVINSI":"DKI JAKARTA","ID_KABKOT":"31.73","KABKOT":"KOTA ADM. JAKARTA BARAT","ID_KEC":"31.73.02","KECAMATAN":"GROGOL PETAMBURAN","ID_DESA":"31.73.02.1004","DESA":"JELAMBAR","LONGITUDE":106.7894,"LATITUDE":-6.16211,"STATUS":"BUKA","TANGGAL PENGUMPULAN":"Q2 2024","TANGGAL UPDATE":"27/07/2025"}}]}