{"type":"FeatureCollection","features":[{"type":"Feature","geometry":{"coordinates":[106.96339,-6.25452],"type":"Point"},"properties":{"NAMA":"STASIUN KUNINGAN","TIPE_1":"TRANSPORTASI","TIPE_2":"STASIUN","TIPE_3":"LRT","TELEPON":"","ALAMAT":"DEPARTEMEN KESEHATAN, RT.7/RW.4, KUNINGAN, EAST KUNINGAN, SETIABUDI, SOUTH JAKARTA CITY, JAKARTA 12950","ID_PROV":"32","PROVINSI":"JAWA BARAT","ID_KABKOT":"32.75","KABKOT":"KOTA BEKASI","ID_KEC":"32.75.02","KECAMATAN":"BEKASI BARAT","ID_DESA":"32.75.02.1005","DESA":"JAKASAMPURNA","LONGITUDE":106.96339,"LATITUDE":-6.25452,"STATUS":"BUKA","TANGGAL PENGUMPULAN":"Q2 2024","TANGGAL UPDATE":"27/07/2025"}},{"type":"Feature","geometry":{"coordinates":[106.9792,-6.2243],"type":"Point"},"properties":{"NAMA":"STASIUN KRANJI","TIPE_1":"TRANSPORTASI","TIPE_2":"STASIUN","TIPE_3":"COMMUTER","TELEPON":"","ALAMAT":"GGS, JL. ST. DEPOK LAMA, DEPOK, KEC. PANCORAN MAS, KOTA DEPOK, JAWA BARAT 16431","ID_PROV":"32","PROVINSI":"JAWA BARAT","ID_KABKOT":"32.75","KABKOT":"KOTA BEKASI","ID_KEC":"32.75.02","KECAMATAN":"BEKASI BARAT","ID_DESA":"32.75.02.1002","DESA":"KRANJI","LONGITUDE":106.9792,"LATITUDE":-6.2243,"STATUS":"BUKA","TANGGAL PENGUMPULAN":"Q2 2024","TANGGAL UPDATE":"27/07/2025"}},{"type":"Feature","geometry":{"coordinates":[106.92771,-6.25767],"type":"Point"},"properties":{"NAMA":"STASIUN SETIABUDI","TIPE_1":"TRANSPORTASI","TIPE_2":"STASIUN","TIPE_3":"LRT","TELEPON":"","ALAMAT":"JL. H. R. RASUNA SAID NO.1, RT.1/RW.6, KUNINGAN, GUNTUR, KECAMATAN SETIABUDI, KOTA JAKARTA SELATAN, DAERAH KHUSUS IBUKOTA JAKARTA 12910","ID_PROV":"32","PROVINSI":"JAWA BARAT","ID_KABKOT":"32.75","KABKOT":"KOTA BEKASI","ID_KEC":"32.75.08","KECAMATAN":"PONDOKGEDE","ID_DESA":"32.75.08.1006","DESA":"JATIBENING BARU","LONGITUDE":106.92771,"LATITUDE":-6.25767,"STATUS":"BUKA","TANGGAL PENGUMPULAN":"Q2 2024","TANGGAL UPDATE":"27/07/2025"}},{"type":"Feature","geometry":{"coordinates":[106.9994,-6.23669],"type":"Point"},"properties":{"NAMA":"STASIUN BEKASI","TIPE_1":"TRANSPORTASI","TIPE_2":"STASIUN","TIPE_3":"COMMUTER","TELEPON":"","ALAMAT":"JL. I GUSTI NGURAH RAI, KRANJI, KEC. BEKASI BAR., KOTA BKS, JAWA BARAT 17135","ID_PROV":"32","PROVINSI":"JAWA BARAT","ID_KABKOT":"32.75","KABKOT":"KOTA BEKASI","ID_KEC":"32.75.03","KECAMATAN":"BEKASI UTARA","ID_DESA":"32.75.03.1005","DESA":"MARGAMULYA","LONGITUDE":106.9994,"LATITUDE":-6.23669,"STATUS":"BUKA","TANGGAL PENGUMPULAN":"Q2 2024","TANGGAL UPDATE":"27/07/2025"}},{"type":"Feature","geometry":{"coordinates":[106.9510722,-6.2560879],"type":"Point"},"properties":{"NAMA":"STASIUN DUKUH ATAS","TIPE_1":"TRANSPORTASI","TIPE_2":"STASIUN","TIPE_3":"LRT","TELEPON":"","ALAMAT":"JL. SETIA BUDI TENGAH NO.29 2, RT.2/RW.3, KUNINGAN, SETIA BUDI, KECAMATAN SETIABUDI, KOTA JAKARTA SELATAN, DAERAH KHUSUS IBUKOTA JAKARTA 12910","ID_PROV":"32","PROVINSI":"JAWA BARAT","ID_KABKOT":"32.75","KABKOT":"KOTA BEKASI","ID_KEC":"32.75.08","KECAMATAN":"PONDOKGEDE","ID_DESA":"32.75.08.1002","DESA":"JATIBENING","LONGITUDE":106.9510722,"LATITUDE":-6.2560879,"STATUS":"BUKA","TANGGAL PENGUMPULAN":"Q2 2024","TANGGAL UPDATE":"27/07/2025"}},{"type":"Feature","geometry":{"coordinates":[106.9897647,-6.2525554],"type":"Point"},"properties":{"NAMA":"STASIUN RASUNA SAID","TIPE_1":"TRANSPORTASI","TIPE_2":"STASIUN","TIPE_3":"LRT","TELEPON":"","ALAMAT":"PLAZA FESTIVAL, RT.2/RW.5, KUNINGAN, KARET KUNINGAN, SETIABUDI, SOUTH JAKARTA CITY, JAKARTA 12940","ID_PROV":"32","PROVINSI":"JAWA BARAT","ID_KABKOT":"32.75","KABKOT":"KOTA BEKASI","ID_KEC":"32.75.04","KECAMATAN":"BEKASI SELATAN","ID_DESA":"32.75.04.1001","DESA":"PEKAYONJAYA","LONGITUDE":106.9897647,"LATITUDE":-6.2525554,"STATUS":"BUKA","TANGGAL PENGUMPULAN":"Q2 2024","TANGGAL UPDATE":"27/07/2025"}},{"type":"Feature","geometry":{"coordinates":[106.9522,-6.21918],"type":"Point"},"properties":{"NAMA":"STASIUN CAKUNG","TIPE_1":"TRANSPORTASI","TIPE_2":"STASIUN","TIPE_3":"COMMUTER","TELEPON":"","ALAMAT":"JL. RAYA ST. CAKUNG, RT.10/RW.3, PULO GEBANG, KEC. CAKUNG, KOTA JAKARTA TIMUR, DAERAH KHUSUS IBUKOTA JAKARTA 13950","ID_PROV":"32","PROVINSI":"JAWA BARAT","ID_KABKOT":"32.75","KABKOT":"KOTA BEKASI","ID_KEC":"32.75.02","KECAMATAN":"BEKASI BARAT","ID_DESA":"32.75.02.1001","DESA":"BINTARA","LONGITUDE":106.9522,"LATITUDE":-6.21918,"STATUS":"BUKA","TANGGAL PENGUMPULAN":"Q2 2024","TANGGAL UPDATE":"27/07/2025"}},{"type":"Feature","geometry":{"coordinates":[106.9522,-6.21918],"type":"Point"},"properties":{"NAMA":"STASIUN CAKUNG","TIPE_1":"TRANSPORTASI","TIPE_2":"STASIUN","TIPE_3":"KERETA API","TELEPON":"","ALAMAT":"JL. RAYA ST. CAKUNG, RT.10/RW.3, PULO GEBANG, KEC. CAKUNG, KOTA JAKARTA TIMUR, DAERAH KHUSUS IBUKOTA JAKARTA 13950","ID_PROV":"32","PROVINSI":"JAWA BARAT","ID_KABKOT":"32.75","KABKOT":"KOTA BEKASI","ID_KEC":"32.75.02","KECAMATAN":"BEKASI BARAT","ID_DESA":"32.75.02.1001","DESA":"BINTARA","LONGITUDE":106.9522,"LATITUDE":-6.21918,"STATUS":"BUKA","TANGGAL PENGUMPULAN":"Q2 2024","TANGGAL UPDATE":"27/07/2025"}},{"type":"Feature","geometry":{"coordinates":[106.9994,-6.23669],"type":"Point"},"properties":{"NAMA":"STASIUN BEKASI","TIPE_1":"TRANSPORTASI","TIPE_2":"STASIUN","TIPE_3":"KERETA API","TELEPON":"","ALAMAT":"MARGA JAYA, KEC. BEKASI SEL., KOTA BKS, JAWA BARAT","ID_PROV":"32","PROVINSI":"JAWA BARAT","ID_KABKOT":"32.75","KABKOT":"KOTA BEKASI","ID_KEC":"32.75.03","KECAMATAN":"BEKASI UTARA","ID_DESA":"32.75.03.1005","DESA":"MARGAMULYA","LONGITUDE":106.9994,"LATITUDE":-6.23669,"STATUS":"BUKA","TANGGAL PENGUMPULAN":"Q2 2024","TANGGAL UPDATE":"27/07/2025"}},{"type":"Feature","geometry":{"coordinates":[106.9792,-6.2243],"type":"Point"},"properties":{"NAMA":"STASIUN KRANJI","TIPE_1":"TRANSPORTASI","TIPE_2":"STASIUN","TIPE_3":"KERETA API","TELEPON":"","ALAMAT":"JL. I GUSTI NGURAH RAI, KRANJI, KEC. BEKASI BAR., KOTA BKS, JAWA BARAT 17135","ID_PROV":"32","PROVINSI":"JAWA BARAT","ID_KABKOT":"32.75","KABKOT":"KOTA BEKASI","ID_KEC":"32.75.02","KECAMATAN":"BEKASI BARAT","ID_DESA":"32.75.02.1002","DESA":"KRANJI","LONGITUDE":106.9792,"LATITUDE":-6.2243,"STATUS":"BUKA","TANGGAL PENGUMPULAN":"Q2 2024","TANGGAL UPDATE":"27/07/2025"}}]}