{"type":"FeatureCollection","features":[{"type":"Feature","geometry":{"coordinates":[[[[106.5796129,-6.2161741],[106.5794451,-6.2161607],[106.5786211,-6.216094],[106.5786198,-6.2160939],[106.5777756,-6.2160257],[106.5777361,-6.2160225],[106.577729,-6.2160218],[106.5762803,-6.2158877],[106.5763088,-6.2156998],[106.5760418,-6.2156561],[106.576041,-6.2156638],[106.5747967,-6.2155235],[106.5747634,-6.2157141],[106.5745185,-6.2156808],[106.5731784,-6.2155198],[106.5733449,-6.2143281],[106.5713211,-6.2141409],[106.5714118,-6.212289],[106.5707885,-6.2122656],[106.5706203,-6.2122593],[106.5705591,-6.2132548],[106.5697568,-6.2132037],[106.5697984,-6.2127861],[106.5687601,-6.2124895],[106.5679789,-6.2123099],[106.5668016,-6.2120351],[106.5666905,-6.2119076],[106.5666271,-6.2119145],[106.5666125,-6.2119011],[106.5663734,-6.2118017],[106.5653231,-6.2113647],[106.5649569,-6.2112531],[106.5649319,-6.2112471],[106.56493,-6.21125],[106.5649316,-6.211247],[106.5649035,-6.2112402],[106.5653613,-6.2104472],[106.5654757,-6.2102327],[106.5659258,-6.2094078],[106.5661318,-6.2090678],[106.5661776,-6.2089834],[106.566582,-6.208311],[106.5667651,-6.2081265],[106.5670931,-6.2078299],[106.5677416,-6.2073426],[106.5690844,-6.2062678],[106.5684741,-6.2060198],[106.5678103,-6.2056088],[106.5675204,-6.2054119],[106.5671542,-6.2051963],[106.566971,-6.205162],[106.5669695,-6.2051617],[106.5668948,-6.2051496],[106.5664217,-6.2050061],[106.5651171,-6.2044281],[106.564789,-6.2043848],[106.5644686,-6.2044114],[106.5638964,-6.2044415],[106.5636904,-6.2043485],[106.5636523,-6.2043333],[106.5634387,-6.2042364],[106.5633764,-6.204208],[106.5630953,-6.2040796],[106.5627215,-6.2038765],[106.5614735,-6.2031118],[106.5608218,-6.2027125],[106.560303,-6.202433],[106.5600283,-6.2022814],[106.5597208,-6.2021607],[106.559212,-6.201961],[106.558861,-6.2018365],[106.5584567,-6.2016434],[106.5580752,-6.2014594],[106.5580446,-6.2013788],[106.5580446,-6.2011027],[106.5580438,-6.2010996],[106.5580178,-6.2009876],[106.5581126,-6.2007772],[106.5581063,-6.20079],[106.5580677,-6.20065],[106.5579966,-6.2002682],[106.5579001,-6.2001536],[106.5577692,-6.1999799],[106.557485,-6.1997679],[106.5573965,-6.1997199],[106.5572837,-6.1996361],[106.5571624,-6.199593],[106.5570944,-6.1995562],[106.5568846,-6.1994117],[106.5561986,-6.1989237],[106.5557974,-6.1987975],[106.5554025,-6.1986586],[106.5550357,-6.1986914],[106.5546104,-6.198712],[106.5543317,-6.1987352],[106.5542576,-6.198732],[106.5541978,-6.1987463],[106.5537244,-6.1987856],[106.5528043,-6.1993559],[106.5527505,-6.1994372],[106.5526218,-6.199482],[106.5526125,-6.1994852],[106.5526278,-6.1994271],[106.5528033,-6.198894],[106.5527422,-6.1985101],[106.5527651,-6.1983599],[106.5533831,-6.1982354],[106.5537722,-6.1979584],[106.5539324,-6.197772],[106.55394,-6.1976494],[106.5538332,-6.1972312],[106.5537493,-6.1971735],[106.5535815,-6.1971902],[106.5533983,-6.1971578],[106.5532839,-6.1970534],[106.5532645,-6.1970052],[106.5532305,-6.1969213],[106.55323,-6.1969078],[106.5532229,-6.1967291],[106.5533526,-6.1964159],[106.5532382,-6.1961951],[106.5532305,-6.1960463],[106.5533526,-6.1950259],[106.5531924,-6.1950077],[106.5526202,-6.1949424],[106.5521853,-6.1948838],[106.5521741,-6.1948821],[106.551938,-6.1948461],[106.5519407,-6.1948263],[106.5519441,-6.1948266],[106.5519466,-6.1947814],[106.5520244,-6.1941982],[106.5520369,-6.1941448],[106.5520426,-6.1940612],[106.5522673,-6.1923759],[106.5524081,-6.1914146],[106.5525932,-6.1901196],[106.5525685,-6.1901158],[106.5525711,-6.1900964],[106.5519695,-6.1900621],[106.5514653,-6.1900171],[106.5514566,-6.1900163],[106.5514561,-6.1900163],[106.5514579,-6.1900073],[106.5514834,-6.1898245],[106.5515597,-6.189444],[106.5516436,-6.1890449],[106.5517275,-6.1887025],[106.5518144,-6.1884017],[106.551888,-6.1881032],[106.5523386,-6.1881248],[106.552376,-6.1881251],[106.5527193,-6.1881289],[106.5527305,-6.1881436],[106.5527485,-6.1881444],[106.5527828,-6.1882125],[106.5529101,-6.1883802],[106.5530932,-6.1882858],[106.5533831,-6.1881336],[106.5532992,-6.1880588],[106.5531466,-6.1879596],[106.552849,-6.1877765],[106.5526125,-6.1875476],[106.5526124,-6.1875468],[106.5526091,-6.1875436],[106.5526002,-6.187444],[106.5525973,-6.1874198],[106.5526507,-6.1873073],[106.5526511,-6.1873071],[106.5526527,-6.1873035],[106.5527804,-6.1872344],[106.5529711,-6.1871304],[106.5529482,-6.1870417],[106.5528567,-6.1869473],[106.5527479,-6.1868729],[106.5524676,-6.1866545],[106.5523989,-6.1865262],[106.5523684,-6.1862979],[106.5523691,-6.1862959],[106.5523683,-6.1862899],[106.5523936,-6.1862318],[106.5524218,-6.1861581],[106.5524622,-6.1861232],[106.5525188,-6.1860678],[106.5526367,-6.186001],[106.5529259,-6.1858281],[106.5529324,-6.185824],[106.5529328,-6.185824],[106.552933,-6.1858239],[106.5528948,-6.1856522],[106.5528109,-6.1855697],[106.552582,-6.185359],[106.552582,-6.1853557],[106.5525819,-6.1853556],[106.552579,-6.1852696],[106.5525791,-6.185269],[106.5525859,-6.1852304],[106.5525973,-6.1851532],[106.5526071,-6.1850765],[106.5526327,-6.1849095],[106.5526501,-6.1847979],[106.5526507,-6.1847939],[106.5528185,-6.1848626],[106.5528675,-6.1849837],[106.5529077,-6.1850499],[106.5529559,-6.1851243],[106.5530627,-6.1851458],[106.5530842,-6.1851291],[106.5531475,-6.1850709],[106.5531542,-6.1850042],[106.5531695,-6.1849088],[106.5531746,-6.1848636],[106.5531899,-6.1847723],[106.5531945,-6.1847583],[106.5532109,-6.1847023],[106.5532131,-6.1846731],[106.5532364,-6.1846104],[106.553261,-6.1845302],[106.5532077,-6.1843889],[106.5532153,-6.1842946],[106.5532153,-6.1842646],[106.5532262,-6.1842391],[106.5532642,-6.1841283],[106.5532836,-6.1841179],[106.5533826,-6.1840553],[106.5536349,-6.1838612],[106.5538561,-6.1836995],[106.5540621,-6.1836328],[106.554146,-6.1836647],[106.554179,-6.1838237],[106.5541842,-6.1838488],[106.5542223,-6.1845183],[106.5543597,-6.1845364],[106.5545733,-6.1845026],[106.5546289,-6.1844595],[106.5546854,-6.184379],[106.5547012,-6.1843706],[106.5547578,-6.1842646],[106.5548406,-6.1841289],[106.5548924,-6.1840507],[106.554911,-6.184032],[106.5549654,-6.1839488],[106.5549753,-6.1839255],[106.5549827,-6.1839224],[106.5549853,-6.1839184],[106.5550263,-6.1839044],[106.5550896,-6.1838783],[106.5553391,-6.1837942],[106.555573,-6.1837102],[106.5556181,-6.1837148],[106.5557173,-6.1837137],[106.555855,-6.1836934],[106.5559313,-6.1835784],[106.555943,-6.183564],[106.5559575,-6.1835425],[106.5560433,-6.1834389],[106.556061,-6.1834168],[106.5563052,-6.1833796],[106.5565137,-6.1833378],[106.5566102,-6.1833209],[106.5566943,-6.1833047],[106.5567214,-6.1832894],[106.5568411,-6.1832118],[106.5570223,-6.1831488],[106.557831,-6.1830053],[106.5578835,-6.182962],[106.5583379,-6.1826607],[106.5583754,-6.1826362],[106.5583804,-6.1826329],[106.5587771,-6.182362],[106.5590289,-6.1823644],[106.5591692,-6.1822573],[106.5592782,-6.1821893],[106.5593769,-6.1821265],[106.5594444,-6.1820795],[106.55951,-6.1820486],[106.5595248,-6.1820397],[106.5596774,-6.1820506],[106.5597488,-6.1820563],[106.5597721,-6.1820577],[106.5599194,-6.1820646],[106.5599751,-6.182047],[106.559975,-6.1820467],[106.5599776,-6.1820462],[106.5601351,-6.1819963],[106.56034,-6.1818677],[106.5603435,-6.1818562],[106.560364,-6.1817631],[106.5604174,-6.1815953],[106.5604639,-6.1815432],[106.5605196,-6.1814723],[106.5605262,-6.1814733],[106.5605318,-6.181467],[106.5605785,-6.1814812],[106.5605873,-6.1814825],[106.5608164,-6.1816212],[106.5609362,-6.1816048],[106.5609498,-6.1815611],[106.5609064,-6.181479],[106.5608218,-6.1813349],[106.5608142,-6.1813244],[106.5607531,-6.1812529],[106.5606643,-6.1811282],[106.5606117,-6.1809253],[106.5606116,-6.1809055],[106.5606082,-6.1808924],[106.5605853,-6.1805534],[106.5606097,-6.1805051],[106.5606259,-6.1804514],[106.5607388,-6.1803707],[106.5607912,-6.1803302],[106.5608373,-6.1803067],[106.5610361,-6.1801898],[106.5611435,-6.1801504],[106.5611575,-6.1801433],[106.5612567,-6.1801671],[106.5612568,-6.1801678],[106.5612598,-6.1801684],[106.5612861,-6.180262],[106.5612977,-6.1806838],[106.5613619,-6.1807369],[106.5613863,-6.180756],[106.56148,-6.1807661],[106.5615841,-6.1807714],[106.5616728,-6.1807657],[106.5618505,-6.1807457],[106.5618655,-6.1807334],[106.5619244,-6.1806815],[106.5620254,-6.1804369],[106.5620368,-6.1804184],[106.5620501,-6.1803865],[106.5621209,-6.1802698],[106.5621548,-6.1802022],[106.5621696,-6.1801895],[106.5621721,-6.1801853],[106.5624515,-6.1799377],[106.5624869,-6.1799044],[106.5624912,-6.1799025],[106.5625079,-6.1798877],[106.562752,-6.1797823],[106.5629391,-6.1797039],[106.5629597,-6.1796947],[106.5629741,-6.1796892],[106.5631716,-6.1796064],[106.563637,-6.1794195],[106.5638278,-6.1794223],[106.5642626,-6.1794276],[106.5642681,-6.1794305],[106.5642701,-6.1794305],[106.5644,-6.1795015],[106.5643771,-6.1796498],[106.5643771,-6.1798801],[106.5644381,-6.1799035],[106.5646288,-6.1799068],[106.564873,-6.1797804],[106.5649397,-6.1796628],[106.5649415,-6.1796587],[106.5648958,-6.1794905],[106.5648702,-6.1793893],[106.5648209,-6.179205],[106.564773,-6.1788354],[106.564709,-6.1782941],[106.5647227,-6.1781746],[106.564728,-6.178111],[106.5648761,-6.1780811],[106.56488,-6.1780801],[106.5648803,-6.1780802],[106.5648882,-6.1780786],[106.5649721,-6.1781167],[106.5651171,-6.1782393],[106.5653078,-6.1782612],[106.5653689,-6.178215],[106.5653613,-6.1780915],[106.5653477,-6.1778652],[106.5653547,-6.1776423],[106.5653536,-6.1775698],[106.5654757,-6.177164],[106.5655367,-6.1770467],[106.5656206,-6.1769099],[106.5656817,-6.1769156],[106.565758,-6.1769986],[106.5659299,-6.1771471],[106.5659817,-6.1771333],[106.5660686,-6.1771029],[106.5662308,-6.1770079],[106.5662844,-6.1769747],[106.56644,-6.1768],[106.5664912,-6.1767406],[106.5667574,-6.1763782],[106.5669261,-6.1762436],[106.5669558,-6.1762199],[106.5671053,-6.1761582],[106.5676043,-6.175961],[106.5679476,-6.1757445],[106.5680392,-6.17559],[106.5681994,-6.175261],[106.5684588,-6.1749382],[106.568558,-6.1748991],[106.5686953,-6.1749682],[106.5690233,-6.1751832],[106.5692523,-6.1751589],[106.5699084,-6.1750869],[106.5700032,-6.1750889],[106.5707476,-6.1751046],[106.571213,-6.1750626],[106.571358,-6.1750106],[106.5714037,-6.1749935],[106.5715839,-6.1749679],[106.5716555,-6.1749577],[106.5717394,-6.174941],[106.5721896,-6.1748518],[106.5722735,-6.1748139],[106.5722254,-6.174515],[106.5723066,-6.1744823],[106.5724596,-6.1744927],[106.5725343,-6.1744979],[106.5727794,-6.1745094],[106.572879,-6.1744393],[106.5729238,-6.1742689],[106.5729881,-6.1740083],[106.5731011,-6.1737476],[106.5731071,-6.1737429],[106.5732013,-6.1736684],[106.5733282,-6.173568],[106.5735236,-6.1736488],[106.5737466,-6.1737934],[106.574013,-6.1737255],[106.5742953,-6.1736793],[106.574547,-6.1737189],[106.5747149,-6.1737451],[106.5750811,-6.1738825],[106.5753558,-6.1738939],[106.5754931,-6.1738157],[106.5756686,-6.1736416],[106.5760958,-6.1731452],[106.5765307,-6.1730794],[106.5765841,-6.1729507],[106.5767367,-6.1726164],[106.5768588,-6.1724977],[106.5770342,-6.1724481],[106.5772403,-6.1724263],[106.5774767,-6.1724014],[106.5777008,-6.1723775],[106.5787432,-6.1722664],[106.5787583,-6.1722619],[106.5790484,-6.1721758],[106.5792239,-6.1720371],[106.5792773,-6.1719055],[106.5793002,-6.1718678],[106.5793078,-6.171668],[106.579201,-6.1714468],[106.5789748,-6.1711545],[106.5789644,-6.1711411],[106.5788043,-6.1708736],[106.578728,-6.1706237],[106.5786609,-6.1701966],[106.5786364,-6.1700406],[106.5788348,-6.1700196],[106.5791476,-6.1699981],[106.5792162,-6.1699338],[106.5791781,-6.1698169],[106.5790713,-6.1694626],[106.5791323,-6.1693434],[106.5793154,-6.1691608],[106.5795367,-6.1690416],[106.5797863,-6.1689064],[106.5798571,-6.168868],[106.5798952,-6.1688318],[106.5800173,-6.1687064],[106.5801013,-6.1685047],[106.5803683,-6.167427],[106.5805056,-6.1671032],[106.5806429,-6.1669673],[106.5808031,-6.166933],[106.5808958,-6.1669386],[106.5810396,-6.1669473],[106.5813983,-6.1670336],[106.5819323,-6.16715],[106.5820582,-6.1671325],[106.5822375,-6.1671075],[106.5824969,-6.1670127],[106.5826113,-6.1669025],[106.5826418,-6.1667828],[106.5826469,-6.1666496],[106.582654,-6.1664618],[106.5826571,-6.1663804],[106.5826647,-6.1663007],[106.58268,-6.1659703],[106.5826945,-6.1656674],[106.5827025,-6.1654998],[106.5827029,-6.165493],[106.5826418,-6.165039],[106.5825655,-6.1645531],[106.5825808,-6.1638374],[106.5826851,-6.163748],[106.5827118,-6.1632884],[106.5830042,-6.1631899],[106.5831665,-6.1630918],[106.5832959,-6.1628636],[106.5834573,-6.1624726],[106.5835382,-6.1623259],[106.5835543,-6.162277],[106.5838467,-6.1622111],[106.5845461,-6.1622904],[106.585879,-6.1621888],[106.5863997,-6.1623337],[106.5863686,-6.1624535],[106.5864641,-6.162445],[106.5867541,-6.1623897],[106.586899,-6.1623072],[106.5871508,-6.1622133],[106.5873949,-6.1621255],[106.5875857,-6.1620206],[106.5876925,-6.1619439],[106.587784,-6.1618671],[106.5881107,-6.1614834],[106.58811,-6.16148],[106.5882723,-6.1614074],[106.5883639,-6.1613097],[106.5884554,-6.161209],[106.5884619,-6.1612027],[106.5885351,-6.1611319],[106.588608,-6.1610612],[106.5886335,-6.1610291],[106.5886918,-6.1609557],[106.5887606,-6.1608691],[106.5888903,-6.1606884],[106.5890618,-6.1604632],[106.5895414,-6.1601096],[106.5905142,-6.1593772],[106.59093,-6.159064],[106.5914753,-6.158737],[106.5916814,-6.1585836],[106.5917738,-6.1585148],[106.5909345,-6.1583871],[106.5910239,-6.1578271],[106.5914142,-6.1578519],[106.5914113,-6.1578174],[106.5913332,-6.1568628],[106.5913065,-6.1566416],[106.5913061,-6.1564984],[106.5913188,-6.1564072],[106.591493,-6.1563569],[106.5915008,-6.1563546],[106.591492,-6.156212],[106.5914872,-6.1561338],[106.5914681,-6.1558218],[106.5914076,-6.1557552],[106.5913412,-6.1556822],[106.5912409,-6.1555692],[106.5911607,-6.1554761],[106.5910738,-6.1553497],[106.5910668,-6.1552365],[106.5910995,-6.1551213],[106.5911072,-6.1545167],[106.5911078,-6.1544661],[106.5909831,-6.1543817],[106.5910343,-6.153655],[106.5910992,-6.153095],[106.5909709,-6.1525221],[106.5909339,-6.1521519],[106.5909121,-6.1519337],[106.5909121,-6.151782],[106.5908892,-6.1515488],[106.5908434,-6.151247],[106.5908205,-6.1509361],[106.5908016,-6.1506791],[106.5907554,-6.1503342],[106.5906457,-6.1495154],[106.5905357,-6.1489076],[106.5903258,-6.1483333],[106.5903252,-6.148125],[106.5908991,-6.147965],[106.5913513,-6.1483813],[106.5913802,-6.1483554],[106.5914461,-6.1482963],[106.5915284,-6.1482809],[106.59153,-6.14828],[106.5915302,-6.1482806],[106.5916521,-6.1482591],[106.5919115,-6.1482706],[106.5922297,-6.1482777],[106.5923998,-6.1482815],[106.5924745,-6.1482835],[106.5924767,-6.1476535],[106.5926728,-6.1476828],[106.5928946,-6.1477419],[106.5932654,-6.1477407],[106.5935255,-6.1477656],[106.5943458,-6.1477375],[106.5946741,-6.1477579],[106.5949936,-6.1477356],[106.5953559,-6.1477174],[106.5955689,-6.1476827],[106.5958715,-6.1476946],[106.5968007,-6.1477345],[106.597332,-6.1477091],[106.5973718,-6.1477072],[106.5980409,-6.1477265],[106.5982051,-6.1477388],[106.5983924,-6.1476742],[106.5984819,-6.1476697],[106.5986311,-6.1476863],[106.5992747,-6.1476929],[106.6001803,-6.1476646],[106.6003508,-6.1476769],[106.6012628,-6.1476486],[106.6018829,-6.1476339],[106.6025221,-6.1476107],[106.6028543,-6.1475372],[106.6030971,-6.1474895],[106.6037003,-6.1475517],[106.6051782,-6.1475979],[106.6054112,-6.1475639],[106.6056644,-6.1476231],[106.6057843,-6.1476294],[106.6058773,-6.1475558],[106.6059571,-6.1475023],[106.6070864,-6.1474753],[106.6071053,-6.1474576],[106.6071186,-6.1474576],[106.6075332,-6.1474592],[106.6085901,-6.147463],[106.6088091,-6.1475978],[106.6088008,-6.1476693],[106.609058,-6.147671],[106.6101145,-6.1476778],[106.6100816,-6.1478245],[106.6102111,-6.1478517],[106.6105814,-6.1479296],[106.6106874,-6.1477494],[106.6121124,-6.1477117],[106.6133501,-6.1476726],[106.6133501,-6.1473107],[106.6133501,-6.1466527],[106.6134341,-6.1460232],[106.6136324,-6.145422],[106.6138003,-6.1448211],[106.6139681,-6.1443343],[106.6141436,-6.143876],[106.6143419,-6.1435322],[106.6146548,-6.1432738],[106.6148836,-6.1428156],[106.6152499,-6.1422996],[106.6155627,-6.1417551],[106.6157381,-6.1413541],[106.615761,-6.1409535],[106.6157152,-6.1407323],[106.6157149,-6.1407306],[106.6157144,-6.1407277],[106.6156775,-6.1405269],[106.6156681,-6.1405115],[106.6153872,-6.1400966],[106.615003,-6.1397635],[106.614965,-6.139732],[106.614845,-6.1396739],[106.6145906,-6.1395581],[106.614374,-6.1394801],[106.6136947,-6.1391851],[106.6136721,-6.1391712],[106.6136401,-6.1391582],[106.6135425,-6.1390913],[106.6133118,-6.1389491],[106.6132769,-6.138909],[106.6132662,-6.1389017],[106.612839,-6.1384168],[106.6127205,-6.138277],[106.6122859,-6.1377932],[106.6120138,-6.1375387],[106.6120074,-6.1375327],[106.6118744,-6.1374016],[106.61151,-6.1370574],[106.6114707,-6.1370034],[106.6114581,-6.136991],[106.6113179,-6.1367991],[106.6111452,-6.1365628],[106.6109879,-6.1362459],[106.6109571,-6.136187],[106.6109555,-6.1361806],[106.6109469,-6.1361632],[106.6108248,-6.1356773],[106.6108259,-6.1356596],[106.6108395,-6.1351852],[106.6109128,-6.1349857],[106.6110232,-6.1346469],[106.6112306,-6.134387],[106.6113487,-6.1342275],[106.6113644,-6.1342194],[106.6113665,-6.1342168],[106.6115112,-6.134144],[106.6117684,-6.134012],[106.6118285,-6.1339846],[106.6119387,-6.1339292],[106.6126254,-6.1336126],[106.6130221,-6.1333251],[106.6133349,-6.1329813],[106.6134345,-6.132816],[106.613621,-6.1324918],[106.6137731,-6.1321851],[106.6138461,-6.1320357],[106.6140444,-6.1316061],[106.6140732,-6.1314549],[106.6140871,-6.1313365],[106.6141592,-6.1309908],[106.6141678,-6.1308948],[106.6142086,-6.1303919],[106.6141538,-6.1297945],[106.6141612,-6.1295008],[106.6140978,-6.1288314],[106.6140503,-6.1284904],[106.6140446,-6.1284897],[106.6139747,-6.1280921],[106.6138582,-6.1274729],[106.6138832,-6.1270578],[106.6138918,-6.1268873],[106.6138918,-6.1264295],[106.6140902,-6.1259713],[106.6142886,-6.1257992],[106.6146319,-6.1256552],[106.6149752,-6.1255684],[106.6152575,-6.1254816],[106.6155703,-6.1253376],[106.6158291,-6.1251368],[106.6158301,-6.1251359],[106.6159594,-6.125],[106.6162007,-6.1247074],[106.616278,-6.1246091],[106.6165621,-6.124167],[106.6168826,-6.1236834],[106.6172488,-6.1232605],[106.6176302,-6.1229377],[106.6179659,-6.1227755],[106.6183092,-6.1226945],[106.6183192,-6.1226944],[106.6183224,-6.1226937],[106.6183716,-6.1226942],[106.6188281,-6.1226926],[106.6191795,-6.1227977],[106.6192628,-6.1228209],[106.6194138,-6.1228467],[106.6196139,-6.1228714],[106.6199297,-6.1228258],[106.6199343,-6.1228251],[106.6199572,-6.1228219],[106.6201447,-6.1227895],[106.6205599,-6.1227078],[106.6208422,-6.1225862],[106.6210274,-6.1224687],[106.6211493,-6.1223868],[106.6213411,-6.1222331],[106.62151,-6.1220734],[106.6218035,-6.1216387],[106.621859,-6.1215828],[106.6222231,-6.1212153],[106.6226275,-6.1208725],[106.6229657,-6.1207308],[106.6230624,-6.1206903],[106.6235653,-6.1206346],[106.6235659,-6.1206345],[106.6239931,-6.1207275],[106.6243162,-6.1207506],[106.624634,-6.1207733],[106.624985,-6.1207714],[106.6250155,-6.1207771],[106.6261905,-6.1207135],[106.6264345,-6.1207003],[106.6279528,-6.1202416],[106.6286105,-6.1199405],[106.6289641,-6.1197786],[106.6291703,-6.1206951],[106.62939,-6.12063],[106.62946,-6.12062],[106.62964,-6.12068],[106.62974,-6.12072],[106.62981,-6.12082],[106.62977,-6.12097],[106.62979,-6.12105],[106.62984,-6.12108],[106.62994,-6.12107],[106.63006,-6.1209],[106.6302,-6.12088],[106.630425,-6.121193],[106.6304568,-6.1211955],[106.63055,-6.12118],[106.6306,-6.12109],[106.63063,-6.12095],[106.63066,-6.1209],[106.63075,-6.12088],[106.63097,-6.12083],[106.63112,-6.12081],[106.63129,-6.12083],[106.63137,-6.1208],[106.63167,-6.12045],[106.63181,-6.12031],[106.63199,-6.12025],[106.6320478,-6.1202384],[106.63209,-6.12023],[106.6322439,-6.1200761],[106.63226,-6.12006],[106.63222,-6.11998],[106.6321567,-6.1199119],[106.63209,-6.11984],[106.632,-6.1197],[106.63194,-6.11951],[106.6319517,-6.119453],[106.63201,-6.11917],[106.63203,-6.11909],[106.63176,-6.11872],[106.63157,-6.11824],[106.63153,-6.11807],[106.6315424,-6.117884],[106.63155,-6.11777],[106.63155,-6.1175961],[106.63155,-6.1175],[106.63147,-6.11739],[106.6314128,-6.117341],[106.6313696,-6.1173039],[106.6313314,-6.1172712],[106.6313326,-6.11727],[106.6313838,-6.1172201],[106.6314297,-6.1171755],[106.6319227,-6.1166958],[106.6320523,-6.1165675],[106.632069,-6.1165534],[106.6321108,-6.1165128],[106.6325707,-6.1158179],[106.6325838,-6.1157977],[106.6325838,-6.1153226],[106.6325529,-6.1149824],[106.6324976,-6.1145498],[106.6325096,-6.1145052],[106.6325059,-6.1144642],[106.6324999,-6.1143985],[106.6326353,-6.1128976],[106.6326525,-6.1127071],[106.6327593,-6.1122312],[106.6329424,-6.1117553],[106.6330921,-6.1114806],[106.6333315,-6.111041],[106.6340182,-6.1098766],[106.6341708,-6.1094799],[106.6346177,-6.108613],[106.6346209,-6.1086068],[106.6351473,-6.1076541],[106.6355038,-6.1067953],[106.6356966,-6.1063308],[106.6357744,-6.1058206],[106.6357805,-6.1057801],[106.6364367,-6.1058397],[106.636719,-6.1058783],[106.6367571,-6.1058664],[106.6372912,-6.1056881],[106.6375658,-6.1055965],[106.6377108,-6.105495],[106.6375658,-6.1059346],[106.6374712,-6.1061238],[106.6376818,-6.1061372],[106.6377,-6.10616],[106.63763,-6.10625],[106.6374075,-6.1066228],[106.6373598,-6.1067028],[106.6381609,-6.1066504],[106.6383059,-6.1065578],[106.6387178,-6.1063342],[106.6390841,-6.1062665],[106.6395113,-6.106308],[106.639725,-6.1064968],[106.6402209,-6.1069865],[106.6405565,-6.1071791],[106.6411355,-6.107329],[106.6416323,-6.1074576],[106.6421969,-6.1076145],[106.6424944,-6.1078424],[106.6426012,-6.1081061],[106.6426012,-6.1083703],[106.6422505,-6.1090893],[106.6420595,-6.1094809],[106.6417746,-6.1100252],[106.6417086,-6.1101513],[106.6416628,-6.110362],[106.6417515,-6.1115192],[106.6417544,-6.111557],[106.6420443,-6.1129155],[106.6422069,-6.1140748],[106.6422808,-6.1146021],[106.64238,-6.1155157],[106.6422884,-6.1165938],[106.6422426,-6.1170158],[106.6424896,-6.1173205],[106.6425097,-6.1173453],[106.6427614,-6.1172328],[106.6435167,-6.1169386],[106.6438372,-6.116817],[106.6447908,-6.1164341],[106.6454775,-6.1161718],[106.646744,-6.1156511],[106.6475578,-6.1153341],[106.648247,-6.1150656],[106.6485903,-6.1149383],[106.6489031,-6.1148195],[106.6493151,-6.1146603],[106.6498492,-6.1144399],[106.651169,-6.1139006],[106.652054,-6.1135449],[106.6526568,-6.1133036],[106.6531112,-6.1131369],[106.6531908,-6.1131077],[106.6535799,-6.1129722],[106.6545183,-6.1125641],[106.6558306,-6.1120739],[106.6567614,-6.1116748],[106.6584475,-6.111032],[106.6600725,-6.110363],[106.6604699,-6.1102098],[106.6604769,-6.1102071],[106.6605227,-6.1101885],[106.6609728,-6.110023],[106.6613619,-6.1098766],[106.662369,-6.1094351],[106.6627886,-6.1092653],[106.6633074,-6.1090903],[106.6640398,-6.1087818],[106.6644976,-6.1085982],[106.6651461,-6.1083331],[106.6656115,-6.108151],[106.6658251,-6.1080675],[106.6672289,-6.1075001],[106.667824,-6.107244],[106.6695101,-6.1066179],[106.6702044,-6.1063037],[106.6705935,-6.1061478],[106.6711275,-6.1059551],[106.6713488,-6.105866],[106.6715243,-6.105793],[106.6715025,-6.1054309],[106.6714171,-6.1053649],[106.6711187,-6.1049199],[106.6711476,-6.1046522],[106.671058,-6.1044741],[106.671028,-6.1043851],[106.671057,-6.1041769],[106.670878,-6.1039099],[106.6707884,-6.1037318],[106.6708176,-6.1035831],[106.6707578,-6.1034643],[106.6705203,-6.1034948],[106.6701935,-6.1034364],[106.6701336,-6.1032879],[106.6701326,-6.1029609],[106.6703701,-6.1029304],[106.6706969,-6.1029591],[106.6716179,-6.1030752],[106.6719588,-6.1030936],[106.6726576,-6.1031314],[106.6728162,-6.1030195],[106.6728136,-6.1029186],[106.6729205,-6.1029053],[106.673157,-6.1028428],[106.674085,-6.1027488],[106.6742022,-6.102737],[106.6745531,-6.1027079],[106.6747286,-6.1026635],[106.6748583,-6.1025686],[106.6749575,-6.1024261],[106.6751787,-6.1023827],[106.6754839,-6.102169],[106.6755602,-6.1020885],[106.6756289,-6.101757],[106.6756213,-6.1013756],[106.6756289,-6.1011105],[106.6755755,-6.100996],[106.6755526,-6.1006193],[106.675545,-6.1002898],[106.6755373,-6.1000318],[106.6756594,-6.0999517],[106.6756594,-6.0998139],[106.6756365,-6.0996599],[106.675606,-6.0995831],[106.6757052,-6.0988593],[106.6757738,-6.0986085],[106.676018,-6.0985804],[106.6760866,-6.0985789],[106.6761629,-6.0984902],[106.6765444,-6.0983663],[106.6767351,-6.09832],[106.6767566,-6.0981518],[106.6769424,-6.0981322],[106.6769609,-6.0980111],[106.6769817,-6.0980093],[106.6783645,-6.0978943],[106.6791257,-6.0978406],[106.6804669,-6.0977372],[106.6824389,-6.0975852],[106.6868648,-6.0971416],[106.6868816,-6.097204],[106.6872229,-6.0971407],[106.6872357,-6.0971407],[106.6872789,-6.0975051],[106.6875994,-6.098361],[106.6877597,-6.0988137],[106.6878969,-6.0992012],[106.6880114,-6.0996566],[106.6880571,-6.1001969],[106.6879961,-6.1007076],[106.6880061,-6.1007282],[106.6881411,-6.1010065],[106.6881106,-6.1016035],[106.6880724,-6.1024895],[106.688019,-6.1033506],[106.6880495,-6.1035261],[106.6880706,-6.1036945],[106.6880872,-6.1038279],[106.6880943,-6.1038847],[106.6881452,-6.1039016],[106.6883794,-6.1040013],[106.6887138,-6.1043007],[106.6888811,-6.1046],[106.6886469,-6.1052319],[106.6884797,-6.1055978],[106.6884776,-6.105608],[106.688492,-6.105648],[106.688526,-6.1057312],[106.6885607,-6.1058164],[106.6888201,-6.1061635],[106.6889574,-6.1063623],[106.6890948,-6.1064854],[106.6891547,-6.1064999],[106.6892813,-6.1065304],[106.6899473,-6.1066913],[106.6908953,-6.1069202],[106.6920397,-6.1069388],[106.6926653,-6.1069288],[106.6930468,-6.106998],[106.6934025,-6.1070697],[106.6934206,-6.1070733],[106.6936833,-6.1071925],[106.6936876,-6.1071944],[106.6940691,-6.1074834],[106.6948626,-6.1080727],[106.6949549,-6.1081482],[106.6950277,-6.1082077],[106.69545,-6.1085529],[106.6959231,-6.108985],[106.6966784,-6.1098013],[106.6972887,-6.1103563],[106.697632,-6.1106458],[106.69788,-6.11089],[106.6978838,-6.1108937],[106.6974642,-6.1116366],[106.6969454,-6.1125169],[106.6967852,-6.1126466],[106.6964037,-6.1128769],[106.6961672,-6.1129489],[106.6959383,-6.1129694],[106.6955568,-6.1129403],[106.6951372,-6.1128869],[106.6942904,-6.1129131],[106.6942807,-6.1129155],[106.6935579,-6.1130924],[106.6935402,-6.1130977],[106.6932833,-6.1131735],[106.6920629,-6.1134534],[106.6916201,-6.113555],[106.6910631,-6.113699],[106.6897356,-6.1140294],[106.6890185,-6.1142407],[106.6890719,-6.1144776],[106.6890948,-6.1148667],[106.6891176,-6.1155558],[106.6891482,-6.1161117],[106.6892168,-6.1179023],[106.6891863,-6.1181183],[106.6891329,-6.1182814],[106.6895144,-6.1187687],[106.6896441,-6.1191311],[106.689723,-6.1196498],[106.689728,-6.1196823],[106.6897433,-6.1199078],[106.6897369,-6.1201907],[106.6897204,-6.1209321],[106.6897139,-6.1209995],[106.6897014,-6.1211299],[106.6896975,-6.121171],[106.6896164,-6.121453],[106.6896135,-6.1214628],[106.6894991,-6.121582],[106.6893831,-6.1217344],[106.6893694,-6.1217522],[106.6893313,-6.1218214],[106.6891711,-6.1221218],[106.6889278,-6.1225528],[106.6888506,-6.1226897],[106.6887021,-6.1230082],[106.688698,-6.1230168],[106.6886294,-6.1231561],[106.6882652,-6.123888],[106.6882326,-6.1239534],[106.6880648,-6.1242867],[106.6880105,-6.1245003],[106.6879732,-6.1246471],[106.6879725,-6.1246497],[106.6878741,-6.125],[106.6878664,-6.1250486],[106.6874773,-6.1267882],[106.6872713,-6.1277232],[106.6870882,-6.1285453],[106.6870806,-6.1286221],[106.6872408,-6.1287012],[106.6872332,-6.1287708],[106.6872408,-6.12884],[106.6872484,-6.128922],[106.6872561,-6.1292195],[106.6873095,-6.1295972],[106.6874239,-6.1298146],[106.6875765,-6.1299782],[106.6880114,-6.1302099],[106.6882021,-6.1303144],[106.6884463,-6.1306386],[106.6885836,-6.1308818],[106.6888048,-6.1314273],[106.6892092,-6.1322284],[106.6892626,-6.1323118],[106.6892855,-6.1323557],[106.689377,-6.1325087],[106.6894991,-6.1326289],[106.6900255,-6.1328449],[106.6903841,-6.1330981],[106.6905596,-6.1332083],[106.6908953,-6.1332965],[106.6913607,-6.1334314],[106.6913988,-6.1334558],[106.6913759,-6.1338577],[106.6913454,-6.1341214],[106.6912691,-6.134676],[106.6912691,-6.1347289],[106.6912539,-6.1348929],[106.6914522,-6.1353908],[106.6915667,-6.1356902],[106.6916582,-6.1360002],[106.691704,-6.1364999],[106.6916735,-6.1367607],[106.691559,-6.137053],[106.6913378,-6.1373539],[106.6912691,-6.1374545],[106.6912386,-6.1375771],[106.6912677,-6.1376579],[106.6912691,-6.1376619],[106.6912615,-6.1376963],[106.6909639,-6.1381016],[106.6906206,-6.1385713],[106.6895678,-6.1400266],[106.6889193,-6.140861],[106.6883623,-6.1416449],[106.6872942,-6.1426964],[106.6862108,-6.1430645],[106.6862111,-6.1430728],[106.6862116,-6.1430864],[106.686216,-6.1432223],[106.6862337,-6.1437602],[106.6862871,-6.1441607],[106.6862994,-6.1442461],[106.6863026,-6.1442688],[106.6863055,-6.1442688],[106.6863306,-6.1443187],[106.6864142,-6.1445182],[106.686456,-6.1447261],[106.6865229,-6.145067],[106.68664,-6.1455825],[106.6867571,-6.1463391],[106.6868825,-6.1470624],[106.6870247,-6.1474532],[106.6874093,-6.1475696],[106.6874148,-6.1475718],[106.6874177,-6.1475779],[106.6874679,-6.1476361],[106.6874774,-6.1476582],[106.6874499,-6.1476769],[106.6874544,-6.1476784],[106.6874621,-6.1477208],[106.6874697,-6.1478934],[106.6874885,-6.1482932],[106.687518,-6.1483677],[106.6875849,-6.1491742],[106.6876351,-6.149989],[106.6876518,-6.1501802],[106.6875823,-6.1502263],[106.6875918,-6.1504064],[106.687607,-6.1507287],[106.6876146,-6.1508651],[106.6876757,-6.1525264],[106.6877062,-6.1529174],[106.6877062,-6.153254],[106.6875383,-6.1538243],[106.687437,-6.1540891],[106.6874349,-6.1540946],[106.6874511,-6.1541128],[106.6875766,-6.154171],[106.6879278,-6.1543456],[106.6879197,-6.154487],[106.6879111,-6.1546366],[106.6879278,-6.1548528],[106.6878558,-6.1548487],[106.6878776,-6.1548528],[106.687978,-6.1558421],[106.688003,-6.1568481],[106.6880365,-6.1578043],[106.6880449,-6.1582865],[106.6880783,-6.1587604],[106.6880166,-6.1587553],[106.6880783,-6.1588934],[106.6880867,-6.1594172],[106.6881118,-6.1598495],[106.6881034,-6.1599742],[106.6881027,-6.1599805],[106.688222,-6.1599712],[106.6883013,-6.159965],[106.6885226,-6.1599484],[106.6886523,-6.1599531],[106.6887591,-6.1599474],[106.6889422,-6.159936],[106.6890871,-6.1599464],[106.6893694,-6.1599774],[106.6896212,-6.1600089],[106.6896839,-6.1600185],[106.6897585,-6.1600299],[106.6899035,-6.1600404],[106.6899721,-6.1600332],[106.6899721,-6.1600632],[106.6899721,-6.160064],[106.6899721,-6.1600967],[106.6899569,-6.1602721],[106.6899569,-6.1603174],[106.6897433,-6.1609631],[106.6895906,-6.161262],[106.6894609,-6.1614304],[106.6893465,-6.1615882],[106.6892473,-6.1617355],[106.6890566,-6.163116],[106.6890185,-6.1633635],[106.6890185,-6.1636524],[106.6890871,-6.1640477],[106.6891558,-6.1643167],[106.6891787,-6.1645422],[106.6891787,-6.1645908],[106.6891426,-6.1646464],[106.6890032,-6.1648607],[106.6889727,-6.1649122],[106.6889727,-6.1652379],[106.6890948,-6.1657829],[106.6891476,-6.1658987],[106.6891706,-6.1659492],[106.689377,-6.1664019],[106.6894457,-6.1666374],[106.6894228,-6.167057],[106.6893008,-6.1675334],[106.6890795,-6.1681294],[106.688965,-6.1685481],[106.6887972,-6.169086],[106.6887667,-6.1697202],[106.6887438,-6.1704474],[106.6887362,-6.171248],[106.6888277,-6.1721268],[106.6893189,-6.1729288],[106.6893231,-6.1729355],[106.6894457,-6.1731358],[106.6896593,-6.1731911],[106.6902086,-6.1733117],[106.6904278,-6.1733466],[106.6904726,-6.1733538],[106.6905291,-6.1733628],[106.6908495,-6.1734266],[106.6908953,-6.1734305],[106.6909105,-6.1734672],[106.6909868,-6.1734991],[106.6911318,-6.1735029],[106.6913149,-6.1735144],[106.6915514,-6.1736002],[106.691765,-6.1736856],[106.6919481,-6.1737552],[106.6921236,-6.1737323],[106.6921694,-6.1737347],[106.6922457,-6.173738],[106.6926806,-6.1737704],[106.6927111,-6.1737499],[106.692795,-6.1736865],[106.6928789,-6.1736536],[106.6931598,-6.1736745],[106.6931612,-6.1736746],[106.6935122,-6.1736703],[106.6936648,-6.1737294],[106.6938936,-6.1738167],[106.6942141,-6.1739392],[106.6943133,-6.173985],[106.694359,-6.1740856],[106.6943895,-6.1741648],[106.6945574,-6.1744466],[106.6946413,-6.1745381],[106.6947024,-6.1746077],[106.6947595,-6.1746752],[106.6947634,-6.1746797],[106.6948168,-6.1747451],[106.6948473,-6.1747546],[106.6949046,-6.1747651],[106.6949389,-6.1747713],[106.6950915,-6.174798],[106.6951525,-6.1748114],[106.6951911,-6.1748135],[106.6954577,-6.1748281],[106.6954852,-6.1748362],[106.6957247,-6.1749072],[106.6959963,-6.175001],[106.6963656,-6.1751285],[106.6963798,-6.1751334],[106.6966173,-6.1752157],[106.6967165,-6.1751957],[106.6968767,-6.1752052],[106.6969237,-6.1752126],[106.6969988,-6.1752243],[106.6971056,-6.175252],[106.6972964,-6.1753001],[106.6972908,-6.1753128],[106.6971285,-6.1756811],[106.6970217,-6.17593],[106.6969301,-6.1761494],[106.6970141,-6.1762195],[106.6975023,-6.176332],[106.6978533,-6.1764469],[106.6986849,-6.1766071],[106.6992419,-6.1767883],[106.7002131,-6.1770698],[106.7002489,-6.1770802],[106.7004201,-6.177169],[106.7004244,-6.1771712],[106.7009661,-6.1774588],[106.7013552,-6.1775484],[106.7025225,-6.1779966],[106.7034304,-6.1784201],[106.7048876,-6.1790643],[106.7051546,-6.1792307],[106.7056047,-6.1794362],[106.7060167,-6.1796856],[106.7063677,-6.1799035],[106.7065308,-6.1800174],[106.7065419,-6.1800251],[106.7065508,-6.1800313],[106.7068255,-6.180213],[106.7072451,-6.1803761],[106.7075579,-6.1805396],[106.7080309,-6.1808124],[106.7085497,-6.1811214],[106.7088854,-6.1812754],[106.7091658,-6.1813871],[106.7091703,-6.181389],[106.7100909,-6.181756],[106.7108691,-6.1823397],[106.7114565,-6.1828375],[106.7121203,-6.183382],[106.7127459,-6.1838503],[106.7133104,-6.1842942],[106.7141878,-6.184969],[106.7149584,-6.1855178],[106.7170641,-6.186707],[106.717087,-6.1870351],[106.7171557,-6.187099],[106.7172472,-6.1871825],[106.7172625,-6.187397],[106.7173006,-6.187665],[106.7173388,-6.1879778],[106.7173219,-6.1880885],[106.7173082,-6.1881786],[106.7172396,-6.1883865],[106.717148,-6.1884451],[106.7170336,-6.1885514],[106.7169663,-6.1886875],[106.7169649,-6.1886902],[106.7169649,-6.188848],[106.7169344,-6.1890273],[106.7168747,-6.1890827],[106.7168429,-6.1891122],[106.7168358,-6.1891146],[106.7167426,-6.1891468],[106.7166521,-6.189178],[106.716675,-6.189446],[106.7164843,-6.1898279],[106.7164837,-6.1898289],[106.7164156,-6.1899529],[106.7163775,-6.190136],[106.7163698,-6.1905747],[106.716408,-6.1910415],[106.7164437,-6.1913497],[106.7165072,-6.1918974],[106.7165537,-6.1920204],[106.7165636,-6.1920466],[106.716593,-6.1921242],[106.7167055,-6.1924215],[106.7168273,-6.1928358],[106.7168833,-6.1930262],[106.7169029,-6.1930932],[106.7169115,-6.1931224],[106.7172976,-6.1930778],[106.7175616,-6.1929294],[106.7176476,-6.1930284],[106.7179141,-6.1929088],[106.7179188,-6.19288],[106.7179348,-6.1928711],[106.7192038,-6.1921662],[106.7196287,-6.1919902],[106.7207181,-6.1915445],[106.7207484,-6.1916317],[106.7211191,-6.1915705],[106.7214516,-6.1914592],[106.7214814,-6.1914492],[106.7217866,-6.1913445],[106.7221193,-6.1913434],[106.7223487,-6.1914409],[106.72278,-6.1915596],[106.7227903,-6.1916934],[106.7228396,-6.1917095],[106.7229006,-6.1917291],[106.7230916,-6.1918071],[106.7231188,-6.191755],[106.7232496,-6.1917328],[106.7233969,-6.1917214],[106.7233965,-6.1916231],[106.7240509,-6.1915719],[106.7240539,-6.1915837],[106.7241719,-6.1920495],[106.724192,-6.192129],[106.724319,-6.1926682],[106.7244514,-6.1931373],[106.7245986,-6.1939392],[106.7244265,-6.194704],[106.72427,-6.1952067],[106.7240815,-6.1955678],[106.7238417,-6.1960269],[106.7239426,-6.1961591],[106.7239305,-6.1961756],[106.723946,-6.1961876],[106.7239442,-6.1961971],[106.7237769,-6.1964133],[106.7236432,-6.1966294],[106.7234257,-6.196962],[106.7233254,-6.1971282],[106.7232752,-6.1971947],[106.723409,-6.1973278],[106.7235763,-6.1974275],[106.7237769,-6.1975273],[106.72371,-6.197627],[106.7237019,-6.1976291],[106.7237546,-6.1976507],[106.7237017,-6.1977401],[106.7235338,-6.1979461],[106.7235109,-6.1979728],[106.7235338,-6.1979957],[106.723821,-6.1982009],[106.7239534,-6.1982956],[106.7239153,-6.1983528],[106.7236559,-6.1987267],[106.723572,-6.1988425],[106.7233812,-6.1991291],[106.7234041,-6.1994777],[106.7234423,-6.1997752],[106.7234499,-6.1998496],[106.7234283,-6.1999913],[106.7234194,-6.2000499],[106.7234499,-6.2000747],[106.7234978,-6.2001396],[106.7235262,-6.2001782],[106.7235872,-6.2003217],[106.723633,-6.2014275],[106.7238237,-6.2024021],[106.7239687,-6.2031646],[106.7240293,-6.2034401],[106.7240297,-6.2034421],[106.7241594,-6.2040253],[106.7241808,-6.2041298],[106.7241955,-6.2042019],[106.7242004,-6.2042259],[106.7242207,-6.2043256],[106.724172,-6.2046111],[106.7243707,-6.2046934],[106.7244877,-6.2047516],[106.7244627,-6.2056079],[106.7244543,-6.2064641],[106.7244125,-6.2066637],[106.7244376,-6.2070378],[106.7244208,-6.2073869],[106.7243958,-6.2076031],[106.7242201,-6.2076197],[106.7239819,-6.207596],[106.7239693,-6.2075947],[106.7238188,-6.2076031],[106.7237602,-6.2078441],[106.7237351,-6.2080187],[106.72374,-6.2080528],[106.7236788,-6.208097],[106.7233355,-6.2082701],[106.7230943,-6.2083693],[106.7228819,-6.2084567],[106.7225115,-6.2086091],[106.7219698,-6.2088499],[106.7212297,-6.2091169],[106.7206423,-6.2093873],[106.7201693,-6.2096043],[106.7200936,-6.2101278],[106.7200853,-6.2101851],[106.7200871,-6.21019],[106.7201082,-6.210248],[106.720093,-6.2104674],[106.7200396,-6.2106109],[106.7199633,-6.2107082],[106.7200014,-6.2107959],[106.7200624,-6.2109633],[106.7200548,-6.211297],[106.720009,-6.2116828],[106.719934,-6.2120662],[106.7199175,-6.2121501],[106.7198336,-6.2125049],[106.7198717,-6.2126146],[106.719948,-6.2128506],[106.7199022,-6.213027],[106.7197039,-6.2134037],[106.7196429,-6.2136822],[106.7196123,-6.2140074],[106.719681,-6.2140403],[106.719803,-6.2141195],[106.7198336,-6.2141953],[106.7197954,-6.2142353],[106.7197039,-6.2142215],[106.7195894,-6.214232],[106.7193987,-6.2143193],[106.7192614,-6.2144232],[106.7191774,-6.2145672],[106.7191622,-6.2147164],[106.7191317,-6.2148547],[106.7190706,-6.2150464],[106.7189867,-6.2155905],[106.7189657,-6.2156306],[106.7189257,-6.2157068],[106.7189214,-6.215711],[106.7188875,-6.2157435],[106.7186129,-6.2159677],[106.7185824,-6.2160845],[106.7185671,-6.2164026],[106.7185366,-6.2166348],[106.7184298,-6.2170329],[106.7182756,-6.2174199],[106.7181627,-6.2177033],[106.7181431,-6.2177439],[106.7182244,-6.2177867],[106.7185087,-6.2179031],[106.7183749,-6.2186679],[106.7180739,-6.2196322],[106.7179735,-6.2200312],[106.7179735,-6.2200479],[106.718007,-6.2202308],[106.7179735,-6.2205799],[106.7179401,-6.2209457],[106.7179902,-6.2212782],[106.7180571,-6.2217105],[106.7182578,-6.2218269],[106.7182913,-6.222176],[106.7182412,-6.222807],[106.7182578,-6.2228078],[106.7182578,-6.2231237],[106.7182662,-6.2236391],[106.7182327,-6.2239882],[106.7182411,-6.2241296],[106.7182304,-6.2241723],[106.7182504,-6.2241721],[106.718445,-6.2241702],[106.7186205,-6.2241688],[106.7186663,-6.2241697],[106.7194139,-6.2241864],[106.7196581,-6.2241921],[106.7201693,-6.2242088],[106.7206347,-6.2242236],[106.7206591,-6.2242236],[106.7206697,-6.2242236],[106.7207186,-6.2242236],[106.721245,-6.2242203],[106.7217409,-6.2242389],[106.7223666,-6.2242522],[106.7224734,-6.2242546],[106.7227099,-6.2242599],[106.723572,-6.2242661],[106.7238085,-6.2242703],[106.7239077,-6.2242761],[106.7252275,-6.2243271],[106.7257616,-6.2243371],[106.7269593,-6.2243592],[106.7270501,-6.2243609],[106.727051,-6.2243609],[106.727051,-6.2243319],[106.7275927,-6.2243119],[106.7283556,-6.2242837],[106.7289278,-6.2242322],[106.7289583,-6.2242298],[106.7294924,-6.224184],[106.7296602,-6.2241783],[106.7301638,-6.2241611],[106.7303774,-6.2241755],[106.7305834,-6.2241535],[106.730797,-6.2241421],[106.7309877,-6.224092],[106.7313005,-6.2240486],[106.7315142,-6.2240129],[106.7321169,-6.2239151],[106.7321779,-6.223908],[106.7325136,-6.2239657],[106.732651,-6.2239695],[106.7328341,-6.2239752],[106.7330477,-6.2239823],[106.7331621,-6.2239814],[106.7334673,-6.223979],[106.7336123,-6.2239776],[106.7337801,-6.2239747],[106.7338412,-6.2239785],[106.7339298,-6.2239841],[106.7339341,-6.2239843],[106.734009,-6.223989],[106.7347872,-6.2239609],[106.7350542,-6.223958],[106.7353289,-6.2239514],[106.7355349,-6.2239542],[106.7357943,-6.223927],[106.7359926,-6.2239065],[106.7364351,-6.2238832],[106.7368624,-6.2237787],[106.7369387,-6.2236862],[106.7369692,-6.2236838],[106.7373155,-6.2236231],[106.7373164,-6.2236273],[106.7373561,-6.2238079],[106.7376112,-6.2249702],[106.7376389,-6.2250848],[106.7376675,-6.2251285],[106.7376789,-6.2251878],[106.7377788,-6.2253203],[106.7389727,-6.2252499],[106.7396276,-6.225279],[106.7396228,-6.2254385],[106.7396135,-6.2259025],[106.7396562,-6.2259332],[106.739702,-6.2259661],[106.7396721,-6.2260775],[106.740303,-6.2261041],[106.7403151,-6.2261982],[106.7402997,-6.2261983],[106.7403129,-6.2262714],[106.7403133,-6.2264079],[106.7402768,-6.2268938],[106.7402405,-6.2274671],[106.7402476,-6.2274674],[106.7403177,-6.2274696],[106.7403074,-6.2276356],[106.7414356,-6.2277315],[106.7426943,-6.2271962],[106.7427689,-6.2272314],[106.7427599,-6.2272692],[106.7427828,-6.2272754],[106.7428515,-6.2273069],[106.743211,-6.2274659],[106.7432573,-6.2275773],[106.7432153,-6.2280632],[106.7431377,-6.228522],[106.7431844,-6.2286147],[106.7431981,-6.2286419],[106.7432138,-6.2286425],[106.7433631,-6.2288205],[106.744159,-6.2287515],[106.744337,-6.2289108],[106.7443391,-6.2289597],[106.7443352,-6.2289582],[106.7443018,-6.2291732],[106.7440386,-6.2295835],[106.7440505,-6.2295876],[106.7441702,-6.2296287],[106.7438993,-6.2304785],[106.7453878,-6.2307217],[106.7453764,-6.2308346],[106.7453287,-6.2312714],[106.7452941,-6.2314598],[106.7452644,-6.231621],[106.7451991,-6.231654],[106.7449704,-6.2317639],[106.7447527,-6.2319175],[106.7445564,-6.2319509],[106.7444847,-6.2320007],[106.7443986,-6.2320606],[106.7444293,-6.2322897],[106.7444389,-6.232313],[106.7444362,-6.2323357],[106.7444646,-6.2323751],[106.7444788,-6.2324097],[106.7445778,-6.2326441],[106.7446553,-6.2330041],[106.7446554,-6.2330122],[106.7446627,-6.2335772],[106.7446064,-6.2338667],[106.7445759,-6.2339409],[106.7444873,-6.2341564],[106.7442977,-6.2345392],[106.7441098,-6.2353851],[106.7439194,-6.2362423],[106.7440339,-6.2362533],[106.7440333,-6.2362557],[106.7440615,-6.2362578],[106.7440235,-6.2364724],[106.7450139,-6.2365163],[106.7461079,-6.2363135],[106.7468191,-6.236373],[106.7468711,-6.2363774],[106.7468851,-6.2363787],[106.746999,-6.2363896],[106.7470171,-6.2364526],[106.7474062,-6.2380252],[106.7475359,-6.2385631],[106.747864,-6.2392774],[106.7481081,-6.2397323],[106.7482225,-6.2399135],[106.7484591,-6.2403536],[106.7484743,-6.2403999],[106.7485353,-6.2405353],[106.7485888,-6.2406826],[106.7486116,-6.2409539],[106.7483964,-6.2412804],[106.748332,-6.2413954],[106.7482374,-6.2414607],[106.7479934,-6.2416062],[106.7477497,-6.2418067],[106.7476403,-6.2419219],[106.7475459,-6.2420271],[106.7474607,-6.2422386],[106.7474271,-6.242322],[106.7472731,-6.2425072],[106.7471592,-6.2427822],[106.7471154,-6.2431118],[106.747045,-6.2433647],[106.7470019,-6.2434866],[106.7469927,-6.2437113],[106.7469985,-6.2439509],[106.74695,-6.2443604],[106.7469179,-6.2446218],[106.7468493,-6.2448311],[106.7468195,-6.2450294],[106.7468187,-6.2450347],[106.7468139,-6.2452677],[106.7468111,-6.245399],[106.746811,-6.2454003],[106.7468035,-6.2455416],[106.7467501,-6.2462134],[106.7466732,-6.2466677],[106.7466794,-6.2472052],[106.7467809,-6.2472868],[106.7469892,-6.2476881],[106.7470627,-6.247834],[106.7470878,-6.2479723],[106.7471725,-6.2482934],[106.7471684,-6.2485431],[106.7471796,-6.2485872],[106.7472359,-6.2486619],[106.7472483,-6.2487471],[106.7472479,-6.248748],[106.7473139,-6.2487972],[106.7475138,-6.2489013],[106.7477986,-6.2490302],[106.7478006,-6.249032],[106.7479687,-6.2491794],[106.7481341,-6.2494334],[106.7481534,-6.2496119],[106.7468235,-6.2494465],[106.7468237,-6.2494456],[106.7468075,-6.2494318],[106.7468125,-6.2494495],[106.746712,-6.2494282],[106.7458913,-6.2492547],[106.7458355,-6.2492458],[106.7458111,-6.2492407],[106.7457846,-6.2492377],[106.7453464,-6.2491678],[106.7453346,-6.2491653],[106.7452865,-6.2491583],[106.7447588,-6.2490742],[106.7440632,-6.2489518],[106.7439976,-6.2489268],[106.7439331,-6.2488927],[106.743931,-6.2489015],[106.7439298,-6.248901],[106.7437869,-6.2495073],[106.7437693,-6.2495824],[106.7437482,-6.2496712],[106.7437468,-6.2496781],[106.7437228,-6.2497803],[106.7436538,-6.2501456],[106.7436409,-6.2502106],[106.7429246,-6.2501243],[106.7425082,-6.2500028],[106.742106,-6.2500315],[106.7416557,-6.2501729],[106.7415134,-6.2502176],[106.7411931,-6.2502801],[106.7407737,-6.2502788],[106.7407611,-6.2502788],[106.7407084,-6.2502786],[106.7401362,-6.2502768],[106.7395838,-6.250265],[106.7392491,-6.2503394],[106.7387894,-6.250503],[106.7385851,-6.2505805],[106.7379631,-6.2506422],[106.7377278,-6.2506345],[106.7377053,-6.2506655],[106.7376735,-6.2507097],[106.7375439,-6.2507033],[106.7372711,-6.2506974],[106.7371276,-6.2505955],[106.7368682,-6.2505145],[106.7367351,-6.2505093],[106.7365477,-6.2505019],[106.7352838,-6.2505324],[106.7352386,-6.2505335],[106.7349796,-6.2505753],[106.7343482,-6.2505844],[106.7337488,-6.250593],[106.7326677,-6.2505898],[106.7326578,-6.2505898],[106.7321125,-6.2506393],[106.7320784,-6.2506245],[106.7318276,-6.2506373],[106.7309209,-6.2507017],[106.7307133,-6.2507],[106.7303344,-6.2506968],[106.7302801,-6.2507789],[106.7290511,-6.2508607],[106.7288792,-6.2508722],[106.7284837,-6.2508803],[106.7284103,-6.2513582],[106.7284068,-6.251358],[106.728155,-6.2513447],[106.7278033,-6.2513261],[106.7276395,-6.2512857],[106.7274349,-6.2512795],[106.7274077,-6.2513137],[106.7273883,-6.2513154],[106.7271623,-6.251335],[106.7268964,-6.2513359],[106.7266238,-6.2513777],[106.7264942,-6.251385],[106.7263855,-6.2515013],[106.7261332,-6.2514817],[106.7259286,-6.2514823],[106.7257853,-6.2514555],[106.7256187,-6.2513728],[106.7255941,-6.2513606],[106.7253282,-6.251382],[106.7246534,-6.2514729],[106.7246319,-6.2511591],[106.7245031,-6.2511413],[106.7240521,-6.2510791],[106.7236024,-6.2511966],[106.7236036,-6.2512419],[106.7236257,-6.2520699],[106.7236514,-6.2524726],[106.7236213,-6.2524704],[106.7236142,-6.2524847],[106.7234407,-6.2528347],[106.7232566,-6.2528353],[106.7229765,-6.2527485],[106.7227993,-6.2526935],[106.7225602,-6.2525715],[106.7224793,-6.2523863],[106.7224767,-6.2523861],[106.7224502,-6.2522989],[106.7223062,-6.252026],[106.7222993,-6.2520128],[106.7220006,-6.2513792],[106.721536,-6.2510942],[106.7211538,-6.2510067],[106.7207923,-6.2509601],[106.7206794,-6.2510218],[106.7206289,-6.2510494],[106.7206281,-6.2510492],[106.7205265,-6.2510224],[106.7204381,-6.2510773],[106.7202883,-6.2510233],[106.7202068,-6.2510678],[106.72026,-6.25127],[106.7204393,-6.2522362],[106.7190859,-6.2521987],[106.7166674,-6.25212],[106.7145554,-6.2520904],[106.7140505,-6.2520833],[106.7138987,-6.2520802],[106.7119651,-6.2520403],[106.7114091,-6.2520526],[106.7112351,-6.2520565],[106.7112209,-6.2520249],[106.7104723,-6.251998],[106.710221,-6.2520134],[106.7100301,-6.2520141],[106.7096897,-6.2520461],[106.7079699,-6.252152],[106.7074957,-6.2521705],[106.7074407,-6.2521846],[106.7074053,-6.2521868],[106.7060032,-6.2525531],[106.7048189,-6.2528625],[106.7041476,-6.2533159],[106.7038424,-6.2549396],[106.7039492,-6.2555461],[106.7039721,-6.2556367],[106.7040026,-6.2558427],[106.7040255,-6.2559519],[106.7040865,-6.2562342],[106.7040213,-6.2562002],[106.7039989,-6.2561885],[106.7039772,-6.2561772],[106.7039492,-6.2561626],[106.7036974,-6.2558412],[106.7036821,-6.2558169],[106.7036516,-6.2557592],[106.7036059,-6.255692],[106.7033923,-6.2554789],[106.7029879,-6.2550836],[106.7028277,-6.2549839],[106.7024538,-6.2548666],[106.7022936,-6.2548165],[106.7021334,-6.2547774],[106.7019343,-6.2547062],[106.7015307,-6.2545619],[106.7012102,-6.2544742],[106.7006914,-6.2543225],[106.7004854,-6.2542252],[106.7002947,-6.2541103],[106.6998369,-6.2538757],[106.6996939,-6.2538151],[106.6996309,-6.2537885],[106.6994631,-6.2536826],[106.6991579,-6.2533665],[106.6985323,-6.2525115],[106.6985018,-6.2524624],[106.6984726,-6.2523691],[106.6983187,-6.2518778],[106.6982805,-6.2517886],[106.6982119,-6.2517514],[106.6981737,-6.2517476],[106.6981599,-6.2517461],[106.6979601,-6.2517242],[106.6978151,-6.251708],[106.697098,-6.251699],[106.6967928,-6.2516952],[106.6960451,-6.251668],[106.6958773,-6.2516708],[106.6958849,-6.2516332],[106.6959231,-6.2511721],[106.6959917,-6.2506661],[106.6961062,-6.2503204],[106.6962053,-6.25],[106.6962627,-6.2497909],[106.6963121,-6.2496109],[106.6964419,-6.2491894],[106.6964823,-6.248934],[106.6964876,-6.2489004],[106.6967089,-6.2475352],[106.6968004,-6.2468042],[106.6968462,-6.2464147],[106.6968581,-6.246318],[106.6969149,-6.2458549],[106.6970217,-6.2450166],[106.6970903,-6.2446609],[106.6971209,-6.2444997],[106.6969344,-6.2444919],[106.6969547,-6.2442899],[106.6969262,-6.2442884],[106.6966993,-6.2442845],[106.6966936,-6.2442844],[106.6961242,-6.2442747],[106.6947139,-6.2442192],[106.6941355,-6.2442342],[106.6941313,-6.2442344],[106.6938302,-6.2442422],[106.6937593,-6.2442441],[106.693129,-6.2441806],[106.6927959,-6.2440506],[106.6927783,-6.2440415],[106.6927769,-6.2440408],[106.692315,-6.2438011],[106.6919926,-6.2436383],[106.6915506,-6.2435961],[106.6911691,-6.243701],[106.6909132,-6.2438383],[106.6906749,-6.2439889],[106.690674,-6.2439795],[106.6906435,-6.2438321],[106.6906206,-6.2436633],[106.6904986,-6.2428398],[106.6904375,-6.2427254],[106.6904132,-6.2426841],[106.690411,-6.2426802],[106.6903002,-6.2424917],[106.6901934,-6.2423181],[106.6899569,-6.2419877],[106.6898962,-6.2418812],[106.6898874,-6.2418657],[106.6897814,-6.2416796],[106.689728,-6.2414961],[106.6897204,-6.2414622],[106.6896135,-6.2411976],[106.689522,-6.2409816],[106.6893847,-6.2406888],[106.6893313,-6.240593],[106.6892592,-6.2404581],[106.6892,-6.2403361],[106.6891615,-6.2403352],[106.6889147,-6.2403296],[106.6885867,-6.2403063],[106.688129,-6.2402713],[106.6877199,-6.2402078],[106.6875094,-6.2402206],[106.6874962,-6.2402327],[106.6874246,-6.2402979],[106.6873803,-6.2403588],[106.6873329,-6.2403906],[106.6873355,-6.240391],[106.6873278,-6.2403954],[106.687251,-6.2404565],[106.6871541,-6.2405256],[106.6870853,-6.2405421],[106.6869389,-6.2405104],[106.68695,-6.24051],[106.68698,-6.24045],[106.68698,-6.2403445],[106.6869586,-6.2401535],[106.6869138,-6.2400686],[106.6868529,-6.2400404],[106.6867354,-6.2400165],[106.6866382,-6.2400006],[106.6865328,-6.2399604],[106.686484,-6.2398917],[106.6864878,-6.2398147],[106.6865119,-6.2397336],[106.6865561,-6.2396484],[106.686568,-6.2395551],[106.686592,-6.239474],[106.6866484,-6.2393888],[106.686713,-6.2393318],[106.6867695,-6.2392871],[106.6868546,-6.2392949],[106.6869357,-6.2393433],[106.6870208,-6.2393592],[106.6871179,-6.2393305],[106.6871906,-6.2392857],[106.6872232,-6.2392605],[106.6872176,-6.2392619],[106.6872027,-6.2392316],[106.6870043,-6.238966],[106.6869916,-6.2389438],[106.6869593,-6.2388877],[106.6868822,-6.2387533],[106.6868725,-6.2387495],[106.686794,-6.2385619],[106.6866303,-6.2385079],[106.6866273,-6.2385121],[106.6864883,-6.2384864],[106.6864663,-6.2384319],[106.6865095,-6.2383117],[106.6865802,-6.2382296],[106.686738,-6.238109],[106.6868501,-6.2380268],[106.6868577,-6.2380212],[106.686863,-6.2379503],[106.6868663,-6.23788],[106.6868668,-6.2378688],[106.6868681,-6.2378411],[106.6869058,-6.237699],[106.6870228,-6.2375812],[106.6870237,-6.2375816],[106.6870253,-6.2375512],[106.687025,-6.2374584],[106.6869757,-6.2373767],[106.6869009,-6.2373321],[106.6868746,-6.2373533],[106.6868638,-6.2373677],[106.6868393,-6.2373662],[106.6867408,-6.2372901],[106.6867187,-6.2371919],[106.6868384,-6.2370824],[106.6869118,-6.2370276],[106.6869664,-6.2370328],[106.6870477,-6.2368797],[106.6872985,-6.2368189],[106.6878429,-6.2364841],[106.6878612,-6.2364532],[106.6878749,-6.2364302],[106.68792,-6.2363539],[106.6880274,-6.2361724],[106.6880414,-6.2360079],[106.6880415,-6.2360063],[106.6880432,-6.2359867],[106.6880812,-6.235932],[106.6882499,-6.2358223],[106.6883367,-6.2356746],[106.6884238,-6.2355979],[106.6885765,-6.2355974],[106.6886909,-6.2355534],[106.6887043,-6.2354502],[106.6886904,-6.235435],[106.6885912,-6.2352805],[106.6885888,-6.2352404],[106.6885149,-6.2350845],[106.6884763,-6.2349645],[106.6884927,-6.2349699],[106.6885149,-6.2349652],[106.6887232,-6.2349211],[106.6887133,-6.234901],[106.6886523,-6.2347426],[106.6885981,-6.2346802],[106.6885787,-6.2345875],[106.6885021,-6.234495],[106.6884693,-6.2344842],[106.6882591,-6.2344311],[106.6882563,-6.2344434],[106.688217,-6.2344626],[106.6881257,-6.2345071],[106.6880927,-6.2344199],[106.688111,-6.2343829],[106.6881802,-6.2342433],[106.6881487,-6.234221],[106.6880114,-6.2341213],[106.688019,-6.2340498],[106.6880493,-6.2340133],[106.6879659,-6.233989],[106.6879165,-6.2338909],[106.6879953,-6.2338252],[106.6885672,-6.2335231],[106.6885998,-6.2335012],[106.6886487,-6.23343],[106.6886702,-6.2333208],[106.6886754,-6.2332716],[106.6887566,-6.2330585],[106.6887782,-6.2330231],[106.6888434,-6.2329163],[106.6889742,-6.2328776],[106.6890995,-6.2328117],[106.6892219,-6.2327022],[106.68926,-6.2326857],[106.6893309,-6.2326854],[106.6894563,-6.2326632],[106.6895217,-6.2326357],[106.6896305,-6.2325644],[106.6897886,-6.2325147],[106.6898487,-6.2325473],[106.6898598,-6.2326182],[106.6897561,-6.2327532],[106.6897652,-6.2327525],[106.6897404,-6.2328151],[106.689719,-6.2329189],[106.689692,-6.2330118],[106.6896761,-6.2331538],[106.6896549,-6.2333504],[106.6897098,-6.2334758],[106.6898005,-6.2333671],[106.6898182,-6.2333459],[106.6899653,-6.2331911],[106.6900033,-6.2331418],[106.6900577,-6.2330871],[106.6900521,-6.2330489],[106.6900846,-6.2329614],[106.69015,-6.2329612],[106.6902087,-6.2329764],[106.6902538,-6.2329882],[106.6903735,-6.2329059],[106.6903954,-6.2329168],[106.6904418,-6.233091],[106.6904986,-6.2330775],[106.6905443,-6.233161],[106.6905896,-6.2332532],[106.6906635,-6.2331888],[106.6906852,-6.2331396],[106.6907448,-6.2329975],[106.6907552,-6.2328665],[106.690782,-6.2326917],[106.6907553,-6.2325344],[106.6907542,-6.232528],[106.6907703,-6.2324625],[106.6908953,-6.2323256],[106.690917,-6.2322873],[106.6908787,-6.2322438],[106.6908511,-6.2321401],[106.6908837,-6.2321018],[106.6909983,-6.2321014],[106.6910639,-6.2321613],[106.6914133,-6.2322311],[106.6915264,-6.2321779],[106.6915056,-6.2321315],[106.6915285,-6.2320828],[106.691559,-6.2320552],[106.69157,-6.23196],[106.69146,-6.2319],[106.69133,-6.23182],[106.6913,-6.23176],[106.691287,-6.2316605],[106.6911877,-6.2316314],[106.6911594,-6.2313258],[106.6911317,-6.2311785],[106.6912518,-6.2311945],[106.6913719,-6.2312432],[106.6914759,-6.231352],[106.6916232,-6.231368],[106.6918196,-6.2313619],[106.6918798,-6.2314326],[106.6921259,-6.2316011],[106.6923224,-6.2316441],[106.6923847,-6.2315604],[106.6924201,-6.2315128],[106.6924467,-6.2312998],[106.6924737,-6.2312015],[106.6926146,-6.2309171],[106.6927565,-6.2309331],[106.692937,-6.2310744],[106.6932101,-6.2311991],[106.6933656,-6.2311986],[106.6934174,-6.2311984],[106.6934199,-6.2311712],[106.6934705,-6.2311565],[106.6935321,-6.231176],[106.6935682,-6.2309195],[106.6936315,-6.2305453],[106.6939145,-6.2304188],[106.6939433,-6.2304063],[106.69399,-6.230386],[106.6941479,-6.2303199],[106.6941894,-6.2301939],[106.694203,-6.2301458],[106.694206,-6.2301372],[106.6942054,-6.2301371],[106.6942078,-6.2301286],[106.6941245,-6.2301209],[106.69412,-6.23012],[106.6941192,-6.2301204],[106.69411,-6.2301196],[106.6939658,-6.2301946],[106.6937679,-6.2302924],[106.6937349,-6.2303077],[106.6935656,-6.2303357],[106.6934164,-6.2302756],[106.6933416,-6.2302106],[106.6932709,-6.2301578],[106.6932463,-6.2301251],[106.6932155,-6.2300805],[106.6931858,-6.2300291],[106.69317,-6.22995],[106.6931846,-6.2299172],[106.6932101,-6.2298614],[106.6932127,-6.2298573],[106.6932371,-6.2298329],[106.6932358,-6.2298206],[106.6932425,-6.22981],[106.6932496,-6.2297939],[106.6933804,-6.2295678],[106.6934265,-6.2293889],[106.6934321,-6.2293759],[106.6934298,-6.2293758],[106.6934312,-6.2293706],[106.6929961,-6.2293538],[106.6917192,-6.2296243],[106.6914404,-6.2296834],[106.6900461,-6.2298177],[106.6897864,-6.2297536],[106.689704,-6.2298366],[106.6893985,-6.2301443],[106.6891385,-6.2299828],[106.6887817,-6.229984],[106.6880426,-6.2306425],[106.6879408,-6.2307332],[106.6869996,-6.2305415],[106.6864082,-6.2304954],[106.6857992,-6.2304479],[106.6851838,-6.2307096],[106.684827,-6.2306782],[106.6843739,-6.2310043],[106.6843665,-6.2309954],[106.6842111,-6.23081],[106.6838215,-6.2306815],[106.6837505,-6.2306383],[106.6832366,-6.2303263],[106.682491,-6.2304585],[106.6822313,-6.2303944],[106.6818143,-6.2303957],[106.6817782,-6.230844],[106.6817705,-6.2310181],[106.6817583,-6.2310399],[106.6817476,-6.2310586],[106.6817451,-6.2310637],[106.6817138,-6.2311197],[106.6812347,-6.2311474],[106.6802592,-6.2312019],[106.6802009,-6.2311842],[106.6798965,-6.2310757],[106.6792009,-6.2308152],[106.6791855,-6.2308221],[106.6791831,-6.2308212],[106.6788847,-6.2309503],[106.6782976,-6.2309522],[106.6782976,-6.2309486],[106.6778534,-6.2309536],[106.6778174,-6.2309537],[106.6769509,-6.2309565],[106.6766393,-6.2309539],[106.6764529,-6.2309545],[106.6756003,-6.2309199],[106.6755942,-6.2309199],[106.6755547,-6.2309182],[106.6753388,-6.2309189],[106.6749388,-6.2309173],[106.6748619,-6.2309204],[106.6747862,-6.2309206],[106.6741032,-6.2309228],[106.6738483,-6.2310087],[106.6737281,-6.231047],[106.6734346,-6.231048],[106.67343,-6.2310527],[106.6728011,-6.2310546],[106.6726101,-6.2310506],[106.6720805,-6.231411],[106.6717148,-6.2316567],[106.6716766,-6.2316707],[106.6715873,-6.2317018],[106.6715826,-6.2316972],[106.6712802,-6.2318147],[106.6710988,-6.2318852],[106.670999,-6.2319259],[106.6705039,-6.2321204],[106.6704312,-6.2321128],[106.6695805,-6.2319879],[106.6691254,-6.2319547],[106.6689303,-6.2319402],[106.6687805,-6.2319266],[106.668779,-6.2319251],[106.6686568,-6.2319153],[106.66803,-6.2318583],[106.667883,-6.2318533],[106.6678285,-6.2318489],[106.667316,-6.2318319],[106.667316,-6.2318272],[106.6670971,-6.2318466],[106.6670879,-6.2318476],[106.6668172,-6.2318658],[106.6668169,-6.2318659],[106.6659548,-6.2317815],[106.6644457,-6.2316011],[106.6644457,-6.2315939],[106.6640822,-6.2315577],[106.6636757,-6.2315526],[106.6630175,-6.2315369],[106.6613543,-6.2315588],[106.6607807,-6.2315794],[106.6604818,-6.2314145],[106.6602893,-6.2311911],[106.6596989,-6.2309503],[106.659692,-6.2309519],[106.6580417,-6.2313446],[106.6572985,-6.2310581],[106.6561215,-6.2306043],[106.6548458,-6.2301767],[106.6535218,-6.2297329],[106.6534743,-6.2297314],[106.6512175,-6.2296601],[106.6511977,-6.2296553],[106.6508244,-6.2294524],[106.6506424,-6.2293534],[106.6505705,-6.2293144],[106.6505541,-6.2293],[106.6505539,-6.2293053],[106.650639,-6.2293613],[106.6505977,-6.2294574],[106.6505711,-6.2295164],[106.6505426,-6.2295461],[106.6481804,-6.2294365],[106.6480952,-6.2295101],[106.6462719,-6.2294104],[106.6462584,-6.2294096],[106.6460107,-6.2293632],[106.6459898,-6.2293593],[106.6459128,-6.2292572],[106.6458527,-6.229138],[106.645748,-6.2289992],[106.6456987,-6.2289337],[106.6441583,-6.2296977],[106.6435881,-6.2300065],[106.6434009,-6.2300924],[106.6432092,-6.2301271],[106.6430047,-6.2301278],[106.6428936,-6.2300428],[106.6427825,-6.2299408],[106.6426797,-6.2297961],[106.6425686,-6.2297026],[106.6423299,-6.2296778],[106.6420368,-6.2296787],[106.6419651,-6.229661],[106.6416919,-6.2296618],[106.6415979,-6.2296904],[106.6411878,-6.2297155],[106.6407787,-6.2297253],[106.6403719,-6.2290851],[106.6403676,-6.2290783],[106.6400954,-6.2292668],[106.6396335,-6.2293761],[106.638065,-6.2297473],[106.6380083,-6.2297048],[106.6371843,-6.2291407],[106.6365709,-6.2287394],[106.6365664,-6.2287364],[106.635834,-6.2282958],[106.635658,-6.2281974],[106.6355669,-6.2281465],[106.6338877,-6.2273646],[106.6324694,-6.2267041],[106.6318438,-6.2263541],[106.6317331,-6.2262692],[106.6314242,-6.2260322],[106.6307757,-6.2256412],[106.6304634,-6.2255132],[106.6304629,-6.225513],[106.6303408,-6.2257457],[106.6303103,-6.2258377],[106.630234,-6.2259879],[106.630173,-6.2261276],[106.6301119,-6.2263918],[106.6300848,-6.2264442],[106.6300432,-6.2265248],[106.6300244,-6.226527],[106.6299517,-6.2265353],[106.6299336,-6.2265267],[106.6292356,-6.2269566],[106.6291506,-6.2270827],[106.6290057,-6.2274027],[106.6289217,-6.2274379],[106.628792,-6.2274117],[106.6287157,-6.2274923],[106.6286318,-6.2275185],[106.628113,-6.2277565],[106.6278471,-6.227812],[106.6261827,-6.2272543],[106.6260507,-6.2272101],[106.6240087,-6.2272569],[106.6236497,-6.2272651],[106.6232995,-6.2272732],[106.6228672,-6.2272831],[106.6222767,-6.2272968],[106.622167,-6.2272479],[106.6221664,-6.2272481],[106.6215873,-6.2274379],[106.6208438,-6.2275114],[106.6199259,-6.2274826],[106.619285,-6.2274845],[106.6191651,-6.2270811],[106.6191173,-6.2269625],[106.6190538,-6.2269152],[106.618927,-6.2268285],[106.6187763,-6.226726],[106.6187624,-6.2267096],[106.6186493,-6.2265759],[106.6185617,-6.2263862],[106.6185294,-6.2261725],[106.6185447,-6.226022],[106.6185127,-6.2259033],[106.6184413,-6.2258481],[106.618283,-6.2258249],[106.6182274,-6.2257459],[106.6181795,-6.2255956],[106.6181314,-6.2254057],[106.6180674,-6.2251684],[106.6178195,-6.2249292],[106.6178161,-6.224926],[106.6171725,-6.224998],[106.6167834,-6.2250461],[106.6163942,-6.2250786],[106.6162951,-6.2250781],[106.6162341,-6.2250867],[106.6161204,-6.2250967],[106.6161044,-6.2250981],[106.6160073,-6.2251436],[106.6159771,-6.2251578],[106.6157226,-6.225288],[106.615616,-6.2253475],[106.615532,-6.2253794],[106.6154884,-6.2254],[106.615138,-6.2255579],[106.6150693,-6.2256208],[106.6150567,-6.2256145],[106.6149272,-6.2257088],[106.6146624,-6.2259082],[106.6145893,-6.225954],[106.6144253,-6.226068],[106.6142627,-6.2261751],[106.6141623,-6.226282],[106.6141238,-6.2264188],[106.6140579,-6.2266824],[106.6140521,-6.2267098],[106.6138689,-6.2269225],[106.6135695,-6.2270423],[106.6134634,-6.2270867],[106.6134242,-6.2271004],[106.6132967,-6.2271514],[106.6129076,-6.2272787],[106.6129045,-6.2272793],[106.6128187,-6.2273082],[106.6127159,-6.2273147],[106.6125948,-6.2273264],[106.6125409,-6.2273257],[106.6125054,-6.2273279],[106.6121733,-6.2273227],[106.6121622,-6.227321],[106.6121371,-6.2273206],[106.6120777,-6.2273079],[106.6119351,-6.2272858],[106.6118866,-6.2272667],[106.6118624,-6.2272615],[106.611809,-6.2272363],[106.611634,-6.2271676],[106.6114706,-6.2269988],[106.6114115,-6.2268814],[106.611364,-6.2267924],[106.6112691,-6.2266921],[106.6109833,-6.2262688],[106.6109469,-6.2262167],[106.6108324,-6.2258997],[106.6107895,-6.2257452],[106.6107457,-6.2256152],[106.6107485,-6.225451],[106.6107485,-6.2253108],[106.610751,-6.2253033],[106.6107511,-6.2253016],[106.610756,-6.2252885],[106.6108,-6.2251577],[106.6108248,-6.2250838],[106.6108398,-6.2250664],[106.6108505,-6.225038],[106.6110101,-6.2248725],[106.6111376,-6.2247357],[106.61144,-6.2244881],[106.6115191,-6.2244234],[106.6115214,-6.2244218],[106.61187,-6.2241902],[106.6123125,-6.2239675],[106.6124728,-6.2238364],[106.6131289,-6.2236676],[106.6135849,-6.223552],[106.6135845,-6.2231677],[106.6135837,-6.2225506],[106.6135835,-6.2223747],[106.6135814,-6.2207098],[106.6134531,-6.2205503],[106.6132619,-6.2202652],[106.6132604,-6.220263],[106.6131494,-6.2202652],[106.6124058,-6.2202801],[106.6109472,-6.2203093],[106.6097446,-6.2203334],[106.609489,-6.2203385],[106.6105187,-6.2187848],[106.6118965,-6.2167059],[106.6122573,-6.2162357],[106.6123881,-6.2161408],[106.6124179,-6.2160998],[106.6124302,-6.2160827],[106.6124193,-6.2160744],[106.6125338,-6.2159004],[106.6125846,-6.2157974],[106.6125872,-6.2157921],[106.6122667,-6.2156467],[106.6122057,-6.2156181],[106.6121828,-6.2156091],[106.6121699,-6.2156182],[106.6119006,-6.2158069],[106.6117726,-6.2157403],[106.6114886,-6.2155923],[106.6110613,-6.2154498],[106.6107104,-6.215394],[106.6107023,-6.2153923],[106.6104662,-6.215342],[106.6104623,-6.2152907],[106.6103368,-6.2153152],[106.6099545,-6.2153164],[106.6097943,-6.2153046],[106.6097735,-6.2153622],[106.6095648,-6.2152855],[106.6091347,-6.2151276],[106.6082972,-6.2150129],[106.6081214,-6.2149888],[106.6077687,-6.2149405],[106.6073043,-6.2148872],[106.6073191,-6.2147756],[106.6073108,-6.2147758],[106.6069627,-6.2147823],[106.6066571,-6.2147209],[106.6064888,-6.2147214],[106.6056847,-6.2147113],[106.6056841,-6.2145055],[106.6053507,-6.2145065],[106.6048551,-6.214508],[106.6043437,-6.2144035],[106.6038446,-6.2142553],[106.6038084,-6.2137806],[106.6037219,-6.2137651],[106.6034548,-6.2137174],[106.6030886,-6.2136168],[106.6030492,-6.213606],[106.6029589,-6.213581],[106.6028139,-6.2135396],[106.6024099,-6.2134273],[106.6023867,-6.2134208],[106.6023821,-6.2134299],[106.6023678,-6.2133132],[106.6026755,-6.2122532],[106.6029283,-6.2114954],[106.6029945,-6.2112969],[106.603197,-6.2106194],[106.6035865,-6.2100367],[106.6037346,-6.2098153],[106.6041016,-6.2092647],[106.6043509,-6.2088908],[106.60436,-6.2088783],[106.6047122,-6.2083929],[106.6047087,-6.2083905],[106.6038441,-6.2077904],[106.6030285,-6.2072243],[106.6032431,-6.2069289],[106.6029325,-6.2067193],[106.6028751,-6.2066805],[106.6021952,-6.2062217],[106.6021881,-6.2062169],[106.6016632,-6.2059757],[106.6014966,-6.2058991],[106.6012605,-6.2057732],[106.6010556,-6.2058262],[106.6009422,-6.2058396],[106.6007413,-6.2058097],[106.6007393,-6.2059032],[106.6007375,-6.2059887],[106.6006073,-6.2062162],[106.6005946,-6.2063604],[106.6005512,-6.2064304],[106.6004682,-6.206548],[106.6004339,-6.2065967],[106.6003776,-6.2067585],[106.6002951,-6.2068985],[106.6003391,-6.2069988],[106.6003083,-6.2070021],[106.60031,-6.207],[106.60025,-6.20696],[106.6002003,-6.206929],[106.6001943,-6.2069252],[106.5999561,-6.2073362],[106.5999081,-6.2073582],[106.5993193,-6.2073213],[106.597432,-6.2072731],[106.5972345,-6.2073555],[106.5970304,-6.2075199],[106.5969829,-6.2075951],[106.5966755,-6.2073084],[106.5965453,-6.207187],[106.5963192,-6.2068397],[106.5961748,-6.2064375],[106.5961195,-6.2061715],[106.5960809,-6.2059096],[106.5960776,-6.2058874],[106.5957,-6.20586],[106.5956978,-6.2058774],[106.5956647,-6.2061381],[106.59561,-6.20657],[106.59561,-6.20699],[106.59561,-6.20726],[106.59561,-6.2072604],[106.59561,-6.20733],[106.59553,-6.20749],[106.59541,-6.20761],[106.59507,-6.20785],[106.5950004,-6.2078953],[106.59487,-6.20798],[106.59466,-6.20815],[106.59461,-6.20831],[106.59457,-6.20854],[106.59454,-6.20867],[106.59455,-6.20899],[106.59463,-6.20941],[106.59478,-6.2099],[106.5947898,-6.209927],[106.59482,-6.21001],[106.59481,-6.21031],[106.5948088,-6.2103179],[106.5947885,-6.210446],[106.59472,-6.21088],[106.5946656,-6.2110577],[106.594609,-6.2112427],[106.59457,-6.21137],[106.5945527,-6.2114045],[106.59454,-6.21143],[106.5945391,-6.2114318],[106.5945437,-6.2114319],[106.5944064,-6.2117691],[106.5943453,-6.2119312],[106.5940096,-6.2126197],[106.5939944,-6.2126469],[106.5937884,-6.2133712],[106.593735,-6.213551],[106.5937273,-6.213633],[106.5941393,-6.21388],[106.5943377,-6.2140531],[106.5943835,-6.2140975],[106.5945513,-6.2142448],[106.5947191,-6.2144737],[106.5947497,-6.2145791],[106.5945818,-6.2149963],[106.5941164,-6.21631],[106.5940083,-6.2166081],[106.5938389,-6.2169973],[106.5937919,-6.2172544],[106.5937502,-6.2174282],[106.593717,-6.2176333],[106.5936744,-6.2178332],[106.5936625,-6.217923],[106.5936166,-6.2180943],[106.5934982,-6.2182305],[106.5934754,-6.2182701],[106.5934222,-6.2183327],[106.5933764,-6.2184415],[106.5933778,-6.2184439],[106.5933917,-6.218468],[106.5933358,-6.2184402],[106.5933305,-6.2184397],[106.5932937,-6.2184358],[106.5932406,-6.2184277],[106.593126,-6.2183545],[106.5929186,-6.2182363],[106.592847,-6.2182047],[106.5928004,-6.2187193],[106.5928392,-6.2187364],[106.592766,-6.219114],[106.5927577,-6.2192235],[106.5927554,-6.2193634],[106.5927556,-6.2193642],[106.5927554,-6.2193644],[106.5927556,-6.2193643],[106.5927553,-6.2193703],[106.5924968,-6.2196233],[106.5924882,-6.2196325],[106.5924848,-6.2196351],[106.5922953,-6.2198206],[106.5919604,-6.2200965],[106.5919147,-6.2201272],[106.5915048,-6.2203991],[106.5912812,-6.2205734],[106.5912326,-6.2206455],[106.5909258,-6.2211993],[106.5908304,-6.2213387],[106.5907118,-6.2215645],[106.5906372,-6.2216208],[106.5906219,-6.2216432],[106.5906286,-6.2216437],[106.5915577,-6.2216791],[106.5916388,-6.2226942],[106.5916301,-6.2226935],[106.5916325,-6.2227246],[106.591192,-6.2226558],[106.5906631,-6.2226103],[106.590518,-6.2226057],[106.5905138,-6.2225975],[106.5900447,-6.2225571],[106.5897852,-6.2225469],[106.5897719,-6.2225337],[106.588568,-6.2224301],[106.5884934,-6.2224285],[106.5880297,-6.2224299],[106.5880292,-6.2224189],[106.5880216,-6.2224187],[106.5880248,-6.2223217],[106.5880133,-6.2220634],[106.5875182,-6.2220557],[106.587188,-6.2220567],[106.5871784,-6.2219517],[106.5871263,-6.2214704],[106.5867626,-6.2214237],[106.586082,-6.2213369],[106.5860463,-6.2213324],[106.585937,-6.2213185],[106.5857093,-6.2212931],[106.5856203,-6.2213015],[106.5854232,-6.22132],[106.5852801,-6.2213465],[106.585033,-6.2213472],[106.5847598,-6.221335],[106.5844729,-6.2211146],[106.5843034,-6.2209849],[106.5840041,-6.2209337],[106.582956,-6.2206931],[106.5828846,-6.2206767],[106.5827932,-6.2205859],[106.5831406,-6.2202262],[106.5829012,-6.2202215],[106.5827639,-6.2201461],[106.5826037,-6.2199392],[106.582474,-6.2197051],[106.5823061,-6.2194914],[106.5817568,-6.2190031],[106.581711,-6.2189674],[106.5811945,-6.2184948],[106.5809939,-6.2183113],[106.5807849,-6.2180327],[106.5807574,-6.2179961],[106.5806506,-6.2176671],[106.5803273,-6.2163587],[106.5803225,-6.2163391],[106.5801546,-6.2162723],[106.5799715,-6.2162032],[106.5796129,-6.2161741]]]],"type":"MultiPolygon"},"properties":{"fid":2418966,"KELAS":"ZONA PANAS","CLASS":"HOT ZONE","TEMPERATUR":"≥ 32⁰ C"}}]}