{"type":"FeatureCollection","features":[{"type":"Feature","geometry":{"coordinates":[[[[106.8070918,-6.3635067],[106.8070833,-6.3635063],[106.8066866,-6.3634649],[106.8064046,-6.3634261],[106.8062593,-6.3634062],[106.8058168,-6.3634191],[106.8057253,-6.3634348],[106.8055346,-6.3634353],[106.8052752,-6.3634615],[106.8052241,-6.3634611],[106.805031,-6.3634596],[106.8046038,-6.3634672],[106.8042984,-6.3634815],[106.8041231,-6.3634897],[106.8039629,-6.3634973],[106.8037111,-6.3635368],[106.8036654,-6.3635507],[106.8035889,-6.363559],[106.8035509,-6.3635631],[106.8034136,-6.3635831],[106.8032991,-6.3635588],[106.8032748,-6.3635469],[106.8030703,-6.3634463],[106.802994,-6.3634215],[106.8029767,-6.3634309],[106.8029698,-6.3634262],[106.8029682,-6.3634356],[106.8018541,-6.3640453],[106.8013318,-6.3643311],[106.8012087,-6.3643985],[106.8000109,-6.3652845],[106.7999498,-6.3653879],[106.7998645,-6.3655138],[106.7998354,-6.3655133],[106.7995836,-6.3654652],[106.79937,-6.365408],[106.7993319,-6.3654023],[106.7990801,-6.3653212],[106.7985537,-6.3651056],[106.7985155,-6.365088],[106.7982638,-6.3649922],[106.7981646,-6.3649683],[106.7979709,-6.3649486],[106.7977144,-6.3649226],[106.7976153,-6.3649116],[106.7974627,-6.3648958],[106.7971575,-6.3648997],[106.7969591,-6.3649125],[106.7968752,-6.3649178],[106.7967531,-6.3649135],[106.7966844,-6.3649164],[106.7966158,-6.3649187],[106.7963443,-6.364929],[106.7961886,-6.3649349],[106.7957842,-6.3649135],[106.7957308,-6.3649111],[106.795689,-6.3649095],[106.7956803,-6.3650017],[106.7953086,-6.3649772],[106.7948205,-6.3649304],[106.7946879,-6.3649179],[106.7946398,-6.3648224],[106.794594,-6.3645888],[106.7945635,-6.3645091],[106.7944796,-6.3643055],[106.7943499,-6.3641868],[106.7942736,-6.3642073],[106.7939302,-6.3643556],[106.7938387,-6.3642936],[106.7937471,-6.3641634],[106.7936251,-6.3639422],[106.7935946,-6.3638955],[106.7934496,-6.3637614],[106.7932283,-6.3636279],[106.7930986,-6.3635302],[106.793091,-6.3634501],[106.7931444,-6.3633289],[106.793274,-6.3630844],[106.793297,-6.363041],[106.7932741,-6.3629456],[106.7932054,-6.3627191],[106.7932741,-6.3626366],[106.7934572,-6.3625145],[106.7936022,-6.3624206],[106.7936022,-6.3622504],[106.793564,-6.3620053],[106.7935259,-6.3617602],[106.7935183,-6.3611503],[106.7934871,-6.3610663],[106.7934572,-6.3609858],[106.7933428,-6.3607583],[106.7933275,-6.3606386],[106.7933886,-6.3605104],[106.7934878,-6.3603154],[106.7934954,-6.3601938],[106.793442,-6.3599925],[106.7933733,-6.3599091],[106.793297,-6.3598962],[106.7927019,-6.3598204],[106.7926027,-6.3597079],[106.7925112,-6.3595386],[106.7925086,-6.359527],[106.792473,-6.359365],[106.7924654,-6.3591743],[106.7924654,-6.3587284],[106.7924959,-6.3583684],[106.7925341,-6.3579531],[106.7926027,-6.357904],[106.7928087,-6.3578768],[106.7929155,-6.3578225],[106.7929689,-6.3577137],[106.7929613,-6.3576083],[106.7929384,-6.3574105],[106.7929689,-6.3571959],[106.7929842,-6.3570843],[106.7930986,-6.3569498],[106.7931978,-6.3567815],[106.7932004,-6.3567402],[106.7932054,-6.3566575],[106.7931826,-6.3564663],[106.793152,-6.3563552],[106.793091,-6.3561879],[106.7930898,-6.3561844],[106.7930147,-6.3559804],[106.7928698,-6.3552404],[106.7929156,-6.3551502],[106.7929384,-6.3551054],[106.7930758,-6.3549738],[106.7933275,-6.3547826],[106.7935335,-6.3547068],[106.7938997,-6.354569],[106.7939684,-6.3544955],[106.7939684,-6.3544173],[106.7938997,-6.3542538],[106.793846,-6.3541791],[106.7938005,-6.354116],[106.7936262,-6.3539592],[106.7935335,-6.3539358],[106.7932589,-6.3539295],[106.7932131,-6.3538328],[106.7932131,-6.3537436],[106.7932741,-6.3536182],[106.7933275,-6.3534689],[106.7933123,-6.3533211],[106.7932589,-6.3532043],[106.7931597,-6.3531056],[106.7929308,-6.3529168],[106.7927401,-6.3525634],[106.7926561,-6.3524676],[106.7925951,-6.3523841],[106.7925951,-6.3522845],[106.7925979,-6.3522792],[106.7926409,-6.3521977],[106.7931673,-6.3515802],[106.7933733,-6.3515282],[106.7935793,-6.3514676],[106.79377,-6.3513685],[106.7939074,-6.3512316],[106.7939913,-6.3510909],[106.7939913,-6.3509507],[106.7939379,-6.3507581],[106.7938463,-6.350636],[106.7936251,-6.3503847],[106.7935488,-6.3500853],[106.7934267,-6.3497849],[106.7933199,-6.3496991],[106.7928774,-6.3493953],[106.7928469,-6.3492499],[106.7928011,-6.3489886],[106.7926943,-6.3488312],[106.7924364,-6.3484187],[106.7924883,-6.3482418],[106.7925951,-6.3480182],[106.7927401,-6.3478914],[106.7932283,-6.3475552],[106.7933428,-6.3474598],[106.7935869,-6.3472004],[106.7938921,-6.3470049],[106.7941286,-6.346798],[106.7944109,-6.3465448],[106.7946016,-6.3465171],[106.7947847,-6.3464022],[106.7951586,-6.3460942],[106.7953417,-6.3459897],[106.7954866,-6.3459692],[106.7956087,-6.3460021],[106.7957155,-6.3460784],[106.7958376,-6.3462572],[106.796036,-6.346508],[106.7961657,-6.3465658],[106.7963335,-6.3465863],[106.7965547,-6.3465514],[106.7966768,-6.346479],[106.7968065,-6.3463364],[106.7968676,-6.346252],[106.7969439,-6.3461399],[106.7971041,-6.3459378],[106.7973101,-6.3456946],[106.7973787,-6.3454838],[106.7973635,-6.345366],[106.7973482,-6.3450594],[106.7973864,-6.3449464],[106.7974093,-6.3448587],[106.7974932,-6.3447657],[106.7976153,-6.3447295],[106.7979967,-6.344667],[106.7981646,-6.3446441],[106.7981646,-6.3445812],[106.7982027,-6.3444515],[106.7983248,-6.3443113],[106.798485,-6.3442183],[106.7986879,-6.3441218],[106.7987215,-6.3441058],[106.7988359,-6.3440147],[106.7989046,-6.3439069],[106.7989046,-6.3437968],[106.7989047,-6.3437946],[106.7989048,-6.3437925],[106.7989078,-6.343792],[106.7989055,-6.3437793],[106.7989199,-6.3435145],[106.7989428,-6.3433943],[106.7990343,-6.3432851],[106.7991182,-6.3432589],[106.7991479,-6.3432524],[106.7992782,-6.3432314],[106.7993445,-6.3431787],[106.7993624,-6.3431664],[106.7993637,-6.3431634],[106.7993748,-6.3431546],[106.7993965,-6.3430888],[106.7994158,-6.3430448],[106.7994144,-6.3430344],[106.7994151,-6.3430321],[106.7994123,-6.3430187],[106.7994005,-6.3429308],[106.7993547,-6.3427983],[106.7993547,-6.3426523],[106.799515,-6.3424378],[106.799637,-6.3422833],[106.7997133,-6.3421016],[106.7995913,-6.3417468],[106.7995684,-6.3415914],[106.7995723,-6.3414747],[106.7995757,-6.3413758],[106.7995926,-6.3413274],[106.7996294,-6.34124],[106.7996646,-6.341144],[106.7997546,-6.3409912],[106.7998438,-6.340813],[106.7999269,-6.3406606],[106.8000185,-6.3404694],[106.8000285,-6.3404127],[106.8000429,-6.3403427],[106.8000172,-6.3402714],[106.7996862,-6.3396326],[106.7995949,-6.3394682],[106.7995531,-6.3393884],[106.7991168,-6.3389277],[106.7990566,-6.3388495],[106.7989439,-6.3386663],[106.7987938,-6.3384742],[106.7987139,-6.3383689],[106.7986757,-6.3381667],[106.7987294,-6.3379029],[106.7988304,-6.3375373],[106.7988314,-6.3375271],[106.7988359,-6.3375106],[106.7988665,-6.3371797],[106.7988643,-6.3371185],[106.7988646,-6.3371139],[106.7988636,-6.3370987],[106.79886,-6.3369988],[106.7988588,-6.3369651],[106.7988541,-6.3369542],[106.7988538,-6.3369508],[106.7988463,-6.3369366],[106.7988014,-6.336834],[106.7987536,-6.3367089],[106.7987175,-6.3365918],[106.7987123,-6.3365319],[106.7988254,-6.3361095],[106.7988399,-6.3358749],[106.7988746,-6.3355893],[106.7988724,-6.3355211],[106.798897,-6.3352728],[106.798958,-6.334971],[106.7990725,-6.3347564],[106.7991411,-6.3346138],[106.7991869,-6.3343993],[106.7991259,-6.3340688],[106.7991182,-6.3339601],[106.7992784,-6.3335934],[106.7993471,-6.3334885],[106.7994639,-6.333481],[106.799576,-6.3334737],[106.7996141,-6.3334175],[106.799621,-6.3333097],[106.7996589,-6.33328],[106.7996617,-6.3332818],[106.7997956,-6.3333166],[106.7998504,-6.3333321],[106.8000637,-6.3334148],[106.8002027,-6.3334708],[106.8002842,-6.333504],[106.8002852,-6.3335041],[106.8003008,-6.3335104],[106.8007454,-6.3335869],[106.8010287,-6.333639],[106.8011116,-6.3336388],[106.8012392,-6.3336406],[106.8012435,-6.3336388],[106.8012516,-6.3336391],[106.8012478,-6.333637],[106.8015444,-6.3335104],[106.801697,-6.3334179],[106.8018343,-6.3331104],[106.8018877,-6.3329392],[106.8018648,-6.3328214],[106.8017962,-6.3323727],[106.8017656,-6.3322931],[106.8015673,-6.3321534],[106.8015444,-6.3321333],[106.8014528,-6.3320666],[106.8013536,-6.3319297],[106.801299,-6.3317379],[106.801285,-6.3316155],[106.8013231,-6.3315034],[106.8014452,-6.3313713],[106.8017122,-6.3313456],[106.801903,-6.3312989],[106.8020403,-6.3312359],[106.8024523,-6.3308244],[106.802603,-6.3307],[106.8026735,-6.3306418],[106.8029024,-6.3305106],[106.8032137,-6.3301761],[106.803218,-6.330189],[106.803322,-6.3300777],[106.8033907,-6.3299637],[106.8033948,-6.3296739],[106.8033738,-6.3291376],[106.8033678,-6.3289843],[106.8033526,-6.3288775],[106.8033526,-6.3286529],[106.8033449,-6.3285408],[106.8033441,-6.3284697],[106.8033373,-6.3278933],[106.8033526,-6.3277269],[106.8034136,-6.3275876],[106.8035738,-6.3273988],[106.8035746,-6.3273981],[106.8038485,-6.3271566],[106.8039934,-6.3270483],[106.8041002,-6.3269301],[106.804118,-6.3264918],[106.8041201,-6.3264384],[106.8041231,-6.3263646],[106.8040468,-6.3256197],[106.8040239,-6.3255029],[106.8040087,-6.3254023],[106.8040544,-6.325284],[106.8041307,-6.3252173],[106.8041536,-6.3252006],[106.8044124,-6.3250744],[106.8044893,-6.3250108],[106.8045119,-6.3246333],[106.8045122,-6.3246279],[106.8045275,-6.3244758],[106.8045885,-6.3243327],[106.8046953,-6.3242131],[106.8048555,-6.324121],[106.8049192,-6.3241063],[106.805031,-6.3240805],[106.8051989,-6.324133],[106.8056566,-6.3243824],[106.805794,-6.3244501],[106.8058855,-6.3244601],[106.8059999,-6.3243957],[106.806122,-6.3242417],[106.8062288,-6.3239551],[106.8062365,-6.3238154],[106.8062136,-6.3237162],[106.8060892,-6.3235514],[106.8059618,-6.3233824],[106.8058779,-6.3232384],[106.8058474,-6.323061],[106.8059771,-6.3227725],[106.8060152,-6.3227172],[106.8064882,-6.3226843],[106.8066637,-6.3226519],[106.8067934,-6.3225975],[106.8069155,-6.3224831],[106.8069789,-6.3223815],[106.8070197,-6.3222365],[106.8070602,-6.3219811],[106.8070937,-6.3216981],[106.8071078,-6.3215522],[106.8071204,-6.321429],[106.8071269,-6.3213393],[106.8071336,-6.3212634],[106.8071402,-6.3211944],[106.8071598,-6.3211013],[106.807181,-6.3210218],[106.8072497,-6.3209594],[106.8072807,-6.3208805],[106.8072811,-6.3208794],[106.8072817,-6.3208785],[106.8072893,-6.320623],[106.8073046,-6.3204775],[106.8073809,-6.3202858],[106.8074572,-6.3201361],[106.8074724,-6.3200374],[106.8074218,-6.3198961],[106.8073961,-6.3198242],[106.8073351,-6.3196435],[106.8073351,-6.3195358],[106.8074724,-6.3192086],[106.8075869,-6.3190556],[106.8076861,-6.3189702],[106.8078539,-6.3189335],[106.8079735,-6.3189144],[106.807976,-6.318914],[106.8080599,-6.3188477],[106.8080904,-6.3187652],[106.8079683,-6.3186631],[106.8078997,-6.3186045],[106.8078005,-6.3184729],[106.8077089,-6.3182416],[106.8076555,-6.3179369],[106.8076479,-6.317709],[106.8077242,-6.317472],[106.8079599,-6.3172183],[106.8079912,-6.3171854],[106.8080209,-6.317154],[106.8081591,-6.3170076],[106.8082964,-6.3168755],[106.8083956,-6.3168006],[106.8084566,-6.316679],[106.8084566,-6.3162508],[106.8084795,-6.316144],[106.8087236,-6.3160286],[106.8088915,-6.3159986],[106.8089907,-6.3159604],[106.8090593,-6.3158856],[106.8090595,-6.3158837],[106.8090975,-6.3153248],[106.8091356,-6.3151884],[106.8091738,-6.3150573],[106.8091585,-6.3149138],[106.808983,-6.3146439],[106.8089349,-6.3145592],[106.808931,-6.3145523],[106.80893,-6.3145506],[106.8089296,-6.31455],[106.8089296,-6.3145161],[106.8071647,-6.3144142],[106.806901,-6.3144536],[106.806718,-6.3144408],[106.8066505,-6.3144333],[106.8065074,-6.314532],[106.8064331,-6.3145181],[106.8064103,-6.3145383],[106.8059118,-6.3149797],[106.8053492,-6.3152039],[106.8050912,-6.3152308],[106.804932,-6.3152696],[106.8047678,-6.3152702],[106.8044494,-6.3152881],[106.8043573,-6.3152968],[106.8042734,-6.3152803],[106.8040807,-6.3152894],[106.8040135,-6.3152644],[106.8038637,-6.3152499],[106.8036945,-6.3152546],[106.8034059,-6.3152528],[106.8024752,-6.3152743],[106.8023734,-6.3152763],[106.801784,-6.3152883],[106.8016054,-6.3152919],[106.8014757,-6.3153124],[106.801015,-6.3153135],[106.8006938,-6.3153142],[106.7987444,-6.3153186],[106.7986314,-6.3153273],[106.7976483,-6.3153804],[106.797337,-6.3153978],[106.7968348,-6.3154258],[106.7959909,-6.3154728],[106.7957593,-6.3154857],[106.7945942,-6.3155507],[106.7930681,-6.3156357],[106.79303,-6.3156481],[106.7930127,-6.3156533],[106.7928621,-6.3156991],[106.7927172,-6.3157034],[106.7924196,-6.315701],[106.7923433,-6.3156829],[106.7920433,-6.3155881],[106.7919466,-6.3155575],[106.7919161,-6.3155446],[106.7916948,-6.3153887],[106.791466,-6.3151622],[106.7910845,-6.314796],[106.7910463,-6.3147745],[106.7906763,-6.3146012],[106.7906649,-6.3145976],[106.7905733,-6.314519],[106.7905428,-6.3145251],[106.7903902,-6.3145776],[106.7901079,-6.3147493],[106.7900087,-6.314889],[106.7898409,-6.3152624],[106.7897036,-6.3156548],[106.7895586,-6.3161121],[106.7895128,-6.3162422],[106.7888621,-6.3162643],[106.7843325,-6.3164177],[106.7842867,-6.3164296],[106.7839129,-6.3164339],[106.7833712,-6.3165274],[106.7832125,-6.3165439],[106.7832107,-6.3165443],[106.7829967,-6.3166126],[106.7829592,-6.3166247],[106.7829472,-6.3166035],[106.7829197,-6.3166097],[106.7825936,-6.3159798],[106.7825938,-6.3159796],[106.7825898,-6.3159726],[106.782496,-6.315908],[106.7823336,-6.3158894],[106.781769,-6.3159294],[106.7816469,-6.3159452],[106.7815172,-6.3159914],[106.7813875,-6.3161068],[106.7812502,-6.3162141],[106.7811663,-6.3162842],[106.7808458,-6.3164463],[106.7803118,-6.3165527],[106.7802431,-6.3165627],[106.779999,-6.3166032],[106.7798998,-6.3165441],[106.7799151,-6.3165026],[106.7798693,-6.3163466],[106.7797777,-6.3162007],[106.7796251,-6.3160353],[106.7794191,-6.3158789],[106.7784273,-6.3155184],[106.7782366,-6.3154731],[106.7778093,-6.3154555],[106.7771761,-6.3153982],[106.7769625,-6.3153563],[106.7768404,-6.3153143],[106.7767794,-6.315229],[106.776726,-6.3149696],[106.7766573,-6.3142381],[106.7764666,-6.3135267],[106.776436,-6.3132859],[106.7764513,-6.3130698],[106.7765429,-6.3120685],[106.7765352,-6.3119335],[106.776436,-6.3117876],[106.7763063,-6.3116841],[106.7761232,-6.311615],[106.775902,-6.3116083],[106.7756044,-6.3116527],[106.7753985,-6.3117299],[106.7752306,-6.3118735],[106.7750628,-6.312057],[106.7749407,-6.3121348],[106.7748198,-6.3121617],[106.7748186,-6.3121619],[106.7747194,-6.3121352],[106.774605,-6.3120284],[106.7744829,-6.311739],[106.7744524,-6.3115287],[106.7744677,-6.3113909],[106.7745287,-6.3112779],[106.774605,-6.3111997],[106.7748186,-6.3109903],[106.7750551,-6.3108311],[106.7752535,-6.3107123],[106.7753222,-6.310637],[106.7753374,-6.3105431],[106.7752535,-6.3104172],[106.7750628,-6.3103018],[106.7747271,-6.3102102],[106.7745745,-6.3101678],[106.7739183,-6.3100605],[106.7737124,-6.3100095],[106.7734987,-6.3099065],[106.7733538,-6.3097916],[106.7732775,-6.309679],[106.7732393,-6.3095341],[106.7732546,-6.3094268],[106.7733461,-6.309319],[106.7735216,-6.3092103],[106.7738726,-6.3091188],[106.7740862,-6.3090687],[106.7747194,-6.3087087],[106.7749025,-6.3085041],[106.7749636,-6.3083883],[106.7749712,-6.3082433],[106.7749178,-6.3080855],[106.774666,-6.3077569],[106.7743227,-6.3073793],[106.7741015,-6.3071256],[106.7739565,-6.3068653],[106.7739183,-6.3067007],[106.773926,-6.3065629],[106.7739641,-6.3064699],[106.7740862,-6.3063698],[106.7745668,-6.3061896],[106.7751543,-6.3061943],[106.7752688,-6.3061862],[106.7753298,-6.3061404],[106.7753342,-6.3061217],[106.7753603,-6.3060103],[106.7753222,-6.3058324],[106.7752001,-6.3056364],[106.7750704,-6.3054662],[106.7749407,-6.3052998],[106.7748186,-6.3051043],[106.7747805,-6.3048463],[106.7747957,-6.3047252],[106.7748568,-6.3046465],[106.7752611,-6.3045101],[106.7755129,-6.3044081],[106.7755816,-6.304358],[106.7756121,-6.3042302],[106.7755968,-6.3040748],[106.7755205,-6.3039136],[106.775284,-6.3036132],[106.775078,-6.3034268],[106.7749025,-6.303309],[106.7746279,-6.3032842],[106.77446,-6.3032952],[106.7743227,-6.3033767],[106.7741167,-6.3036056],[106.7739565,-6.303884],[106.7738497,-6.3041592],[106.7737581,-6.3043637],[106.7736895,-6.3045254],[106.7735903,-6.304656],[106.773453,-6.3047538],[106.7733233,-6.3047953],[106.7731554,-6.3047958],[106.7730257,-6.3047304],[106.7729265,-6.304636],[106.7728807,-6.3045058],[106.7728884,-6.3044114],[106.7731936,-6.3039499],[106.7733538,-6.3037324],[106.7733767,-6.3036914],[106.773453,-6.3035574],[106.773514,-6.3033276],[106.7735216,-6.3032155],[106.7734682,-6.3031202],[106.773308,-6.3030019],[106.7731783,-6.3029566],[106.7729113,-6.3029571],[106.7726595,-6.3030009],[106.7723391,-6.3030873],[106.7720339,-6.3031707],[106.7719195,-6.3032012],[106.7717516,-6.3032432],[106.7716295,-6.3032461],[106.771454,-6.3031616],[106.7713091,-6.303062],[106.771065,-6.3024717],[106.7709047,-6.3021989],[106.770859,-6.3021054],[106.7708666,-6.3020168],[106.7709658,-6.3018976],[106.7711641,-6.3017493],[106.7714388,-6.3016296],[106.7716372,-6.3015809],[106.7720644,-6.3015614],[106.7723467,-6.3015714],[106.7728502,-6.3015671],[106.773041,-6.3015452],[106.7731249,-6.301498],[106.7731783,-6.3013935],[106.7731859,-6.301208],[106.7730944,-6.3009591],[106.7727892,-6.3005514],[106.772629,-6.3002768],[106.7725298,-6.3001066],[106.7723772,-6.2999816],[106.7716295,-6.2995997],[106.7715456,-6.2995434],[106.7715075,-6.2994576],[106.7715227,-6.2993741],[106.7716448,-6.2992797],[106.7721102,-6.2991452],[106.7722933,-6.2991267],[106.7728884,-6.2992988],[106.7731859,-6.2993937],[106.7734835,-6.299521],[106.7736208,-6.2995515],[106.7737429,-6.2995315],[106.7738573,-6.2994571],[106.7739031,-6.2993298],[106.7739183,-6.2991133],[106.7738573,-6.2988525],[106.7737606,-6.2985974],[106.7737505,-6.2985707],[106.7735903,-6.2983461],[106.773514,-6.2982817],[106.7731707,-6.2982602],[106.7729418,-6.2982693],[106.7725832,-6.2984142],[106.7725374,-6.2984319],[106.7720034,-6.2987719],[106.7717669,-6.2989202],[106.7716219,-6.2990284],[106.7714006,-6.2990623],[106.7712862,-6.2990556],[106.7712023,-6.2989783],[106.7710344,-6.2987294],[106.77092,-6.2984548],[106.770859,-6.2980051],[106.7708361,-6.2976556],[106.7707903,-6.2974272],[106.7707598,-6.2973666],[106.7707064,-6.2973566],[106.7705309,-6.2975326],[106.7704088,-6.2976675],[106.7702791,-6.2977448],[106.7701494,-6.2977591],[106.7699816,-6.2977114],[106.7698595,-6.2976389],[106.7697985,-6.2975612],[106.7697375,-6.2972784],[106.7697375,-6.2970043],[106.7697756,-6.296722],[106.7698443,-6.2964373],[106.7700121,-6.2961912],[106.7701418,-6.2960339],[106.7701952,-6.2958136],[106.7701799,-6.2957239],[106.7700808,-6.295619],[106.7699129,-6.2955523],[106.7697146,-6.2955365],[106.7695314,-6.2955728],[106.769211,-6.2957273],[106.7689211,-6.2958903],[106.7687838,-6.2959228],[106.7687609,-6.2959294],[106.7682116,-6.2958999],[106.7679293,-6.2958346],[106.7675859,-6.2956667],[106.7673952,-6.2954908],[106.7672579,-6.2953124],[106.767174,-6.2951555],[106.7671435,-6.2949968],[106.767174,-6.294869],[106.7673571,-6.2946363],[106.7678911,-6.2939358],[106.768059,-6.2937093],[106.7682039,-6.293531],[106.7682573,-6.2933893],[106.7682573,-6.2932544],[106.7681429,-6.2930684],[106.76812,-6.293035],[106.767975,-6.2928877],[106.7676012,-6.2925091],[106.7675173,-6.292399],[106.7674944,-6.2923327],[106.7677233,-6.2921715],[106.7677537,-6.2921565],[106.7680183,-6.2920254],[106.7680161,-6.2920091],[106.7680299,-6.2920195],[106.7681047,-6.291976],[106.7681505,-6.2919045],[106.7681353,-6.2917919],[106.7680895,-6.2917047],[106.7680742,-6.2916684],[106.7678911,-6.2915573],[106.7678109,-6.2915551],[106.7677975,-6.2915718],[106.7677899,-6.2915545],[106.7676592,-6.2915509],[106.7676554,-6.2915554],[106.7676528,-6.2915507],[106.7673265,-6.2915416],[106.767229,-6.2915178],[106.7671816,-6.2915063],[106.7670366,-6.2913904],[106.7667086,-6.2908363],[106.7666434,-6.290705],[106.7666273,-6.2906724],[106.7666246,-6.2906671],[106.7665779,-6.2905761],[106.7665636,-6.2905483],[106.7665463,-6.2903394],[106.7665421,-6.2902884],[106.7663624,-6.2895239],[106.7659798,-6.2895239],[106.7659753,-6.2892523],[106.7659576,-6.2889541],[106.7659106,-6.2888371],[106.7634593,-6.2887639],[106.7634582,-6.2887643],[106.763451,-6.2887669],[106.7630686,-6.2887494],[106.7630543,-6.2881458],[106.7630588,-6.2881214],[106.7630524,-6.2878828],[106.7629509,-6.2868719],[106.7629335,-6.2868508],[106.762339,-6.2869187],[106.7623566,-6.2866438],[106.7618479,-6.2866005],[106.7618491,-6.2865962],[106.7617431,-6.286591],[106.7616411,-6.2868156],[106.7602546,-6.2864428],[106.7602515,-6.2864532],[106.7601098,-6.2864049],[106.7601029,-6.2864026],[106.7602085,-6.2861086],[106.7602122,-6.2860983],[106.7604382,-6.2853229],[106.760488,-6.2851987],[106.7605252,-6.2851057],[106.7606369,-6.2846186],[106.7607083,-6.2843071],[106.7608081,-6.2839909],[106.7609515,-6.2835369],[106.761106,-6.2830477],[106.761111,-6.283032],[106.7611526,-6.2829093],[106.7612578,-6.2825201],[106.7615532,-6.2814276],[106.7616504,-6.2810683],[106.7618105,-6.2802773],[106.7618486,-6.2801156],[106.7618563,-6.2800617],[106.7618678,-6.2799812],[106.7618868,-6.2798481],[106.7619783,-6.2794242],[106.7619936,-6.2793327],[106.7620525,-6.2789716],[106.7621004,-6.2786775],[106.762108,-6.2786069],[106.7621804,-6.2780391],[106.7622125,-6.2778629],[106.7621876,-6.277861],[106.7618961,-6.2778388],[106.7617112,-6.2778246],[106.7606383,-6.2778682],[106.7603381,-6.2779152],[106.7597952,-6.2781603],[106.7582924,-6.277965],[106.7572181,-6.277843],[106.7571904,-6.2778398],[106.757198,-6.2762739],[106.7571566,-6.2760754],[106.7571566,-6.2758484],[106.757183,-6.275782],[106.7571376,-6.2748911],[106.7569638,-6.2742474],[106.7568662,-6.2742622],[106.7567141,-6.2743802],[106.756592,-6.2743859],[106.7564852,-6.274385],[106.7563097,-6.274365],[106.7558596,-6.2743573],[106.7551424,-6.2744303],[106.7550814,-6.2744384],[106.7549059,-6.2744432],[106.7545626,-6.2744684],[106.7543108,-6.2744808],[106.7538988,-6.2744785],[106.7532351,-6.2744828],[106.7531054,-6.2744889],[106.7529375,-6.2744994],[106.7520525,-6.2745581],[106.7515871,-6.2745662],[106.7515718,-6.2742014],[106.7514956,-6.2728062],[106.7514957,-6.272801],[106.7514938,-6.2727774],[106.7514859,-6.2727678],[106.7511357,-6.2723641],[106.7507342,-6.2723928],[106.7507022,-6.2723191],[106.7506191,-6.2721643],[106.7503024,-6.2718564],[106.7503083,-6.2718503],[106.7502988,-6.2718412],[106.7503,-6.27184],[106.75056,-6.27157],[106.7507788,-6.2713512],[106.7507784,-6.2713509],[106.7512896,-6.2708302],[106.751816,-6.2702875],[106.7519686,-6.2701263],[106.7522203,-6.2698703],[106.7522704,-6.2698202],[106.7526663,-6.2694106],[106.7529325,-6.2691352],[106.7530142,-6.2690339],[106.7530132,-6.2690326],[106.7529681,-6.2690102],[106.7522663,-6.2683413],[106.7523725,-6.2680117],[106.752527,-6.2678293],[106.7526558,-6.2677268],[106.752585,-6.2673812],[106.7526105,-6.2669856],[106.7526108,-6.2669812],[106.7526149,-6.2669713],[106.7526059,-6.2666451],[106.7526719,-6.2663875],[106.7524981,-6.2662883],[106.7525045,-6.266278],[106.7525061,-6.2662755],[106.7525108,-6.2662727],[106.7526108,-6.2661155],[106.7526751,-6.2658643],[106.7527395,-6.2657091],[106.7527086,-6.265519],[106.7526476,-6.2653899],[106.7524645,-6.2650571],[106.7524263,-6.2649178],[106.7524575,-6.2646946],[106.7525255,-6.2645822],[106.7527392,-6.2644305],[106.7529375,-6.2643495],[106.7531054,-6.2643228],[106.7534563,-6.2642884],[106.7536589,-6.2641829],[106.7538952,-6.2639903],[106.7535345,-6.2632881],[106.7539646,-6.2633543],[106.7539725,-6.26336],[106.7547488,-6.2635753],[106.754944,-6.263455],[106.7553408,-6.2629995],[106.7554705,-6.2629104],[106.7555392,-6.262784],[106.755646,-6.262661],[106.7558443,-6.2625771],[106.7560198,-6.2625589],[106.7562945,-6.262526],[106.7565233,-6.262475],[106.7564852,-6.2623287],[106.7564697,-6.2622585],[106.756325,-6.2616],[106.7563128,-6.261501],[106.7563105,-6.261482],[106.7560876,-6.2615659],[106.7558648,-6.2617069],[106.755842,-6.2617162],[106.7556212,-6.2618064],[106.7554864,-6.2618692],[106.7553153,-6.2619269],[106.7550558,-6.2619693],[106.7546198,-6.2619656],[106.7544796,-6.2619661],[106.7543757,-6.261956],[106.754277,-6.26192],[106.7539816,-6.262082],[106.7538209,-6.2621553],[106.7536447,-6.2622286],[106.7533955,-6.2622294],[106.7530526,-6.262163],[106.7529331,-6.2621375],[106.7527849,-6.262136],[106.7522738,-6.2619934],[106.7521746,-6.2619663],[106.7520372,-6.2619233],[106.751877,-6.2618742],[106.7515795,-6.2617889],[106.751465,-6.2617488],[106.7514345,-6.2616844],[106.7514727,-6.2614698],[106.7515108,-6.2612329],[106.7513888,-6.2611022],[106.7513277,-6.2610669],[106.7513964,-6.2607789],[106.7515145,-6.2606216],[106.7515718,-6.2605453],[106.7517397,-6.2603426],[106.7519558,-6.2601563],[106.7521834,-6.2599166],[106.7522089,-6.2598992],[106.7523595,-6.2597965],[106.7525723,-6.2597906],[106.7526776,-6.2598087],[106.7526878,-6.2598105],[106.7526895,-6.2598096],[106.7526904,-6.2598109],[106.7527801,-6.2598263],[106.7543739,-6.259847],[106.7543744,-6.2598407],[106.7544336,-6.2590727],[106.7544775,-6.2584498],[106.7544113,-6.2577295],[106.7542744,-6.2575256],[106.7542538,-6.2574949],[106.754232,-6.2574624],[106.7541125,-6.2572843],[106.7540375,-6.2570764],[106.7538964,-6.2569282],[106.7537546,-6.2567559],[106.7537535,-6.2567539],[106.7536768,-6.2566186],[106.7536937,-6.2566236],[106.7535755,-6.256367],[106.7535174,-6.2561851],[106.753518,-6.2561851],[106.7535179,-6.256185],[106.7535169,-6.2560625],[106.7535168,-6.25605],[106.7535715,-6.2559635],[106.7536652,-6.2558297],[106.7539634,-6.2558224],[106.7542798,-6.2558148],[106.7544184,-6.2558114],[106.7547087,-6.2557948],[106.7546769,-6.2556771],[106.7546451,-6.2555594],[106.7544488,-6.255513],[106.7539306,-6.2554283],[106.7540088,-6.255326],[106.7541732,-6.2552312],[106.7541797,-6.2548229],[106.7542379,-6.2541424],[106.7542401,-6.254116],[106.7540986,-6.2540301],[106.7539802,-6.2538106],[106.753877,-6.2534576],[106.7538374,-6.2533478],[106.7536643,-6.2532149],[106.753609,-6.253163],[106.7535639,-6.2531256],[106.7535027,-6.2530749],[106.7534908,-6.2530667],[106.7534764,-6.253069],[106.7531557,-6.2528723],[106.7530596,-6.2527334],[106.7529547,-6.252551],[106.7527974,-6.252334],[106.7525537,-6.2522739],[106.7524456,-6.2522765],[106.752119,-6.2522841],[106.7521356,-6.2520578],[106.7521763,-6.2518348],[106.7521776,-6.251828],[106.7522276,-6.2515537],[106.7522723,-6.251309],[106.7522719,-6.2511921],[106.7521854,-6.2510733],[106.7519526,-6.2511109],[106.7518297,-6.2510377],[106.7517812,-6.2509048],[106.7517929,-6.2507376],[106.7518037,-6.2505828],[106.7517862,-6.2500254],[106.7517873,-6.2499736],[106.7516032,-6.249986],[106.7513038,-6.249987],[106.7511244,-6.2500325],[106.7508852,-6.2500387],[106.750461,-6.2500497],[106.7500968,-6.2500559],[106.7499721,-6.2500513],[106.749114,-6.2500642],[106.7489744,-6.2500846],[106.7487948,-6.2500802],[106.7486003,-6.2500859],[106.748296,-6.2500969],[106.7481912,-6.2500972],[106.7480665,-6.2500876],[106.7480861,-6.2500027],[106.7481137,-6.2498991],[106.7481386,-6.2498055],[106.7481539,-6.2496162],[106.7481534,-6.2496119],[106.7481341,-6.2494334],[106.7479687,-6.2491794],[106.7478006,-6.249032],[106.7477986,-6.2490302],[106.7475138,-6.2489013],[106.7473139,-6.2487972],[106.7472479,-6.248748],[106.7472483,-6.2487471],[106.7472359,-6.2486619],[106.7471796,-6.2485872],[106.7471684,-6.2485431],[106.7471725,-6.2482934],[106.7470878,-6.2479723],[106.7470627,-6.247834],[106.7469892,-6.2476881],[106.7467809,-6.2472868],[106.7466794,-6.2472052],[106.7466732,-6.2466677],[106.7467501,-6.2462134],[106.7468035,-6.2455416],[106.746811,-6.2454003],[106.7468111,-6.245399],[106.7468139,-6.2452677],[106.7468187,-6.2450347],[106.7468195,-6.2450294],[106.7468493,-6.2448311],[106.7469179,-6.2446218],[106.74695,-6.2443604],[106.7469985,-6.2439509],[106.7469927,-6.2437113],[106.7470019,-6.2434866],[106.747045,-6.2433647],[106.7471154,-6.2431118],[106.7471592,-6.2427822],[106.7472731,-6.2425072],[106.7474271,-6.242322],[106.7474607,-6.2422386],[106.7475459,-6.2420271],[106.7476403,-6.2419219],[106.7477497,-6.2418067],[106.7479934,-6.2416062],[106.7482374,-6.2414607],[106.748332,-6.2413954],[106.7483964,-6.2412804],[106.7486116,-6.2409539],[106.7485888,-6.2406826],[106.7485353,-6.2405353],[106.7484743,-6.2403999],[106.7484591,-6.2403536],[106.7482225,-6.2399135],[106.7481081,-6.2397323],[106.747864,-6.2392774],[106.7475359,-6.2385631],[106.7474062,-6.2380252],[106.7470171,-6.2364526],[106.746999,-6.2363896],[106.7468851,-6.2363787],[106.7468711,-6.2363774],[106.7468191,-6.236373],[106.7461079,-6.2363135],[106.7450139,-6.2365163],[106.7440235,-6.2364724],[106.7440615,-6.2362578],[106.7440333,-6.2362557],[106.7440339,-6.2362533],[106.7439194,-6.2362423],[106.7441098,-6.2353851],[106.7442977,-6.2345392],[106.7444873,-6.2341564],[106.7445759,-6.2339409],[106.7446064,-6.2338667],[106.7446627,-6.2335772],[106.7446554,-6.2330122],[106.7446553,-6.2330041],[106.7445778,-6.2326441],[106.7444788,-6.2324097],[106.7444646,-6.2323751],[106.7444362,-6.2323357],[106.7444389,-6.232313],[106.7444293,-6.2322897],[106.7443986,-6.2320606],[106.7444847,-6.2320007],[106.7445564,-6.2319509],[106.7447527,-6.2319175],[106.7449704,-6.2317639],[106.7451991,-6.231654],[106.7452644,-6.231621],[106.7452941,-6.2314598],[106.7453287,-6.2312714],[106.7453764,-6.2308346],[106.7453878,-6.2307217],[106.7438993,-6.2304785],[106.7441702,-6.2296287],[106.7440505,-6.2295876],[106.7440386,-6.2295835],[106.7443018,-6.2291732],[106.7443352,-6.2289582],[106.7443391,-6.2289597],[106.744337,-6.2289108],[106.744159,-6.2287515],[106.7433631,-6.2288205],[106.7432138,-6.2286425],[106.7431981,-6.2286419],[106.7431844,-6.2286147],[106.7431377,-6.228522],[106.7432153,-6.2280632],[106.7432573,-6.2275773],[106.743211,-6.2274659],[106.7428515,-6.2273069],[106.7427828,-6.2272754],[106.7427599,-6.2272692],[106.7427689,-6.2272314],[106.7426943,-6.2271962],[106.7414356,-6.2277315],[106.7403074,-6.2276356],[106.7403177,-6.2274696],[106.7402476,-6.2274674],[106.7402405,-6.2274671],[106.7402768,-6.2268938],[106.7403133,-6.2264079],[106.7403129,-6.2262714],[106.7402997,-6.2261983],[106.7403151,-6.2261982],[106.740303,-6.2261041],[106.7396721,-6.2260775],[106.739702,-6.2259661],[106.7396562,-6.2259332],[106.7396135,-6.2259025],[106.7396228,-6.2254385],[106.7396276,-6.225279],[106.7389727,-6.2252499],[106.7377788,-6.2253203],[106.7376789,-6.2251878],[106.7376675,-6.2251285],[106.7376389,-6.2250848],[106.7376112,-6.2249702],[106.7373561,-6.2238079],[106.7373164,-6.2236273],[106.7373155,-6.2236231],[106.7373722,-6.2236132],[106.7374103,-6.2236065],[106.7374133,-6.223606],[106.7375213,-6.2236865],[106.7378005,-6.2236631],[106.7386866,-6.2235886],[106.7403438,-6.2234494],[106.7406282,-6.2234255],[106.7418505,-6.2233228],[106.7425232,-6.2232662],[106.743708,-6.2231235],[106.7439701,-6.2230801],[106.7444054,-6.2230079],[106.7448135,-6.2232224],[106.7449703,-6.2233048],[106.7450522,-6.2232947],[106.7457087,-6.2232133],[106.7466829,-6.2230926],[106.7472258,-6.2230253],[106.7473124,-6.2230146],[106.7473919,-6.223026],[106.7473927,-6.2230261],[106.7473927,-6.2230034],[106.7474079,-6.2230034],[106.7482548,-6.2231483],[106.7490292,-6.2230701],[106.7490507,-6.2230684],[106.749052,-6.2230682],[106.749052,-6.222805],[106.7494946,-6.2227459],[106.7496929,-6.2227192],[106.7502431,-6.2226642],[106.7502435,-6.2226608],[106.750244,-6.2226561],[106.750461,-6.2226507],[106.7504611,-6.2226507],[106.7507011,-6.2226592],[106.7507008,-6.2228495],[106.7507008,-6.2229022],[106.7507343,-6.2228985],[106.7507458,-6.2228985],[106.7512264,-6.2229176],[106.751482,-6.222929],[106.7519627,-6.2229328],[106.752039,-6.2229328],[106.7527965,-6.2229411],[106.7530814,-6.2229442],[106.7530842,-6.2229443],[106.7535343,-6.2229481],[106.7539285,-6.2229516],[106.7541828,-6.2229328],[106.7542057,-6.2229538],[106.7546733,-6.2229576],[106.7546749,-6.2229576],[106.7548389,-6.2229595],[106.7550678,-6.2229614],[106.7551975,-6.2229633],[106.7553921,-6.2229652],[106.7555332,-6.2229671],[106.7558689,-6.2229691],[106.7561419,-6.2229722],[106.7567264,-6.2229787],[106.7567271,-6.2229786],[106.7567272,-6.2229786],[106.7568803,-6.2229676],[106.7570052,-6.2229586],[106.7571366,-6.2229473],[106.7572002,-6.2229424],[106.7572918,-6.2229347],[106.757295,-6.2229345],[106.7573609,-6.2229329],[106.757361,-6.2229329],[106.7573854,-6.2229311],[106.7573879,-6.2229309],[106.7574823,-6.2229342],[106.7575512,-6.2229366],[106.7576616,-6.2229751],[106.7578526,-6.2230415],[106.7579139,-6.2230424],[106.7581066,-6.2230453],[106.7581081,-6.2230453],[106.758207,-6.2230468],[106.7583269,-6.2231372],[106.7583294,-6.2231391],[106.7583372,-6.223145],[106.7583383,-6.2231459],[106.758507,-6.2231223],[106.7585586,-6.2231151],[106.7585812,-6.2231121],[106.7586651,-6.2231007],[106.7588137,-6.2230797],[106.7588139,-6.2230797],[106.7588673,-6.2230816],[106.7589225,-6.2230853],[106.7589245,-6.2230854],[106.7589869,-6.2230886],[106.7589873,-6.2230898],[106.7592896,-6.2231154],[106.7595217,-6.223135],[106.7601443,-6.2231431],[106.7601408,-6.2231464],[106.7601414,-6.2231464],[106.76021,-6.2231388],[106.7602105,-6.2231389],[106.7602634,-6.2231445],[106.7602863,-6.2231445],[106.7603283,-6.2231445],[106.7603626,-6.2231445],[106.7603779,-6.2231445],[106.76083,-6.2231559],[106.7608318,-6.223156],[106.7609408,-6.2231584],[106.7613059,-6.2231392],[106.7613066,-6.2231392],[106.7615129,-6.2231284],[106.7615893,-6.2231244],[106.7615978,-6.2231239],[106.7616039,-6.2231236],[106.7616045,-6.2231236],[106.7616066,-6.2231237],[106.7616145,-6.2231241],[106.7617719,-6.223132],[106.7618923,-6.2231381],[106.7619029,-6.2231387],[106.7619047,-6.2231388],[106.7620851,-6.2231479],[106.7624971,-6.2231364],[106.7625038,-6.223136],[106.7625076,-6.2231358],[106.7632753,-6.223085],[106.7642519,-6.2231403],[106.7642799,-6.2231367],[106.7649472,-6.2230523],[106.7655005,-6.2229824],[106.76555,-6.2229808],[106.7656328,-6.2233301],[106.7658007,-6.2236738],[106.7661287,-6.2240377],[106.7662432,-6.2241807],[106.7663271,-6.2243385],[106.7664415,-6.2245488],[106.7665712,-6.2247496],[106.7667315,-6.2249003],[106.7669891,-6.2251778],[106.76699,-6.22518],[106.76704,-6.2253],[106.76703,-6.22541],[106.76694,-6.22558],[106.76677,-6.22579],[106.76662,-6.22588],[106.76632,-6.22596],[106.76617,-6.22601],[106.76614,-6.22607],[106.76613,-6.22626],[106.7661493,-6.2266673],[106.7660899,-6.2267956],[106.7661499,-6.2268723],[106.7661589,-6.2269919],[106.7660801,-6.2270686],[106.7659225,-6.2271393],[106.765756,-6.2271486],[106.7657154,-6.2271284],[106.7656416,-6.2270918],[106.7656331,-6.2270876],[106.7656204,-6.2270841],[106.7654137,-6.2270269],[106.7652642,-6.2268958],[106.7652485,-6.2268706],[106.7652115,-6.2268412],[106.7652114,-6.2268434],[106.7650973,-6.2267911],[106.7649656,-6.2267301],[106.7648869,-6.2267304],[106.76481,-6.22674],[106.7647478,-6.2267591],[106.764659,-6.2268013],[106.7646122,-6.2268279],[106.76451,-6.2269],[106.76442,-6.22705],[106.7643082,-6.227256],[106.7643309,-6.2272554],[106.7643374,-6.2272559],[106.7643853,-6.2272597],[106.7655654,-6.2273544],[106.7657899,-6.2273724],[106.7659751,-6.2273872],[106.766232,-6.2274078],[106.7662814,-6.2274118],[106.7662987,-6.2274124],[106.7663816,-6.2273957],[106.7665136,-6.2274304],[106.7667366,-6.2274482],[106.7669016,-6.2274096],[106.7671308,-6.227356],[106.7672524,-6.2273276],[106.7673932,-6.2273011],[106.7675185,-6.2272775],[106.7676429,-6.2272771],[106.7676904,-6.2272769],[106.7677886,-6.2272766],[106.7678404,-6.2272743],[106.7680179,-6.2272493],[106.7683524,-6.2272649],[106.7686555,-6.2272484],[106.7688451,-6.227238],[106.7689606,-6.2272317],[106.7691101,-6.2272312],[106.7698019,-6.2272134],[106.7698568,-6.2272158],[106.7699401,-6.2272195],[106.7701774,-6.2271965],[106.7710929,-6.2271666],[106.7717873,-6.2271402],[106.7718253,-6.2271404],[106.7719145,-6.227141],[106.772731,-6.2271244],[106.7727949,-6.2271231],[106.7732507,-6.2271138],[106.7734105,-6.2271105],[106.773761,-6.2271034],[106.7738049,-6.2271025],[106.7739512,-6.2270995],[106.7744569,-6.2270892],[106.7745051,-6.2270066],[106.7745609,-6.2270343],[106.7748324,-6.2270194],[106.7748359,-6.2270199],[106.7748435,-6.2270641],[106.7749017,-6.2270617],[106.7751272,-6.2270528],[106.7751609,-6.2270582],[106.7752995,-6.2270804],[106.775322,-6.2270549],[106.7756436,-6.2270435],[106.7757593,-6.2270394],[106.7758264,-6.2270366],[106.7761403,-6.227024],[106.7761571,-6.2269844],[106.7762488,-6.2269831],[106.7762692,-6.2270677],[106.7765191,-6.2270669],[106.7765329,-6.2270659],[106.7769647,-6.2270351],[106.7769694,-6.2269465],[106.7770747,-6.2269442],[106.7772016,-6.2269416],[106.7772209,-6.2269412],[106.7773588,-6.2269389],[106.7774297,-6.2269377],[106.7774834,-6.2269686],[106.7777085,-6.2269678],[106.7778362,-6.2269674],[106.7779543,-6.2269161],[106.7783127,-6.2269147],[106.7784162,-6.226909],[106.7784093,-6.2266815],[106.7784054,-6.226554],[106.7784115,-6.2263391],[106.7784297,-6.2257036],[106.7784366,-6.2254634],[106.7784443,-6.2251942],[106.7784706,-6.2249451],[106.7784722,-6.2248481],[106.7784503,-6.224836],[106.7784578,-6.2243872],[106.7784578,-6.223322],[106.7784578,-6.2232199],[106.7784578,-6.2224765],[106.7784655,-6.2222681],[106.7784655,-6.2221504],[106.7784731,-6.2218237],[106.7784807,-6.2211366],[106.7784807,-6.2208682],[106.7784807,-6.2206931],[106.7784807,-6.2203899],[106.7784806,-6.2203866],[106.7784731,-6.2201247],[106.7784731,-6.2198248],[106.7784731,-6.2197685],[106.7784884,-6.2189665],[106.7784811,-6.2187899],[106.7784807,-6.218781],[106.7784731,-6.2183204],[106.778435,-6.2179013],[106.7783815,-6.2176681],[106.778351,-6.2175885],[106.7783281,-6.2175565],[106.7782137,-6.2174473],[106.7779467,-6.2173272],[106.7778322,-6.2172895],[106.7774431,-6.2170973],[106.7772371,-6.2169738],[106.777138,-6.2168651],[106.7770769,-6.2165785],[106.7770998,-6.2162194],[106.7771144,-6.21614],[106.7771151,-6.2161365],[106.7773668,-6.2157202],[106.7775042,-6.2154842],[106.7775499,-6.2153869],[106.7775786,-6.2152441],[106.7776075,-6.2150477],[106.7776333,-6.2147169],[106.7776262,-6.2142497],[106.7776262,-6.214109],[106.7776262,-6.2140775],[106.7776644,-6.2137223],[106.7776796,-6.2136803],[106.7777483,-6.2135859],[106.7778399,-6.2135339],[106.7780916,-6.2135034],[106.778763,-6.2134719],[106.7793886,-6.2134423],[106.7799866,-6.2134168],[106.7801821,-6.2134085],[106.7805875,-6.213373],[106.780703,-6.2133646],[106.7810012,-6.2133582],[106.7810469,-6.2133607],[106.7816774,-6.2133332],[106.7823183,-6.2133017],[106.7825243,-6.2132864],[106.7827837,-6.2132187],[106.7829439,-6.2131024],[106.7830584,-6.2130051],[106.7831014,-6.2129842],[106.7831499,-6.2129608],[106.7831728,-6.2129469],[106.7833483,-6.2126961],[106.7834856,-6.2124143],[106.7835543,-6.2121625],[106.783539,-6.2113481],[106.7835161,-6.2110157],[106.7835148,-6.2110111],[106.7835085,-6.21099],[106.7835009,-6.2108369],[106.783478,-6.2104335],[106.7833788,-6.2096324],[106.7833788,-6.2096062],[106.7833407,-6.2093258],[106.7832644,-6.2085896],[106.7832338,-6.2082663],[106.7832109,-6.2079001],[106.7831728,-6.2075329],[106.7831652,-6.2074609],[106.7831423,-6.207109],[106.7831423,-6.2067199],[106.78315,-6.2067201],[106.7839739,-6.2067395],[106.7845232,-6.2067652],[106.7848742,-6.2067752],[106.7852098,-6.2068005],[106.7859957,-6.2068677],[106.7863237,-6.2068973],[106.7865603,-6.2069064],[106.7869265,-6.2069378],[106.7873232,-6.2070485],[106.7875673,-6.2071968],[106.7877352,-6.2073589],[106.7878267,-6.2075143],[106.7878496,-6.207542],[106.7878801,-6.2075987],[106.7880175,-6.2077422],[106.7883074,-6.2080465],[106.7883913,-6.2081576],[106.788521,-6.2082458],[106.788994,-6.2084933],[106.7891161,-6.2085004],[106.789139,-6.2084969],[106.7891848,-6.2084899],[106.7893831,-6.2084174],[106.7895205,-6.2082949],[106.7895856,-6.2082286],[106.7899324,-6.2078753],[106.7904512,-6.2074438],[106.790848,-6.2075019],[106.7915651,-6.2076254],[106.7919542,-6.2076946],[106.7922213,-6.207747],[106.7923891,-6.207788],[106.7923815,-6.2078104],[106.7922747,-6.2080155],[106.7921251,-6.2081761],[106.7919805,-6.2083299],[106.7918765,-6.2085615],[106.7917992,-6.2087581],[106.7918345,-6.2088521],[106.7919075,-6.2089863],[106.7920475,-6.2090772],[106.7923565,-6.2091691],[106.7924959,-6.2092572],[106.7925951,-6.2093916],[106.792679,-6.2096086],[106.7927172,-6.2098208],[106.7927019,-6.2102094],[106.7927782,-6.2102933],[106.7928177,-6.2103601],[106.7929578,-6.2104537],[106.7930734,-6.210491],[106.793236,-6.2105804],[106.7936022,-6.2108493],[106.7936861,-6.2109733],[106.79371,-6.2111988],[106.7937166,-6.2114272],[106.7936403,-6.2114907],[106.7934319,-6.2116058],[106.7934107,-6.2116731],[106.7934231,-6.2117118],[106.7934297,-6.2117322],[106.7935023,-6.2117454],[106.7936607,-6.2116992],[106.7938138,-6.2116879],[106.7939303,-6.211711],[106.7939916,-6.2118244],[106.7940135,-6.21194],[106.7941591,-6.2119823],[106.794327,-6.2119365],[106.7944326,-6.211909],[106.7945864,-6.2118445],[106.7947013,-6.2119108],[106.7948087,-6.2120029],[106.7948199,-6.2120126],[106.794995,-6.2121276],[106.7951204,-6.2121854],[106.7951586,-6.2122069],[106.7953905,-6.2122876],[106.7955762,-6.2123569],[106.7956182,-6.2123697],[106.7957613,-6.212493],[106.7957384,-6.2126108],[106.7956621,-6.212708],[106.795454,-6.2127688],[106.795418,-6.2128635],[106.7954103,-6.2129097],[106.7953951,-6.2129598],[106.7953569,-6.2135673],[106.7953826,-6.2138931],[106.7954635,-6.2139897],[106.7955418,-6.2140802],[106.7955629,-6.2141047],[106.7956392,-6.2142663],[106.7956621,-6.2143159],[106.7958223,-6.2146364],[106.7960741,-6.215168],[106.7962025,-6.2155738],[106.7962517,-6.2158157],[106.7962735,-6.2159124],[106.7962256,-6.2160444],[106.7961454,-6.216163],[106.7960736,-6.2163999],[106.7961351,-6.2166252],[106.7962877,-6.2169013],[106.7964556,-6.2172599],[106.7966234,-6.2176142],[106.7967913,-6.2180043],[106.7968447,-6.2181683],[106.7968676,-6.2184596],[106.7968599,-6.2186671],[106.7968575,-6.2187019],[106.7968523,-6.2187791],[106.7968142,-6.219173],[106.7966387,-6.220069],[106.7965242,-6.2206941],[106.7962954,-6.2219544],[106.7960908,-6.2232299],[106.7960894,-6.2232385],[106.7960436,-6.2238822],[106.796303,-6.2251449],[106.796364,-6.2265387],[106.7962954,-6.226851],[106.796158,-6.2271943],[106.7958834,-6.2278133],[106.7956163,-6.2284151],[106.7956621,-6.2285414],[106.7958147,-6.2287555],[106.7957766,-6.2288585],[106.7957232,-6.2290559],[106.7957537,-6.2291575],[106.7957918,-6.2292686],[106.7960283,-6.2292791],[106.7963335,-6.2292853],[106.796364,-6.2292853],[106.7970049,-6.2292748],[106.7973177,-6.2292963],[106.7973482,-6.2293001],[106.7973787,-6.2293001],[106.7975237,-6.2293048],[106.7976153,-6.2292695],[106.7976915,-6.22924],[106.7977373,-6.2292104],[106.7982409,-6.2288919],[106.7983324,-6.2288533],[106.7984697,-6.2288351],[106.7986681,-6.2288614],[106.7991411,-6.2289873],[106.7992394,-6.2290732],[106.7992403,-6.229074],[106.7992425,-6.2290716],[106.7993013,-6.2290054],[106.7994692,-6.2289753],[106.7995913,-6.2289973],[106.7996218,-6.2289591],[106.7998964,-6.2286921],[106.8007433,-6.2279964],[106.800873,-6.227902],[106.8010332,-6.2277985],[106.8011858,-6.2276831],[106.8013765,-6.2275358],[106.8016283,-6.2273522],[106.8017809,-6.2272401],[106.8029605,-6.2263425],[106.802994,-6.226317],[106.8030245,-6.2262927],[106.8030703,-6.2262502],[106.803322,-6.2260318],[106.8038103,-6.2256627],[106.8042681,-6.225348],[106.8045504,-6.225142],[106.804764,-6.2249313],[106.8049166,-6.2248397],[106.8050258,-6.224769],[106.8052065,-6.2246519],[106.8053591,-6.224525],[106.8055956,-6.2243362],[106.8059847,-6.2240978],[106.8063967,-6.2237993],[106.806473,-6.2237449],[106.807007,-6.2234278],[106.8074343,-6.2231822],[106.8077166,-6.2230025],[106.8082811,-6.2226072],[106.8086321,-6.2223144],[106.8088457,-6.2221594],[106.8089449,-6.2220893],[106.809067,-6.2219945],[106.8092501,-6.2218428],[106.8094256,-6.2217093],[106.809601,-6.2215977],[106.8097841,-6.2214737],[106.8098299,-6.2214475],[106.8099062,-6.2213946],[106.809952,-6.2213536],[106.8099825,-6.2213254],[106.8100817,-6.2212468],[106.810158,-6.221179],[106.8109591,-6.2205372],[106.8115312,-6.2200766],[106.8116686,-6.2199884],[106.8116991,-6.2199741],[106.8117449,-6.2199369],[106.8118364,-6.2198639],[106.8118746,-6.2198277],[106.8119127,-6.2197991],[106.8119661,-6.2197538],[106.8119967,-6.2197294],[106.8120424,-6.2196837],[106.812195,-6.2195407],[106.8123385,-6.2194078],[106.8123552,-6.2193923],[106.8125231,-6.2192612],[106.812546,-6.2192459],[106.8125917,-6.219214],[106.8126223,-6.2191973],[106.8127138,-6.2191377],[106.8127144,-6.2191374],[106.8127753,-6.2190897],[106.8127901,-6.2190752],[106.8128435,-6.2190328],[106.8128817,-6.2190037],[106.8130662,-6.2188621],[106.8140733,-6.2180743],[106.8149086,-6.2174208],[106.8149797,-6.2173596],[106.8152468,-6.2171197],[106.8153689,-6.2170205],[106.8153994,-6.2170029],[106.8156511,-6.2168288],[106.8157961,-6.2167139],[106.8162123,-6.2163888],[106.8164042,-6.2162222],[106.816437,-6.2161914],[106.8167269,-6.2159329],[106.8167302,-6.2159302],[106.8168795,-6.2158094],[106.8168805,-6.2158088],[106.8180749,-6.214772],[106.8183363,-6.2145922],[106.8183503,-6.21458],[106.8185198,-6.2144332],[106.8185961,-6.2143679],[106.8187868,-6.2141519],[106.8190004,-6.2138958],[106.8191228,-6.2137416],[106.8191301,-6.2137323],[106.8192064,-6.2136446],[106.8192446,-6.2136026],[106.8194735,-6.2132788],[106.8197863,-6.2128153],[106.8197941,-6.2128005],[106.8198595,-6.2127096],[106.8199982,-6.2124565],[106.8200685,-6.2123552],[106.8202135,-6.2120696],[106.820225,-6.2120431],[106.8203901,-6.2117365],[106.8207284,-6.2111249],[106.8209221,-6.2107723],[106.8209823,-6.2106628],[106.8211284,-6.2102258],[106.8211977,-6.2100768],[106.8215029,-6.2094503],[106.8215933,-6.2092319],[106.8215944,-6.209229],[106.8215954,-6.2092262],[106.8217546,-6.2087665],[106.822014,-6.2077537],[106.8220217,-6.2077132],[106.8220598,-6.2073751],[106.8220675,-6.2070895],[106.8220598,-6.2069188],[106.8221285,-6.2062283],[106.8222277,-6.2054234],[106.8222505,-6.2053528],[106.8222651,-6.2052116],[106.8222963,-6.2049094],[106.8222963,-6.2048836],[106.8223802,-6.2042394],[106.82251,-6.2036806],[106.8225557,-6.2034612],[106.8225786,-6.2033501],[106.8226702,-6.2029081],[106.8226778,-6.2028461],[106.8226931,-6.2027846],[106.8227083,-6.2026987],[106.8227453,-6.2027064],[106.8232042,-6.2028017],[106.8235205,-6.2028484],[106.8248189,-6.2031458],[106.8254015,-6.2032948],[106.8258724,-6.2033864],[106.826325,-6.2034895],[106.8265459,-6.2035413],[106.8269267,-6.2036265],[106.8272206,-6.2036935],[106.8274764,-6.2037503],[106.8274762,-6.2037522],[106.8277258,-6.2038079],[106.8281786,-6.2039166],[106.828789,-6.2040563],[106.8291003,-6.2041147],[106.8293244,-6.2041647],[106.8295307,-6.2042135],[106.8299178,-6.2042827],[106.8301775,-6.2043453],[106.830414,-6.2043987],[106.8307192,-6.2044526],[106.8311922,-6.2045298],[106.8319246,-6.2046276],[106.8324248,-6.2046807],[106.8339945,-6.2049219],[106.8339939,-6.2049273],[106.8339989,-6.2049243],[106.8346177,-6.2050035],[106.8346712,-6.2050124],[106.8350069,-6.2050615],[106.8354113,-6.2051173],[106.8354952,-6.2051315],[106.835808,-6.2051845],[106.8361742,-6.2052303],[106.836548,-6.2052756],[106.8369066,-6.20534],[106.837166,-6.2053953],[106.8374483,-6.2054787],[106.8377397,-6.2055701],[106.8379481,-6.2056459],[106.8383633,-6.2057979],[106.8385698,-6.2058778],[106.8386296,-6.2059232],[106.8386308,-6.2059241],[106.8388222,-6.2059822],[106.8388445,-6.2059889],[106.8392031,-6.2061191],[106.8393993,-6.2061771],[106.8405032,-6.2065812],[106.8407818,-6.2066819],[106.8415602,-6.2069676],[106.8419678,-6.2071189],[106.8419686,-6.2071187],[106.8423115,-6.2072434],[106.8425254,-6.2073212],[106.8428597,-6.2074429],[106.8430651,-6.2075187],[106.8432108,-6.2075725],[106.8433263,-6.2076152],[106.8433233,-6.2076258],[106.8433355,-6.2076199],[106.8439517,-6.2078346],[106.8448236,-6.2081257],[106.844823,-6.2081276],[106.8450198,-6.2081939],[106.8454193,-6.2083283],[106.8457338,-6.2084341],[106.845734,-6.208435],[106.8457344,-6.2084369],[106.8457375,-6.2084359],[106.8460901,-6.2085584],[106.8462841,-6.2085678],[106.8462908,-6.2085691],[106.8465578,-6.2086187],[106.8468019,-6.2086278],[106.8470308,-6.2086068],[106.8470405,-6.2086041],[106.8471496,-6.2086093],[106.8473447,-6.2085193],[106.847397,-6.2085047],[106.8476564,-6.2083827],[106.8476794,-6.2083649],[106.8476798,-6.2083647],[106.8477137,-6.2083383],[106.8479311,-6.20817],[106.8481142,-6.2080484],[106.8481905,-6.2079707],[106.84819,-6.20797],[106.8481888,-6.2079685],[106.8481962,-6.2079628],[106.8481935,-6.2079587],[106.8482334,-6.2079328],[106.8482515,-6.2079168],[106.8483127,-6.2078814],[106.8485438,-6.2077316],[106.8488599,-6.2075691],[106.8489547,-6.2075204],[106.8490473,-6.2075513],[106.8490526,-6.207543],[106.8491769,-6.2075944],[106.8495985,-6.2077349],[106.8496666,-6.2077576],[106.8498941,-6.2079133],[106.8500042,-6.2079886],[106.8502244,-6.2082519],[106.8503486,-6.2084003],[106.8505227,-6.2086085],[106.8506057,-6.2086615],[106.8509407,-6.2088758],[106.8509413,-6.2088762],[106.8509639,-6.2088906],[106.8511367,-6.2090012],[106.8512596,-6.2090798],[106.8514482,-6.2091747],[106.8515444,-6.2092067],[106.851792,-6.209265],[106.8522979,-6.209384],[106.8524116,-6.2094108],[106.8525915,-6.2094851],[106.8530457,-6.2097807],[106.8534842,-6.2100661],[106.8537459,-6.2102883],[106.8542048,-6.2106778],[106.8543027,-6.2108572],[106.8543405,-6.210947],[106.854366,-6.2109739],[106.8543643,-6.2109756],[106.8544952,-6.2111322],[106.8549693,-6.2112826],[106.8551529,-6.2113329],[106.8556133,-6.2114592],[106.8564003,-6.2116531],[106.8564857,-6.2116724],[106.8568296,-6.21175],[106.8571877,-6.2119455],[106.8575282,-6.2122125],[106.8576921,-6.2124458],[106.8578304,-6.2126592],[106.8578361,-6.2126682],[106.8581115,-6.2131085],[106.8580608,-6.2131297],[106.8580629,-6.2131339],[106.858185,-6.2132793],[106.8582384,-6.2134453],[106.8582308,-6.2135807],[106.858185,-6.2136746],[106.8581087,-6.2137371],[106.857918,-6.2137795],[106.8577238,-6.2138162],[106.8575879,-6.2137597],[106.8573124,-6.2139277],[106.8573067,-6.2139312],[106.8570425,-6.2143265],[106.8569694,-6.2144487],[106.856827,-6.2146569],[106.8566973,-6.2148963],[106.8565676,-6.2151881],[106.8565495,-6.2152489],[106.8564684,-6.2155214],[106.8563539,-6.2158962],[106.8562853,-6.2161565],[106.8562853,-6.216281],[106.8563082,-6.2163954],[106.8563539,-6.2165871],[106.8564913,-6.2167979],[106.8567201,-6.2170506],[106.8569414,-6.2173248],[106.8570635,-6.2174616],[106.8572237,-6.217577],[106.8573458,-6.2176295],[106.8575136,-6.217661],[106.8577043,-6.217639],[106.8578035,-6.2175542],[106.8578875,-6.2174058],[106.8579417,-6.2173004],[106.8579479,-6.2173005],[106.8581105,-6.216921],[106.8583649,-6.216546],[106.8585511,-6.216374],[106.8586275,-6.2163358],[106.8586684,-6.2163215],[106.8587642,-6.2163116],[106.858828,-6.2163226],[106.8590357,-6.2164187],[106.8591693,-6.2165186],[106.8592234,-6.2165704],[106.859421,-6.2167664],[106.8596422,-6.2169981],[106.8597428,-6.2171039],[106.8598232,-6.2172104],[106.8599249,-6.2172418],[106.8599398,-6.2172509],[106.8600695,-6.2172924],[106.8601174,-6.2173012],[106.8601384,-6.2173077],[106.8601591,-6.2173089],[106.8602373,-6.2173234],[106.8603278,-6.2173189],[106.8604532,-6.2173263],[106.8605313,-6.2172929],[106.8606188,-6.2172695],[106.8608095,-6.2171946],[106.8609626,-6.2171085],[106.860964,-6.2171079],[106.86097,-6.2171043],[106.8611681,-6.2169929],[106.8618319,-6.2166205],[106.8619889,-6.2165306],[106.8625744,-6.2162556],[106.8628698,-6.21615],[106.8629956,-6.2161411],[106.863243,-6.2161547],[106.8634251,-6.2161821],[106.8635259,-6.2162601],[106.8635341,-6.2162803],[106.8635388,-6.2163596],[106.863539,-6.2163962],[106.8634574,-6.2165568],[106.8634227,-6.2166026],[106.8632128,-6.2168375],[106.863022,-6.2170072],[106.8627703,-6.2172194],[106.8625948,-6.2173682],[106.8624269,-6.2175275],[106.8623583,-6.2176014],[106.862311,-6.217667],[106.8621863,-6.2177927],[106.8620323,-6.2180841],[106.8618395,-6.2183429],[106.8615419,-6.2186824],[106.8614845,-6.2187512],[106.8613834,-6.2188588],[106.8613377,-6.2189341],[106.8612596,-6.2190423],[106.8611223,-6.2192541],[106.8608782,-6.219667],[106.860718,-6.2199531],[106.8605578,-6.2202545],[106.8604895,-6.2203628],[106.8604248,-6.2204374],[106.8601808,-6.2208731],[106.8601305,-6.2209459],[106.8601,-6.2210546],[106.8600954,-6.2210737],[106.8600731,-6.2211277],[106.8600732,-6.2211653],[106.8600618,-6.2212125],[106.8600847,-6.2213455],[106.8601687,-6.2215024],[106.8602678,-6.2215868],[106.8604662,-6.221695],[106.8604975,-6.2217051],[106.8605474,-6.2217365],[106.8609092,-6.2218295],[106.860985,-6.2218504],[106.8609924,-6.2218509],[106.8610004,-6.221853],[106.861012,-6.2218523],[106.8611528,-6.2218619],[106.8612493,-6.2218375],[106.8613348,-6.2218321],[106.8614576,-6.2217308],[106.8615038,-6.2217036],[106.8615792,-6.2216465],[106.8615948,-6.2216424],[106.8615933,-6.2216358],[106.8616487,-6.2215939],[106.8617327,-6.2214242],[106.8617708,-6.2212306],[106.8617708,-6.2210732],[106.8616716,-6.2208558],[106.8615267,-6.2205778],[106.8614504,-6.2204085],[106.8614122,-6.2203117],[106.8614275,-6.2201906],[106.8615572,-6.2199727],[106.8617403,-6.2198024],[106.8618929,-6.2197533],[106.8624498,-6.219679],[106.8626787,-6.2196661],[106.8628771,-6.2197013],[106.862961,-6.2197619],[106.8630678,-6.219955],[106.8631899,-6.2203904],[106.8632891,-6.220656],[106.8634264,-6.2209583],[106.8635332,-6.221212],[106.8636171,-6.2213569],[106.8637545,-6.2215019],[106.8639757,-6.2217431],[106.8641436,-6.2219844],[106.8643495,-6.2222619],[106.8645555,-6.2225276],[106.8648226,-6.2227688],[106.8649904,-6.2229739],[106.8651659,-6.2231551],[106.8652956,-6.2233482],[106.8653719,-6.2235537],[106.8654329,-6.2238198],[106.8654177,-6.2240377],[106.8653944,-6.2241376],[106.8653643,-6.2242675],[106.8652498,-6.2244254],[106.8650362,-6.2245231],[106.8647692,-6.2245722],[106.8645632,-6.2245732],[106.8643378,-6.2245128],[106.8642961,-6.2245017],[106.864052,-6.2244783],[106.863846,-6.2244668],[106.8637316,-6.2244912],[106.8636324,-6.2245522],[106.8635332,-6.2246495],[106.8635256,-6.2247582],[106.8635256,-6.2248674],[106.8635485,-6.2250147],[106.8635936,-6.2250797],[106.8635942,-6.2250806],[106.8636934,-6.225216],[106.8638689,-6.225494],[106.8640825,-6.2258297],[106.8643038,-6.2261363],[106.8645327,-6.2264815],[106.8646624,-6.2267113],[106.8647463,-6.2269321],[106.8647692,-6.2271915],[106.8647844,-6.2277489],[106.8647952,-6.2280626],[106.8647997,-6.228191],[106.8648302,-6.2284694],[106.8648378,-6.2286711],[106.8648378,-6.2288804],[106.8647844,-6.2290035],[106.8646853,-6.229188],[106.8646013,-6.2293115],[106.8644335,-6.2294718],[106.8642198,-6.2296568],[106.8639757,-6.2298418],[106.8637697,-6.2299901],[106.8636248,-6.2301503],[106.8634645,-6.2303229],[106.8633272,-6.2305322],[106.8632433,-6.2307167],[106.8632204,-6.2308641],[106.8632814,-6.2310238],[106.8633654,-6.2311588],[106.8635027,-6.2313056],[106.8637392,-6.2314521],[106.863926,-6.2315664],[106.8639986,-6.2316108],[106.8643419,-6.2318187],[106.8646395,-6.2320142],[106.8648912,-6.2321849],[106.8651048,-6.2323318],[106.8653032,-6.2325893],[106.8657076,-6.2331162],[106.865807,-6.2332429],[106.865967,-6.2334467],[106.8661272,-6.2337533],[106.8663027,-6.2341581],[106.8663271,-6.2342763],[106.8663561,-6.2344161],[106.8663637,-6.234551],[106.8663332,-6.2346726],[106.8662416,-6.2347937],[106.8660814,-6.2348662],[106.8658296,-6.2349034],[106.8655016,-6.2348324],[106.8653109,-6.2348452],[106.8652422,-6.2348815],[106.865204,-6.2349659],[106.865204,-6.2351704],[106.865288,-6.2354594],[106.86541,-6.2356272],[106.8656008,-6.2358919],[106.8657759,-6.2360584],[106.8658907,-6.2361675],[106.8660891,-6.2363835],[106.8662188,-6.2365637],[106.8663408,-6.2367802],[106.86644,-6.2370806],[106.8666231,-6.2375861],[106.8667452,-6.2380672],[106.8668138,-6.2383562],[106.8668444,-6.2387653],[106.8668215,-6.2390304],[106.8667605,-6.2391148],[106.8666613,-6.2391754],[106.8665163,-6.2391878],[106.8664095,-6.2391282],[106.8661348,-6.2388883],[106.8659746,-6.2386723],[106.8657915,-6.2382751],[106.8656236,-6.2377339],[106.8654406,-6.2372408],[106.8652727,-6.2368684],[106.8651888,-6.2368203],[106.8649599,-6.2367969],[106.864731,-6.2367978],[106.8644258,-6.2368594],[106.8640444,-6.2370773],[106.8637926,-6.237259],[106.8636248,-6.2374521],[106.8634569,-6.2376934],[106.8633196,-6.238019],[106.8632824,-6.2381188],[106.8631441,-6.2384892],[106.8630144,-6.2388993],[106.8629076,-6.2393213],[106.8628313,-6.2395745],[106.8627855,-6.2397829],[106.8627037,-6.24006],[106.8626787,-6.2401448],[106.8626101,-6.2404662],[106.862549,-6.2407403],[106.8625032,-6.2410017],[106.862488,-6.2412692],[106.8624651,-6.241664],[106.8624803,-6.2419782],[106.8624727,-6.2421856],[106.862488,-6.2425342],[106.862488,-6.2428585],[106.8624956,-6.2430993],[106.8624956,-6.2431138],[106.8624956,-6.2431305],[106.8624956,-6.2431331],[106.8624956,-6.2433186],[106.8625032,-6.2436224],[106.8625032,-6.2438312],[106.862488,-6.2440405],[106.8624575,-6.2441559],[106.8623888,-6.2444072],[106.8622438,-6.2447844],[106.862137,-6.2451192],[106.8620378,-6.2453919],[106.8619921,-6.2456427],[106.8619845,-6.2459045],[106.8619845,-6.2461138],[106.8620913,-6.2464481],[106.8621051,-6.2464929],[106.8621603,-6.2467059],[106.8620896,-6.2467123],[106.8622747,-6.2469606],[106.862404,-6.2472244],[106.8625414,-6.2474213],[106.8627092,-6.2476178],[106.8628313,-6.2478471],[106.8630373,-6.2481747],[106.8632891,-6.2484861],[106.8635103,-6.2487641],[106.8636705,-6.2489362],[106.8638689,-6.2491408],[106.8639681,-6.2492552],[106.8640368,-6.2493373],[106.864052,-6.2494193],[106.8640215,-6.249518],[106.8638842,-6.2496253],[106.8635189,-6.2497794],[106.8633728,-6.2498228],[106.8624239,-6.2503072],[106.8623049,-6.2503524],[106.8622736,-6.250384],[106.8622113,-6.2504158],[106.8622088,-6.2504493],[106.8621904,-6.2504678],[106.8621523,-6.2506595],[106.8621523,-6.2508512],[106.8621904,-6.2511573],[106.8622087,-6.2512043],[106.8622142,-6.2512456],[106.8622595,-6.2513356],[106.8624575,-6.2518464],[106.8627092,-6.2524968],[106.8628466,-6.2530327],[106.8628466,-6.2531858],[106.8626851,-6.2534996],[106.862668,-6.2535225],[106.8625032,-6.2536851],[106.8624962,-6.2536895],[106.8622634,-6.2538019],[106.8618678,-6.253944],[106.8618288,-6.2539544],[106.8615552,-6.2540052],[106.8615301,-6.2540154],[106.8612727,-6.2540513],[106.8611673,-6.2540066],[106.8610462,-6.2538196],[106.8609642,-6.2533113],[106.8609092,-6.2528966],[106.8608137,-6.2523615],[106.8607982,-6.2522978],[106.8607561,-6.2520247],[106.8606767,-6.2517973],[106.8606644,-6.2517464],[106.8605288,-6.2512382],[106.8604077,-6.2510245],[106.8601802,-6.2509852],[106.8599128,-6.2510129],[106.8599042,-6.2509927],[106.8599078,-6.2510126],[106.8599086,-6.2510507],[106.8594896,-6.2511673],[106.8590853,-6.2513986],[106.8581637,-6.2523403],[106.8579463,-6.2526692],[106.8577349,-6.253223],[106.8575864,-6.25391],[106.8575518,-6.2544387],[106.8575698,-6.2548515],[106.8575716,-6.2548943],[106.8576361,-6.2550946],[106.857682,-6.2551856],[106.8577809,-6.2552724],[106.8582003,-6.2551561],[106.8588335,-6.2547708],[106.8592097,-6.2545057],[106.8594643,-6.2543772],[106.8597102,-6.2543855],[106.8602391,-6.2545568],[106.8604814,-6.2547455],[106.8607103,-6.2551856],[106.8607248,-6.2554027],[106.860658,-6.2555426],[106.8606569,-6.2555495],[106.8606523,-6.2555543],[106.8605983,-6.2556674],[106.8603442,-6.2559509],[106.8599474,-6.2562228],[106.8595812,-6.2564536],[106.8594264,-6.2565466],[106.8593722,-6.2566652],[106.8593141,-6.2568188],[106.8593459,-6.2569479],[106.8594667,-6.2570672],[106.859829,-6.2570737],[106.8602572,-6.2570905],[106.8604031,-6.2571446],[106.8604763,-6.2572355],[106.8605042,-6.2573904],[106.8605043,-6.2576862],[106.8603899,-6.2581821],[106.8603888,-6.2581898],[106.8603882,-6.2581944],[106.8603746,-6.2582923],[106.8602297,-6.2587195],[106.8600923,-6.2592874],[106.8600013,-6.2596644],[106.8598765,-6.2601815],[106.8597965,-6.2607469],[106.8596083,-6.2616225],[106.8594464,-6.2621881],[106.8593111,-6.2625805],[106.8592028,-6.2628452],[106.8589847,-6.2629918],[106.8587725,-6.2630253],[106.8584597,-6.2630067],[106.8581087,-6.2629104],[106.8577425,-6.2628727],[106.857094,-6.262836],[106.8565523,-6.2627597],[106.8560183,-6.262508],[106.8557436,-6.262177],[106.8556373,-6.2620688],[106.8555147,-6.2619439],[106.8554308,-6.2618075],[106.8551638,-6.261828],[106.8546145,-6.2619667],[106.8543245,-6.2621627],[106.8543016,-6.2622996],[106.8542993,-6.2623171],[106.8542864,-6.2624164],[106.8543398,-6.2625137],[106.8546145,-6.2627664],[106.8555376,-6.2631731],[106.8563005,-6.2635022],[106.8569643,-6.2636948],[106.8571203,-6.2637823],[106.8571299,-6.2639189],[106.8571122,-6.2640648],[106.8570306,-6.2641654],[106.856827,-6.2643004],[106.8565142,-6.26436],[106.856148,-6.2644005],[106.8550112,-6.2645412],[106.8544695,-6.2646795],[106.8541719,-6.2647782],[106.8540804,-6.2648173],[106.8540422,-6.2648759],[106.8539965,-6.2649351],[106.8539734,-6.2650876],[106.8540197,-6.2652788],[106.8542301,-6.265513],[106.8546297,-6.2658105],[106.8552324,-6.2661014],[106.8553545,-6.2662178],[106.8554079,-6.2664714],[106.8554398,-6.2667707],[106.8554537,-6.2669006],[106.8555723,-6.2675134],[106.8555745,-6.2675246],[106.8555756,-6.2675302],[106.8555757,-6.267531],[106.8555772,-6.267537],[106.8555787,-6.2675436],[106.8555986,-6.2676292],[106.8556256,-6.2677359],[106.8558046,-6.2684446],[106.8559191,-6.2688604],[106.8560564,-6.269126],[106.8563539,-6.2697244],[106.8565065,-6.2701569],[106.856476,-6.27034],[106.8564455,-6.2704401],[106.8563921,-6.2705069],[106.8563082,-6.2705236],[106.856209,-6.2705408],[106.8560259,-6.2705246],[106.8558733,-6.2704588],[106.8557054,-6.2703596],[106.8554918,-6.2700606],[106.8553927,-6.2698279],[106.8552553,-6.2696453],[106.8551714,-6.2696286],[106.8549883,-6.2696624],[106.8548586,-6.2698794],[106.8548578,-6.2699062],[106.8548433,-6.2704125],[106.854904,-6.270538],[106.8549959,-6.2707282],[106.8553927,-6.27101],[106.8559801,-6.2713905],[106.8560025,-6.2714042],[106.856331,-6.271606],[106.8565828,-6.2718549],[106.8567507,-6.2721372],[106.8567812,-6.2724367],[106.8567201,-6.2726865],[106.8565523,-6.2727204],[106.8559191,-6.2726894],[106.8555677,-6.2726269],[106.8553698,-6.2725916],[106.8551027,-6.2725425],[106.8547975,-6.2723604],[106.8545404,-6.2721707],[106.8544161,-6.272079],[106.8541643,-6.2719632],[106.8538286,-6.2719145],[106.8535845,-6.2719818],[106.8534166,-6.2721325],[106.8534163,-6.2721386],[106.8534014,-6.2724486],[106.85347,-6.2727981],[106.85347,-6.2730313],[106.8533403,-6.2732649],[106.8531343,-6.2733655],[106.8528902,-6.2733827],[106.8524248,-6.2733012],[106.852139,-6.273251],[106.8518679,-6.2732034],[106.8515398,-6.2733045],[106.8513688,-6.2734134],[106.8513033,-6.2734552],[106.8512728,-6.273788],[106.8514025,-6.2742496],[106.8514167,-6.274273],[106.8516695,-6.2746869],[106.8519442,-6.2750397],[106.8519289,-6.2752233],[106.8518602,-6.2757187],[106.8516466,-6.2761722],[106.8515093,-6.2763],[106.8512117,-6.2765131],[106.850815,-6.2766982],[106.8506068,-6.2767366],[106.8505022,-6.2767559],[106.8501818,-6.2767573],[106.8497724,-6.2766196],[106.849724,-6.2766033],[106.8494951,-6.2765613],[106.8492128,-6.2765909],[106.8489916,-6.276733],[106.8487932,-6.2771016],[106.8487686,-6.2771377],[106.8486101,-6.277371],[106.8483965,-6.2776685],[106.8482866,-6.2777603],[106.8477603,-6.2781996],[106.8477327,-6.2782226],[106.847255,-6.2784967],[106.8471332,-6.2785665],[106.8467729,-6.2787837],[106.8467241,-6.2788723],[106.8466584,-6.2789916],[106.8466112,-6.2790242],[106.8465926,-6.2790683],[106.8465883,-6.2790785],[106.8466098,-6.2791631],[106.8466162,-6.2792821],[106.8466165,-6.2792836],[106.8466431,-6.2794185],[106.8467812,-6.2795487],[106.8468154,-6.2795809],[106.8470613,-6.2797275],[106.8474657,-6.2799249],[106.8476161,-6.2800385],[106.847642,-6.28004],[106.8478243,-6.2800503],[106.8484575,-6.2798672],[106.8485084,-6.2798501],[106.8488924,-6.2797213],[106.849251,-6.2796655],[106.8494041,-6.2796488],[106.8497622,-6.2796097],[106.8500097,-6.2795544],[106.8502279,-6.2795653],[106.8503175,-6.2796725],[106.8503438,-6.279704],[106.8503499,-6.2797513],[106.8503147,-6.2798521],[106.85002,-6.2801432],[106.8496273,-6.2803547],[106.8494931,-6.2804892],[106.8494928,-6.280495],[106.8494204,-6.2805628],[106.8493503,-6.2806284],[106.8490068,-6.2809501],[106.8487937,-6.2812217],[106.8486825,-6.2813773],[106.8483651,-6.2818215],[106.8481066,-6.2821832],[106.8477251,-6.2826725],[106.8477048,-6.2826985],[106.8476825,-6.282727],[106.8475267,-6.2829266],[106.8474616,-6.2830372],[106.8474593,-6.283144],[106.8474352,-6.2832342],[106.8475227,-6.2833719],[106.8475496,-6.2834144],[106.8476564,-6.2834864],[106.8478219,-6.2834972],[106.8479012,-6.2835164],[106.8479168,-6.2835202],[106.8480063,-6.2835092],[106.8480495,-6.2835121],[106.8480911,-6.2835148],[106.8481829,-6.2835208],[106.8485643,-6.2834292],[106.8486483,-6.283465],[106.8487398,-6.2835732],[106.8487627,-6.2836814],[106.8487118,-6.2837667],[106.848633,-6.2838989],[106.8483278,-6.284298],[106.8482486,-6.2843537],[106.8478624,-6.2846251],[106.8475878,-6.2849513],[106.8473589,-6.285368],[106.8473415,-6.2856288],[106.847336,-6.2857118],[106.8473589,-6.2858925],[106.8474504,-6.2861734],[106.8475038,-6.2863427],[106.8475038,-6.2864929],[106.8475267,-6.2866998],[106.8477556,-6.28715],[106.8477659,-6.2871689],[106.8479998,-6.2876001],[106.848488,-6.2880684],[106.8491289,-6.2884798],[106.8494722,-6.2885161],[106.849785,-6.2884584],[106.8499224,-6.2882891],[106.8499557,-6.2882455],[106.8500521,-6.2881194],[106.8501283,-6.2879873],[106.8501665,-6.287931],[106.8501935,-6.2879254],[106.8503496,-6.2878929],[106.8505938,-6.2879858],[106.8510354,-6.2882947],[106.8510467,-6.2883025],[106.8511583,-6.2884536],[106.8510889,-6.2888889],[106.8510841,-6.2889192],[106.8510624,-6.2890206],[106.85096,-6.2893944],[106.8508193,-6.2895876],[106.850754,-6.2896772],[106.8506014,-6.2898469],[106.8503038,-6.2899795],[106.8499834,-6.2900744],[106.8495485,-6.2902074],[106.8495342,-6.2902153],[106.8493802,-6.2903002],[106.8493425,-6.2903209],[106.8492891,-6.2904716],[106.8493044,-6.2906032],[106.8494177,-6.290975],[106.8494417,-6.2910538],[106.8496706,-6.2915044],[106.8499635,-6.2920954],[106.8499682,-6.2921048],[106.8502199,-6.2924986],[106.8503267,-6.2926112],[106.8503649,-6.292686],[106.8507082,-6.2929106],[106.8510286,-6.2929283],[106.8512346,-6.292852],[106.8513193,-6.29273],[106.8513456,-6.2926921],[106.8514177,-6.2925883],[106.8515322,-6.2922121],[106.8516085,-6.2915912],[106.8516619,-6.2912527],[106.851755,-6.2911558],[106.8518068,-6.291102],[106.8519203,-6.2910536],[106.8520691,-6.2910393],[106.8524124,-6.2910116],[106.8525048,-6.2909684],[106.8526283,-6.2909107],[106.8528444,-6.290854],[106.8530173,-6.2907308],[106.853348,-6.290495],[106.8538363,-6.2902675],[106.8539433,-6.2902797],[106.854063,-6.2902933],[106.8542218,-6.2903113],[106.8542567,-6.2903466],[106.8543627,-6.290454],[106.854439,-6.2908292],[106.8543703,-6.2911492],[106.8538439,-6.2921663],[106.8534581,-6.2926028],[106.8533937,-6.2926756],[106.8531813,-6.2929424],[106.8529436,-6.2932411],[106.8525087,-6.2938352],[106.852379,-6.2940255],[106.8523642,-6.2941114],[106.8523561,-6.2941585],[106.852318,-6.2942725],[106.8523027,-6.2943864],[106.8522798,-6.2945381],[106.8523027,-6.294652],[106.8523409,-6.2947846],[106.8524325,-6.2947841],[106.8524935,-6.2947274],[106.8526165,-6.2945597],[106.8526471,-6.2945235],[106.852691,-6.2944713],[106.8528422,-6.2943164],[106.8529411,-6.2942149],[106.8531572,-6.2939849],[106.8534776,-6.2937937],[106.8537065,-6.293717],[106.8539659,-6.2937923],[106.8541414,-6.2940193],[106.854294,-6.2942653],[106.854294,-6.2943],[106.854294,-6.2951761],[106.8542635,-6.2958975],[106.8542406,-6.2959543],[106.8542025,-6.2960115],[106.8541192,-6.2961404],[106.8540587,-6.2961616],[106.8539431,-6.2962022],[106.8537676,-6.296165],[106.8532335,-6.2959581],[106.8531362,-6.2959322],[106.8522493,-6.2956958],[106.8519425,-6.2956809],[106.8515245,-6.2956605],[106.8510897,-6.2957378],[106.8508534,-6.2958005],[106.8506548,-6.2958532],[106.850487,-6.2960058],[106.8504077,-6.2961636],[106.8503725,-6.2962337],[106.8503115,-6.2964616],[106.8506395,-6.2969161],[106.8514559,-6.2974444],[106.8519137,-6.2976709],[106.8519594,-6.2977372],[106.8519611,-6.2977399],[106.8521425,-6.2980304],[106.8521273,-6.2982583],[106.8521425,-6.2989793],[106.8520357,-6.2991314],[106.8519594,-6.2992268],[106.8518068,-6.299284],[106.8516924,-6.2993603],[106.8514864,-6.2993799],[106.8511049,-6.299078],[106.8509142,-6.2989455],[106.8503573,-6.2987957],[106.849869,-6.2988167],[106.8496782,-6.2988739],[106.8496019,-6.2990451],[106.8496248,-6.2991591],[106.849755,-6.2996765],[106.8497774,-6.2997657],[106.8498918,-6.2999173],[106.8500978,-6.300068],[106.8503267,-6.3002573],[106.8505785,-6.3004461],[106.8512194,-6.3008757],[106.851494,-6.3010393],[106.8516237,-6.3010936],[106.8516586,-6.3010895],[106.851784,-6.3010746],[106.8518275,-6.3010319],[106.8519518,-6.30091],[106.8521502,-6.3005076],[106.8523104,-6.3000684],[106.8524782,-6.299922],[106.8528063,-6.2998295],[106.8528258,-6.2998255],[106.8531118,-6.2997675],[106.8531725,-6.2997551],[106.853554,-6.2998086],[106.8539888,-6.2996059],[106.8544695,-6.2994581],[106.8546297,-6.2994576],[106.8548128,-6.2996579],[106.8548891,-6.2998948],[106.8550035,-6.3008075],[106.8549843,-6.3010837],[106.8549654,-6.3013554],[106.8548204,-6.301776],[106.8546068,-6.3021422],[106.854439,-6.3023434],[106.8544237,-6.302526],[106.8544547,-6.3026057],[106.8547365,-6.3033286],[106.8548433,-6.3034745],[106.8548685,-6.3034888],[106.8555757,-6.3038917],[106.856827,-6.3045083],[106.8574297,-6.3047252],[106.8581392,-6.3050695],[106.858452,-6.305379],[106.8584902,-6.3055063],[106.8584902,-6.3056242],[106.8584902,-6.3056374],[106.8584902,-6.3057256],[106.858452,-6.3057805],[106.85833,-6.3059087],[106.8578722,-6.3060933],[106.8576128,-6.3061672],[106.8574144,-6.3062592],[106.8573992,-6.3064233],[106.8574373,-6.306737],[106.8576586,-6.3075161],[106.8576815,-6.3076893],[106.8576815,-6.3077975],[106.8576128,-6.3080144],[106.8574678,-6.3083397],[106.8572237,-6.3085356],[106.8571572,-6.3086949],[106.8571503,-6.3087115],[106.8570787,-6.3088828],[106.8569033,-6.3093815],[106.8568524,-6.3095772],[106.8568305,-6.3096613],[106.8567736,-6.3098803],[106.8568651,-6.3103781],[106.8569719,-6.3104864],[106.8570406,-6.3105941],[106.8572161,-6.3106804],[106.8576662,-6.3106137],[106.8579256,-6.3106342],[106.8581697,-6.3107419],[106.8583223,-6.3109146],[106.8583223,-6.3110881],[106.8583002,-6.3111402],[106.8582994,-6.311142],[106.8582873,-6.3111795],[106.8582536,-6.3112832],[106.8576738,-6.3119135],[106.8575469,-6.3120273],[106.8568727,-6.3126312],[106.8563539,-6.3130446],[106.8559267,-6.3134795],[106.8555986,-6.3137623],[106.8551409,-6.3138285],[106.8548815,-6.3138295],[106.8547975,-6.3136998],[106.854706,-6.313592],[106.854645,-6.3132024],[106.854706,-6.3128772],[106.854706,-6.3126822],[106.8546221,-6.3124009],[106.8544466,-6.3121848],[106.8538949,-6.3117884],[106.8535768,-6.3115597],[106.8532259,-6.3113442],[106.8529207,-6.3110423],[106.8527071,-6.3109346],[106.8526232,-6.3109785],[106.8523638,-6.3110657],[106.852346,-6.3110961],[106.8522493,-6.3112612],[106.8521654,-6.311738],[106.8521772,-6.3120384],[106.8521775,-6.3120459],[106.852178,-6.3120585],[106.8521787,-6.3120776],[106.8521883,-6.3123227],[106.8521786,-6.3123641],[106.8521787,-6.3123817],[106.8521103,-6.312754],[106.8519022,-6.3130571],[106.8516822,-6.313302],[106.8514633,-6.313826],[106.8512394,-6.3143691],[106.8512329,-6.314385],[106.851177,-6.3147631],[106.8511784,-6.314776],[106.8512886,-6.3151194],[106.8514978,-6.3154227],[106.8515272,-6.3154536],[106.8516228,-6.3156377],[106.8517,-6.3157712],[106.8517025,-6.3157913],[106.8517261,-6.3158366],[106.8517266,-6.3159878],[106.8515768,-6.3163255],[106.8513218,-6.3165241],[106.8503124,-6.3169695],[106.8497208,-6.3172856],[106.8495049,-6.3174438],[106.8494646,-6.3174787],[106.8493578,-6.3177143],[106.8493578,-6.3179344],[106.8493751,-6.3181123],[106.8493755,-6.3182125],[106.8493959,-6.3183289],[106.8493807,-6.3185997],[106.8493769,-6.318605],[106.8493769,-6.3186123],[106.8492613,-6.3187871],[106.8491273,-6.3188246],[106.8490526,-6.3188544],[106.8490502,-6.3188541],[106.8490306,-6.3188517],[106.8489246,-6.3188813],[106.8486798,-6.3186729],[106.8483537,-6.3184531],[106.848285,-6.3183907],[106.848221,-6.3183508],[106.8478981,-6.3183163],[106.8478651,-6.3183154],[106.8474815,-6.3182935],[106.8471095,-6.3182599],[106.8468789,-6.3181571],[106.8468782,-6.3181568],[106.8468782,-6.3181567],[106.8468767,-6.3181561],[106.8467948,-6.3179936],[106.8468523,-6.317819],[106.8470145,-6.3176672],[106.8474559,-6.3176308],[106.8477025,-6.3175947],[106.8479504,-6.3175376],[106.8481935,-6.3174445],[106.8483258,-6.3173577],[106.8484768,-6.3171388],[106.8485223,-6.3170447],[106.8487454,-6.3165268],[106.8488102,-6.316297],[106.8488264,-6.3162361],[106.8488922,-6.3159461],[106.8489134,-6.3157452],[106.8488899,-6.3156374],[106.8488882,-6.3156305],[106.848839,-6.3154555],[106.8486538,-6.3152996],[106.8485165,-6.3152202],[106.8484895,-6.3151957],[106.8483507,-6.3151141],[106.8480222,-6.3151726],[106.8479145,-6.3152033],[106.8477727,-6.3152546],[106.847397,-6.3154064],[106.8473396,-6.3154588],[106.8472885,-6.315508],[106.8472693,-6.3155229],[106.8470835,-6.3156924],[106.8470322,-6.3157526],[106.8469587,-6.315838],[106.8468286,-6.3160084],[106.8468148,-6.3160293],[106.8467466,-6.3161981],[106.8467317,-6.3162412],[106.8466692,-6.316422],[106.8466154,-6.3165034],[106.8465653,-6.3165644],[106.8464205,-6.3167663],[106.8463763,-6.3168522],[106.8463372,-6.3169377],[106.8461571,-6.3170467],[106.8459721,-6.3170338],[106.8458006,-6.3170028],[106.8456941,-6.3169484],[106.8455768,-6.3168994],[106.8454797,-6.3168641],[106.8453081,-6.3167924],[106.8451318,-6.3167118],[106.8450067,-6.3166515],[106.8449665,-6.3166338],[106.8449177,-6.3166213],[106.8448412,-6.3166056],[106.8447191,-6.3165818],[106.8445513,-6.3165584],[106.844475,-6.3165708],[106.8443605,-6.316607],[106.8443356,-6.3166181],[106.8442724,-6.3166487],[106.8442191,-6.3167185],[106.8442089,-6.3167127],[106.8441698,-6.3168359],[106.8441545,-6.3170038],[106.8441698,-6.3172675],[106.8441088,-6.3175798],[106.844002,-6.3181558],[106.8439562,-6.3183117],[106.8438341,-6.3184562],[106.8436052,-6.3185292],[106.8435213,-6.3185053],[106.8432924,-6.3183861],[106.8428957,-6.3181715],[106.842705,-6.3180886],[106.8424685,-6.318017],[106.8416597,-6.3181282],[106.8407518,-6.3183589],[106.8402865,-6.3184805],[106.8399965,-6.3186255],[106.8395693,-6.3189392],[106.8392107,-6.3193961],[106.83873,-6.3200789],[106.8385622,-6.3202682],[106.838463,-6.320457],[106.8383562,-6.3206249],[106.8382952,-6.3207298],[106.8382952,-6.3207311],[106.8382952,-6.3208347],[106.8382723,-6.3209811],[106.8382952,-6.321086],[106.8385088,-6.3214412],[106.8388445,-6.3216496],[106.8392183,-6.3217111],[106.8398897,-6.3215409],[106.840584,-6.3213082],[106.8408739,-6.3213702],[106.840935,-6.3214956],[106.8409578,-6.321558],[106.8409578,-6.3216839],[106.8408129,-6.3218308],[106.8401186,-6.322064],[106.8400575,-6.3221689],[106.8399584,-6.3225461],[106.8399965,-6.3226719],[106.8400423,-6.3227764],[106.8402941,-6.3229637],[106.8412401,-6.3233796],[106.84153,-6.3236299],[106.8417001,-6.3238583],[106.8419344,-6.324173],[106.8425447,-6.324967],[106.8429033,-6.325573],[106.8431093,-6.3262635],[106.8430941,-6.3267241],[106.8430559,-6.3268919],[106.842911,-6.3271418],[106.8427507,-6.3273583],[106.8425447,-6.3275371],[106.842354,-6.3276396],[106.8421785,-6.3277164],[106.842087,-6.3277169],[106.8420336,-6.327704],[106.8418581,-6.3275776],[106.8417055,-6.3270445],[106.8416368,-6.3268285],[106.8415758,-6.3267398],[106.8414614,-6.3266764],[106.8413088,-6.3266898],[106.8411562,-6.326881],[106.8411417,-6.3269183],[106.8407518,-6.3279248],[106.840523,-6.3285613],[106.8403017,-6.3290067],[106.8402483,-6.3291212],[106.840233,-6.3292103],[106.8402254,-6.3292995],[106.8402407,-6.3294139],[106.8404162,-6.3296547],[106.8413088,-6.3304144],[106.8414031,-6.3304937],[106.84182,-6.3308444],[106.8420717,-6.3309961],[106.8424303,-6.3310586],[106.8427965,-6.3311334],[106.8431551,-6.3312717],[106.8432988,-6.3314102],[106.8433,-6.3314114],[106.8433992,-6.3315969],[106.8433992,-6.3317471],[106.8433229,-6.3318076],[106.8430864,-6.3319889],[106.8424532,-6.3321267],[106.8417894,-6.332264],[106.840996,-6.332222],[106.840645,-6.3321629],[106.8404238,-6.3321639],[106.8401949,-6.3321796],[106.8401186,-6.3322249],[106.8399736,-6.3323908],[106.8398516,-6.3328424],[106.83976,-6.3335648],[106.8397677,-6.3338204],[106.8397677,-6.3340307],[106.8397524,-6.3341961],[106.8397397,-6.3343878],[106.8397066,-6.334888],[106.8397219,-6.3352042],[106.8397371,-6.3353243],[106.8397829,-6.3354593],[106.8398745,-6.3356395],[106.8399965,-6.3357745],[106.8400881,-6.3358794],[106.8401796,-6.3359542],[106.8401907,-6.3359663],[106.8403752,-6.336462],[106.8403399,-6.3367656],[106.8402865,-6.3368712],[106.8402745,-6.3370009],[106.8402559,-6.3372021],[106.8403017,-6.3376236],[106.8403551,-6.3379264],[106.8403704,-6.338213],[106.8403551,-6.3383885],[106.8403093,-6.338532],[106.8401949,-6.338883],[106.8398668,-6.3394256],[106.8396074,-6.3397136],[106.8393862,-6.3400169],[106.8392946,-6.3401609],[106.8392793,-6.3402562],[106.8392489,-6.3403521],[106.8392336,-6.3404479],[106.8392793,-6.3405752],[106.8392859,-6.3405923],[106.8393099,-6.3406544],[106.8394396,-6.3407975],[106.8395693,-6.3408289],[106.8397753,-6.3408442],[106.8399194,-6.3408438],[106.8399355,-6.3408437],[106.840233,-6.3408108],[106.8404772,-6.3408575],[106.8406527,-6.3410001],[106.8408168,-6.3412715],[106.8408739,-6.3413659],[106.8409578,-6.341796],[106.8409434,-6.3419768],[106.8409405,-6.3419771],[106.840941,-6.3419798],[106.8406984,-6.342536],[106.8403615,-6.3425686],[106.840027,-6.3426009],[106.8393251,-6.3423529],[106.8388598,-6.3419667],[106.8385197,-6.3413316],[106.8384783,-6.3412543],[106.8380281,-6.341218],[106.837609,-6.3415157],[106.8373853,-6.3416745],[106.8368227,-6.342074],[106.8355639,-6.3437186],[106.8353232,-6.3440558],[106.835345,-6.3444537],[106.8354405,-6.3445688],[106.8356319,-6.3447997],[106.8359386,-6.3449925],[106.8363367,-6.3450727],[106.8366421,-6.3449287],[106.8375656,-6.3435886],[106.8380747,-6.3433316],[106.8391039,-6.3433428],[106.8397905,-6.3439417],[106.8396837,-6.3451191],[106.8393192,-6.345893],[106.8391344,-6.3462854],[106.8386133,-6.3466503],[106.8385775,-6.3466754],[106.8378145,-6.3466406],[106.8376033,-6.3469394],[106.8375428,-6.3471336],[106.8376404,-6.3473273],[106.8381044,-6.3479667],[106.8380957,-6.3483526],[106.8380788,-6.3491022],[106.8380739,-6.3493195],[106.8381502,-6.3495694],[106.8384418,-6.349881],[106.838524,-6.349969],[106.8389895,-6.3505235],[106.8392946,-6.3512612],[106.8391344,-6.3519001],[106.8390969,-6.3519086],[106.838402,-6.3520656],[106.8357775,-6.3518248],[106.8353273,-6.3520017],[106.8354189,-6.3524518],[106.8354226,-6.352456],[106.8354226,-6.3524561],[106.8354229,-6.3524564],[106.8357376,-6.352811],[106.8357729,-6.3528825],[106.8358323,-6.3530029],[106.8357993,-6.3540994],[106.8359682,-6.354528],[106.8358896,-6.3545783],[106.8358793,-6.3545848],[106.835869,-6.3545914],[106.835808,-6.3546291],[106.8357088,-6.3546963],[106.8353655,-6.3549266],[106.8353121,-6.3549681],[106.8352407,-6.3550023],[106.8351366,-6.3550521],[106.8349611,-6.3551174],[106.8343355,-6.3552552],[106.8342821,-6.3552685],[106.8342211,-6.3552842],[106.833359,-6.3554139],[106.8330156,-6.3554655],[106.8329851,-6.3554664],[106.8329165,-6.355475],[106.8328096,-6.3554917],[106.8323748,-6.3555613],[106.832123,-6.3555908],[106.8320667,-6.355596],[106.8320162,-6.3556033],[106.8317492,-6.355639],[106.831741,-6.3556402],[106.831505,-6.3556743],[106.8313524,-6.3556972],[106.8309633,-6.3557544],[106.8306887,-6.3558579],[106.830475,-6.3560105],[106.8304445,-6.3560415],[106.8302157,-6.3561187],[106.8290712,-6.3563486],[106.8273418,-6.3568546],[106.8266751,-6.3566107],[106.8263716,-6.3564841],[106.8262923,-6.3564345],[106.826288,-6.3564343],[106.8242484,-6.3561683],[106.8239186,-6.3561253],[106.8238291,-6.3564224],[106.8230124,-6.3560873],[106.8225792,-6.3559578],[106.8223984,-6.3559237],[106.822251,-6.3558469],[106.8216597,-6.3556141],[106.8213388,-6.3557059],[106.8212154,-6.3557558],[106.8211088,-6.3558798],[106.8210191,-6.356152],[106.8210035,-6.3563993],[106.820852,-6.3566595],[106.8197795,-6.3561853],[106.819624,-6.3564743],[106.8188806,-6.356062],[106.818461,-6.3565187],[106.8177799,-6.3563669],[106.8175408,-6.3563003],[106.8167874,-6.3562497],[106.8166887,-6.3562427],[106.8166582,-6.3562413],[106.8164217,-6.3561798],[106.8163149,-6.3561521],[106.8160707,-6.3560792],[106.8159258,-6.3560319],[106.8159197,-6.3560308],[106.81588,-6.3562108],[106.8157045,-6.3565226],[106.8156282,-6.3565822],[106.8153612,-6.356453],[106.815262,-6.356432],[106.8152239,-6.3564806],[106.815056,-6.3568292],[106.8148577,-6.3573218],[106.8147356,-6.3576131],[106.8146822,-6.3578506],[106.8146669,-6.3579088],[106.8146135,-6.3581906],[106.8145907,-6.3583031],[106.8144991,-6.3587165],[106.814461,-6.3588696],[106.8144304,-6.3589235],[106.8143541,-6.358985],[106.8143077,-6.3592271],[106.8139081,-6.3591291],[106.8138811,-6.3592385],[106.8137239,-6.359418],[106.8135982,-6.3595764],[106.8134829,-6.3596926],[106.8134517,-6.3597874],[106.8134096,-6.3597981],[106.8133153,-6.3598931],[106.8132733,-6.3599354],[106.8130459,-6.3602928],[106.8126345,-6.3607903],[106.8125224,-6.3609761],[106.8125521,-6.3610986],[106.812632,-6.361257],[106.8125627,-6.3613969],[106.812446,-6.3615782],[106.8121874,-6.3617859],[106.8120119,-6.3619652],[106.8118725,-6.3621069],[106.8118059,-6.3621745],[106.8116838,-6.3623104],[106.8115236,-6.3623948],[106.8112413,-6.3623915],[106.8110735,-6.3623848],[106.8106234,-6.3627959],[106.8105318,-6.3629556],[106.810486,-6.3633786],[106.810486,-6.3636027],[106.8105089,-6.3637071],[106.8105821,-6.3639917],[106.8093111,-6.3641548],[106.8085482,-6.3640128],[106.8077297,-6.3637246],[106.8071981,-6.3635374],[106.80712,-6.3635099],[106.8071169,-6.3635088],[106.8070918,-6.363507],[106.8070918,-6.3635067]]]],"type":"MultiPolygon"},"properties":{"fid":2418966,"KELAS":"ZONA PANAS","CLASS":"HOT ZONE","TEMPERATUR":"≥ 32⁰ C"}}]}