{"type":"FeatureCollection","features":[{"type":"Feature","geometry":{"coordinates":[[[[106.8274552,-6.6774712],[106.8274004,-6.6773982],[106.827286,-6.6772714],[106.8272127,-6.6772251],[106.8271486,-6.6771846],[106.8270037,-6.677146],[106.8268053,-6.6771817],[106.8266222,-6.677227],[106.8265154,-6.6772275],[106.8264467,-6.6771855],[106.8263475,-6.6769853],[106.8263246,-6.6767616],[106.8262636,-6.676395],[106.8262102,-6.6762371],[106.8255394,-6.6760143],[106.8254091,-6.675971],[106.8251802,-6.6758814],[106.8251421,-6.6758638],[106.8250048,-6.6757679],[106.8248064,-6.675519],[106.8246614,-6.6753402],[106.8244707,-6.6752219],[106.8244149,-6.6751899],[106.8243181,-6.6751342],[106.8240511,-6.6749315],[106.823929,-6.6748972],[106.8236772,-6.6749449],[106.8233797,-6.6749993],[106.823263,-6.6750501],[106.8231620110729,-6.675026450169084],[106.8231620110729,-6.674482561008046],[106.8276535874935,-6.674482561008046],[106.8276535874935,-6.67773537607861],[106.8274552,-6.6774712]]]],"type":"MultiPolygon"},"properties":{"fid":1958449,"KELAS":"ZONA NORMAL","CLASS":"NORMAL ZONE","TEMPERATUR":"21⁰ C - 27⁰ C"}},{"type":"Feature","geometry":{"coordinates":[[[[106.8315737,-6.6072302],[106.8315737,-6.6073618],[106.8316088,-6.6082098],[106.8316423,-6.6090222],[106.8316852,-6.6100158],[106.8316957,-6.610261],[106.831711,-6.6108065],[106.83179208638185,-6.611600491119678],[106.8276535874935,-6.611600491119678],[106.8276535874935,-6.60710891469908],[106.83156930995386,-6.60710891469908],[106.8315737,-6.6072302]]]],"type":"MultiPolygon"},"properties":{"fid":1946254,"KELAS":"ZONA NORMAL","CLASS":"NORMAL ZONE","TEMPERATUR":"21⁰ C - 27⁰ C"}},{"type":"Feature","geometry":{"coordinates":[[[[106.8316423,-6.6790104],[106.8315533,-6.6790419],[106.8313219,-6.6791239],[106.8308641,-6.6791735],[106.8304445,-6.6791911],[106.8301876,-6.6791032],[106.8299527,-6.6790229],[106.8299082,-6.6790076],[106.8299074,-6.6790074],[106.8298494,-6.6789875],[106.82983478518292,-6.678974137428642],[106.83171071501098,-6.678974137428642],[106.8316423,-6.6790104]]]],"type":"MultiPolygon"},"properties":{"fid":1959146,"KELAS":"ZONA NORMAL","CLASS":"NORMAL ZONE","TEMPERATUR":"21⁰ C - 27⁰ C"}},{"type":"Feature","geometry":{"coordinates":[[[[106.83189611406443,-6.598125761857886],[106.8276535874935,-6.598125761857886],[106.8276535874935,-6.593634185437288],[106.83214516391409,-6.593634185437288],[106.83214516391409,-6.597215825184694],[106.83189611406443,-6.598125761857886]]]],"type":"MultiPolygon"},"properties":{"fid":1943961,"KELAS":"ZONA NORMAL","CLASS":"NORMAL ZONE","TEMPERATUR":"21⁰ C - 27⁰ C"}},{"type":"Feature","geometry":{"coordinates":[[[[106.7948592,-6.6495349],[106.7947548,-6.6497313],[106.7945384,-6.6503484],[106.7944515,-6.6506639],[106.7943427,-6.6509187],[106.7942487,-6.651139],[106.7940769,-6.6515628],[106.7938106,-6.6517512],[106.7936832,-6.6518653],[106.7936039,-6.6518857],[106.7935271,-6.6519056],[106.7933883,-6.6519998],[106.7933652,-6.6520332],[106.7932979,-6.6521308],[106.7931597,-6.6521864],[106.7931173,-6.6522217],[106.7929918,-6.6523261],[106.7926695,-6.6527522],[106.7925764,-6.6529144],[106.7925484,-6.6530196],[106.7925547,-6.6530499],[106.7925686,-6.6531161],[106.7926857,-6.6532974],[106.7926636,-6.6534537],[106.7925107,-6.6535906],[106.7922212,-6.6537433],[106.7919497,-6.6536359],[106.7918016,-6.6535773],[106.7914812,-6.6534529],[106.7911226,-6.6533494],[106.7906572,-6.6531601],[106.7905809,-6.6531367],[106.7904055,-6.6534414],[106.7903978,-6.653719],[106.7903978,-6.6538744],[106.7903826,-6.6540475],[106.7904055,-6.6543045],[106.7904512,-6.6544576],[106.7903749,-6.6549893],[106.7903292,-6.6551299],[106.7900698,-6.6553159],[106.7899706,-6.655385],[106.7899172,-6.6556068],[106.7897188,-6.6560273],[106.7895968,-6.6562099],[106.789406,-6.6564989],[106.7893602,-6.6565709],[106.7892992,-6.6567378],[106.7892992,-6.6569591],[106.7892916,-6.6570344],[106.7891771,-6.6571818],[106.7887957,-6.657413],[106.788666,-6.6574931],[106.7885668,-6.6576271],[106.7884066,-6.6580877],[106.7883074,-6.6582475],[106.7882158,-6.6583276],[106.7880175,-6.6583576],[106.7878496,-6.6583633],[106.7876131,-6.6586342],[106.7873995,-6.658823],[106.7869951,-6.6591153],[106.7869717,-6.6591468],[106.7869682,-6.6591516],[106.786957,-6.6592183],[106.7868349,-6.6591959],[106.786751,-6.6591959],[106.7865297,-6.6592135],[106.7863619,-6.6592512],[106.7861254,-6.6593223],[106.7859881,-6.6593561],[106.7855379,-6.659451],[106.7844622,-6.6591954],[106.783806,-6.6590672],[106.7836967,-6.6590521],[106.7834703,-6.6590209],[106.7830202,-6.6589165],[106.7825701,-6.6587448],[106.782336,-6.6585379],[106.7821886,-6.6584077],[106.7818758,-6.6581039],[106.7818715,-6.6580979],[106.7816088,-6.6577287],[106.7813189,-6.6574121],[106.7795946,-6.6565881],[106.7788774,-6.6565065],[106.7779925,-6.6564612],[106.7778093,-6.6564431],[106.777595,-6.6564084],[106.7771914,-6.656343],[106.7764971,-6.6562385],[106.7764752,-6.6562338],[106.7759777,-6.6561253],[106.7757036,-6.6560655],[106.7751476,-6.6559493],[106.7749483,-6.6559076],[106.7740136,-6.6553309],[106.7732101,-6.6548352],[106.7728121,-6.6545897],[106.7727587,-6.6544962],[106.7726824,-6.6544041],[106.7726442,-6.6543756],[106.7723391,-6.6541801],[106.7722093,-6.6540265],[106.7721025,-6.6538749],[106.7719423,-6.6537709],[106.7719042,-6.6537537],[106.7716448,-6.6536879],[106.7718431,-6.6533327],[106.7720491,-6.6530609],[106.7721483,-6.6529989],[106.7723391,-6.652925],[106.7725984,-6.6528416],[106.7726671,-6.6528201],[106.7728197,-6.6527619],[106.7728731,-6.6527095],[106.7728884,-6.6526852],[106.7730944,-6.6523824],[106.7732588,-6.6522684],[106.7734401,-6.6521371],[106.7736299,-6.6519859],[106.7736978,-6.6519288],[106.7737799,-6.651849],[106.7739188,-6.6517605],[106.7739971,-6.6517018],[106.7740293,-6.6516777],[106.7741114,-6.6516206],[106.7742673,-6.651515],[106.7743918,-6.6513753],[106.7745446,-6.6512158],[106.774595,-6.651173],[106.774689,-6.6510931],[106.7747598,-6.6510446],[106.7748335,-6.6509932],[106.774954,-6.6509275],[106.775078,-6.6508598],[106.7754604,-6.6507193],[106.7756502,-6.6506495],[106.7758828,-6.6505208],[106.7761522,-6.6504034],[106.7764587,-6.6503171],[106.7766715,-6.650251],[106.7768524,-6.6501076],[106.7768839,-6.6500827],[106.7770142,-6.6499913],[106.777153,-6.6498886],[106.7773134,-6.6497249],[106.7775299,-6.6496401],[106.7776844,-6.6495972],[106.7778506,-6.6495509],[106.778001,-6.6495106],[106.7780776,-6.6494876],[106.7781285,-6.649425],[106.7781625,-6.6493936],[106.7782163,-6.6493536],[106.7783579,-6.6492395],[106.7784086,-6.649164],[106.7784822,-6.6490545],[106.7785291,-6.648983],[106.7785924,-6.6488865],[106.7786714,-6.6487414],[106.7787237,-6.6486975],[106.7788243,-6.648613],[106.7790203,-6.6485924],[106.7791677,-6.6485152],[106.779295,-6.6483784],[106.7794111,-6.6482673],[106.7794928,-6.6480937],[106.7795886,-6.6478804],[106.7797015,-6.6477667],[106.779733,-6.647735],[106.7797707,-6.6477171],[106.7798147,-6.6476917],[106.7798889,-6.6476464],[106.7799566,-6.6475127],[106.7800497,-6.6473391],[106.7800864,-6.6472736],[106.780174,-6.6471569],[106.7802454,-6.6470452],[106.7803124,-6.6469405],[106.7804544,-6.6468366],[106.7805815,-6.6467436],[106.7806549,-6.6466774],[106.7808249,-6.6464928],[106.7808483,-6.64646],[106.7809408,-6.6463305],[106.7810453,-6.6461739],[106.7811075,-6.6460743],[106.7811977,-6.6459035],[106.7814951,-6.6456639],[106.7816088,-6.6455717],[106.7817079,-6.645536],[106.7817544,-6.645494],[106.7819049,-6.6454735],[106.7820214,-6.645493],[106.7820571,-6.6455091],[106.7821153,-6.6455353],[106.7822063,-6.645552],[106.7822911,-6.6454551],[106.7823189,-6.6452931],[106.7823384,-6.645188],[106.7824236,-6.6451621],[106.7825456,-6.6451446],[106.7826693,-6.645154],[106.7828408,-6.6450896],[106.7829598,-6.6449926],[106.7830444,-6.6448361],[106.7830753,-6.6447811],[106.7831545,-6.6446397],[106.7832758,-6.6443979],[106.7833388,-6.6442955],[106.7834701,-6.6440815],[106.7834753,-6.6440725],[106.783526,-6.6439838],[106.7836033,-6.6438486],[106.7836567,-6.6437588],[106.7837134,-6.6436636],[106.7838206,-6.6434558],[106.7839135,-6.643234],[106.7840093,-6.6429979],[106.7840373,-6.6428706],[106.7840456,-6.642833],[106.7840411,-6.6427995],[106.7840281,-6.6427025],[106.7840105,-6.6425492],[106.7840383,-6.6424014],[106.7840523,-6.6423275],[106.7840917,-6.6422251],[106.7841934,-6.6420884],[106.7843096,-6.6419549],[106.7843917,-6.6418201],[106.7844139,-6.6417837],[106.7844227,-6.641728],[106.7844306,-6.6416786],[106.7844423,-6.6415934],[106.7844638,-6.641437],[106.7844826,-6.6413771],[106.7845396,-6.6411954],[106.7845995,-6.6410322],[106.784655,-6.6408967],[106.7847341,-6.6407715],[106.7848077,-6.6407087],[106.7848513,-6.640667],[106.7848891,-6.6405345],[106.784912,-6.6404543],[106.7849513,-6.640317],[106.7849848,-6.6401997],[106.7850185,-6.640103],[106.7850433,-6.6400591],[106.7850801,-6.6399937],[106.7851033,-6.6399593],[106.7851484,-6.6398924],[106.7851585,-6.6398475],[106.7851932,-6.6396934],[106.7852039,-6.6395116],[106.7852339,-6.6394204],[106.7852629,-6.6393325],[106.7853253,-6.6392182],[106.7853777,-6.6391225],[106.7853853,-6.6390672],[106.7854547,-6.6389626],[106.7854339,-6.6387013],[106.7854056,-6.6385688],[106.7853963,-6.6385254],[106.7853794,-6.6384286],[106.7853586,-6.6383097],[106.7853324,-6.6381252],[106.7853115,-6.6378498],[106.7852568,-6.6375352],[106.785239,-6.6374325],[106.7852611,-6.6372791],[106.7852556,-6.637053],[106.7852785,-6.6370049],[106.7853014,-6.6369592],[106.7854235,-6.6367149],[106.7854616,-6.6365738],[106.785454,-6.6365085],[106.785388,-6.6362221],[106.7854699,-6.6361054],[106.7856371,-6.6359883],[106.7856739,-6.6359541],[106.7857675,-6.635914],[106.7859853,-6.6357462],[106.7860083,-6.6357285],[106.7861353,-6.6355236],[106.786194,-6.635314],[106.7862186,-6.634978],[106.7862743,-6.6346796],[106.7862504,-6.6343445],[106.7861957,-6.6341374],[106.7861841,-6.6340806],[106.7861864,-6.6340699],[106.7861876,-6.6340646],[106.7862065,-6.6339783],[106.7865409,-6.6333934],[106.7865692,-6.6333451],[106.7866623,-6.6331914],[106.7867993,-6.6329764],[106.7868729,-6.6328615],[106.7869843,-6.6326875],[106.7870493,-6.632585],[106.7871683,-6.6324937],[106.7872987,-6.6324222],[106.7874519,-6.6323734],[106.7875676,-6.6321685],[106.7876865,-6.6320516],[106.7878191,-6.6320476],[106.7878751,-6.6320528],[106.7879641,-6.632061],[106.7880861,-6.6320424],[106.7881273,-6.632004],[106.7882044,-6.6319319],[106.7883205,-6.6318235],[106.7884109,-6.6317039],[106.7884105,-6.6315761],[106.7883972,-6.6315171],[106.7883729,-6.6314087],[106.7883669,-6.6313036],[106.7883949,-6.6312041],[106.7884174,-6.6311529],[106.7884769,-6.6310988],[106.7885262,-6.6310077],[106.7886264,-6.6308227],[106.7886573,-6.6307204],[106.78875,-6.6304303],[106.7888357,-6.6301059],[106.7887968,-6.6300212],[106.7887594,-6.6298964],[106.7888017,-6.6297883],[106.7888921,-6.6296545],[106.7889559,-6.6295753],[106.7889712,-6.6295406],[106.7889966,-6.6295093],[106.7890503,-6.6294381],[106.7891068,-6.6293498],[106.7891743,-6.6291508],[106.7893187,-6.6290224],[106.7895877,-6.6288085],[106.7896806,-6.6285724],[106.7897609,-6.6284325],[106.7898048,-6.6283561],[106.7899489,-6.6281312],[106.7900817,-6.6279518],[106.79029,-6.6277796],[106.789979,-6.6276698],[106.7898716,-6.6274651],[106.7899269,-6.627145],[106.789919,-6.6269607],[106.7898819,-6.6268574],[106.7898368,-6.626732],[106.7896828,-6.6265606],[106.7895783,-6.6264443],[106.7892063,-6.6260244],[106.7888453,-6.6255679],[106.7887892,-6.6252182],[106.7885354,-6.6251361],[106.7880957,-6.6250444],[106.7879093,-6.6252532],[106.7874345,-6.6250154],[106.7876754,-6.6245226],[106.7875703,-6.6244633],[106.7873534,-6.624354],[106.787072,-6.6245674],[106.7869157,-6.6248861],[106.7866757,-6.624828],[106.786371,-6.6247541],[106.7863419,-6.6246984],[106.7864347,-6.6242231],[106.7864595,-6.6238347],[106.7863854,-6.6236644],[106.7863481,-6.6235044],[106.7862602,-6.6230797],[106.7862013,-6.6228825],[106.7861803,-6.6228123],[106.78588,-6.6225038],[106.7856039,-6.6223263],[106.7856376,-6.6222344],[106.7857389,-6.6219454],[106.7857363,-6.6218504],[106.7857362,-6.6218453],[106.7856247,-6.6215469],[106.7852593,-6.6213777],[106.784839,-6.6212559],[106.7843267,-6.6211003],[106.7843914,-6.6208507],[106.7844848,-6.6205329],[106.7845308,-6.6204023],[106.7845098,-6.6203668],[106.7845096,-6.6203664],[106.7844774,-6.6203251],[106.7844622,-6.6202993],[106.7844316,-6.6202736],[106.7844088,-6.6202474],[106.7843365,-6.6202296],[106.7843029,-6.6202255],[106.7842566,-6.6201921],[106.7842144,-6.6201503],[106.7842141,-6.6200747],[106.7842161,-6.6200327],[106.7842139,-6.6199928],[106.784218,-6.6199594],[106.784218,-6.619925],[106.784218,-6.6198893],[106.784218,-6.6198516],[106.7842256,-6.6198115],[106.7842333,-6.6197701],[106.7842485,-6.6197267],[106.7842638,-6.6196818],[106.7842714,-6.6196351],[106.7842867,-6.6195869],[106.7843019,-6.6195374],[106.7843096,-6.6194863],[106.7843248,-6.6194344],[106.7843248,-6.6193814],[106.7843325,-6.6193285],[106.7843325,-6.619276],[106.7843325,-6.6192241],[106.7843325,-6.619174],[106.7843325,-6.6191259],[106.7843325,-6.6190805],[106.7843325,-6.6190386],[106.7843248,-6.6189995],[106.7843172,-6.6189628],[106.7843096,-6.6189294],[106.7843019,-6.6188984],[106.7842943,-6.6188698],[106.7842867,-6.6188436],[106.7842714,-6.6188197],[106.7842485,-6.6187973],[106.7842409,-6.6187871],[106.7842104,-6.6187577],[106.7841875,-6.6187401],[106.784157,-6.6187229],[106.7841265,-6.6187067],[106.7840959,-6.6186914],[106.7840631,-6.6186748],[106.784062,-6.6186743],[106.7840273,-6.6186604],[106.7839815,-6.6186452],[106.7839357,-6.6186304],[106.78389,-6.6186156],[106.7838366,-6.6186008],[106.7837755,-6.618587],[106.7837068,-6.6185737],[106.7836382,-6.6185603],[106.7835543,-6.6185484],[106.7835181,-6.6185437],[106.7834904,-6.6182794],[106.7835161,-6.6179717],[106.7836064,-6.6176952],[106.7837282,-6.6174625],[106.7837262,-6.6174501],[106.78369,-6.6172291],[106.78379,-6.6167663],[106.7836988,-6.6160253],[106.7832712,-6.6156923],[106.7829979,-6.615299],[106.7828731,-6.6147614],[106.7827824,-6.6143708],[106.7826017,-6.6142253],[106.7822086,-6.6139085],[106.7821596,-6.6138624],[106.7820707,-6.6137789],[106.7819551,-6.6136702],[106.7818309,-6.6135534],[106.7817634,-6.6134899],[106.7817351,-6.6134633],[106.7817,-6.6134303],[106.7816491,-6.6133824],[106.7817078,-6.6122281],[106.78168,-6.61224],[106.7816555,-6.612254],[106.78161,-6.61228],[106.78152,-6.61231],[106.78143,-6.61235],[106.78135,-6.61239],[106.78126,-6.61243],[106.78116,-6.61247],[106.78106,-6.61251],[106.78095,-6.61256],[106.78085,-6.6126],[106.78073,-6.61265],[106.78062,-6.61269],[106.78049,-6.61273],[106.78036,-6.61277],[106.78021,-6.6128],[106.78006,-6.61283],[106.779892,-6.6128498],[106.7798769,-6.6125083],[106.7799456,-6.6122498],[106.7800829,-6.611608],[106.7800676,-6.611464],[106.7800449,-6.6114298],[106.7799913,-6.6113491],[106.7798082,-6.6111994],[106.7795717,-6.6109738],[106.7794878,-6.6106815],[106.7794268,-6.6103778],[106.7794268,-6.6101833],[106.7794268,-6.610005],[106.7794268,-6.6093249],[106.7794268,-6.6089125],[106.779381,-6.6082935],[106.7793563,-6.6081599],[106.7792971,-6.6078401],[106.7791648,-6.6075338],[106.7791369,-6.6074691],[106.7787547,-6.6072131],[106.7786842,-6.6071659],[106.7783402,-6.6071671],[106.7778603,-6.6071774],[106.7774894,-6.6071788],[106.7773993,-6.6071791],[106.7771304,-6.60718],[106.7770897,-6.6071802],[106.7768763,-6.6071706],[106.7766903,-6.6070956],[106.7766507,-6.6070832],[106.7754289,-6.6066995],[106.7754824,-6.6064744],[106.7755358,-6.6060963],[106.7754976,-6.6059547],[106.7753832,-6.6056962],[106.7753603,-6.6056619],[106.7751696,-6.6052652],[106.7751772,-6.6051483],[106.7751716,-6.6050013],[106.7751711,-6.6049894],[106.7751707,-6.6049775],[106.7751631,-6.6047807],[106.7751829,-6.6047521],[106.7752759,-6.604618],[106.7753186,-6.6045799],[106.7755215,-6.6043991],[106.7755217,-6.6043978],[106.7755269,-6.6043329],[106.7755383,-6.6043009],[106.7755463,-6.6042542],[106.7755682,-6.6041166],[106.7755596,-6.6040688],[106.7755543,-6.6040127],[106.7755508,-6.6040032],[106.7755053,-6.6039455],[106.7755027,-6.6038724],[106.7755016,-6.6038676],[106.7754308,-6.6036349],[106.7754189,-6.6036043],[106.7753443,-6.6035506],[106.7753036,-6.6035594],[106.7752377,-6.6036037],[106.775131,-6.6035984],[106.7750524,-6.6036099],[106.7749878,-6.6035705],[106.7749464,-6.6035061],[106.7749334,-6.6034955],[106.7748768,-6.6033851],[106.7747832,-6.6032028],[106.7747474,-6.6031448],[106.7747421,-6.6031141],[106.7746807,-6.6029631],[106.7746623,-6.6029316],[106.7746614,-6.6029155],[106.7746554,-6.6029008],[106.7746591,-6.6028739],[106.7746563,-6.6028249],[106.7746585,-6.6027722],[106.7746548,-6.6027067],[106.774705,-6.6024357],[106.77471,-6.6023268],[106.7747062,-6.6023172],[106.7746313,-6.6022001],[106.7746271,-6.6021759],[106.7746027,-6.6021409],[106.7746154,-6.6020409],[106.7746518,-6.6019295],[106.774652,-6.6019282],[106.7746737,-6.6018097],[106.7746874,-6.6016581],[106.7746917,-6.6016112],[106.7746581,-6.6015731],[106.7745733,-6.6014769],[106.7745093,-6.6014292],[106.7744625,-6.6013944],[106.7743781,-6.6013316],[106.7742781,-6.6013039],[106.7740709,-6.6012466],[106.7740557,-6.6011942],[106.7743353,-6.6008713],[106.7745059,-6.6007018],[106.7746002,-6.6006083],[106.7745866,-6.6004976],[106.7745809,-6.6004511],[106.7745018,-6.6003627],[106.7744042,-6.6002534],[106.7742845,-6.600265],[106.7742927,-6.6004671],[106.7742592,-6.6005197],[106.7741881,-6.6005274],[106.7740919,-6.6005079],[106.7739589,-6.6004808],[106.7738622,-6.6004612],[106.7738451,-6.6004014],[106.7739123,-6.600215],[106.77396,-6.6000828],[106.7739521,-6.5999555],[106.7738655,-6.5998098],[106.7738424,-6.5996489],[106.7738165,-6.5995105],[106.7738081,-6.5994656],[106.773748,-6.5994097],[106.7736544,-6.5994025],[106.7734662,-6.5994061],[106.7734111,-6.5994072],[106.7732164,-6.5994078],[106.7730106,-6.599431],[106.7729797,-6.5993909],[106.7729561,-6.5993601],[106.7729066,-6.5991319],[106.7728403,-6.5990865],[106.7727978,-6.5990575],[106.7727719,-6.5990327],[106.7726963,-6.5989605],[106.7725827,-6.5987984],[106.7724264,-6.5988417],[106.7722617,-6.5988348],[106.7721813,-6.598789],[106.7720854,-6.5987343],[106.7720441,-6.5987177],[106.7719466,-6.5986787],[106.7717482,-6.5986606],[106.7716174,-6.598721],[106.7715352,-6.5987662],[106.7714789,-6.5987327],[106.77146,-6.5986933],[106.7714412,-6.5986542],[106.7714535,-6.5985926],[106.7714614,-6.5985531],[106.7715287,-6.5985154],[106.771502,-6.598377],[106.7713142,-6.5980697],[106.771276,-6.5980072],[106.7710931,-6.597626],[106.7710057,-6.5972363],[106.770979,-6.5971173],[106.7709033,-6.5968818],[106.7707924,-6.5967399],[106.7706917,-6.5966643],[106.7706535,-6.5966356],[106.7705936,-6.5966358],[106.770549,-6.5967183],[106.7704491,-6.5969389],[106.7704301,-6.5969808],[106.7703479,-6.5970297],[106.7702544,-6.5970301],[106.7702191,-6.5970091],[106.7701793,-6.5969854],[106.7701586,-6.596946],[106.7701264,-6.596885],[106.7700396,-6.5967204],[106.770006,-6.5966566],[106.7700058,-6.5966029],[106.7700055,-6.5965368],[106.7700491,-6.5965033],[106.7702893,-6.5963187],[106.7703013,-6.5962685],[106.7703225,-6.5961801],[106.7701788,-6.59578],[106.7699949,-6.5956609],[106.7697478,-6.5956281],[106.7696189,-6.5955696],[106.7695678,-6.5955464],[106.7694887,-6.5954653],[106.7693741,-6.5953476],[106.7693207,-6.5953458],[106.7690327,-6.5953212],[106.7689611,-6.5953249],[106.7687641,-6.595335],[106.7686553,-6.5953462],[106.7685722,-6.5953548],[106.7684379,-6.5953745],[106.7681968,-6.5953596],[106.7681436,-6.5953564],[106.7678675,-6.595348],[106.7677803,-6.5953453],[106.7677756,-6.5953452],[106.7677147,-6.5954254],[106.7675812,-6.5956013],[106.7674439,-6.595535],[106.7672218,-6.5953565],[106.7670534,-6.5952237],[106.767038,-6.5952115],[106.7669644,-6.5951534],[106.7669156,-6.5950866],[106.7668902,-6.5950517],[106.7667984,-6.5949623],[106.7667032,-6.5948696],[106.7666044,-6.5947715],[106.7665637,-6.5946655],[106.766537,-6.5945959],[106.7665389,-6.5945298],[106.7665432,-6.5943779],[106.7665896,-6.5941986],[106.7666161,-6.5940964],[106.7666381,-6.5939946],[106.7666474,-6.5939514],[106.7666922,-6.5937445],[106.7666595,-6.5934634],[106.7665884,-6.5932245],[106.7665702,-6.5931866],[106.7665401,-6.5931236],[106.7664573,-6.5929508],[106.7664109,-6.5927611],[106.7663748,-6.5924834],[106.7663884,-6.5921228],[106.7663909,-6.5920579],[106.7664007,-6.5918681],[106.7663509,-6.5917694],[106.7662803,-6.5916294],[106.7662404,-6.5915533],[106.7661853,-6.5914484],[106.7661228,-6.5913293],[106.7660586,-6.5910553],[106.7660262,-6.5909852],[106.7659629,-6.5908482],[106.7659226,-6.5907977],[106.7658287,-6.5906799],[106.7656702,-6.5905961],[106.7656345,-6.5905807],[106.765415,-6.590486],[106.7653396,-6.5904278],[106.7652703,-6.5903743],[106.7652745,-6.590336],[106.7652806,-6.5902793],[106.7652992,-6.5902449],[106.7653225,-6.5902018],[106.765403,-6.5900925],[106.7654358,-6.5900561],[106.765473,-6.5900149],[106.7654901,-6.5898742],[106.7653964,-6.5897181],[106.7653926,-6.5896698],[106.7653853,-6.5895775],[106.7653673,-6.589444],[106.765363,-6.5893716],[106.7653598,-6.5893174],[106.7653344,-6.589103],[106.765239,-6.5889663],[106.7651827,-6.5888969],[106.7650924,-6.5887857],[106.7650046,-6.5886671],[106.7649653,-6.5886139],[106.7649047,-6.5883961],[106.7648197,-6.5882206],[106.764668,-6.5880735],[106.7645889,-6.5880139],[106.7644401,-6.5879021],[106.7643772,-6.5878548],[106.7642217,-6.5877383],[106.7641621,-6.5876938],[106.7639964,-6.5875643],[106.7638766,-6.5874873],[106.7638561,-6.587437],[106.7638092,-6.5873223],[106.7638019,-6.587238],[106.763828,-6.5871553],[106.7639018,-6.5871409],[106.7639588,-6.5871428],[106.7640002,-6.5871441],[106.7640725,-6.5872048],[106.7641378,-6.5872596],[106.7642568,-6.5873581],[106.7643282,-6.5874172],[106.7644195,-6.5873993],[106.7644688,-6.5873938],[106.7645179,-6.5873884],[106.7645586,-6.5873757],[106.7646654,-6.5873422],[106.764714,-6.5871592],[106.7647052,-6.5871206],[106.7646676,-6.5869554],[106.7646615,-6.5869181],[106.7646489,-6.5868406],[106.7646424,-6.5868008],[106.7645153,-6.5866465],[106.7644148,-6.5865237],[106.7643742,-6.5864749],[106.7643707,-6.5864715],[106.7643281,-6.5864291],[106.7642294,-6.5863311],[106.7641142,-6.5862746],[106.7640551,-6.5862456],[106.7639705,-6.5862037],[106.7639183,-6.5861802],[106.7638331,-6.5861418],[106.7637769,-6.5861165],[106.7636394,-6.586015],[106.763632,-6.5859236],[106.7636582,-6.5858375],[106.7636876,-6.5857406],[106.7637088,-6.5856652],[106.7637345,-6.5855734],[106.7637059,-6.5854329],[106.7636832,-6.5853774],[106.7636385,-6.5852679],[106.7635612,-6.5851709],[106.7635043,-6.5850996],[106.7634031,-6.5850449],[106.7632489,-6.5849616],[106.7632088,-6.5849359],[106.7630692,-6.5848462],[106.7630319,-6.5847776],[106.7629949,-6.5847094],[106.7629312,-6.5845971],[106.7628637,-6.5844039],[106.7628658,-6.5842959],[106.7628667,-6.5842527],[106.7628279,-6.584133],[106.7627832,-6.5839946],[106.7627688,-6.5839289],[106.7627403,-6.5837979],[106.7627442,-6.5837135],[106.7627468,-6.5836572],[106.7627463,-6.5835166],[106.7628164,-6.583453],[106.7629639,-6.5834139],[106.763092,-6.5833308],[106.7631171,-6.5831941],[106.7631334,-6.5831056],[106.7631,-6.5830755],[106.7629782,-6.5829655],[106.7628516,-6.5829519],[106.7627075,-6.5829735],[106.7625907,-6.5829767],[106.7624842,-6.5829796],[106.7622564,-6.5829679],[106.7620974,-6.5829598],[106.7619917,-6.5828758],[106.7619738,-6.5828126],[106.7619594,-6.5827037],[106.761941,-6.5824752],[106.7618352,-6.5823666],[106.7617083,-6.5822967],[106.7615887,-6.5822584],[106.7613867,-6.5823101],[106.7610811,-6.5823851],[106.7609123,-6.5823821],[106.7608717,-6.5823725],[106.7607364,-6.5823406],[106.760653,-6.5822534],[106.760604,-6.5822021],[106.760545,-6.5821143],[106.760498,-6.5820443],[106.7604832,-6.5819766],[106.7604658,-6.5818967],[106.7604596,-6.5818573],[106.7604335,-6.5816929],[106.7604308,-6.5816043],[106.7604295,-6.5815629],[106.7603749,-6.5813989],[106.7603407,-6.581296],[106.7603104,-6.5812768],[106.7601838,-6.5811963],[106.7600778,-6.5811614],[106.7600751,-6.5811605],[106.7600149,-6.5811407],[106.7598364,-6.5811101],[106.7597933,-6.5811028],[106.7597238,-6.5810849],[106.759667,-6.5810702],[106.7594836,-6.581023],[106.7594448,-6.58101],[106.7592759,-6.5809534],[106.7591585,-6.5809133],[106.759077,-6.5808855],[106.7589501,-6.5807875],[106.7588125,-6.5806403],[106.7587566,-6.5805584],[106.7586499,-6.5804018],[106.7585936,-6.580346],[106.7584982,-6.5802512],[106.7584204,-6.5801389],[106.758397,-6.5800576],[106.7583724,-6.5799721],[106.7583543,-6.579821],[106.7583886,-6.5795783],[106.7583601,-6.579466],[106.7583422,-6.5793956],[106.7583229,-6.5793563],[106.7582643,-6.5792377],[106.7581177,-6.5790395],[106.7580202,-6.578953],[106.757952,-6.5788924],[106.7578577,-6.5788829],[106.7577163,-6.5788687],[106.7576417,-6.5788735],[106.7575441,-6.5788798],[106.7574096,-6.5788736],[106.7572962,-6.5788684],[106.757196,-6.5788532],[106.7570464,-6.5788306],[106.7569969,-6.5788074],[106.7568678,-6.5787469],[106.7567259,-6.5786805],[106.7566306,-6.5785613],[106.7566444,-6.5784839],[106.7566418,-6.5783966],[106.7566404,-6.5783503],[106.7566538,-6.5783016],[106.7566942,-6.5781552],[106.7567064,-6.578111],[106.7566945,-6.5779376],[106.7566915,-6.5778931],[106.7566513,-6.5777207],[106.7566362,-6.5776559],[106.7565936,-6.5775756],[106.7565265,-6.5774489],[106.7564193,-6.5773089],[106.7563923,-6.5772736],[106.7562674,-6.5772353],[106.7562392,-6.5772267],[106.7561881,-6.577211],[106.7560193,-6.5772081],[106.755826,-6.5772123],[106.755718,-6.5771676],[106.7555179,-6.577085],[106.7554472,-6.5769692],[106.755373,-6.576857],[106.7553127,-6.5767166],[106.7552447,-6.5765991],[106.7552172,-6.5765516],[106.7551595,-6.5764872],[106.7551575,-6.5764849],[106.7551561,-6.5764834],[106.7551293,-6.5764798],[106.7550869,-6.5764831],[106.754951,-6.5764937],[106.754785,-6.5765065],[106.7547242,-6.5765051],[106.754416,-6.5764978],[106.7539669,-6.5763897],[106.7536192,-6.5761985],[106.7535395,-6.5761547],[106.7533759,-6.5760513],[106.7532441,-6.5759681],[106.7531102,-6.5757782],[106.7530556,-6.5757008],[106.7529853,-6.5755769],[106.7528129,-6.5752729],[106.7527499,-6.5751324],[106.7527049,-6.5750321],[106.7524626,-6.5747114],[106.7521125,-6.5742035],[106.7519339,-6.5739634],[106.7519077,-6.5739277],[106.7517736,-6.5737446],[106.7516047,-6.5735393],[106.751596,-6.5735328],[106.7515061,-6.5734659],[106.7513964,-6.5733842],[106.7513334,-6.5733373],[106.7511049,-6.5731838],[106.7509935,-6.5731091],[106.7507736,-6.5729702],[106.7507049,-6.5729288],[106.7504938,-6.5728016],[106.7503032,-6.572714],[106.7502141,-6.572673],[106.750084,-6.5725438],[106.7499788,-6.5724709],[106.7498303,-6.5723681],[106.7498265,-6.572357],[106.7498228,-6.5723458],[106.7497853,-6.5723451],[106.7497442,-6.5723241],[106.7495446,-6.5722532],[106.7494012,-6.5722381],[106.7493546,-6.5722436],[106.7492067,-6.5722609],[106.7491242,-6.572292],[106.7489686,-6.5723237],[106.7487501,-6.5723754],[106.7485204,-6.572425],[106.7484742,-6.5724355],[106.7483068,-6.5724738],[106.7480991,-6.5725233],[106.7478268,-6.5725821],[106.7477484,-6.5726002],[106.7474698,-6.5726644],[106.7471961,-6.5727254],[106.7471278,-6.5727406],[106.746994,-6.572772],[106.746994,-6.5727727],[106.7469961,-6.572865],[106.7469825,-6.5729856],[106.7469741,-6.5730834],[106.7469638,-6.5731218],[106.7469396,-6.573211],[106.7469365,-6.5733001],[106.7469212,-6.5734311],[106.7468952,-6.5734923],[106.7468394,-6.5735012],[106.7467625,-6.5734823],[106.7467118,-6.5734825],[106.7466507,-6.5734722],[106.7465439,-6.5734149],[106.7465284,-6.5734622],[106.7464904,-6.5735758],[106.7464333,-6.5737244],[106.7462952,-6.5737005],[106.7461676,-6.573659],[106.7460487,-6.5736158],[106.7458651,-6.5739818],[106.7456801,-6.5743186],[106.7456379,-6.5743954],[106.7455284,-6.5742844],[106.7454757,-6.574273],[106.7453963,-6.5742558],[106.7453,-6.574235],[106.7452311,-6.5742456],[106.7452199,-6.5742473],[106.7451267,-6.5742858],[106.7450687,-6.5743005],[106.7450173,-6.5743136],[106.7449306,-6.5743321],[106.7449204,-6.5742909],[106.7448936,-6.5741816],[106.7449158,-6.5740127],[106.7448558,-6.5738303],[106.7448071,-6.5737728],[106.7447596,-6.5737165],[106.7446314,-6.5736029],[106.7445494,-6.5736579],[106.7444541,-6.5738135],[106.7443723,-6.5739187],[106.7443275,-6.574138],[106.7442869,-6.5743024],[106.744274,-6.574517],[106.7442447,-6.5746102],[106.744228,-6.5746632],[106.7442108,-6.5747181],[106.7441705,-6.5749418],[106.7441805,-6.5751837],[106.7441927,-6.5752246],[106.7442281,-6.575343],[106.7442405,-6.5753843],[106.7443869,-6.5754934],[106.7445288,-6.5755842],[106.7447074,-6.5757616],[106.7447605,-6.5758304],[106.7448128,-6.5758981],[106.7445997,-6.5761763],[106.7445985,-6.5761779],[106.7445232,-6.5762781],[106.7444789,-6.5762429],[106.7443949,-6.5762137],[106.7443492,-6.5762036],[106.7443231,-6.5762048],[106.7443066,-6.5762243],[106.744292,-6.5762671],[106.7442569,-6.576335],[106.7441891,-6.5763381],[106.7440978,-6.5763178],[106.7440108,-6.576302],[106.7439195,-6.5762875],[106.7438119,-6.5762644],[106.743638,-6.5762385],[106.7435378,-6.5762123],[106.7434863,-6.5762081],[106.7434279,-6.5761869],[106.7433463,-6.576182],[106.7432726,-6.5761794],[106.7432241,-6.5761957],[106.7431454,-6.5762298],[106.7430593,-6.5762331],[106.7429473,-6.5762232],[106.7428908,-6.5762148],[106.7428015,-6.5762016],[106.742716,-6.5761842],[106.7426217,-6.5761688],[106.7425952,-6.5761635],[106.7425613,-6.5761568],[106.7424669,-6.5761277],[106.7423784,-6.5760882],[106.7422967,-6.5760286],[106.7422231,-6.5759503],[106.7421391,-6.5758616],[106.74208,-6.5758095],[106.7420184,-6.5757835],[106.7419131,-6.5756746],[106.7418747,-6.5756379],[106.741823,-6.5755806],[106.7417788,-6.5755105],[106.7417271,-6.575522],[106.7416573,-6.5755271],[106.741599,-6.5755313],[106.7415151,-6.5755169],[106.741456,-6.5755068],[106.7414192,-6.5754702],[106.7413777,-6.575429],[106.7412876,-6.5753483],[106.7411788,-6.5754032],[106.7411065,-6.575381],[106.7410506,-6.5753639],[106.7410296,-6.5753298],[106.740981,-6.5752507],[106.7409343,-6.5751589],[106.7409166,-6.5751216],[106.7408853,-6.5750559],[106.7408744,-6.5750273],[106.7408392,-6.5749353],[106.7408313,-6.5748733],[106.7408196,-6.5747823],[106.7408237,-6.574713],[106.7408146,-6.5746335],[106.740796,-6.5745852],[106.740779,-6.5745409],[106.7407471,-6.5744845],[106.7407208,-6.5744584],[106.7406788,-6.5744219],[106.740642,-6.5743802],[106.7406104,-6.5743175],[106.7405788,-6.5742652],[106.7405724,-6.5742066],[106.7405788,-6.574144],[106.7405823,-6.5740828],[106.7405761,-6.5739989],[106.7405552,-6.5739283],[106.7405262,-6.5738378],[106.740501,-6.5737834],[106.7405081,-6.5737245],[106.7405257,-6.5736862],[106.740527,-6.5736405],[106.7405209,-6.5735978],[106.7405193,-6.5735551],[106.7405339,-6.5735079],[106.7405528,-6.5734593],[106.7405746,-6.5733782],[106.7405745,-6.5733222],[106.7405904,-6.5732603],[106.7406388,-6.5731851],[106.7404177,-6.5730819],[106.7403547,-6.5730537],[106.7401529,-6.5729633],[106.7400515,-6.5729179],[106.7396934,-6.5727453],[106.7396547,-6.5727267],[106.739584,-6.5726984],[106.7395759,-6.5726952],[106.7393114,-6.5725894],[106.7392171,-6.57255],[106.7391665,-6.5725288],[106.7390215,-6.572391],[106.7389986,-6.5723682],[106.7386629,-6.5717583],[106.7385637,-6.5716548],[106.738518,-6.5715437],[106.738518,-6.5712142],[106.7384597,-6.5710424],[106.7386075,-6.5710269],[106.7386661,-6.5710219],[106.7387777,-6.5710124],[106.7390623,-6.5709343],[106.7392463,-6.5708822],[106.7395587,-6.5707912],[106.7396792,-6.5707501],[106.7397452,-6.5707276],[106.7397506,-6.5707258],[106.7400551,-6.5705527],[106.7403822,-6.5704499],[106.7404397,-6.5703576],[106.7404714,-6.5703206],[106.7405474,-6.5702319],[106.7405881,-6.5702253],[106.7406822,-6.5701929],[106.7407251,-6.5701991],[106.7408728,-6.5701858],[106.7409907,-6.5701982],[106.7410357,-6.5702166],[106.7411043,-6.5702],[106.7412316,-6.5701877],[106.7413557,-6.5701659],[106.7414906,-6.5701504],[106.7415932,-6.5700837],[106.7416448,-6.5699668],[106.7416633,-6.5699249],[106.7416995,-6.5698477],[106.7417377,-6.5697426],[106.7417599,-6.5696793],[106.7417982,-6.5695828],[106.7418401,-6.5694877],[106.7418885,-6.5693779],[106.7419459,-6.5692621],[106.7420098,-6.5691697],[106.7420958,-6.5690457],[106.7421281,-6.568999],[106.7421579,-6.5689325],[106.7422206,-6.5687942],[106.7422403,-6.5687382],[106.7422545,-6.5686976],[106.7422731,-6.5685091],[106.7422669,-6.5683183],[106.742266,-6.5682906],[106.7421682,-6.5681769],[106.7421606,-6.5681681],[106.7420115,-6.5680934],[106.7418958,-6.5680852],[106.7416054,-6.5680445],[106.7414983,-6.5680491],[106.7414019,-6.5680656],[106.7412951,-6.5680704],[106.7411655,-6.5681092],[106.7411238,-6.568117],[106.7410606,-6.5681288],[106.7409193,-6.5681657],[106.7407728,-6.5682059],[106.7406893,-6.5682297],[106.7405967,-6.5682416],[106.7405523,-6.5682473],[106.7404216,-6.5682306],[106.7403795,-6.5681882],[106.7403312,-6.5681196],[106.7402911,-6.5679601],[106.7403117,-6.5679049],[106.7403271,-6.5678636],[106.7403877,-6.567721],[106.7404238,-6.5676687],[106.7404857,-6.5675793],[106.7405861,-6.5674889],[106.7406755,-6.5673408],[106.740752,-6.5671735],[106.7407993,-6.5670151],[106.7408134,-6.5669677],[106.7407789,-6.5668992],[106.7407167,-6.5668545],[106.7406073,-6.5668227],[106.7405278,-6.5668361],[106.7404639,-6.5668468],[106.740349,-6.5669031],[106.7402631,-6.5669953],[106.740182,-6.5670572],[106.7400772,-6.5671373],[106.7400239,-6.5671932],[106.7399554,-6.5672127],[106.7399061,-6.5672129],[106.739876,-6.5671573],[106.7398566,-6.5671209],[106.7398135,-6.567044],[106.7397938,-6.5669369],[106.7397848,-6.5668213],[106.7398077,-6.5666242],[106.7398201,-6.5664785],[106.7398644,-6.5662834],[106.7398789,-6.5661163],[106.7396395,-6.5661211],[106.7395046,-6.5661484],[106.7393476,-6.566159],[106.7391147,-6.5661902],[106.7388413,-6.5662115],[106.738573,-6.5662478],[106.738492,-6.5662532],[106.7380092,-6.5663245],[106.7379655,-6.566331],[106.7375148,-6.5663629],[106.7370186,-6.5664001],[106.7365775,-6.5664017],[106.7365323,-6.5664018],[106.7364658,-6.5663634],[106.7364321,-6.566344],[106.7361983,-6.5661118],[106.7360814,-6.5659957],[106.7359341,-6.5658645],[106.7357155,-6.5656475],[106.7355121,-6.5654152],[106.7354257,-6.5653294],[106.7354253,-6.5652129],[106.735435,-6.5650811],[106.7354594,-6.5648177],[106.7354882,-6.5647137],[106.7355092,-6.5646378],[106.7355093,-6.5646368],[106.7355392,-6.5644628],[106.7355365,-6.5643747],[106.7355335,-6.5642754],[106.7355071,-6.5640947],[106.7354964,-6.5638573],[106.7354705,-6.5636273],[106.7354546,-6.5634298],[106.735435,-6.5632837],[106.7354348,-6.563203],[106.7353962,-6.5629159],[106.7353815,-6.562807],[106.735286,-6.5618555],[106.7352819,-6.5618146],[106.7352727,-6.561746],[106.7352599,-6.5616515],[106.7352247,-6.5613893],[106.7350952,-6.5605743],[106.7350435,-6.5602705],[106.7350362,-6.560233],[106.7350178,-6.5601389],[106.7349916,-6.5599111],[106.7349964,-6.5598275],[106.7349964,-6.5598148],[106.7354722,-6.559727],[106.735629,-6.5596708],[106.7356489,-6.5595593],[106.7356555,-6.5594574],[106.7356633,-6.5593364],[106.735652,-6.5592541],[106.7356425,-6.5591845],[106.7356057,-6.5591347],[106.7355865,-6.5591087],[106.7354445,-6.5590332],[106.7354393,-6.5590079],[106.735476,-6.5587099],[106.7354886,-6.5586076],[106.7354924,-6.5582378],[106.7354953,-6.5581781],[106.7355066,-6.5579541],[106.735521,-6.557721],[106.7355483,-6.5575598],[106.7355656,-6.5574575],[106.7356755,-6.5570012],[106.7357022,-6.5567732],[106.7357099,-6.5567073],[106.7357073,-6.5566372],[106.7357043,-6.5565554],[106.7356922,-6.5565105],[106.7356428,-6.5563277],[106.7356423,-6.5562034],[106.735642,-6.5561048],[106.7356619,-6.5559933],[106.7356641,-6.5559473],[106.7356713,-6.5557957],[106.7356748,-6.5553348],[106.7356893,-6.5551473],[106.7356991,-6.555046],[106.7356887,-6.55497],[106.735673,-6.5548232],[106.7356751,-6.5547748],[106.7356777,-6.5547168],[106.7356876,-6.5546509],[106.7356954,-6.5546087],[106.7357025,-6.5545698],[106.7358019,-6.5545125],[106.7358553,-6.5544667],[106.7359316,-6.5544429],[106.7361319,-6.5540585],[106.7361501,-6.5540237],[106.7368047,-6.5543861],[106.7372719,-6.5547188],[106.73733,-6.5547471],[106.7375407,-6.5548496],[106.7377183,-6.5549199],[106.7379632,-6.5549147],[106.7379666,-6.5549099],[106.7380118,-6.5548479],[106.7379707,-6.5546809],[106.7379455,-6.5546323],[106.7377718,-6.5542966],[106.7377447,-6.55416],[106.7377306,-6.5540891],[106.7376984,-6.5540667],[106.7375427,-6.5539581],[106.7374355,-6.5539499],[106.7372894,-6.5539387],[106.7372112,-6.5539095],[106.7370206,-6.5538383],[106.7369849,-6.5537523],[106.7369893,-6.553575],[106.7370011,-6.5535375],[106.7369504,-6.5534368],[106.736885,-6.55332],[106.7367996,-6.5530861],[106.7367599,-6.5528911],[106.7367596,-6.5528167],[106.7367594,-6.552735],[106.7367904,-6.5527038],[106.7368177,-6.5526763],[106.7369088,-6.5526214],[106.7369685,-6.5526001],[106.737041,-6.5525741],[106.7370871,-6.5525671],[106.7371508,-6.5525575],[106.7372421,-6.5525501],[106.7372831,-6.5525468],[106.7373687,-6.5525526],[106.7373919,-6.5525137],[106.7374865,-6.5523553],[106.7375897,-6.5521338],[106.7376736,-6.5519319],[106.7376979,-6.5518644],[106.7377344,-6.5517634],[106.7377469,-6.5517255],[106.7377908,-6.5515922],[106.7379584,-6.5514283],[106.7380034,-6.5513844],[106.7380937,-6.5511824],[106.7381645,-6.5509676],[106.7382354,-6.5507787],[106.7382884,-6.5506416],[106.7383386,-6.5505312],[106.7379237,-6.5508968],[106.7376503,-6.5508262],[106.7376363,-6.5505531],[106.7376264,-6.550412],[106.7376173,-6.5502815],[106.7375941,-6.5500393],[106.73755,-6.5496404],[106.737682,-6.5495285],[106.7377204,-6.5494959],[106.73796,-6.549301],[106.7381095,-6.5491693],[106.7382157,-6.5490777],[106.7382911,-6.5490126],[106.7384079,-6.5489407],[106.7385507,-6.5488556],[106.7386883,-6.5487613],[106.7387277,-6.5487343],[106.7387857,-6.5486981],[106.7388292,-6.5486709],[106.7389491,-6.5486114],[106.7390486,-6.5485343],[106.7390994,-6.5484948],[106.7391385,-6.5483908],[106.7391602,-6.5483332],[106.7393108,-6.5478425],[106.739341,-6.5477442],[106.7393653,-6.5476652],[106.7393869,-6.5474595],[106.7393925,-6.5472966],[106.7393941,-6.5471846],[106.7395785,-6.5472033],[106.7395919,-6.5469569],[106.7396236,-6.5467064],[106.7396474,-6.5465475],[106.7396846,-6.5463898],[106.7396936,-6.5463518],[106.739553,-6.5463279],[106.7394451,-6.5463099],[106.7394893,-6.5461489],[106.7395173,-6.5460185],[106.7395576,-6.5458718],[106.7395807,-6.5458016],[106.7397325,-6.5458406],[106.7397967,-6.5458389],[106.7397976,-6.5458272],[106.7398094,-6.5456877],[106.7398252,-6.5455675],[106.7398461,-6.545443],[106.7398571,-6.5453617],[106.7399609,-6.5453634],[106.7400214,-6.5453643],[106.7400404,-6.5452081],[106.7400401,-6.5451106],[106.7400398,-6.5450325],[106.7401108,-6.5448827],[106.7401757,-6.5448369],[106.7402082,-6.5448039],[106.7402082,-6.5448037],[106.7402342,-6.5446966],[106.7402626,-6.5445797],[106.740262,-6.5443976],[106.7402679,-6.5442285],[106.7402675,-6.5441049],[106.7403059,-6.5439422],[106.7403707,-6.5438769],[106.7404292,-6.5438702],[106.7406048,-6.5438696],[106.740741,-6.5437585],[106.74076,-6.5436154],[106.7407658,-6.5433942],[106.7407587,-6.5432447],[106.7407513,-6.5431251],[106.740759,-6.5430171],[106.740761,-6.5429773],[106.7408297,-6.5428405],[106.741028,-6.5427399],[106.74103,-6.54274],[106.7410319,-6.5427413],[106.7411425,-6.5427828],[106.7412874,-6.5428395],[106.7414171,-6.5428867],[106.7415316,-6.5429253],[106.7416307,-6.5429568],[106.7417147,-6.5429826],[106.741791,-6.543004],[106.741852,-6.5430226],[106.7419207,-6.5430393],[106.7419817,-6.5430555],[106.7420427,-6.5430722],[106.7421038,-6.5430908],[106.7421801,-6.5431127],[106.7422563,-6.543139],[106.7423479,-6.5431709],[106.7424623,-6.54321],[106.7425844,-6.5432568],[106.7427399,-6.5433158],[106.7435991,-6.543642],[106.7436983,-6.5436749],[106.7437899,-6.5437055],[106.7438738,-6.5437293],[106.7439501,-6.5437484],[106.7440111,-6.5437627],[106.7440722,-6.5437741],[106.7441332,-6.5437837],[106.7441866,-6.5437918],[106.7442476,-6.5437999],[106.7443087,-6.5438075],[106.7443697,-6.5438147],[106.7444307,-6.5438213],[106.744507,-6.5438271],[106.7445757,-6.5438318],[106.7446596,-6.5438352],[106.7447435,-6.5438366],[106.7448275,-6.5438366],[106.7449267,-6.5438342],[106.7450182,-6.5438304],[106.745125,-6.5438251],[106.7452242,-6.5438175],[106.7452756,-6.5438132],[106.745331,-6.5438085],[106.7454378,-6.543797],[106.745537,-6.5437841],[106.7456438,-6.5437698],[106.745743,-6.5437536],[106.7457443,-6.5437534],[106.7458422,-6.5437369],[106.7458865,-6.5437286],[106.7459337,-6.5437198],[106.7460253,-6.5437026],[106.7461092,-6.5436859],[106.7461855,-6.5436702],[106.7462618,-6.5436554],[106.7463228,-6.543643],[106.7463762,-6.543632],[106.7464296,-6.543623],[106.7464754,-6.5436158],[106.7465136,-6.5436101],[106.7465517,-6.5436068],[106.7465822,-6.5436048],[106.7466127,-6.5436048],[106.7466433,-6.5436068],[106.7466738,-6.5436101],[106.7467043,-6.5436158],[106.7467157,-6.5436196],[106.7467577,-6.5436325],[106.7467806,-6.5436439],[106.7468035,-6.5436573],[106.7468264,-6.5436726],[106.7468493,-6.5436902],[106.7468569,-6.5437002],[106.7468874,-6.5437331],[106.7469027,-6.5437588],[106.7469179,-6.5437884],[106.7469255,-6.5438223],[106.7469408,-6.5438604],[106.7469484,-6.5439029],[106.7469561,-6.5439506],[106.7469561,-6.544003],[106.7469637,-6.5440593],[106.7469637,-6.5441184],[106.7469637,-6.5441804],[106.7469637,-6.5442443],[106.7469637,-6.5443096],[106.7469637,-6.5443754],[106.7469637,-6.5444412],[106.7469637,-6.5445065],[106.7469637,-6.5445704],[106.7469713,-6.5446329],[106.7469713,-6.5446935],[106.746979,-6.5447512],[106.7469866,-6.5448055],[106.7470018,-6.5448561],[106.7470095,-6.5449023],[106.7470247,-6.5449448],[106.7470476,-6.5449839],[106.7470629,-6.5450201],[106.7470858,-6.5450544],[106.747101,-6.5450868],[106.7471239,-6.5451183],[106.7471544,-6.5451493],[106.7471773,-6.5451798],[106.7472002,-6.5452108],[106.7472307,-6.5452414],[106.7472612,-6.5452719],[106.7472918,-6.5453024],[106.7473299,-6.5453329],[106.7473681,-6.5453629],[106.7474062,-6.5453925],[106.7474433,-6.5454169],[106.747452,-6.5454226],[106.7474901,-6.5454521],[106.7475435,-6.5454826],[106.7475893,-6.5455146],[106.7476427,-6.545548],[106.7476961,-6.5455837],[106.7477495,-6.5456219],[106.7478029,-6.5456634],[106.7478487,-6.5457082],[106.7479021,-6.5457554],[106.7479555,-6.5458045],[106.7480013,-6.5458546],[106.7480471,-6.5459041],[106.7480852,-6.5459533],[106.7481234,-6.546],[106.7481539,-6.5460439],[106.7481844,-6.5460839],[106.7481997,-6.5461216],[106.7482149,-6.5461578],[106.7482302,-6.5461931],[106.7482378,-6.5462289],[106.7482378,-6.5462666],[106.7482378,-6.5463071],[106.7482302,-6.5463509],[106.7482149,-6.5464001],[106.7482073,-6.546453],[106.748192,-6.5465102],[106.7481692,-6.5465713],[106.7481539,-6.5466356],[106.748131,-6.5467024],[106.7481157,-6.546772],[106.7480906,-6.5468538],[106.7480776,-6.546916],[106.7480553,-6.5469876],[106.7480395,-6.5470624],[106.7480242,-6.5471339],[106.7480089,-6.5472031],[106.7479937,-6.5472689],[106.747986,-6.5473308],[106.7479784,-6.5473871],[106.7479708,-6.5474381],[106.7479632,-6.547483],[106.7479555,-6.5475235],[106.7479555,-6.5475602],[106.7479555,-6.5475936],[106.7479555,-6.5476241],[106.7479632,-6.5476532],[106.7479632,-6.5476813],[106.7479708,-6.547709],[106.747986,-6.5477362],[106.7479937,-6.5477624],[106.7480089,-6.5477876],[106.7480242,-6.547812],[106.7480471,-6.5478349],[106.7480491,-6.5478377],[106.74807,-6.5478661],[106.7481005,-6.547893],[106.7481417,-6.5479237],[106.7481729,-6.5479384],[106.7482278,-6.547954],[106.7482683,-6.5479603],[106.7483065,-6.5479622],[106.7483446,-6.5479627],[106.7483828,-6.5479608],[106.7484209,-6.5479569],[106.7484667,-6.5479512],[106.7485125,-6.5479431],[106.7485506,-6.5479331],[106.7485964,-6.5479207],[106.7486422,-6.5479059],[106.7486803,-6.5478887],[106.7487261,-6.5478687],[106.7487642,-6.5478458],[106.74881,-6.5478201],[106.7488558,-6.547791],[106.7489016,-6.5477581],[106.7489473,-6.5477219],[106.7489931,-6.5476818],[106.7490465,-6.5476389],[106.7490923,-6.5475945],[106.7491381,-6.5475492],[106.7491915,-6.5475044],[106.7492296,-6.547461],[106.7492754,-6.54742],[106.7493136,-6.5473828],[106.7493517,-6.5473499],[106.7493822,-6.5473213],[106.7494127,-6.5472965],[106.7494356,-6.5472755],[106.7494585,-6.5472574],[106.7494814,-6.5472426],[106.7495195,-6.5472198],[106.7495539,-6.5472083],[106.7496035,-6.5471983],[106.7496683,-6.5472043],[106.7496798,-6.5472069],[106.7497027,-6.547215],[106.7497331,-6.5472283],[106.7497713,-6.5472565],[106.7498323,-6.5473118],[106.7499086,-6.5474062],[106.7499612,-6.5474724],[106.7500002,-6.5475216],[106.7500231,-6.5475898],[106.7500765,-6.5478983],[106.7500918,-6.5479622],[106.7501147,-6.5480213],[106.7501299,-6.5480766],[106.7501375,-6.5481291],[106.7501528,-6.5481801],[106.7501604,-6.5482302],[106.7501757,-6.5482807],[106.7501909,-6.5483327],[106.7501986,-6.548387],[106.7502138,-6.5484448],[106.7502291,-6.5485077],[106.7502443,-6.5485759],[106.7502596,-6.5486512],[106.7502748,-6.5487342],[106.7502901,-6.5488229],[106.750313,-6.5489158],[106.7503359,-6.5490108],[106.7503512,-6.5491061],[106.750374,-6.5491996],[106.7503969,-6.5492892],[106.7504122,-6.5493732],[106.7504351,-6.5494499],[106.750458,-6.54952],[106.7504732,-6.549583],[106.7504885,-6.5496402],[106.7505113,-6.5496921],[106.7505266,-6.5497384],[106.7505419,-6.5497809],[106.7505571,-6.549819],[106.7505724,-6.5498533],[106.7505877,-6.5498853],[106.7506029,-6.5499148],[106.7506182,-6.549943],[106.7506334,-6.5499706],[106.7506487,-6.5499988],[106.7506716,-6.5500269],[106.7506945,-6.5500569],[106.7507174,-6.5500894],[106.7507479,-6.5501227],[106.7507784,-6.550158],[106.7508089,-6.5501943],[106.7508471,-6.550231],[106.7508852,-6.5502682],[106.7509157,-6.5503044],[106.7509539,-6.5503402],[106.7509844,-6.5503755],[106.7510225,-6.5504088],[106.751053,-6.5504413],[106.7510836,-6.5504722],[106.7511141,-6.5505018],[106.7511446,-6.5505295],[106.7511751,-6.5505557],[106.7512056,-6.5505805],[106.7512285,-6.5506029],[106.7512514,-6.5506244],[106.7512819,-6.5506444],[106.7513048,-6.5506639],[106.7513353,-6.5506835],[106.7513582,-6.5507026],[106.7513888,-6.5507226],[106.7514269,-6.5507436],[106.7514574,-6.5507655],[106.7514956,-6.5507879],[106.7515413,-6.5508118],[106.7515871,-6.5508351],[106.7516329,-6.550859],[106.7516786,-6.5508819],[106.7517244,-6.5509043],[106.7517626,-6.5509257],[106.7518083,-6.5509458],[106.7518541,-6.5509639],[106.7518923,-6.5509806],[106.7519381,-6.5509963],[106.7519762,-6.5510101],[106.7520144,-6.5510225],[106.7520525,-6.5510335],[106.752083,-6.551043],[106.7521212,-6.5510511],[106.7521517,-6.5510578],[106.7521898,-6.5510631],[106.7522203,-6.5510673],[106.7522509,-6.5510702],[106.752289,-6.5510721],[106.7523195,-6.5510736],[106.75235,-6.5510736],[106.7523806,-6.5510731],[106.7524111,-6.5510721],[106.7524416,-6.5510702],[106.7524797,-6.5510673],[106.7525103,-6.551064],[106.7525408,-6.5510597],[106.7525713,-6.551055],[106.7526018,-6.5510492],[106.7526323,-6.5510426],[106.7526629,-6.5510354],[106.7526934,-6.5510278],[106.7527239,-6.5510197],[106.7527544,-6.5510106],[106.7527849,-6.5510011],[106.7528155,-6.5509915],[106.7528536,-6.550981],[106.7529685,-6.5510599],[106.7531055,-6.5509804],[106.7532301,-6.5509425],[106.7533546,-6.5508589],[106.7534997,-6.5507294],[106.7536488,-6.550575],[106.7537194,-6.5505332],[106.7537387,-6.5505137],[106.7538292,-6.5504226],[106.753916,-6.5502809],[106.7539905,-6.55016],[106.7540274,-6.550006],[106.7540433,-6.5498022],[106.7540506,-6.5495235],[106.7540749,-6.5493404],[106.7540951,-6.5491615],[106.7541236,-6.5489867],[106.7541855,-6.5488576],[106.7542433,-6.548716],[106.754299,-6.5485976],[106.7543217,-6.5485493],[106.7544459,-6.548395],[106.754724,-6.5482443],[106.7548947,-6.5483061],[106.7552367,-6.5485711],[106.7554219,-6.548716],[106.7556386,-6.5493516],[106.7556877,-6.5502997],[106.7557398,-6.5509358],[106.7560571,-6.5515099],[106.756168,-6.5516567],[106.7564125,-6.5518235],[106.756569,-6.5518352],[106.7566787,-6.5518433],[106.7567197,-6.5518402],[106.7570238,-6.5518172],[106.7571323,-6.5517388],[106.7572429,-6.5516589],[106.7573556,-6.5515582],[106.75744,-6.55147],[106.75752,-6.55143],[106.75763,-6.55141],[106.7576662,-6.5508803],[106.7578344,-6.5503827],[106.7584908,-6.5499615],[106.7587233,-6.5498233],[106.7588001,-6.5497777],[106.7589039,-6.549555],[106.7591134,-6.5494984],[106.7592809,-6.5494531],[106.7592859,-6.5494517],[106.7591638,-6.5490833],[106.7589518,-6.5483871],[106.7588453,-6.5480488],[106.7592679,-6.5484161],[106.7594717,-6.5485809],[106.7599018,-6.5489256],[106.7597569,-6.5490907],[106.759617,-6.5492502],[106.7598058,-6.5494211],[106.7602058,-6.5497899],[106.7604544,-6.5498944],[106.7607327,-6.5498558],[106.7608929,-6.5497785],[106.7608911,-6.5497687],[106.7607769,-6.5491525],[106.7607231,-6.5488804],[106.760561,-6.5478938],[106.7605494,-6.5478232],[106.7605307,-6.5477092],[106.7604464,-6.5471149],[106.7606877,-6.5471004],[106.7609291,-6.5471022],[106.7615135,-6.5471688],[106.7619517,-6.5471811],[106.7622979,-6.5471907],[106.7623829,-6.547163],[106.7624432,-6.5471737],[106.7624538,-6.5470695],[106.7626482,-6.5469646],[106.7630342,-6.546907],[106.7630408,-6.5468475],[106.7630523,-6.5467448],[106.7630924,-6.5466168],[106.7631761,-6.5464821],[106.763611,-6.5462341],[106.7639391,-6.5460634],[106.7640601,-6.5459927],[106.764163,-6.5459924],[106.7643063,-6.5459701],[106.7644404,-6.5459571],[106.7645297,-6.5459394],[106.7645411,-6.5459371],[106.7646209,-6.5458536],[106.7646444,-6.5457203],[106.7646464,-6.5457089],[106.7646484,-6.5456975],[106.7647226,-6.545507],[106.7647656,-6.5454167],[106.7648944,-6.5451462],[106.7649959,-6.544756],[106.7650045,-6.5445315],[106.7649787,-6.5442914],[106.7650639,-6.5441399],[106.7651216,-6.5439329],[106.7651522,-6.5436525],[106.7651064,-6.5434065],[106.7649996,-6.5431123],[106.764908,-6.5430079],[106.7646526,-6.5428119],[106.7645498,-6.542733],[106.7644655,-6.5426683],[106.7644062,-6.5424331],[106.7643808,-6.5423022],[106.764343,-6.5421932],[106.7643455,-6.5420186],[106.7642951,-6.5418878],[106.7641952,-6.5418476],[106.7640993,-6.5417609],[106.7641649,-6.5416496],[106.7642175,-6.5415403],[106.7642592,-6.5414201],[106.7642307,-6.5413017],[106.7642397,-6.5412174],[106.764258,-6.5410957],[106.764295,-6.5409771],[106.7643351,-6.5408397],[106.764347,-6.5406651],[106.7643247,-6.5405466],[106.7642694,-6.5403457],[106.7642282,-6.5401431],[106.7641402,-6.5399594],[106.7640534,-6.539665],[106.7639899,-6.539344],[106.763936,-6.5390729],[106.763997,-6.5386828],[106.7640353,-6.538512],[106.7640522,-6.5384362],[106.7641043,-6.5381647],[106.7641176,-6.5379573],[106.7641585,-6.5377953],[106.7641822,-6.5377013],[106.76424,-6.53744],[106.7642404,-6.5374365],[106.7642633,-6.5372691],[106.764279,-6.5368621],[106.7643059,-6.5365127],[106.7643017,-6.5363133],[106.7642984,-6.5361541],[106.7643101,-6.5359388],[106.764294,-6.535783],[106.7643152,-6.5356176],[106.7643209,-6.5354585],[106.7643296,-6.5352839],[106.7643601,-6.5350842],[106.7643719,-6.5348783],[106.7643738,-6.5346502],[106.7643691,-6.5344085],[106.7644306,-6.5341588],[106.7644948,-6.5340082],[106.7645504,-6.5338777],[106.7645942,-6.5337881],[106.764666,-6.533629],[106.7646661,-6.5336286],[106.7646134,-6.5329874],[106.7645539,-6.5324471],[106.7645495,-6.5322542],[106.7645647,-6.532146],[106.7645342,-6.5319643],[106.7644976,-6.5312427],[106.7644952,-6.5311386],[106.7644907,-6.5310019],[106.7645168,-6.5308875],[106.7645675,-6.5308016],[106.7646876,-6.5307175],[106.7650567,-6.5306121],[106.7651585,-6.5305566],[106.7652114,-6.5304972],[106.7652602,-6.5304542],[106.7652476,-6.5303644],[106.7652087,-6.5303033],[106.7650655,-6.5302242],[106.7649816,-6.5301592],[106.7649233,-6.5299396],[106.7649229,-6.5299377],[106.7649162,-6.5299234],[106.7648511,-6.5295943],[106.7648302,-6.5294719],[106.764797,-6.5293128],[106.7648046,-6.5291536],[106.764843,-6.529033],[106.7649544,-6.5287979],[106.7650374,-6.5286058],[106.7651245,-6.5284136],[106.7652559,-6.5281662],[106.7652765,-6.5281273],[106.7653995,-6.5279621],[106.7654533,-6.5278899],[106.7655224,-6.5278284],[106.7656282,-6.5277637],[106.7658086,-6.5278258],[106.7659651,-6.5277861],[106.7661449,-6.5276679],[106.7662854,-6.5275107],[106.7662916,-6.5274711],[106.7663237,-6.5272677],[106.7661113,-6.5270255],[106.7659072,-6.5268931],[106.7657109,-6.5267762],[106.7655458,-6.5266201],[106.7653886,-6.5264718],[106.7653642,-6.5262133],[106.7652219,-6.525822],[106.7649702,-6.5255409],[106.7648365,-6.5254081],[106.7646239,-6.5250955],[106.7645758,-6.5247822],[106.7647551,-6.524523],[106.7649735,-6.5242559],[106.7650377,-6.5239873],[106.7651064,-6.5238867],[106.7652461,-6.5238083],[106.7651673,-6.5236597],[106.7650024,-6.5235585],[106.7647981,-6.5233946],[106.7645784,-6.5232857],[106.7643895,-6.5230278],[106.7646465,-6.522596],[106.7646258,-6.5223701],[106.7646221,-6.5223297],[106.7646839,-6.5221022],[106.7648165,-6.5219372],[106.765004,-6.521772],[106.7651915,-6.5216147],[106.7651752,-6.5214345],[106.7649552,-6.5212629],[106.7648604,-6.5210282],[106.7649854,-6.5209416],[106.7651262,-6.5208862],[106.7653138,-6.520768],[106.7654459,-6.520462],[106.7656098,-6.5202656],[106.7657957,-6.520047],[106.7658438,-6.5199905],[106.766086,-6.5198016],[106.7662966,-6.5196872],[106.7665322,-6.5196825],[106.766641,-6.5194471],[106.7666088,-6.5192121],[106.7664283,-6.5190953],[106.7662788,-6.5189156],[106.766278,-6.5186805],[106.7663164,-6.518461],[106.7663576,-6.5181756],[106.7663653,-6.5181298],[106.7663654,-6.5181294],[106.7664263,-6.5179253],[106.7664568,-6.5177603],[106.7664768,-6.5176716],[106.7664873,-6.5176248],[106.7665102,-6.5175142],[106.7665331,-6.5174236],[106.766556,-6.5173488],[106.7665652,-6.5173225],[106.7665789,-6.5172839],[106.7665941,-6.5172258],[106.766617,-6.517169],[106.7666323,-6.5171142],[106.7666551,-6.5170598],[106.766678,-6.5170069],[106.7666933,-6.5169549],[106.7667162,-6.5169039],[106.7667391,-6.5168538],[106.766762,-6.5168047],[106.7667848,-6.5167561],[106.7668077,-6.5167084],[106.7668306,-6.5166612],[106.7668611,-6.5166149],[106.766884,-6.5165696],[106.7669069,-6.5165253],[106.7669375,-6.5164814],[106.7669603,-6.516439],[106.7669909,-6.516397],[106.7670138,-6.5163565],[106.7670443,-6.5163164],[106.7670671,-6.5162783],[106.7670977,-6.5162411],[106.7671206,-6.5162053],[106.7671511,-6.516171],[106.7671816,-6.5161381],[106.7672045,-6.5161071],[106.767235,-6.5160775],[106.7672579,-6.5160499],[106.7672884,-6.5160232],[106.7673189,-6.5159984],[106.7673418,-6.515975],[106.7673723,-6.5159531],[106.7674028,-6.5159321],[106.7674333,-6.5159125],[106.7674639,-6.5158939],[106.7674944,-6.5158758],[106.7675325,-6.5158572],[106.7675707,-6.5158386],[106.7676165,-6.5158191],[106.7676623,-6.5157981],[106.7677156,-6.5157752],[106.7677767,-6.5157499],[106.7678453,-6.5157232],[106.767914,-6.5156956],[106.7679827,-6.515667],[106.7680513,-6.5156379],[106.76812,-6.5156093],[106.7681887,-6.5155812],[106.7682497,-6.515554],[106.7683107,-6.5155287],[106.7683641,-6.5155048],[106.7684099,-6.5154815],[106.7684557,-6.5154591],[106.7685015,-6.5154367],[106.7685396,-6.5154143],[106.7685854,-6.5153914],[106.7686235,-6.5153675],[106.7686617,-6.5153423],[106.7686982,-6.5153171],[106.7686983,-6.5153171],[106.7686988,-6.5153167],[106.768738,-6.5152884],[106.7687761,-6.5152602],[106.7688143,-6.5152316],[106.7688524,-6.5152025],[106.7688829,-6.515173],[106.7689211,-6.5151434],[106.7689516,-6.5151134],[106.7689821,-6.5150838],[106.7690126,-6.5150547],[106.7691428,-6.515069],[106.7693617,-6.5150929],[106.7698547,-6.5151469],[106.7702312,-6.5151881],[106.77034,-6.5152],[106.77059,-6.51529],[106.7708062,-6.51532],[106.7708664,-6.5153284],[106.7712013,-6.5153749],[106.77131,-6.51539],[106.771356,-6.5153486],[106.77141,-6.5153],[106.7714675,-6.5152655],[106.77151,-6.51524],[106.7716,-6.51525],[106.7716895,-6.5152623],[106.77189,-6.51529],[106.77203,-6.5152],[106.77233,-6.51514],[106.7725486,-6.5151878],[106.77265,-6.51521],[106.772837,-6.5151788],[106.77313,-6.51513],[106.77341,-6.5152273],[106.7734376,-6.5151426],[106.7734847,-6.5149987],[106.7733997,-6.514709],[106.7732156,-6.5144655],[106.7729168,-6.5141537],[106.7725578,-6.5136997],[106.7723567,-6.5133392],[106.7722331,-6.5129428],[106.7722473,-6.5126299],[106.7723994,-6.5124539],[106.7727061,-6.5124501],[106.772904,-6.5124564],[106.7731118,-6.5124627],[106.773328,-6.5124712],[106.7735471,-6.5124818],[106.7738298,-6.5124959],[106.7738981,-6.5124991],[106.7739665,-6.5125021],[106.7740359,-6.512505],[106.7741071,-6.5125077],[106.7741809,-6.5125103],[106.7742581,-6.5125127],[106.7743396,-6.512515],[106.7744263,-6.5125173],[106.7745191,-6.5125198],[106.7746191,-6.5125229],[106.7747276,-6.512527],[106.7748455,-6.5125323],[106.774974,-6.5125393],[106.7751142,-6.5125484],[106.7752009,-6.5125533],[106.7752265,-6.5125547],[106.7753889,-6.5125718],[106.7756734,-6.5125579],[106.7758397,-6.5125498],[106.7761933,-6.512466],[106.7762272,-6.5124511],[106.7766477,-6.5122756],[106.776888,-6.5122152],[106.7771533,-6.5121486],[106.777669,-6.5120343],[106.7777897,-6.5119903],[106.7780749,-6.5118865],[106.7785721,-6.5120365],[106.7786217,-6.5120477],[106.7787696,-6.512082],[106.7789046,-6.5117349],[106.7793148,-6.5117003],[106.7796074,-6.5114499],[106.7799804,-6.5110445],[106.7804589,-6.5108632],[106.7806585,-6.5108349],[106.7808929,-6.5108018],[106.7813275,-6.5108751],[106.781747,-6.5109634],[106.7820027,-6.5112618],[106.7822438,-6.511695],[106.7824556,-6.5123229],[106.7825921,-6.5128014],[106.7826988,-6.5133398],[106.7828656,-6.5139379],[106.7831365,-6.5143261],[106.7832402,-6.5146541],[106.7833856,-6.5148544],[106.7834694,-6.5150828],[106.7841683,-6.5149785],[106.7844028,-6.5149283],[106.7844711,-6.5149136],[106.7845598,-6.5148954],[106.7849346,-6.5148734],[106.7849904,-6.5148702],[106.7850266,-6.5148733],[106.7853799,-6.514903],[106.7856496,-6.5149257],[106.7859144,-6.5148838],[106.7864388,-6.5147919],[106.7864424,-6.5148154],[106.7864527,-6.514884],[106.7864668,-6.5149672],[106.7864673,-6.515092],[106.7865008,-6.5152548],[106.786506,-6.5152651],[106.7865654,-6.5153829],[106.7865796,-6.5154799],[106.7866215,-6.5155769],[106.7866771,-6.5156183],[106.786913,-6.5156452],[106.7871211,-6.515686],[106.7873265,-6.515842],[106.7873575,-6.5158655],[106.7874875,-6.5159874],[106.7876079,-6.5161004],[106.7876425,-6.5161846],[106.7877617,-6.5164743],[106.787796,-6.5165422],[106.7879153,-6.5167788],[106.7880452,-6.5169833],[106.7881607,-6.5171392],[106.7882343,-6.5172584],[106.7882364,-6.517263],[106.7883134,-6.5174283],[106.7884333,-6.517529],[106.7885444,-6.5177585],[106.7885908,-6.5178687],[106.7886594,-6.5179686],[106.7886596,-6.5179689],[106.7886925,-6.5180339],[106.7887249,-6.5180751],[106.7887434,-6.5181073],[106.7887665,-6.5181532],[106.7887852,-6.5182267],[106.7888038,-6.5182956],[106.7888085,-6.5183231],[106.7888363,-6.5183874],[106.7888734,-6.51847],[106.7890226,-6.5190764],[106.7890776,-6.5194343],[106.7891073,-6.5196279],[106.7891868,-6.5200046],[106.7892611,-6.5202205],[106.7892897,-6.5204824],[106.7893228,-6.520749],[106.7894247,-6.5209555],[106.7895776,-6.5212952],[106.7896295,-6.5216905],[106.7896602,-6.5217908],[106.7897179,-6.5219798],[106.7898429,-6.5222277],[106.7898669,-6.5225034],[106.7898344,-6.5226159],[106.7897806,-6.5228026],[106.7896984,-6.5229546],[106.7896208,-6.5231066],[106.7895661,-6.5232356],[106.7895251,-6.5233599],[106.7895202,-6.52349],[106.7895125,-6.523691],[106.7894491,-6.5239533],[106.7893589,-6.5244502],[106.7893458,-6.5245794],[106.7893189,-6.5248457],[106.7893699,-6.5249651],[106.7893753,-6.5251812],[106.7893399,-6.5255813],[106.7893556,-6.5256955],[106.7893575,-6.5257843],[106.7893583,-6.5257892],[106.7893705,-6.5258607],[106.7893564,-6.5259326],[106.7893639,-6.5260116],[106.7893859,-6.5261408],[106.7894014,-6.5264784],[106.7894242,-6.5268303],[106.789433,-6.5272685],[106.789448,-6.5274553],[106.789451,-6.5276662],[106.7894633,-6.5277067],[106.7895865,-6.5280223],[106.7899316,-6.5280929],[106.7900168,-6.5279834],[106.7901389,-6.5278264],[106.7904683,-6.5266268],[106.7904864,-6.5265607],[106.790587,-6.5265532],[106.7906329,-6.5273649],[106.7907205,-6.5277525],[106.7908,-6.5278959],[106.7913337,-6.5284759],[106.7916214,-6.5286042],[106.7922911,-6.5290616],[106.7924002,-6.5294348],[106.7923077,-6.5296722],[106.7921918,-6.5298652],[106.7923088,-6.5299883],[106.7926183,-6.5301596],[106.7926977,-6.5302599],[106.7928845,-6.5302736],[106.7929431,-6.5306039],[106.7929023,-6.5312434],[106.7929242,-6.5313367],[106.7929463,-6.5314947],[106.7930112,-6.5315591],[106.7930545,-6.5316236],[106.7931196,-6.5317527],[106.7931416,-6.5318748],[106.7931853,-6.532047],[106.7932146,-6.5322194],[106.7932295,-6.5323702],[106.7932375,-6.5325929],[106.7932095,-6.5327797],[106.7931993,-6.5328423],[106.7931813,-6.5329523],[106.7931461,-6.5331464],[106.7930255,-6.5335707],[106.7930042,-6.5336354],[106.7929542,-6.5337218],[106.7929404,-6.5338871],[106.7929271,-6.534069],[106.792927,-6.5340706],[106.7929413,-6.5341385],[106.7929703,-6.5341959],[106.7930064,-6.5342532],[106.7930281,-6.5343034],[106.7930536,-6.5343931],[106.7930574,-6.5344686],[106.793065,-6.5345691],[106.7930221,-6.5346339],[106.7930081,-6.5347274],[106.7929797,-6.534828],[106.7929656,-6.5349071],[106.7929515,-6.5349862],[106.7929018,-6.5351372],[106.7928808,-6.5352882],[106.7928524,-6.5354032],[106.7928384,-6.5354967],[106.7928316,-6.5356045],[106.792782,-6.5357914],[106.7927615,-6.5361004],[106.7927119,-6.5362658],[106.7926763,-6.5363665],[106.7926479,-6.5364672],[106.7925981,-6.5365895],[106.7924979,-6.5366905],[106.7924192,-6.5367985],[106.7923981,-6.5369063],[106.7923482,-6.5370215],[106.7923413,-6.5371149],[106.7923346,-6.5372299],[106.7922774,-6.5373163],[106.7919195,-6.5373573],[106.791825,-6.5373682],[106.7918398,-6.5374687],[106.791833,-6.5375765],[106.7917903,-6.5376988],[106.7918049,-6.5377777],[106.7917981,-6.5378712],[106.7918773,-6.5379284],[106.7919493,-6.5379712],[106.7919425,-6.538079],[106.7919358,-6.5382011],[106.7919007,-6.5384312],[106.7919153,-6.5385101],[106.792515,-6.5387181],[106.7926111,-6.5387514],[106.7925869,-6.5389764],[106.7925637,-6.5394763],[106.7924842,-6.5402976],[106.7921697,-6.5415366],[106.7920691,-6.5419708],[106.791902,-6.5431527],[106.7918831,-6.5434902],[106.7923036,-6.5436262],[106.7928027,-6.5437294],[106.7929945,-6.5438308],[106.7928555,-6.544224],[106.7926324,-6.5447247],[106.7927384,-6.5447847],[106.7928578,-6.5448522],[106.7932537,-6.5449529],[106.7932662,-6.5452837],[106.7932559,-6.5455655],[106.7932473,-6.5457718],[106.7932368,-6.5460222],[106.7936367,-6.5460208],[106.7941512,-6.5461238],[106.7945617,-6.5461175],[106.7947616,-6.5461167],[106.7951366,-6.5461404],[106.795263,-6.5465648],[106.7952396,-6.5469898],[106.7952397,-6.547027],[106.7952412,-6.5470928],[106.7953798,-6.5470496],[106.7954485,-6.547029],[106.795598,-6.54706],[106.7957592,-6.5469869],[106.7958415,-6.5469702],[106.7959502,-6.5469599],[106.7960457,-6.5469562],[106.7962235,-6.5469194],[106.7963652,-6.5469123],[106.7965069,-6.5469348],[106.7966092,-6.5469575],[106.7967112,-6.5469176],[106.797062,-6.5468421],[106.7978899,-6.5466638],[106.7979814,-6.5466585],[106.798073,-6.5466538],[106.7981569,-6.546649],[106.7982485,-6.5466442],[106.7983324,-6.546639],[106.798424,-6.5466328],[106.7985155,-6.5466256],[106.798561,-6.5466131],[106.7985669,-6.5466115],[106.7986047,-6.5466011],[106.7987067,-6.5465546],[106.7988021,-6.5465147],[106.798914,-6.5464879],[106.7990161,-6.5464777],[106.7990492,-6.5465237],[106.7992152,-6.5465231],[106.7992181,-6.5465231],[106.7992167,-6.5463583],[106.7992074,-6.5462758],[106.7991849,-6.5460759],[106.7991249,-6.5455777],[106.7990837,-6.5451198],[106.7990812,-6.5450081],[106.7990701,-6.544525],[106.7991026,-6.5440268],[106.7991581,-6.5437915],[106.7993359,-6.5437744],[106.799507,-6.5437046],[106.7996008,-6.5435751],[106.7998247,-6.5432994],[106.8001988,-6.5430731],[106.8004724,-6.5427222],[106.8007945,-6.5427005],[106.8007945,-6.5427004],[106.8007906,-6.5426546],[106.8008231,-6.5426219],[106.8008473,-6.5425975],[106.800881,-6.5425635],[106.8009261,-6.5425261],[106.8009836,-6.5424784],[106.8010354,-6.542451],[106.8011105,-6.5424114],[106.8012316,-6.5423641],[106.801346,-6.5422888],[106.8014833,-6.5422025],[106.8016359,-6.5421071],[106.8017961,-6.5420055],[106.8019716,-6.5418992],[106.8021395,-6.5417915],[106.8023134,-6.5416817],[106.8024752,-6.5415797],[106.8026344,-6.541479],[106.8027803,-6.5413866],[106.8029243,-6.5412964],[106.803055,-6.5412145],[106.8031846,-6.5411366],[106.8033068,-6.5410633],[106.8034213,-6.5409957],[106.803528,-6.5409327],[106.8036349,-6.540875],[106.803734,-6.5408216],[106.8038268,-6.5407745],[106.8039183,-6.5407281],[106.8040087,-6.5406823],[106.8041,-6.5406404],[106.8041843,-6.5406016],[106.8042681,-6.5405631],[106.8043455,-6.5405279],[106.804429,-6.5404899],[106.8045122,-6.540452],[106.8045485,-6.5404361],[106.8045893,-6.5404181],[106.8046723,-6.5403816],[106.8047487,-6.5403481],[106.804819,-6.5403057],[106.8048942,-6.5402603],[106.8051749,-6.5400909],[106.805483,-6.5399445],[106.805665,-6.5398831],[106.8056115,-6.5400881],[106.8055586,-6.540291],[106.8055273,-6.5410403],[106.8054957,-6.5417386],[106.8054911,-6.5420073],[106.8054816,-6.542556],[106.8055191,-6.5435095],[106.8055039,-6.5440034],[106.8053869,-6.5446338],[106.8053922,-6.5447121],[106.8054409,-6.545434],[106.8054774,-6.5454472],[106.8059524,-6.5456194],[106.8064283,-6.5453964],[106.8066046,-6.5452774],[106.8066556,-6.5452746],[106.8067174,-6.5453102],[106.8069624,-6.545518],[106.8070187,-6.5455218],[106.8070852,-6.5454836],[106.8072209,-6.5453968],[106.8072692,-6.5453691],[106.8073215,-6.5453624],[106.8078645,-6.5458247],[106.8081196,-6.5457601],[106.8083789,-6.5458962],[106.8085768,-6.5458955],[106.8088971,-6.5460618],[106.8089724,-6.5458484],[106.8089713,-6.5455439],[106.8093215,-6.5455579],[106.8094802,-6.5456325],[106.8094917,-6.5455171],[106.8094995,-6.5453306],[106.8094851,-6.5448687],[106.8094821,-6.5447161],[106.8094799,-6.544606],[106.8095682,-6.544415],[106.8098421,-6.5439817],[106.8100025,-6.5437862],[106.8100374,-6.5437403],[106.8104074,-6.5432549],[106.8105379,-6.5430171],[106.8104364,-6.542841],[106.8104395,-6.5426394],[106.8104736,-6.5424105],[106.8105294,-6.5422891],[106.8106698,-6.5419834],[106.8105644,-6.5417976],[106.8106291,-6.5414485],[106.8107515,-6.5409983],[106.8109407,-6.5404909],[106.8113697,-6.5393406],[106.8125181,-6.5390336],[106.8140198,-6.5386323],[106.8140871,-6.5386143],[106.8143714,-6.538597],[106.8147597,-6.5386185],[106.8155893,-6.5386644],[106.8156858,-6.5386698],[106.8159043,-6.5386776],[106.8159805,-6.5386804],[106.8161782,-6.5386835],[106.8165503,-6.5386589],[106.8167248,-6.5386854],[106.8168877,-6.5386926],[106.8171202,-6.538684],[106.8171941,-6.538671],[106.8173399,-6.5386453],[106.8175932,-6.538581],[106.8176518,-6.5385661],[106.8177882,-6.5384973],[106.8179829,-6.5383795],[106.8180942,-6.5383568],[106.8181292,-6.5383497],[106.8183139,-6.5381636],[106.8183723,-6.5381341],[106.8182567,-6.5385444],[106.8181998,-6.5390033],[106.8181421,-6.5392182],[106.8180947,-6.539599],[106.8180762,-6.5398918],[106.8180606,-6.5401386],[106.8180393,-6.5404775],[106.8180207,-6.5407313],[106.8178365,-6.5410735],[106.8177729,-6.5413676],[106.817731,-6.5415618],[106.8177518,-6.5419228],[106.8179288,-6.5423028],[106.8180249,-6.5424129],[106.8181836,-6.5425946],[106.8183568,-6.5427113],[106.8184574,-6.542779],[106.8188575,-6.5427678],[106.8192766,-6.5426492],[106.8196374,-6.5425698],[106.8201939,-6.5426459],[106.8203984,-6.5427169],[106.8205554,-6.5427714],[106.8208091,-6.5427803],[106.8211749,-6.5427546],[106.8214482,-6.5427536],[106.8216628,-6.5427528],[106.821936,-6.5427518],[106.8222191,-6.5427703],[106.8224532,-6.5427402],[106.8225023,-6.5428376],[106.8225129,-6.543062],[106.8225622,-6.5431984],[106.8225773,-6.5433724],[106.8225825,-6.5434326],[106.8227098,-6.5435395],[106.822876,-6.5436267],[106.8229833,-6.5436165],[106.8230118,-6.5434017],[106.8229034,-6.5431094],[106.8229317,-6.5428458],[106.8230382,-6.5426209],[106.823145,-6.5424839],[106.8235403,-6.5424874],[106.8236968,-6.5426039],[106.8238833,-6.5429058],[106.8240208,-6.5431395],[106.8241196,-6.5434904],[106.8241205,-6.5437246],[106.8241316,-6.5441149],[106.8241337,-6.5442537],[106.8241346,-6.5443116],[106.8241274,-6.544405],[106.8241503,-6.5446415],[106.8241754,-6.5449703],[106.8241815,-6.5452466],[106.8241771,-6.5454257],[106.8241914,-6.5454693],[106.8244554,-6.5455523],[106.8247066,-6.5454714],[106.824753,-6.5454564],[106.8250234,-6.5451544],[106.8251876,-6.5448605],[106.8251913,-6.5448557],[106.8251931,-6.5448533],[106.8254583,-6.5445075],[106.8256148,-6.5441881],[106.8256829,-6.5439616],[106.8259588,-6.5442763],[106.8260242,-6.5442939],[106.8260762,-6.5443079],[106.8261127,-6.5444618],[106.8261141,-6.5445191],[106.8261185,-6.5447028],[106.8261795,-6.5452585],[106.8261659,-6.5455129],[106.8261539,-6.5456393],[106.8261197,-6.5459984],[106.8260783,-6.5463661],[106.8260705,-6.5464349],[106.8259661,-6.5467831],[106.8259054,-6.5469857],[106.8258541,-6.5472328],[106.8259188,-6.5473917],[106.8260308,-6.5475196],[106.826098,-6.5475537],[106.8262099,-6.5476106],[106.8263214,-6.5476658],[106.8264162,-6.5478916],[106.8264978,-6.5480118],[106.8265718,-6.5481208],[106.8266832,-6.5482765],[106.8266832,-6.5484357],[106.82679,-6.5485626],[106.8269197,-6.548739],[106.8274004,-6.5491362],[106.8275252,-6.5492159],[106.8275759,-6.5492483],[106.8277208,-6.5492759],[106.827759,-6.5492931],[106.8278429,-6.5493331],[106.8282167,-6.5496984],[106.8282854,-6.5497608],[106.8287355,-6.5498791],[106.8288576,-6.549923],[106.8289227,-6.5499969],[106.8290483,-6.5501394],[106.8291933,-6.5505471],[106.8292314,-6.5507341],[106.829368,-6.5514384],[106.8294357,-6.5519859],[106.8294923,-6.5521888],[106.8295578,-6.5524237],[106.8296142,-6.5528726],[106.8296371,-6.5531355],[106.8297147,-6.5533872],[106.8298032,-6.5536169],[106.8299248,-6.5539232],[106.8299765,-6.5541118],[106.8300358,-6.5543282],[106.8299711,-6.5546132],[106.8296282,-6.5550108],[106.8296511,-6.555069],[106.82959,-6.5552391],[106.8295252,-6.5555023],[106.8295813,-6.5558745],[106.8295259,-6.5564915],[106.8295985,-6.5566282],[106.8296968,-6.5568133],[106.829735,-6.5569492],[106.829926,-6.5572537],[106.8300802,-6.5574941],[106.8302456,-6.5577784],[106.8301699,-6.5580635],[106.829974,-6.5584038],[106.8299795,-6.5585271],[106.8299978,-6.5589406],[106.8299918,-6.5589908],[106.8299447,-6.559379],[106.8299574,-6.5598719],[106.82995,-6.5600404],[106.8299271,-6.5605608],[106.8302563,-6.5607144],[106.8305966,-6.5609103],[106.8312233,-6.5615435],[106.8317406,-6.562188],[106.8320599,-6.562636],[106.832357,-6.5630074],[106.8324631,-6.5631937],[106.8327429,-6.5636852],[106.8328162,-6.5640256],[106.8328655,-6.5642544],[106.8328232,-6.5646709],[106.8328909,-6.5651965],[106.8329997,-6.5654951],[106.8329999,-6.5654957],[106.8331773,-6.5656227],[106.8332872,-6.5657428],[106.8334961,-6.5657653],[106.8336818,-6.5657852],[106.8339671,-6.5659156],[106.833954,-6.5661822],[106.8340345,-6.5663645],[106.834178,-6.5666817],[106.8343653,-6.5669659],[106.8345975,-6.5674546],[106.8346303,-6.5675236],[106.8346711,-6.5676334],[106.8348294,-6.5680597],[106.8348314,-6.5685938],[106.8348323,-6.5688485],[106.834869,-6.5698891],[106.8350527,-6.5706649],[106.8350832,-6.5708246],[106.8351747,-6.5711336],[106.8352358,-6.5712781],[106.8353426,-6.5714336],[106.8353807,-6.5715623],[106.8352598,-6.5719145],[106.8353502,-6.5721131],[106.8353955,-6.572215],[106.8354494,-6.5723362],[106.8354723,-6.5723934],[106.8356748,-6.5730561],[106.8356859,-6.5730925],[106.8358461,-6.5739727],[106.8357845,-6.5745747],[106.8359072,-6.5749398],[106.836082,-6.5750556],[106.836335,-6.5753176],[106.836577,-6.5755906],[106.8366118,-6.5759664],[106.8366226,-6.5760835],[106.8366792,-6.5765763],[106.8367062,-6.5766443],[106.8367693,-6.5768037],[106.8371126,-6.5776701],[106.8371737,-6.577848],[106.8375057,-6.5769498],[106.8381215,-6.5762153],[106.8379521,-6.5757339],[106.8382221,-6.5750623],[106.8385779,-6.5749562],[106.8388926,-6.5750389],[106.8395669,-6.5747513],[106.8391467,-6.5763352],[106.8383633,-6.5784682],[106.8379623,-6.5797142],[106.8379477,-6.5797595],[106.8378836,-6.5799016],[106.8378385,-6.5800284],[106.8378241,-6.5800929],[106.8377606,-6.5802614],[106.8374773,-6.5810127],[106.8374313,-6.5811399],[106.8373068,-6.5814845],[106.837201,-6.5817879],[106.8371564,-6.5819157],[106.8371489,-6.5819537],[106.837036,-6.5822969],[106.8369936,-6.5824254],[106.8367154,-6.5832447],[106.8366719,-6.583377],[106.83652,-6.5838382],[106.8363949,-6.5842481],[106.8363699,-6.5843302],[106.8360245,-6.5854815],[106.8359894,-6.5855729],[106.8358911,-6.5857322],[106.8358879,-6.5857374],[106.8358687,-6.5858114],[106.8358637,-6.5858469],[106.8358035,-6.5860143],[106.8353706,-6.5874573],[106.8353082,-6.5876783],[106.8352581,-6.5878555],[106.8350824,-6.5883121],[106.8350573,-6.5883912],[106.8347519,-6.5893519],[106.8345964,-6.5897831],[106.8345513,-6.58991],[106.8345057,-6.5900327],[106.8344911,-6.5900723],[106.8344711,-6.5901484],[106.8344459,-6.5901991],[106.8343408,-6.5905339],[106.8341855,-6.5910361],[106.8340451,-6.5914166],[106.83398,-6.5916296],[106.8338848,-6.5919187],[106.8338683,-6.5919625],[106.8338447,-6.5920253],[106.8338092,-6.5921104],[106.8338076,-6.5921141],[106.8336792,-6.5925072],[106.833589,-6.5927609],[106.833544,-6.5929231],[106.8333889,-6.5934608],[106.8330883,-6.5943738],[106.8329279,-6.5948507],[106.8328426,-6.595084],[106.8325971,-6.5958196],[106.832562,-6.5959312],[106.8323817,-6.5964891],[106.8322756,-6.5968395],[106.8321764,-6.5971017],[106.83214516391409,-6.597215825184694],[106.83214516391409,-6.593634185437288],[106.8276535874935,-6.593634185437288],[106.8276535874935,-6.598125761857886],[106.83189611406443,-6.598125761857886],[106.83178,-6.59855],[106.831711,-6.5988345],[106.8316805,-6.5989394],[106.8316042,-6.5992885],[106.8315467,-6.599707],[106.8315279,-6.5998445],[106.8314287,-6.6006079],[106.8313906,-6.6010061],[106.8313906,-6.6011577],[106.8313601,-6.601686],[106.8313677,-6.6021023],[106.8313753,-6.6026874],[106.8313906,-6.6029372],[106.8313982,-6.6030965],[106.8314745,-6.6048908],[106.8314979,-6.6052945],[106.8315203,-6.6057549],[106.83156930995386,-6.60710891469908],[106.8276535874935,-6.60710891469908],[106.8276535874935,-6.611600491119678],[106.83179208638185,-6.611600491119678],[106.8318941,-6.6125994],[106.8319322,-6.612977],[106.8320238,-6.6134529],[106.8320321,-6.6134914],[106.8320772,-6.6136999],[106.8321688,-6.6141577],[106.8322832,-6.6145437],[106.8324816,-6.6152129],[106.8328859,-6.616344],[106.8329851,-6.6166082],[106.8334581,-6.6178217],[106.8334887,-6.617878],[106.8335115,-6.6179729],[106.8336412,-6.6183295],[106.8337328,-6.6185208],[106.8337441,-6.6185471],[106.8337633,-6.6185918],[106.8338534,-6.6188058],[106.8338541,-6.6188075],[106.8338548,-6.6188092],[106.8339159,-6.6189528],[106.8339693,-6.6190744],[106.8339998,-6.6191464],[106.8340761,-6.6193485],[106.8342516,-6.6198073],[106.8344118,-6.6202698],[106.8345615,-6.6205939],[106.8345873,-6.6206498],[106.8347628,-6.6210332],[106.8351558,-6.6220711],[106.8354036,-6.6227255],[106.8357993,-6.6237387],[106.8358138,-6.6237759],[106.8360613,-6.6244098],[106.8361586,-6.6246566],[106.8361666,-6.6246767],[106.8362564,-6.6248879],[106.8363039,-6.6249995],[106.8364717,-6.6254006],[106.8365104,-6.6255083],[106.8365709,-6.6256767],[106.836907,-6.6264531],[106.8369524,-6.6265579],[106.8373647,-6.627646],[106.8374254,-6.6278062],[106.8374865,-6.6279707],[106.8376009,-6.6282282],[106.8379366,-6.6289831],[106.8380723,-6.6292849],[106.8380892,-6.6293225],[106.838861,-6.6309102],[106.838875,-6.630939],[106.8394319,-6.6319766],[106.8397497,-6.6324964],[106.8400652,-6.6330123],[106.8405077,-6.6336827],[106.8407623,-6.6340697],[106.8409655,-6.6343785],[106.8410646,-6.6345058],[106.8411636,-6.63465],[106.8411638,-6.6346502],[106.8411613,-6.6346502],[106.841263,-6.6347967],[106.8413622,-6.6349354],[106.8415071,-6.6351147],[106.8416597,-6.6353331],[106.8419914,-6.6357785],[106.8426439,-6.6366549],[106.8427355,-6.636787],[106.8431129,-6.6373155],[106.8431432,-6.6373629],[106.8435088,-6.6376726],[106.8442023,-6.6385617],[106.8445838,-6.6390417],[106.8449386,-6.6394418],[106.8454175,-6.640055],[106.8454388,-6.6400822],[106.8458163,-6.6405773],[106.846165,-6.641043],[106.8465901,-6.6416799],[106.8469095,-6.6421735],[106.8470694,-6.6424599],[106.8471989,-6.6426609],[106.8474413,-6.6430775],[106.8474656,-6.643133],[106.8479111,-6.6441516],[106.84835,-6.6455791],[106.8486271,-6.64667],[106.848694,-6.6473763],[106.848728,-6.64789],[106.8487339,-6.6480081],[106.8487429,-6.648186],[106.8487491,-6.6483091],[106.8487627,-6.6485804],[106.8487925,-6.6491414],[106.8487704,-6.6497583],[106.8487294,-6.6504191],[106.8487209,-6.6504657],[106.8486822,-6.6506779],[106.8486092,-6.6510782],[106.848517,-6.6515841],[106.8484884,-6.6516942],[106.8484146,-6.6519791],[106.848386,-6.6520894],[106.848317,-6.6523557],[106.8482828,-6.6524876],[106.8482293,-6.6526939],[106.8480363,-6.6534385],[106.8478837,-6.6540272],[106.8478587,-6.6541017],[106.8477394,-6.6544566],[106.8476828,-6.6546686],[106.8475147,-6.6552326],[106.847502,-6.6552752],[106.8474215,-6.6555452],[106.8474041,-6.6556037],[106.847359,-6.655755],[106.8473439,-6.6558056],[106.8473403,-6.6558177],[106.8473205,-6.6558839],[106.847293,-6.6559627],[106.8472891,-6.6559739],[106.8472511,-6.6560825],[106.847181,-6.6562328],[106.8470737,-6.6564495],[106.8469269,-6.6567457],[106.8467223,-6.6571391],[106.8465588,-6.6574532],[106.8465181,-6.6575384],[106.8464458,-6.6576894],[106.8463705,-6.6578467],[106.8463357,-6.6579278],[106.8461998,-6.6582446],[106.8461033,-6.6585023],[106.8459682,-6.6588633],[106.8457452,-6.6594334],[106.8456958,-6.6595803],[106.8456143,-6.6598223],[106.8454902,-6.6600653],[106.8454653,-6.6601141],[106.8453168,-6.660534],[106.8452972,-6.6606342],[106.8452356,-6.6609499],[106.8452259,-6.6610347],[106.8452242,-6.6610503],[106.845196,-6.6612964],[106.8451747,-6.6614834],[106.8451796,-6.6615575],[106.8451864,-6.6616611],[106.8452073,-6.6619777],[106.8452475,-6.6621875],[106.8452958,-6.6624398],[106.8453056,-6.6624912],[106.8453464,-6.6626384],[106.8454033,-6.6628441],[106.8454313,-6.6629598],[106.8455256,-6.6633494],[106.8456064,-6.6636222],[106.8456625,-6.6638671],[106.8457276,-6.6641514],[106.8457712,-6.6643274],[106.8458191,-6.6645205],[106.8458503,-6.6646283],[106.8459818,-6.6650819],[106.8460014,-6.6651516],[106.8460031,-6.6651574],[106.8460632,-6.6653707],[106.8461169,-6.6655754],[106.8462602,-6.6661221],[106.8463363,-6.6664164],[106.8463811,-6.6665895],[106.846488,-6.6669655],[106.8464886,-6.6669678],[106.8465082,-6.6670369],[106.8465963,-6.6674669],[106.8467485,-6.6680445],[106.8467886,-6.6682094],[106.8468471,-6.6684502],[106.8468519,-6.6684772],[106.8469193,-6.6688647],[106.8469931,-6.6692371],[106.8470914,-6.6697666],[106.8471669,-6.6701349],[106.8472392,-6.6706332],[106.847267,-6.6708109],[106.847316,-6.6710699],[106.8473749,-6.6714581],[106.8474424,-6.6718109],[106.8475103,-6.672262],[106.8475338,-6.6723967],[106.8475421,-6.6724413],[106.8475959,-6.6727283],[106.8477462,-6.6734233],[106.847813,-6.6737462],[106.8476684,-6.6745562],[106.8476412,-6.6747088],[106.8477098,-6.6749168],[106.8477938,-6.6751461],[106.8478624,-6.6753669],[106.8479387,-6.6756253],[106.8479692,-6.6757398],[106.8481142,-6.676239],[106.8480684,-6.6762657],[106.8478777,-6.6763163],[106.8476316,-6.6763885],[106.847635,-6.6763993],[106.8475823,-6.6764029],[106.8475808,-6.676401],[106.8469915,-6.6766126],[106.8469317,-6.6766372],[106.8467908,-6.6766953],[106.846622,-6.676765],[106.8461916,-6.6768327],[106.8458635,-6.6769471],[106.8458197,-6.6769501],[106.8455957,-6.6769651],[106.8453318,-6.6770869],[106.845242,-6.6773062],[106.8451759,-6.6774517],[106.8451147,-6.6775861],[106.8448892,-6.6778739],[106.844783,-6.678056],[106.8447391,-6.6781311],[106.8446612,-6.6781845],[106.844597,-6.6782284],[106.8442919,-6.6783223],[106.8442465,-6.678336],[106.8440152,-6.6784057],[106.8439022,-6.6784527],[106.8437588,-6.6785123],[106.8435758,-6.6786351],[106.8435782,-6.6786791],[106.8434712,-6.6787408],[106.843424,-6.678768],[106.8433672,-6.6788007],[106.8433078,-6.6788098],[106.8431634,-6.6788317],[106.8431155,-6.6788412],[106.842854,-6.6788933],[106.8426898,-6.6789353],[106.8426019,-6.6789709],[106.8425657,-6.6790093],[106.8425218,-6.6790557],[106.8420216,-6.6791808],[106.8416854,-6.6792687],[106.8415934,-6.6792927],[106.8412263,-6.6793598],[106.8411704,-6.6793725],[106.8410971,-6.6793891],[106.8408275,-6.6794501],[106.8407739,-6.6794622],[106.8404876,-6.6795123],[106.8403582,-6.679535],[106.8402779,-6.6795482],[106.8400612,-6.6795837],[106.8399135,-6.6795842],[106.8397878,-6.6795847],[106.8397348,-6.6794082],[106.8396915,-6.6792642],[106.8396333,-6.6790107],[106.8396158,-6.6789346],[106.839607,-6.6788961],[106.83955,-6.6788809],[106.8394035,-6.678842],[106.839197,-6.6788174],[106.8389736,-6.6787908],[106.8388259,-6.678761],[106.8386445,-6.6787244],[106.8385722,-6.6787098],[106.8383555,-6.6787075],[106.8381914,-6.6787057],[106.8378353,-6.6787363],[106.8376246,-6.6787441],[106.8376193,-6.6787465],[106.8374452,-6.6788246],[106.8372508,-6.6788632],[106.8371584,-6.6788815],[106.8371075,-6.6788753],[106.8367778,-6.6788354],[106.8363258,-6.6787539],[106.8359214,-6.6786722],[106.8357875,-6.6786402],[106.8355288,-6.6785786],[106.8354107,-6.6784833],[106.8353381,-6.6784248],[106.8351588,-6.6781759],[106.8349003,-6.6779643],[106.8348532,-6.6779258],[106.8346819,-6.67784],[106.834511,-6.6777545],[106.8344611,-6.6777385],[106.8343461,-6.6777016],[106.8342183,-6.6776606],[106.8340649,-6.677707],[106.8339826,-6.6777319],[106.8338413,-6.6777324],[106.8337466,-6.6777327],[106.8336551,-6.6777086],[106.8335515,-6.6776813],[106.8334165,-6.6776978],[106.8333486,-6.677706],[106.833281,-6.6777244],[106.8332043,-6.6777453],[106.833068,-6.6778027],[106.8329933,-6.6778341],[106.8328174,-6.6778876],[106.8326672,-6.6779731],[106.8325045,-6.6780658],[106.8323824,-6.6782546],[106.8322603,-6.6784392],[106.8320085,-6.6788163],[106.83171071501098,-6.678974137428642],[106.82983478518292,-6.678974137428642],[106.8297572,-6.6789032],[106.8295595,-6.6787224],[106.8294835,-6.6786763],[106.8293764,-6.6786113],[106.8291263,-6.678589],[106.8289932,-6.6785771],[106.8288424,-6.6785636],[106.8279802,-6.6780634],[106.8278047,-6.6779366],[106.8276535874935,-6.67773537607861],[106.8276535874935,-6.674482561008046],[106.8231620110729,-6.674482561008046],[106.8231620110729,-6.675026450169084],[106.8225328,-6.6748791],[106.8223497,-6.6748219],[106.8223192,-6.674809],[106.8222887,-6.6747856],[106.8222566,-6.6747367],[106.8222277,-6.6746926],[106.8222124,-6.674583],[106.8222073,-6.6744309],[106.8221819,-6.673676],[106.8221056,-6.6734753],[106.8219454,-6.6732831],[106.8217546,-6.6731496],[106.8216173,-6.6731134],[106.8212511,-6.6731153],[106.8211654,-6.6730977],[106.8211138,-6.6730871],[106.8209688,-6.6730013],[106.8205531,-6.6727268],[106.8202822,-6.6725478],[106.8198769,-6.6722791],[106.8197557,-6.6721988],[106.8192648,-6.6720486],[106.8191835,-6.6720238],[106.8190996,-6.6719494],[106.8190409,-6.6718664],[106.8190398,-6.6718648],[106.8190386,-6.6718631],[106.8190386,-6.6718251],[106.8190386,-6.6715465],[106.8190386,-6.6712585],[106.8190512,-6.6711475],[106.8190844,-6.6708551],[106.8191072,-6.6704226],[106.8190767,-6.6701203],[106.8189928,-6.6698041],[106.8189318,-6.6696744],[106.8188756,-6.6695687],[106.8187715,-6.6694303],[106.8186876,-6.669301],[106.8186113,-6.6691713],[106.8185732,-6.6690278],[106.8185579,-6.6688695],[106.8185427,-6.6686244],[106.8185351,-6.6683941],[106.8185198,-6.6682067],[106.8184511,-6.6678906],[106.8183901,-6.667655],[106.8183901,-6.6674438],[106.8184116,-6.6673587],[106.8184293,-6.6672568],[106.81847,-6.6670224],[106.8185045,-6.6668234],[106.8185351,-6.6665859],[106.8185427,-6.666441],[106.8185198,-6.6663618],[106.818413,-6.6662565],[106.8183214,-6.6662307],[106.8181765,-6.6662049],[106.8179705,-6.6661797],[106.8179674,-6.6661793],[106.8179642,-6.6661789],[106.8177492,-6.6661535],[106.8176244,-6.6661483],[106.8174593,-6.6661415],[106.8171999,-6.6661291],[106.8169634,-6.6661167],[106.816765,-6.6660781],[106.8166201,-6.6659732],[106.8165948,-6.6659417],[106.8164827,-6.665802],[106.8163225,-6.6655521],[106.8162157,-6.6652355],[106.816147,-6.6648665],[106.8161775,-6.6645236],[106.8163454,-6.6641665],[106.8165056,-6.6638699],[106.8165507,-6.6635399],[106.8165511,-6.6635375],[106.8165667,-6.6633191],[106.816498,-6.6630359],[106.8164217,-6.6628633],[106.8162615,-6.6626906],[106.8160936,-6.6625185],[106.815819,-6.6623306],[106.8156969,-6.6621895],[106.8156664,-6.6620321],[106.8156816,-6.6618276],[106.8157274,-6.6615915],[106.8156893,-6.6614499],[106.8156282,-6.661324],[106.8155594,-6.6612497],[106.8155079,-6.6611942],[106.8154833,-6.6611676],[106.8153079,-6.6610379],[106.8151247,-6.6609326],[106.8148271,-6.6608239],[106.8142855,-6.6606369],[106.8139879,-6.660512],[106.8135759,-6.6603561],[106.8134101,-6.6602555],[106.8133699,-6.6602311],[106.8132631,-6.66009],[106.8131868,-6.6599488],[106.8131487,-6.6597758],[106.8131487,-6.6594925],[106.8130877,-6.6592412],[106.8129274,-6.6590371],[106.8127977,-6.6589275],[106.8125307,-6.6588497],[106.8122026,-6.6587405],[106.8118059,-6.658648],[106.8115999,-6.6585698],[106.8114473,-6.6584916],[106.8113024,-6.6583505],[106.8111116,-6.6580682],[106.8109056,-6.6578016],[106.8105394,-6.6572485],[106.8103487,-6.6570273],[106.8102037,-6.6568537],[106.810013,-6.6567593],[106.8097612,-6.6566649],[106.8094255,-6.6566029],[106.8091432,-6.6565404],[106.808983,-6.6564775],[106.8088838,-6.6564145],[106.8088076,-6.6563039],[106.8087389,-6.6561136],[106.8087236,-6.6559234],[106.8087541,-6.6557016],[106.8087236,-6.655448],[106.8086931,-6.6550994],[106.8086911,-6.6550379],[106.8086663,-6.654838],[106.8086664,-6.6548357],[106.8086551,-6.6548343],[106.8086702,-6.6545129],[106.8086855,-6.6542115],[106.808655,-6.654037],[106.8085863,-6.6537838],[106.80851,-6.6533876],[106.8084261,-6.6528964],[106.8083956,-6.652595],[106.8083956,-6.6524048],[106.8084414,-6.6522465],[106.8085863,-6.6519761],[106.8088076,-6.6517058],[106.8092348,-6.6513396],[106.8095629,-6.6510849],[106.8097231,-6.6509414],[106.8098528,-6.6507845],[106.8098757,-6.6506348],[106.8099138,-6.6505194],[106.8099672,-6.650393],[106.8101046,-6.6501508],[106.8102648,-6.6498513],[106.8103862,-6.6495711],[106.8103903,-6.6495615],[106.8104091,-6.64952],[106.8105318,-6.6492524],[106.8105623,-6.6490798],[106.8105699,-6.6486201],[106.8105471,-6.6482983],[106.8104555,-6.6476431],[106.8104174,-6.6471491],[106.8103368,-6.6464728],[106.8102458,-6.6464683],[106.8099543,-6.6463308],[106.8098223,-6.6462585],[106.8097113,-6.646207],[106.8095972,-6.646268],[106.8095076,-6.6464191],[106.8094735,-6.6465647],[106.8094447,-6.6467363],[106.8093866,-6.6469547],[106.8092652,-6.6473865],[106.8092196,-6.6475377],[106.8091036,-6.6477283],[106.8089775,-6.6478327],[106.8088271,-6.6479129],[106.8087289,-6.6480587],[106.8087452,-6.6482509],[106.8087046,-6.6485074],[106.8086307,-6.6486688],[106.8084961,-6.6488286],[106.8083193,-6.6489339],[106.8081819,-6.6491122],[106.8080576,-6.6492442],[106.8078005,-6.6494122],[106.8076403,-6.6494966],[106.8075487,-6.6495786],[106.80745,-6.649818],[106.8071868,-6.6503369],[106.8071036,-6.6504771],[106.8070766,-6.6505226],[106.8069646,-6.6506807],[106.8068216,-6.6508856],[106.8067424,-6.6510262],[106.8065782,-6.6510301],[106.8065764,-6.6510302],[106.8065607,-6.6510926],[106.8064429,-6.6510809],[106.8062659,-6.6510123],[106.8062336,-6.6511683],[106.8062137,-6.6512894],[106.806176,-6.6515184],[106.8061627,-6.6516726],[106.8061251,-6.6518165],[106.8060699,-6.651867],[106.8059312,-6.6518467],[106.8057873,-6.6518195],[106.8055947,-6.6517267],[106.8054801,-6.6516578],[106.8053206,-6.6516359],[106.8052305,-6.6516224],[106.8051733,-6.6516139],[106.8050692,-6.6515779],[106.8049393,-6.6515836],[106.8048587,-6.6518038],[106.8042376,-6.6517687],[106.8039057,-6.6517328],[106.8042304,-6.6514562],[106.8044478,-6.6512199],[106.804799,-6.6504186],[106.8048395,-6.6503264],[106.805079,-6.6494941],[106.8051697,-6.6491976],[106.8052382,-6.6489791],[106.80342,-6.6478218],[106.8032823,-6.6482115],[106.8029027,-6.6479905],[106.8025822,-6.6478534],[106.8024547,-6.6479043],[106.8024208,-6.6479289],[106.8022623,-6.6480806],[106.8022055,-6.6481116],[106.802052,-6.6481954],[106.8016751,-6.648346],[106.8013519,-6.6483654],[106.8013063,-6.6483123],[106.8010682,-6.6479972],[106.8007589,-6.647419],[106.8004497,-6.6469103],[106.8003438,-6.6467359],[106.7997885,-6.646106],[106.7997269,-6.6460536],[106.7996829,-6.6460274],[106.7996476,-6.6459661],[106.7996035,-6.6459048],[106.7995242,-6.6458349],[106.7994712,-6.6457473],[106.799392,-6.6456774],[106.797039,-6.6479504],[106.7948983,-6.6493474],[106.7948592,-6.6495349]]]],"type":"MultiPolygon"},"properties":{"fid":2418966,"KELAS":"ZONA PANAS","CLASS":"HOT ZONE","TEMPERATUR":"≥ 32⁰ C"}}]}