{"type":"FeatureCollection","features":[{"type":"Feature","geometry":{"coordinates":[[[[106.7733995,-6.342238],[106.7735064,-6.34235],[106.7735826,-6.3425112],[106.7735988,-6.3426181],[106.7736055,-6.3426624],[106.7735921,-6.3427495],[106.773575,-6.3428602],[106.7735225,-6.3429233],[106.7735029,-6.3429448],[106.7733004,-6.3430743],[106.7730944,-6.3432131],[106.7730445,-6.3432632],[106.7728655,-6.3434429],[106.7728054,-6.3435201],[106.7727453,-6.3435972],[106.7726976,-6.3436585],[106.7725538,-6.343923],[106.7725222,-6.3439813],[106.772529,-6.3440204],[106.7725374,-6.344069],[106.7725578,-6.3440945],[106.772629,-6.3441835],[106.7726993,-6.3442551],[106.7728045,-6.3443623],[106.7730638,-6.3445236],[106.7732622,-6.344647],[106.7734185,-6.3446975],[106.7735598,-6.3447433],[106.77375467044632,-6.344749571158583],[106.77375467044632,-6.346138715858983],[106.7737021,-6.3461422],[106.7736437,-6.3461461],[106.7735864,-6.3461768],[106.7735216,-6.3462115],[106.7734148,-6.3463407],[106.7733554,-6.3464311],[106.7732546,-6.3465843],[106.77325278069969,-6.34659748230442],[106.76926309402572,-6.34659748230442],[106.76926309402572,-6.342105905883822],[106.77324469535056,-6.342105905883822],[106.7733995,-6.342238]]]],"type":"MultiPolygon"},"properties":{"fid":1898960,"KELAS":"ZONA NORMAL","CLASS":"NORMAL ZONE","TEMPERATUR":"21⁰ C - 27⁰ C"}},{"type":"Feature","geometry":{"coordinates":[[[[106.6674352,-6.3579386],[106.6666038,-6.357931],[106.6662447,-6.3579278],[106.6651987,-6.3580386],[106.6636736,-6.3582001],[106.6613848,-6.3585887],[106.6595156,-6.3586726],[106.6585848,-6.3588214],[106.6580279,-6.3593874],[106.6572115,-6.3605475],[106.6569124,-6.3607349],[106.6562273,-6.3611641],[106.6544192,-6.3618507],[106.6532671,-6.3622632],[106.6511603,-6.362204],[106.6513217,-6.3619058],[106.6518681,-6.3616607],[106.6523531,-6.3612334],[106.6529603,-6.3609881],[106.653567,-6.3605604],[106.654357,-6.3604362],[106.655086,-6.3602514],[106.6561192,-6.3601264],[106.6568468,-6.3595158],[106.6569047,-6.3586032],[106.6568414,-6.3578126],[106.6568396,-6.3572652],[106.6565343,-6.3568404],[106.6555588,-6.3559919],[106.6553127,-6.3550802],[106.6555533,-6.3542887],[106.65549,-6.3534981],[106.6554265,-6.3526467],[106.6550582,-6.351553],[106.6547522,-6.3509457],[106.6542513,-6.3501992],[106.64999,-6.34714],[106.64698,-6.34378],[106.64697,-6.33998],[106.64919,-6.33817],[106.65457,-6.33541],[106.65683,-6.33283],[106.65699,-6.33167],[106.65765,-6.33069],[106.6589,-6.32932],[106.66062,-6.32804],[106.66066,-6.32736],[106.65774,-6.32484],[106.65874,-6.3222],[106.65859,-6.32104],[106.65846,-6.32026],[106.65914,-6.31802],[106.66001,-6.31798],[106.66174,-6.31837],[106.66231,-6.31758],[106.66089,-6.31568],[106.65951,-6.31548],[106.65638,-6.31683],[106.65538,-6.31591],[106.65554,-6.31389],[106.65661,-6.31272],[106.658,-6.31159],[106.65916,-6.30853],[106.65846,-6.30723],[106.65707,-6.30613],[106.65623,-6.30258],[106.65585,-6.30052],[106.65367,-6.29871],[106.65388,-6.29466],[106.6546,-6.29322],[106.65752,-6.29001],[106.65687,-6.28759],[106.6566934,-6.287378],[106.65582,-6.28633],[106.65564,-6.28617],[106.65393,-6.28558],[106.6536728,-6.285412],[106.65246,-6.28462],[106.64996,-6.28393],[106.64796,-6.28189],[106.64649,-6.27918],[106.64603,-6.27605],[106.64689,-6.27492],[106.64904,-6.27425],[106.65101,-6.27258],[106.65183,-6.27069],[106.65186,-6.26903],[106.64928,-6.26776],[106.64774,-6.26638],[106.64739,-6.26585],[106.64906,-6.26103],[106.64873,-6.25984],[106.64798,-6.25956],[106.64625,-6.25596],[106.6457,-6.25357],[106.64479,-6.25],[106.64445,-6.24906],[106.64418,-6.24824],[106.64396,-6.24752],[106.64392,-6.24727],[106.64386,-6.24689],[106.64386,-6.2467699],[106.64386,-6.24631],[106.64408,-6.24552],[106.6441043,-6.2454184],[106.64441,-6.24414],[106.64446,-6.24367],[106.64443,-6.24282],[106.64433,-6.24249],[106.64409,-6.24208],[106.64363,-6.24179],[106.643,-6.2414],[106.64269,-6.24123],[106.64189,-6.2408],[106.638,-6.23835],[106.63768,-6.23815],[106.63705,-6.2375],[106.63671,-6.23667],[106.63678,-6.2365],[106.63683,-6.23615],[106.63701,-6.23574],[106.63725,-6.23519],[106.63752,-6.23467],[106.6378,-6.23415],[106.63838,-6.23312],[106.6387,-6.23255],[106.63901,-6.23203],[106.63949,-6.231],[106.6394903,-6.2309993],[106.6394884,-6.230999],[106.6392138,-6.2308759],[106.638756,-6.2303376],[106.6387339,-6.2303156],[106.6384585,-6.230042],[106.638065,-6.2297473],[106.6396335,-6.2293761],[106.6400954,-6.2292668],[106.6403676,-6.2290783],[106.6403719,-6.2290851],[106.6407787,-6.2297253],[106.6411878,-6.2297155],[106.6415979,-6.2296904],[106.6416919,-6.2296618],[106.6419651,-6.229661],[106.6420368,-6.2296787],[106.6423299,-6.2296778],[106.6425686,-6.2297026],[106.6426797,-6.2297961],[106.6427825,-6.2299408],[106.6428936,-6.2300428],[106.6430047,-6.2301278],[106.6432092,-6.2301271],[106.6434009,-6.2300924],[106.6435881,-6.2300065],[106.6441583,-6.2296977],[106.6456987,-6.2289337],[106.645748,-6.2289992],[106.6458527,-6.229138],[106.6459128,-6.2292572],[106.6459898,-6.2293593],[106.6460107,-6.2293632],[106.6462584,-6.2294096],[106.6462719,-6.2294104],[106.6480952,-6.2295101],[106.6481804,-6.2294365],[106.6505426,-6.2295461],[106.6505711,-6.2295164],[106.6505977,-6.2294574],[106.650639,-6.2293613],[106.6505539,-6.2293053],[106.6505541,-6.2293],[106.6505705,-6.2293144],[106.6506424,-6.2293534],[106.6508244,-6.2294524],[106.6511977,-6.2296553],[106.6512175,-6.2296601],[106.6534743,-6.2297314],[106.6535218,-6.2297329],[106.6548458,-6.2301767],[106.6561215,-6.2306043],[106.6572985,-6.2310581],[106.6580417,-6.2313446],[106.659692,-6.2309519],[106.6596989,-6.2309503],[106.6602893,-6.2311911],[106.6604818,-6.2314145],[106.6607807,-6.2315794],[106.6613543,-6.2315588],[106.6630175,-6.2315369],[106.6636757,-6.2315526],[106.6640822,-6.2315577],[106.6644457,-6.2315939],[106.6644457,-6.2316011],[106.6659548,-6.2317815],[106.6668169,-6.2318659],[106.6668172,-6.2318658],[106.6670879,-6.2318476],[106.6670971,-6.2318466],[106.667316,-6.2318272],[106.667316,-6.2318319],[106.6678285,-6.2318489],[106.667883,-6.2318533],[106.66803,-6.2318583],[106.6686568,-6.2319153],[106.668779,-6.2319251],[106.6687805,-6.2319266],[106.6689303,-6.2319402],[106.6691254,-6.2319547],[106.6695805,-6.2319879],[106.6704312,-6.2321128],[106.6705039,-6.2321204],[106.670999,-6.2319259],[106.6710988,-6.2318852],[106.6712802,-6.2318147],[106.6715826,-6.2316972],[106.6715873,-6.2317018],[106.6716766,-6.2316707],[106.6717148,-6.2316567],[106.6720805,-6.231411],[106.6726101,-6.2310506],[106.6728011,-6.2310546],[106.67343,-6.2310527],[106.6734346,-6.231048],[106.6737281,-6.231047],[106.6738483,-6.2310087],[106.6741032,-6.2309228],[106.6747862,-6.2309206],[106.6748619,-6.2309204],[106.6749388,-6.2309173],[106.6753388,-6.2309189],[106.6755547,-6.2309182],[106.6755942,-6.2309199],[106.6756003,-6.2309199],[106.6764529,-6.2309545],[106.6766393,-6.2309539],[106.6769509,-6.2309565],[106.6778174,-6.2309537],[106.6778534,-6.2309536],[106.6782976,-6.2309486],[106.6782976,-6.2309522],[106.6788847,-6.2309503],[106.6791831,-6.2308212],[106.6791855,-6.2308221],[106.6792009,-6.2308152],[106.6798965,-6.2310757],[106.6802009,-6.2311842],[106.6802592,-6.2312019],[106.6812347,-6.2311474],[106.6817138,-6.2311197],[106.6817451,-6.2310637],[106.6817476,-6.2310586],[106.6817583,-6.2310399],[106.6817705,-6.2310181],[106.6817782,-6.230844],[106.6818143,-6.2303957],[106.6822313,-6.2303944],[106.682491,-6.2304585],[106.6832366,-6.2303263],[106.6837505,-6.2306383],[106.6838215,-6.2306815],[106.6842111,-6.23081],[106.6843665,-6.2309954],[106.6843739,-6.2310043],[106.684827,-6.2306782],[106.6851838,-6.2307096],[106.6857992,-6.2304479],[106.6864082,-6.2304954],[106.6869996,-6.2305415],[106.6879408,-6.2307332],[106.6880426,-6.2306425],[106.6887817,-6.229984],[106.6891385,-6.2299828],[106.6893985,-6.2301443],[106.689704,-6.2298366],[106.6897864,-6.2297536],[106.6900461,-6.2298177],[106.6914404,-6.2296834],[106.6917192,-6.2296243],[106.6929961,-6.2293538],[106.6934312,-6.2293706],[106.6934298,-6.2293758],[106.6934321,-6.2293759],[106.6934265,-6.2293889],[106.6933804,-6.2295678],[106.6932496,-6.2297939],[106.6932425,-6.22981],[106.6932358,-6.2298206],[106.6932371,-6.2298329],[106.6932127,-6.2298573],[106.6932101,-6.2298614],[106.6931846,-6.2299172],[106.69317,-6.22995],[106.6931858,-6.2300291],[106.6932155,-6.2300805],[106.6932463,-6.2301251],[106.6932709,-6.2301578],[106.6933416,-6.2302106],[106.6934164,-6.2302756],[106.6935656,-6.2303357],[106.6937349,-6.2303077],[106.6937679,-6.2302924],[106.6939658,-6.2301946],[106.69411,-6.2301196],[106.6941192,-6.2301204],[106.69412,-6.23012],[106.6941245,-6.2301209],[106.6942078,-6.2301286],[106.6942054,-6.2301371],[106.694206,-6.2301372],[106.694203,-6.2301458],[106.6941894,-6.2301939],[106.6941479,-6.2303199],[106.69399,-6.230386],[106.6939433,-6.2304063],[106.6939145,-6.2304188],[106.6936315,-6.2305453],[106.6935682,-6.2309195],[106.6935321,-6.231176],[106.6934705,-6.2311565],[106.6934199,-6.2311712],[106.6934174,-6.2311984],[106.6933656,-6.2311986],[106.6932101,-6.2311991],[106.692937,-6.2310744],[106.6927565,-6.2309331],[106.6926146,-6.2309171],[106.6924737,-6.2312015],[106.6924467,-6.2312998],[106.6924201,-6.2315128],[106.6923847,-6.2315604],[106.6923224,-6.2316441],[106.6921259,-6.2316011],[106.6918798,-6.2314326],[106.6918196,-6.2313619],[106.6916232,-6.231368],[106.6914759,-6.231352],[106.6913719,-6.2312432],[106.6912518,-6.2311945],[106.6911317,-6.2311785],[106.6911594,-6.2313258],[106.6911877,-6.2316314],[106.691287,-6.2316605],[106.6913,-6.23176],[106.69133,-6.23182],[106.69146,-6.2319],[106.69157,-6.23196],[106.691559,-6.2320552],[106.6915285,-6.2320828],[106.6915056,-6.2321315],[106.6915264,-6.2321779],[106.6914133,-6.2322311],[106.6910639,-6.2321613],[106.6909983,-6.2321014],[106.6908837,-6.2321018],[106.6908511,-6.2321401],[106.6908787,-6.2322438],[106.690917,-6.2322873],[106.6908953,-6.2323256],[106.6907703,-6.2324625],[106.6907542,-6.232528],[106.6907553,-6.2325344],[106.690782,-6.2326917],[106.6907552,-6.2328665],[106.6907448,-6.2329975],[106.6906852,-6.2331396],[106.6906635,-6.2331888],[106.6905896,-6.2332532],[106.6905443,-6.233161],[106.6904986,-6.2330775],[106.6904418,-6.233091],[106.6903954,-6.2329168],[106.6903735,-6.2329059],[106.6902538,-6.2329882],[106.6902087,-6.2329764],[106.69015,-6.2329612],[106.6900846,-6.2329614],[106.6900521,-6.2330489],[106.6900577,-6.2330871],[106.6900033,-6.2331418],[106.6899653,-6.2331911],[106.6898182,-6.2333459],[106.6898005,-6.2333671],[106.6897098,-6.2334758],[106.6896549,-6.2333504],[106.6896761,-6.2331538],[106.689692,-6.2330118],[106.689719,-6.2329189],[106.6897404,-6.2328151],[106.6897652,-6.2327525],[106.6897561,-6.2327532],[106.6898598,-6.2326182],[106.6898487,-6.2325473],[106.6897886,-6.2325147],[106.6896305,-6.2325644],[106.6895217,-6.2326357],[106.6894563,-6.2326632],[106.6893309,-6.2326854],[106.68926,-6.2326857],[106.6892219,-6.2327022],[106.6890995,-6.2328117],[106.6889742,-6.2328776],[106.6888434,-6.2329163],[106.6887782,-6.2330231],[106.6887566,-6.2330585],[106.6886754,-6.2332716],[106.6886702,-6.2333208],[106.6886487,-6.23343],[106.6885998,-6.2335012],[106.6885672,-6.2335231],[106.6879953,-6.2338252],[106.6879165,-6.2338909],[106.6879659,-6.233989],[106.6880493,-6.2340133],[106.688019,-6.2340498],[106.6880114,-6.2341213],[106.6881487,-6.234221],[106.6881802,-6.2342433],[106.688111,-6.2343829],[106.6880927,-6.2344199],[106.6881257,-6.2345071],[106.688217,-6.2344626],[106.6882563,-6.2344434],[106.6882591,-6.2344311],[106.6884693,-6.2344842],[106.6885021,-6.234495],[106.6885787,-6.2345875],[106.6885981,-6.2346802],[106.6886523,-6.2347426],[106.6887133,-6.234901],[106.6887232,-6.2349211],[106.6885149,-6.2349652],[106.6884927,-6.2349699],[106.6884763,-6.2349645],[106.6885149,-6.2350845],[106.6885888,-6.2352404],[106.6885912,-6.2352805],[106.6886904,-6.235435],[106.6887043,-6.2354502],[106.6886909,-6.2355534],[106.6885765,-6.2355974],[106.6884238,-6.2355979],[106.6883367,-6.2356746],[106.6882499,-6.2358223],[106.6880812,-6.235932],[106.6880432,-6.2359867],[106.6880415,-6.2360063],[106.6880414,-6.2360079],[106.6880274,-6.2361724],[106.68792,-6.2363539],[106.6878749,-6.2364302],[106.6878612,-6.2364532],[106.6878429,-6.2364841],[106.6872985,-6.2368189],[106.6870477,-6.2368797],[106.6869664,-6.2370328],[106.6869118,-6.2370276],[106.6868384,-6.2370824],[106.6867187,-6.2371919],[106.6867408,-6.2372901],[106.6868393,-6.2373662],[106.6868638,-6.2373677],[106.6868746,-6.2373533],[106.6869009,-6.2373321],[106.6869757,-6.2373767],[106.687025,-6.2374584],[106.6870253,-6.2375512],[106.6870237,-6.2375816],[106.6870228,-6.2375812],[106.6869058,-6.237699],[106.6868681,-6.2378411],[106.6868668,-6.2378688],[106.6868663,-6.23788],[106.686863,-6.2379503],[106.6868577,-6.2380212],[106.6868501,-6.2380268],[106.686738,-6.238109],[106.6865802,-6.2382296],[106.6865095,-6.2383117],[106.6864663,-6.2384319],[106.6864883,-6.2384864],[106.6866273,-6.2385121],[106.6866303,-6.2385079],[106.686794,-6.2385619],[106.6868725,-6.2387495],[106.6868822,-6.2387533],[106.6869593,-6.2388877],[106.6869916,-6.2389438],[106.6870043,-6.238966],[106.6872027,-6.2392316],[106.6872176,-6.2392619],[106.6872232,-6.2392605],[106.6871906,-6.2392857],[106.6871179,-6.2393305],[106.6870208,-6.2393592],[106.6869357,-6.2393433],[106.6868546,-6.2392949],[106.6867695,-6.2392871],[106.686713,-6.2393318],[106.6866484,-6.2393888],[106.686592,-6.239474],[106.686568,-6.2395551],[106.6865561,-6.2396484],[106.6865119,-6.2397336],[106.6864878,-6.2398147],[106.686484,-6.2398917],[106.6865328,-6.2399604],[106.6866382,-6.2400006],[106.6867354,-6.2400165],[106.6868529,-6.2400404],[106.6869138,-6.2400686],[106.6869586,-6.2401535],[106.68698,-6.2403445],[106.68698,-6.24045],[106.68695,-6.24051],[106.6869389,-6.2405104],[106.6870853,-6.2405421],[106.6871541,-6.2405256],[106.687251,-6.2404565],[106.6873278,-6.2403954],[106.6873355,-6.240391],[106.6873329,-6.2403906],[106.6873803,-6.2403588],[106.6874246,-6.2402979],[106.6874962,-6.2402327],[106.6875094,-6.2402206],[106.6877199,-6.2402078],[106.688129,-6.2402713],[106.6885867,-6.2403063],[106.6889147,-6.2403296],[106.6891615,-6.2403352],[106.6892,-6.2403361],[106.6892592,-6.2404581],[106.6893313,-6.240593],[106.6893847,-6.2406888],[106.689522,-6.2409816],[106.6896135,-6.2411976],[106.6897204,-6.2414622],[106.689728,-6.2414961],[106.6897814,-6.2416796],[106.6898874,-6.2418657],[106.6898962,-6.2418812],[106.6899569,-6.2419877],[106.6901934,-6.2423181],[106.6903002,-6.2424917],[106.690411,-6.2426802],[106.6904132,-6.2426841],[106.6904375,-6.2427254],[106.6904986,-6.2428398],[106.6906206,-6.2436633],[106.6906435,-6.2438321],[106.690674,-6.2439795],[106.6906749,-6.2439889],[106.6909132,-6.2438383],[106.6911691,-6.243701],[106.6915506,-6.2435961],[106.6919926,-6.2436383],[106.692315,-6.2438011],[106.6927769,-6.2440408],[106.6927783,-6.2440415],[106.6927959,-6.2440506],[106.693129,-6.2441806],[106.6937593,-6.2442441],[106.6938302,-6.2442422],[106.6941313,-6.2442344],[106.6941355,-6.2442342],[106.6947139,-6.2442192],[106.6961242,-6.2442747],[106.6966936,-6.2442844],[106.6966993,-6.2442845],[106.6969262,-6.2442884],[106.6969547,-6.2442899],[106.6969344,-6.2444919],[106.6971209,-6.2444997],[106.6970903,-6.2446609],[106.6970217,-6.2450166],[106.6969149,-6.2458549],[106.6968581,-6.246318],[106.6968462,-6.2464147],[106.6968004,-6.2468042],[106.6967089,-6.2475352],[106.6964876,-6.2489004],[106.6964823,-6.248934],[106.6964419,-6.2491894],[106.6963121,-6.2496109],[106.6962627,-6.2497909],[106.6962053,-6.25],[106.6961062,-6.2503204],[106.6959917,-6.2506661],[106.6959231,-6.2511721],[106.6958849,-6.2516332],[106.6958773,-6.2516708],[106.6960451,-6.251668],[106.6967928,-6.2516952],[106.697098,-6.251699],[106.6978151,-6.251708],[106.6979601,-6.2517242],[106.6981599,-6.2517461],[106.6981737,-6.2517476],[106.6982119,-6.2517514],[106.6982805,-6.2517886],[106.6983187,-6.2518778],[106.6984726,-6.2523691],[106.6985018,-6.2524624],[106.6985323,-6.2525115],[106.6991579,-6.2533665],[106.6994631,-6.2536826],[106.6996309,-6.2537885],[106.6996939,-6.2538151],[106.6998369,-6.2538757],[106.7002947,-6.2541103],[106.7004854,-6.2542252],[106.7006914,-6.2543225],[106.7012102,-6.2544742],[106.7015307,-6.2545619],[106.7019343,-6.2547062],[106.7021334,-6.2547774],[106.7022936,-6.2548165],[106.7024538,-6.2548666],[106.7028277,-6.2549839],[106.7029879,-6.2550836],[106.7033923,-6.2554789],[106.7036059,-6.255692],[106.7036516,-6.2557592],[106.7036821,-6.2558169],[106.7036974,-6.2558412],[106.7039492,-6.2561626],[106.7039772,-6.2561772],[106.7039989,-6.2561885],[106.7040213,-6.2562002],[106.7040865,-6.2562342],[106.7040255,-6.2559519],[106.7040026,-6.2558427],[106.7039721,-6.2556367],[106.7039492,-6.2555461],[106.7038424,-6.2549396],[106.7041476,-6.2533159],[106.7048189,-6.2528625],[106.7060032,-6.2525531],[106.7074053,-6.2521868],[106.7074407,-6.2521846],[106.7074957,-6.2521705],[106.7079699,-6.252152],[106.7096897,-6.2520461],[106.7100301,-6.2520141],[106.710221,-6.2520134],[106.7104723,-6.251998],[106.7112209,-6.2520249],[106.7112351,-6.2520565],[106.7114091,-6.2520526],[106.7119651,-6.2520403],[106.7138987,-6.2520802],[106.7140505,-6.2520833],[106.7145554,-6.2520904],[106.7166674,-6.25212],[106.7190859,-6.2521987],[106.7204393,-6.2522362],[106.72026,-6.25127],[106.7202068,-6.2510678],[106.7202883,-6.2510233],[106.7204381,-6.2510773],[106.7205265,-6.2510224],[106.7206281,-6.2510492],[106.7206289,-6.2510494],[106.7206794,-6.2510218],[106.7207923,-6.2509601],[106.7211538,-6.2510067],[106.721536,-6.2510942],[106.7220006,-6.2513792],[106.7222993,-6.2520128],[106.7223062,-6.252026],[106.7224502,-6.2522989],[106.7224767,-6.2523861],[106.7224793,-6.2523863],[106.7225602,-6.2525715],[106.7227993,-6.2526935],[106.7229765,-6.2527485],[106.7232566,-6.2528353],[106.7234407,-6.2528347],[106.7236142,-6.2524847],[106.7236213,-6.2524704],[106.7236514,-6.2524726],[106.7236257,-6.2520699],[106.7236036,-6.2512419],[106.7236024,-6.2511966],[106.7240521,-6.2510791],[106.7245031,-6.2511413],[106.7246319,-6.2511591],[106.7246534,-6.2514729],[106.7253282,-6.251382],[106.7255941,-6.2513606],[106.7256187,-6.2513728],[106.7257853,-6.2514555],[106.7259286,-6.2514823],[106.7261332,-6.2514817],[106.7263855,-6.2515013],[106.7264942,-6.251385],[106.7266238,-6.2513777],[106.7268964,-6.2513359],[106.7271623,-6.251335],[106.7273883,-6.2513154],[106.7274077,-6.2513137],[106.7274349,-6.2512795],[106.7276395,-6.2512857],[106.7278033,-6.2513261],[106.728155,-6.2513447],[106.7284068,-6.251358],[106.7284103,-6.2513582],[106.7284837,-6.2508803],[106.7288792,-6.2508722],[106.7290511,-6.2508607],[106.7302801,-6.2507789],[106.7303344,-6.2506968],[106.7307133,-6.2507],[106.7309209,-6.2507017],[106.7318276,-6.2506373],[106.7320784,-6.2506245],[106.7321125,-6.2506393],[106.7326578,-6.2505898],[106.7326677,-6.2505898],[106.7337488,-6.250593],[106.7343482,-6.2505844],[106.7349796,-6.2505753],[106.7352386,-6.2505335],[106.7352838,-6.2505324],[106.7365477,-6.2505019],[106.7367351,-6.2505093],[106.7368682,-6.2505145],[106.7371276,-6.2505955],[106.7372711,-6.2506974],[106.7375439,-6.2507033],[106.7376735,-6.2507097],[106.7377053,-6.2506655],[106.7377278,-6.2506345],[106.7379631,-6.2506422],[106.7385851,-6.2505805],[106.7387894,-6.250503],[106.7392491,-6.2503394],[106.7395838,-6.250265],[106.7401362,-6.2502768],[106.7407084,-6.2502786],[106.7407611,-6.2502788],[106.7407737,-6.2502788],[106.7411931,-6.2502801],[106.7415134,-6.2502176],[106.7416557,-6.2501729],[106.742106,-6.2500315],[106.7425082,-6.2500028],[106.7429246,-6.2501243],[106.7436409,-6.2502106],[106.7436538,-6.2501456],[106.7437228,-6.2497803],[106.7437468,-6.2496781],[106.7437482,-6.2496712],[106.7437693,-6.2495824],[106.7437869,-6.2495073],[106.7439298,-6.248901],[106.743931,-6.2489015],[106.7439331,-6.2488927],[106.7439976,-6.2489268],[106.7440632,-6.2489518],[106.7447588,-6.2490742],[106.7452865,-6.2491583],[106.7453346,-6.2491653],[106.7453464,-6.2491678],[106.7457846,-6.2492377],[106.7458111,-6.2492407],[106.7458355,-6.2492458],[106.7458913,-6.2492547],[106.746712,-6.2494282],[106.7468125,-6.2494495],[106.7468075,-6.2494318],[106.7468237,-6.2494456],[106.7468235,-6.2494465],[106.7481534,-6.2496119],[106.7481539,-6.2496162],[106.7481386,-6.2498055],[106.7481137,-6.2498991],[106.7480861,-6.2500027],[106.7480665,-6.2500876],[106.7481912,-6.2500972],[106.748296,-6.2500969],[106.7486003,-6.2500859],[106.7487948,-6.2500802],[106.7489744,-6.2500846],[106.749114,-6.2500642],[106.7499721,-6.2500513],[106.7500968,-6.2500559],[106.750461,-6.2500497],[106.7508852,-6.2500387],[106.7511244,-6.2500325],[106.7513038,-6.249987],[106.7516032,-6.249986],[106.7517873,-6.2499736],[106.7517862,-6.2500254],[106.7518037,-6.2505828],[106.7517929,-6.2507376],[106.7517812,-6.2509048],[106.7518297,-6.2510377],[106.7519526,-6.2511109],[106.7521854,-6.2510733],[106.7522719,-6.2511921],[106.7522723,-6.251309],[106.7522276,-6.2515537],[106.7521776,-6.251828],[106.7521763,-6.2518348],[106.7521356,-6.2520578],[106.752119,-6.2522841],[106.7524456,-6.2522765],[106.7525537,-6.2522739],[106.7527974,-6.252334],[106.7529547,-6.252551],[106.7530596,-6.2527334],[106.7531557,-6.2528723],[106.7534764,-6.253069],[106.7534908,-6.2530667],[106.7535027,-6.2530749],[106.7535639,-6.2531256],[106.753609,-6.253163],[106.7536643,-6.2532149],[106.7538374,-6.2533478],[106.753877,-6.2534576],[106.7539802,-6.2538106],[106.7540986,-6.2540301],[106.7542401,-6.254116],[106.7542379,-6.2541424],[106.7541797,-6.2548229],[106.7541732,-6.2552312],[106.7540088,-6.255326],[106.7539306,-6.2554283],[106.7544488,-6.255513],[106.7546451,-6.2555594],[106.7546769,-6.2556771],[106.7547087,-6.2557948],[106.7544184,-6.2558114],[106.7542798,-6.2558148],[106.7539634,-6.2558224],[106.7536652,-6.2558297],[106.7535715,-6.2559635],[106.7535168,-6.25605],[106.7535169,-6.2560625],[106.7535179,-6.256185],[106.753518,-6.2561851],[106.7535174,-6.2561851],[106.7535755,-6.256367],[106.7536937,-6.2566236],[106.7536768,-6.2566186],[106.7537535,-6.2567539],[106.7537546,-6.2567559],[106.7538964,-6.2569282],[106.7540375,-6.2570764],[106.7541125,-6.2572843],[106.754232,-6.2574624],[106.7542538,-6.2574949],[106.7542744,-6.2575256],[106.7544113,-6.2577295],[106.7544775,-6.2584498],[106.7544336,-6.2590727],[106.7543744,-6.2598407],[106.7543739,-6.259847],[106.7527801,-6.2598263],[106.7526904,-6.2598109],[106.7526895,-6.2598096],[106.7526878,-6.2598105],[106.7526776,-6.2598087],[106.7525723,-6.2597906],[106.7523595,-6.2597965],[106.7522089,-6.2598992],[106.7521834,-6.2599166],[106.7519558,-6.2601563],[106.7517397,-6.2603426],[106.7515718,-6.2605453],[106.7515145,-6.2606216],[106.7513964,-6.2607789],[106.7513277,-6.2610669],[106.7513888,-6.2611022],[106.7515108,-6.2612329],[106.7514727,-6.2614698],[106.7514345,-6.2616844],[106.751465,-6.2617488],[106.7515795,-6.2617889],[106.751877,-6.2618742],[106.7520372,-6.2619233],[106.7521746,-6.2619663],[106.7522738,-6.2619934],[106.7527849,-6.262136],[106.7529331,-6.2621375],[106.7530526,-6.262163],[106.7533955,-6.2622294],[106.7536447,-6.2622286],[106.7538209,-6.2621553],[106.7539816,-6.262082],[106.754277,-6.26192],[106.7543757,-6.261956],[106.7544796,-6.2619661],[106.7546198,-6.2619656],[106.7550558,-6.2619693],[106.7553153,-6.2619269],[106.7554864,-6.2618692],[106.7556212,-6.2618064],[106.755842,-6.2617162],[106.7558648,-6.2617069],[106.7560876,-6.2615659],[106.7563105,-6.261482],[106.7563128,-6.261501],[106.756325,-6.2616],[106.7564697,-6.2622585],[106.7564852,-6.2623287],[106.7565233,-6.262475],[106.7562945,-6.262526],[106.7560198,-6.2625589],[106.7558443,-6.2625771],[106.755646,-6.262661],[106.7555392,-6.262784],[106.7554705,-6.2629104],[106.7553408,-6.2629995],[106.754944,-6.263455],[106.7547488,-6.2635753],[106.7539725,-6.26336],[106.7539646,-6.2633543],[106.7535345,-6.2632881],[106.7538952,-6.2639903],[106.7536589,-6.2641829],[106.7534563,-6.2642884],[106.7531054,-6.2643228],[106.7529375,-6.2643495],[106.7527392,-6.2644305],[106.7525255,-6.2645822],[106.7524575,-6.2646946],[106.7524263,-6.2649178],[106.7524645,-6.2650571],[106.7526476,-6.2653899],[106.7527086,-6.265519],[106.7527395,-6.2657091],[106.7526751,-6.2658643],[106.7526108,-6.2661155],[106.7525108,-6.2662727],[106.7525061,-6.2662755],[106.7525045,-6.266278],[106.7524981,-6.2662883],[106.7526719,-6.2663875],[106.7526059,-6.2666451],[106.7526149,-6.2669713],[106.7526108,-6.2669812],[106.7526105,-6.2669856],[106.752585,-6.2673812],[106.7526558,-6.2677268],[106.752527,-6.2678293],[106.7523725,-6.2680117],[106.7522663,-6.2683413],[106.7529681,-6.2690102],[106.7530132,-6.2690326],[106.7530142,-6.2690339],[106.7529325,-6.2691352],[106.7526663,-6.2694106],[106.7522704,-6.2698202],[106.7522203,-6.2698703],[106.7519686,-6.2701263],[106.751816,-6.2702875],[106.7512896,-6.2708302],[106.7507784,-6.2713509],[106.7507788,-6.2713512],[106.75056,-6.27157],[106.7503,-6.27184],[106.7502988,-6.2718412],[106.7503083,-6.2718503],[106.7503024,-6.2718564],[106.7506191,-6.2721643],[106.7507022,-6.2723191],[106.7507342,-6.2723928],[106.7511357,-6.2723641],[106.7514859,-6.2727678],[106.7514938,-6.2727774],[106.7514957,-6.272801],[106.7514956,-6.2728062],[106.7515718,-6.2742014],[106.7515871,-6.2745662],[106.7520525,-6.2745581],[106.7529375,-6.2744994],[106.7531054,-6.2744889],[106.7532351,-6.2744828],[106.7538988,-6.2744785],[106.7543108,-6.2744808],[106.7545626,-6.2744684],[106.7549059,-6.2744432],[106.7550814,-6.2744384],[106.7551424,-6.2744303],[106.7558596,-6.2743573],[106.7563097,-6.274365],[106.7564852,-6.274385],[106.756592,-6.2743859],[106.7567141,-6.2743802],[106.7568662,-6.2742622],[106.7569638,-6.2742474],[106.7571376,-6.2748911],[106.757183,-6.275782],[106.7571566,-6.2758484],[106.7571566,-6.2760754],[106.757198,-6.2762739],[106.7571904,-6.2778398],[106.7572181,-6.277843],[106.7582924,-6.277965],[106.7597952,-6.2781603],[106.7603381,-6.2779152],[106.7606383,-6.2778682],[106.7617112,-6.2778246],[106.7618961,-6.2778388],[106.7621876,-6.277861],[106.7622125,-6.2778629],[106.7621804,-6.2780391],[106.762108,-6.2786069],[106.7621004,-6.2786775],[106.7620525,-6.2789716],[106.7619936,-6.2793327],[106.7619783,-6.2794242],[106.7618868,-6.2798481],[106.7618678,-6.2799812],[106.7618563,-6.2800617],[106.7618486,-6.2801156],[106.7618105,-6.2802773],[106.7616504,-6.2810683],[106.7615532,-6.2814276],[106.7612578,-6.2825201],[106.7611526,-6.2829093],[106.761111,-6.283032],[106.761106,-6.2830477],[106.7609515,-6.2835369],[106.7608081,-6.2839909],[106.7607083,-6.2843071],[106.7606369,-6.2846186],[106.7605252,-6.2851057],[106.760488,-6.2851987],[106.7604382,-6.2853229],[106.7602122,-6.2860983],[106.7602085,-6.2861086],[106.7601029,-6.2864026],[106.7601098,-6.2864049],[106.7602515,-6.2864532],[106.7602546,-6.2864428],[106.7616411,-6.2868156],[106.7617431,-6.286591],[106.7618491,-6.2865962],[106.7618479,-6.2866005],[106.7623566,-6.2866438],[106.762339,-6.2869187],[106.7629335,-6.2868508],[106.7629509,-6.2868719],[106.7630524,-6.2878828],[106.7630588,-6.2881214],[106.7630543,-6.2881458],[106.7630686,-6.2887494],[106.763451,-6.2887669],[106.7634582,-6.2887643],[106.7634593,-6.2887639],[106.7659106,-6.2888371],[106.7659576,-6.2889541],[106.7659753,-6.2892523],[106.7659798,-6.2895239],[106.7663624,-6.2895239],[106.7665421,-6.2902884],[106.7665463,-6.2903394],[106.7665636,-6.2905483],[106.7665779,-6.2905761],[106.7666246,-6.2906671],[106.7666273,-6.2906724],[106.7666434,-6.290705],[106.7667086,-6.2908363],[106.7670366,-6.2913904],[106.7671816,-6.2915063],[106.767229,-6.2915178],[106.7673265,-6.2915416],[106.7676528,-6.2915507],[106.7676554,-6.2915554],[106.7676592,-6.2915509],[106.7677899,-6.2915545],[106.7677975,-6.2915718],[106.7678109,-6.2915551],[106.7678911,-6.2915573],[106.7680742,-6.2916684],[106.7680895,-6.2917047],[106.7681353,-6.2917919],[106.7681505,-6.2919045],[106.7681047,-6.291976],[106.7680299,-6.2920195],[106.7680161,-6.2920091],[106.7680183,-6.2920254],[106.7677537,-6.2921565],[106.7677233,-6.2921715],[106.7674944,-6.2923327],[106.7675173,-6.292399],[106.7676012,-6.2925091],[106.767975,-6.2928877],[106.76812,-6.293035],[106.7681429,-6.2930684],[106.7682573,-6.2932544],[106.7682573,-6.2933893],[106.7682039,-6.293531],[106.768059,-6.2937093],[106.7678911,-6.2939358],[106.7673571,-6.2946363],[106.767174,-6.294869],[106.7671435,-6.2949968],[106.767174,-6.2951555],[106.7672579,-6.2953124],[106.7673952,-6.2954908],[106.7675859,-6.2956667],[106.7679293,-6.2958346],[106.7682116,-6.2958999],[106.7687609,-6.2959294],[106.7687838,-6.2959228],[106.7689211,-6.2958903],[106.769211,-6.2957273],[106.7695314,-6.2955728],[106.7697146,-6.2955365],[106.7699129,-6.2955523],[106.7700808,-6.295619],[106.7701799,-6.2957239],[106.7701952,-6.2958136],[106.7701418,-6.2960339],[106.7700121,-6.2961912],[106.7698443,-6.2964373],[106.7697756,-6.296722],[106.7697375,-6.2970043],[106.7697375,-6.2972784],[106.7697985,-6.2975612],[106.7698595,-6.2976389],[106.7699816,-6.2977114],[106.7701494,-6.2977591],[106.7702791,-6.2977448],[106.7704088,-6.2976675],[106.7705309,-6.2975326],[106.7707064,-6.2973566],[106.7707598,-6.2973666],[106.7707903,-6.2974272],[106.7708361,-6.2976556],[106.770859,-6.2980051],[106.77092,-6.2984548],[106.7710344,-6.2987294],[106.7712023,-6.2989783],[106.7712862,-6.2990556],[106.7714006,-6.2990623],[106.7716219,-6.2990284],[106.7717669,-6.2989202],[106.7720034,-6.2987719],[106.7725374,-6.2984319],[106.7725832,-6.2984142],[106.7729418,-6.2982693],[106.7731707,-6.2982602],[106.773514,-6.2982817],[106.7735903,-6.2983461],[106.7737505,-6.2985707],[106.7737606,-6.2985974],[106.7738573,-6.2988525],[106.7739183,-6.2991133],[106.7739031,-6.2993298],[106.7738573,-6.2994571],[106.7737429,-6.2995315],[106.7736208,-6.2995515],[106.7734835,-6.299521],[106.7731859,-6.2993937],[106.7728884,-6.2992988],[106.7722933,-6.2991267],[106.7721102,-6.2991452],[106.7716448,-6.2992797],[106.7715227,-6.2993741],[106.7715075,-6.2994576],[106.7715456,-6.2995434],[106.7716295,-6.2995997],[106.7723772,-6.2999816],[106.7725298,-6.3001066],[106.772629,-6.3002768],[106.7727892,-6.3005514],[106.7730944,-6.3009591],[106.7731859,-6.301208],[106.7731783,-6.3013935],[106.7731249,-6.301498],[106.773041,-6.3015452],[106.7728502,-6.3015671],[106.7723467,-6.3015714],[106.7720644,-6.3015614],[106.7716372,-6.3015809],[106.7714388,-6.3016296],[106.7711641,-6.3017493],[106.7709658,-6.3018976],[106.7708666,-6.3020168],[106.770859,-6.3021054],[106.7709047,-6.3021989],[106.771065,-6.3024717],[106.7713091,-6.303062],[106.771454,-6.3031616],[106.7716295,-6.3032461],[106.7717516,-6.3032432],[106.7719195,-6.3032012],[106.7720339,-6.3031707],[106.7723391,-6.3030873],[106.7726595,-6.3030009],[106.7729113,-6.3029571],[106.7731783,-6.3029566],[106.773308,-6.3030019],[106.7734682,-6.3031202],[106.7735216,-6.3032155],[106.773514,-6.3033276],[106.773453,-6.3035574],[106.7733767,-6.3036914],[106.7733538,-6.3037324],[106.7731936,-6.3039499],[106.7728884,-6.3044114],[106.7728807,-6.3045058],[106.7729265,-6.304636],[106.7730257,-6.3047304],[106.7731554,-6.3047958],[106.7733233,-6.3047953],[106.773453,-6.3047538],[106.7735903,-6.304656],[106.7736895,-6.3045254],[106.7737581,-6.3043637],[106.7738497,-6.3041592],[106.7739565,-6.303884],[106.7741167,-6.3036056],[106.7743227,-6.3033767],[106.77446,-6.3032952],[106.7746279,-6.3032842],[106.7749025,-6.303309],[106.775078,-6.3034268],[106.775284,-6.3036132],[106.7755205,-6.3039136],[106.7755968,-6.3040748],[106.7756121,-6.3042302],[106.7755816,-6.304358],[106.7755129,-6.3044081],[106.7752611,-6.3045101],[106.7748568,-6.3046465],[106.7747957,-6.3047252],[106.7747805,-6.3048463],[106.7748186,-6.3051043],[106.7749407,-6.3052998],[106.7750704,-6.3054662],[106.7752001,-6.3056364],[106.7753222,-6.3058324],[106.7753603,-6.3060103],[106.7753342,-6.3061217],[106.7753298,-6.3061404],[106.7752688,-6.3061862],[106.7751543,-6.3061943],[106.7745668,-6.3061896],[106.7740862,-6.3063698],[106.7739641,-6.3064699],[106.773926,-6.3065629],[106.7739183,-6.3067007],[106.7739565,-6.3068653],[106.7741015,-6.3071256],[106.7743227,-6.3073793],[106.774666,-6.3077569],[106.7749178,-6.3080855],[106.7749712,-6.3082433],[106.7749636,-6.3083883],[106.7749025,-6.3085041],[106.7747194,-6.3087087],[106.7740862,-6.3090687],[106.7738726,-6.3091188],[106.7735216,-6.3092103],[106.7733461,-6.309319],[106.7732546,-6.3094268],[106.7732393,-6.3095341],[106.7732775,-6.309679],[106.7733538,-6.3097916],[106.7734987,-6.3099065],[106.7737124,-6.3100095],[106.7739183,-6.3100605],[106.7745745,-6.3101678],[106.7747271,-6.3102102],[106.7750628,-6.3103018],[106.7752535,-6.3104172],[106.7753374,-6.3105431],[106.7753222,-6.310637],[106.7752535,-6.3107123],[106.7750551,-6.3108311],[106.7748186,-6.3109903],[106.774605,-6.3111997],[106.7745287,-6.3112779],[106.7744677,-6.3113909],[106.7744524,-6.3115287],[106.7744829,-6.311739],[106.774605,-6.3120284],[106.7747194,-6.3121352],[106.7748186,-6.3121619],[106.7748198,-6.3121617],[106.7749407,-6.3121348],[106.7750628,-6.312057],[106.7752306,-6.3118735],[106.7753985,-6.3117299],[106.7756044,-6.3116527],[106.775902,-6.3116083],[106.7761232,-6.311615],[106.7763063,-6.3116841],[106.776436,-6.3117876],[106.7765352,-6.3119335],[106.7765429,-6.3120685],[106.7764513,-6.3130698],[106.776436,-6.3132859],[106.7764666,-6.3135267],[106.7766573,-6.3142381],[106.776726,-6.3149696],[106.7767794,-6.315229],[106.7768404,-6.3153143],[106.7769625,-6.3153563],[106.7771761,-6.3153982],[106.7778093,-6.3154555],[106.7782366,-6.3154731],[106.7784273,-6.3155184],[106.7794191,-6.3158789],[106.7796251,-6.3160353],[106.7797777,-6.3162007],[106.7798693,-6.3163466],[106.7799151,-6.3165026],[106.7798998,-6.3165441],[106.7798839,-6.3165709],[106.7798804,-6.3165768],[106.779793,-6.3166352],[106.7796328,-6.316669],[106.7794268,-6.3167253],[106.7790606,-6.3168535],[106.7789003,-6.3169708],[106.7788292,-6.3170501],[106.7786867,-6.3172088],[106.7785952,-6.3174],[106.7786028,-6.3174839],[106.7786103,-6.317491],[106.7786179,-6.317498],[106.7786562,-6.3175335],[106.7787725,-6.317577],[106.7789766,-6.3176532],[106.7791196,-6.3177079],[106.7792895,-6.3177729],[106.7793657,-6.3178635],[106.7793773,-6.3179025],[106.7794191,-6.3180437],[106.7794115,-6.3182149],[106.7793786,-6.3183289],[106.7793581,-6.3183999],[106.7792895,-6.3186589],[106.779246,-6.3188453],[106.7792055,-6.3190194],[106.7790606,-6.3193774],[106.778908,-6.3195992],[106.7788513,-6.3196834],[106.778763,-6.3198147],[106.778763,-6.3199547],[106.778763,-6.3199577],[106.7787644,-6.3199751],[106.7788012,-6.3204456],[106.7788522,-6.3206039],[106.7788851,-6.3207059],[106.7790071,-6.3209791],[106.7791778,-6.3212822],[106.7792406,-6.3214056],[106.7792375,-6.3214119],[106.7791979,-6.3214936],[106.7791394,-6.3215598],[106.7790529,-6.3216577],[106.7788144,-6.3219319],[106.7787249,-6.3220349],[106.7786562,-6.3221119],[106.7784884,-6.3223],[106.7781877,-6.3225828],[106.7779925,-6.3227663],[106.7778475,-6.3229904],[106.7777254,-6.323257],[106.7777254,-6.3232571],[106.7777407,-6.3233414],[106.7778017,-6.323401],[106.7779314,-6.3234654],[106.7781298,-6.3234945],[106.7785418,-6.323565],[106.7786486,-6.3236933],[106.7788164,-6.323987],[106.7788987,-6.32422],[106.7789614,-6.3246107],[106.7789558,-6.3247225],[106.7789537,-6.3247633],[106.7789537,-6.3247643],[106.7789537,-6.3247953],[106.7789472,-6.3250143],[106.7789414,-6.325078],[106.7789249,-6.3252148],[106.778908,-6.3253556],[106.7788825,-6.3255413],[106.7788622,-6.3256898],[106.77886,-6.3257739],[106.7788593,-6.3258024],[106.7788475,-6.3259365],[106.7788546,-6.3260369],[106.7788544,-6.3260503],[106.778854,-6.3260832],[106.77885,-6.3263046],[106.7788489,-6.3263633],[106.7788461,-6.3264886],[106.7788469,-6.3268714],[106.778807,-6.3269774],[106.7787706,-6.3270741],[106.7786791,-6.3271613],[106.7785672,-6.3271953],[106.7785265,-6.3272076],[106.7784353,-6.32721],[106.7783815,-6.3272114],[106.7782289,-6.3271604],[106.7781069,-6.3270693],[106.7777636,-6.3267341],[106.7775425,-6.3265712],[106.7775424,-6.3265711],[106.7775423,-6.326571],[106.7774126,-6.3265882],[106.7772575,-6.3266442],[106.7771761,-6.3266735],[106.777175,-6.3266745],[106.7771739,-6.3266755],[106.7767946,-6.3270059],[106.7767641,-6.3271103],[106.776787,-6.327199],[106.7767875,-6.3271994],[106.7767879,-6.3271997],[106.776848,-6.3272481],[106.7768949,-6.3272612],[106.7770082,-6.3272929],[106.7772371,-6.3273049],[106.7774121,-6.3273199],[106.7775042,-6.3273277],[106.7775888,-6.3273793],[106.77759,-6.3273801],[106.7775915,-6.327381],[106.7776119,-6.3274532],[106.7776186,-6.3274818],[106.777624,-6.327646],[106.7776262,-6.3277145],[106.7776281,-6.3277264],[106.7776299,-6.3277383],[106.7776339,-6.3277636],[106.777672,-6.3280554],[106.7777028,-6.3283584],[106.7777254,-6.3285814],[106.7777006,-6.3288252],[106.7776873,-6.3289566],[106.7776452,-6.3291296],[106.7775576,-6.3294897],[106.7774422,-6.3297774],[106.7773973,-6.3298893],[106.777381,-6.3299142],[106.7772448,-6.3301215],[106.7771723,-6.3302015],[106.7771223,-6.3302568],[106.777046,-6.330341],[106.7770152,-6.3303746],[106.7768099,-6.3304997],[106.7763903,-6.3307447],[106.77623,-6.3309179],[106.7761156,-6.3311467],[106.7760546,-6.3313971],[106.7760626,-6.3314341],[106.7760775,-6.3315025],[106.7761243,-6.3315499],[106.7761614,-6.3315873],[106.7763292,-6.3316784],[106.7764818,-6.3317695],[106.7766127,-6.331911],[106.7766344,-6.3319345],[106.776661,-6.3320126],[106.7766749,-6.3320536],[106.7766776,-6.3320613],[106.7766801,-6.3322274],[106.77668,-6.332228],[106.7766745,-6.3322674],[106.7766384,-6.3325033],[106.7765429,-6.3326511],[106.7764941,-6.332673],[106.7764437,-6.3326955],[106.7761766,-6.3327394],[106.7760097,-6.3327741],[106.7756349,-6.3328519],[106.7754213,-6.3329792],[106.77539,-6.3330075],[106.7752993,-6.3330894],[106.7752981,-6.3330952],[106.7752969,-6.333101],[106.775284,-6.3331628],[106.7752862,-6.333169],[106.7752884,-6.3331751],[106.7753145,-6.3332482],[106.775429,-6.3333631],[106.7756438,-6.3335738],[106.7757276,-6.3336568],[106.7757287,-6.3336587],[106.7757686,-6.3337281],[106.7758707,-6.3339053],[106.7759401,-6.3340259],[106.7759554,-6.3341418],[106.7759422,-6.3341698],[106.775902,-6.3342552],[106.7758548,-6.3343589],[106.7757418,-6.3346071],[106.7757418,-6.3348527],[106.7757471,-6.3349141],[106.7757647,-6.3351159],[106.7757467,-6.335213],[106.7757341,-6.3352814],[106.7757147,-6.3354475],[106.775757,-6.3355551],[106.775793,-6.3355754],[106.7758333,-6.335598],[106.7760326,-6.3356496],[106.776314,-6.3357225],[106.7763683,-6.3357864],[106.7764055,-6.3358302],[106.77642,-6.3359159],[106.7763542,-6.3359819],[106.7763487,-6.3359838],[106.7762682,-6.3360114],[106.7762228,-6.3360201],[106.7759401,-6.3360739],[106.7757658,-6.3361558],[106.7755587,-6.3362532],[106.7754569,-6.3362439],[106.7753908,-6.3362379],[106.7752039,-6.3361967],[106.7749559,-6.3361421],[106.7744982,-6.3360639],[106.7744219,-6.336124],[106.7743938,-6.3361829],[106.7743685,-6.336236],[106.7743722,-6.3362622],[106.7743837,-6.3363428],[106.7744715,-6.3365978],[106.7744906,-6.3366533],[106.7745325,-6.3367155],[106.7746203,-6.3368454],[106.7747985,-6.3370744],[106.7749636,-6.3372865],[106.7749899,-6.337383],[106.7750017,-6.3374262],[106.7749869,-6.3375088],[106.7749792,-6.3375513],[106.774979,-6.3375524],[106.7748949,-6.3377219],[106.7747805,-6.337863],[106.7747244,-6.3378903],[106.774666,-6.3379188],[106.77446,-6.3379455],[106.7728273,-6.3379459],[106.7726906,-6.3379832],[106.7726137,-6.3380041],[106.7724611,-6.3381043],[106.7724198,-6.3381737],[106.7724001,-6.3382068],[106.7723999,-6.3382107],[106.7723997,-6.3382146],[106.7723925,-6.3383446],[106.7724459,-6.3385305],[106.7724958,-6.3385648],[106.7725222,-6.338583],[106.7726366,-6.3385911],[106.7731401,-6.3385544],[106.773369,-6.3385735],[106.7735639,-6.3386455],[106.773568,-6.3386507],[106.7736208,-6.3387175],[106.7736666,-6.3388663],[106.7736463,-6.338925],[106.7736332,-6.338957],[106.7735369,-6.3390479],[106.7734085,-6.3391075],[106.7733767,-6.3391223],[106.7733361,-6.3391412],[106.7732799,-6.3391674],[106.7730868,-6.3392573],[106.773052,-6.3393198],[106.7730257,-6.3393669],[106.773041,-6.3394852],[106.7731325,-6.3397169],[106.7732056,-6.3398434],[106.7732775,-6.3399678],[106.7733334,-6.3401003],[106.7733538,-6.3401485],[106.7733538,-6.3403225],[106.7733202,-6.3404791],[106.7732851,-6.3406425],[106.7732558,-6.34073],[106.7732552,-6.3407318],[106.7731733,-6.3409702],[106.7731325,-6.3410888],[106.7730639,-6.3412771],[106.7729731,-6.3415346],[106.7729189,-6.3416882],[106.7729222,-6.3416963],[106.7729256,-6.3417045],[106.7729723,-6.3418188],[106.7731173,-6.3419972],[106.77324469535056,-6.342105905883822],[106.76926309402572,-6.342105905883822],[106.76926309402572,-6.34659748230442],[106.77325278069969,-6.34659748230442],[106.7732367,-6.346714],[106.7732317,-6.3467507],[106.7732373,-6.3468636],[106.7732546,-6.3472157],[106.7733156,-6.3473606],[106.7733837,-6.3474502],[106.7734453,-6.3475313],[106.7734518,-6.347538],[106.7734583,-6.3475446],[106.7734835,-6.3475704],[106.7735881,-6.3476605],[106.7736208,-6.3476887],[106.7738192,-6.3478942],[106.7738643,-6.3479994],[106.773865,-6.348145],[106.7738254,-6.3484351],[106.7738192,-6.3484812],[106.773805,-6.3486149],[106.773781,-6.3488417],[106.7737597,-6.3491853],[106.7737505,-6.3494891],[106.7737505,-6.3494897],[106.7737505,-6.3494899],[106.7737505,-6.3495641],[106.7737432,-6.3501023],[106.773743,-6.3501148],[106.7737115,-6.3501947],[106.7736818,-6.3502584],[106.7735064,-6.3504834],[106.7734063,-6.3505163],[106.7734054,-6.3505162],[106.773354,-6.3505108],[106.7732927,-6.3505044],[106.7730486,-6.3504105],[106.7728426,-6.3502574],[106.7725298,-6.3500319],[106.7723772,-6.3499832],[106.7722246,-6.3500033],[106.7721025,-6.3500877],[106.7720519,-6.3501602],[106.7720186,-6.3502078],[106.7719652,-6.3503867],[106.7718584,-6.3511882],[106.771866,-6.3515535],[106.7718737,-6.3518577],[106.7718765,-6.3519427],[106.7718889,-6.3523154],[106.7718789,-6.3523414],[106.771862,-6.3523851],[106.7718501,-6.3524142],[106.7717898,-6.3524228],[106.7717135,-6.3523712],[106.7714578,-6.3521586],[106.7712481,-6.3519841],[106.7711283,-6.3518994],[106.7710497,-6.3518439],[106.7708818,-6.3517452],[106.770775,-6.3517447],[106.7704928,-6.3518214],[106.7703324,-6.3519198],[106.7702486,-6.3519712],[106.7701342,-6.3521113],[106.7700273,-6.3523259],[106.7700197,-6.3524442],[106.7700361,-6.3526072],[106.7700731,-6.3529759],[106.7701241,-6.3531487],[106.770157,-6.3532605],[106.7703173,-6.3536282],[106.7705156,-6.3538952],[106.7707276,-6.3540647],[106.7709505,-6.3542452],[106.7710573,-6.3544212],[106.7710959,-6.3545433],[106.7711107,-6.3545904],[106.771126,-6.3546391],[106.7711219,-6.354667],[106.7711135,-6.3547244],[106.7711107,-6.354743],[106.7710268,-6.3549371],[106.7709994,-6.3549968],[106.7708742,-6.3552695],[106.770859,-6.3554721],[106.770892,-6.3556829],[106.77092,-6.3558617],[106.7709581,-6.3561273],[106.7710118,-6.3565173],[106.7710192,-6.3567209],[106.771065,-6.3571801],[106.7708666,-6.3571591],[106.7707293,-6.357141],[106.7704165,-6.357008],[106.7703642,-6.3569798],[106.7703173,-6.3569546],[106.7700831,-6.3567904],[106.7697985,-6.3565908],[106.7697069,-6.3565496],[106.769679,-6.3565371],[106.7696764,-6.3565359],[106.7693331,-6.3565731],[106.7691423,-6.3565984],[106.7690279,-6.3566132],[106.7690263,-6.3566138],[106.7690202,-6.3566163],[106.7689974,-6.3566256],[106.7673265,-6.3567171],[106.763817,-6.3566961],[106.7636645,-6.3567314],[106.7635653,-6.3567476],[106.7635042,-6.3567514],[106.7635031,-6.3567519],[106.7633669,-6.3568044],[106.7633647,-6.3568047],[106.7633514,-6.356807],[106.7633211,-6.356812],[106.7632913,-6.3568182],[106.7632296,-6.3568311],[106.7629168,-6.3569036],[106.7629031,-6.3569097],[106.7628328,-6.3569412],[106.7626351,-6.3569966],[106.7626116,-6.3570032],[106.7624968,-6.3570358],[106.7618334,-6.357224],[106.7612612,-6.3573799],[106.7609865,-6.3574848],[106.7608568,-6.357532],[106.7608568,-6.3576117],[106.7608278,-6.3576566],[106.76075,-6.3577771],[106.7606773,-6.3578389],[106.7606203,-6.3578873],[106.7602312,-6.3582373],[106.7602018,-6.3582508],[106.760071,-6.3583107],[106.7599337,-6.3583808],[106.7599271,-6.3583895],[106.7598879,-6.3584419],[106.7599794,-6.3588762],[106.76001,-6.3590379],[106.7600786,-6.3594241],[106.7601015,-6.3595891],[106.760071,-6.3596773],[106.7600702,-6.3596775],[106.7597698,-6.3597326],[106.75972,-6.3597417],[106.7596903,-6.3597488],[106.7596209,-6.3597655],[106.7595903,-6.3597875],[106.7595823,-6.3598092],[106.7595675,-6.359849],[106.7594683,-6.3601728],[106.7594652,-6.3602591],[106.7594606,-6.3603854],[106.7594408,-6.3606468],[106.7594301,-6.3607869],[106.7594292,-6.3607869],[106.7594283,-6.360787],[106.7586363,-6.3607909],[106.7580364,-6.3607938],[106.757488,-6.3607966],[106.756447,-6.3608017],[106.7556841,-6.3607411],[106.7553026,-6.3606897],[106.7551577,-6.3606701],[106.7550127,-6.3607283],[106.7549669,-6.3607626],[106.7548983,-6.3607693],[106.754677,-6.3607779],[106.754471,-6.360765],[106.7541582,-6.3607655],[106.7532885,-6.3607555],[106.7530443,-6.3607011],[106.7529375,-6.3606663],[106.752968,-6.3604817],[106.752968,-6.3604031],[106.7528917,-6.3603559],[106.7524797,-6.3603525],[106.7523272,-6.360353],[106.7522356,-6.3603239],[106.7519228,-6.3600736],[106.7517473,-6.3599458],[106.7517092,-6.3599448],[106.7516787,-6.3599877],[106.7515795,-6.3601193],[106.7515642,-6.3601594],[106.7514956,-6.3601966],[106.7513964,-6.3603001],[106.7513506,-6.3604107],[106.7506258,-6.3604083],[106.7506029,-6.3604188],[106.750519,-6.3604298],[106.7504274,-6.3604198],[106.7502138,-6.3604098],[106.7500002,-6.3604856],[106.7499468,-6.3605194],[106.7496569,-6.3606482],[106.749489,-6.3607445],[106.749367,-6.3608146],[106.7492601,-6.3608789],[106.7490084,-6.3609753],[106.7487948,-6.3610458],[106.7485811,-6.3610668],[106.7484451,-6.3610576],[106.7481386,-6.3610368],[106.7479822,-6.361017],[106.7470552,-6.3608871],[106.7455904,-6.3607416],[106.7418264,-6.3607027],[106.7408373,-6.3606925],[106.7384844,-6.3604946],[106.7370378,-6.3604243],[106.73613,-6.3603802],[106.7358926,-6.3603763],[106.7333681,-6.3603354],[106.732701,-6.3605082],[106.7317414,-6.3605075],[106.7308213,-6.3605079],[106.7308206,-6.3605079],[106.7308199,-6.3605079],[106.7307344,-6.3605002],[106.7297648,-6.3604121],[106.7283156,-6.3602803],[106.7268068,-6.3601432],[106.7261256,-6.3601153],[106.7242434,-6.3600383],[106.7241587,-6.3600504],[106.7233347,-6.3601688],[106.7225496,-6.3602815],[106.7224022,-6.3603076],[106.7217932,-6.3604153],[106.7217707,-6.3604297],[106.7214663,-6.3604731],[106.720639,-6.3605472],[106.7206347,-6.3605476],[106.7205279,-6.3604817],[106.7205137,-6.3604781],[106.7203371,-6.3604331],[106.720215,-6.3604179],[106.7201845,-6.3604183],[106.7199633,-6.3604488],[106.7197649,-6.3605404],[106.7196123,-6.3606796],[106.7195589,-6.3608141],[106.7195971,-6.3608713],[106.7197191,-6.3610554],[106.7196896,-6.3612647],[106.719681,-6.3613262],[106.719536,-6.3617854],[106.7194292,-6.3619504],[106.7193071,-6.3620334],[106.7191774,-6.3620725],[106.7190172,-6.3620376],[106.7186281,-6.3618593],[106.7185824,-6.3617482],[106.7185289,-6.3614755],[106.7184145,-6.3613668],[106.7183764,-6.3612914],[106.7183878,-6.3612099],[106.7176134,-6.3612509],[106.7154009,-6.3608213],[106.7113802,-6.3601861],[106.7108679,-6.3601674],[106.7081402,-6.3600678],[106.7070162,-6.3600268],[106.7030037,-6.360245],[106.7009661,-6.3603558],[106.6994827,-6.3599786],[106.6985247,-6.359735],[106.6975145,-6.3594075],[106.6974261,-6.3593788],[106.6964647,-6.3592896],[106.6964591,-6.3592891],[106.6962969,-6.3592739],[106.694792,-6.3592175],[106.693434,-6.3591665],[106.6925204,-6.3591323],[106.6903918,-6.359075],[106.689508,-6.3590369],[106.6876223,-6.3589554],[106.6852207,-6.3589406],[106.6842959,-6.3589348],[106.6842827,-6.3589343],[106.6791918,-6.3587079],[106.675592,-6.3586726],[106.6755907,-6.3586726],[106.6721037,-6.3584259],[106.6715395,-6.358386],[106.6698305,-6.358408],[106.6678698,-6.3579426],[106.6674352,-6.3579386]]],[[[106.7738115,-6.3447514],[106.774338,-6.3447723],[106.7743761,-6.3448329],[106.7743724,-6.3448512],[106.7743666,-6.3448793],[106.7743532,-6.344944],[106.7742769,-6.345098],[106.7740938,-6.345407],[106.7741854,-6.3455057],[106.7743858,-6.3457395],[106.7744371,-6.3457994],[106.7744255,-6.3458288],[106.774399,-6.3458958],[106.7742937,-6.3460161],[106.7742155,-6.3460466],[106.7741549,-6.3460693],[106.7738726,-6.3461309],[106.77375467044632,-6.346138715858983],[106.77375467044632,-6.344749571158583],[106.7738115,-6.3447514]]]],"type":"MultiPolygon"},"properties":{"fid":2418966,"KELAS":"ZONA PANAS","CLASS":"HOT ZONE","TEMPERATUR":"≥ 32⁰ C"}}]}