{"type":"FeatureCollection","features":[{"type":"Feature","geometry":{"coordinates":[[[[106.8118746,-6.2198277],[106.8118364,-6.2198639],[106.8117449,-6.2199369],[106.8116991,-6.2199741],[106.8116686,-6.2199884],[106.8115312,-6.2200766],[106.8109591,-6.2205372],[106.810158,-6.221179],[106.8100817,-6.2212468],[106.8099825,-6.2213254],[106.809952,-6.2213536],[106.8099062,-6.2213946],[106.8098299,-6.2214475],[106.8097841,-6.2214737],[106.809601,-6.2215977],[106.8094256,-6.2217093],[106.8092501,-6.2218428],[106.809067,-6.2219945],[106.8089449,-6.2220893],[106.8088457,-6.2221594],[106.8086321,-6.2223144],[106.8082811,-6.2226072],[106.8077166,-6.2230025],[106.8074343,-6.2231822],[106.807007,-6.2234278],[106.806473,-6.2237449],[106.8063967,-6.2237993],[106.8059847,-6.2240978],[106.8055956,-6.2243362],[106.8053591,-6.224525],[106.8052065,-6.2246519],[106.8050258,-6.224769],[106.8049166,-6.2248397],[106.804764,-6.2249313],[106.8045504,-6.225142],[106.8042681,-6.225348],[106.8038103,-6.2256627],[106.803322,-6.2260318],[106.8030703,-6.2262502],[106.8030245,-6.2262927],[106.802994,-6.226317],[106.8029605,-6.2263425],[106.8017809,-6.2272401],[106.8016283,-6.2273522],[106.8013765,-6.2275358],[106.8011858,-6.2276831],[106.8010332,-6.2277985],[106.800873,-6.227902],[106.8007433,-6.2279964],[106.7998964,-6.2286921],[106.7996218,-6.2289591],[106.7995913,-6.2289973],[106.7994692,-6.2289753],[106.7993013,-6.2290054],[106.7992425,-6.2290716],[106.7992403,-6.229074],[106.7992394,-6.2290732],[106.7991411,-6.2289873],[106.7986681,-6.2288614],[106.7984697,-6.2288351],[106.7983324,-6.2288533],[106.7982409,-6.2288919],[106.7977373,-6.2292104],[106.7976915,-6.22924],[106.7976153,-6.2292695],[106.7975237,-6.2293048],[106.7973787,-6.2293001],[106.7973482,-6.2293001],[106.7973177,-6.2292963],[106.7970049,-6.2292748],[106.796364,-6.2292853],[106.7963335,-6.2292853],[106.7960283,-6.2292791],[106.7957918,-6.2292686],[106.7957537,-6.2291575],[106.7957232,-6.2290559],[106.7957766,-6.2288585],[106.7958147,-6.2287555],[106.7956621,-6.2285414],[106.7956163,-6.2284151],[106.7958834,-6.2278133],[106.796158,-6.2271943],[106.7962954,-6.226851],[106.796364,-6.2265387],[106.796303,-6.2251449],[106.7960436,-6.2238822],[106.7960894,-6.2232385],[106.7960908,-6.2232299],[106.7962954,-6.2219544],[106.7965242,-6.2206941],[106.7966387,-6.220069],[106.7968142,-6.219173],[106.7968523,-6.2187791],[106.7968575,-6.2187019],[106.7968599,-6.2186671],[106.7968676,-6.2184596],[106.7968447,-6.2181683],[106.7967913,-6.2180043],[106.7966234,-6.2176142],[106.7964556,-6.2172599],[106.7962877,-6.2169013],[106.7961351,-6.2166252],[106.7960736,-6.2163999],[106.7961454,-6.216163],[106.7962256,-6.2160444],[106.7962735,-6.2159124],[106.7962517,-6.2158157],[106.7962025,-6.2155738],[106.7960741,-6.215168],[106.7958223,-6.2146364],[106.7956621,-6.2143159],[106.7956392,-6.2142663],[106.7955629,-6.2141047],[106.7955418,-6.2140802],[106.7954635,-6.2139897],[106.7953826,-6.2138931],[106.7953569,-6.2135673],[106.7953951,-6.2129598],[106.7954103,-6.2129097],[106.795418,-6.2128635],[106.795454,-6.2127688],[106.7956621,-6.212708],[106.7957384,-6.2126108],[106.7957613,-6.212493],[106.7956182,-6.2123697],[106.7955762,-6.2123569],[106.7953905,-6.2122876],[106.7951586,-6.2122069],[106.7951204,-6.2121854],[106.794995,-6.2121276],[106.7948199,-6.2120126],[106.7948087,-6.2120029],[106.7947013,-6.2119108],[106.7945864,-6.2118445],[106.7944326,-6.211909],[106.794327,-6.2119365],[106.7941591,-6.2119823],[106.7940135,-6.21194],[106.7939916,-6.2118244],[106.7939303,-6.211711],[106.7938138,-6.2116879],[106.7936607,-6.2116992],[106.7935023,-6.2117454],[106.7934297,-6.2117322],[106.7934231,-6.2117118],[106.7934107,-6.2116731],[106.7934319,-6.2116058],[106.7936403,-6.2114907],[106.7937166,-6.2114272],[106.79371,-6.2111988],[106.7936861,-6.2109733],[106.7936022,-6.2108493],[106.793236,-6.2105804],[106.7930734,-6.210491],[106.7929578,-6.2104537],[106.7928177,-6.2103601],[106.7927782,-6.2102933],[106.7927019,-6.2102094],[106.7927172,-6.2098208],[106.792679,-6.2096086],[106.7925951,-6.2093916],[106.7924959,-6.2092572],[106.7923565,-6.2091691],[106.7920475,-6.2090772],[106.7919075,-6.2089863],[106.7918345,-6.2088521],[106.7917992,-6.2087581],[106.7918765,-6.2085615],[106.7919805,-6.2083299],[106.7921251,-6.2081761],[106.7922747,-6.2080155],[106.7923815,-6.2078104],[106.7923891,-6.207788],[106.7925417,-6.2078281],[106.7929079,-6.2077957],[106.7930147,-6.2077752],[106.7932207,-6.2077623],[106.7939989,-6.2077022],[106.7947008,-6.207666],[106.795006,-6.2076431],[106.7956316,-6.2076145],[106.796005,-6.2075853],[106.7960588,-6.2075811],[106.7961962,-6.206811],[106.7963335,-6.206266],[106.7964632,-6.2059088],[106.7965853,-6.2055669],[106.7965929,-6.2054992],[106.7968523,-6.2046914],[106.7968905,-6.2045689],[106.7971422,-6.204031],[106.7971956,-6.2039156],[106.7972796,-6.2038002],[106.7973329,-6.2037273],[106.7973635,-6.203672],[106.7975618,-6.203363],[106.7976305,-6.2032667],[106.7976534,-6.2032433],[106.7977144,-6.203137],[106.7978441,-6.2029767],[106.7980349,-6.2028003],[106.798134,-6.2026816],[106.7984774,-6.2023845],[106.7985155,-6.2023521],[106.7988817,-6.2021075],[106.798958,-6.2020521],[106.7990648,-6.2019954],[106.79937,-6.2016988],[106.799408,-6.2016556],[106.7994081,-6.2016554],[106.799431,-6.2015047],[106.7995531,-6.2011147],[106.799576,-6.2010417],[106.7996142,-6.2010041],[106.7998201,-6.2007056],[106.8000872,-6.2003904],[106.8002932,-6.2002111],[106.8005602,-6.200059],[106.8005983,-6.200037],[106.8007509,-6.1999755],[106.8014223,-6.199698],[106.8014833,-6.1996694],[106.8016359,-6.1995936],[106.801819,-6.1994896],[106.8026201,-6.1991096],[106.8026659,-6.1990834],[106.8028719,-6.1989417],[106.8030092,-6.1988283],[106.8031389,-6.1986323],[106.8034441,-6.1980624],[106.8035662,-6.1978813],[106.8036196,-6.1978274],[106.8036882,-6.1977921],[106.8041155,-6.1975189],[106.8042833,-6.1973405],[106.8042942,-6.1973201],[106.8043215,-6.1972685],[106.8044054,-6.1971331],[106.8045199,-6.1969366],[106.8046343,-6.1967154],[106.8047945,-6.1964164],[106.8048073,-6.1963896],[106.8048097,-6.1963845],[106.8050844,-6.1956273],[106.8050921,-6.1955524],[106.8052752,-6.1944366],[106.8052781,-6.1944157],[106.8053591,-6.1938491],[106.8054201,-6.1933036],[106.8054735,-6.1928396],[106.805504,-6.1927577],[106.805876,-6.1918401],[106.805916,-6.1917415],[106.8059466,-6.1916957],[106.8060534,-6.1914716],[106.8062822,-6.1908823],[106.8064425,-6.1903515],[106.806473,-6.1902066],[106.8065187,-6.1899991],[106.8067244,-6.1891372],[106.8067247,-6.1891361],[106.8067476,-6.189106],[106.8068621,-6.1889949],[106.8070452,-6.1889325],[106.8071444,-6.1889005],[106.8074037,-6.188871],[106.8079683,-6.1888204],[106.8080834,-6.1888134],[106.808304,-6.1887999],[106.8088152,-6.1887346],[106.8094103,-6.1886983],[106.8095324,-6.1886979],[106.8103029,-6.1886788],[106.8105471,-6.1887098],[106.8106492,-6.1887225],[106.8106539,-6.1887231],[106.8106567,-6.1886976],[106.8106768,-6.1885176],[106.8106768,-6.1883493],[106.8106615,-6.1879945],[106.8105776,-6.1874171],[106.8105013,-6.1868391],[106.8104708,-6.1863137],[106.8104248,-6.185812],[106.8104021,-6.185565],[106.8103264,-6.1849645],[106.8103258,-6.1849594],[106.8103106,-6.1847902],[106.8102419,-6.1841207],[106.8101809,-6.1835123],[106.8101764,-6.1834201],[106.8101735,-6.1833596],[106.8101669,-6.1832211],[106.8101656,-6.1831942],[106.8101587,-6.1831158],[106.8101423,-6.1829291],[106.8101267,-6.1827509],[106.8101198,-6.182673],[106.8100588,-6.1821957],[106.810013,-6.181501],[106.8100114,-6.181482],[106.8099982,-6.1813301],[106.8099977,-6.181325],[106.8099891,-6.181217],[106.8099367,-6.1805602],[106.8098604,-6.1801119],[106.809807,-6.1797934],[106.8097875,-6.1797343],[106.8097307,-6.1795621],[106.8096315,-6.1793018],[106.8094713,-6.179071],[106.8092653,-6.1788254],[106.8090899,-6.1785946],[106.8088839,-6.17832],[106.8086245,-6.177959],[106.8082354,-6.1774106],[106.8079454,-6.1770082],[106.8079284,-6.1769851],[106.8075487,-6.1764708],[106.8067552,-6.1753831],[106.8065569,-6.1750946],[106.8064806,-6.1749239],[106.8063433,-6.1747408],[106.8061754,-6.1744786],[106.8060285,-6.1742522],[106.8059542,-6.1741376],[106.8056337,-6.1737185],[106.8054735,-6.1734929],[106.805471,-6.1734893],[106.8051684,-6.17305],[106.8048555,-6.172565],[106.8045504,-6.1721063],[106.8042223,-6.1716605],[106.8039934,-6.1713114],[106.8037874,-6.1710329],[106.8033297,-6.1703463],[106.8030321,-6.1699081],[106.8025896,-6.1693011],[106.8020937,-6.1685849],[106.8015291,-6.167769],[106.8011858,-6.1672912],[106.8009493,-6.1669498],[106.8007814,-6.1667328],[106.8005373,-6.1663251],[106.8003088,-6.16599],[106.8003084,-6.1659895],[106.8002703,-6.1659303],[106.800049,-6.1655732],[106.7997286,-6.1650634],[106.799538,-6.1647192],[106.7994463,-6.1645537],[106.7992556,-6.1641584],[106.7990496,-6.1637245],[106.7988131,-6.1631122],[106.7987891,-6.1630365],[106.7985994,-6.1624375],[106.7984163,-6.1619945],[106.7981493,-6.1613846],[106.7981513,-6.1613838],[106.7982866,-6.1613264],[106.7983477,-6.1612988],[106.7985155,-6.1612401],[106.7986147,-6.1611863],[106.8002398,-6.1604744],[106.8004204,-6.1603575],[106.8006136,-6.1602326],[106.8008806,-6.1599551],[106.8009874,-6.1597863],[106.8011934,-6.1593824],[106.8013155,-6.159009],[106.8013765,-6.1585255],[106.8013842,-6.1583777],[106.8013994,-6.158269],[106.8014147,-6.1581278],[106.8014299,-6.158043],[106.80143,-6.1580436],[106.8014605,-6.1583167],[106.8015902,-6.1601124],[106.8016894,-6.160141],[106.8017733,-6.1601401],[106.8018167,-6.1601398],[106.8018496,-6.1601396],[106.8019716,-6.1601992],[106.8020479,-6.1603074],[106.8021853,-6.1605573],[106.8023836,-6.1608453],[106.8025972,-6.1610828],[106.8027422,-6.1611982],[106.8030932,-6.1614642],[106.803261,-6.1615396],[106.8035967,-6.1616574],[106.8040087,-6.1617446],[106.8045718,-6.1617972],[106.8045809,-6.161798],[106.8047029,-6.1617909],[106.8054201,-6.1617031],[106.8054582,-6.1616946],[106.8058092,-6.161604],[106.8061678,-6.1615706],[106.8062576,-6.1615663],[106.8062975,-6.1615644],[106.8065187,-6.1615391],[106.8069078,-6.1615029],[106.8073809,-6.1614543],[106.8076098,-6.1614214],[106.8079989,-6.1613813],[106.8079999,-6.1613811],[106.8080435,-6.1613717],[106.8081591,-6.161347],[106.8084642,-6.1612998],[106.8086931,-6.1612654],[106.8092272,-6.1611877],[106.8095705,-6.1611557],[106.8097002,-6.1611381],[106.809731,-6.1611277],[106.8097384,-6.1611252],[106.8101046,-6.1610227],[106.8103106,-6.1609221],[106.8105394,-6.1608477],[106.8106539,-6.1608363],[106.8107002,-6.1608284],[106.8107073,-6.1608272],[106.8107531,-6.1608201],[106.8108522,-6.1608039],[106.8110888,-6.1607705],[106.8114931,-6.1607018],[106.8118593,-6.1606913],[106.8119299,-6.1606984],[106.8119585,-6.1607013],[106.8123705,-6.1606994],[106.8125612,-6.1606999],[106.8126833,-6.160686],[106.8127825,-6.1606775],[106.8128072,-6.1606758],[106.8128588,-6.1606722],[106.8128893,-6.1606698],[106.8132708,-6.1606417],[106.8134157,-6.1606269],[106.8137514,-6.160574],[106.81514,-6.1604324],[106.8159029,-6.1602531],[106.8162539,-6.1601959],[106.8166124,-6.1601253],[106.8174593,-6.1600085],[106.8175966,-6.159977],[106.818123,-6.1598912],[106.818825,-6.1597877],[106.8190157,-6.1597572],[106.8190191,-6.1597567],[106.8191835,-6.1597314],[106.8192827,-6.1596985],[106.8196794,-6.1596103],[106.8202822,-6.1595483],[106.8203432,-6.1595512],[106.8206331,-6.1596008],[106.8209154,-6.1596885],[106.82148,-6.1598635],[106.8216707,-6.1599575],[106.821953,-6.1600595],[106.8220064,-6.1600733],[106.8223421,-6.1601906],[106.8228914,-6.1603976],[106.8233034,-6.1605716],[106.8234865,-6.1606245],[106.8236467,-6.1606641],[106.824013,-6.1607852],[106.8244936,-6.1609679],[106.8246233,-6.1610227],[106.8249514,-6.1611205],[106.8249971,-6.1611324],[106.8253939,-6.1612807],[106.8257448,-6.1614051],[106.8261721,-6.1615796],[106.8261876,-6.1615845],[106.8262636,-6.1616083],[106.8264467,-6.1616569],[106.8266298,-6.1617237],[106.8267299,-6.1617569],[106.8267977,-6.1617794],[106.8273012,-6.1619735],[106.8278505,-6.1621342],[106.8279268,-6.1621414],[106.8280031,-6.1621633],[106.8283083,-6.1622529],[106.8282912,-6.1622242],[106.8280337,-6.1617909],[106.8279421,-6.1616288],[106.827759,-6.1611758],[106.827614,-6.1607052],[106.8274691,-6.1599446],[106.8274614,-6.1598096],[106.8274309,-6.1590362],[106.827427,-6.1582687],[106.8274233,-6.1575504],[106.8274233,-6.157547],[106.8274157,-6.15723],[106.8274019,-6.1565859],[106.8273796,-6.1555471],[106.8273775,-6.1554495],[106.8273485,-6.1540621],[106.8273394,-6.1536265],[106.8272936,-6.1523214],[106.8272478,-6.1519242],[106.8272319,-6.1517636],[106.8271298,-6.1507312],[106.8271105,-6.1505361],[106.8269426,-6.1497508],[106.8268969,-6.1494489],[106.8268282,-6.1489859],[106.8267977,-6.1488672],[106.8267748,-6.1487036],[106.8267214,-6.1485181],[106.8267197,-6.1485124],[106.8266451,-6.1482625],[106.8265535,-6.1478854],[106.8263323,-6.1470457],[106.8261948,-6.1467404],[106.8259813,-6.1462665],[106.8254778,-6.1453348],[106.8251726,-6.1448231],[106.8249895,-6.1445184],[106.8248445,-6.1442924],[106.8248066,-6.1442295],[106.824074,-6.1430154],[106.8238832,-6.1427055],[106.8238527,-6.1426588],[106.8238128,-6.1426101],[106.8238069,-6.142603],[106.8237748,-6.1425541],[106.8237612,-6.1425334],[106.8232042,-6.1415863],[106.8226397,-6.1404653],[106.8226092,-6.1403995],[106.8225634,-6.140286],[106.8225535,-6.1402621],[106.8225176,-6.1401749],[106.8223955,-6.1397858],[106.822304,-6.1394992],[106.8221972,-6.1391216],[106.8221209,-6.1388598],[106.8220293,-6.1385632],[106.8218386,-6.1377287],[106.8217928,-6.1375785],[106.8216478,-6.1373129],[106.8213884,-6.1369906],[106.821274,-6.1368709],[106.8214113,-6.1368423],[106.8223726,-6.1366911],[106.822838,-6.1366211],[106.8230898,-6.1365924],[106.8233645,-6.1365662],[106.8249132,-6.1363469],[106.8251421,-6.1363211],[106.8255312,-6.1362439],[106.8255995,-6.1362379],[106.8256075,-6.1362372],[106.8257982,-6.1362176],[106.8259835,-6.1361865],[106.8261644,-6.1361561],[106.8262636,-6.1361466],[106.8267138,-6.1360779],[106.8272173,-6.1359749],[106.8272631,-6.1359673],[106.828026,-6.1358457],[106.8280718,-6.1358405],[106.8284304,-6.1357484],[106.8286287,-6.1356955],[106.8287279,-6.1356688],[106.8287661,-6.1356545],[106.828972,-6.1356178],[106.8292238,-6.1355906],[106.8294756,-6.1355625],[106.8300554,-6.13547],[106.8301317,-6.1354495],[106.8305742,-6.1353436],[106.8306658,-6.1353212],[106.8306697,-6.1353754],[106.8306734,-6.1354275],[106.8306734,-6.1359673],[106.8306505,-6.1377483],[106.8306429,-6.1380988],[106.8306505,-6.1390014],[106.8307268,-6.1395402],[106.8307268,-6.1395665],[106.8308031,-6.13974],[106.8311769,-6.140411],[106.8314898,-6.1407796],[106.8316444,-6.1408892],[106.8316737,-6.14091],[106.8316768,-6.1409122],[106.8321306,-6.141234],[106.8324663,-6.141377],[106.8328173,-6.1415177],[106.8328783,-6.1415172],[106.8329088,-6.1415277],[106.8330462,-6.141573],[106.8330507,-6.1415745],[106.8331759,-6.1416159],[106.8332369,-6.1416364],[106.8333818,-6.1416717],[106.8334887,-6.141717],[106.8339693,-6.1419616],[106.8342669,-6.1421023],[106.8348238,-6.1424447],[106.8352053,-6.1427584],[106.8356707,-6.1431718],[106.8359072,-6.1434627],[106.8359087,-6.1434649],[106.8363497,-6.1440931],[106.8367617,-6.1449423],[106.8369143,-6.1454178],[106.837044,-6.1458903],[106.8371126,-6.1461111],[106.8371116,-6.1460764],[106.8371077,-6.1459415],[106.8370897,-6.14533],[106.8371126,-6.1450539],[106.8372728,-6.1444932],[106.8374202,-6.1440977],[106.8377077,-6.1433263],[106.8380587,-6.1424966],[106.8381884,-6.1421862],[106.8382875,-6.1419149],[106.8383181,-6.1418634],[106.8383486,-6.1418095],[106.8383562,-6.1417847],[106.8383927,-6.1418042],[106.8383981,-6.1418071],[106.8385088,-6.1418663],[106.838511,-6.1418675],[106.8386321,-6.1419338],[106.8388292,-6.1420417],[106.8388311,-6.1420428],[106.8398821,-6.1426173],[106.8398901,-6.1426213],[106.8399278,-6.1426402],[106.8403551,-6.1428867],[106.8411118,-6.1432955],[106.8414633,-6.1434854],[106.841942,-6.1437441],[106.8420565,-6.1438103],[106.8420681,-6.1438173],[106.8421197,-6.1438479],[106.8430941,-6.1444264],[106.8431201,-6.1444416],[106.843384,-6.1445952],[106.8438875,-6.1448765],[106.8439257,-6.1449009],[106.8440228,-6.1449644],[106.8440553,-6.1449857],[106.8435518,-6.1456948],[106.8432848,-6.1460601],[106.8431475,-6.1463428],[106.8431093,-6.1465221],[106.8431246,-6.1466866],[106.8431932,-6.1467796],[106.8433458,-6.1469718],[106.8434526,-6.1471873],[106.8433916,-6.1472874],[106.8428728,-6.1478968],[106.8423617,-6.1484471],[106.8422701,-6.1486612],[106.8422654,-6.1486739],[106.8419725,-6.1494685],[106.8417894,-6.1499162],[106.8415453,-6.1503382],[106.8413317,-6.1506854],[106.8411944,-6.1510697],[106.8412315,-6.1513239],[106.8412477,-6.151435],[106.8413012,-6.1519228],[106.8413393,-6.1520954],[106.8420641,-6.1526232],[106.8425905,-6.1529313],[106.8428118,-6.153092],[106.8434755,-6.1535712],[106.8435652,-6.153651],[106.8435671,-6.1536527],[106.8446581,-6.1540356],[106.8448793,-6.1538616],[106.8450472,-6.1537705],[106.8456957,-6.1535206],[106.8460543,-6.1534477],[106.8466188,-6.1533509],[106.847069,-6.1532732],[106.8471377,-6.1532651],[106.8476259,-6.1531992],[106.8488619,-6.1530171],[106.8488924,-6.1530152],[106.8497164,-6.152875],[106.8498842,-6.1528555],[106.8501131,-6.1528073],[106.8503573,-6.1527711],[106.8503601,-6.1527707],[106.8503862,-6.1527672],[106.8506472,-6.152732],[106.8508226,-6.152711],[106.8510439,-6.1526709],[106.8517687,-6.1525551],[106.8517992,-6.1525522],[106.852463,-6.1523872],[106.8526003,-6.1523777],[106.8531115,-6.1523109],[106.8534014,-6.1522599],[106.8535692,-6.1522413],[106.8542711,-6.1521626],[106.8544771,-6.1520954],[106.8548815,-6.15201],[106.8551003,-6.1519818],[106.8552582,-6.1519615],[106.85627,-6.1518312],[106.8565371,-6.1518541],[106.8566812,-6.1518241],[106.8574979,-6.1522674],[106.8584957,-6.1528091],[106.858521,-6.1528049],[106.8592168,-6.1526914],[106.859823,-6.1526161],[106.860481,-6.152394],[106.8609181,-6.1517959],[106.8609502,-6.1509347],[106.8611603,-6.1508909],[106.8611605,-6.1508909],[106.8611986,-6.1512218],[106.8611605,-6.1515861],[106.8610842,-6.1519671],[106.860985,-6.1523319],[106.8608782,-6.152649],[106.8607637,-6.1529437],[106.8606188,-6.1532679],[106.8604433,-6.1535774],[106.8602983,-6.1537548],[106.8601763,-6.1538435],[106.8613841,-6.1545381],[106.8620106,-6.1548985],[106.8620989,-6.1549493],[106.8621446,-6.1549655],[106.8623506,-6.1550413],[106.863228,-6.155531],[106.8637621,-6.1558328],[106.8641948,-6.1560677],[106.8648989,-6.1564499],[106.8652956,-6.1566544],[106.865349,-6.1566821],[106.8657991,-6.1569191],[106.8660204,-6.1570516],[106.8663703,-6.1572415],[106.8665385,-6.1573328],[106.8668596,-6.1575475],[106.8668609,-6.1575482],[106.8678056,-6.1580416],[106.8678229,-6.1580503],[106.8680651,-6.1581736],[106.8683245,-6.1583372],[106.8688585,-6.1586791],[106.8688772,-6.1586898],[106.8692018,-6.1588765],[106.8695375,-6.1590453],[106.869858,-6.1592141],[106.8701177,-6.1593707],[106.8702089,-6.1594258],[106.8704454,-6.1595593],[106.8706438,-6.1596609],[106.870888,-6.1597911],[106.8724367,-6.160677],[106.8727571,-6.1608778],[106.8731004,-6.1610847],[106.8742678,-6.1617871],[106.8750002,-6.1622339],[106.8750917,-6.1622892],[106.8752901,-6.1624466],[106.8753615,-6.1624927],[106.8756929,-6.162707],[106.8760225,-6.1629201],[106.8763887,-6.1631637],[106.876877,-6.1634942],[106.8770067,-6.1635371],[106.8775026,-6.1634708],[106.878258,-6.1633054],[106.8785173,-6.1632319],[106.8788836,-6.1631338],[106.8794634,-6.1629687],[106.8798631,-6.1628731],[106.8799898,-6.1628428],[106.880169,-6.1628],[106.880205,-6.1627914],[106.8802753,-6.1627745],[106.8805162,-6.162717],[106.8805898,-6.1627025],[106.8807389,-6.1626732],[106.8808734,-6.1626306],[106.8809084,-6.1626195],[106.8810537,-6.162598],[106.8811995,-6.1625488],[106.8813275,-6.1625002],[106.881432,-6.1624789],[106.8812897,-6.1626843],[106.8811803,-6.1627946],[106.8811147,-6.1628806],[106.8810491,-6.1630134],[106.8808592,-6.1633977],[106.8805747,-6.1639057],[106.8799059,-6.1649007],[106.8797239,-6.1651165],[106.8795634,-6.1653214],[106.8794461,-6.16558],[106.8792431,-6.1659142],[106.8790655,-6.1661289],[106.8790413,-6.1661496],[106.8789004,-6.1662703],[106.8786727,-6.1664402],[106.8786699,-6.166451],[106.8788073,-6.1664634],[106.878731,-6.166596],[106.8783266,-6.1674586],[106.8781359,-6.1679206],[106.8778536,-6.1688629],[106.8777315,-6.169324],[106.8775484,-6.1700855],[106.8770525,-6.1718164],[106.8765947,-6.1735593],[106.876198,-6.1753245],[106.8761141,-6.1756797],[106.8760836,-6.1758858],[106.8760301,-6.1763383],[106.8759996,-6.1765733],[106.8759834,-6.1770635],[106.8759767,-6.1772633],[106.8759157,-6.1780358],[106.8758013,-6.1793099],[106.8757555,-6.1800037],[106.8757173,-6.1812564],[106.8756827,-6.1817697],[106.8755953,-6.1830631],[106.8755114,-6.1848517],[106.8754885,-6.1856151],[106.8754122,-6.1874042],[106.8753893,-6.1878892],[106.8754045,-6.1879335],[106.8753664,-6.1881676],[106.8753664,-6.188168],[106.8753511,-6.1883279],[106.8753359,-6.1887432],[106.8753435,-6.1891804],[106.8753359,-6.1894737],[106.8752672,-6.1902638],[106.8752443,-6.1906358],[106.8750917,-6.1919003],[106.8750612,-6.1920968],[106.8750231,-6.1923347],[106.8749999,-6.1923309],[106.8748934,-6.1923133],[106.8748476,-6.1923047],[106.8742754,-6.1922188],[106.8738558,-6.1921569],[106.8736193,-6.1921216],[106.8734514,-6.1920968],[106.8732683,-6.192081],[106.872864,-6.1920458],[106.872348,-6.1920016],[106.8723451,-6.1920014],[106.8719942,-6.1919899],[106.8715593,-6.1920019],[106.8701937,-6.1920472],[106.8700411,-6.1920872],[106.8697283,-6.1921292],[106.8684236,-6.192236],[106.8683344,-6.192246],[106.8681032,-6.1922718],[106.8672029,-6.1923666],[106.8670881,-6.1923729],[106.8670351,-6.1923757],[106.8666994,-6.1924134],[106.8665316,-6.1924372],[106.8664095,-6.1924334],[106.8661196,-6.1924554],[106.8658754,-6.1924868],[106.8658449,-6.1924873],[106.8651506,-6.1925917],[106.8643877,-6.1927515],[106.8642535,-6.1927956],[106.863167,-6.193153],[106.8625109,-6.1934791],[106.8622057,-6.1936264],[106.8620836,-6.1936832],[106.8617429,-6.1938554],[106.861725,-6.1938644],[106.8612749,-6.1941572],[106.8612368,-6.1941762],[106.8612062,-6.1942025],[106.8610046,-6.1943616],[106.8606417,-6.1946478],[106.8606398,-6.194649],[106.8605806,-6.1946865],[106.8605425,-6.1946965],[106.8603441,-6.1948019],[106.8600923,-6.1949869],[106.8594286,-6.1954446],[106.8591463,-6.195633],[106.858391,-6.1960998],[106.8582994,-6.196157],[106.8582986,-6.1961578],[106.8581621,-6.1962705],[106.8576509,-6.1966086],[106.8576051,-6.1966425],[106.8575983,-6.1966473],[106.8574983,-6.1967183],[106.8571779,-6.1969886],[106.8571474,-6.1970091],[106.8570787,-6.1970535],[106.856827,-6.1972213],[106.8567736,-6.1972471],[106.8566362,-6.1973239],[106.8564913,-6.1974168],[106.8564531,-6.197456],[106.8563387,-6.1976038],[106.8563005,-6.1976462],[106.8560945,-6.1978083],[106.8557817,-6.1980229],[106.8556368,-6.1981097],[106.8555605,-6.1981454],[106.8549501,-6.1986261],[106.8547823,-6.1987405],[106.8543932,-6.1990791],[106.8538134,-6.1994825],[106.8537828,-6.1995125],[106.8537065,-6.1995607],[106.8537042,-6.1995625],[106.8524706,-6.2005468],[106.8522875,-6.2006946],[106.852051,-6.2008892],[106.8516848,-6.2012377],[106.851555,-6.201336],[106.851494,-6.2013779],[106.8511736,-6.2015501],[106.8511126,-6.2015839],[106.8510286,-6.2016268],[106.85103,-6.20163],[106.8510628,-6.2017058],[106.8512499,-6.2021385],[106.8513858,-6.2023802],[106.8513872,-6.2023826],[106.8514559,-6.2024432],[106.8515932,-6.2024427],[106.851845,-6.202344],[106.8521273,-6.2021719],[106.8524706,-6.2019387],[106.8526079,-6.2019134],[106.8527147,-6.201901],[106.8529207,-6.2019368],[106.8533861,-6.2020941],[106.8539736,-6.2022753],[106.8543093,-6.2023354],[106.854706,-6.2023707],[106.8549807,-6.2023945],[106.8551104,-6.2024303],[106.8552858,-6.2025524],[106.8554231,-6.2027226],[106.8554918,-6.2028814],[106.855591,-6.2031866],[106.8556902,-6.2036019],[106.8557436,-6.203981],[106.8557184,-6.2042368],[106.8556978,-6.2044454],[106.8556826,-6.2046657],[106.8555376,-6.2050086],[106.8552858,-6.2054615],[106.8550875,-6.2057925],[106.854767,-6.2060399],[106.8546297,-6.2061439],[106.8543627,-6.2063342],[106.8540804,-6.2065335],[106.8539278,-6.2065769],[106.8537828,-6.2065774],[106.8536455,-6.2065693],[106.8535082,-6.2065096],[106.8533175,-6.2064152],[106.8532107,-6.2063385],[106.8530886,-6.2062183],[106.8529436,-6.2060896],[106.8528215,-6.2059951],[106.8526918,-6.205927],[106.852585,-6.2058931],[106.8524477,-6.2058936],[106.8522646,-6.2059026],[106.8520052,-6.2059293],[106.8516161,-6.2059565],[106.8513796,-6.2059317],[106.8511507,-6.2058721],[106.8509294,-6.2057953],[106.8506853,-6.2056671],[106.8506133,-6.2056328],[106.8504335,-6.2055474],[106.8503115,-6.2055221],[106.8501207,-6.2055483],[106.84993,-6.2055922],[106.8497469,-6.2056962],[106.8495485,-6.2058516],[106.8494341,-6.2060071],[106.8493578,-6.2061453],[106.8493044,-6.206369],[106.8492281,-6.2067223],[106.8491442,-6.2071014],[106.8490908,-6.207429],[106.8490526,-6.207543],[106.8490473,-6.2075513],[106.8489547,-6.2075204],[106.8488599,-6.2075691],[106.8485438,-6.2077316],[106.8483127,-6.2078814],[106.8482515,-6.2079168],[106.8482334,-6.2079328],[106.8481935,-6.2079587],[106.8481962,-6.2079628],[106.8481888,-6.2079685],[106.84819,-6.20797],[106.8481905,-6.2079707],[106.8481142,-6.2080484],[106.8479311,-6.20817],[106.8477137,-6.2083383],[106.8476798,-6.2083647],[106.8476794,-6.2083649],[106.8476564,-6.2083827],[106.847397,-6.2085047],[106.8473447,-6.2085193],[106.8471496,-6.2086093],[106.8470405,-6.2086041],[106.8470308,-6.2086068],[106.8468019,-6.2086278],[106.8465578,-6.2086187],[106.8462908,-6.2085691],[106.8462841,-6.2085678],[106.8460901,-6.2085584],[106.8457375,-6.2084359],[106.8457344,-6.2084369],[106.845734,-6.208435],[106.8457338,-6.2084341],[106.8454193,-6.2083283],[106.8450198,-6.2081939],[106.844823,-6.2081276],[106.8448236,-6.2081257],[106.8439517,-6.2078346],[106.8433355,-6.2076199],[106.8433233,-6.2076258],[106.8433263,-6.2076152],[106.8432108,-6.2075725],[106.8430651,-6.2075187],[106.8428597,-6.2074429],[106.8425254,-6.2073212],[106.8423115,-6.2072434],[106.8419686,-6.2071187],[106.8419678,-6.2071189],[106.8415602,-6.2069676],[106.8407818,-6.2066819],[106.8405032,-6.2065812],[106.8393993,-6.2061771],[106.8392031,-6.2061191],[106.8388445,-6.2059889],[106.8388222,-6.2059822],[106.8386308,-6.2059241],[106.8386296,-6.2059232],[106.8385698,-6.2058778],[106.8383633,-6.2057979],[106.8379481,-6.2056459],[106.8377397,-6.2055701],[106.8374483,-6.2054787],[106.837166,-6.2053953],[106.8369066,-6.20534],[106.836548,-6.2052756],[106.8361742,-6.2052303],[106.835808,-6.2051845],[106.8354952,-6.2051315],[106.8354113,-6.2051173],[106.8350069,-6.2050615],[106.8346712,-6.2050124],[106.8346177,-6.2050035],[106.8339989,-6.2049243],[106.8339939,-6.2049273],[106.8339945,-6.2049219],[106.8324248,-6.2046807],[106.8319246,-6.2046276],[106.8311922,-6.2045298],[106.8307192,-6.2044526],[106.830414,-6.2043987],[106.8301775,-6.2043453],[106.8299178,-6.2042827],[106.8295307,-6.2042135],[106.8293244,-6.2041647],[106.8291003,-6.2041147],[106.828789,-6.2040563],[106.8281786,-6.2039166],[106.8277258,-6.2038079],[106.8274762,-6.2037522],[106.8274764,-6.2037503],[106.8272206,-6.2036935],[106.8269267,-6.2036265],[106.8265459,-6.2035413],[106.826325,-6.2034895],[106.8258724,-6.2033864],[106.8254015,-6.2032948],[106.8248189,-6.2031458],[106.8235205,-6.2028484],[106.8232042,-6.2028017],[106.8227453,-6.2027064],[106.8227083,-6.2026987],[106.8226931,-6.2027846],[106.8226778,-6.2028461],[106.8226702,-6.2029081],[106.8225786,-6.2033501],[106.8225557,-6.2034612],[106.82251,-6.2036806],[106.8223802,-6.2042394],[106.8222963,-6.2048836],[106.8222963,-6.2049094],[106.8222651,-6.2052116],[106.8222505,-6.2053528],[106.8222277,-6.2054234],[106.8221285,-6.2062283],[106.8220598,-6.2069188],[106.8220675,-6.2070895],[106.8220598,-6.2073751],[106.8220217,-6.2077132],[106.822014,-6.2077537],[106.8217546,-6.2087665],[106.8215954,-6.2092262],[106.8215944,-6.209229],[106.8215933,-6.2092319],[106.8215029,-6.2094503],[106.8211977,-6.2100768],[106.8211284,-6.2102258],[106.8209823,-6.2106628],[106.8209221,-6.2107723],[106.8207284,-6.2111249],[106.8203901,-6.2117365],[106.820225,-6.2120431],[106.8202135,-6.2120696],[106.8200685,-6.2123552],[106.8199982,-6.2124565],[106.8198595,-6.2127096],[106.8197941,-6.2128005],[106.8197863,-6.2128153],[106.8194735,-6.2132788],[106.8192446,-6.2136026],[106.8192064,-6.2136446],[106.8191301,-6.2137323],[106.8191228,-6.2137416],[106.8190004,-6.2138958],[106.8187868,-6.2141519],[106.8185961,-6.2143679],[106.8185198,-6.2144332],[106.8183503,-6.21458],[106.8183363,-6.2145922],[106.8180749,-6.214772],[106.8168805,-6.2158088],[106.8168795,-6.2158094],[106.8167302,-6.2159302],[106.8167269,-6.2159329],[106.816437,-6.2161914],[106.8164042,-6.2162222],[106.8162123,-6.2163888],[106.8157961,-6.2167139],[106.8156511,-6.2168288],[106.8153994,-6.2170029],[106.8153689,-6.2170205],[106.8152468,-6.2171197],[106.8149797,-6.2173596],[106.8149086,-6.2174208],[106.8140733,-6.2180743],[106.8130662,-6.2188621],[106.8128817,-6.2190037],[106.8128435,-6.2190328],[106.8127901,-6.2190752],[106.8127753,-6.2190897],[106.8127144,-6.2191374],[106.8127138,-6.2191377],[106.8126223,-6.2191973],[106.8125917,-6.219214],[106.812546,-6.2192459],[106.8125231,-6.2192612],[106.8123552,-6.2193923],[106.8123385,-6.2194078],[106.812195,-6.2195407],[106.8120424,-6.2196837],[106.8119967,-6.2197294],[106.8119661,-6.2197538],[106.8119127,-6.2197991],[106.8118746,-6.2198277]]]],"type":"MultiPolygon"},"properties":{"fid":2418966,"KELAS":"ZONA PANAS","CLASS":"HOT ZONE","TEMPERATUR":"≥ 32⁰ C"}}]}