{"type":"FeatureCollection","features":[{"type":"Feature","geometry":{"coordinates":[[[[106.7589225,-6.2230853],[106.7588673,-6.2230816],[106.7588139,-6.2230797],[106.7588137,-6.2230797],[106.7586651,-6.2231007],[106.7585812,-6.2231121],[106.7585586,-6.2231151],[106.758507,-6.2231223],[106.7583383,-6.2231459],[106.7583372,-6.223145],[106.7583294,-6.2231391],[106.7583269,-6.2231372],[106.758207,-6.2230468],[106.7581081,-6.2230453],[106.7581066,-6.2230453],[106.7579139,-6.2230424],[106.7578526,-6.2230415],[106.7576616,-6.2229751],[106.7575512,-6.2229366],[106.7574823,-6.2229342],[106.7573879,-6.2229309],[106.7573854,-6.2229311],[106.757361,-6.2229329],[106.7573609,-6.2229329],[106.757295,-6.2229345],[106.7572918,-6.2229347],[106.7572002,-6.2229424],[106.7571366,-6.2229473],[106.7570052,-6.2229586],[106.7568803,-6.2229676],[106.7567272,-6.2229786],[106.7567271,-6.2229786],[106.7567264,-6.2229787],[106.7561419,-6.2229722],[106.7558689,-6.2229691],[106.7555332,-6.2229671],[106.7553921,-6.2229652],[106.7551975,-6.2229633],[106.7550678,-6.2229614],[106.7548389,-6.2229595],[106.7546749,-6.2229576],[106.7546733,-6.2229576],[106.7542057,-6.2229538],[106.7541828,-6.2229328],[106.7539285,-6.2229516],[106.7535343,-6.2229481],[106.7530842,-6.2229443],[106.7530814,-6.2229442],[106.7527965,-6.2229411],[106.752039,-6.2229328],[106.7519627,-6.2229328],[106.751482,-6.222929],[106.7512264,-6.2229176],[106.7507458,-6.2228985],[106.7507343,-6.2228985],[106.7507008,-6.2229022],[106.7507008,-6.2228495],[106.7507011,-6.2226592],[106.7504611,-6.2226507],[106.750461,-6.2226507],[106.750244,-6.2226561],[106.7502435,-6.2226608],[106.7502431,-6.2226642],[106.7496929,-6.2227192],[106.7494946,-6.2227459],[106.749052,-6.222805],[106.749052,-6.2230682],[106.7490507,-6.2230684],[106.7490292,-6.2230701],[106.7482548,-6.2231483],[106.7474079,-6.2230034],[106.7473927,-6.2230034],[106.7473927,-6.2230261],[106.7473919,-6.223026],[106.7473124,-6.2230146],[106.7472258,-6.2230253],[106.7466829,-6.2230926],[106.7457087,-6.2232133],[106.7450522,-6.2232947],[106.7449703,-6.2233048],[106.7448135,-6.2232224],[106.7444054,-6.2230079],[106.7439701,-6.2230801],[106.743708,-6.2231235],[106.7425232,-6.2232662],[106.7418505,-6.2233228],[106.7406282,-6.2234255],[106.7403438,-6.2234494],[106.7386866,-6.2235886],[106.7378005,-6.2236631],[106.7375213,-6.2236865],[106.7374133,-6.223606],[106.7374103,-6.2236065],[106.7373722,-6.2236132],[106.7373155,-6.2236231],[106.7369692,-6.2236838],[106.7369387,-6.2236862],[106.7368624,-6.2237787],[106.7364351,-6.2238832],[106.7359926,-6.2239065],[106.7357943,-6.223927],[106.7355349,-6.2239542],[106.7353289,-6.2239514],[106.7350542,-6.223958],[106.7347872,-6.2239609],[106.734009,-6.223989],[106.7339341,-6.2239843],[106.7339298,-6.2239841],[106.7338412,-6.2239785],[106.7337801,-6.2239747],[106.7336123,-6.2239776],[106.7334673,-6.223979],[106.7331621,-6.2239814],[106.7330477,-6.2239823],[106.7328341,-6.2239752],[106.732651,-6.2239695],[106.7325136,-6.2239657],[106.7321779,-6.223908],[106.7321169,-6.2239151],[106.7315142,-6.2240129],[106.7313005,-6.2240486],[106.7309877,-6.224092],[106.730797,-6.2241421],[106.7305834,-6.2241535],[106.7303774,-6.2241755],[106.7301638,-6.2241611],[106.7296602,-6.2241783],[106.7294924,-6.224184],[106.7289583,-6.2242298],[106.7289278,-6.2242322],[106.7283556,-6.2242837],[106.7275927,-6.2243119],[106.727051,-6.2243319],[106.727051,-6.2243609],[106.7270501,-6.2243609],[106.7269593,-6.2243592],[106.7257616,-6.2243371],[106.7252275,-6.2243271],[106.7239077,-6.2242761],[106.7238085,-6.2242703],[106.723572,-6.2242661],[106.7227099,-6.2242599],[106.7224734,-6.2242546],[106.7223666,-6.2242522],[106.7217409,-6.2242389],[106.721245,-6.2242203],[106.7207186,-6.2242236],[106.7206697,-6.2242236],[106.7206591,-6.2242236],[106.7206347,-6.2242236],[106.7201693,-6.2242088],[106.7196581,-6.2241921],[106.7194139,-6.2241864],[106.7186663,-6.2241697],[106.7186205,-6.2241688],[106.718445,-6.2241702],[106.7182504,-6.2241721],[106.7182304,-6.2241723],[106.7182411,-6.2241296],[106.7182327,-6.2239882],[106.7182662,-6.2236391],[106.7182578,-6.2231237],[106.7182578,-6.2228078],[106.7182412,-6.222807],[106.7182913,-6.222176],[106.7182578,-6.2218269],[106.7180571,-6.2217105],[106.7179902,-6.2212782],[106.7179401,-6.2209457],[106.7179735,-6.2205799],[106.718007,-6.2202308],[106.7179735,-6.2200479],[106.7179735,-6.2200312],[106.7180739,-6.2196322],[106.7183749,-6.2186679],[106.7185087,-6.2179031],[106.7182244,-6.2177867],[106.7181431,-6.2177439],[106.7181627,-6.2177033],[106.7182756,-6.2174199],[106.7184298,-6.2170329],[106.7185366,-6.2166348],[106.7185671,-6.2164026],[106.7185824,-6.2160845],[106.7186129,-6.2159677],[106.7188875,-6.2157435],[106.7189214,-6.215711],[106.7189257,-6.2157068],[106.7189657,-6.2156306],[106.7189867,-6.2155905],[106.7190706,-6.2150464],[106.7191317,-6.2148547],[106.7191622,-6.2147164],[106.7191774,-6.2145672],[106.7192614,-6.2144232],[106.7193987,-6.2143193],[106.7195894,-6.214232],[106.7197039,-6.2142215],[106.7197954,-6.2142353],[106.7198336,-6.2141953],[106.719803,-6.2141195],[106.719681,-6.2140403],[106.7196123,-6.2140074],[106.7196429,-6.2136822],[106.7197039,-6.2134037],[106.7199022,-6.213027],[106.719948,-6.2128506],[106.7198717,-6.2126146],[106.7198336,-6.2125049],[106.7199175,-6.2121501],[106.719934,-6.2120662],[106.720009,-6.2116828],[106.7200548,-6.211297],[106.7200624,-6.2109633],[106.7200014,-6.2107959],[106.7199633,-6.2107082],[106.7200396,-6.2106109],[106.720093,-6.2104674],[106.7201082,-6.210248],[106.7200871,-6.21019],[106.7200853,-6.2101851],[106.7200936,-6.2101278],[106.7201693,-6.2096043],[106.7206423,-6.2093873],[106.7212297,-6.2091169],[106.7219698,-6.2088499],[106.7225115,-6.2086091],[106.7228819,-6.2084567],[106.7230943,-6.2083693],[106.7233355,-6.2082701],[106.7236788,-6.208097],[106.72374,-6.2080528],[106.7237351,-6.2080187],[106.7237602,-6.2078441],[106.7238188,-6.2076031],[106.7239693,-6.2075947],[106.7239819,-6.207596],[106.7242201,-6.2076197],[106.7243958,-6.2076031],[106.7244208,-6.2073869],[106.7244376,-6.2070378],[106.7244125,-6.2066637],[106.7244543,-6.2064641],[106.7244627,-6.2056079],[106.7244877,-6.2047516],[106.7243707,-6.2046934],[106.724172,-6.2046111],[106.7242207,-6.2043256],[106.7242004,-6.2042259],[106.7241955,-6.2042019],[106.7241808,-6.2041298],[106.7241594,-6.2040253],[106.7240297,-6.2034421],[106.7240293,-6.2034401],[106.7239687,-6.2031646],[106.7238237,-6.2024021],[106.723633,-6.2014275],[106.7235872,-6.2003217],[106.7235262,-6.2001782],[106.7234978,-6.2001396],[106.7234499,-6.2000747],[106.7234194,-6.2000499],[106.7234283,-6.1999913],[106.7234499,-6.1998496],[106.7234423,-6.1997752],[106.7234041,-6.1994777],[106.7233812,-6.1991291],[106.723572,-6.1988425],[106.7236559,-6.1987267],[106.7239153,-6.1983528],[106.7239534,-6.1982956],[106.723821,-6.1982009],[106.7235338,-6.1979957],[106.7235109,-6.1979728],[106.7235338,-6.1979461],[106.7237017,-6.1977401],[106.7237546,-6.1976507],[106.7237019,-6.1976291],[106.72371,-6.197627],[106.7237769,-6.1975273],[106.7235763,-6.1974275],[106.723409,-6.1973278],[106.7232752,-6.1971947],[106.7233254,-6.1971282],[106.7234257,-6.196962],[106.7236432,-6.1966294],[106.7237769,-6.1964133],[106.7239442,-6.1961971],[106.723946,-6.1961876],[106.7239305,-6.1961756],[106.7239426,-6.1961591],[106.7238417,-6.1960269],[106.7240815,-6.1955678],[106.72427,-6.1952067],[106.7244265,-6.194704],[106.7245986,-6.1939392],[106.7244514,-6.1931373],[106.724319,-6.1926682],[106.724192,-6.192129],[106.7241719,-6.1920495],[106.7240539,-6.1915837],[106.7240509,-6.1915719],[106.7233965,-6.1916231],[106.7233969,-6.1917214],[106.7232496,-6.1917328],[106.7231188,-6.191755],[106.7230916,-6.1918071],[106.7229006,-6.1917291],[106.7228396,-6.1917095],[106.7227903,-6.1916934],[106.72278,-6.1915596],[106.7223487,-6.1914409],[106.7221193,-6.1913434],[106.7217866,-6.1913445],[106.7214814,-6.1914492],[106.7214516,-6.1914592],[106.7211191,-6.1915705],[106.7207484,-6.1916317],[106.7207181,-6.1915445],[106.7196287,-6.1919902],[106.7192038,-6.1921662],[106.7179348,-6.1928711],[106.7179188,-6.19288],[106.7179141,-6.1929088],[106.7176476,-6.1930284],[106.7175616,-6.1929294],[106.7172976,-6.1930778],[106.7169115,-6.1931224],[106.7169029,-6.1930932],[106.7168833,-6.1930262],[106.7168273,-6.1928358],[106.7167055,-6.1924215],[106.716593,-6.1921242],[106.7165636,-6.1920466],[106.7165537,-6.1920204],[106.7165072,-6.1918974],[106.7164437,-6.1913497],[106.716408,-6.1910415],[106.7163698,-6.1905747],[106.7163775,-6.190136],[106.7164156,-6.1899529],[106.7164837,-6.1898289],[106.7164843,-6.1898279],[106.716675,-6.189446],[106.7166521,-6.189178],[106.7167426,-6.1891468],[106.7168358,-6.1891146],[106.7168429,-6.1891122],[106.7168747,-6.1890827],[106.7169344,-6.1890273],[106.7169649,-6.188848],[106.7169649,-6.1886902],[106.7169663,-6.1886875],[106.7170336,-6.1885514],[106.717148,-6.1884451],[106.7172396,-6.1883865],[106.7173082,-6.1881786],[106.7173219,-6.1880885],[106.7173388,-6.1879778],[106.7173006,-6.187665],[106.7172625,-6.187397],[106.7172472,-6.1871825],[106.7171557,-6.187099],[106.717087,-6.1870351],[106.7170641,-6.186707],[106.7149584,-6.1855178],[106.7141878,-6.184969],[106.7133104,-6.1842942],[106.7127459,-6.1838503],[106.7121203,-6.183382],[106.7114565,-6.1828375],[106.7108691,-6.1823397],[106.7100909,-6.181756],[106.7091703,-6.181389],[106.7091658,-6.1813871],[106.7088854,-6.1812754],[106.7085497,-6.1811214],[106.7080309,-6.1808124],[106.7075579,-6.1805396],[106.7072451,-6.1803761],[106.7068255,-6.180213],[106.7065508,-6.1800313],[106.7065419,-6.1800251],[106.7065308,-6.1800174],[106.7063677,-6.1799035],[106.7060167,-6.1796856],[106.7056047,-6.1794362],[106.7051546,-6.1792307],[106.7048876,-6.1790643],[106.7034304,-6.1784201],[106.7025225,-6.1779966],[106.7013552,-6.1775484],[106.7009661,-6.1774588],[106.7004244,-6.1771712],[106.7004201,-6.177169],[106.7002489,-6.1770802],[106.7002131,-6.1770698],[106.6992419,-6.1767883],[106.6986849,-6.1766071],[106.6978533,-6.1764469],[106.6975023,-6.176332],[106.6970141,-6.1762195],[106.6969301,-6.1761494],[106.6970217,-6.17593],[106.6971285,-6.1756811],[106.6972908,-6.1753128],[106.6972964,-6.1753001],[106.6971056,-6.175252],[106.6969988,-6.1752243],[106.6969237,-6.1752126],[106.6968767,-6.1752052],[106.6967165,-6.1751957],[106.6966173,-6.1752157],[106.6963798,-6.1751334],[106.6963656,-6.1751285],[106.6959963,-6.175001],[106.6957247,-6.1749072],[106.6954852,-6.1748362],[106.6954577,-6.1748281],[106.6951911,-6.1748135],[106.6951525,-6.1748114],[106.6950915,-6.174798],[106.6949389,-6.1747713],[106.6949046,-6.1747651],[106.6948473,-6.1747546],[106.6948168,-6.1747451],[106.6947634,-6.1746797],[106.6947595,-6.1746752],[106.6947024,-6.1746077],[106.6946413,-6.1745381],[106.6945574,-6.1744466],[106.6943895,-6.1741648],[106.694359,-6.1740856],[106.6943133,-6.173985],[106.6942141,-6.1739392],[106.6938936,-6.1738167],[106.6936648,-6.1737294],[106.6935122,-6.1736703],[106.6931612,-6.1736746],[106.6931598,-6.1736745],[106.6928789,-6.1736536],[106.692795,-6.1736865],[106.6927111,-6.1737499],[106.6926806,-6.1737704],[106.6922457,-6.173738],[106.6921694,-6.1737347],[106.6921236,-6.1737323],[106.6919481,-6.1737552],[106.691765,-6.1736856],[106.6915514,-6.1736002],[106.6913149,-6.1735144],[106.6911318,-6.1735029],[106.6909868,-6.1734991],[106.6909105,-6.1734672],[106.6908953,-6.1734305],[106.6908495,-6.1734266],[106.6905291,-6.1733628],[106.6904726,-6.1733538],[106.6904278,-6.1733466],[106.6902086,-6.1733117],[106.6896593,-6.1731911],[106.6894457,-6.1731358],[106.6893231,-6.1729355],[106.6893189,-6.1729288],[106.6888277,-6.1721268],[106.6887362,-6.171248],[106.6887438,-6.1704474],[106.6887667,-6.1697202],[106.6887972,-6.169086],[106.688965,-6.1685481],[106.6890795,-6.1681294],[106.6893008,-6.1675334],[106.6894228,-6.167057],[106.6894457,-6.1666374],[106.689377,-6.1664019],[106.6891706,-6.1659492],[106.6891476,-6.1658987],[106.6890948,-6.1657829],[106.6889727,-6.1652379],[106.6889727,-6.1649122],[106.6890032,-6.1648607],[106.6891426,-6.1646464],[106.6891787,-6.1645908],[106.6891787,-6.1645422],[106.6891558,-6.1643167],[106.6890871,-6.1640477],[106.6890185,-6.1636524],[106.6890185,-6.1633635],[106.6890566,-6.163116],[106.6892473,-6.1617355],[106.6893465,-6.1615882],[106.6894609,-6.1614304],[106.6895906,-6.161262],[106.6897433,-6.1609631],[106.6899569,-6.1603174],[106.6899569,-6.1602721],[106.6899721,-6.1600967],[106.6899721,-6.160064],[106.6899721,-6.1600632],[106.6899721,-6.1600332],[106.6899035,-6.1600404],[106.6897585,-6.1600299],[106.6896839,-6.1600185],[106.6896212,-6.1600089],[106.6893694,-6.1599774],[106.6890871,-6.1599464],[106.6889422,-6.159936],[106.6887591,-6.1599474],[106.6886523,-6.1599531],[106.6885226,-6.1599484],[106.6883013,-6.159965],[106.688222,-6.1599712],[106.6881027,-6.1599805],[106.6881034,-6.1599742],[106.6881118,-6.1598495],[106.6880867,-6.1594172],[106.6880783,-6.1588934],[106.6880166,-6.1587553],[106.6880783,-6.1587604],[106.6880449,-6.1582865],[106.6880365,-6.1578043],[106.688003,-6.1568481],[106.687978,-6.1558421],[106.6878776,-6.1548528],[106.6878558,-6.1548487],[106.6879278,-6.1548528],[106.6879111,-6.1546366],[106.6879197,-6.154487],[106.6879278,-6.1543456],[106.6875766,-6.154171],[106.6874511,-6.1541128],[106.6874349,-6.1540946],[106.687437,-6.1540891],[106.6875383,-6.1538243],[106.6877062,-6.153254],[106.6877062,-6.1529174],[106.6876757,-6.1525264],[106.6876146,-6.1508651],[106.687607,-6.1507287],[106.6875918,-6.1504064],[106.6875823,-6.1502263],[106.6876518,-6.1501802],[106.6876351,-6.149989],[106.6875849,-6.1491742],[106.687518,-6.1483677],[106.6874885,-6.1482932],[106.6874697,-6.1478934],[106.6874621,-6.1477208],[106.6874544,-6.1476784],[106.6874499,-6.1476769],[106.6874774,-6.1476582],[106.6874679,-6.1476361],[106.6874177,-6.1475779],[106.6874148,-6.1475718],[106.6874093,-6.1475696],[106.6870247,-6.1474532],[106.6868825,-6.1470624],[106.6867571,-6.1463391],[106.68664,-6.1455825],[106.6865229,-6.145067],[106.686456,-6.1447261],[106.6864142,-6.1445182],[106.6863306,-6.1443187],[106.6863055,-6.1442688],[106.6863026,-6.1442688],[106.6862994,-6.1442461],[106.6862871,-6.1441607],[106.6862337,-6.1437602],[106.686216,-6.1432223],[106.6862116,-6.1430864],[106.6862111,-6.1430728],[106.6862108,-6.1430645],[106.6872942,-6.1426964],[106.6883623,-6.1416449],[106.6889193,-6.140861],[106.6895678,-6.1400266],[106.6906206,-6.1385713],[106.6909639,-6.1381016],[106.6912615,-6.1376963],[106.6912691,-6.1376619],[106.6912677,-6.1376579],[106.6912386,-6.1375771],[106.6912691,-6.1374545],[106.6913378,-6.1373539],[106.691559,-6.137053],[106.6916735,-6.1367607],[106.691704,-6.1364999],[106.6916582,-6.1360002],[106.6915667,-6.1356902],[106.6914522,-6.1353908],[106.6912539,-6.1348929],[106.6912691,-6.1347289],[106.6912691,-6.134676],[106.6913454,-6.1341214],[106.6913759,-6.1338577],[106.6913988,-6.1334558],[106.6913607,-6.1334314],[106.6908953,-6.1332965],[106.6905596,-6.1332083],[106.6903841,-6.1330981],[106.6900255,-6.1328449],[106.6894991,-6.1326289],[106.689377,-6.1325087],[106.6892855,-6.1323557],[106.6892626,-6.1323118],[106.6892092,-6.1322284],[106.6888048,-6.1314273],[106.6885836,-6.1308818],[106.6884463,-6.1306386],[106.6882021,-6.1303144],[106.6880114,-6.1302099],[106.6875765,-6.1299782],[106.6874239,-6.1298146],[106.6873095,-6.1295972],[106.6872561,-6.1292195],[106.6872484,-6.128922],[106.6872408,-6.12884],[106.6872332,-6.1287708],[106.6872408,-6.1287012],[106.6870806,-6.1286221],[106.6870882,-6.1285453],[106.6872713,-6.1277232],[106.6874773,-6.1267882],[106.6878664,-6.1250486],[106.6878741,-6.125],[106.6879725,-6.1246497],[106.6879732,-6.1246471],[106.6880105,-6.1245003],[106.6880648,-6.1242867],[106.6882326,-6.1239534],[106.6882652,-6.123888],[106.6886294,-6.1231561],[106.688698,-6.1230168],[106.6887021,-6.1230082],[106.6888506,-6.1226897],[106.6889278,-6.1225528],[106.6891711,-6.1221218],[106.6893313,-6.1218214],[106.6893694,-6.1217522],[106.6893831,-6.1217344],[106.6894991,-6.121582],[106.6896135,-6.1214628],[106.6896164,-6.121453],[106.6896975,-6.121171],[106.6897014,-6.1211299],[106.6897139,-6.1209995],[106.6897204,-6.1209321],[106.6897369,-6.1201907],[106.6897433,-6.1199078],[106.689728,-6.1196823],[106.689723,-6.1196498],[106.6896441,-6.1191311],[106.6895144,-6.1187687],[106.6891329,-6.1182814],[106.6891863,-6.1181183],[106.6892168,-6.1179023],[106.6891482,-6.1161117],[106.6891176,-6.1155558],[106.6890948,-6.1148667],[106.6890719,-6.1144776],[106.6890185,-6.1142407],[106.6897356,-6.1140294],[106.6910631,-6.113699],[106.6916201,-6.113555],[106.6920629,-6.1134534],[106.6932833,-6.1131735],[106.6935402,-6.1130977],[106.6935579,-6.1130924],[106.6942807,-6.1129155],[106.6942904,-6.1129131],[106.6951372,-6.1128869],[106.6955568,-6.1129403],[106.6959383,-6.1129694],[106.6961672,-6.1129489],[106.6964037,-6.1128769],[106.6967852,-6.1126466],[106.6969454,-6.1125169],[106.6974642,-6.1116366],[106.6978838,-6.1108937],[106.69788,-6.11089],[106.697632,-6.1106458],[106.6972887,-6.1103563],[106.6966784,-6.1098013],[106.6959231,-6.108985],[106.69545,-6.1085529],[106.6950277,-6.1082077],[106.6949549,-6.1081482],[106.6948626,-6.1080727],[106.6940691,-6.1074834],[106.6936876,-6.1071944],[106.6936833,-6.1071925],[106.6934206,-6.1070733],[106.6934025,-6.1070697],[106.6930468,-6.106998],[106.6926653,-6.1069288],[106.6920397,-6.1069388],[106.6908953,-6.1069202],[106.6899473,-6.1066913],[106.6892813,-6.1065304],[106.6891547,-6.1064999],[106.6890948,-6.1064854],[106.6889574,-6.1063623],[106.6888201,-6.1061635],[106.6885607,-6.1058164],[106.688526,-6.1057312],[106.688492,-6.105648],[106.6884776,-6.105608],[106.6884797,-6.1055978],[106.6886469,-6.1052319],[106.6888811,-6.1046],[106.6887138,-6.1043007],[106.6883794,-6.1040013],[106.6881452,-6.1039016],[106.6880943,-6.1038847],[106.6880872,-6.1038279],[106.6880706,-6.1036945],[106.6880495,-6.1035261],[106.688019,-6.1033506],[106.6880724,-6.1024895],[106.6881106,-6.1016035],[106.6881411,-6.1010065],[106.6880061,-6.1007282],[106.6879961,-6.1007076],[106.6880571,-6.1001969],[106.6880114,-6.0996566],[106.6878969,-6.0992012],[106.6877597,-6.0988137],[106.6875994,-6.098361],[106.6872789,-6.0975051],[106.6872357,-6.0971407],[106.6872346,-6.097131],[106.687258,-6.0971115],[106.6879959,-6.0968793],[106.6884064,-6.0968718],[106.6889692,-6.0967719],[106.6903892,-6.0964943],[106.6904071,-6.0966124],[106.6906629,-6.0965318],[106.6911211,-6.0963684],[106.6911536,-6.0963147],[106.6911547,-6.0963154],[106.6911564,-6.0963099],[106.69121,-6.0961395],[106.6912121,-6.0961328],[106.6913518,-6.0957745],[106.6917796,-6.0957442],[106.6919676,-6.0956739],[106.6929443,-6.0956422],[106.6935993,-6.095677],[106.6941838,-6.0957633],[106.6942299,-6.0955812],[106.6947271,-6.0957176],[106.6951103,-6.0958148],[106.6956644,-6.0959925],[106.695765,-6.0957401],[106.6962053,-6.0958798],[106.6964261,-6.0959501],[106.6965516,-6.0959947],[106.6966236,-6.0962561],[106.6968514,-6.0962238],[106.6969279,-6.0960607],[106.6971427,-6.0961392],[106.6971269,-6.0962714],[106.697495,-6.0962861],[106.697495,-6.0962862],[106.6974121,-6.0963864],[106.6974037,-6.0965819],[106.6979691,-6.0965191],[106.6980281,-6.096547],[106.6982171,-6.096523],[106.6983321,-6.096462],[106.6984397,-6.0964292],[106.6985249,-6.0964083],[106.6985297,-6.0963751],[106.6986005,-6.0963646],[106.6989572,-6.0962946],[106.6992035,-6.0962135],[106.6998266,-6.0959937],[106.6998202,-6.0958534],[106.6998385,-6.0961296],[106.6998893,-6.0963132],[106.6999199,-6.0964236],[106.6999603,-6.0965679],[106.7002872,-6.0965034],[106.7003648,-6.0964836],[106.7006576,-6.0964088],[106.7011522,-6.0962928],[106.7012455,-6.0962583],[106.7012457,-6.0962554],[106.701339,-6.0962521],[106.7014772,-6.0963135],[106.7016369,-6.0964313],[106.7018435,-6.0965839],[106.7021486,-6.0967608],[106.702553,-6.0966601],[106.7029166,-6.0964681],[106.7033007,-6.0962653],[106.7042086,-6.0959582],[106.7042772,-6.0959373],[106.7042315,-6.0957398],[106.7042009,-6.0956063],[106.7041476,-6.0953489],[106.7041018,-6.0952368],[106.7047661,-6.0951799],[106.7048637,-6.0951926],[106.7048875,-6.0954377],[106.7050337,-6.0955956],[106.7052571,-6.095691],[106.7053273,-6.095672],[106.7054406,-6.0958808],[106.7056838,-6.0958427],[106.7058337,-6.0958192],[106.7058465,-6.0958357],[106.7059576,-6.095918],[106.7060814,-6.0959471],[106.7064092,-6.0959504],[106.706644,-6.0959214],[106.7067949,-6.0959115],[106.7069755,-6.0959339],[106.7074079,-6.0959798],[106.7074136,-6.0959951],[106.7074198,-6.0959811],[106.7074216,-6.0959771],[106.7075115,-6.0957747],[106.7079272,-6.0955728],[106.7082117,-6.0955982],[106.7085829,-6.0956834],[106.7088896,-6.0958569],[106.7089952,-6.0958945],[106.7091608,-6.0957707],[106.7096148,-6.0958596],[106.7099456,-6.0952662],[106.7101298,-6.0953536],[106.7103425,-6.0954546],[106.7104946,-6.0952584],[106.7109686,-6.0956114],[106.710974,-6.0956157],[106.7110465,-6.0956744],[106.7113347,-6.0959132],[106.7113791,-6.09595],[106.7116355,-6.0961624],[106.7117415,-6.0962503],[106.7118685,-6.0963555],[106.7120579,-6.0965087],[106.7123491,-6.0967445],[106.7126467,-6.0970478],[106.7127154,-6.0971203],[106.7127186,-6.0971246],[106.7129366,-6.0974097],[106.7130968,-6.097601],[106.7133257,-6.097951],[106.7136461,-6.0983243],[106.7138369,-6.0985346],[106.7140734,-6.0987425],[106.7141344,-6.0987911],[106.7142412,-6.0988655],[106.7142428,-6.0988673],[106.7144549,-6.0991168],[106.7144854,-6.0992842],[106.7145235,-6.099493],[106.7145464,-6.099557],[106.7148821,-6.1003904],[106.7149126,-6.1004339],[106.7149431,-6.1004205],[106.7150881,-6.1007037],[106.7151415,-6.1008091],[106.7154314,-6.1013498],[106.7156832,-6.1018281],[106.7158434,-6.1021619],[106.7160036,-6.1024633],[106.7163012,-6.1030192],[106.7165224,-6.1034527],[106.7169516,-6.1042139],[106.7171709,-6.1046028],[106.7173006,-6.1047549],[106.7174151,-6.1048975],[106.7175677,-6.1050763],[106.717766,-6.105269],[106.7178957,-6.1053448],[106.7180407,-6.1054883],[106.7181093,-6.1055518],[106.7184069,-6.1059408],[106.7187426,-6.1063795],[106.7189562,-6.1066575],[106.7191774,-6.1069059],[106.7194607,-6.107333],[106.719475,-6.1073546],[106.7194903,-6.1073809],[106.719681,-6.1077261],[106.7197573,-6.1078348],[106.7199404,-6.1080871],[106.72036,-6.1085644],[106.7204058,-6.1086259],[106.721451,-6.1100774],[106.7216417,-6.1103344],[106.721802,-6.110508],[106.7224657,-6.1113472],[106.7225115,-6.1114016],[106.7226797,-6.1116201],[106.7227633,-6.1117287],[106.7230532,-6.112073],[106.7233278,-6.112401],[106.7241289,-6.1134835],[106.7244341,-6.1138473],[106.7246325,-6.1140719],[106.7250826,-6.1145392],[106.7251207,-6.1145787],[106.725342,-6.1148253],[106.7254564,-6.1150074],[106.7254793,-6.1150427],[106.7260668,-6.1157899],[106.7262957,-6.1160893],[106.7265245,-6.1164379],[106.7265703,-6.1165042],[106.7267848,-6.1167757],[106.7269518,-6.1169873],[106.7274172,-6.1175809],[106.7285464,-6.1186776],[106.7288057,-6.1188984],[106.7290041,-6.1190706],[106.7292559,-6.1193318],[106.7294161,-6.1194945],[106.7297823,-6.1197791],[106.7298357,-6.1198325],[106.7300036,-6.1200061],[106.7300188,-6.1200218],[106.7302782,-6.1203056],[106.7305605,-6.1205716],[106.7309137,-6.1209048],[106.7311404,-6.1211186],[106.7312166,-6.1211877],[106.7313082,-6.1213145],[106.7315884,-6.1215521],[106.7315905,-6.1215539],[106.7318804,-6.1217952],[106.731949,-6.1218553],[106.7320992,-6.1219862],[106.7322231,-6.1221094],[106.7324516,-6.1223178],[106.7326898,-6.1225641],[106.7328803,-6.1227441],[106.733033,-6.1229717],[106.733252,-6.1231611],[106.7335563,-6.1232932],[106.7337939,-6.1233495],[106.7340127,-6.1234723],[106.7343936,-6.1237847],[106.7344526,-6.123828],[106.7345744,-6.1239172],[106.7350885,-6.1243147],[106.735574,-6.1246934],[106.7356209,-6.1247291],[106.7358596,-6.1249111],[106.7360499,-6.125034],[106.7362825,-6.1252155],[106.7363283,-6.1252523],[106.7366182,-6.1254578],[106.7369692,-6.1257253],[106.7371752,-6.125885],[106.7374047,-6.1260525],[106.7375261,-6.1261411],[106.737568,-6.1261701],[106.7376611,-6.1262345],[106.737772,-6.1263114],[106.7382883,-6.1266689],[106.7384722,-6.1267963],[106.7386172,-6.1268955],[106.7386211,-6.1268977],[106.7391142,-6.1271761],[106.7398962,-6.1276175],[106.7400362,-6.1276965],[106.7407763,-6.1280456],[106.7411043,-6.1281953],[106.741379,-6.1283345],[106.7414095,-6.1283479],[106.74144,-6.1283584],[106.7414874,-6.1283783],[106.7414925,-6.128381],[106.7416039,-6.1284275],[106.7417147,-6.1284738],[106.7422189,-6.1287154],[106.7430651,-6.1291208],[106.7438509,-6.1294637],[106.7441332,-6.1296062],[106.7441942,-6.1296449],[106.7447588,-6.1300221],[106.7448656,-6.1300926],[106.7451555,-6.1302834],[106.7456514,-6.1306448],[106.7457506,-6.1307182],[106.7464983,-6.1312652],[106.7467119,-6.1314073],[106.7469179,-6.1315031],[106.7470324,-6.1315522],[106.7472102,-6.1316605],[106.7476767,-6.1320107],[106.7481022,-6.1323877],[106.7481148,-6.1323989],[106.7483292,-6.1325512],[106.7483675,-6.1325856],[106.7484517,-6.1326467],[106.7485659,-6.1327296],[106.7488787,-6.1328998],[106.7489626,-6.1329608],[106.7491716,-6.1332509],[106.7493101,-6.1333886],[106.749486,-6.1335635],[106.7497981,-6.1338191],[106.7498097,-6.1338286],[106.7501809,-6.134065],[106.7502676,-6.1341114],[106.7506755,-6.1343295],[106.7506901,-6.134334],[106.7508547,-6.1344271],[106.7512362,-6.1345511],[106.7513974,-6.1345785],[106.7514269,-6.1345835],[106.751877,-6.1347213],[106.752241,-6.1348266],[106.7523201,-6.1348659],[106.7523343,-6.1348725],[106.7524058,-6.1349059],[106.7524798,-6.1349473],[106.7525408,-6.1349864],[106.7525524,-6.1349929],[106.7526821,-6.1350654],[106.7526857,-6.1350675],[106.7528383,-6.1351552],[106.7528917,-6.1351872],[106.753052,-6.1352821],[106.7537844,-6.1355906],[106.7538988,-6.1356411],[106.7544634,-6.1358838],[106.7545168,-6.1359067],[106.7558977,-6.1364694],[106.7561495,-6.1365266],[106.7565462,-6.136663],[106.756943,-6.1368037],[106.7579043,-6.1371408],[106.7584307,-6.1373244],[106.7586443,-6.1374011],[106.7591784,-6.1375771],[106.7600252,-6.1378684],[106.7602007,-6.1379114],[106.7607271,-6.1380964],[106.7610705,-6.1382122],[106.7618105,-6.1384716],[106.7619631,-6.1385231],[106.7626574,-6.1387592],[106.763077,-6.1388827],[106.7633059,-6.1389714],[106.7637331,-6.1391254],[106.763756,-6.1391325],[106.7640459,-6.1392193],[106.7648317,-6.1394987],[106.7654573,-6.1397353],[106.7657091,-6.1398154],[106.7661211,-6.1399651],[106.7661516,-6.1399746],[106.7666781,-6.140163],[106.7669985,-6.140265],[106.7680132,-6.1406036],[106.7682126,-6.1406841],[106.7682268,-6.1406899],[106.7683794,-6.1407104],[106.768738,-6.1407981],[106.7690661,-6.140872],[106.7691652,-6.1408787],[106.7698977,-6.1409941],[106.770241,-6.1410432],[106.7703096,-6.1410509],[106.7706911,-6.1411109],[106.7707445,-6.1411286],[106.7707903,-6.14114],[106.7709581,-6.1411772],[106.7710497,-6.1411777],[106.7712404,-6.1412101],[106.7717211,-6.1413021],[106.7721254,-6.1413765],[106.7721865,-6.1413837],[106.7724917,-6.1414314],[106.7726519,-6.141469],[106.7727434,-6.1414857],[106.7727968,-6.1414852],[106.7731096,-6.1414728],[106.7738573,-6.1414042],[106.7739426,-6.1413983],[106.7746812,-6.1413474],[106.77475,-6.1413427],[106.7748873,-6.1414137],[106.7750475,-6.1415167],[106.7752143,-6.1415976],[106.7754595,-6.1417165],[106.7755281,-6.1418405],[106.7755044,-6.1419011],[106.7753625,-6.142086],[106.7753591,-6.1421078],[106.7753104,-6.1424188],[106.7753173,-6.1426483],[106.7753253,-6.142911],[106.7753482,-6.1434198],[106.7753437,-6.1435668],[106.7753391,-6.1437141],[106.7753155,-6.1439753],[106.7752634,-6.1442947],[106.7752408,-6.1443558],[106.7751449,-6.1446144],[106.7750662,-6.144934],[106.7750856,-6.1452317],[106.7750878,-6.1452316],[106.7752453,-6.1452181],[106.7752535,-6.1452175],[106.7756502,-6.1449404],[106.776047,-6.144691],[106.7764513,-6.1444555],[106.7768862,-6.1441784],[106.7771074,-6.1441088],[106.7776568,-6.1440244],[106.7779322,-6.1439871],[106.7780764,-6.1439677],[106.778557,-6.1439662],[106.7786723,-6.1439608],[106.7792437,-6.1439338],[106.779648,-6.1438857],[106.7803153,-6.143836],[106.780533,-6.1438198],[106.780617,-6.1438132],[106.7806201,-6.1438129],[106.7811281,-6.1437712],[106.7815935,-6.1437226],[106.7819063,-6.1437064],[106.7824404,-6.143642],[106.7832186,-6.1435767],[106.7838129,-6.143549],[106.7839357,-6.1435433],[106.7846605,-6.1434784],[106.7854998,-6.1433816],[106.7862322,-6.1433325],[106.7873385,-6.1432353],[106.7875479,-6.1432281],[106.7878573,-6.1432176],[106.7880098,-6.1431394],[106.7880585,-6.1431024],[106.7881548,-6.1430293],[106.7885286,-6.1428409],[106.7885445,-6.1428317],[106.7889635,-6.1425896],[106.7891703,-6.1425005],[106.7891749,-6.1424985],[106.7891771,-6.1424976],[106.7895614,-6.142412],[106.7896255,-6.1423977],[106.7900107,-6.1423299],[106.7904095,-6.1423552],[106.7904249,-6.1423581],[106.790703,-6.1424113],[106.7911303,-6.1425586],[106.7916033,-6.1427007],[106.7920153,-6.1427918],[106.7921755,-6.1428066],[106.7924044,-6.1427851],[106.7929079,-6.142736],[106.7930834,-6.142725],[106.793386,-6.1426961],[106.7934725,-6.1426879],[106.7938845,-6.1426502],[106.7943194,-6.1426178],[106.7948992,-6.1425639],[106.7956164,-6.1425047],[106.7961199,-6.1424618],[106.7966463,-6.142417],[106.7968828,-6.1423946],[106.7971041,-6.1423722],[106.7973326,-6.1423426],[106.7974474,-6.1423278],[106.7978517,-6.1422725],[106.798134,-6.1422229],[106.7986528,-6.142097],[106.7989962,-6.1420365],[106.7992784,-6.1419974],[106.7997744,-6.1419583],[106.7999727,-6.1419359],[106.8002016,-6.1419244],[106.8003608,-6.1418742],[106.8003771,-6.1418691],[106.8005221,-6.1418872],[106.8005144,-6.1418219],[106.8005144,-6.1417885],[106.8005068,-6.1416789],[106.8004992,-6.1416226],[106.8004,-6.1398588],[106.8003924,-6.1396599],[106.8003618,-6.1389776],[106.8003161,-6.1380611],[106.800255,-6.137055],[106.8002245,-6.1366816],[106.8002245,-6.1366015],[106.8002245,-6.1365906],[106.8002245,-6.1365114],[106.8002245,-6.1364828],[106.8002169,-6.1356016],[106.8002474,-6.1352668],[106.8003618,-6.1349001],[106.8006822,-6.1342159],[106.8008425,-6.1339932],[106.80114,-6.1336508],[106.801903,-6.1331249],[106.8019509,-6.1330868],[106.8019564,-6.1330824],[106.8026506,-6.1328473],[106.803116,-6.1327296],[106.8043215,-6.1324158],[106.805237,-6.1321898],[106.805649,-6.1320835],[106.8057787,-6.1320468],[106.8059008,-6.132011],[106.8059771,-6.1319857],[106.8062212,-6.1319361],[106.8062949,-6.1319189],[106.8062995,-6.1319179],[106.8063051,-6.1319166],[106.8063738,-6.1318989],[106.8064119,-6.1318889],[106.8066866,-6.131826],[106.8069841,-6.1317325],[106.8070299,-6.1317182],[106.8070604,-6.1317087],[106.8078234,-6.1315227],[106.8081819,-6.1314183],[106.8089983,-6.1312027],[106.809273,-6.1311303],[106.8094789,-6.1310845],[106.80954,-6.1310697],[106.809601,-6.131054],[106.8099138,-6.1309619],[106.8103182,-6.1308766],[106.8103792,-6.1308613],[106.8104403,-6.1308442],[106.8104411,-6.130844],[106.8105166,-6.1308251],[106.8105471,-6.1308189],[106.8118441,-6.1304622],[106.8118975,-6.1304493],[106.8119738,-6.1304317],[106.8125689,-6.1302705],[106.8131869,-6.1301242],[106.8135454,-6.1300808],[106.8137667,-6.1300784],[106.8142855,-6.1301022],[106.8147204,-6.1301823],[106.8148195,-6.1301957],[106.8149416,-6.1302219],[106.8149784,-6.1302299],[106.8150331,-6.1302419],[106.815056,-6.1303778],[106.815346,-6.1315174],[106.8155443,-6.132309],[106.8157363,-6.132963],[106.8157961,-6.1331668],[106.8160326,-6.1339584],[106.8162462,-6.1347166],[106.81628,-6.1348261],[106.8164293,-6.1353102],[106.8166277,-6.1361352],[106.8166964,-6.1364322],[106.8167155,-6.1367505],[106.8167192,-6.1368118],[106.8167455,-6.1370636],[106.81719,-6.1369136],[106.8176217,-6.1368237],[106.818181,-6.1367038],[106.8185508,-6.1366154],[106.8186813,-6.1365842],[106.8192111,-6.1364645],[106.819584,-6.1363944],[106.8198293,-6.1363543],[106.8198554,-6.1363542],[106.8200552,-6.1363535],[106.8204678,-6.1364209],[106.820802,-6.1365377],[106.8210185,-6.1366942],[106.8212443,-6.1368801],[106.8212511,-6.1368785],[106.821274,-6.1368709],[106.8213884,-6.1369906],[106.8216478,-6.1373129],[106.8217928,-6.1375785],[106.8218386,-6.1377287],[106.8220293,-6.1385632],[106.8221209,-6.1388598],[106.8221972,-6.1391216],[106.822304,-6.1394992],[106.8223955,-6.1397858],[106.8225176,-6.1401749],[106.8225535,-6.1402621],[106.8225634,-6.140286],[106.8226092,-6.1403995],[106.8226397,-6.1404653],[106.8232042,-6.1415863],[106.8237612,-6.1425334],[106.8237748,-6.1425541],[106.8238069,-6.142603],[106.8238128,-6.1426101],[106.8238527,-6.1426588],[106.8238832,-6.1427055],[106.824074,-6.1430154],[106.8248066,-6.1442295],[106.8248445,-6.1442924],[106.8249895,-6.1445184],[106.8251726,-6.1448231],[106.8254778,-6.1453348],[106.8259813,-6.1462665],[106.8261948,-6.1467404],[106.8263323,-6.1470457],[106.8265535,-6.1478854],[106.8266451,-6.1482625],[106.8267197,-6.1485124],[106.8267214,-6.1485181],[106.8267748,-6.1487036],[106.8267977,-6.1488672],[106.8268282,-6.1489859],[106.8268969,-6.1494489],[106.8269426,-6.1497508],[106.8271105,-6.1505361],[106.8271298,-6.1507312],[106.8272319,-6.1517636],[106.8272478,-6.1519242],[106.8272936,-6.1523214],[106.8273394,-6.1536265],[106.8273485,-6.1540621],[106.8273775,-6.1554495],[106.8273796,-6.1555471],[106.8274019,-6.1565859],[106.8274157,-6.15723],[106.8274233,-6.157547],[106.8274233,-6.1575504],[106.827427,-6.1582687],[106.8274309,-6.1590362],[106.8274614,-6.1598096],[106.8274691,-6.1599446],[106.827614,-6.1607052],[106.827759,-6.1611758],[106.8279421,-6.1616288],[106.8280337,-6.1617909],[106.8282912,-6.1622242],[106.8283083,-6.1622529],[106.8280031,-6.1621633],[106.8279268,-6.1621414],[106.8278505,-6.1621342],[106.8273012,-6.1619735],[106.8267977,-6.1617794],[106.8267299,-6.1617569],[106.8266298,-6.1617237],[106.8264467,-6.1616569],[106.8262636,-6.1616083],[106.8261876,-6.1615845],[106.8261721,-6.1615796],[106.8257448,-6.1614051],[106.8253939,-6.1612807],[106.8249971,-6.1611324],[106.8249514,-6.1611205],[106.8246233,-6.1610227],[106.8244936,-6.1609679],[106.824013,-6.1607852],[106.8236467,-6.1606641],[106.8234865,-6.1606245],[106.8233034,-6.1605716],[106.8228914,-6.1603976],[106.8223421,-6.1601906],[106.8220064,-6.1600733],[106.821953,-6.1600595],[106.8216707,-6.1599575],[106.82148,-6.1598635],[106.8209154,-6.1596885],[106.8206331,-6.1596008],[106.8203432,-6.1595512],[106.8202822,-6.1595483],[106.8196794,-6.1596103],[106.8192827,-6.1596985],[106.8191835,-6.1597314],[106.8190191,-6.1597567],[106.8190157,-6.1597572],[106.818825,-6.1597877],[106.818123,-6.1598912],[106.8175966,-6.159977],[106.8174593,-6.1600085],[106.8166124,-6.1601253],[106.8162539,-6.1601959],[106.8159029,-6.1602531],[106.81514,-6.1604324],[106.8137514,-6.160574],[106.8134157,-6.1606269],[106.8132708,-6.1606417],[106.8128893,-6.1606698],[106.8128588,-6.1606722],[106.8128072,-6.1606758],[106.8127825,-6.1606775],[106.8126833,-6.160686],[106.8125612,-6.1606999],[106.8123705,-6.1606994],[106.8119585,-6.1607013],[106.8119299,-6.1606984],[106.8118593,-6.1606913],[106.8114931,-6.1607018],[106.8110888,-6.1607705],[106.8108522,-6.1608039],[106.8107531,-6.1608201],[106.8107073,-6.1608272],[106.8107002,-6.1608284],[106.8106539,-6.1608363],[106.8105394,-6.1608477],[106.8103106,-6.1609221],[106.8101046,-6.1610227],[106.8097384,-6.1611252],[106.809731,-6.1611277],[106.8097002,-6.1611381],[106.8095705,-6.1611557],[106.8092272,-6.1611877],[106.8086931,-6.1612654],[106.8084642,-6.1612998],[106.8081591,-6.161347],[106.8080435,-6.1613717],[106.8079999,-6.1613811],[106.8079989,-6.1613813],[106.8076098,-6.1614214],[106.8073809,-6.1614543],[106.8069078,-6.1615029],[106.8065187,-6.1615391],[106.8062975,-6.1615644],[106.8062576,-6.1615663],[106.8061678,-6.1615706],[106.8058092,-6.161604],[106.8054582,-6.1616946],[106.8054201,-6.1617031],[106.8047029,-6.1617909],[106.8045809,-6.161798],[106.8045718,-6.1617972],[106.8040087,-6.1617446],[106.8035967,-6.1616574],[106.803261,-6.1615396],[106.8030932,-6.1614642],[106.8027422,-6.1611982],[106.8025972,-6.1610828],[106.8023836,-6.1608453],[106.8021853,-6.1605573],[106.8020479,-6.1603074],[106.8019716,-6.1601992],[106.8018496,-6.1601396],[106.8018167,-6.1601398],[106.8017733,-6.1601401],[106.8016894,-6.160141],[106.8015902,-6.1601124],[106.8014605,-6.1583167],[106.80143,-6.1580436],[106.8014299,-6.158043],[106.8014147,-6.1581278],[106.8013994,-6.158269],[106.8013842,-6.1583777],[106.8013765,-6.1585255],[106.8013155,-6.159009],[106.8011934,-6.1593824],[106.8009874,-6.1597863],[106.8008806,-6.1599551],[106.8006136,-6.1602326],[106.8004204,-6.1603575],[106.8002398,-6.1604744],[106.7986147,-6.1611863],[106.7985155,-6.1612401],[106.7983477,-6.1612988],[106.7982866,-6.1613264],[106.7981513,-6.1613838],[106.7981493,-6.1613846],[106.7984163,-6.1619945],[106.7985994,-6.1624375],[106.7987891,-6.1630365],[106.7988131,-6.1631122],[106.7990496,-6.1637245],[106.7992556,-6.1641584],[106.7994463,-6.1645537],[106.799538,-6.1647192],[106.7997286,-6.1650634],[106.800049,-6.1655732],[106.8002703,-6.1659303],[106.8003084,-6.1659895],[106.8003088,-6.16599],[106.8005373,-6.1663251],[106.8007814,-6.1667328],[106.8009493,-6.1669498],[106.8011858,-6.1672912],[106.8015291,-6.167769],[106.8020937,-6.1685849],[106.8025896,-6.1693011],[106.8030321,-6.1699081],[106.8033297,-6.1703463],[106.8037874,-6.1710329],[106.8039934,-6.1713114],[106.8042223,-6.1716605],[106.8045504,-6.1721063],[106.8048555,-6.172565],[106.8051684,-6.17305],[106.805471,-6.1734893],[106.8054735,-6.1734929],[106.8056337,-6.1737185],[106.8059542,-6.1741376],[106.8060285,-6.1742522],[106.8061754,-6.1744786],[106.8063433,-6.1747408],[106.8064806,-6.1749239],[106.8065569,-6.1750946],[106.8067552,-6.1753831],[106.8075487,-6.1764708],[106.8079284,-6.1769851],[106.8079454,-6.1770082],[106.8082354,-6.1774106],[106.8086245,-6.177959],[106.8088839,-6.17832],[106.8090899,-6.1785946],[106.8092653,-6.1788254],[106.8094713,-6.179071],[106.8096315,-6.1793018],[106.8097307,-6.1795621],[106.8097875,-6.1797343],[106.809807,-6.1797934],[106.8098604,-6.1801119],[106.8099367,-6.1805602],[106.8099891,-6.181217],[106.8099977,-6.181325],[106.8099982,-6.1813301],[106.8100114,-6.181482],[106.810013,-6.181501],[106.8100588,-6.1821957],[106.8101198,-6.182673],[106.8101267,-6.1827509],[106.8101423,-6.1829291],[106.8101587,-6.1831158],[106.8101656,-6.1831942],[106.8101669,-6.1832211],[106.8101735,-6.1833596],[106.8101764,-6.1834201],[106.8101809,-6.1835123],[106.8102419,-6.1841207],[106.8103106,-6.1847902],[106.8103258,-6.1849594],[106.8103264,-6.1849645],[106.8104021,-6.185565],[106.8104248,-6.185812],[106.8104708,-6.1863137],[106.8105013,-6.1868391],[106.8105776,-6.1874171],[106.8106615,-6.1879945],[106.8106768,-6.1883493],[106.8106768,-6.1885176],[106.8106567,-6.1886976],[106.8106539,-6.1887231],[106.8106492,-6.1887225],[106.8105471,-6.1887098],[106.8103029,-6.1886788],[106.8095324,-6.1886979],[106.8094103,-6.1886983],[106.8088152,-6.1887346],[106.808304,-6.1887999],[106.8080834,-6.1888134],[106.8079683,-6.1888204],[106.8074037,-6.188871],[106.8071444,-6.1889005],[106.8070452,-6.1889325],[106.8068621,-6.1889949],[106.8067476,-6.189106],[106.8067247,-6.1891361],[106.8067244,-6.1891372],[106.8065187,-6.1899991],[106.806473,-6.1902066],[106.8064425,-6.1903515],[106.8062822,-6.1908823],[106.8060534,-6.1914716],[106.8059466,-6.1916957],[106.805916,-6.1917415],[106.805876,-6.1918401],[106.805504,-6.1927577],[106.8054735,-6.1928396],[106.8054201,-6.1933036],[106.8053591,-6.1938491],[106.8052781,-6.1944157],[106.8052752,-6.1944366],[106.8050921,-6.1955524],[106.8050844,-6.1956273],[106.8048097,-6.1963845],[106.8048073,-6.1963896],[106.8047945,-6.1964164],[106.8046343,-6.1967154],[106.8045199,-6.1969366],[106.8044054,-6.1971331],[106.8043215,-6.1972685],[106.8042942,-6.1973201],[106.8042833,-6.1973405],[106.8041155,-6.1975189],[106.8036882,-6.1977921],[106.8036196,-6.1978274],[106.8035662,-6.1978813],[106.8034441,-6.1980624],[106.8031389,-6.1986323],[106.8030092,-6.1988283],[106.8028719,-6.1989417],[106.8026659,-6.1990834],[106.8026201,-6.1991096],[106.801819,-6.1994896],[106.8016359,-6.1995936],[106.8014833,-6.1996694],[106.8014223,-6.199698],[106.8007509,-6.1999755],[106.8005983,-6.200037],[106.8005602,-6.200059],[106.8002932,-6.2002111],[106.8000872,-6.2003904],[106.7998201,-6.2007056],[106.7996142,-6.2010041],[106.799576,-6.2010417],[106.7995531,-6.2011147],[106.799431,-6.2015047],[106.7994081,-6.2016554],[106.799408,-6.2016556],[106.79937,-6.2016988],[106.7990648,-6.2019954],[106.798958,-6.2020521],[106.7988817,-6.2021075],[106.7985155,-6.2023521],[106.7984774,-6.2023845],[106.798134,-6.2026816],[106.7980349,-6.2028003],[106.7978441,-6.2029767],[106.7977144,-6.203137],[106.7976534,-6.2032433],[106.7976305,-6.2032667],[106.7975618,-6.203363],[106.7973635,-6.203672],[106.7973329,-6.2037273],[106.7972796,-6.2038002],[106.7971956,-6.2039156],[106.7971422,-6.204031],[106.7968905,-6.2045689],[106.7968523,-6.2046914],[106.7965929,-6.2054992],[106.7965853,-6.2055669],[106.7964632,-6.2059088],[106.7963335,-6.206266],[106.7961962,-6.206811],[106.7960588,-6.2075811],[106.796005,-6.2075853],[106.7956316,-6.2076145],[106.795006,-6.2076431],[106.7947008,-6.207666],[106.7939989,-6.2077022],[106.7932207,-6.2077623],[106.7930147,-6.2077752],[106.7929079,-6.2077957],[106.7925417,-6.2078281],[106.7923891,-6.207788],[106.7922213,-6.207747],[106.7919542,-6.2076946],[106.7915651,-6.2076254],[106.790848,-6.2075019],[106.7904512,-6.2074438],[106.7899324,-6.2078753],[106.7895856,-6.2082286],[106.7895205,-6.2082949],[106.7893831,-6.2084174],[106.7891848,-6.2084899],[106.789139,-6.2084969],[106.7891161,-6.2085004],[106.788994,-6.2084933],[106.788521,-6.2082458],[106.7883913,-6.2081576],[106.7883074,-6.2080465],[106.7880175,-6.2077422],[106.7878801,-6.2075987],[106.7878496,-6.207542],[106.7878267,-6.2075143],[106.7877352,-6.2073589],[106.7875673,-6.2071968],[106.7873232,-6.2070485],[106.7869265,-6.2069378],[106.7865603,-6.2069064],[106.7863237,-6.2068973],[106.7859957,-6.2068677],[106.7852098,-6.2068005],[106.7848742,-6.2067752],[106.7845232,-6.2067652],[106.7839739,-6.2067395],[106.78315,-6.2067201],[106.7831423,-6.2067199],[106.7831423,-6.207109],[106.7831652,-6.2074609],[106.7831728,-6.2075329],[106.7832109,-6.2079001],[106.7832338,-6.2082663],[106.7832644,-6.2085896],[106.7833407,-6.2093258],[106.7833788,-6.2096062],[106.7833788,-6.2096324],[106.783478,-6.2104335],[106.7835009,-6.2108369],[106.7835085,-6.21099],[106.7835148,-6.2110111],[106.7835161,-6.2110157],[106.783539,-6.2113481],[106.7835543,-6.2121625],[106.7834856,-6.2124143],[106.7833483,-6.2126961],[106.7831728,-6.2129469],[106.7831499,-6.2129608],[106.7831014,-6.2129842],[106.7830584,-6.2130051],[106.7829439,-6.2131024],[106.7827837,-6.2132187],[106.7825243,-6.2132864],[106.7823183,-6.2133017],[106.7816774,-6.2133332],[106.7810469,-6.2133607],[106.7810012,-6.2133582],[106.780703,-6.2133646],[106.7805875,-6.213373],[106.7801821,-6.2134085],[106.7799866,-6.2134168],[106.7793886,-6.2134423],[106.778763,-6.2134719],[106.7780916,-6.2135034],[106.7778399,-6.2135339],[106.7777483,-6.2135859],[106.7776796,-6.2136803],[106.7776644,-6.2137223],[106.7776262,-6.2140775],[106.7776262,-6.214109],[106.7776262,-6.2142497],[106.7776333,-6.2147169],[106.7776075,-6.2150477],[106.7775786,-6.2152441],[106.7775499,-6.2153869],[106.7775042,-6.2154842],[106.7773668,-6.2157202],[106.7771151,-6.2161365],[106.7771144,-6.21614],[106.7770998,-6.2162194],[106.7770769,-6.2165785],[106.777138,-6.2168651],[106.7772371,-6.2169738],[106.7774431,-6.2170973],[106.7778322,-6.2172895],[106.7779467,-6.2173272],[106.7782137,-6.2174473],[106.7783281,-6.2175565],[106.778351,-6.2175885],[106.7783815,-6.2176681],[106.778435,-6.2179013],[106.7784731,-6.2183204],[106.7784807,-6.218781],[106.7784811,-6.2187899],[106.7784884,-6.2189665],[106.7784731,-6.2197685],[106.7784731,-6.2198248],[106.7784731,-6.2201247],[106.7784806,-6.2203866],[106.7784807,-6.2203899],[106.7784807,-6.2206931],[106.7784807,-6.2208682],[106.7784807,-6.2211366],[106.7784731,-6.2218237],[106.7784655,-6.2221504],[106.7784655,-6.2222681],[106.7784578,-6.2224765],[106.7784578,-6.2232199],[106.7784578,-6.223322],[106.7784578,-6.2243872],[106.7784503,-6.224836],[106.7784722,-6.2248481],[106.7784706,-6.2249451],[106.7784443,-6.2251942],[106.7784366,-6.2254634],[106.7784297,-6.2257036],[106.7784115,-6.2263391],[106.7784054,-6.226554],[106.7784093,-6.2266815],[106.7784162,-6.226909],[106.7783127,-6.2269147],[106.7779543,-6.2269161],[106.7778362,-6.2269674],[106.7777085,-6.2269678],[106.7774834,-6.2269686],[106.7774297,-6.2269377],[106.7773588,-6.2269389],[106.7772209,-6.2269412],[106.7772016,-6.2269416],[106.7770747,-6.2269442],[106.7769694,-6.2269465],[106.7769647,-6.2270351],[106.7765329,-6.2270659],[106.7765191,-6.2270669],[106.7762692,-6.2270677],[106.7762488,-6.2269831],[106.7761571,-6.2269844],[106.7761403,-6.227024],[106.7758264,-6.2270366],[106.7757593,-6.2270394],[106.7756436,-6.2270435],[106.775322,-6.2270549],[106.7752995,-6.2270804],[106.7751609,-6.2270582],[106.7751272,-6.2270528],[106.7749017,-6.2270617],[106.7748435,-6.2270641],[106.7748359,-6.2270199],[106.7748324,-6.2270194],[106.7745609,-6.2270343],[106.7745051,-6.2270066],[106.7744569,-6.2270892],[106.7739512,-6.2270995],[106.7738049,-6.2271025],[106.773761,-6.2271034],[106.7734105,-6.2271105],[106.7732507,-6.2271138],[106.7727949,-6.2271231],[106.772731,-6.2271244],[106.7719145,-6.227141],[106.7718253,-6.2271404],[106.7717873,-6.2271402],[106.7710929,-6.2271666],[106.7701774,-6.2271965],[106.7699401,-6.2272195],[106.7698568,-6.2272158],[106.7698019,-6.2272134],[106.7691101,-6.2272312],[106.7689606,-6.2272317],[106.7688451,-6.227238],[106.7686555,-6.2272484],[106.7683524,-6.2272649],[106.7680179,-6.2272493],[106.7678404,-6.2272743],[106.7677886,-6.2272766],[106.7676904,-6.2272769],[106.7676429,-6.2272771],[106.7675185,-6.2272775],[106.7673932,-6.2273011],[106.7672524,-6.2273276],[106.7671308,-6.227356],[106.7669016,-6.2274096],[106.7667366,-6.2274482],[106.7665136,-6.2274304],[106.7663816,-6.2273957],[106.7662987,-6.2274124],[106.7662814,-6.2274118],[106.766232,-6.2274078],[106.7659751,-6.2273872],[106.7657899,-6.2273724],[106.7655654,-6.2273544],[106.7643853,-6.2272597],[106.7643374,-6.2272559],[106.7643309,-6.2272554],[106.7643082,-6.227256],[106.76442,-6.22705],[106.76451,-6.2269],[106.7646122,-6.2268279],[106.764659,-6.2268013],[106.7647478,-6.2267591],[106.76481,-6.22674],[106.7648869,-6.2267304],[106.7649656,-6.2267301],[106.7650973,-6.2267911],[106.7652114,-6.2268434],[106.7652115,-6.2268412],[106.7652485,-6.2268706],[106.7652642,-6.2268958],[106.7654137,-6.2270269],[106.7656204,-6.2270841],[106.7656331,-6.2270876],[106.7656416,-6.2270918],[106.7657154,-6.2271284],[106.765756,-6.2271486],[106.7659225,-6.2271393],[106.7660801,-6.2270686],[106.7661589,-6.2269919],[106.7661499,-6.2268723],[106.7660899,-6.2267956],[106.7661493,-6.2266673],[106.76613,-6.22626],[106.76614,-6.22607],[106.76617,-6.22601],[106.76632,-6.22596],[106.76662,-6.22588],[106.76677,-6.22579],[106.76694,-6.22558],[106.76703,-6.22541],[106.76704,-6.2253],[106.76699,-6.22518],[106.7669891,-6.2251778],[106.7667315,-6.2249003],[106.7665712,-6.2247496],[106.7664415,-6.2245488],[106.7663271,-6.2243385],[106.7662432,-6.2241807],[106.7661287,-6.2240377],[106.7658007,-6.2236738],[106.7656328,-6.2233301],[106.76555,-6.2229808],[106.7655005,-6.2229824],[106.7649472,-6.2230523],[106.7642799,-6.2231367],[106.7642519,-6.2231403],[106.7632753,-6.223085],[106.7625076,-6.2231358],[106.7625038,-6.223136],[106.7624971,-6.2231364],[106.7620851,-6.2231479],[106.7619047,-6.2231388],[106.7619029,-6.2231387],[106.7618923,-6.2231381],[106.7617719,-6.223132],[106.7616145,-6.2231241],[106.7616066,-6.2231237],[106.7616045,-6.2231236],[106.7616039,-6.2231236],[106.7615978,-6.2231239],[106.7615893,-6.2231244],[106.7615129,-6.2231284],[106.7613066,-6.2231392],[106.7613059,-6.2231392],[106.7609408,-6.2231584],[106.7608318,-6.223156],[106.76083,-6.2231559],[106.7603779,-6.2231445],[106.7603626,-6.2231445],[106.7603283,-6.2231445],[106.7602863,-6.2231445],[106.7602634,-6.2231445],[106.7602105,-6.2231389],[106.76021,-6.2231388],[106.7601414,-6.2231464],[106.7601408,-6.2231464],[106.7601443,-6.2231431],[106.7595217,-6.223135],[106.7592896,-6.2231154],[106.7589873,-6.2230898],[106.7589869,-6.2230886],[106.7589245,-6.2230854],[106.7589225,-6.2230853]]]],"type":"MultiPolygon"},"properties":{"fid":2418966,"KELAS":"ZONA PANAS","CLASS":"HOT ZONE","TEMPERATUR":"≥ 32⁰ C"}}]}