{"type":"FeatureCollection","features":[{"type":"Feature","geometry":{"coordinates":[[[[106.8281315,-6.1170685],[106.8281562,-6.11729],[106.82818254076649,-6.117527084853942],[106.8276535874935,-6.117527084853942],[106.8276535874935,-6.116447130044086],[106.8281315,-6.1170685]]]],"type":"MultiPolygon"},"properties":{"fid":1857283,"KELAS":"ZONA NORMAL","CLASS":"NORMAL ZONE","TEMPERATUR":"21⁰ C - 27⁰ C"}},{"type":"Feature","geometry":{"coordinates":[[[[106.8231620110729,-6.122018661274539],[106.8276535874935,-6.122018661274539],[106.8276535874935,-6.126510237695137],[106.8231620110729,-6.126510237695137],[106.8231620110729,-6.122018661274539]]]],"type":"MultiPolygon"},"properties":{"fid":1858915,"KELAS":"ZONA HANGAT","CLASS":"VERY WARM ZONE","TEMPERATUR":"28⁰ C - 31⁰ C"}},{"type":"Feature","geometry":{"coordinates":[[[[106.80305,-6.09461],[106.8033,-6.09454],[106.80363,-6.09451],[106.80367,-6.09456],[106.80369,-6.09464],[106.80377759239816,-6.095069202750953],[106.8031309964036,-6.095069202750953],[106.80305,-6.09461]]]],"type":"MultiPolygon"},"properties":{"fid":1856050,"KELAS":"ZONA NORMAL","CLASS":"NORMAL ZONE","TEMPERATUR":"21⁰ C - 27⁰ C"}},{"type":"Feature","geometry":{"coordinates":[[[[106.8770051,-6.0945421],[106.87706092812007,-6.094548082930991],[106.87706092812007,-6.095069202750953],[106.87691306227941,-6.095069202750953],[106.8770051,-6.0945421]]]],"type":"MultiPolygon"},"properties":{"fid":1853213,"KELAS":"ZONA NORMAL","CLASS":"NORMAL ZONE","TEMPERATUR":"21⁰ C - 27⁰ C"}},{"type":"Feature","geometry":{"coordinates":[[[[106.8810537,-6.162598],[106.8809084,-6.1626195],[106.8808734,-6.1626306],[106.8807389,-6.1626732],[106.8805898,-6.1627025],[106.8805162,-6.162717],[106.8802753,-6.1627745],[106.880205,-6.1627914],[106.880169,-6.1628],[106.8799898,-6.1628428],[106.8798631,-6.1628731],[106.8794634,-6.1629687],[106.8788836,-6.1631338],[106.8785173,-6.1632319],[106.878258,-6.1633054],[106.8775026,-6.1634708],[106.8770067,-6.1635371],[106.876877,-6.1634942],[106.8763887,-6.1631637],[106.8760225,-6.1629201],[106.8756929,-6.162707],[106.8753615,-6.1624927],[106.8752901,-6.1624466],[106.8750917,-6.1622892],[106.8750002,-6.1622339],[106.8742678,-6.1617871],[106.8731004,-6.1610847],[106.8727571,-6.1608778],[106.8724367,-6.160677],[106.870888,-6.1597911],[106.8706438,-6.1596609],[106.8704454,-6.1595593],[106.8702089,-6.1594258],[106.8701177,-6.1593707],[106.869858,-6.1592141],[106.8695375,-6.1590453],[106.8692018,-6.1588765],[106.8688772,-6.1586898],[106.8688585,-6.1586791],[106.8683245,-6.1583372],[106.8680651,-6.1581736],[106.8678229,-6.1580503],[106.8678056,-6.1580416],[106.8668609,-6.1575482],[106.8668596,-6.1575475],[106.8665385,-6.1573328],[106.8663703,-6.1572415],[106.8660204,-6.1570516],[106.8657991,-6.1569191],[106.865349,-6.1566821],[106.8652956,-6.1566544],[106.8648989,-6.1564499],[106.8641948,-6.1560677],[106.8637621,-6.1558328],[106.863228,-6.155531],[106.8623506,-6.1550413],[106.8621446,-6.1549655],[106.8620989,-6.1549493],[106.8620106,-6.1548985],[106.8613841,-6.1545381],[106.8601763,-6.1538435],[106.8602983,-6.1537548],[106.8604433,-6.1535774],[106.8606188,-6.1532679],[106.8607637,-6.1529437],[106.8608782,-6.152649],[106.860985,-6.1523319],[106.8610842,-6.1519671],[106.8611605,-6.1515861],[106.8611986,-6.1512218],[106.8611605,-6.1508909],[106.8611603,-6.1508909],[106.8609502,-6.1509347],[106.8609181,-6.1517959],[106.860481,-6.152394],[106.859823,-6.1526161],[106.8592168,-6.1526914],[106.858521,-6.1528049],[106.8584957,-6.1528091],[106.8574979,-6.1522674],[106.8566812,-6.1518241],[106.8565371,-6.1518541],[106.85627,-6.1518312],[106.8552582,-6.1519615],[106.8551003,-6.1519818],[106.8548815,-6.15201],[106.8544771,-6.1520954],[106.8542711,-6.1521626],[106.8535692,-6.1522413],[106.8534014,-6.1522599],[106.8531115,-6.1523109],[106.8526003,-6.1523777],[106.852463,-6.1523872],[106.8517992,-6.1525522],[106.8517687,-6.1525551],[106.8510439,-6.1526709],[106.8508226,-6.152711],[106.8506472,-6.152732],[106.8503862,-6.1527672],[106.8503601,-6.1527707],[106.8503573,-6.1527711],[106.8501131,-6.1528073],[106.8498842,-6.1528555],[106.8497164,-6.152875],[106.8488924,-6.1530152],[106.8488619,-6.1530171],[106.8476259,-6.1531992],[106.8471377,-6.1532651],[106.847069,-6.1532732],[106.8466188,-6.1533509],[106.8460543,-6.1534477],[106.8456957,-6.1535206],[106.8450472,-6.1537705],[106.8448793,-6.1538616],[106.8446581,-6.1540356],[106.8435671,-6.1536527],[106.8435652,-6.153651],[106.8434755,-6.1535712],[106.8428118,-6.153092],[106.8425905,-6.1529313],[106.8420641,-6.1526232],[106.8413393,-6.1520954],[106.8413012,-6.1519228],[106.8412477,-6.151435],[106.8412315,-6.1513239],[106.8411944,-6.1510697],[106.8413317,-6.1506854],[106.8415453,-6.1503382],[106.8417894,-6.1499162],[106.8419725,-6.1494685],[106.8422654,-6.1486739],[106.8422701,-6.1486612],[106.8423617,-6.1484471],[106.8428728,-6.1478968],[106.8433916,-6.1472874],[106.8434526,-6.1471873],[106.8433458,-6.1469718],[106.8431932,-6.1467796],[106.8431246,-6.1466866],[106.8431093,-6.1465221],[106.8431475,-6.1463428],[106.8432848,-6.1460601],[106.8435518,-6.1456948],[106.8440553,-6.1449857],[106.8440228,-6.1449644],[106.8439257,-6.1449009],[106.8438875,-6.1448765],[106.843384,-6.1445952],[106.8431201,-6.1444416],[106.8430941,-6.1444264],[106.8421197,-6.1438479],[106.8420681,-6.1438173],[106.8420565,-6.1438103],[106.841942,-6.1437441],[106.8414633,-6.1434854],[106.8411118,-6.1432955],[106.8403551,-6.1428867],[106.8399278,-6.1426402],[106.8398901,-6.1426213],[106.8398821,-6.1426173],[106.8388311,-6.1420428],[106.8388292,-6.1420417],[106.8386321,-6.1419338],[106.838511,-6.1418675],[106.8385088,-6.1418663],[106.8383981,-6.1418071],[106.8383927,-6.1418042],[106.8383562,-6.1417847],[106.8383486,-6.1418095],[106.8383181,-6.1418634],[106.8382875,-6.1419149],[106.8381884,-6.1421862],[106.8380587,-6.1424966],[106.8377077,-6.1433263],[106.8374202,-6.1440977],[106.8372728,-6.1444932],[106.8371126,-6.1450539],[106.8370897,-6.14533],[106.8371077,-6.1459415],[106.8371116,-6.1460764],[106.8371126,-6.1461111],[106.837044,-6.1458903],[106.8369143,-6.1454178],[106.8367617,-6.1449423],[106.8363497,-6.1440931],[106.8359087,-6.1434649],[106.8359072,-6.1434627],[106.8356707,-6.1431718],[106.8352053,-6.1427584],[106.8348238,-6.1424447],[106.8342669,-6.1421023],[106.8339693,-6.1419616],[106.8334887,-6.141717],[106.8333818,-6.1416717],[106.8332369,-6.1416364],[106.8331759,-6.1416159],[106.8330507,-6.1415745],[106.8330462,-6.141573],[106.8329088,-6.1415277],[106.8328783,-6.1415172],[106.8328173,-6.1415177],[106.8324663,-6.141377],[106.8321306,-6.141234],[106.8316768,-6.1409122],[106.8316737,-6.14091],[106.8316444,-6.1408892],[106.8314898,-6.1407796],[106.8311769,-6.140411],[106.8308031,-6.13974],[106.8307268,-6.1395665],[106.8307268,-6.1395402],[106.8306505,-6.1390014],[106.8306429,-6.1380988],[106.8306505,-6.1377483],[106.8306734,-6.1359673],[106.8306734,-6.1354275],[106.8306697,-6.1353754],[106.8306658,-6.1353212],[106.8305742,-6.1353436],[106.8301317,-6.1354495],[106.8300554,-6.13547],[106.8294756,-6.1355625],[106.8292238,-6.1355906],[106.828972,-6.1356178],[106.8287661,-6.1356545],[106.8287279,-6.1356688],[106.8286287,-6.1356955],[106.8284304,-6.1357484],[106.8280718,-6.1358405],[106.828026,-6.1358457],[106.8272631,-6.1359673],[106.8272173,-6.1359749],[106.8267138,-6.1360779],[106.8262636,-6.1361466],[106.8261644,-6.1361561],[106.8259835,-6.1361865],[106.8257982,-6.1362176],[106.8256075,-6.1362372],[106.8255995,-6.1362379],[106.8255312,-6.1362439],[106.8251421,-6.1363211],[106.8249132,-6.1363469],[106.8233645,-6.1365662],[106.8230898,-6.1365924],[106.822838,-6.1366211],[106.8223726,-6.1366911],[106.8214113,-6.1368423],[106.821274,-6.1368709],[106.8212511,-6.1368785],[106.8212443,-6.1368801],[106.8210185,-6.1366942],[106.820802,-6.1365377],[106.8204678,-6.1364209],[106.8200552,-6.1363535],[106.8198554,-6.1363542],[106.8198293,-6.1363543],[106.819584,-6.1363944],[106.8192111,-6.1364645],[106.8186813,-6.1365842],[106.8185508,-6.1366154],[106.818181,-6.1367038],[106.8176217,-6.1368237],[106.81719,-6.1369136],[106.8167455,-6.1370636],[106.8167192,-6.1368118],[106.8167155,-6.1367505],[106.8166964,-6.1364322],[106.8166277,-6.1361352],[106.8164293,-6.1353102],[106.81628,-6.1348261],[106.8162462,-6.1347166],[106.8160326,-6.1339584],[106.8157961,-6.1331668],[106.8157363,-6.132963],[106.8155443,-6.132309],[106.815346,-6.1315174],[106.815056,-6.1303778],[106.8150331,-6.1302419],[106.8149784,-6.1302299],[106.8149416,-6.1302219],[106.8148195,-6.1301957],[106.8147204,-6.1301823],[106.8142855,-6.1301022],[106.8137667,-6.1300784],[106.8135454,-6.1300808],[106.8131869,-6.1301242],[106.8125689,-6.1302705],[106.8119738,-6.1304317],[106.8118975,-6.1304493],[106.8118441,-6.1304622],[106.8105471,-6.1308189],[106.8105166,-6.1308251],[106.8104411,-6.130844],[106.8104403,-6.1308442],[106.8103792,-6.1308613],[106.8103182,-6.1308766],[106.8099138,-6.1309619],[106.809601,-6.131054],[106.80954,-6.1310697],[106.8094789,-6.1310845],[106.809273,-6.1311303],[106.8089983,-6.1312027],[106.8081819,-6.1314183],[106.8078234,-6.1315227],[106.8070604,-6.1317087],[106.8070299,-6.1317182],[106.8069841,-6.1317325],[106.8066866,-6.131826],[106.8064119,-6.1318889],[106.8063738,-6.1318989],[106.8063051,-6.1319166],[106.8062995,-6.1319179],[106.8062949,-6.1319189],[106.8062212,-6.1319361],[106.8059771,-6.1319857],[106.8059008,-6.132011],[106.8057787,-6.1320468],[106.805649,-6.1320835],[106.805237,-6.1321898],[106.8043215,-6.1324158],[106.803116,-6.1327296],[106.8026506,-6.1328473],[106.8019564,-6.1330824],[106.8019509,-6.1330868],[106.801903,-6.1331249],[106.80114,-6.1336508],[106.8008425,-6.1339932],[106.8006822,-6.1342159],[106.8003618,-6.1349001],[106.8002474,-6.1352668],[106.8002169,-6.1356016],[106.8002245,-6.1364828],[106.8002245,-6.1365114],[106.8002245,-6.1365906],[106.8002245,-6.1366015],[106.8002245,-6.1366816],[106.800255,-6.137055],[106.8003161,-6.1380611],[106.8003618,-6.1389776],[106.8003924,-6.1396599],[106.8004,-6.1398588],[106.8004992,-6.1416226],[106.8005068,-6.1416789],[106.8005144,-6.1417885],[106.8005144,-6.1418219],[106.8005221,-6.1418872],[106.8003771,-6.1418691],[106.8003608,-6.1418742],[106.8002016,-6.1419244],[106.7999727,-6.1419359],[106.7997744,-6.1419583],[106.7992784,-6.1419974],[106.7989962,-6.1420365],[106.7986528,-6.142097],[106.798134,-6.1422229],[106.7978517,-6.1422725],[106.7974474,-6.1423278],[106.7973326,-6.1423426],[106.7971041,-6.1423722],[106.7968828,-6.1423946],[106.7966463,-6.142417],[106.7961199,-6.1424618],[106.7956164,-6.1425047],[106.7948992,-6.1425639],[106.7943194,-6.1426178],[106.7938845,-6.1426502],[106.7934725,-6.1426879],[106.793386,-6.1426961],[106.7930834,-6.142725],[106.7929079,-6.142736],[106.7924044,-6.1427851],[106.7921755,-6.1428066],[106.7920153,-6.1427918],[106.7916033,-6.1427007],[106.7911303,-6.1425586],[106.790703,-6.1424113],[106.7904249,-6.1423581],[106.7904095,-6.1423552],[106.7900107,-6.1423299],[106.7896255,-6.1423977],[106.7895614,-6.142412],[106.7891771,-6.1424976],[106.7891749,-6.1424985],[106.7891703,-6.1425005],[106.7889635,-6.1425896],[106.7885445,-6.1428317],[106.7885286,-6.1428409],[106.7881548,-6.1430293],[106.7880585,-6.1431024],[106.7880098,-6.1431394],[106.7878573,-6.1432176],[106.7875479,-6.1432281],[106.7873385,-6.1432353],[106.7862322,-6.1433325],[106.7854998,-6.1433816],[106.7846605,-6.1434784],[106.7839357,-6.1435433],[106.7838129,-6.143549],[106.7832186,-6.1435767],[106.7824404,-6.143642],[106.7819063,-6.1437064],[106.7815935,-6.1437226],[106.7811281,-6.1437712],[106.7806201,-6.1438129],[106.780617,-6.1438132],[106.780533,-6.1438198],[106.7803153,-6.143836],[106.779648,-6.1438857],[106.7792437,-6.1439338],[106.7786723,-6.1439608],[106.778557,-6.1439662],[106.7780764,-6.1439677],[106.7779322,-6.1439871],[106.7776568,-6.1440244],[106.7771074,-6.1441088],[106.7768862,-6.1441784],[106.7764513,-6.1444555],[106.776047,-6.144691],[106.7756502,-6.1449404],[106.7752535,-6.1452175],[106.7752453,-6.1452181],[106.7750878,-6.1452316],[106.7750856,-6.1452317],[106.7750662,-6.144934],[106.7751449,-6.1446144],[106.7752408,-6.1443558],[106.7752634,-6.1442947],[106.7753155,-6.1439753],[106.7753391,-6.1437141],[106.7753437,-6.1435668],[106.7753482,-6.1434198],[106.7753253,-6.142911],[106.7753173,-6.1426483],[106.7753104,-6.1424188],[106.7753591,-6.1421078],[106.7753625,-6.142086],[106.7755044,-6.1419011],[106.7755281,-6.1418405],[106.7754595,-6.1417165],[106.7752143,-6.1415976],[106.7750475,-6.1415167],[106.7748873,-6.1414137],[106.77475,-6.1413427],[106.7746812,-6.1413474],[106.7739426,-6.1413983],[106.7738573,-6.1414042],[106.7731096,-6.1414728],[106.7727968,-6.1414852],[106.7727434,-6.1414857],[106.7726519,-6.141469],[106.7724917,-6.1414314],[106.7721865,-6.1413837],[106.7721254,-6.1413765],[106.7717211,-6.1413021],[106.7712404,-6.1412101],[106.7710497,-6.1411777],[106.7709581,-6.1411772],[106.7707903,-6.14114],[106.7707445,-6.1411286],[106.7706911,-6.1411109],[106.7703096,-6.1410509],[106.770241,-6.1410432],[106.7698977,-6.1409941],[106.7691652,-6.1408787],[106.7690661,-6.140872],[106.768738,-6.1407981],[106.7683794,-6.1407104],[106.7682268,-6.1406899],[106.7682126,-6.1406841],[106.7680132,-6.1406036],[106.7669985,-6.140265],[106.7666781,-6.140163],[106.7661516,-6.1399746],[106.7661211,-6.1399651],[106.7657091,-6.1398154],[106.7654573,-6.1397353],[106.7648317,-6.1394987],[106.7640459,-6.1392193],[106.763756,-6.1391325],[106.7637331,-6.1391254],[106.7633059,-6.1389714],[106.763077,-6.1388827],[106.7626574,-6.1387592],[106.7619631,-6.1385231],[106.7618105,-6.1384716],[106.7610705,-6.1382122],[106.7607271,-6.1380964],[106.7602007,-6.1379114],[106.7600252,-6.1378684],[106.7591784,-6.1375771],[106.7586443,-6.1374011],[106.7584307,-6.1373244],[106.7579043,-6.1371408],[106.756943,-6.1368037],[106.7565462,-6.136663],[106.7561495,-6.1365266],[106.7558977,-6.1364694],[106.7545168,-6.1359067],[106.7544634,-6.1358838],[106.7538988,-6.1356411],[106.7537844,-6.1355906],[106.753052,-6.1352821],[106.7528917,-6.1351872],[106.7528383,-6.1351552],[106.7526857,-6.1350675],[106.7526821,-6.1350654],[106.7525524,-6.1349929],[106.7525408,-6.1349864],[106.7524798,-6.1349473],[106.7524058,-6.1349059],[106.7523343,-6.1348725],[106.7523201,-6.1348659],[106.752241,-6.1348266],[106.751877,-6.1347213],[106.7514269,-6.1345835],[106.7513974,-6.1345785],[106.7512362,-6.1345511],[106.7508547,-6.1344271],[106.7506901,-6.134334],[106.7506755,-6.1343295],[106.7502676,-6.1341114],[106.7501809,-6.134065],[106.7498097,-6.1338286],[106.7497981,-6.1338191],[106.749486,-6.1335635],[106.7493101,-6.1333886],[106.7491716,-6.1332509],[106.7489626,-6.1329608],[106.7488787,-6.1328998],[106.7485659,-6.1327296],[106.7484517,-6.1326467],[106.7483675,-6.1325856],[106.7483292,-6.1325512],[106.7481148,-6.1323989],[106.7481022,-6.1323877],[106.7476767,-6.1320107],[106.7472102,-6.1316605],[106.7470324,-6.1315522],[106.7469179,-6.1315031],[106.7467119,-6.1314073],[106.7464983,-6.1312652],[106.7457506,-6.1307182],[106.7456514,-6.1306448],[106.7451555,-6.1302834],[106.7448656,-6.1300926],[106.7447588,-6.1300221],[106.7441942,-6.1296449],[106.7441332,-6.1296062],[106.7438509,-6.1294637],[106.7430651,-6.1291208],[106.7422189,-6.1287154],[106.7417147,-6.1284738],[106.7416039,-6.1284275],[106.7414925,-6.128381],[106.7414874,-6.1283783],[106.74144,-6.1283584],[106.7414095,-6.1283479],[106.741379,-6.1283345],[106.7411043,-6.1281953],[106.7407763,-6.1280456],[106.7400362,-6.1276965],[106.7398962,-6.1276175],[106.7391142,-6.1271761],[106.7386211,-6.1268977],[106.7386172,-6.1268955],[106.7384722,-6.1267963],[106.7382883,-6.1266689],[106.737772,-6.1263114],[106.7376611,-6.1262345],[106.737568,-6.1261701],[106.7375261,-6.1261411],[106.7374047,-6.1260525],[106.7371752,-6.125885],[106.7369692,-6.1257253],[106.7366182,-6.1254578],[106.7363283,-6.1252523],[106.7362825,-6.1252155],[106.7360499,-6.125034],[106.7358596,-6.1249111],[106.7356209,-6.1247291],[106.735574,-6.1246934],[106.7350885,-6.1243147],[106.7345744,-6.1239172],[106.7344526,-6.123828],[106.7343936,-6.1237847],[106.7340127,-6.1234723],[106.7337939,-6.1233495],[106.7335563,-6.1232932],[106.733252,-6.1231611],[106.733033,-6.1229717],[106.7328803,-6.1227441],[106.7326898,-6.1225641],[106.7324516,-6.1223178],[106.7322231,-6.1221094],[106.7320992,-6.1219862],[106.731949,-6.1218553],[106.7318804,-6.1217952],[106.7315905,-6.1215539],[106.7315884,-6.1215521],[106.7313082,-6.1213145],[106.7312166,-6.1211877],[106.7311404,-6.1211186],[106.7309137,-6.1209048],[106.7305605,-6.1205716],[106.7302782,-6.1203056],[106.7300188,-6.1200218],[106.7300036,-6.1200061],[106.7298357,-6.1198325],[106.7297823,-6.1197791],[106.7294161,-6.1194945],[106.7292559,-6.1193318],[106.7290041,-6.1190706],[106.7288057,-6.1188984],[106.7285464,-6.1186776],[106.7274172,-6.1175809],[106.7269518,-6.1169873],[106.7267848,-6.1167757],[106.7265703,-6.1165042],[106.7265245,-6.1164379],[106.7262957,-6.1160893],[106.7260668,-6.1157899],[106.7254793,-6.1150427],[106.7254564,-6.1150074],[106.725342,-6.1148253],[106.7251207,-6.1145787],[106.7250826,-6.1145392],[106.7246325,-6.1140719],[106.7244341,-6.1138473],[106.7241289,-6.1134835],[106.7233278,-6.112401],[106.7230532,-6.112073],[106.7227633,-6.1117287],[106.7226797,-6.1116201],[106.7225115,-6.1114016],[106.7224657,-6.1113472],[106.721802,-6.110508],[106.7216417,-6.1103344],[106.721451,-6.1100774],[106.7204058,-6.1086259],[106.72036,-6.1085644],[106.7199404,-6.1080871],[106.7197573,-6.1078348],[106.719681,-6.1077261],[106.7194903,-6.1073809],[106.719475,-6.1073546],[106.7194607,-6.107333],[106.7191774,-6.1069059],[106.7189562,-6.1066575],[106.7187426,-6.1063795],[106.7184069,-6.1059408],[106.7181093,-6.1055518],[106.7180407,-6.1054883],[106.7178957,-6.1053448],[106.717766,-6.105269],[106.7175677,-6.1050763],[106.7174151,-6.1048975],[106.7173006,-6.1047549],[106.7171709,-6.1046028],[106.7169516,-6.1042139],[106.7165224,-6.1034527],[106.7163012,-6.1030192],[106.7160036,-6.1024633],[106.7158434,-6.1021619],[106.7156832,-6.1018281],[106.7154314,-6.1013498],[106.7151415,-6.1008091],[106.7150881,-6.1007037],[106.7149431,-6.1004205],[106.7149126,-6.1004339],[106.7148821,-6.1003904],[106.7145464,-6.099557],[106.7145235,-6.099493],[106.7144854,-6.0992842],[106.7144549,-6.0991168],[106.7142428,-6.0988673],[106.7142412,-6.0988655],[106.7141344,-6.0987911],[106.7140734,-6.0987425],[106.7138369,-6.0985346],[106.7136461,-6.0983243],[106.7133257,-6.097951],[106.7130968,-6.097601],[106.7129366,-6.0974097],[106.7127186,-6.0971246],[106.7127154,-6.0971203],[106.7126467,-6.0970478],[106.7123491,-6.0967445],[106.7120579,-6.0965087],[106.7118685,-6.0963555],[106.7117415,-6.0962503],[106.7116355,-6.0961624],[106.7113791,-6.09595],[106.7115686,-6.0958886],[106.7120129,-6.095747],[106.7122657,-6.0956664],[106.7126882,-6.0952487],[106.7126716,-6.0950127],[106.712426,-6.0947613],[106.71271,-6.0944067],[106.7129008,-6.0941955],[106.7136502,-6.0933663],[106.7137345,-6.0933193],[106.7141211,-6.093728],[106.7142368,-6.0938532],[106.7142996,-6.0938288],[106.7143709,-6.093801],[106.7144208,-6.0937825],[106.7148008,-6.0936415],[106.7149737,-6.0935774],[106.7154848,-6.0932798],[106.7165148,-6.0928984],[106.717026,-6.0926013],[106.717766,-6.0922938],[106.7185882,-6.0918655],[106.7190229,-6.0925735],[106.7196825,-6.0921638],[106.719681,-6.0921614],[106.7202071,-6.0917394],[106.7205427,-6.0915154],[106.7205383,-6.0915085],[106.7208079,-6.0913291],[106.7217689,-6.0916341],[106.7219318,-6.0916841],[106.7220734,-6.0917946],[106.7222079,-6.0919326],[106.7223333,-6.0918922],[106.7227131,-6.0912521],[106.7231024,-6.0909357],[106.7235275,-6.0905084],[106.7234137,-6.0903481],[106.7238125,-6.0900936],[106.7238397,-6.0897754],[106.7241778,-6.0895198],[106.7244512,-6.0893236],[106.7246582,-6.0891845],[106.7248933,-6.0895285],[106.7250789,-6.0893623],[106.725223,-6.0891963],[106.7254035,-6.0890358],[106.72568,-6.0893771],[106.7258991,-6.089595],[106.7260706,-6.089775],[106.7261842,-6.0896796],[106.7263652,-6.0898691],[106.7264883,-6.0897452],[106.7267724,-6.0895161],[106.7269437,-6.0896391],[106.7269635,-6.0898862],[106.7268503,-6.0901337],[106.7266898,-6.0904098],[106.7264915,-6.0907431],[106.7263129,-6.091314],[106.7263185,-6.0913198],[106.7270655,-6.092091],[106.7274946,-6.0926599],[106.7278005,-6.0932862],[106.7279252,-6.093685],[106.7280206,-6.0938368],[106.7281446,-6.0939885],[106.7283161,-6.0941875],[106.7285443,-6.0942913],[106.728744,-6.0943667],[106.7289252,-6.0946038],[106.7292231,-6.0945147],[106.7293717,-6.0946784],[106.7293438,-6.0948781],[106.7293825,-6.0950966],[106.7297136,-6.095002],[106.7299337,-6.0952279],[106.7300957,-6.0953984],[106.7302101,-6.0955596],[106.7300972,-6.0958737],[106.7304101,-6.0957301],[106.7307911,-6.0961186],[106.7311052,-6.0963552],[106.7313528,-6.096554],[106.731363,-6.096782],[106.7315538,-6.0970666],[106.731849,-6.0973318],[106.7319625,-6.0971793],[106.7329627,-6.0981551],[106.73322,-6.09773],[106.7338272,-6.0983044],[106.7339601,-6.0982754],[106.7341595,-6.0982843],[106.7342642,-6.0983505],[106.7343511,-6.0988065],[106.7345416,-6.0989769],[106.7344947,-6.0991577],[106.734571,-6.0992715],[106.7348359,-6.0989855],[106.7350924,-6.0990227],[106.7353209,-6.0992025],[106.7356449,-6.0995532],[106.7357822,-6.0997611],[106.7360388,-6.0992001],[106.7374665,-6.1002233],[106.7379424,-6.0995095],[106.7381803,-6.0994143],[106.7399887,-6.1006992],[106.7417971,-6.1012941],[106.7449962,-6.1019371],[106.7450432,-6.1017849],[106.7450804,-6.1015472],[106.7452515,-6.1015941],[106.7453187,-6.1009609],[106.745509,-6.1006754],[106.7459849,-6.1005564],[106.746361,-6.1011343],[106.7463982,-6.1008966],[106.7464353,-6.1006113],[106.7464912,-6.1002975],[106.7465949,-6.100069],[106.7468507,-6.0998971],[106.7472114,-6.0998484],[106.7475532,-6.0998188],[106.7477427,-6.0998241],[106.748412,-6.1001519],[106.749393,-6.1001297],[106.7500062,-6.0994381],[106.7503156,-6.0994619],[106.7505297,-6.1000567],[106.7510294,-6.1007706],[106.7512911,-6.1009134],[106.7525522,-6.1020555],[106.7540275,-6.1029359],[106.7550945,-6.1034596],[106.75627,-6.10378],[106.7568753,-6.1038324],[106.7591434,-6.1040542],[106.7607376,-6.1039829],[106.7617533,-6.1036398],[106.76227,-6.10361],[106.7623542,-6.1036063],[106.7629658,-6.1032935],[106.7632553,-6.1032489],[106.7642478,-6.1024825],[106.764402,-6.1017462],[106.7645685,-6.1012227],[106.7648065,-6.1006754],[106.7647589,-6.1003423],[106.7649254,-6.0996046],[106.7651158,-6.0994381],[106.7656869,-6.0996046],[106.7661866,-6.1000805],[106.766829,-6.1005564],[106.7671859,-6.1004613],[106.7675429,-6.1005564],[106.7676856,-6.1010799],[106.767995,-6.1015558],[106.768566,-6.1021269],[106.7688991,-6.102579],[106.7703506,-6.1034356],[106.7712196,-6.103791],[106.7714578,-6.1033103],[106.7716599,-6.1033728],[106.7713968,-6.1039546],[106.7712977,-6.1041451],[106.7722066,-6.1044587],[106.7719782,-6.1049563],[106.77203,-6.10499],[106.772372,-6.1050628],[106.7725108,-6.1050624],[106.7725482,-6.104936],[106.7727627,-6.1049352],[106.7728255,-6.1048466],[106.7729385,-6.1046695],[106.7733553,-6.1047817],[106.7737088,-6.1048437],[106.7738097,-6.1048434],[106.7739992,-6.1049059],[106.7740367,-6.1048174],[106.774087,-6.1047541],[106.7742005,-6.1047537],[106.7742884,-6.1046271],[106.774478,-6.1047149],[106.7745153,-6.1045632],[106.7746409,-6.1043607],[106.7748159,-6.1038802],[106.7751565,-6.1038538],[106.7755478,-6.1039031],[106.7758381,-6.1039274],[106.7761532,-6.1038253],[106.7764306,-6.1037739],[106.7766825,-6.1036341],[106.77644,-6.10416],[106.77596,-6.1056],[106.7757,-6.10635],[106.77561,-6.10659],[106.77545,-6.10696],[106.7748914,-6.106996],[106.77477,-6.10733],[106.7747288,-6.107484],[106.77467,-6.10767],[106.7749682,-6.1078277],[106.7748008,-6.1084218],[106.7747429,-6.1085492],[106.774722,-6.108634],[106.7747013,-6.108756],[106.77468,-6.10886],[106.7746543,-6.1089628],[106.77463,-6.10905],[106.7745232,-6.1093501],[106.7744342,-6.1096471],[106.7743242,-6.1100026],[106.7744886,-6.1101027],[106.7744922,-6.1100967],[106.7747,-6.10975],[106.77474,-6.10966],[106.7749879,-6.1089882],[106.77509,-6.1088],[106.77512,-6.10875],[106.77514,-6.10868],[106.7752,-6.10855],[106.77532,-6.10846],[106.7754356,-6.1082713],[106.7754829,-6.1081811],[106.7755356,-6.1081014],[106.7756095,-6.1080323],[106.7756516,-6.107942],[106.7756881,-6.1077988],[106.775783,-6.1076554],[106.7758513,-6.1074962],[106.7758774,-6.1073849],[106.7759089,-6.1073053],[106.7759614,-6.1071832],[106.7760405,-6.107077],[106.7761037,-6.1069761],[106.7762087,-6.1067266],[106.7762456,-6.1066523],[106.776277,-6.1065674],[106.7764711,-6.1059998],[106.7769374,-6.1061466],[106.7771963,-6.1063375],[106.77777,-6.10658],[106.77785,-6.1066],[106.7795,-6.10733],[106.78015,-6.10761],[106.78045,-6.10773],[106.78084,-6.10788],[106.78249,-6.10859],[106.78325,-6.10862],[106.7844499,-6.10859],[106.7844776,-6.1095829],[106.7851769,-6.1095589],[106.7851773,-6.1096755],[106.7851775,-6.1097569],[106.7851755,-6.1099604],[106.7851656,-6.1102481],[106.7851752,-6.1106849],[106.7851513,-6.1108478],[106.7851437,-6.1109916],[106.7851415,-6.1111381],[106.7851419,-6.1111381],[106.7853448,-6.111151],[106.7855698,-6.1111421],[106.7856796,-6.1081327],[106.7867714,-6.1081101],[106.7868527,-6.1081044],[106.7868769,-6.1088695],[106.7871235,-6.1088578],[106.7871224,-6.108516],[106.7871133,-6.1082148],[106.7871183,-6.1080954],[106.78838,-6.10806],[106.7888557,-6.10806],[106.78903,-6.10806],[106.78986,-6.10805],[106.7903438,-6.108044],[106.7903268,-6.1078053],[106.7903163,-6.1072788],[106.7903078,-6.1069941],[106.7903127,-6.1068476],[106.7904669,-6.1067358],[106.7905697,-6.1066839],[106.7905069,-6.1065512],[106.7904095,-6.1042922],[106.7900526,-6.104078],[106.7899812,-6.1028883],[106.7899812,-6.1008182],[106.7902905,-6.1007706],[106.7907426,-6.095393],[106.7909092,-6.0939415],[106.7912737,-6.0934666],[106.7918638,-6.0930288],[106.7930059,-6.0928003],[106.7943682,-6.092965],[106.7958613,-6.0939615],[106.7961849,-6.0939615],[106.7965275,-6.0940757],[106.796794,-6.0943042],[106.7971316,-6.0950951],[106.7967769,-6.0989747],[106.79649,-6.10066],[106.79659,-6.10108],[106.79676,-6.10174],[106.79684,-6.10222],[106.79686,-6.1026],[106.79682,-6.10285],[106.7965603,-6.1033661],[106.7965245,-6.1035456],[106.7965281,-6.1037188],[106.796677,-6.1037639],[106.7966957,-6.1039127],[106.7966781,-6.1040921],[106.7965567,-6.1041016],[106.7965082,-6.1041444],[106.7964751,-6.1042235],[106.7964631,-6.1042691],[106.7964875,-6.1042934],[106.7964725,-6.1043603],[106.7964726,-6.1043815],[106.7964181,-6.1044395],[106.79623,-6.1044644],[106.796145,-6.1044921],[106.7961213,-6.1046532],[106.7960398,-6.1048024],[106.7959857,-6.1049728],[106.7960013,-6.1050973],[106.7958349,-6.1052772],[106.7957625,-6.1054294],[106.7957885,-6.1059308],[106.795826,-6.1062377],[106.7958423,-6.106578],[106.795883,-6.1069669],[106.7959181,-6.1074561],[106.7959677,-6.1077811],[106.7959972,-6.1084071],[106.7960344,-6.108641],[106.796047,-6.1087838],[106.7960473,-6.1088872],[106.7961173,-6.1089234],[106.7961629,-6.1089385],[106.7961666,-6.1091269],[106.7961791,-6.1092454],[106.7962251,-6.109385],[106.7963015,-6.1095155],[106.7963449,-6.1095137],[106.7962893,-6.1092853],[106.7962558,-6.1091628],[106.7962522,-6.1090601],[106.7962685,-6.1090037],[106.7962684,-6.1089573],[106.7964,-6.1089295],[106.79679,-6.10891],[106.7980693,-6.1088979],[106.798204,-6.1088975],[106.7983789,-6.1088295],[106.7985001,-6.1088425],[106.7986482,-6.1088151],[106.7989579,-6.1087871],[106.7993214,-6.1087454],[106.8,-6.10864],[106.80027,-6.10856],[106.80055,-6.10842],[106.8006,-6.10831],[106.80059,-6.10815],[106.80051,-6.10766],[106.8002,-6.10589],[106.80006,-6.10514],[106.79985,-6.10374],[106.79953,-6.10197],[106.79929,-6.10062],[106.79916,-6.09991],[106.79914,-6.09978],[106.79886,-6.098],[106.79877,-6.09744],[106.79869,-6.09683],[106.79926,-6.09675],[106.79926,-6.09669],[106.79995,-6.09658],[106.80025,-6.09652],[106.80048,-6.09782],[106.8005,-6.098],[106.80084,-6.10003],[106.80195,-6.09984],[106.80234,-6.10196],[106.8022216,-6.1019814],[106.8022632,-6.1023318],[106.80241,-6.10233],[106.80286,-6.10226],[106.80339,-6.10216],[106.80337,-6.10207],[106.80346,-6.10204],[106.80347,-6.10214],[106.80389,-6.10207],[106.80387,-6.10198],[106.80398,-6.10196],[106.80399,-6.10205],[106.80414,-6.10202],[106.8044034,-6.1019471],[106.8043487,-6.1016911],[106.804321,-6.1014621],[106.80426,-6.10147],[106.8031309964036,-6.095069202750953],[106.80377759239816,-6.095069202750953],[106.80379,-6.09513],[106.80388,-6.09559],[106.80395,-6.09605],[106.80405,-6.09661],[106.80414,-6.09715],[106.8044,-6.09855],[106.80454,-6.09936],[106.80458,-6.09958],[106.80463,-6.09976],[106.8047205,-6.1001125],[106.8048719,-6.1010692],[106.8051047,-6.1022279],[106.8053108,-6.1034271],[106.805448,-6.1041816],[106.80574,-6.10555],[106.80606,-6.10733],[106.80608,-6.10744],[106.8062,-6.10789],[106.8065998,-6.1102849],[106.8066546,-6.1105678],[106.8066826,-6.1108643],[106.8067238,-6.1111203],[106.8067515,-6.1113225],[106.806806,-6.1115245],[106.8068337,-6.1117401],[106.8068749,-6.1119827],[106.8069161,-6.1122117],[106.8069708,-6.1124542],[106.8069983,-6.1126294],[106.8070392,-6.1127775],[106.8070803,-6.1129796],[106.8071077,-6.1131278],[106.8071352,-6.1132895],[106.8071627,-6.1134512],[106.8071765,-6.113559],[106.8071904,-6.1136803],[106.8072177,-6.1138015],[106.8072317,-6.1139633],[106.807259,-6.1140575],[106.8072864,-6.1141923],[106.8073409,-6.1143808],[106.8073684,-6.1145425],[106.8074094,-6.1147176],[106.8074504,-6.1148928],[106.8075182,-6.1150543],[106.8075864,-6.1152967],[106.8076681,-6.1155526],[106.8077497,-6.1158085],[106.8078,-6.11608],[106.80798,-6.11608],[106.80828,-6.11632],[106.80901,-6.11691],[106.80957,-6.12023],[106.81139,-6.1205],[106.8118,-6.12266],[106.81249,-6.12255],[106.8119247,-6.1191901],[106.812024,-6.1191839],[106.8120999,-6.1191719],[106.8122108,-6.1191599],[106.8122881,-6.1195397],[106.812318,-6.1197676],[106.812342,-6.1199605],[106.8124698,-6.1199466],[106.812564,-6.1199364],[106.8128559,-6.1198886],[106.8130279,-6.1206482],[106.81326,-6.12072],[106.81348,-6.12075],[106.81368,-6.12077],[106.8137993,-6.1207099],[106.8140548,-6.1202471],[106.8142291,-6.1199717],[106.8144149,-6.1196319],[106.8145136,-6.1194445],[106.81492,-6.11953],[106.81518,-6.11959],[106.81533,-6.11963],[106.8155895,-6.1197098],[106.8157415,-6.1197385],[106.8160221,-6.1198077],[106.8163517,-6.1198837],[106.8164725,-6.1199103],[106.8165237,-6.1195605],[106.81669,-6.11864],[106.8169,-6.11705],[106.81697,-6.1165],[106.817,-6.1163],[106.81702,-6.11606],[106.81708,-6.11566],[106.8172,-6.1149],[106.81818,-6.11498],[106.81852,-6.11504],[106.81881,-6.11509],[106.8204178,-6.1153195],[106.8235344,-6.115755],[106.8275605,-6.1163261],[106.8276535874935,-6.116447130044086],[106.8276535874935,-6.117527084853942],[106.82818254076649,-6.117527084853942],[106.8283029,-6.1186104],[106.829058,-6.118494],[106.82909,-6.11851],[106.82933,-6.11873],[106.82932,-6.1188],[106.82925,-6.11919],[106.82928,-6.1195],[106.82935,-6.11998],[106.8294,-6.12014],[106.82948,-6.12015],[106.8298694,-6.1202227],[106.8299108,-6.1203629],[106.8300879,-6.1209061],[106.83029,-6.12094],[106.83054,-6.121],[106.8306784,-6.1210152],[106.8308418,-6.1209854],[106.8311046,-6.1209553],[106.8314024,-6.1209133],[106.8321032,-6.1208232],[106.8327806,-6.1207507],[106.8340718,-6.1207522],[106.8340914,-6.1213719],[106.8345233,-6.121366],[106.8345282,-6.1215585],[106.8345954,-6.1216406],[106.8353092,-6.1216049],[106.8354876,-6.1214764],[106.8381431,-6.1215192],[106.8384829,-6.1213643],[106.83858,-6.12132],[106.83862,-6.12122],[106.83861,-6.12109],[106.83862,-6.12086],[106.83884,-6.12086],[106.8391,-6.12088],[106.83941,-6.12084],[106.83964,-6.12088],[106.83993,-6.12091],[106.84043,-6.12089],[106.84158,-6.1209],[106.84213,-6.12094],[106.84254,-6.12104],[106.84264,-6.12109],[106.8426971,-6.1211546],[106.8428821,-6.1213681],[106.8430686,-6.1215835],[106.8430115,-6.1219904],[106.842726,-6.1223901],[106.8424761,-6.1226043],[106.8420103,-6.1226918],[106.84174,-6.12274],[106.84146,-6.12271],[106.84131,-6.12265],[106.84088,-6.12241],[106.84051,-6.12228],[106.84026,-6.12221],[106.8400482,-6.122209],[106.8398893,-6.1222054],[106.8396929,-6.1222228],[106.8396385,-6.1222521],[106.8395637,-6.1225186],[106.8395066,-6.12259],[106.8394015,-6.122571],[106.839336,-6.1225945],[106.8393495,-6.1226757],[106.8393995,-6.1227542],[106.8394352,-6.1229398],[106.8395494,-6.1232539],[106.8397493,-6.123568],[106.8403203,-6.1238178],[106.840506,-6.1238279],[106.8407129,-6.1238392],[106.84091,-6.12372],[106.8410441,-6.1237411],[106.8412555,-6.1237464],[106.8415863,-6.1235246],[106.84164,-6.12351],[106.8418962,-6.123529],[106.8422603,-6.1236574],[106.8424484,-6.1236777],[106.84303,-6.12359],[106.84326,-6.12354],[106.84335,-6.1235],[106.84336,-6.12344],[106.8433,-6.1231],[106.8430565,-6.1230146],[106.8430435,-6.1228975],[106.8431431,-6.1226837],[106.8432462,-6.1222608],[106.8433953,-6.1218544],[106.8435152,-6.12149],[106.8436025,-6.1213265],[106.84369,-6.12121],[106.84377,-6.1211],[106.84393,-6.12101],[106.8440958,-6.120964],[106.844325,-6.1209268],[106.8443001,-6.1208133],[106.84474,-6.12068],[106.844921,-6.1206191],[106.8455347,-6.120412],[106.8457059,-6.1203403],[106.846019,-6.1202429],[106.8463364,-6.1201498],[106.8465044,-6.1201043],[106.846291,-6.119304],[106.8466622,-6.1191898],[106.8469069,-6.1202218],[106.8470704,-6.1203307],[106.8473189,-6.1204961],[106.84837,-6.12019],[106.84856,-6.12014],[106.8486143,-6.1200708],[106.848718,-6.1199821],[106.8487048,-6.1198793],[106.8486324,-6.1193182],[106.8489465,-6.1192469],[106.84903,-6.11986],[106.84927,-6.1198],[106.85191,-6.11897],[106.85384,-6.11837],[106.854,-6.11829],[106.85418,-6.11812],[106.8545,-6.1178],[106.85487,-6.11725],[106.85494,-6.11717],[106.8551,-6.11711],[106.85519,-6.11709],[106.85531,-6.11701],[106.8557,-6.11687],[106.8558766,-6.1168743],[106.8559856,-6.1169493],[106.8561655,-6.117003],[106.8564494,-6.1169058],[106.8567999,-6.1167331],[106.856996,-6.1166194],[106.8571796,-6.1165142],[106.8573714,-6.116388],[106.85778,-6.1160686],[106.8584926,-6.1154511],[106.8587265,-6.1151837],[106.858826,-6.1144356],[106.8586832,-6.1139074],[106.8583549,-6.1137218],[106.8577267,-6.1134648],[106.8576454,-6.1109981],[106.8578877,-6.1109471],[106.8580631,-6.1109172],[106.8582595,-6.1108872],[106.8584683,-6.1108363],[106.8585519,-6.110836],[106.8586814,-6.1107937],[106.8587983,-6.1107682],[106.8589194,-6.1107301],[106.8590489,-6.1107004],[106.8592118,-6.1106831],[106.8593581,-6.1106575],[106.8601096,-6.1104206],[106.8607985,-6.1101672],[106.8607915,-6.1105647],[106.8608086,-6.1106859],[106.8608171,-6.1107236],[106.8608258,-6.1108114],[106.8608303,-6.1108992],[106.8608473,-6.1109996],[106.860856,-6.1110791],[106.8608645,-6.1111376],[106.8608815,-6.1112087],[106.8608944,-6.1113132],[106.8609284,-6.1114847],[106.8609457,-6.1116436],[106.8609629,-6.1117732],[106.8609758,-6.1118987],[106.8610014,-6.1120325],[106.8610184,-6.1121078],[106.8610228,-6.1121747],[106.8610273,-6.1122918],[106.8610612,-6.1124005],[106.8610657,-6.1124925],[106.8611206,-6.1126764],[106.8611419,-6.1127809],[106.8612051,-6.1129355],[106.8612267,-6.1131363],[106.8613106,-6.1132197],[106.8613026,-6.1133327],[106.8611063,-6.1133543],[106.8611533,-6.1136721],[106.8611917,-6.113877],[106.8612173,-6.1140233],[106.8612385,-6.1141153],[106.8612598,-6.1142449],[106.8612858,-6.1145126],[106.861499,-6.1145035],[106.8618042,-6.1145234],[106.8620759,-6.114535],[106.8624438,-6.1144838],[106.8626017,-6.1142821],[106.8627309,-6.114152],[106.86299,-6.11405],[106.8633908,-6.1139949],[106.8633228,-6.1136897],[106.86327,-6.11342],[106.86327,-6.11336],[106.86327,-6.11324],[106.86346,-6.11277],[106.8634318,-6.1125513],[106.8633931,-6.1122627],[106.8633927,-6.1121414],[106.8635884,-6.1119189],[106.86388,-6.1116],[106.8645885,-6.1110076],[106.8648804,-6.1108141],[106.865264,-6.1105533],[106.86563,-6.11029],[106.8658057,-6.1100536],[106.86604,-6.10991],[106.8663,-6.10976],[106.86664,-6.10955],[106.8669612,-6.109376],[106.8674,-6.10919],[106.8675078,-6.1091021],[106.8676078,-6.1089888],[106.8676409,-6.1088924],[106.8677072,-6.1087249],[106.8681762,-6.1083938],[106.8685286,-6.1081279],[106.8686745,-6.1080186],[106.8692956,-6.1075395],[106.8702375,-6.1067412],[106.8708874,-6.1060947],[106.8710787,-6.1058179],[106.8712531,-6.1054951],[106.8714531,-6.1053187],[106.8718785,-6.1050243],[106.8723121,-6.1047216],[106.872604,-6.1045155],[106.8727542,-6.1044188],[106.8728293,-6.1043809],[106.8727432,-6.1048665],[106.8724012,-6.106618],[106.8723815,-6.1066417],[106.8723275,-6.1067465],[106.87222,-6.10704],[106.8721133,-6.1076594],[106.8720806,-6.1078519],[106.872077,-6.1080319],[106.8721,-6.10827],[106.87206,-6.10844],[106.87148,-6.10881],[106.87128,-6.1089],[106.87093,-6.10912],[106.87044,-6.10939],[106.86994,-6.10968],[106.86961,-6.10985],[106.86924,-6.11004],[106.86887,-6.11024],[106.86807,-6.11066],[106.86695,-6.11125],[106.86671,-6.11138],[106.86624,-6.11163],[106.86565,-6.11195],[106.86494,-6.11235],[106.86485,-6.11247],[106.86483,-6.11255],[106.86467,-6.11342],[106.86463,-6.11366],[106.86466,-6.11417],[106.86468,-6.11431],[106.8647,-6.11471],[106.86471,-6.11556],[106.86477,-6.11613],[106.86477,-6.11647],[106.86476,-6.11674],[106.86475,-6.11693],[106.86478,-6.11737],[106.8648,-6.11773],[106.86479,-6.11832],[106.86481,-6.11838],[106.86477,-6.11905],[106.86475,-6.11959],[106.86472,-6.12005],[106.86472,-6.12018],[106.8644,-6.1204],[106.86298,-6.12106],[106.86291,-6.12111],[106.86295,-6.12127],[106.8624649,-6.1214887],[106.8629604,-6.12128],[106.8632097,-6.1211542],[106.8634092,-6.121066],[106.8635214,-6.1210406],[106.8635843,-6.1211529],[106.8652601,-6.1204556],[106.8661508,-6.1198676],[106.8658573,-6.1194541],[106.8658671,-6.1193198],[106.8659,-6.11919],[106.86588,-6.1191],[106.86587,-6.11898],[106.8656675,-6.1182981],[106.86571,-6.11772],[106.8657,-6.11747],[106.86562,-6.11718],[106.86556,-6.11711],[106.86552,-6.1168],[106.86555,-6.1167],[106.865548,-6.116553],[106.8654444,-6.1164501],[106.86531,-6.116368],[106.8653198,-6.1162337],[106.8653296,-6.1160581],[106.8652877,-6.115893],[106.8653283,-6.1156863],[106.8652761,-6.1155109],[106.8653271,-6.1153558],[106.8653472,-6.1151904],[106.8652422,-6.1146744],[106.8652923,-6.1142405],[106.8652189,-6.1138999],[106.86536,-6.11371],[106.8653312,-6.113569],[106.8654031,-6.1134758],[106.8655267,-6.1133927],[106.8657739,-6.1132783],[106.86596,-6.11332],[106.86636,-6.1131],[106.86657,-6.113],[106.8667424,-6.1128721],[106.8669277,-6.1127475],[106.8670617,-6.1127058],[106.8671647,-6.1126538],[106.8672573,-6.1125605],[106.867319,-6.1125086],[106.86742,-6.1125],[106.86768,-6.1124],[106.86754,-6.11217],[106.86783,-6.11202],[106.868,-6.11218],[106.8682,-6.11208],[106.86871,-6.11176],[106.86944,-6.11133],[106.8696774,-6.1112094],[106.869904,-6.1110847],[106.87005,-6.11106],[106.8702,-6.11099],[106.87137,-6.11037],[106.87173,-6.11049],[106.87173,-6.11066],[106.8717,-6.11075],[106.87144,-6.11071],[106.87133,-6.11111],[106.87173,-6.1112],[106.87172,-6.11132],[106.87159,-6.11129],[106.87154,-6.11147],[106.8717,-6.11152],[106.87136,-6.11263],[106.87089,-6.11433],[106.87026,-6.11471],[106.87057,-6.11528],[106.87103,-6.11499],[106.87145,-6.11507],[106.8715682,-6.1149106],[106.8720521,-6.1145991],[106.8720939,-6.1147539],[106.87198,-6.11486],[106.87212,-6.11504],[106.8724961,-6.1147111],[106.8728149,-6.1143899],[106.8727731,-6.1142351],[106.8725976,-6.1142047],[106.872484,-6.1141845],[106.8722776,-6.1141852],[106.87238,-6.11394],[106.8722,-6.11392],[106.87222,-6.1137],[106.87263,-6.1137],[106.87325,-6.11062],[106.87382,-6.1078],[106.87395,-6.10781],[106.87402,-6.10772],[106.87416,-6.10755],[106.87423,-6.10743],[106.87429,-6.1068],[106.87433,-6.10643],[106.87435,-6.1063],[106.87435,-6.10612],[106.87439,-6.10594],[106.87426,-6.10591],[106.87429,-6.1058],[106.87443,-6.10579],[106.87446,-6.10558],[106.87463,-6.10454],[106.874816,-6.1031558],[106.8749721,-6.102798],[106.876672,-6.1015377],[106.8777052,-6.1015982],[106.8774858,-6.1027765],[106.87742,-6.10522],[106.87683,-6.10673],[106.87667,-6.10669],[106.87664,-6.10695],[106.87654,-6.1075],[106.87637,-6.10838],[106.87629,-6.10868],[106.87619,-6.10902],[106.87618,-6.10912],[106.87603,-6.11005],[106.87588,-6.11058],[106.87575,-6.11085],[106.87562,-6.11112],[106.87556,-6.11126],[106.87556,-6.11133],[106.87564,-6.11136],[106.87571,-6.11127],[106.87581,-6.11114],[106.87585,-6.11102],[106.87591,-6.11089],[106.87606,-6.11071],[106.87614,-6.1107],[106.87624,-6.11073],[106.87634,-6.11076],[106.87637,-6.11063],[106.87653,-6.10993],[106.87667,-6.10903],[106.8766,-6.10899],[106.87663,-6.10867],[106.87678,-6.10867],[106.87715,-6.10679],[106.8780512,-6.1069355],[106.8779797,-6.1071423],[106.87798,-6.10733],[106.8778075,-6.1080724],[106.8777058,-6.1084962],[106.8776966,-6.1088164],[106.8776353,-6.1089922],[106.87742,-6.11004],[106.87734,-6.11003],[106.87732,-6.11018],[106.87749,-6.11043],[106.8779698,-6.1102097],[106.8782169,-6.1100539],[106.8783919,-6.1099604],[106.87851,-6.10991],[106.87857,-6.10893],[106.87862,-6.10756],[106.87865,-6.10632],[106.87862,-6.10625],[106.87862,-6.10583],[106.87868,-6.10577],[106.87869,-6.10416],[106.87859,-6.10412],[106.87859,-6.10384],[106.87872,-6.10383],[106.8786912,-6.1034082],[106.8786786,-6.1031611],[106.8786894,-6.102902],[106.878665,-6.1026314],[106.8786757,-6.1023488],[106.8789698,-6.1023596],[106.8793344,-6.1023701],[106.8796049,-6.1023691],[106.8798991,-6.1024152],[106.880146,-6.1023908],[106.8801692,-6.1022965],[106.8802,-6.10211],[106.87991,-6.10207],[106.8797264,-6.1020651],[106.879489,-6.1020453],[106.8793445,-6.1020252],[106.87907,-6.10197],[106.87872,-6.10138],[106.87877,-6.10057],[106.87888,-6.09894],[106.87895,-6.09703],[106.87905,-6.095],[106.87915,-6.09502],[106.87947,-6.09502],[106.87952,-6.09429],[106.87964,-6.09431],[106.87949,-6.09854],[106.87984,-6.09854],[106.87996,-6.09847],[106.88001,-6.09831],[106.88009,-6.0983],[106.88017,-6.09698],[106.88005,-6.09696],[106.88008,-6.09672],[106.88023,-6.0967],[106.88029,-6.09544],[106.88039,-6.09545],[106.88034,-6.09672],[106.8804,-6.09677],[106.88042,-6.09699],[106.88078,-6.09699],[106.88081,-6.0968],[106.88105,-6.09677],[106.88114,-6.09533],[106.88116,-6.09507],[106.88105,-6.09504],[106.88116,-6.0938],[106.88138,-6.09383],[106.88139,-6.09409],[106.88172,-6.09411],[106.8817087,-6.0935274],[106.8820805,-6.0936293],[106.882082,-6.0940631],[106.8821965,-6.0943725],[106.8822181,-6.094641],[106.8824452,-6.0946815],[106.8826216,-6.0949494],[106.8826035,-6.0956931],[106.88263,-6.09662],[106.88262,-6.09674],[106.88242,-6.10074],[106.88222,-6.10637],[106.88377,-6.10644],[106.88399,-6.10031],[106.88415,-6.09644],[106.88445,-6.09613],[106.88599,-6.09619],[106.88697,-6.09729],[106.88686,-6.10001],[106.88692,-6.10017],[106.88691,-6.10043],[106.88668,-6.10651],[106.88797,-6.10655],[106.88818,-6.10019],[106.8883251,-6.0972532],[106.8908944,-6.0973062],[106.890861,-6.0995268],[106.89088,-6.10046],[106.89082,-6.10294],[106.89069,-6.10674],[106.8908124,-6.1067544],[106.8908232,-6.106699],[106.89086,-6.1067004],[106.8913068,-6.1067171],[106.8914242,-6.1067215],[106.891436,-6.1065864],[106.8917044,-6.1065977],[106.8919756,-6.106609],[106.8919764,-6.10683],[106.8923321,-6.1068533],[106.892333,-6.1068265],[106.8923432,-6.1065218],[106.8923982,-6.104705],[106.8924284,-6.1028514],[106.8925791,-6.1003468],[106.8925632,-6.099328],[106.8925986,-6.0989106],[106.8926081,-6.0981249],[106.8926073,-6.097904],[106.8926062,-6.0975971],[106.8926176,-6.0973516],[106.8927739,-6.0973636],[106.8928165,-6.0973661],[106.8930156,-6.0973654],[106.8930963,-6.0973719],[106.8932025,-6.09738],[106.893309,-6.0973958],[106.8937387,-6.0974153],[106.8940845,-6.097435],[106.894376,-6.0974409],[106.8944699,-6.0974406],[106.8946711,-6.0974444],[106.8948991,-6.0974436],[106.8951494,-6.0974427],[106.8954668,-6.097455],[106.8958245,-6.0974672],[106.8963074,-6.0974923],[106.8968662,-6.0975082],[106.8970048,-6.0975167],[106.8970987,-6.0975164],[106.8972418,-6.0975338],[106.8973223,-6.097529],[106.8976352,-6.0975369],[106.8979303,-6.0975537],[106.8985115,-6.0975696],[106.89915,-6.09759],[106.90018,-6.09764],[106.90164,-6.0977],[106.90304,-6.09774],[106.90345,-6.09776],[106.90377,-6.09778],[106.9044846,-6.0977991],[106.9046724,-6.0978073],[106.904811,-6.0978203],[106.9049541,-6.0978287],[106.905115,-6.0978281],[106.905267,-6.0978321],[106.9052667,-6.0977515],[106.905374,-6.0977512],[106.9053778,-6.0975677],[106.9054493,-6.097563],[106.9054283,-6.0979255],[106.9050572,-6.0979134],[106.90501,-6.0984773],[106.9056494,-6.0985064],[106.905658,-6.0984348],[106.9057698,-6.0984433],[106.905748,-6.0985955],[106.905377,-6.0985879],[106.9053873,-6.0989995],[106.9053719,-6.0997021],[106.9053696,-6.1002927],[106.9053583,-6.1008879],[106.9054834,-6.1008919],[106.9056265,-6.100887],[106.9056262,-6.1008243],[106.9057335,-6.100815],[106.9057342,-6.1010208],[106.9055599,-6.1010125],[106.9054302,-6.1009995],[106.9053631,-6.1010042],[106.9053547,-6.1011474],[106.9053467,-6.1014204],[106.9053305,-6.1018903],[106.9053179,-6.1021275],[106.9052935,-6.1027943],[106.9052815,-6.1031971],[106.9052829,-6.1035998],[106.9055244,-6.1036258],[106.9055241,-6.1035407],[106.9056492,-6.1035358],[106.9056501,-6.1037819],[106.9055294,-6.1037868],[106.9055291,-6.1037018],[106.9052519,-6.1036938],[106.9052569,-6.1038325],[106.9052485,-6.1039758],[106.9052316,-6.1042667],[106.9052147,-6.1045531],[106.9052031,-6.1050632],[106.9051869,-6.1055286],[106.9051829,-6.105654],[106.9053043,-6.1058504],[106.9054339,-6.1058544],[106.9054247,-6.105765],[106.9055588,-6.105769],[106.9055682,-6.1059166],[106.9055688,-6.1060642],[106.9054525,-6.1060647],[106.9054388,-6.1059752],[106.905184,-6.1059806],[106.90518,-6.1061014],[106.9051716,-6.1062536],[106.9051544,-6.1064505],[106.905151,-6.1067459],[106.9051563,-6.1070009],[106.905291,-6.1071436],[106.9054031,-6.1072595],[106.9053903,-6.1074386],[106.9055697,-6.1075901],[106.9057311,-6.1077327],[106.90602,-6.10778],[106.9060707,-6.1076823],[106.9061512,-6.1076865],[106.9063885,-6.107802],[106.9064602,-6.1078464],[106.906532,-6.1079267],[106.9065905,-6.1080339],[106.9066579,-6.1081411],[106.9066807,-6.1082528],[106.9066855,-6.1083468],[106.9066948,-6.1084452],[106.9066908,-6.1085974],[106.9066959,-6.1086916],[106.9069252,-6.108699],[106.9068954,-6.1086638],[106.9069297,-6.1084023],[106.90698,-6.108],[106.9070277,-6.1077183],[106.9070473,-6.1075825],[106.9070668,-6.1074316],[106.9071061,-6.1071751],[106.9071207,-6.1070393],[106.9071649,-6.1067626],[106.9072092,-6.1064737],[106.90726,-6.1059],[106.90726,-6.10573],[106.9073,-6.10546],[106.9073,-6.10533],[106.9072943,-6.1050293],[106.9072039,-6.1049665],[106.9071404,-6.1048674],[106.907149,-6.104741],[106.9071307,-6.1046599],[106.9072008,-6.104091],[106.9075163,-6.1040719],[106.9076055,-6.1038008],[106.90775,-6.10377],[106.90804,-6.10377],[106.9092194,-6.103777],[106.9092091,-6.103407],[106.91038,-6.10344],[106.9103695,-6.1028258],[106.91035,-6.10168],[106.9097455,-6.101661],[106.9094121,-6.1016712],[106.9094022,-6.1014187],[106.9091949,-6.1014194],[106.9089245,-6.1013933],[106.9088806,-6.1017272],[106.9083218,-6.1016931],[106.90831,-6.1008994],[106.9078774,-6.100901],[106.9078831,-6.0999628],[106.90808,-6.09985],[106.90811,-6.09978],[106.90819,-6.0997],[106.90853,-6.09952],[106.908791,-6.0993192],[106.9090785,-6.0990837],[106.9092673,-6.0989387],[106.9099881,-6.0989181],[106.9108802,-6.0989239],[106.9112137,-6.0989227],[106.91133,-6.09898],[106.9113135,-6.0991299],[106.91231,-6.09933],[106.912594,-6.0993869],[106.9127744,-6.0994313],[106.9130359,-6.0994755],[106.9131978,-6.0993938],[106.9131615,-6.0993127],[106.9131429,-6.0991504],[106.9131425,-6.0990332],[106.9130432,-6.0989884],[106.9127097,-6.0989625],[106.9123582,-6.0989457],[106.9123036,-6.0988106],[106.9116635,-6.0987227],[106.9116722,-6.0986325],[106.9133667,-6.0987347],[106.9138471,-6.0995268],[106.91449,-6.09955],[106.91458,-6.09952],[106.91462,-6.09957],[106.9145416,-6.0996957],[106.9145247,-6.1000114],[106.9146604,-6.1001733],[106.91477,-6.1002],[106.9149672,-6.1002895],[106.91504,-6.10042],[106.91514,-6.1005],[106.91521,-6.10051],[106.9152287,-6.1003246],[106.9152642,-6.1001892],[106.9153261,-6.0998372],[106.9155601,-6.0997462],[106.91593,-6.09978],[106.91605,-6.09974],[106.91622,-6.09956],[106.91628,-6.0995],[106.91635,-6.09951],[106.9164785,-6.0995535],[106.9166,-6.09958],[106.91665,-6.09951],[106.91649,-6.09942],[106.9162525,-6.0993558],[106.9161711,-6.0992479],[106.9162157,-6.0991305],[106.9162692,-6.0989589],[106.917993,-6.0990649],[106.9187658,-6.0991124],[106.9187584,-6.0995634],[106.9187595,-6.099852],[106.918763,-6.1008532],[106.9190524,-6.1011409],[106.91904,-6.10165],[106.91908,-6.10189],[106.9190113,-6.1022505],[106.9189323,-6.1028551],[106.9189115,-6.103292],[106.9188988,-6.1035588],[106.9188737,-6.1041001],[106.9189104,-6.1042984],[106.91904,-6.10435],[106.91919,-6.10436],[106.91926,-6.10436],[106.91965,-6.10434],[106.91982,-6.10432],[106.919872,-6.1042995],[106.9202076,-6.1041675],[106.9203518,-6.104176],[106.9205497,-6.104076],[106.9207568,-6.1040212],[106.9209279,-6.1039755],[106.921153,-6.1039296],[106.9213783,-6.1039288],[106.9214772,-6.1038833],[106.9215481,-6.1035403],[106.9213407,-6.103505],[106.9211964,-6.1034694],[106.9205838,-6.1035167],[106.9202325,-6.103554],[106.9200521,-6.1035096],[106.9199349,-6.103501],[106.9197273,-6.1034025],[106.9196995,-6.1032287],[106.9196812,-6.103114],[106.9196621,-6.1027984],[106.9196884,-6.1025998],[106.9197148,-6.1024103],[106.91977,-6.10206],[106.9198382,-6.1016612],[106.9199271,-6.1013181],[106.9200073,-6.1010563],[106.9201509,-6.1008844],[106.9203393,-6.1006672],[106.9205821,-6.100522],[106.9208164,-6.1005122],[106.9208805,-6.1007916],[106.921493,-6.1007263],[106.9219526,-6.1007156],[106.9226191,-6.100632],[106.9231863,-6.1005037],[106.9239065,-6.1002847],[106.9243208,-6.1002291],[106.9246823,-6.1001771],[106.9247711,-6.1001643],[106.9249062,-6.1001458],[106.9249964,-6.1001545],[106.9251406,-6.100172],[106.9252937,-6.1001354],[106.9254648,-6.1000987],[106.9256179,-6.1000711],[106.925744,-6.1000616],[106.9258161,-6.1000614],[106.925933,-6.1000068],[106.926005,-6.0999705],[106.926068,-6.0999522],[106.9262029,-6.0998615],[106.9263828,-6.0997797],[106.9265816,-6.0997097],[106.9265898,-6.0997068],[106.92659,-6.09851],[106.92639,-6.09849],[106.9264319,-6.0983905],[106.92639,-6.09832],[106.926413,-6.098138],[106.9267192,-6.0980828],[106.9275205,-6.0978995],[106.9279165,-6.0977538],[106.9281597,-6.0977258],[106.9283577,-6.097653],[106.9284733,-6.0976339],[106.9286369,-6.0976069],[106.9289522,-6.0975877],[106.9292585,-6.0975595],[106.9294387,-6.0975589],[106.929772,-6.0975306],[106.9301143,-6.0975023],[106.930355,-6.0975038],[106.9306371,-6.0974759],[106.9310133,-6.0974207],[106.9312684,-6.097366],[106.9312901,-6.0973614],[106.9315236,-6.0973113],[106.9317521,-6.0973239],[106.9320879,-6.097242],[106.9324772,-6.097133],[106.9331082,-6.0969289],[106.9334435,-6.0967394],[106.9337658,-6.0966575],[106.9339673,-6.0966298],[106.9341957,-6.0965887],[106.9343971,-6.0965476],[106.9344013,-6.0965469],[106.93481,-6.09648],[106.93535,-6.09641],[106.93548,-6.09643],[106.93563,-6.09646],[106.93573,-6.09645],[106.93648,-6.09631],[106.93689,-6.09629],[106.9370458,-6.0963131],[106.9383834,-6.0960118],[106.9392811,-6.0960962],[106.9396319,-6.0962483],[106.9398086,-6.0966858],[106.9403392,-6.0981519],[106.9404666,-6.0981167],[106.9405797,-6.0980853],[106.9430113,-6.0979209],[106.9448197,-6.0975402],[106.947104,-6.096874],[106.9494835,-6.0965884],[106.9502449,-6.0960174],[106.9536713,-6.0960174],[106.9539959,-6.0944758],[106.9590466,-6.0938289],[106.959152,-6.0933065],[106.9595631,-6.0928142],[106.9600012,-6.0926835],[106.9604649,-6.0924752],[106.9607227,-6.0923968],[106.9610831,-6.092163],[106.9614444,-6.0921875],[106.9616253,-6.0922643],[106.9618831,-6.0921859],[106.96181,-6.09247],[106.96193,-6.09248],[106.96224,-6.09244],[106.96239,-6.09241],[106.96265,-6.09231],[106.96301,-6.09222],[106.9631611,-6.0921626],[106.9645217,-6.0934476],[106.9651879,-6.0937331],[106.9660445,-6.0937331],[106.9676625,-6.0925909],[106.9687668,-6.0922439],[106.968723,-6.092755],[106.9687502,-6.0931165],[106.9688324,-6.0944335],[106.9686269,-6.0946925],[106.9685769,-6.0951318],[106.9688369,-6.0956732],[106.9688341,-6.0964662],[106.968799,-6.0978432],[106.9687683,-6.0980756],[106.9687441,-6.0985406],[106.9687451,-6.0987988],[106.9687562,-6.0989263],[106.9687502,-6.0990759],[106.9687349,-6.0994712],[106.9687654,-6.0997964],[106.9688265,-6.0998846],[106.9689333,-6.0999604],[106.9690325,-6.0999375],[106.9691927,-6.0999271],[106.9692385,-6.0999881],[106.9692461,-6.1001163],[106.9692079,-6.1003562],[106.9691164,-6.1006981],[106.9690096,-6.1010424],[106.9690096,-6.101337],[106.9690422,-6.1014372],[106.9691164,-6.1016647],[106.9696352,-6.1029736],[106.970258,-6.103751],[106.970338,-6.1039587],[106.9703918,-6.1045784],[106.97029,-6.1049662],[106.9702652,-6.1052246],[106.9702662,-6.1055087],[106.9703454,-6.1059991],[106.9702436,-6.1063869],[106.9702964,-6.1066967],[106.9702723,-6.1071875],[106.9703505,-6.1073939],[106.9704058,-6.1077395],[106.9702684,-6.107906],[106.9701463,-6.1081506],[106.9701158,-6.1082989],[106.9700777,-6.1084996],[106.9701463,-6.1090313],[106.9703523,-6.1097103],[106.9704336,-6.1101659],[106.9704363,-6.1101809],[106.97036,-6.1104776],[106.9703752,-6.1107484],[106.9704363,-6.1108514],[106.970482,-6.1110135],[106.970482,-6.1110377],[106.970442,-6.111242],[106.9701329,-6.1113981],[106.9699282,-6.1118637],[106.9699624,-6.1120481],[106.9699403,-6.1141568],[106.9696047,-6.1174956],[106.9696467,-6.1199305],[106.9696581,-6.1205903],[106.9699998,-6.1223585],[106.97007,-6.1227223],[106.9707185,-6.1243082],[106.9708406,-6.124857],[106.9708101,-6.1250001],[106.9704526,-6.1264496],[106.9704745,-6.1264462],[106.9703415,-6.1270519],[106.9703134,-6.1270588],[106.9704494,-6.1277266],[106.9704563,-6.1296036],[106.9707103,-6.1398538],[106.9714374,-6.1414393],[106.9721698,-6.1444686],[106.9722766,-6.1445747],[106.9724962,-6.1447564],[106.9726564,-6.14493],[106.972675,-6.1449705],[106.972749,-6.145044],[106.9728254,-6.1461988],[106.972819,-6.1461975],[106.9728243,-6.1462856],[106.9728134,-6.1462822],[106.9725184,-6.1461893],[106.9723316,-6.1461305],[106.9720434,-6.1460459],[106.9720169,-6.1460342],[106.9718181,-6.1459938],[106.9717385,-6.1459802],[106.9716801,-6.1461203],[106.9717349,-6.1463871],[106.9717508,-6.146698],[106.9717575,-6.1471668],[106.9717633,-6.1474037],[106.9717796,-6.147833],[106.9718203,-6.1481635],[106.9718458,-6.1483855],[106.9718669,-6.1487753],[106.9718007,-6.1495257],[106.971787,-6.1498318],[106.9717638,-6.1502129],[106.9718172,-6.1502982],[106.9718553,-6.1504646],[106.9720613,-6.150571],[106.9720622,-6.1505798],[106.9721071,-6.1510516],[106.9721224,-6.1513043],[106.9721529,-6.1529776],[106.9719011,-6.1545196],[106.9718935,-6.1546145],[106.9709932,-6.1543242],[106.9709015,-6.1543386],[106.970833,-6.1543494],[106.9706194,-6.1543285],[106.9702226,-6.154297],[106.9700853,-6.1543003],[106.9698335,-6.1544481],[106.9697801,-6.1544796],[106.9694597,-6.1545292],[106.9694391,-6.1545286],[106.9690761,-6.1545183],[106.9687996,-6.1545105],[106.9686357,-6.1545058],[106.968525,-6.1545392],[106.9681038,-6.1546664],[106.9671556,-6.1549526],[106.9670681,-6.1549813],[106.965439,-6.1555153],[106.9652841,-6.1555614],[106.9650804,-6.1556221],[106.9650725,-6.1556241],[106.9644939,-6.1558309],[106.9642054,-6.1558681],[106.9639978,-6.1558948],[106.9639589,-6.1559406],[106.9639436,-6.156025],[106.9639499,-6.1560638],[106.9639589,-6.156119],[106.9639284,-6.1561991],[106.9639182,-6.1562014],[106.9639185,-6.1562661],[106.9637926,-6.1562666],[106.9636352,-6.1562672],[106.963524,-6.156293],[106.9629611,-6.1563375],[106.9629213,-6.1563407],[106.9626101,-6.1562269],[106.9619488,-6.1560404],[106.96124,-6.1558405],[106.9607855,-6.1557124],[106.9607427,-6.1557003],[106.9606558,-6.1556952],[106.9604431,-6.1556827],[106.9597449,-6.1556416],[106.9597398,-6.1556798],[106.9597207,-6.1558214],[106.9596865,-6.1560756],[106.9596483,-6.1566668],[106.9596025,-6.1573125],[106.9595945,-6.157312],[106.9595974,-6.1580868],[106.9586597,-6.1580903],[106.9585929,-6.1595343],[106.9580858,-6.1589587],[106.957561,-6.1587469],[106.9561354,-6.1581717],[106.9551195,-6.1578505],[106.955094,-6.1578424],[106.9543301,-6.1576008],[106.9542887,-6.1576263],[106.9539785,-6.1578176],[106.9537068,-6.1579852],[106.9535853,-6.1580601],[106.9531595,-6.1583227],[106.9530347,-6.1583997],[106.9527299,-6.1592483],[106.9524701,-6.1599714],[106.9528801,-6.1599886],[106.952821,-6.1604641],[106.9531515,-6.1605219],[106.9531328,-6.1606184],[106.9530565,-6.160699],[106.9530183,-6.1608029],[106.9530178,-6.1608494],[106.9530154,-6.1610682],[106.9524454,-6.1609772],[106.9524462,-6.1611966],[106.9527265,-6.1612687],[106.9526787,-6.1615004],[106.9526183,-6.1617725],[106.9525948,-6.1618784],[106.9523755,-6.1618183],[106.9523394,-6.1619403],[106.9522793,-6.1621599],[106.9523045,-6.1623913],[106.952305,-6.1625254],[106.9522643,-6.1626908],[106.952257,-6.1627205],[106.9521555,-6.162715],[106.9518868,-6.1627005],[106.9516237,-6.1626863],[106.9516066,-6.1629437],[106.9515789,-6.1633616],[106.9515776,-6.163381],[106.951282,-6.163357],[106.950859,-6.1633227],[106.950563,-6.1632803],[106.9504568,-6.1632749],[106.950425,-6.1632733],[106.9502692,-6.1632655],[106.9498674,-6.1632453],[106.9495622,-6.16323],[106.9494097,-6.1632253],[106.9492052,-6.1632183],[106.9490643,-6.1631999],[106.9487221,-6.1631552],[106.9487243,-6.1631801],[106.9481811,-6.1631639],[106.9470227,-6.1631295],[106.9463265,-6.1631089],[106.9460222,-6.1630879],[106.9456012,-6.1630615],[106.9447821,-6.16301],[106.9446565,-6.1630021],[106.944399,-6.1629941],[106.9443971,-6.162994],[106.9443978,-6.162988],[106.944401,-6.1629566],[106.9445043,-6.1619445],[106.9445192,-6.1617981],[106.9445574,-6.1612736],[106.944613,-6.1607514],[106.9446184,-6.1607009],[106.9446565,-6.1598588],[106.9446551,-6.1596822],[106.9446489,-6.1589123],[106.9446489,-6.1582463],[106.9446489,-6.1581841],[106.9446489,-6.1580863],[106.9446489,-6.158054],[106.9446609,-6.1580185],[106.9446718,-6.1579863],[106.9446871,-6.1579309],[106.9444624,-6.1571062],[106.9444124,-6.1569229],[106.9443819,-6.1568571],[106.9443819,-6.1568256],[106.9443285,-6.1562205],[106.9443056,-6.1558462],[106.9442896,-6.1554263],[106.9442827,-6.155244],[106.9442369,-6.1550866],[106.9442199,-6.1550768],[106.9441946,-6.1550621],[106.944153,-6.155038],[106.9439775,-6.1550361],[106.9433062,-6.1550604],[106.9429399,-6.1550852],[106.9419405,-6.1551376],[106.9413225,-6.1551758],[106.9412004,-6.1551834],[106.9411394,-6.1551596],[106.9409944,-6.1552344],[106.9403688,-6.1552597],[106.9403002,-6.1552616],[106.9401598,-6.1552685],[106.9401552,-6.1552687],[106.9401094,-6.1549231],[106.9400713,-6.1544882],[106.9400109,-6.1526388],[106.9399711,-6.1514228],[106.9397921,-6.1515647],[106.9396384,-6.1516423],[106.9394978,-6.1517712],[106.9393967,-6.1518349],[106.9393954,-6.1518357],[106.9392418,-6.151939],[106.9391138,-6.1520293],[106.9389394,-6.1522287],[106.9389222,-6.1522483],[106.9387053,-6.1525701],[106.9383869,-6.1532004],[106.9383021,-6.1533379],[106.9382494,-6.1534235],[106.9379491,-6.154064],[106.9376983,-6.1544604],[106.9375523,-6.1547723],[106.9373979,-6.1550842],[106.9373102,-6.1552612],[106.9371389,-6.1555437],[106.9368301,-6.1561759],[106.936567,-6.1566439],[106.9362792,-6.1572634],[106.9362117,-6.1573778],[106.9360452,-6.1576597],[106.935803,-6.1580856],[106.9356902,-6.1582879],[106.9355524,-6.1585451],[106.9353975,-6.1584834],[106.9353945,-6.1584888],[106.9353808,-6.1584841],[106.9350616,-6.1583739],[106.934753,-6.1583418],[106.9342905,-6.158314],[106.9340214,-6.1583192],[106.9336768,-6.1583457],[106.9336911,-6.1587874],[106.9337004,-6.159044],[106.9334819,-6.1590616],[106.9332765,-6.1590784],[106.9331938,-6.1590852],[106.9328421,-6.1591139],[106.9325564,-6.159137],[106.9321443,-6.1591825],[106.9320176,-6.1591114],[106.931754,-6.1591619],[106.9314299,-6.1592181],[106.9310583,-6.1592806],[106.9310289,-6.1592855],[106.9312225,-6.1596369],[106.9313392,-6.1599886],[106.9314673,-6.1604557],[106.9309892,-6.160485],[106.930555,-6.160481],[106.93011,-6.1605487],[106.929561,-6.1607267],[106.9294234,-6.1606667],[106.9289997,-6.1605362],[106.9286186,-6.1604994],[106.9286148,-6.1604991],[106.9285388,-6.1603834],[106.9281876,-6.160495],[106.9272228,-6.1606787],[106.9267484,-6.1607377],[106.9261107,-6.160871],[106.9254894,-6.1610207],[106.9246882,-6.1611874],[106.9222947,-6.162138],[106.9219904,-6.1622588],[106.9219896,-6.1622592],[106.9218908,-6.1623684],[106.9217681,-6.1625954],[106.9217075,-6.1629044],[106.9217062,-6.1629129],[106.9215968,-6.1635842],[106.9215268,-6.1641198],[106.9213058,-6.1650907],[106.921304,-6.1650986],[106.9213007,-6.165122],[106.9212238,-6.1656651],[106.9211128,-6.1661371],[106.9211123,-6.166139],[106.9209401,-6.1668705],[106.9209719,-6.1671278],[106.9210098,-6.1673598],[106.9210139,-6.167385],[106.9209902,-6.1676408],[106.9208615,-6.16789],[106.9207396,-6.1681143],[106.9206982,-6.1681904],[106.9206878,-6.1682097],[106.9206926,-6.1683436],[106.9206163,-6.1686312],[106.9203645,-6.1698046],[106.9203798,-6.1700908],[106.9203951,-6.1704613],[106.9204103,-6.1706863],[106.9204561,-6.1712304],[106.9205248,-6.1719347],[106.9205858,-6.1723734],[106.9206774,-6.1729909],[106.920746,-6.173246],[106.9208452,-6.1733342],[106.920952,-6.173441],[106.9209749,-6.1734682],[106.9209749,-6.173576],[106.9209902,-6.1738292],[106.9210894,-6.1743842],[106.9213106,-6.1756087],[106.9213176,-6.1756727],[106.921364,-6.1760965],[106.9214479,-6.1768966],[106.9218828,-6.1782351],[106.9219057,-6.178321],[106.9218904,-6.1784664],[106.9217684,-6.1790648],[106.9218675,-6.179359],[106.9219438,-6.1796175],[106.9219362,-6.1798187],[106.921898,-6.1800352],[106.9218218,-6.1802083],[106.9216311,-6.1805802],[106.9216692,-6.1806904],[106.9216997,-6.1807671],[106.9218675,-6.1811333],[106.9219133,-6.1814853],[106.9219667,-6.1815038],[106.9220201,-6.1815234],[106.9220735,-6.1815678],[106.9221269,-6.1818572],[106.9221651,-6.1820722],[106.922455,-6.1831122],[106.92231,-6.1831055],[106.9209749,-6.1830168],[106.9207918,-6.1830049],[106.920601,-6.182993],[106.9204866,-6.1829844],[106.9194795,-6.1828953],[106.9187013,-6.1828257],[106.9185487,-6.1828152],[106.9179384,-6.1827746],[106.9172441,-6.1827284],[106.9167559,-6.1826988],[106.9160845,-6.1826583],[106.9149629,-6.1825629],[106.9147493,-6.1825376],[106.9142915,-6.1824842],[106.9140779,-6.1824776],[106.9140383,-6.1824763],[106.9139864,-6.1824747],[106.9132616,-6.1825019],[106.9128649,-6.1826297],[106.9125902,-6.1827141],[106.9121477,-6.1827665],[106.9120562,-6.1827775],[106.9118425,-6.1827069],[106.9117739,-6.1826793],[106.9115145,-6.1825686],[106.9114,-6.1825209],[106.9112245,-6.1824423],[106.9111468,-6.1824046],[106.9110338,-6.1823497],[106.9109117,-6.1823173],[106.9106676,-6.1822797],[106.9105455,-6.1822897],[106.9102937,-6.1823111],[106.9101412,-6.1824289],[106.9100801,-6.1824842],[106.9100773,-6.1824825],[106.9091188,-6.1819096],[106.9088823,-6.181779],[106.9087562,-6.1817075],[106.9075548,-6.181027],[106.9066205,-6.1806382],[106.9066164,-6.1806365],[106.9065477,-6.1806069],[106.9057161,-6.1802536],[106.9052278,-6.1800466],[106.9051592,-6.1800195],[106.9044637,-6.1797291],[106.9043695,-6.1796911],[106.90437,-6.1796893],[106.904149,-6.1796007],[106.9038524,-6.1794957],[106.9036854,-6.1794265],[106.903684,-6.1794261],[106.9036268,-6.1794023],[106.902955,-6.1791573],[106.9024717,-6.1789705],[106.9020001,-6.1787601],[106.9017761,-6.1786785],[106.9016112,-6.1786319],[106.9013636,-6.1785386],[106.9013397,-6.1785346],[106.9002447,-6.1783541],[106.9000028,-6.1783569],[106.8995668,-6.178362],[106.8993837,-6.17834],[106.8992839,-6.1783284],[106.8992323,-6.1783224],[106.8992315,-6.1783217],[106.8991854,-6.1783162],[106.899113,-6.1782862],[106.8989794,-6.1782308],[106.8987845,-6.1781826],[106.8986822,-6.1781723],[106.8978731,-6.1780911],[106.8975122,-6.1780884],[106.8974992,-6.1780883],[106.8974001,-6.1780892],[106.8971788,-6.1780959],[106.8970797,-6.1780992],[106.8970033,-6.1781021],[106.8966371,-6.1780682],[106.8964312,-6.1779962],[106.8961412,-6.1778174],[106.8956835,-6.177444],[106.8954698,-6.1772524],[106.8950808,-6.1769133],[106.8943407,-6.1762224],[106.89428,-6.1761642],[106.8942724,-6.176157],[106.894272,-6.1761566],[106.8937609,-6.1756845],[106.8934633,-6.1754108],[106.8932344,-6.1752058],[106.8932332,-6.1752048],[106.8931276,-6.1751166],[106.8924486,-6.1745082],[106.892327,-6.1743997],[106.8921434,-6.1742359],[106.8916552,-6.1737342],[106.8914949,-6.1735707],[106.8913068,-6.173394],[106.8912355,-6.1733271],[106.8909532,-6.1731625],[106.8906404,-6.1729827],[106.8899192,-6.1725182],[106.8895189,-6.1722603],[106.8891909,-6.1720849],[106.8886873,-6.1718212],[106.8885805,-6.1717511],[106.8879473,-6.1713339],[106.8876039,-6.1711355],[106.8872911,-6.1709576],[106.8872454,-6.1709295],[106.8872086,-6.1709046],[106.8871996,-6.1708985],[106.8871921,-6.1708939],[106.8857849,-6.1700208],[106.8857271,-6.1699849],[106.8855211,-6.1698533],[106.8852922,-6.1697069],[106.8849031,-6.1694475],[106.884514,-6.1692095],[106.8840334,-6.1689115],[106.8837816,-6.1687694],[106.8833391,-6.1685191],[106.8830737,-6.168352],[106.8823397,-6.1678897],[106.8822786,-6.1678534],[106.8813326,-6.1672927],[106.8811342,-6.1671777],[106.8811113,-6.1671434],[106.8808367,-6.1669827],[106.8806688,-6.1668869],[106.8796465,-6.1665383],[106.8792498,-6.1664835],[106.8788073,-6.1664634],[106.8786699,-6.166451],[106.8786727,-6.1664402],[106.8789004,-6.1662703],[106.8790413,-6.1661496],[106.8790655,-6.1661289],[106.8792431,-6.1659142],[106.8794461,-6.16558],[106.8795634,-6.1653214],[106.8797239,-6.1651165],[106.8799059,-6.1649007],[106.8805747,-6.1639057],[106.8808592,-6.1633977],[106.8810491,-6.1630134],[106.8811147,-6.1628806],[106.8811803,-6.1627946],[106.8812897,-6.1626843],[106.881432,-6.1624789],[106.8813275,-6.1625002],[106.8811995,-6.1625488],[106.8810537,-6.162598]],[[106.8231620110729,-6.126510237695137],[106.8276535874935,-6.126510237695137],[106.8276535874935,-6.122018661274539],[106.8231620110729,-6.122018661274539],[106.8231620110729,-6.126510237695137]]],[[[106.8767671,-6.1003004],[106.8759581,-6.1005383],[106.87691306227941,-6.095069202750953],[106.87706092812007,-6.095069202750953],[106.87706092812007,-6.094548082930991],[106.8783376,-6.0946849],[106.8783852,-6.0953035],[106.8781948,-6.0989679],[106.8773858,-6.10011],[106.8767671,-6.1003004]]]],"type":"MultiPolygon"},"properties":{"fid":2418966,"KELAS":"ZONA PANAS","CLASS":"HOT ZONE","TEMPERATUR":"≥ 32⁰ C"}}]}